place_id,name,address,latitude,longitude,open_now
"ChIJ9URHW_pcfDkR9xxRXq5C-80","IndianOil","Huzur, Neelbad","23.190674","77.340385","true"
"ChIJGzspuORcfDkRiSJ5TyFJo9Y","Hindustan Petroleum Corporation Limited","Ground Floor Huzur, Neelbad Road, Bhopal","23.194202","77.344757","true"
"ChIJFwjWJSBdfDkRYGJFMNRLonw","SPS PETROLEUM (Bharat Petroleum)","BHOPAL CITY, Bhadbhada Road, Bhopal","23.201752","77.35466509999999","true"
"ChIJj-n8V2ZcfDkRyvC-BKGPaco","Nayara Petrol Pump","16, Sehore - Bhopal Rd, Birthariya Market, Sehore, Birthariya Market, Ratibad","23.17238499999999","77.3238121",""
"ChIJhzLf_UpDfDkRhbv47lNcD8U","Bharat Petroleum, Petrol Pump -Fill And Fly","Nehru Nagar, Bhopal","23.2125867","77.3922054","true"
"ChIJTWa8CMdCfDkRN_NHgX5puBE","Hindustan Petroleum Corporation Limited","Ground Floor, P & T Chouraha, Shastri Nagar, Bhopal","23.2263011","77.3930172","true"
"ChIJxyYxd3NDfDkRMS34s4-cuUE","Hindustan Petroleum Corporation Limited","Ground Floor, opposite Beema kunj, Kolar Rd, Bhopal","23.180938","77.417802","true"
"ChIJYU_1v5VCfDkRxsivEgGCS2g","Hindustan Petroleum Corporation Limited","Ground Floor, behind Samanvaya Bhawan, TT Nagar, Bhopal","23.2335901","77.4027701","true"
"ChIJK_MpCwBdfDkR0nzhA7O-5Lc","Shukla Puc","58RR+849, Chauraha, Neelbad","23.190797","77.3403749",""
"ChIJ07BWyhJdfDkRqFzyItKXOiA","BPCL (Gitanjali Petroleum)","VILL BARKHEDI BAJYAFT, Bhopal","23.18693499999999","77.33484399999999","true"
"ChIJWX5Ih-ldfDkRo_Smr7TvFPo","IndianOil","Ground Floor, Vajyafta, Huzur, Barkhedi, Bhopal","23.180401","77.329601","true"
"ChIJbVCRmzVpfDkRIBqv5DwoygU","IndianOil","Shop No 41, Huzur, Kala, Barkhedi, 142/3/1/120/3, Bhopal","23.2046894","77.3640102","true"
"ChIJnVLdT2ZcfDkRrDVhLmORprg","HP PETROL PUMP - LAL SINGH NILBAD","Village Nilbad, Tehsil Huzur, Bhopal","23.172379","77.32306500000001",""
"ChIJ3RwJ36pdfDkRiiKFezXe410","Nayara Petrol Pump- Shukla Petroleum","near bhadbhada, Neelbad road, near bhadbhada, Bhopal","23.2044778","77.3656503","true"
"ChIJe-kYMuFdfDkRhQVc3hdGffE","Hindustan Petroleum Corporation Limited","Ground Floor, Bhadbhada Road, Bhopal","23.205046","77.365433","true"
"ChIJTdtNcgBdfDkRINZmZ3Us-mc","Puc online checking point","6948+263, Bhadbhada Road, Barkhedi Kalan, Bhopal","23.2050001","77.3655594",""
"ChIJ7U0AI5xdfDkR3ShMOvdT7ss","Bharat Petroleum Petrol Pump , NANAK SERVICE CENTRE","POST SEMRI WAJAFTRATIBUDRATIBUD BHOPAL, M.P","23.162742","77.31252099999999","true"
"ChIJxWdUcQBdfDkRjqvxTvRvnog","Indian oil pump Ananta fuels","5854+M2, Sarvar","23.1589443","77.3051728",""
"ChIJffzivNBCfDkRrLH-UVrdjvc","IndianOil","Police Line, Nehru Nagar, Bhopal","23.211821","77.389107","true"
"ChIJi_modQRDfDkR-7Ty9Gt9PEc","General Energy Management System Pvt. Ltd.","69CX+MXC, Aradhana Nagar, Bhopal","23.221679","77.3999054","true"
"ChIJoV2gvANDfDkR5F_gazDlCBo","IndianOil","Kolar Road, Chuna Bhatti, Bhopal","23.2028972","77.4164868","true"
"ChIJ9VUIk5VCfDkR4s0Tr-bYgqk","IOCL (Major Nanke Petrol Pump)","New Market, STT Nagar, Malviya Nagar, Bhopal","23.233303","77.402328",""
"ChIJ38F8BABDfDkR9uZIHfcwC6Q","PUC centre","Police Station, 24, near TT Nagar, New Market, STT Nagar, TT Nagar, Bhopal","23.2333173","77.40234989999999",""
"ChIJ5UcXLABDfDkRBEhsmI19CU0","Major Nankay & co.","New Market, STT Nagar, Bhopal","23.2356359","77.4006229",""
"ChIJu775j3xDfDkRpMAM0quXS-o","IndianOil","Ground Floor, Huzur, Nayapura, Bagh Swaniya, Bhopal","23.164759","77.41439799999999","true"
"ChIJ96LFkQZDfDkRxcrjPCuglO0","Bharat Petroleum, Petrol Pump -Radhe Radhe Petroleum","Shanti palace, HUZUR, SHAHPURA BPL, opposite Bansal Hospital, C-198, Sector C, Shahpura, Bhopal","23.19918359999999","77.4194904","true"
"ChIJN7da4ZZDfDkR10tWCzhl3OM","Bharat Petroleum - Mahendra Fuel Point","5CJM+6P4, Rohit Nagar, Bawadiya Kalan, Gulmohar Colony, Bhopal","23.1794719","77.4387062","true"
"ChIJAQfQHFdCfDkR8g7LBouBADw","HP Petrol Pump | Ohajil Service Station","near Police Station, HPC Dealer Ohajil Service Station Hindi, near Police Station, E-5, Habib Ganj, Bhopal","23.216857","77.427928","true"
"ChIJ-1wGxoJEfDkRjdEEa7NMrIM","Indian Petroleum","5C57+6CG, Bairagarh Chichali, Kolar Rd, Bhopal","23.1580575","77.4135726",""
"ChIJw8nhRZtEfDkRvW5l_sx8PHM","Nayara Energy Petrol Pump - Shukla Energy","25, Kolar Road, Bairagarh Chichali, Bhopal","23.1527319","77.412251","true"
"ChIJJaTnK-9DfDkRJC0iMbVvf_Q","IndianOil","Ahmedpur, Narmadapuram Road, Bhopal","23.180511","77.456131","true"
"ChIJp9UaI11CfDkRdT0kdIvFyw0","BP-Bhopal City(BPCL COCO PUMP)","Anna Nagar, Zone-II, Maharana Pratap Nagar, Bhopal","23.2294661","77.43455279999999","true"
"ChIJUWvM4_pDfDkR43Az-zk2pAM","Hindustan Petroleum Corporation Limited","Ground Floor, Infront Sakleja Hospital, Narmadapuram Road, Shri Ram Colony, Bhopal","23.1735755","77.46130889999999","true"
"ChIJfc29jWlCfDkRE0FV4BaVHUs","Hindustan Petroleum","73-B, Chetak Bridge, Gautam Nagar, Housing Board Colony, Kasturba Nagar, Bhopal","23.2340213","77.4408949",""
"ChIJlzw8OKFCfDkRBe81d2XeqAA","Hindustan Petroleum Corporation Limited","Ground Floor, Kamla Park Road, Civil Lines, Bhopal","23.247801","77.396301","true"
"ChIJsYvKl39CfDkRRvLKMDkrGk8","Bharat Petroleum","7C3G+78H, POOLBOGDA, BHOPAL, Morarji Nagar, Bagh Farahat Afza, Bhopal","23.253142","77.42585969999999","true"
"ChIJMZLozqZDfDkRoTaXrSbQDfg","IndianOil","Khasra No 7/1/1 Huzur, Bawadiya Kalan, Gulmohar Colony, Bhopal","23.187661","77.426643","true"
"ChIJ417ISUVDfDkRrzYDPdCTIaA","IndianOil","Extol College, S No 80/2/1/1/2, Shahpura, Thana","23.1824007","77.4327308","true"
"ChIJk9ilHQBDfDkR0nd7EH4tXII","PUC FasTag HSRP","5CJM+6P4, Rohit Nagar, Bawadiya Kalan, Gulmohar Colony, Bhopal","23.1805125","77.4343281",""
"ChIJ_____29DfDkRwL7GlRk57xY","Maran Fuel Point","5C88+6J6, Lalita Nagar, Kolar Rd, Bhopal","23.1655327","77.4165218","true"
"ChIJr3Q68vFDfDkR2KIizqvKOdA","Ridhima Fuels (Nayara Petrol Pump)","Bawaria Kalan, Bhopal","23.1913067","77.4422293","true"
"ChIJj9QIOxJDfDkR0GruZSfeZFo","IndianOil","E-5/4, Arera Colony, Bhopal","23.213942","77.4272924","true"
"ChIJO_3J_W1DfDkRqEYHSwlWWFA","Hindustan Petroleum Corporation Limited","No E5, near Habibganj Police Station, Arera Colony, Bhopal","23.216901","77.42800100000001","true"
"ChIJ-R75QPFFfDkRgubiIaRvykM","Bharat Petroleum Petrol Pump , SHANTI FUEL STORE","GEHUNKHEDA, Kolar Rd, Bhopal","23.1585868","77.413749","true"
"ChIJw9RIEMdDfDkRmTUGiDel7H4","IndianOil","Ahmadpur, Narmadapuram Road, Bagh Swaniya, Bhopal","23.194065","77.44910399999999","true"
"ChIJU43nMUtCfDkRYLWVTfJfpqg","Hindustan Petroleum Corporation Limited","Ground Floor, near Habibganj Under Bridge, Habibganj Road, Bagsewaniya, Hoshangabad","23.20900679999999","77.4437217","true"
"ChIJR6xdrTZDfDkRZQnoAKdNbAg","Hindustan Petroleum Corporation Limited","Ground Floor, Phase 2, Huzur, Salaiya, Bhopal","23.1663528","77.44283779999999","true"
"ChIJH8ZW3fVCfDkRtt_X0eJtRIo","IndianOil","Ravishankar Shukla Market, Shivaji Nagar, Bhopal","23.2256349","77.4228688","true"
"ChIJc36vGQBDfDkRor_LlTriCA4","5 no Petrol pump Indian oil","6CGF+935, Link Road Number 2, Char Imli, Bhopal","23.2258786","77.4227427",""
"ChIJIbeZ4HxDfDkRx_TOKIdQf4k","Hd infra","L42, Kamdhenu tower, Bhopal","23.2226077","77.4371385","true"
"ChIJZ6OLCQBDfDkR1bKmKN--hSg","AAKRITI indian oil petrol pump","behind Sagar public school, 29, Lane Number 1, Phase 2, Salaiya, Bhopal","23.1659416","77.4473902",""
"ChIJ82u2jkZFfDkRSpdSot4NW20","IndianOil","S No 406, 1/2/Kh 406/2/Ka, Hinotiya Alam","23.152103","77.427928","true"
"ChIJqzFjc-9DfDkRJz2XqjUav7k","IndianOil","opposite Mansarovar Complex, Zone-II, Maharana Pratap Nagar, Bhopal","23.2263919","77.43568859999999","true"
"ChIJT2RL39RFfDkRAtnYv_gqGUQ","BPCL PETROLEUM SAAAJ PETROLEUM","245, Phase 2, Salaiya, Bhopal","23.1618024","77.4477082","true"
"ChIJRVi75V1CfDkRbiNXgD9bvF4","Sainath Enterprises","28, Service Road, 7 Number, No 6 Locality, Shivaji Nagar, Bhopal","23.2305176","77.4306404","true"
"ChIJm4txzP5DfDkReXwAEOJctzM","Modizel Biodiesel - Swadeshi Diesel","186, Zone-II Near Sargam Cinema, Zone-II, Maharana Pratap Nagar, Bhopal","23.2279611","77.43696229999999","true"
"ChIJvxsYVuRDfDkROfmYiqlh4uQ","PEB Solutions Pvt Ltd","Plot No 29 Zone, 2, Maharana Pratap Nagar, Bhopal","23.2319737","77.43441609999999","true"
"ChIJw9m5rshFfDkRurcf-je0kCI","IndianOil","S No 104, Jageer, Huzur, Rashulia, 2 & 104/3/2, Bhopal","23.142301","77.40965299999999","true"
"ChIJD1NFPmFCfDkRjtcsfccApvM","Hindustan Petroleum Corporation Limited","Police Station, near MP Nagar, Plot No 1, Jail Road, Bhopal","23.2355401","77.42875010000002","true"
"ChIJj8Zg7kFCfDkRxLjr3aCydw8","IndianOil","Ground Floor, near New, Habibganj Road, ISBT, Govindpura, Bhopal","23.231316","77.442413","true"
"ChIJ02ejpLxDfDkRnzaQmmQOaV4","Jio-bp pulse","Ground Floor, near Shri Ram Colony, Narmadapuram Road, Bawadiya Kalan, Bhopal","23.170581","77.462441","true"
"ChIJWb0LMwBDfDkRpD8uFrE3qbo","Bhopal online puc","6CMR+H46, Near Chetak Bridge, Chetak Bridge, Housing Board Colony, Bhopal","23.233904","77.44025669999999","true"
"ChIJb0eN6dhDfDkRlv6fBF7aWoE","IndianOil","Katara Hills Road, Arvind Vihar, Bagh Mugliya, Bhopal","23.194921","77.468407","true"
"ChIJ8dDt5AxDfDkRLGMhI6Ilvws","Hindustan Petroleum Corporation Limited","Ground Floor Bagsewaniya, 124-C, Phase-2, Parthsarthy Enclave, Bagmugaliya, Bhopal","23.191701","77.468701","true"
"ChIJcZ1OWQBFfDkRlaT53MjBgWo","Shri Hari Service Station","4CP5+X8C, Kolar Road, Rasuliya Inayatpur","23.1369884","77.4084325",""
"ChIJ0fXgFptCfDkRoAiB6mN4Upw","IndianOil","Ground Floor, opposite Lal Parade Ground Police, Jahangirabad, Bhopal","23.245234","77.41122399999999","true"
"ChIJo0xYhwBEfDkRJndShXNQnaI","Kanta Shrawan Misrod Fuels","Misrod, Bhopal","23.1637754","77.46728949999999","true"
"ChIJUW8nJd1BfDkRilTWGdOqh4I","Hindustan Petroleum Corporation Limited","Ground Floor, Capital filling station, Sardar Patel Nagar, Raisen Road, Sardar, Patel Nagar, Bhopal","23.249801","77.4954101","true"
"ChIJD4GZ2M1BfDkRLK6PLSHL8xA","IndianOil","Shop No 440/4, near Pradhan Mantri Awas Yojana Building, Bagmugaliya, Bhopal","23.1840061","77.4739932","true"
"ChIJC-UTw3xBfDkREqrO6wBzofQ","Power Fuels Bharat Petroleum","near Spring Valley Dew, Shop No. 1,2,3,4 Rajat Golden Nest, near Spring Valley Dew, Swarna Kunj Colony, Katara Hills, Bagmugaliya, Bhopal","23.1837707","77.4914002",""
"ChIJE2Z__ClBfDkRUNlb9cyh84c","IndianOil","S No 314, 2/6, Huzur, Katara, Bhopal","23.181901","77.492401","true"
"ChIJxYjOn5xBfDkR3K-umLAPszo","IndianOil","S No 328/1/1 Bagroda, Barrai, Bhopal","23.170561","77.502808","true"
"ChIJT7VYyIhBfDkRffJW6Adg6mY","Maa Sharda Petrol Pump","By pass, Bhopal","23.1771887","77.5107518","true"
"ChIJTzOMCABBfDkRRQH1-eK5iK0","Hindustan Petroleum Corporation Limited","Ground Floor, Barkhera Pathani, Bhopal","23.21822899999999","77.476143","true"
"ChIJZdO3fgBBfDkRgKsg6g8KX40","IndianOil","S No 404/2/1, Huzur, Barkhera Pathani, Kotra","23.21907959999999","77.4823512","true"
"ChIJ78t7q_tHfDkR3tKHjn4dxhs","Nayara Energy Petrol Pump - Rajvardhan Fuels","5G85+32F, Katara Hills Barrai Road, Bhopal","23.1651815","77.5075421",""
"ChIJ362gEwBHfDkRFbWBjp4sLbY","मीणा कृषि पम्प राम लीला मैदान, मिसरोद","5F4C+WX2, Misrod Road, Misrod, Bhopal","23.157258","77.4723767",""
"ChIJd2alOQBHfDkRk1zjfsC95kY","Ankit yadav","5F3H+3RR, Bhairopur","23.15274110000001","77.4795184",""
"ChIJo0Yh0rhHfDkR7qK43CizuLM","Nayara Energy Petrol Pump - Sarvottam Fuels","Bus Stop, Kaushal Nagar, Bhojpur Rd, Nirmal Estate, Misrod, Bhopal","23.1509838","77.477083",""
"ChIJ236bmaRGfDkRpia19NRSV8I","Hindustan Petroleum Corporation Limited","Ground Floor, Narmadapuram Road, Bhaironpur, Misrod, Bhopal","23.148401","77.47961099999999","true"
"ChIJb_3oU7dBfDkRfvq4esudToI","Hindustan Petroleum Corporation Limited","Ground Floor Huzur, New Bhopal Bypass, Khajuri Kalan, Bhopal","23.222701","77.512081","true"
"ChIJQWlp0rxGfDkRWhlQXsQfRWg","IndianOil","Misrod, Bhairopur","23.145588","77.48196399999999","true"
"ChIJo2qP90xHfDkRDbylc77LK-8","Hindustan Petroleum Corporation Limited","Ground Floor, Bhopal Bypass, Bhopal","23.143664","77.486766","true"
"ChIJC1KvJD1CfDkR9LKsDSbQe1I","IndianOil","Ground Floor, near Natraj Community Hall, Berkheda BHEL, Bhopal","23.2304723","77.45677189999999","true"
"ChIJNefPFABHfDkRa2jgliDi4rA","Indian Oil Petrol Pump","4GV2+868, Indus Towne, Ratanpur Sadak, Bhopal","23.1433314","77.5001355",""
"ChIJpamwC7hHfDkR0E8xyMRc3vg","A A ENERGY","opp. IPER Collage, near British Park, Bhojpur Road, Chan","23.1432193","77.499864","true"
"ChIJH-b2rzBHfDkRtXqwdYeuiCg","Bharat Petroleum, Petrol Pump -Shri Balaji Fuel Station","MAU ON NH3, RAJGARH","23.1386212","77.48725089999999","true"
"ChIJ76ciRLpBfDkRzLE5blsXQLA","Sure retails","opposite sos, road, Amjhira","23.2005698","77.5375794","true"
"ChIJz_dPWgBBfDkROu7ZSnrjPr0","Bharat petrol pump","6GHC+4PG, Bhopal","23.2278073","77.5218249","true"
"ChIJY9RhpDVHfDkROJcjxKWYj7E","Parmar Brothers Petrol Pump","opposite Kanha Fun City, Ratanpur Sadak, Bhopal","23.1359388","77.48801069999999",""
"ChIJV1niJMpBfDkR8vs05QB0Xiw","Hindustan Petroleum Corporation Limited","Ground Floor, Bhopal Bypass, Bhopal","23.2397732","77.511426","true"
"ChIJDWpnbx5HfDkRvX7v0Oe_dzY","KUNWARJI FULES PETROL PUMP DEEPDI","village, Bhojpur Road, Deepdi, Bhopal","23.1396188","77.5110649",""
"ChIJW415Zu9BfDkRktehDgLqj5A","IndianOil","S No 494/3/2 Amjhira, Phanda, Bhel, Bhopal","23.212791","77.539281","true"
"ChIJGcbXhRNHfDkRahq-b2UEtZQ","Laxmi Petrol","16, Narmadapuram Road, Bhopal","23.1336","77.49157389999999",""
"ChIJ_51x9ctBfDkR3ROqjrTT-fo","UKT Petrol Pump (BPCL)","by pass road, Mandideep, Bhopal","23.2434302","77.51192879999999","true"
"ChIJFTB_XQBBfDkR0BFGfiM5HNs","Puc centre fastag","6FXC+FHJ, Raisen Road, Piplani, BHEL, Bhopal","23.2489843","77.4714171",""
"ChIJGfh97rNBfDkRN8qdimo8dQE","IndianOil","Raisen Road, Sonagiri, Bhopal","23.249004","77.471367","true"
"ChIJG_JV6khBfDkRJoXfOdTJbL4","Agrizzone","Petrol Pump, Leela Tower, Piplani, Bhopal","23.2495568","77.4711398","true"
"ChIJ4dZmV91nfDkRxwBBIdc6dtc","Hindustan Petroleum Corporation Limited","Ground Floor, Lalghati, Bhopal","23.273601","77.3676301","true"
"ChIJ_7gslqJnfDkRwY1UwrcFTLk","Bharat Petroleum Petrol Pump","Block A, Hemu Kalani, Bairagarh, Bhopal","23.2720558","77.34246519999999","true"
"ChIJ5Xu-H65nfDkRC78COBJ4IkI","IOC","Raja Bhoj Airport Area, Bairagarh, Bhopal","23.2874375","77.3438125",""
"ChIJXXlJ1RpofDkRW3vd1nLuuR4","Bharat Petroleum, Petrol Pump -Taj Service Station","SULTANIA RD AT CIRCLE BHOP, Bhopal","23.262165","77.3901312","true"
"ChIJ7_xplT9ofDkRZZAdzxaANno","Reliance Petrol Pump","near Indian Oil Petrol Pump, Berasia Road, Raj Deo Colony, Qazi Camp, Bhopal","23.2746882","77.4028853","true"
"ChIJTyC9cDdofDkREw5Q3SH5pAg","Bharat Petroleum - Param Filling Station","Chhola Road, JP Nagar, Bhopal","23.2736111","77.4136731","true"
"ChIJb0kVaL9gfDkRs8vSK6fQXMQ","Bharat Petroleum","7779+M3Q, Bhauri Bypass Road, Bhopal","23.2642102","77.2677255",""
"ChIJ_-xAEABnfDkRFZg7JFsigyI","Charging station","789G+VW6, Bairagarh Road, Halalpura, Lalghati, Bhopal","23.2696712","77.3272772",""
"ChIJd40pEgRnfDkRdVWAtf9JZ6k","Reliance Petroleum","Khasra No 13, near Surana Motors, 1/1, Halalpura, Lalghati, Bhopal","23.2740304","77.35702739999999","true"
"ChIJTU6wYEFnfDkR7LJb4zOxNhM","Essar Petrol Pump","1, Bairagarh Road, Halalpura, Lalghati, Bhopal","23.27417939999999","77.3574497","true"
"ChIJTTqwRwZnfDkRRedULEeNHbM","Nayara Energy Petrol Pump - Metro Fuels","789F+84W, Bairagarh Kalan, Bairagarh, Bhopal","23.2683508","77.32282099999999",""
"ChIJpfzjbLlnfDkRPMYmB43UQqI","Sunil Sood's Petrol Pump","Laukhadi, Bairagarh, Bhopal","23.2796748","77.3509929","true"
"ChIJGw1iJhVnfDkRr-wIBa1NE48","Hindustan Petroleum Corporation Limited","Ground Floor, near Dindayal Upadhaya Krishi Upaj Mandi, Indore Road, Bhaisenkhedi, Bhopal","23.268496","77.318465","true"
"ChIJl7oGHuhnfDkRcKlfz-v-LAc","BPCL Fuel Station- Smart City Fuels","Halalpura, Lalghati, Bhopal","23.2730124","77.3658008","true"
"ChIJ7XVAg7lpfDkRkfDNEcURsGo","PUNJAB SERVICE STATION TYRE SHOP","PUNJAB SERVICE STATION, HP PETROL PUMP, Lalghati, Bhopal","23.2733875","77.36760269999999","true"
"ChIJi946jCRnfDkRDYg4DHocZf4","Bharat Petroleum Mahadev Filling Station- Petrol Pump","Lalghati Road, Tilak Nagar, Lalghati, Bhopal","23.281245","77.3607631",""
"ChIJ0VwtiIFnfDkRBap6QJeAhCI","L A FUELS","Ahead Of Chirayu Hospital , Bhaisakhedi , Bhopal Indore Highway","23.2665136","77.3118786","true"
"ChIJ612GWptnfDkRtkA-SoI1PhY","Shukla ji ka petrol pump","Airport Road, Bhopal","23.2936708","77.354034",""
"ChIJo1P-__1nfDkRKuU_hkr7okg","Nayara Petrol Pump-Trinity Fuels","79V3+GJ2, Airport Road, Raja Bhoj Airport Area, Bairagarh, Bhopal","23.2937103","77.3539632","true"
"ChIJX2iANhVnfDkRn3zrlN10JwQ","IndianOil","Lake City Fuel Station, Airport Road, Gandhi Nagar, Bhopal","23.2954315","77.3469057","true"
"ChIJoR7ooJ5nfDkRweKF-rAdh5w","IndianOil","Narsinghgarh, Road, Gandhi Nagar, Bhopal","23.296221","77.35109800000001","true"
"ChIJD-P_kFNnfDkRqEN1pjJNVvM","Amrit Fuel Station@Bharat Petroleum","7862+XM, Bhopal","23.2624367","77.3017416","true"
"ChIJ25PINblpfDkROIAPJYKTL7k","Bharat Petroleum, Petrol Pump -Happy Fuel Centre","SULTANIA ROAD BHOPAL, Bhopal","23.2620544","77.3885607","true"
"ChIJh5kFEwBnfDkRuFw4OlljLnM","Jio-bp","Ground Floor, Nh 12, Pipalner, Huzur, Gandhi Nagar, Bhopal","23.300303","77.3589484","true"
"ChIJcW36AldmfDkRZhakXiZRw0s","Jio-bp","Pipalner, Huzur, Ground Floor Nh 12, Gandhi Nagar, Bhopal","23.3028151","77.33580409999999","true"
"ChIJG8adAldmfDkRj7t-y33Jhp4","Reliance Petroleum","NH-12,VILLAGE:PIPALNER,POST_OFFICE : GANDHINAGAR, TEHSIL HUZUR BHOPAL 462036 GANDHINAGAR","23.3030248","77.33607549999999","true"
"ChIJozrczhpofDkRT7LqlFxX0Bo","Royal Market","796R+H4H, medical college, Hostel Road, Gandhi Nagar, Maulana Azad Medical College Campus, New Delhi","23.2614267","77.3903728","true"
"ChIJk-TA6BpofDkRKSVZRLDh02U","Hindustan Petroleum Corporation Limited","Ground Floor, Royal Market, near Hamidia Hospital, Sultania Road, Bhopal","23.2611701","77.3913301","true"
"ChIJq0LKTP9pfDkRQBiPAa6anPQ","Hindustan Petroleum Corporation Limited","Ground Floor, Royal Market, Sultania Road, Bhopal","23.2607201","77.39245009999999","true"
"ChIJjax3KgBnfDkReJY1YtWrAIk","Hindustan Petroleum Corporation Limited","Ground Floor, near Jail Campus Central, Gandhi Nagar, Bhopal","23.301271","77.370322","true"
"ChIJL1wSgWtpfDkRLBw2NzfY9xk","SHRADDHA INDANE","Ward No 6, Chopad Bazar","23.2696084","77.3956005",""
"ChIJZ64pHBdofDkRDJSKFWi46To","IndianOil","Model Ground, Hamidia Road, Bhopal","23.2668928","77.39749900000001","true"
"ChIJxZTRTRhofDkRwHQ-1X0ISuI","MODERN OIL AGENCY","India","23.2619761","77.3987902",""
"ChIJTSCGcVRnfDkRT543qUSLiok","Bharat Petroleum, Petrol Pump -Urja Kendra","VILL BADWAI, SHYAMPUR RD B, Bhopal","23.3009105","77.3779236","true"
"ChIJY5L_02RofDkRxutRQHkXKlU","Shiv Mandir Prem Nagar","79RR+234, Unnamed Road, Prem Nagar, Nariyalkheda, Bhopal","23.2900201","77.3902126",""
"ChIJlx59YzRnfDkR3CbwZ4LcPaQ","Mali and sons fuel station - bharat petroleum (BPCL)","near IISER college, Bhauri Bypass Road, Bhopal","23.2844896","77.2879619","true"
"ChIJq2y9xz9ofDkR5DxkT40UCqM","Hindustan Petroleum Corporation Limited","Plot No 159, Berasia Road, Qazi Camp, Bhopal","23.2739701","77.4026801","true"
"ChIJFzlugU3zfDkRXkjtQNsBPBU","IndianOil","S No, 164/1/2, Amarawat Kalan, Bhopal","23.277741","77.40204849999999","true"
"ChIJ4VkdL_9pfDkRBDQriYD2H58","IndianOil","Berasia Road, Qazi Camp, Bhopal","23.275891","77.402981","true"
"ChIJpasZqCRofDkRSmZC_I9DG0o","Indian Oil - Jetti Traders","Shop No. B - 8, Plot No. 9, Krishna Complex, Near Nadra Bus Stand, Hamidia Road, Ghora Nakkas, Peer Gate Area, Bhopal","23.2640633","77.40700149999999","true"
"ChIJCaPg_uVpfDkRVxulgoYyKpQ","CNG station","7CH3+RGX, Arif Nagar, Bhanpur, Bhopal","23.2796098","77.4038523",""
"ChIJKejfx5dpfDkRl-15c7mqXHI","M/S AARTI FILLING STATION","Gambhiriya Toraha, Khurai Road, Bhopal","23.2676","77.407768",""
"ChIJk_PjWABpfDkRDpXfMYtzqmk","Hindustan Petroleum Corporation Limited","Ground Floor, Ayodhya Bypass Road, Badwai, Bhopal","23.3034369","77.38810459999999","true"
"ChIJx_1W21RnfDkRWirZiTUph8I","IndianOil","SNo 233/1/3/1 & 304/234/1/3, Badi Ukawad, Kurana","23.318691","77.32619989999999","true"
"ChIJ3YZpdNBpfDkRPP0V-t5sLH0","Bharat Petroleum, Petrol Pump -Agarwal Automotive","WARD NO, 66, New Jail Road, Karond, Bhopal","23.3021981","77.3902738","true"
"ChIJbaaMyyRofDkRrPpAenczJGU","Hindustan Petroleum Corporation Limited","Gorund Floor, Infront of Manohar Dairy, Nadra Bus Stand, Hamidia Road, Bhopal","23.2645601","77.4088501","true"
"ChIJCWV-W61pfDkRLzWX-3RV0uE","Indian oil Depot, Indian Oil Corporation Ltd.","7CRG+345, Chandan Nagar, Oriya Basti Colony, Bhanpur, Bhopal","23.2901451","77.4253643","true"
"ChIJidM5D-1pfDkRXp-DN4eNbTU","Vijay Vallabh Bharat Petroleum Petrol pump","Ayodhya Bypass Road, Sagar Estates, Ayodhya Nagar, Bhopal","23.2778919","77.4566743","true"
"ChIJ4WzwaPlpfDkRQ3NSIZfAm1w","Kanta Shrawan Petrol Pump Bharat Petroleum","7F88+34V, Nerila Shankari, Bhopal","23.26524210000001","77.4653036","true"
"ChIJMeO2TG5pfDkRFWJF3M0QohI","Saipreet Fuels (Bharat Petroleum)","Near School, Vidisha, Main Road, Chopra Kalan","23.3171559","77.4559799","true"
"ChIJTfqWBSZofDkRUKPEARMs83w","IndianOil","Ground Floor, Patra Road, Bhopal","23.258905","77.412247","true"
"ChIJY2ww5ChofDkRO0heu7MskJg","Bhopal Garage & Service Station","India","23.2576119","77.4151918",""
"ChIJTxT5OwBpfDkR_IDCuCWQx0k","Bharat Petroleum Pump","1 Hamidia Road, Main, Railway Station Road, Dangi Colony, Ghora Nakkas, Peer Gate Area, Bhopal","23.2639155","77.4110014",""
"ChIJrQwmshBpfDkRBeIApQsxztQ","Devendra Yadav","Aishbagh Rd, Pul Patra, Barkhedi, Jahangirabad, Bhopal","23.25599459999999","77.4149432",""
"ChIJ4f22hKBpfDkRwaYBuE5HOG0","Bharat Petroleum, Petrol Pump","7C79+493, PUSHPA NAGAR TAMOLI, BPL, Bhopal","23.26277079999999","77.41842","true"
"ChIJN5lGeQBpfDkRMtrk_TQ7lUU","fame petro point","7C79+49F, Pushpa Nagar, Bhopal","23.2628014","77.41842369999999",""
"ChIJHbybLXJpfDkRsR5e8Rm3zrw","JIYALAL HP PETROL PUMP","Shop No 57 Ashoka Gardern, Pushpa Nagar Road, Bhopal","23.2628981","77.4184636",""
"ChIJCToLXwBpfDkRv5r8hoVUsiY","R.S Jain FUELS Bharat petroleum","7C39+G9R, Deori, pinoraNowrozabad","23.2538593","77.41837679999999",""
"ChIJcb-tESpofDkRTQiQAzrFgxU","IndianOil","Ground Floor, Galla Mandi Road, Junior LIG Colony, Bhopal","23.254801","77.419403","true"
"ChIJ-6lLpztofDkRkkA1JFO9zdA","KAMAL OIL COMPANY","India","23.2671649","77.4087474",""
"ChIJZfMWOIJCfDkRRUmmf2tHRLA","Rajdhani Fueling Center Jahangirabaad","82, Chiklod Road, Pratap Nagar, Jahangirabad, Bhopal","23.2516712","77.4172006","true"
"ChIJkz-IDIFCfDkR6ywDX7zJb9o","Rajdhani Petrol Pump","78, Chiklod Road, Jahangirabad, Bhopal","23.251671","77.41720099999999","true"
"ChIJaQqTDC1ofDkRsxkJujhh_-g","Hindustan Petroleum Corporation Limited","Ground Floor, Prabhat Chouraha, 80 Feet Road, Bhopal","23.264475","77.421915","true"
"ChIJvd9fQABDfDkR_hU7s558rO0","Bharat Petroleum - Petrol Station","44, Pul Bogda Road, Mandi Laxmi Ganj, Ashoka Vihar, Bhopal","23.2535392","77.4211551",""
"ChIJpbktoY9DfDkR0GoGFcJVVok","Indore","7C28+2RR, Jhangir Colony, Pratap Nagar, Jahangirabad, Bhopal","23.25","77.417","true"
"ChIJN-MipIJDfDkRG-ccja93wqg","IndianOil","S No 179179, B1/C1, Jinsi Road, Barkhedi, Jahangirabad, Bhopal","23.250717","77.420636","true"
"ChIJZTwzrw9pfDkRQczgedDDR54","THINK Gas CNG Station","VISHAL FUELS, Cholla Road, JP Nagar, Bhopal","23.2729568","77.413855","true"
"ChIJYR4KyoNpfDkRREUK7xhrY1o","Vishal Fuels (CNG)","Vishal shadi hall, near Milan garden, Cholla Road, JP Nagar, Bhopal","23.2729766","77.4138705","true"
"ChIJd4Jhu3BpfDkRX-egGLf_MOE","Hindustan Petroleum Corporation Limited","Manager Huzur, Cholla Road, Bhopal","23.272981","77.414011","true"
"ChIJ_8NPTb5pfDkRT71PcyrDMd0","Manish","Unknown Appartment, Ashoka Vihar, Bhopal","23.2608005","77.42852959999999",""
"ChIJo64aFX9CfDkR1u_HbWDNAGA","Capital Petrol Pump","Ground Floor, Infront of Gurudwara, Pul Bogda Road, New Subhash Nagar, Bhopal","23.25338009999999","77.4285501","true"
"ChIJM5NTRpRDfDkRDMn9_YfO9_k","Gas refueling center","7C3J+F6F, Ashoka Garden, Bhopal","23.2537183","77.43045289999999",""
"ChIJDwEvcABDfDkRV03iHphovWw","Kartar arcade","Prabhat Choraha, New Subhash Nagar, Old Subhash Nagar Colony, Govindpura, Bhopal","23.2521386","77.430793",""
"ChIJ__u5AgBDfDkRL1fmUzwoIxk","Prize set petrol ⛽️ in machine","7C3J+2C5, New Subhash Nagar, Ashoka Garden, Bhopal","23.252506","77.4311216",""
"ChIJb-CXNcxpfDkRa8sXDvLf4L8","Prabhat petrol pump","77, Raisen Road, Bagdil Khusa, Near Head Pump, New Ashoka Garden, Ashok Vihar, Bhopal","23.25249089999999","77.4311991",""
"ChIJyZ6qPHhCfDkRlRiATVMRkK4","HP PETROL PUMP - UNITED SALES AND SERVICE BHOPAL","Ground Floor, Infront of Gurudwara, Raisen Road, Govindpura, Bhopal","23.253421","77.435051","true"
"ChIJNTEwbndCfDkRWyPYr9Z1-Wk","यश कलेक्शन","7C2P+MM8, Subhash Nagar Road, ward 43, Old Subhash Nagar Colony, Govindpura, Bhopal","23.25167369999999","77.43670589999999",""
"ChIJ5-ZrcNRBfDkRJz6zkqDkX6E","Hindustan Petroleum Corporation Limited","Ground Floor, near New Transportnagar, New Bypass, Bhopal","23.2565165","77.51237549999999","true"
"ChIJD5CPhWZpfDkROrKsFPwABuQ","Hindustan Petroleum Corporation Limited","Ground Floor Old, SH18, Bhopal - Vidisha Highway, Chopra Kalan","23.322574","77.46226899999999","true"
"ChIJb4M5CftBfDkRV-34hcehCMs","Hindustan Petroleum Corporation Limited","Ground Floor, Raisen Road, Anandnagar, Bhopal","23.2512701","77.4789701","true"
"ChIJJW2VewBBfDkREolP3Wlzs88","Ratnagiri Titaha","7F2H+9VJ, Ayodhya Bypass Road, Ashok Vihar, Kalpana Nagar, Bhopal","23.2509541","77.4796538",""
"ChIJkVlIivdpfDkRPozw_VcF_Fk","IndianOil","Ground Floor, Narela Shankari Road, Ayodhya Bypass, Bhopal","23.269857","77.46876499999999","true"
"ChIJkzg7XUxpfDkRvdYwvqprUoA","Nitin Dhakad","Nitin Shop, Nizamuddin Road, Bhopal","23.2653345","77.4652806",""
"ChIJQdvC1cZpfDkRTwbx17KhCao","jio bp","Gulmohar nursery, near police station Bilkhiriya thana, Raisen Road, Bhopal","23.249838","77.46711800000001","true"
"ChIJB8CJDDtpfDkRtR9w7gE7W2k","LPJ ENTERPRISES","near J.K. ROAD, KHASRA NO 171/2/2, near J.K. ROAD, Nerila Shankari, Bharat Nagar, Bhopal","23.2689166","77.46530200000001","true"
"ChIJG84bBvhHfDkR8tfZfd1p9bM","IndianOil","No 3/14/116/1, S, Sector B, Indrapuri, Bhopal","23.2555779","77.4610637","true"
"ChIJ1yLZLTdpfDkRHIde7sP5fSk","Shashi Krishan Filling Station","Nizamuddin Road, 171/2/2, Narela Shankari, JK Road, Bhopal","23.2597443","77.45838499999999","true"
"ChIJFZOmI9JBfDkRtWMOksYboY8","Maruti Nandan Auto Services(Bharat Petroleum)","7G26+G8X, Patel Nagar, Bhopal","23.2513589","77.510865","true"
"ChIJy0RaAi9BfDkRfmqOuNM1fKs","Gokul Fuel Services","KHASRA NO 154, opposite prestige collage, 1/4/2, Kokta Bypass Road, Hataikheda village, Bhopal","23.259646","77.5126222","true"
"ChIJdeYc89RBfDkRHdfIeT81mtQ","IndianOil","Anand Ngr, Ground Floor, Hataikheda, TPT Ngr Govindpura, near Trinity College, Kokta Bypass Road, Bhopal","23.257301","77.51390099999999","true"
"ChIJhc07CgBBfDkRj3iRk9mxgxw","IndianOil","Shop No 25, 4/2, Khajuri Khurd, Bhopal","23.2524235","77.5131627","true"
"ChIJOW-og6RrfDkRfC9fjAKRTvE","Hindustan Petroleum Corporation Limited","Plot No 195/2, Bhopal Bypass, Shyampur, Sehore","23.2663404","77.51638100000001","true"
"ChIJm794LWNrfDkR_V3ivvb396k","Adhoc Khajuri Highway Service Station","Rani Avanyibai, Transport Nagar, Kokta","23.2707961","77.5157174","true"
"ChIJE8KTiptrfDkRR3fy53L8apc","New Diesel workshop","Rani Avanti Bai, Bhopal Bypass, New Transport Nagar, Kokta","23.2672793","77.517361","true"
"ChIJZ5EeziprfDkRvPA4OsroWvI","Bharat Petroleum, Petrol Pump -Maruti Nandan Auto Services","NEW TRANSPORTNAGAR( BHOPAL, Bhopal","23.2706633","77.51929179999999",""
"ChIJvRAzLYhqfDkR1MIkWeiPgnk","Hindustan Petroleum Corporation Limited","Ground Floor, Kokta Bypass Road, New, Bhopal Bypass, Transport Nagar, Bhopal","23.276528","77.5167201","true"
"ChIJmbdn13hpfDkRSTkppE35d0g","Star Peb India Pvt Ltd","182, New Industrial Area, Sector H, Govindpura Industrial Area, Bhopal","23.2713354","77.4455765","true"
"ChIJrdRVN5VpfDkRqhSX-pvv3EI","Hindustan Petroleum Corporation Limited","Ground Floor, Ayodhya Bypass Road, Village Damkheda, Huzur, Bhopal","23.2806501","77.4490201","true"
"ChIJxS80T-xDfDkRp2vEhyAsyXE","IndianOil","Ground Floor, Hazur, Bhanpur Kanasayia Rd","23.29529579999999","77.4969997","true"
"ChIJn41HK_BpfDkRWJUaS4WPdRI","Chirayu Air Products","126, 60 Feet Road, Subhash Colony, Bhopal","23.268089","77.43847439999999",""
"ChIJBdD1Ym5CfDkROJr1xNPltnY","IndianOil","Siddiquepur, Govindpura, Bhopal","23.2412079","77.44068209999999","true"
"ChIJq_EzZtFrfDkRUhM5NEUjEMs","SATYA FILLING STATION","Village- Kanhasaiya, Bhopal Bypass","23.3083243","77.503361","true"
"ChIJt3E4aQBpfDkR8MxsIlLhRF4","IOCL Nishatpura Petrol Pump","7CRM+PX5, Nishatpura, Bhopal","23.2917597","77.4349975","true"
"ChIJw5Hfz1xnfDkRmd7gYw8jIsU","S.S Sales and Services","National Highway 46, Bhopal","23.3329884","77.35324","true"
"ChIJ9ShU8o1nfDkRemRuGM8-Mms","Satguru filling station bhopal","88C6+FMF, Bhopal","23.321207","77.311082","true"
"ChIJEVdtnllnfDkRvQg-AplnVLc","ATHARVA RAJ HIGHWAY SERVICES,Bharat petroleum","87GX+HX, Chandukhedi","23.326426","77.29988920000001",""
"ChIJWSl0OQBpfDkRDehXs12VkXc","SHREE SHANKAR FUEL STATION","89QX+433, Arwaliya","23.3377518","77.3976745","true"
"ChIJCSGIhTJpfDkRvm-m2_eoIw4","IndianOil","S No 369/3/1/1, Arwaliya, Imliya","23.3371724","77.39847","true"
"ChIJTZqJmVRhfDkRz-SjkPQtWyQ","HP Petrol Pump","Shagampur Road, Parwaliya Sadak, Bhopal","23.3313783","77.28470150000001","true"
"ChIJC877l51pfDkRnXwdkEe4v0E","Bharat Petroleum, Petrol Pump -Reliable Carriers Private Limited.","LAMBAKHEDA, Bhopal","23.3355812","77.40090649999999","true"
"ChIJ42-vOtFvfDkRnwqNuJTZ7Ig","IndianOil","S No 292/2/2293/1 Intkhedi Sadak, Bazaria Shahajahanabad, Bhopal","23.360718","77.392603","true"
"ChIJoYkHt8BofDkRAawF3_D7zpE","Hindustan Petroleum Corporation Limited","Ground Floor, Berasia Road, Lambakheda Road, Karond, Lambakheda","23.3292201","77.4031701","true"
"ChIJwUnOHgBpfDkRJtRgSJUf4QU","करोड़ चौराहा","8C33+5R4, Karond Chauraha, Karond, Bhopal","23.302886","77.4045689",""
"ChIJDWv8fPVofDkRADlgj1f8Gzs","सिद्धी विनायक कम्युनिकेशन","India","23.2997204","77.4036435",""
"ChIJyV5bL79pfDkRBNS43Veh_m4","IndianOil","S No 51, 2/3, Kh Kalanhuzur, Karond, Bhopal","23.30234099999999","77.406868","true"
"ChIJt5FSVV5ofDkRxZEva4SvCG8","Hindustan Petroleum Corporation Limited","Ground Floor, Bhopal Berasia Road, Circle, Karond, Bhopal","23.2966288","77.40416979999999","true"
"ChIJhwYuFl1ofDkRO7ieBWEMz1E","IndianOil","Nishatpura, Berasia Road, Devki Nagar, Karond, Bhopal","23.289717","77.403161","true"
"ChIJp29hL2RvfDkRhQeAT_EwYqg","NAYARA Petrol Pump","Madhya Pradesh State Highway 23, Gol Khedi","23.3762764","77.400043","true"
"ChIJIeRTy_lofDkRhgV98CEtKEg","Hindustan Petroleum Corporation Limited","Ground Floor, opposite BMHRC, Ayodhya Bypass Road, Bhopal","23.303189","77.4139854","true"
"ChIJbXyVx19pfDkRsqLnoGWtggI","IndianOil","Khasra No 423424425, Sukhi Sevaniya, Huzur, Balampur","23.3472488","77.48105","true"
"ChIJ0-IT1axpfDkRvUJ05ESTHsY","Hindustan Petroleum Corporation Limited","near Arwalia, Ground Floor Bhopal Bypass Road, Huzur, near Arwalia, Square, Shyampur","23.342712","77.422524","true"
"ChIJm435_KZpfDkR8oSIcwTz9XI","Bharat Petroleum, Petrol Pump -Nirmal Filling Station","Karond Chauraha, Bhanpur, Bhopal","23.3038355","77.4205705","true"
"ChIJt7tc1ExpfDkRRL6QWAsYIi8","Pankaj fuel station","Imliya","23.3365246","77.4412566","true"
"ChIJvytfSNxpfDkRwZ5ggxZQdXU","HP INDIAN OIL 1 COUNTER","Shop No 68 Imaliya Road Bypass, Road, Bhopal","23.33651799999999","77.44145209999999",""
"ChIJpU2E0jVpfDkRqZ4Ym0sY2Ik","Hindustan Petroleum Corporation Limited","Ground Floor, Bhopal Bypass, Huzur, Imliya","23.3443437","77.4444942","true"
"ChIJBalsliNpfDkRh378ccJSNbY","IndianOil","Bhanpur, Bhopal","23.30253699999999","77.4347007","true"
"ChIJWz1dOABpfDkRn9R84eKvw0U","सेठी हार्डवेयर एण्ड प्लाई बोर्ड","8C2M+VWX, Bhanpur, Bhopal","23.3021422","77.43476509999999",""
"ChIJU7cKM2RpfDkRxiwZK3mtFKU","Om Petrol Pump","184, Laxmi Nagar, Bhanpur, Bhopal","23.293429","77.418419",""
"ChIJeQ7Q2VBofDkRs-_2Uyi18r4","Hindustan Petroleum Corporation Limited","near New Karond Mandi, PH No 21, Bhanpur, Bhopal","23.291912","77.41452199999999","true"
"ChIJk93eepdpfDkRk1e-Mtjpp0Q","Bhagirath Energy Station","near Vidyasagar School, Bhanpur, Bhopal","23.2953113","77.4298848",""
"ChIJ895tGqxpfDkRqfBJulI_aZI","Bharat Petroleum","7CVH+WP5, near Over Bridge, Vidisha Road, Bhanpur, Bhopal","23.2947696","77.4293697",""
"ChIJVVgKFFBofDkR_vpgf833zks","Bharat Petroleum - Vijay Vallabh Kisan Seva Kendra","Sabji Mandi Road, New Market, STT Nagar, Karond, Bhopal","23.2897455","77.4139745","true"
"ChIJObInWgBpfDkR9pfdGwg8fFY","M.S. Filling Station , Gram Imaliya","8FV6+46H, Bhopal Bypass, Imliya","23.3428798","77.4596962",""
"ChIJqS21FURpfDkRkRZVJbn-PbI","IndianOil","Ground Floor, Chopda Kala, Huzur, Bazaria Shahajahanabad, Sukhi Sewania","23.3294","77.468","false"
"ChIJjaVTtl9pfDkRQTFRJEjHErU","IndianOil","Ground Floor, Chopda Kala, Huzur, Bazaria Shahajahanabad, Sukhi Sewania","23.3294","77.468","true"
"ChIJjSIsF3NvfDkRxmk-4i_tcX0","IndianOil","Kham Kheda","23.3849159","77.3995668","true"
"ChIJ-5EG09NvfDkRkmcAMGQorII","Hindustan Petroleum Corporation Limited","Ground Floor, SH 10, Bhopal Berasia Road, Kham Kheda","23.389723","77.399434","true"
"ChIJrSe4E7JrfDkRC3GmKI7uzIM","Bharat Petroleum, Petrol Pump -Kishan Kanta Fuel Sales And Service","KOFTA BY PASS ,BHOPAL, Bhopal","23.3278874","77.48436160000001","true"
"ChIJH_dOPHVrfDkRCo_RSg3_a6M","L N Sahu Fuel Service Petrol Pump","8F8W+FC8, Bhopal","23.3161612","77.4960851","true"