place_id,name,address,latitude,longitude,open_now
"ChIJjdornF_5YjkRz1sFuwQA6tw","IndianOil","CGO Complex, Rau Square, AB Road, Indore","22.628418","75.80560299999999","true"
"ChIJQcqI1vf7YjkRV4igN8Q_5bQ","IndianOil","Emerald school, Ground Floor Ab Road, Rau, Pigdamber Infront of, Indore","22.6500876","75.8209072","true"
"ChIJZzedYV_5YjkRj2Bi1HRky8Y","HP Petrol Pump","Mega City Circle, Rau, Indore","22.6296914","75.80673329999999",""
"ChIJvYG-WPf7YjkRvVrjtptkKyo","Bharat Petroleum","Shramik Colony, Rau, Raumhow, Rdindor, NH-3, Agra Bombay Road, Ab Road, Indore","22.6452","75.8186","true"
"ChIJ18PaGgn8YjkR6mXkgUJlWhc","Bharat Petroleum, Petrol Pump -Nimar Auto Centre","HUKUMAKHEDI,RAJENDRA NGR P, Indore","22.6541723","75.821929","true"
"ChIJbZ7ibWT5YjkRMW8BpE6W-FM","Bharat Petroleum - Granth Petro/CNG Filling Station","Pigdambar","22.6155355","75.7990192","true"
"ChIJ8TzRaJP7YjkRAbIwR6c5NOo","IndianOil","Ground Floor, Indore Bypass Road, Pigdamber, Indore","22.6346429","75.8318331","true"
"ChIJKUE5NkH8YjkR3pKxzwhTjNo","Vaishnavi Fuels - Bharat Petroleum, Petrol Pump","Annapurna Road, Sudarshan Nagar, Indore","22.6796486","75.8343778","true"
"ChIJ9XrC7p75YjkRscQpDjpjNJo","IndianOil","Ground Floor Umaria, Mhow,Pigdamber, Indore","22.5966889","75.78744089999999","true"
"ChIJE8ib3kX8YjkR3iqJPtRXoTg","IndianOil","Ground Floor, Annapurna Road, Indore","22.68492","75.83652889999999","true"
"ChIJR69yWRTqETkRGRWGbYeT4aA","IndianOil","opposite Sirpur, 256, Dhar Road, Talab, Indore","22.7035478","75.80962629999999","true"
"ChIJAQVvGpX4YjkRJKUYNAG41qQ","IndianOil","Ground Floor, Amjhera","22.6168749","75.7353964","true"
"ChIJY0H-T7v9YjkRr_yWbVgPcLE","Hindustan Petroleum Corporation Limited","No 204, Dhar Road, Labriya Bheru, Indore","22.7088013","75.8297041","true"
"ChIJFxn3BlL5YjkRY6ifu5orS90","IndianOil","Survey No. 640/2 Village Rangwasa, Rangwasa Road, Rau, Indore","22.6426406","75.7954977","true"
"ChIJu6YVyIv5YjkRYqXwKvFRiWQ","IndianOil","Ground Floor Pigdamber, near Iim Indore Gate, to, Cat Sq Road, Indore","22.6322139","75.7939359","true"
"ChIJ95GC8lf5YjkRZCcg1J9W7PA","Nayara petrol pump","JRQ4+67V, CAT Road, Rau, Indore","22.6381193","75.8056845",""
"ChIJZVxH9SH9YjkRXuf-9dnwuGY","Shree Shiv Shakti Fuel Station","MR76+G7C, Parmanu Nagar, Indore","22.663809","75.8106468","true"
"ChIJQzqlaQD_YjkRWl5sXv-m3SY","SHREE SHYAM FUELS (INDIAN OIL CORPORATION LTD)","MQ98+6MG, Sindoda","22.6671982","75.7667623","true"
"ChIJW9N9HAz5YjkRhwAB0BYKatI","Hindustan Petroleum Corporation Limited","Ground Floor, AB Road, Rau, Indore","22.6303307","75.80697599999999","true"
"ChIJa345NPf7YjkRCYhLv2HCtOQ","IndianOil","Ground Floor, AB Road, Rau, Indore","22.6381003","75.813851","true"
"ChIJFabWfcH7YjkRIugtCGA64Ro","TRIVENDRA KA GHAR","JRM6+55V, Rau, Indore","22.6329859","75.8104335",""
"ChIJIUEYlw35YjkRuljj9c5k0dg","Hindustan Petroleum Corporation Limited","S No 3151/15/6/1/315/6/2, Rau - Pithampur Road, Pithampur, Indore","22.6237584","75.77317","true"
"ChIJq6uwHsP5YjkRsO5Nt2OZ69o","Mehtab fuels","315/1, Rau, Sonway","22.6234691","75.7731661","true"
"ChIJg5idOOL7YjkRA7SwNwLstaY","Shell Printpack Pvt Ltd","No 475, AB Road, Rajendra Nagar, Indore","22.653026","75.8211002",""
"ChIJByxJ3179YjkRDn3kRNvCwNY","Shubham Petroleum Indore","CAT Road, Indore","22.6710091","75.8153674","true"
"ChIJ-d0UaQD7YjkR5PDeKh2odko","Hindustan Petroleum Corporation Limited","1244/2, 1244/1/2, Survey No 950/2, AB Road, Rau, Indore","22.630991","75.818147","true"
"ChIJuxdHLwD7YjkRN3qvF1s1PXQ","A one petroleum","Ashok Vatika, 553/2/1, Rau, Indore","22.630871","75.8181464","true"
"ChIJOX5oOwD5YjkR_5R_AQL7h0I","Jirati Fuel Station","JQ8X+GCP, Pigdambar, Indore","22.616329","75.7985807",""
"ChIJnRPrCxH8YjkREgd3mNNkUw4","Bharat Petroleum, Petrol Pump -Gur Kirpa Fuels","RETIMANDI NEAR RAJENDRA NA, Indore","22.6654658","75.8225351","true"
"ChIJdXphzhb8YjkRZgIF-XCizT4","IndianOil","Survey No 25, Bijal Ret Mandi, 1/1/2, CAT Square, Rajendra Nagar, Indore","22.6681064","75.82207369999999","true"
"ChIJFZURnyH5YjkR5n_knxJx5Mk","Bharat Petroleum, Petrol Pump -M.P.Bombay Fuel Center","SONVAYE, Indore","22.6121491","75.77177309999999","true"
"ChIJ3X9--5n9YjkRPnl7qTNV3cA","Bharat Petroleum, Petrol Pump -Ratankamal Automobiles","INDORE RD, RAU, MHOW","22.6657039","75.827803","true"
"ChIJpR-24xr5YjkRKGxwNonN6OM","IndianOil","Survey No 193 Paiki, Mhow, Sonway","22.6123527","75.76982590000001","true"
"ChIJz4tnjK39YjkRzxAwjHh5NwI","हषे अॉटो गेरेज","राज बेलडीग वाले पास, आनंद नगर, इन्दौर","22.6659668","75.83016599999999","true"
"ChIJmS3ODhn_YjkRb4U7Wt94fNc","IndianOil","Ground Floor Navdapanth, NH, 59, Indore - Dhar Road, Navda, Indore","22.687835","75.76633199999999","true"
"ChIJV8tgfbP_YjkRCzltbOfRGyo","Shree jee petrol pump","MQRC+86W, Navdapanth, Shri Ram Talawali","22.6908533","75.7705795","true"
"ChIJJcCejuv9YjkRo4UEpOcchqA","Motiram fuels","near pani ki tanki, Silicon City road, near pani ki tanki, Main Road Bijalpur, Bijalpur, Indore","22.6644369","75.8338356","true"
"ChIJ2wBtxdr_YjkRPCKe7kZVZE4","Shree Jee KSK","Indore - Pithampur Road, Navdapanth, Indore","22.6899803","75.76530009999999","true"
"ChIJiaIuOQX_YjkRZz8yMRYVR20","Hindustan Petroleum Corporation Limited","Ground Floor, NH 59, Indore - Dhar Road, Nawada","22.6799805","75.75032910000002","true"
"ChIJy12lSS3_YjkRkRcSQbrkq9s","ABHINANDAN PETROL PUMP H.P.C.L","MQWQ+P3W, Indore - Dhar Road, Jawahar Tekri, Sinhasa, Indore","22.6968703","75.7877175","true"
"ChIJo8sXFOT4YjkRu9l400pDP7M","IndianOil","Ground Floor, Indore Mumbai Road, NH 3, Bhenslai, Pigdamber, Indore","22.6140135","75.7534265","true"
"ChIJnXbdhb__YjkRqOnhqNFBEbU","IndianOil","Ground Floor Dhar Road, 2, Jawahar Tekri, Indore","22.6981976","75.79319799999999","true"
"ChIJRTyHvaz5YjkRTeZvRCUURBw","Phoenix Car Fashion","near DMart, 02, hui hui hui, near DMart, Indore","22.600361","75.7910682",""
"ChIJm8EI5IH_YjkRYzxVL_F0t48","IndianOil","Ground Floor, Indore Airport, to, Indore - Dhar Road, Navdapanth, Indore","22.6958101","75.7650558","true"
"ChIJT8N36n7_YjkRyjf5YMgXUjg","Hindustan Petroleum Corporation Limited","Ground Floor, Dhar Road, Indore","22.700201","75.798001","true"
"ChIJ8aqUZxz5YjkRcKG09RxlCWo","Hp petrol pump","HQWP+3FG, Mhow - Indore Highway, Harnya Khedi","22.5951877","75.78621","true"
"ChIJa6lIb_79YjkREMsEntJQeIY","IndianOil","Ground Floor AB Road, Tejpur, Gadbai, Rajendra Nagar, Indore","22.6736","75.842","true"
"ChIJt6x-efn9YjkR-VVCxeH9u30","IndianOil","No 173/114, CGO Complex, AB Road, Tejpur Gadbadi, Indore","22.6744699","75.8420048","true"
"ChIJMaGjYRf5YjkR_x2gVBKJt50","Golu Bala","JPHH+RGV, Bagoda","22.6296106","75.7287849",""
"ChIJu4xZHe77YjkRYuhT_nyJkw0","Bharat Petroleum, Petrol Pump -Ramsingh & Sons","NIHALPURMUNDI,NH-3 BY-PASS, Indore","22.63938","75.84980270000001","true"
"ChIJU3XpejX8YjkRCpvu0Mj3MO8","HP Petrol Pump And CNG Gas Station","MRWH+4RG, Ranjeet Hanuman Road, Gumasta Nagar, Scheme 71, Lakshman Singh Gour Marg, Phooti Kothi, Gumasta Nagar, Sudama Nagar, Indore","22.6952804","75.82970809999999","true"
"ChIJkRSdOzX8YjkRE5nP-zeFov8","IndianOil","Schme No 71 Plot No 7AX, Ring Road, Indore","22.6966028","75.827997","true"
"ChIJGYcNWdL9YjkR4RW8_KEyoT4","Hindustan Petroleum Corporation Limited","Ground Floor, Agra Mumbai Road, Dwarkapuri, Indore","22.6952816","75.829791","true"
"ChIJa7oj1XP_YjkRiVX1TcOkfb4","IndianOil","Ground Floor Kalaria Dhar Road, 359 Gram, Atwada, Indore","22.680201","75.731492","true"
"ChIJVdC1TBX_YjkRiJsjrXkIN30","Samrajya Biodiesel","Dharwara","22.6501991","75.7217764",""
"ChIJ1Qwbd1r_YjkRlw0FnzTdBkA","Hindustan Petroleum Corporation Limited","Ground Floor, Indore - Pithampur Road, Bisnavda","22.70825199999999","75.764381","true"
"ChIJvYZ2E0z-YjkRceCs0PE2k-g","HP","India","22.7083721","75.76458099999999",""
"ChIJ6alIEc_9YjkRd3NOCTUiUkk","Raja Agnihotri Petrol Pump","PR4C+GFF, Indore - Dhar Road, Geeta Nagar, Indore","22.7067503","75.8224815","true"
"ChIJc61a38j9YjkRYO-4gFumYtU","Bharat Petroleum Petrol Pump And Cng","Scheme No 71, Indore","22.7057234","75.8255665",""
"ChIJ57ELyaL5YjkR26Mo1o4__sY","HP DIESEL , CNG PUMP - GOPIKISHAN CHHOGALAL","Rasalpura Mhow Indore, Agra-Bombay Road, Harnya Khedi","22.5830606","75.7787498","true"
"ChIJe-exWE_7YjkRzJUfaVLyfmw","IndianOil","Ground Floor, Khandwa Road Kelod Kartal, Datoda, Kasturba Nagar, Indore","22.64004300000001","75.88798299999999","true"
"ChIJO-f1B8D8YjkRf85XGeNgJH8","Bharat Petroleum, Petrol Pump -H.S. Road Carriers","PALDA VILLAGE,NEAR GURUDRA, Indore","22.6785507","75.8781407","true"
"ChIJrTHVYMX8YjkRIRP75vY7UwQ","Hindustan Petroleum Corporation Limited","Scheme No 94H, No 22A & 23B, Ring Road, Vijay Udyog Nagar, Udhyog Nagar, Indore","22.6896485","75.8879963","true"
"ChIJu21bis_8YjkRy0yVv3APKqg","Maharaja Agrasen Petroleum","Babulal Nagar, Dev Nagar, 180, Eastern Ring Road, Babulal Nagar, Khati Mohalla, Musakhedi, Indore","22.6895623","75.888369",""
"ChIJvbmMLy3jYjkRFBVH4oAY1aE","IndianOil","CGO Complex, 37, Nemawar Road, Udhyog Nagar, Musakhedi, Indore","22.6872796","75.9014641","true"
"ChIJmwQ9hBf9YjkRcLvgnPfxL7Q","IndianOil","near Navlakha Complex, Plot No 10B, Loha Mandi, Scheme no. 31, Indore","22.7055231","75.8711989","true"
"ChIJIWvW5wb9YjkREPL0pPMRNyk","Bharat Petroleum, Petrol Pump -Sukhmani Petro Filling Station","Palsikar Colony, Indore","22.7073924","75.8570463","true"
"ChIJ7TINFjfjYjkRmZufJdC8-Xs","Bharat Petroleum - Kumudini Enterprises","MWP5+8P4, Nemawar Road, Udhyog Nagar, Palda, Indore","22.6857564","75.90933729999999","true"
"ChIJX6NupTjjYjkRLiuI6mYbrW0","IndianOil","HSD Site No 376, Nemawar Road, Musakhedi, Datoda","22.6838604","75.9144657","true"
"ChIJSTB2GRr9YjkRAcDvz9V12RM","Bharat Petroleum","1, Nasiya Road, Chhawni, Indore","22.7117826","75.8702828",""
"ChIJoz1cryP9YjkRLKXM78hsEIs","IndianOil","CGO Complex, opposite Nehru Stadium, AB Road, Ushaganj, Indore","22.7104989","75.8803089","true"
"ChIJCy5d3hn9YjkR-5-ccFLJ7mo","Hindustan Petroleum Corporation Limited","No 26, Station Road, Kibe Compound, Indore","22.7128349","75.872265","true"
"ChIJmwQ9hBf9YjkR-pnP6VpT-lM","Laxmi Auto Service, BPCL Petrol Pump","Murai Mohalla, Jaora Compound, Indore","22.7136301","75.87533940000002","true"
"ChIJb9z7CTv9YjkRcJG7_i4hMLE","Noshirwan Petrol Pump","2, Agra Bombay Road, Geeta Bhawan Square, Indore","22.717021","75.88429099999999","true"
"ChIJ0zolujv9YjkRor3mE9go4Vg","Hindustan Petroleum Corporation Limited","Ground Floor, Mumbai Agra Road, Indore","22.7170701","75.8842901","true"
"ChIJV0jzS6_7YjkRGCLchaoaby8","Bharat Petroleum, Petrol Pump ke pss","KAILODKARTAL,INDORE BYPASS, Indore","22.6371836","75.8688569","true"
"ChIJE_EAJrv7YjkRjgfx_TpkZIM","Purwa Gas godown CCTV service electrician service","JVHF+Q7, Morod","22.6294983","75.87321829999999","true"
"ChIJoQroGwT9YjkRyDk_lNBFrxI","Ummeena","Ring Road, Ambikapuri, Indore","22.6792164","75.8628789",""
"ChIJ3dcO9iz9YjkRHm1m-YoRSis","Kale Petrolium","12 Newmarket, Indira Colony, Indore","22.6752303","75.8747209",""
"ChIJv3Qp1ez9YjkRvlbaewT2pCs","S.S. Auto Energies","Limbodi, Indore","22.670136","75.881925","true"
"ChIJmSenowf9YjkRfAK0WoILc2o","Petrol Pump","in front of GURUDWARA GATE, 44, in front of GURUDWARA GATE, Khandwa Naka, Indore","22.6765662","75.8747946",""
"ChIJPW6rn9j7YjkRm_KkD0WL6pc","Reliance Petroleum","Ground Floor, near Carmel Convent School, Sh 27, Khandwa Road, Indore","22.6362616","75.8885961","true"
"ChIJhTd5XPL8YjkRtOhAkZ9il6E","Bharat Petroleum, Petrol Pump -Prakash Auto Centre","IDA SCHEME NO.94, INDORE, Indore","22.6807156","75.86338219999999","true"
"ChIJLckoxPP8YjkRLgVCCREMGhA","Hindustan Petroleum Corporation Limited","Ground Floor Bhawarkua, near Rajiv Gandhi Circle, Ring Road, Indore","22.68190269999999","75.8611648","true"
"ChIJocghUaP9YjkRw4VQ0J-Q6Vo","PBR AUTO ENERGY","17/1/5, Pipliya Rao Ring Road, CHOHITRAM SQUARE, Indore","22.6824976","75.8579649",""
"ChIJaeQy4877YjkRQl5CebBFPPM","Bharat Petroleum, Petrol Pump -International Service Station,Kh Rd","KAILODKAR TAL,SH27,INDORE, Indore","22.632466","75.8881814","true"
"ChIJ4zs5HfT8YjkRPta0HxzYPWA","IndianOil","Plot No 1 Ring Road, Rajiv Gandhi Circle, Indore","22.6826115","75.85832479999999","true"
"ChIJZb_21q79YjkRRlsppyloHUI","Bharat petroleum","MVM4+C6W, near petrol pump, Choithram Circle, Indore","22.6836052","75.85558759999999",""
"ChIJt7rfpQT9YjkRqVJb8Bhh54c","Balaji Fuel","47A, Bholaram Ustad Marg, Sector A, Sarvanand Nagar, Pipliya Rao, Indore","22.6837916","75.8615593",""
"ChIJpyHgRPb8YjkRv_2p0Xr7s9A","Hindustan Petroleum Corporation Limited","3, No 28, near Choitram Hospital, No 17/1, Manik Bagh Road, Pipliya Rao, Indore","22.68459009999999","75.85544159999999","true"
"ChIJ7aCvbDn9YjkRslljnqP3KPE","Shree Shyam","MVM7+RQ4, Main Road, Bhawarkua, Scheme 78, Vijay Nagar, Indore","22.6845115","75.8644601",""
"ChIJK5lA1b_9YjkRHG2m6QURAhc","IndianOil","opposite Mathura Mahal Garden, 17/2, Pipliya Rao Ring Rd, opposite Mathura Mahal Garden, Choithram Hospital Road, Indore","22.68503239999999","75.85577459999999","true"
"ChIJf_kuxHv7YjkR_fY6znIvrDY","IndianOil","Ground Floor, Khandwa Road, Morod","22.6200942","75.8860864","true"
"ChIJu7hmdwD9YjkR16praEuHvqA","34, Anand Nagar Rd, near Chitawad, Davv Takshila","near Chitawad, 34, Anand Nagar Road, Davv Takshila Parisar, Indore","22.6841498","75.8792198",""
"ChIJPwwOSCX7YjkRf1TmyNGcBPA","IndianOil","Ground Floor, Khandwa Road, Morod","22.6181901","75.887468","true"
"ChIJhbG7jxb9YjkRA9QaBqugkgw","IndianOil","Rajiv Gandhi Circle, Manakbagh, BR Road, Juni, Indore","22.6916592","75.8549559","true"
"ChIJ34zFynHjYjkRUp04ie3yyvQ","Bharat Petroleum","Near Punjab Dhaba, Crescent Road,AB Road, Dudhia, Indore","22.675118","75.93607209999999",""
"ChIJV8XmgsXiYjkRPSRg7Z5BWvw","The Tasty Treat","Prem Bandhan Chopati, near Petrol Pump, Indore","22.7199068","75.9122379",""
"ChIJw3qjx6fjYjkRp8tEdwEMj7s","IndianOil","Ground Floor, Dev Guradia Road, Dosdar, Nayta Mundla, Datoda","22.6710891","75.917621",""
"ChIJBTKWtuPjYjkRXGJct6XI0zE","BIO CNG PLANT INDORE","MWGG+GWF, Nemawar Road, Indore","22.6763184","75.9273079","true"
"ChIJo2ApHfzkYjkR9MaVL-EOPG8","IndianOil","Ph No 28, Survey No 52/1, Tillor Khurd","22.6193985","75.94030219999999","true"
"ChIJUfrcEATjYjkR3GEim--_oVM","RK FUELS","MWG3+2C3, Dev Guradia Road, Udhyog Nagar, Nayta Mundla, Indore","22.6750161","75.9035335","true"
"ChIJ91PyOiXjYjkRFmbYWYTL60c","Hindustan Petroleum Corporation Limited","Ground Floor, Palda, Rto Road, Udhyog Nagar, Pathar Mundla, Indore","22.675091","75.90357399999999","true"
"ChIJc-7gV0fjYjkRANkmfXoWG4E","Hindustan Petroleum Corporation Limited","Ground Floor, Patthar Mundla, Nemawar Road, Palda, Indore","22.6821811","75.9167764","true"
"ChIJaRP1U-rjYjkRHgu0rpraQ1E","Hindustan Petroleum Corporation Limited","Ground Floor, Nemawar Road, Badia Keema","22.676001","75.954701","true"
"ChIJK0NJgjfjYjkRLjaLwrW_A5w","Bharat Petroleum, Petrol Pump -Patel Malhar Fuels","PALDA NEMAWAR ROAD,INDORE, Indore","22.6842771","75.911016","true"
"ChIJY8XAN-bjYjkR4qBMU7Cn_5I","IndianOil","Ground Floor, Nemawar Road, Musakhedi, Indore","22.685101","75.911537","true"
"ChIJM6QpRkv9YjkRDUOcqHd8ZV8","Gaurav Petrol Pump","Sanjay Gandhi Nager, 6, New RTO Road, Dinesh Nagar, Palda, Indore","22.6810238","75.8969109",""
"ChIJc7UZgjTjYjkR2D_MlRbDKX8","Reliance Petrol Pump","Dinesh Nagar, Palda, Indore","22.6867721","75.9016077","true"
"ChIJ1dX8b8LjYjkRjdb59qZJr1M","Hindustan Petroleum Corporation Limited","Gut No 148/2/3, NH 52, AB Road, Bicholi Mardana, Indore","22.6940005","75.9250425","true"
"ChIJKe9PLhjjYjkRo1eDdh0SORI","Sampat Fuels","Sampat Hills, Bicholi Mardana, Indore","22.6952393","75.92554919999999","true"
"ChIJgZBGldn9YjkRuTrSmD8w0cM","IndianOil","Khasra No 326/1, Palda, Indore","22.6872858","75.8988984","true"
"ChIJP6uvPJPjYjkRTGpZyxgOF7Y","Hindustan Petroleum Corporation Limited","Ground Floor, NH 59A, Nemawar Road, Mali Khedi","22.6790443","75.9683888","true"
"ChIJtcV3RJf9YjkRUYvt-9uzpZc","RK Fuels","270, 3, Patthar Mundla Road, or, Nayta Mundla, Indore","22.6842495","75.8907342","true"
"ChIJu0lHiLHjYjkRfrbW1eOTl20","Binjaliya Fuel Pump","Ground Floor, near Snow City, NH 52, AB Road, Bicholi Mardana, Indore","22.6983837","75.92536270000001","true"
"ChIJU3mGewDjYjkRv2DOU106VmY","अवंतिका गैस लिमिटेड ऑनलाइन पंप","MWV2+P37, Musakhedi, Indore","22.6942881","75.9001818",""
"ChIJg8SNXT3jYjkRSGOlIuB052M","IndianOil","Ground Floor, CGO Complex, Ring Road, Near Musakhedi Square, Musakhedi, Indore","22.6949072","75.900426","true"
"ChIJM1b_TQDjYjkRKdvWdNm1D-s","Palson Petroleum","Scheme No 94, PSP-2, near Club 19, Ring Road, Indore","22.6969292","75.9033275","true"
"ChIJW2R3rE3jYjkR_xLjUW0KtuU","Kanha Auto Energy By Nayara Energy","MXHG+QP, Songuradiya","22.6793912","75.9767688","true"
"ChIJLanHeADjYjkRalSEitOetaA","Bagherwal fuels","Bagherwal fuels Asrawad Buzurg satmil, Nemawar Road, Indore","22.6725092","75.9821276",""
"ChIJIVbX6q7jYjkRP-H_mMzbaCU","Hindustan Petroleum Corporation Limited","Ground Floor, Badia Keema","22.7012965","75.9537756","true"
"ChIJjyxxpcH9YjkR3BM0F7zkLi4","Mittal Petro Point","Sajan Nagar, Teen Imli Chauraha, Chitawad, Indore","22.6908418","75.88344","true"
"ChIJ1zmSIwDjYjkRiVM0Do4r_Tw","Binjaliya","PW5F+754, Bicholi Mardana, Indore","22.7081414","75.9229596",""
"ChIJ5cQ1otz8YjkRy6nKujorokY","IndianOil","CGO Complex, Survey No 182/1, Ph No 38, Chitawad Road, near Chitawad, Teen Imli Square, Navlakha, Indore","22.6916544","75.8818752","true"
"ChIJF2fYGwD9YjkRWARWYaB1cEc","Shivom fuels","182, Nemawar Road, Chitawad, Indore","22.6920684","75.8819846",""
"ChIJvx3YIgDlYjkR_FyX3RGgTSA","Indian Oil - Maa Shipra Fuels","1, Kampel road, Mundla dostdar, Indore","22.6338053","75.9903808",""
"ChIJpaPM8rTiYjkRk4Hw9eVK_Oc","Maharaja Agrasen Petroleum","94, Ring Road, Teen Imli Chauraha, Sector H, Indore","22.6933868","75.8818841",""
"ChIJrcT5ttXiYjkRTYhHrzqkE20","Eco Gas","252, Godhra Highway, Lohamandi, Pipliyahana, Indore","22.70670879999999","75.90402639999999",""
"ChIJv1LXReTjYjkRjB6XiuDM8xY","HP Petrol pump","Indore","22.6805116","75.98492279999999",""
"ChIJQcvfpKDhYjkRLthjm6MdG7E","IndianOil","Ground Floor, Baoliakhurd, NH-59A, Asrawad Buzurg","22.682336","75.9839267","true"
"ChIJy-x3CoH7YjkR6SlF_S--tbg","Bharat Petroleum, Petrol Pump -Singh Roadlines","SHIVNAGAR, SH-27,INDORE","22.592846","75.898654","true"
"ChIJ5yoIcdHiYjkRYQlhZbA1l48","Indian Biodiesel","near Radha Rameshwar Building, 206, Mahadev Totla Nagar Road, Mahadev Totla Nagar, Indore","22.7127296","75.90663909999999",""
"ChIJETXgO978YjkRnTCrgDHOUbg","Hindustan Petroleum Corporation Limited","Ground Floor, Chauraha, Navlakha, Indore","22.6982006","75.8777137","true"
"ChIJmfgcMQDjYjkRRv0-yYeBSjc","Bhura","PW98+63Q, Shiv Shakti Nagar Road, Sarv Suvidha Nagar, Indore","22.7180843","75.9152201",""
"ChIJIUIMN739YjkRVJaJFjC0Hkw","IndianOil","8, Airport Road, Indore","22.720531","75.83815799999999","true"
"ChIJJ3yy8ZX9YjkRpJRQiJXvJAk","Police Welfare Filling Station","PRFM+3Q2, near Bank of India, Airport Road, Ramchandra Nagar Extention, Chowraha, Indore","22.7226351","75.83438749999999","true"
"ChIJsTTKZpv9YjkRi0sLYwcBuO4","IndianOil","Ground Floor, VIP Road, Industrial Area, Indore","22.7323014","75.846797","true"
"ChIJ5buIJeABYzkR-clr5m_c9gs","Hindustan Petroleum Corporation Limited","Ground Floor, Depalpur Road, Gandhi Nagar, Indore","22.7408418","75.7859391","true"
"ChIJS9sTlAsBYzkR9eZ1yFL4e1Q","Aadiyta Gas Agency Godown","PQVJ+6JG, Gandhi Nagar, Indore","22.7430589","75.7815842","true"
"ChIJ5WpcXOP9YjkR8DswYVMrKKo","bp Jio","India","22.72982540000001","75.8122039",""
"ChIJsztKX5j9YjkRSRW14qdxpi0","BHADORIYA FUELS PRIVATE LIMITED","Gajadhar Nagar, 6/116/E, Airport Road, Indore","22.7300627","75.8133783",""
"ChIJLdB6WML9YjkROCaYTKE_4cI","मोदक गणेशा किराना स्टोर्स","6 - डी, नगीन नगर वैष्णो धाम मंदिर, इन्दौर","22.7182527","75.8215171",""
"ChIJk-AMO-n9YjkRE4YHcBMRfs0","HP GAS","India","22.7251139","75.822312",""
"ChIJjfs1MwECYzkR2bee_PxlVFg","IndianOil","Survey No 63, near SS Car Service Station, 6, Bijasan Road, Chota Bangarda, Indore","22.7468","75.8129001","true"
"ChIJbWhALdr9YjkRs_01LOgWtJc","S S ENTERPRISES petrol pump machinery item","Shivalay chok, Raj Nagar, Indore","22.71887019999999","75.8274823","true"
"ChIJc27nYE79YjkRPG8cR_Mxs8k","MAHESH ENTERPRISES","A 8, Dhar Road, Indore","22.708016","75.82601199999999","false"
"ChIJderLndP9YjkRh0RzDBrI4mU","Hindustan Petroleum Corporation Limited","Ground Floor, 60 Feet Road, Anjani Nagar, Indore","22.728573","75.827431","true"
"ChIJ7V6_DCj9YjkRYBaCVZNUq78","IndianOil","Ground Floor, Sirpur, Dhar Road, Lokmanya Nagar, Malharganj, Indore","22.708114","75.827354","true"
"ChIJC2IGOJT9YjkR3mMTtGvbL2M","CM Petrol Pump Puc","CM Petrol Pump, 1, Airport Road, Tirupati Nagar, Indore","22.7220141","75.8297566","true"
"ChIJ82Ud0ur9YjkRdrspoYCfMFc","C.M. Petro Point, BPCL petrol pump","Airport Road, Tirupati Nagar, Indore","22.7231933","75.8297932","true"
"ChIJA_CXBMj9YjkR_zrkNwxSSIA","HP Petrol Pump - Kimti Brothers","Hpcl Petrol Pump Labriya Bheru, 204, Dhar Road, Noorani Nagar, Indore","22.7088231","75.829664","true"
"ChIJWYKV4W0BYzkR5r5kW9UAqMs","Kanchan Shree Fuels","Ground Floor, Super Corridor, Hatod Road, Bada Bangarda, Indore","22.762438","75.785961","true"
"ChIJ2WcoPbb9YjkRGyQ5ExSYdRg","IndianOil","Ground Floor, Airport Road, Corner, Bijasan Road, APTC, Sula Khedi","22.7223021","75.8342201","true"
"ChIJ2a1n6Ln9YjkR_B3mXKLqixE","Centex","390, G N T Market, Scheme 71, Indore","22.710546","75.83465699999999",""
"ChIJhy6mWvgBYzkRKGhn6yiYTCw","IndianOil","Bada Bangarda, Indore","22.7639394","75.7837675",""
"ChIJY3FhyXD9YjkRFeUFYC6jKbc","Tirupati fuel Station","MR5, Chota Bangarda Road","22.7306316","75.83603099999999","true"
"ChIJPwvlWtf9YjkREv9q8WHK50g","Swanky Style","1145, Gumasta Nagar, Usha Nagar, Indore","22.7026125","75.8342962",""
"ChIJGxZLSAD9YjkRnPGeKsNeP9E","PAWAN automobile","PRCQ+5JW, Indore Road, Bada Ganpati, Indore","22.7204893","75.83908509999999",""
"ChIJlfEBUbL9YjkRAk3-mNvXetI","IndianOil","No 262 Bheru, Dhar Road, Labariya, Indore","22.7131011","75.8386117","true"
"ChIJe0jnHrH9YjkRFo9jh5YFaEE","BHARAT OIL CENTER","India","22.706821","75.8376241",""
"ChIJZ44BULv9YjkR3yX3wcvl6Ac","Hindustan Petroleum Corporation Limited","204, Jawahar Marg, Raj Mohalla, Indore","22.7153886","75.841032","true"
"ChIJhT3LukH8YjkRLZGe8ow77qs","Gayatri Petroleum Depot","69, Annapurna Road, Mahawar Nagar, Indore","22.7016557","75.841881",""
"ChIJVevoQc0DYzkRNoCcy4PIHDc","Arya Filling Services","near Girnar City, 245/3, Chhota Bangarda, Indore","22.7532982","75.8327839","true"
"ChIJyf2Hea79YjkR8-sSUYoLJh8","IndianOil","Babu Labh Chand, Plot No 5/61, Chhajlani Marg, Lokmanya Nagar, Indore","22.7050833","75.84425990000001","true"
"ChIJTYfNAkpZYjkRyq-v-Hc8NFg","IndianOil","Survey No 77, 2 & 77/3, Yashwantnagar, Mhow","22.7516903","75.8351825","true"
"ChIJHU2c4lL8YjkRp6D9Dcg0S90","Tera Energy","NO.1, Babu Lalchand Chajlani Road, Lokmanya Nagar, Indore","22.6969157","75.8446684",""
"ChIJoe0zLsL9YjkRb90UoamaCuY","Tanishka uniform petrolium drees supliers","102, penjan colony, Indore","22.7396275","75.84737",""
"ChIJBcIDtp39YjkRvdPRhi2oqy8","Khushi Oil","India","22.7301526","75.8508803",""
"ChIJK77elgb9YjkR-EgFR7MlkJc","D B Corner","28/1, Sukhmani Potrol Pump, Palsikar Road, Godha Colony, Indore","22.7077092","75.851663",""
"ChIJIeF8TJ39YjkRdZvfv8xUWd8","IndianOil","No 4/5, Industrial Area, Indore","22.7343964","75.8520156","true"
"ChIJF40Ly2r9YjkRvJyO01m4C_M","Hindustan Petroleum Corporation Limited, Retail Regional Office","Kapas Bhawan, Race Course Road, Dil Pasand Colony, Race Course Road, Indore","22.7252748","75.8754172","true"
"ChIJj3PK7bTiYjkRSplFneFeKQY","PALIWAL FUELS CLUB HPCL STAR","865/2, Khajrana,Ring Road Circle, Khajrana Road, Indore","22.731396","75.9014541","true"
"ChIJzeEsmjf9YjkRgTalXWfX7-4","IndianOil","New no 14/1, near Palasia, No 1/1, Old Palasia Road, Chauraha, Indore","22.7238933","75.88930669999999","true"
"ChIJy-sUPxP9YjkR-qG1BOLIXeU","Bharat Petroleum Fuel Station","33, Nehru Park Road, Saste Nagar, Nehru Park 2, Shivaji Nagar, Indore","22.7232907","75.8692726","true"
"ChIJc8S4RxT9YjkR1FzrBrvi3Y8","HP Petrol Pump (Ashok Petrol Company)","Indore, 41, Mahatma Gandhi Rd, Bhangiya, Regal Square, Rajwada, South Tukoganj, Indore","22.7204604","75.8711987","true"
"ChIJiew_QBT9YjkRpL0-Dc7fySY","IndianOil","566/1, Mahatma Gandhi Road, South Tukoganj, Indore","22.7206076","75.8722963","true"
"ChIJU9eNNTj9YjkRhswOslPAd8c","Sunil Service Station, Bharat Petroleum Petrol Pump","AB Road, Indore","22.7234256","75.88688069999999","false"
"ChIJX5CPtEz9YjkR6xjBgP_AP98","IndianOil","LIG Link Road, Ring Road, LIG Square, Indore","22.7341181","75.8996882","true"
"ChIJc_AQm1b9YjkR1CrYhZweFPU","Raghunath prasad and co . BPCL petrol pump","Infront of, Plot no 25 , Sheme no 54, AB Road, Vijay Nagar, Badi Bhamori, Indore","22.7453065","75.89422940000001","true"
"ChIJaZm6z1X9YjkRwsg4Lrh6KpY","IndianOil","No 307, AB Road, Vijay Nagar, DDU Nagar, Scheme No 54, Indore","22.7478152","75.894913","true"
"ChIJW7N1oaoCYzkRLVwYBUzmBQo","Hindustan Petroleum Corporation Limited","Ground Floor, MR 10 Road, Khajrana, Indore","22.7507359","75.89860840000001","true"
"ChIJJdEO30odYzkR-cwbz8H4Mns","Hindustan Petroleum","AB Road, Dewas Naka, Scheme No 114, Indore","22.7711008","75.9012762",""
"ChIJN22K3kodYzkRmQ1i0EI-Wsg","IndianOil","Ground Floor, AB Road, Dewas Naka, Niranjanpur, Indore","22.7716007","75.9013093","true"
"ChIJr8RqDTUdYzkRGCzZHY2sndw","Laxmi Service Station","AB Road, Dewas Naka, Scheme 78, Vijay Nagar, Indore","22.7754479","75.9024372","true"
"ChIJIVEWt6L9YjkR0BC-xjYVzkk","Pragti filling","PV95+R3H, Indore","22.7195687","75.8577258",""
"ChIJEZRiXG39YjkRM8IH7IJMad0","Shree Saibaba Diesels","12, Kibe Compound, Indore","22.7195687","75.8577258",""
"ChIJYWbLkb39YjkRr89bs4v8YGc","Ajay Petroleum And Services","Mahatma Gandhi Road, Indore","22.7195682","75.85772709999999",""
"ChIJzyj2h-j9YjkR_ZxPEJtvaSM","Sanket Enterprise","Near, Rajwada, Indore","22.7188244","75.85801839999999",""
"ChIJRU4LaEX9YjkR7wUq1s1Hh4s","Vikram Petroleum","Jawaharlal Road, Indore","22.7164477","75.8553999",""
"ChIJDde5B9_9YjkRkdjYYLwopHg","IndianOil","Ground Floor, near Rambag, Netaji Subhash Marg, Indore","22.7234","75.8583","true"
"ChIJBQQ_dL_9YjkRsDQ2l97bhuQ","बिसानी","PV96+4WV, Ranipura, Indore","22.7178643","75.86229159999999",""
"ChIJuwcH5D_9YjkRF6IoWxX0h5o","JAYRAJ FILLING STATION","nearby Pandit Ji Ka Daba, Choumela Road, Dag","22.7151169","75.8621138",""
"ChIJcaOcxe_9YjkRATN1vQGeQKA","Sonu Petroleum","Near, Laxmi Bai Nagar, Indore","22.7291011","75.8550415",""
"ChIJnQ1CiZ_9YjkR3oMTlRXosKY","IndianOil","Ground Floor, Central Jail, Snehlataganj Main Road, Sahakar Nagar, Indore","22.728968","75.863348","true"
"ChIJ____Dw79YjkR08bIRT8GgUg","Gopinath Traders","24, 10, Ware House Road, Siyaganj, Indore","22.7112847","75.8655034",""
"ChIJJ3wbcgD9YjkRAnlIlZs8eCc","Bharat Petroleum, Petrol Pump -Sukhmani Petro Filling Station","13, Palsikar Road, Nai Duniya, Pagnis Paga, Indore","22.7081307","75.8554386",""
"ChIJeVnPR_r9YjkRZ-esvo65YAI","Hindustan Petroleum Corporation Limited","Ground Floor, Mahatma Gandhi Road, Regal Square, Indore","22.720382","75.871303","true"
"ChIJl2vFOQD9YjkRUwYvOBMyb7k","PUC Suveedha Petrol Pump","566, Mahatma Gandhi Road, Nehru Park 2, Shivaji Nagar, Indore","22.7205086","75.87243579999999",""
"ChIJ41t3WgD9YjkRr4ndM-iv5fQ","bharat petrol pump","PV44+3RC, Palsikar Colony, Indore","22.7051886","75.8570266",""
"ChIJEZRiXG39YjkRm8Ww0vsGQyk","Bharat Petroleum, Petrol Pump -V.M. Modi & Sons, Indore","RNT MARG, INDORE, Indore","22.7170001","75.8731347","true"
"ChIJA6U0hBf9YjkR3urdTFnnr6c","Hindustan Petroleum Corporation Limited","Plot No 3, Madhumilan Cinema Road, Madhumilan Square, Kibe Compound, Indore","22.7134935","75.87213469999999","true"
"ChIJzQ75d3f9YjkRFan3R3iVn_4","IndianOil","1st, Battalion, Keolari Line, Pologround","22.7342565","75.8563317","true"
"ChIJZQzt_xb9YjkRUH-Qc4XR4Iw","IndianOil","CGO Complex, 8A, RNT Marg, Indore","22.716238","75.87359599999999","true"
"ChIJAepM2ez9YjkR6T7pO2jzs64","Anand Petrol Pump","PV7F+526, Unnamed Road, Murai Mohalla, Kibe Compound, Indore","22.7129151","75.8725101","true"
"ChIJf8rSUBb9YjkRBZ4rzngC28o","Mahesh Auto Sales & Service","8 A, RNT Marg, South Tukoganj, Indore","22.71677679999999","75.8740926",""
"ChIJMdOViHIdYzkRbH9ksBCyJ44","Essar-Nayara Petrol Pump","QWFP+Q47, Bypass Rd, Omaxe City 1, Nipania, Indore","22.7744181","75.93528169999999","true"
"ChIJXzp2wJYbYzkRLBesEKZZDGA","IndianOil","CGO Complex Bypass Road, NH 3, Mayakhedi, Indore","22.77674","75.93634709999999","true"
"ChIJ11z9i0odYzkRY489KAbjbq8","IndianOil","Ground Floor, AB Road, Lasudia Mori, Barlai Jagir","22.7820778","75.9053392","true"
"ChIJTS3lITIdYzkRaKWCsDy0Xr4","Nayara Petrol Pump","QWM4+R45, AB Road, Sda Compound, Lasudia Mori, Indore","22.7845221","75.9053577","true"
"ChIJQx9v2ZrjYjkRdDwfpC9HdAI","Bharat Petroleum, Petrol Pump -Gangotri Developers","KANADIA, Kanadia Main Road, Indore","22.7249666","75.9220293","true"
"ChIJJR0hD-viYjkRUY5AFJh5Kyk","Hindustan Petroleum Corporation Limited","Ground Floor, near Bypass Junction, Kanadia Main Road, Indore","22.72708870000001","75.92693349999999","true"
"ChIJVamvQgDjYjkRrh3guNN92Bc","Mahin bhai's house","PWH9+V64, Heena Palace, Indore","22.7296383","75.9180741",""
"ChIJI8EUUpnjYjkR1peiIZSNffk","essar petrol pump","128b, Kanadia Main Road, Vaibhav Nagar C- Sector, Vaibhav Nagar Sector A, Indore","22.7197992","75.91212089999999",""
"ChIJxa1lkWfjYjkRG98uSbVqVq4","Hindustan Petroleum Corporation Limited","Ground Floor, MR 9 Road, Khajrana, Indore","22.736469","75.930533","true"
"ChIJ59g0qPbjYjkRWZo0jO7arfU","Bharat Petroleum, Petrol Pump -Khajrana Petro Needs","Khajrana, Indore","22.7320085","75.9114285","true"
"ChIJqV5WdrTjYjkRjEDFL6P6GOY","Bhoriya enterprise","PWC3+694, Garipipliya Road, Swami Vivekanand Nagar, Indore","22.7205022","75.9034551","false"
"ChIJSYtqLZriYjkRrB-Bn2ZAsxQ","IndianOil","Scheme No 159, No, MR10 County Walk Township, Indore","22.7444361","75.92943","true"
"ChIJjenH9pnjYjkRiOm5_UKMk20","Hindustan Petroleum Corporation Limited","Khasra No 865, Khajrana Road, Indore","22.731201","75.901501","true"
"ChIJYy5aJaXiYjkRdBTYoz-dz1U","Paliwal Fuels","No 16, Khajrana Road, Old Palasia, Indore","22.7313691","75.90148669999999",""
"ChIJo-hSNu7jYjkRLio7Zlb7RLs","Balkishan Kushwaha","9, Indore","22.7430511","75.90963959999999",""
"ChIJB7GZOgD9YjkRyxHM5cx8dQ8","Andad","PVGV+RR6, Anand Bazar Road, Indore","22.72703659999999","75.894513",""
"ChIJ1YE7yl8dYzkRJFp-6xdKyAU","IndianOil","Ground Floor, near Apollo Db City, Nipania, Indore","22.7549626","75.92208769999999","true"
"ChIJW11hBHrjYjkRivhgnWlY64g","Aavantika Gas Limited CNG Station","Eastern Ring Road, Tapeshwari Bagh Colony, Indore","22.7486225","75.9044998",""
"ChIJm39051MdYzkR_x3Cceu2lnE","IndianOil","Mr 10, Ring Road, DDU Nagar, Crossing, Indore","22.7488009","75.9040028","true"
"ChIJWTWrivoAYzkRwNc6CLJ-yWE","Essar Petrol Pump","QQR2+X3H, Indore","22.7924493","75.7502312","true"
"ChIJEV12xq4DYzkRCykGGu2blik","IndianOil","Ground Floor, Sanwer Road, Rewati","22.7996965","75.84690570000001","true"
"ChIJ2c-7EQABYzkR3UYY7UgMvjA","Hindustan Petroleum Corporation Limited","Khasra No 75/1/2 Budhaniya, Hatod","22.782827","75.758573","true"
"ChIJZYRMXfkAYzkRZrio3IEAi-g","Hindustan Petroleum Corporation Limited","Ground Floor, Depalpur Road, Indore","22.7890701","75.7532059","true"
"ChIJSaxn1rsBYzkRz9C3xQYkZjU","Bharat Petroleum Petrol Pump , GORIGIRIJA PUMP","VILLAGE PALIYAHATHOD TEHSIL, Indore","22.829101","75.79329","true"
"ChIJG-bTz7UDYzkRfOWlOOpoizE","ESSAR Fuel Pump","QRWJ+FVC, Bardari Road, Limboda Gari","22.7961897","75.8321539",""
"ChIJL0yk4HEDYzkR8SMOq3GP6l0","shree Shrishti Fuel Tower","Bardari, Indore","22.7965327","75.83251059999999","true"
"ChIJq6LHVfwDYzkR-Eor95sQojc","Hindustan Petroleum Corporation Limited","Ground Floor Paliya, Hatod, Paliya Haidar","22.827308","75.81018100000001","true"
"ChIJWeBDG_oBYzkRGF0euXD9NyI","IndianOil","Ground Floor, Depalpur Road, Hatod","22.7971023","75.7378828","true"
"ChIJm8qxN1ACYzkRxtqrMj3A2DQ","Aavantika Gas Limited CNG Station","QRMR+5WV, 247/1, Sector E, Sanwer Road Industrial Area, Indore","22.7827646","75.843097",""
"ChIJgURNp5EAYzkR-xGvfKxfjO0","IndianOil","Sur No 178/3/2, PH No 1 Alwasa, Hatod","22.7964399","75.7295438","true"
"ChIJWTWCElsDYzkRXa7AQAYQeCM","Hindustan Petroleum Corporation Limited","Ground Floor, Paliya Road, Alwasa","22.826511","75.831352","true"
"ChIJ60V6xq4DYzkRHHRD0MQR9Y4","Kaka Shri Fuel Centre","RR2W+2P5, Bhawrasla","22.8000163","75.84684659999999",""
"ChIJo6IaCQADYzkRB4wpXP1cIu8","PUC centre","Kaka Shree petrol pump, Bhawrasla, Indore","22.8001526","75.84709740000001",""
"ChIJ21U3YlkCYzkR3Zjzq9_I76o","Hindustan Petroleum Corporation Limited","B/1, Plot No 117/A1 & 117, Narwal Sanwer Road, Industrail Area, Sector E, Indore","22.7734283","75.8476216","true"
"ChIJPdzbBgUDYzkR3udhwxP3QIY","नरवल झोन चौराहा","QRFX+54G, Sector E, Sanwer Road Industrial Area, Indore","22.7729498","75.8478234",""
"ChIJFWWMWAsBYzkRzFs7am8o5j0","Hindustan Petroleum Corporation Limited","Ground Floor Depalpur, Depalpur Road, Hatod","22.796868","75.723725","true"
"ChIJYe_tre0DYzkRHyD6yKlqlBc","Rohit Mobile Repairing Centre","RRGQ+2WV, Alwasa","22.8251177","75.83978379999999",""
"ChIJ4eiZnA0BYzkRedUelzMsQO4","IndianOil","Major District Road, Fulkaradiya","22.803403","75.72032899999999","true"
"ChIJnW7OXPsDYzkREaVBFcU6BOU","4 M ETP LD","QVF4+H5C, Sector F, Sanwer Road Industrial Area, Indore","22.7739427","75.85539059999999",""
"ChIJhQLjhPEDYzkRrG_Ka6QcTgY","Hindustan Petroleum Corporation Limited","Ground Floor, Ujjain - Indore Road, Malharganj, Baroli","22.821854","75.850527","true"
"ChIJlRpqbgADYzkROm35r-uzd9Q","SACHKHAND INDANE GES GODAM","RVC2+4XQ, Gram Baroli","22.8203205","75.85251029999999",""
"ChIJnSMwExQDYzkRP0t-f5QEIfc","Samavyaa Fuels (BPCL)","Baroli, Ujjain Road, Indore","22.8270223","75.8510259","true"
"ChIJYQfief0DYzkR9Y1XjR16wmw","Hindustan Petroleum Corporation Limited","Gram Baroli","22.8281875","75.8505625","false"
"ChIJIStDEQwDYzkR1_ZqnlOdaR8","Hindustan Petroleum Corporation Limited","Ground Floor, Sanwer Road, Malikhedi, Gram Baroli","22.828152","75.850784","true"
"ChIJmYBamvgDYzkRyGM8fR8IIsQ","Hindustan Petroleum Corporation Limited","Survey No 63/3, Sanwer Road, Banganga, Indore","22.747192","75.850611","true"
"ChIJB3z_VmwDYzkRiBO3kD2p3Oo","Maa Geeta Petrol Diesal Cng Pump","banganga main road ujjain, naka, Indore","22.7468843","75.8504516","true"
"ChIJNyYRGs4DYzkRtSUWL-MiDXE","Aaradhya Bio Diesel Company","Shop No. 185, Mr 9 Road, Indore","22.7723488","75.8649275","true"
"ChIJ8QGoEQADYzkRUs8i4_XVUKI","Pitra Kripa IOCL petrol pump","QVPG+CXW, Bhangarh, Indore","22.7861055","75.8774423","true"
"ChIJr3wuHQADYzkRg9_myBl0HCw","ATHARV FUEL BPCL","QV8C+7J6, Kashipura Road, Malvi Nagar, Shyam Nagar Annex A, Sukhliya, Indore","22.7656585","75.87152739999999","true"
"ChIJAVdUJZoCYzkRwQe35fwuRk4","Cng Petrol Pump","10, Hira Nagar Main Road, Veena Nagar, DDU Nagar, Sukhliya, Indore","22.7576453","75.869961","true"
"ChIJT4bHzpsCYzkRIopHRVBAnOA","Aavantika Gas Limited CNG Station","DDU Nagar, Sukhliya, Indore","22.7561263","75.8696746",""
"ChIJe1kxyZsCYzkRGrBBy4yz0Yk","Bharat Petroleum Petrol Pump R.B Filling Station","Hira Nagar Main Road, DDU Nagar, Sukhliya, Indore","22.7561364","75.8698096",""
"ChIJFeE2bacDYzkR2AV0O68s3KQ","Jasraj Services - Bharat Petroleum Corporation Limited","near Life Care Hospital, PSP-4 Scheme No 78, Part 2, near Life Care Hospital, Indore","22.7622018","75.88351639999999","true"
"ChIJKWGJVM0DYzkR42f724Y3Re8","Petrol pump","PVX3+VW4, opp. laxmibainagar railway station, MR4 Road, Bhagirathpura, Indore","22.7496466","75.85481399999999",""
"ChIJHbyDWzQdYzkREa8J-_2q82o","Hindustan Petroleum Corporation Limited","Ground Floor, Agra Mumbai Road, Lasudia Mori, Indore","22.7781601","75.903301","true"
"ChIJi0XkRTQdYzkRbT824b2Wfe8","IndianOil","More, Ground Floor Dewas Naka, AB Road, DDU Nagar, Lasudia Mori, Indore","22.777896","75.9040057","true"
"ChIJ25bsgjUdYzkRixOJXvNlLdU","Hindustan Petroleum Corporation Limited","Ground Floor, Mumbai Agra Road, Niranjanpur, Indore","22.774501","75.903001","true"
"ChIJo3gCjEodYzkROti37bdkl3g","IndianOil","No 412, 3, Dewas Naka, Niranjanpur, Indore","22.772999","75.902596","true"
"ChIJ3xEIEy4dYzkRSSJZoJpsXj4","Hindustan Petroleum Corporation Limited","Ground Floor, Lasudia Mori, Indore","22.78751","75.90693999999999","true"
"ChIJ9XXmkGH9YjkRxl5itZeUtrQ","Hindustan Petroleum Corporation Limited","3/1, Pardesipura, Indore","22.746001","75.8718001","true"
"ChIJbZF0bKQdYzkRLxicb3c178E","Service centre","KM 101, AB Road, Dewas Naka, Lasudia Mori, Indore","22.78849","75.907124",""
"ChIJ_yAUPAADYzkR2_B9Utlz5lM","Friends enterprises indore","PVXP+V78, gali 04, Banganga, Ram Nagar, Indore","22.7496544","75.8857096",""
"ChIJw1prcw2nYzkRPFYFEh8K9HU","IndianOil","Ground Floor, Sanwer, Hansa Khedi, Fatehabad Chandrawatiganj","22.782834","75.90989499999999","true"
"ChIJU-niTqgCYzkRMIpkbusix68","IndianOil","near Sayaji Hotel, MR 10 Road, DDU Nagar, Scheme No 54, Indore","22.7515091","75.8906811","true"
"ChIJwSauKioDYzkRy1ir3wNrBho","Essar Petrol Pump","QV2R+853, Sayaji Club Rd, Suyash Vihar, Bhamori, Vijay Nagar, Indore","22.7507584","75.89041859999999","true"
"ChIJiy4qiCwDYzkRvzeD8qRiIa0","Ranjana hp","QV3V+8F8, Vijay Nagar, Madhepura","22.7532848","75.8936962",""
"ChIJXcrrzhEDYzkRt-2_1hZftTk","BABA MOTORS LTD","Shop No 15, AB Road, Panodiya Biaora, Indore","22.75815790000001","75.899826",""
"ChIJXXcb5JIcYzkRozT7-a07cnM","IndianOil","Lock No 29/2, Agra - Mumbai Highway, Manglaya Sadak, Ratlam","22.8252836","75.93208709999999","true"
"ChIJfWkFkukdYzkReR4C8B_zU_A","Jio-bp","opposite Hpc Bottling Plant, Ground Floor Nh 3, Ab Road, Sanwer, Lasudia Parmar, opposite Hpc Bottling Plant, Indore","22.8417857","75.9435397","true"
"ChIJOdc3HAAdYzkRre_RGx_8tLc","S R KUMAWAT FUELS (BPCL)","QWRQ+J3W, Manglaya Sadak, Indore","22.79178","75.937046","true"
"ChIJRczE8T0dYzkRpVNhOhBFzkg","Tamanna Shri gas agency","QWJ6+VXR, Talab road, Dewas Naka, Lasudia Mori, Indore","22.78224089999999","75.91238299999999",""
"ChIJlfnK4DgdYzkRfmF7ux4qXgM","Bharat Petroleum Petrol Pump , SHREE SAI FILLING CENTER","AB Road, ROADMANGALIYA, Indore","22.7980169","75.9124435","true"
"ChIJqYvy6-YdYzkRG7DjoLXDcw8","IndianOil","11 AB Road, Talawali Chanda Lane, Manglaya Sadak, Indore","22.8017902","75.91411880000001","true"
"ChIJPSJdjAMdYzkR6DI6kgjrFaM","Nayara Petrol Pump - Vindheshwari Fuels","near SS Infinitus, MR11 Road, Lasudia Mori, Indore","22.7743029","75.9152713","true"
"ChIJvcwi6BcdYzkRTUnONKqRD7M","NR Yadav Fuel (BPCL)","QWG6+3W8, MR11 Road, Dewas Naka, Lasudia Mori, Indore","22.7751541","75.9123194",""
"ChIJ30cIbM8DYzkRQsnn0dJV1HQ","IndianOil","Ground Floor, near Regenta Hotel, NH 3, Manglaya Sadak, sanwer","22.8129164","75.93711739999999","true"
"ChIJ5am_xEUdYzkRG_a3HkIkeSo","Hindustan Petroleum Corporation Limited","Ground Floor, near Bhawan Prominent School, Nipania Main Road, Pipliya Kumar, Indore","22.768436","75.9133174","true"
"ChIJNeEyATodYzkRPJqKvpS4a20","Bharat Petroleum Petrol Pump , PAWAN FUELS","Ring Road, Indore","22.7708622","75.9095262","true"
"ChIJbc1_ecIcYzkRIMk0sBX7vCs","BPCL Manglia Depot","Manglaya Sadak, Indore","22.8143491","75.9227378",""
"ChIJz53M5h4dYzkRYGzQA6Ol2iQ","Oberoi filling station","near BALAJI SKYZ, nipani main road, Tulsi Nagar, Nipania, Indore","22.7669371","75.9156835","true"
"ChIJebUL6mUdYzkRAAAA0PMoJkw","Parida Shop","QW7J+92W, Nipaniya Road, Vijay Nagar, Indore","22.7634752","75.9300672",""
"ChIJLdmTlM0dYzkRZFSwVF-dMeY","Shaddow infrastructure &investments Org","21, Royal Bungalow, Nipania, Indore","22.76307","75.9258739",""
"ChIJ58ETuCsdYzkRrJyrpBiU1uc","IndianOil","CGO Complex, near Oscian Park, Nipania, Indore","22.7605498","75.92976519999999","true"
"ChIJHYgGSwAdYzkRgTNBd-8UDr0","HPCL T.T driver room","RW9C+FVX, Manglaya Sadak, Indore","22.8187495","75.92223419999999",""
"ChIJISxrKgAdYzkRi9dEBU0sYIU","Office DLS INFRAMAKER","Singapore British Park, near Dewas Naka, 157-B, Indore","22.813066","75.906305","true"
"ChIJ01NI738dYzkRf74Hd6X1xtc","RAM PETROL PUMP","RAM PETROL PUMP, Indore","22.7587391","75.92013539999999",""
"ChIJawDm1wUdYzkRa4l8-ma5pQ8","Sharanya Mobilities","282/4, Indore","22.8200172","75.9383757","true"
"ChIJSW52Wk0dYzkRqa27yDYb9Po","Reva Kishan sewa kendra","Sula Khedi Road, Manglaya Sadak, Indore","22.8182455","75.9437674","true"
"ChIJZzo2Q5AdYzkRXO0OMUDvP38","Hindustan Petroleum","Hindustan Petroleum, Indore","22.7576054","75.9218446",""
"ChIJl9e3qUkdYzkRqlZmX6hJPBw","IndianOil","Survey No 12/3, Ph, No 60, Sanwer, Sullakhedi, Barlai Jagir","22.8185001","75.94380009999999","true"
"ChIJzY0tpQYdYzkRmaMaWA3e1ZI","Bharat Petroleum, Petrol Pump -Sun N Deep Filling Center","Ring Road, Pipliya Kumar, Indore","22.763336","75.90590089999999","true"
"ChIJP_ykAvsdYzkRELCO0GgG8Ac","IndianOil","Ground Floor Sanwer, Gari Pipliya, Barlai Jagir","22.8270845","75.9164632","true"
"ChIJq8RhMgAdYzkRvnyrFavxKcE","HP petrol and CNG pump","RWJ7+6QC, Gari Pipalya","22.8305516","75.9143867",""
"ChIJo1ICWgADYzkRHb6jpBnJYbY","I P FUEL STATION","Vijay Nagar, Bhagyashree Colony, Indore","22.7507219","75.8986832","true"
"ChIJwYuiA4YcYzkRu5qaBkqs8Wg","IndianOil","KM Stone, Ground Floor NH 3, Raukhedi,Badayala Mata, near No 591/2, Ratlam","22.836144","75.940902","true"