place_id,name,address,latitude,longitude,open_now
"ChIJW-0EYo6ygTkRIIDvTxFF6tE","Reliance Petroleum","Ground Floor, Nh 7, Jabalpur - Nagpur Road, Tilwara","23.0966279","79.9034585","true"
"ChIJbe0yG_GtgTkR23-vG1akqPI","IndianOil","Ground Floor, Narmada Road, Rampur Choraha, Agasaud, Jabalpur","23.1382023","79.92738709999999","true"
"ChIJKz78llWygTkRqMEPkGJbAN4","Hindustan Petroleum Corporation Limited","Ground Floor, NH 7, Seoni Road, Jabalpur","23.1051112","79.8781549","true"
"ChIJ67tblfexgTkRgC0abl5TZZo","Hindustan Petroleum Corporation Limited","Ground Floor, Nagpur Road, Jabalpur","23.15437039999999","79.90665949999999","true"
"ChIJud0JNgKugTkRS3RQGx07Mns","Hindustan Petroleum Corporation Limited","Madan Mahal, near Health Camp, Plot No 205, Jabalpur","23.1610616","79.9217177","true"
"ChIJw_uFZw-ugTkRnLd2ybVwgl4","Anil Brothers","1689,Napier Town, Model Road, Jabalpur","23.1621761","79.93062789999999","true"
"ChIJg3oBa9itgTkRoyMB68do6-s","Hindustan Petroleum Corporation Limited","Ground Floor, Sadar, Jabalpur","23.1544354","79.9513159","true"
"ChIJHUOCgXuugTkRLDaPRmTKuTk","Bharat Petroleum Petrol Pump","10, Civil Lines Road, Housing Board Colony, Prestige Town, South Civil Lines, Jabalpur","23.1646106","79.95813369999999","true"
"ChIJzV8VV2mugTkRbtpRKQM6e0E","Bharat Petroleum Petrol Pump - Singhai Automobiles","444/2, BeoharBagh, Ghamapur, Jabalpur","23.173761","79.9475729","true"
"ChIJURwwio6ygTkRzPUiDXH6quo","Jio Bp","India","23.0967839","79.90357209999999",""
"ChIJkx5PevSygTkRDkbH66XZEQg","Hindustan Petroleum Corporation Limited","Ground Floor, NH 7, Ghana","23.099431","79.8935223","true"
"ChIJgR1iWL6tgTkRTUAmZFlaIyo","Medical","245, Unao Road, Datia","23.0990341","79.9407476",""
"ChIJORYHRkazgTkRFifpv5lhQEk","Bharat Petroleum, Petrol Pump -G.P Petroleum","NH-7 JABALPUR, MANEGAON, J, Jabalpur","23.0735892","79.9138889","true"
"ChIJ2SZ3AzetgTkRMcIcoMzmpdk","IndianOil","Khasra No 719, Gorakhpur, Agasod","23.1492734","79.9270568","true"
"ChIJH6WZ36WygTkRFh6N4UFAo54","IndianOil","Ground Floor Manegaon, NH 7, Bargi","23.0723867","79.91344","true"
"ChIJGwtINt2zgTkR0bBbk-qowGg","Bharat Petroleum, Petrol Pump -Dubey Petroleum","TILWARA, JABALPUR, Jabalpur","23.11635309999999","79.8739579","true"
"ChIJqyHSM3ezgTkRc5jSY4VCC3s","MAHUL PETROLEUM","Sharda Chowk, Jabalpur","23.1501192","79.90621709999999",""
"ChIJsw64QuOtgTkRQUguNjeSc1I","Handa Petrolubes","1800, Gorakhpur, Jabalpur","23.14940589999999","79.93197339999999","true"
"ChIJP9_fvPixgTkR7KHaJJcDkaQ","Bharat Petroleum","India","23.153994","79.9124552",""
"ChIJ7eNSvfixgTkRFxjHJmsHuBY","Gulati Petrol Pump","Nagpur Road, Madan Mahal, Jabalpur","23.1540133","79.9123789","true"
"ChIJe54JcDitgTkRqBd3Mu6kvOI","IndianOil","Ground Floor, Gorakhpur, Jabalpur","23.152533","79.933334","true"
"ChIJB0gPPzOygTkRKevrICw27is","Hindustan Petroleum Corporation Limited","Ground Floor, Ward, Main Road, Purwa, Tewar","23.1347343","79.8756846","true"
"ChIJ7zTF-eCxgTkRAeFk_j6Mfh8","IndianOil","Madanmahal & Medical, Tiraha, Gupteshwer Ward, Maheshpur, Jabalpur","23.1557","79.9155","true"
"ChIJK2KvsfexgTkRV_avmkvooqc","Reliance Petroleum","Ground Floor, Nagpur Road, Rani Durgawati, Jabalpur","23.1547985","79.9057875","true"
"ChIJSfqKNQGvgTkRT53kxtxfO-w","Bharat Petrol Pump","Maharajpur Housing Board, Jabalpur","23.1558747","79.9236337",""
"ChIJ21tQLP6xgTkRDgLSERRmr0U","IndianOil","Ground Floor, Railway Station, near Madan Mahal, Premnagar, Jabalpur","23.15667909999999","79.91871499999999","true"
"ChIJ8RIhI0usgTkRPYYP8UTIwdU","IndianOil","Ground Floor, 311/2, Bilhari, Jabalpur","23.129379","79.965248","true"
"ChIJvfShbF2zgTkRduGk9bbQlIg","Vijay Kiran Petroleum","Village Ghunsor Chargawana, Raod, Jabalpur","23.1032653","79.8645554",""
"ChIJyYA5SL-tgTkR32xRhaSPIMQ","IndianOil","Cantonment, near Shivaji Stadium, Sadar, Jabalpur","23.1541992","79.9420294",""
"ChIJc5xL-9-tgTkRYwBzW1SNsDM","XTRACARE","India","23.154345","79.9420739",""
"ChIJe-F7dgCxgTkRhWUCSdpbBoU","IndianOil","Ground Floor, Garha, Amahinota","23.1600452","79.9063652","true"
"ChIJhWap9OqzgTkRT8eqveDI6E4","Reliance Petroleum","Ground Floor, Narsinghpur","23.151122","79.884181","true"
"ChIJU5cJaeOtgTkRci2LiZg3TXc","Bharat Petroleum","Malhotra Compound, Sadar, Jabalpur","23.1542878","79.94353459999999","true"
"ChIJ322GAletgTkRn61LHcpYcg8","Hindustan Petroleum Corporation Limited","Ground Floor, adjacent to Vijan Mahal, Mandla - Jabalpur Road, Tilhari","23.123988","79.9688698","true"
"ChIJn0XudcqtgTkRjegUZEcCveo","IndianOil","Ranji, Khasra No 117/2/ 118, Tilhari","23.1228283","79.96977799999999","true"
"ChIJFcaX_CezgTkR6xUYAlXFZEw","IndianOil","near NH7, Lamheta Ghat Road, Jabalpur","23.1316177","79.8643908","true"
"ChIJXcKfzUWvgTkR2AH2JnpZHyw","IndianOil","Ground Floor, near jabalpur hospital, Bhavartal Garden Road, Jabalpur","23.1614","79.93509999999999","true"
"ChIJ9TOJkPmzgTkR7BJA__ZlmZo","Proposed Reliance Petroleum (Sheghal)","3W55+GXH, National Highway 34, Khursi","23.0588138","79.9099766",""
"ChIJWaFQYdCtgTkRXOldGxzABxU","Bharat Petroleum, Petrol Pump","Jabalpur Road, Bilhari","23.1159489","79.97440929999999","true"
"ChIJXXbRmA-ugTkRCDMEgdb1aoE","Indian Oil: Motor Mitra Petrol Pump","st norbert school, 117, Model Road, Beside, Near, Bhavartal Garden Road, Napier Town, Jabalpur","23.163539","79.9316281","true"
"ChIJVUMgOwyugTkRrwfmTbzcF4k","Ludhiana Service Station","5W7P+3P4, near Hospital, Russel Chowk, Napier Town, Jabalpur","23.16264","79.936838",""
"ChIJB1_bUQCxgTkRfvUCeFtY0h8","Sheelkunj hostel","Sheelkunj hostel, JDA scheme, laxmimarg, Sneh Nagar, Jabalpur","23.1662039","79.9120208",""
"ChIJsWO08eSxgTkR3VjD5U7WJww","Hindustan Petroleum Corporation Limited","Ground Floor, Garha Road, Yadav Colony, Jabalpur","23.1671909","79.91175290000001","true"
"ChIJ3Y3gjTCtgTkR3RYlGpM6230","JABALPUR PETROLEUM","National Highway 30, Jamtara","23.1076822","79.97775","true"
"ChIJnc3L2Q-ugTkR0huNMdweMdA","Hindustan Petroleum Corporation Limited","Ground Floor, opposite Municipal Corporation, Marhatal, Jabalpur","23.166112","79.9324632","true"
"ChIJtYJjSbavgTkRLsQE3JOzyfQ","IndianOil","Block No 03, Plot No 19/1, South Civil Lines, Jabalpur","23.162228","79.94476519999999","true"
"ChIJOdXVEwCxgTkRU6w7uRBLWmU","Puc Fastag available","5V8W+59P, Janki Nagar, Jabalpur","23.1654602","79.89595469999999",""
"ChIJR444hByugTkRPR1wkpztNG8","IndianOil","Ranital Chowk, Wright Town, Jabalpur","23.1681891","79.9243269","true"
"ChIJ_____zasgTkRVYGfc2lxF1Q","BILHARI PPETROL PUMP","MAHAWAR COMPLEX, Bilhari, Jabalpur","23.1363951","79.9724245",""
"ChIJoWNBUoOvgTkRE6m--_bQlVI","City fuel","10, Ground floor, Inside City Hospital, Nagrath Chowk, South Civil Lines, Jabalpur","23.1624907","79.94508119999999",""
"ChIJW-sIqMCvgTkRO40E7kl8C6U","Bharat Petroleum, Petrol Pump -Nagpal Gulatee & Co.","JABALPUR MADAN MAHAL, JABA, Jabalpur","23.1638681","79.94436619999999","true"
"ChIJs1N9fA2ugTkRU4eirl10mQE","TAYEBALI SULEMANJI PETROL PUMP","Tayebali Chowk, Napier Town, Jabalpur","23.1661257","79.9397304","true"
"ChIJo4v5QguvgTkReNlXJtEOzak","Indus","near Jayanti Complex, 42/3, HARISINGH COLONY, Marhatal, Jabalpur","23.1684466","79.93577169999999","true"
"ChIJy-_IWgCtgTkRP_mNzj4qZh0","SHRI VIJAY HP URJA KENDRA","4X4P+2XM, Rani Durgawati Samadhi Road, Narrai, Jabalpur","23.1050835","79.9874222",""
"ChIJSaraACKugTkRhV7kRgex5LQ","NP GAS","India","23.1773857","79.92495749999999",""
"ChIJ64FPC8SvgTkRJplUnXCcueU","Hindustan Petroleum Corporation Limited","Ground Floor, Jeewan Colony, Baldeobagh, Jabalpur","23.1779101","79.9250201","true"
"ChIJHfl-9G2zgTkRJp-Jcy3aNXs","IndianOil","Ground Floor, Seoni Tola, Chargawan Road, Agasaud, Jabalpur","23.089509","79.847482","true"
"ChIJJ8yTFpOxgTkRHWZxy4iHl-Q","LPG pump Go Gas ALDS","Janki Nagar, Jabalpur","23.17898","79.9146739","true"
"ChIJLf7EEP-xgTkRKGKFRbs8ISI","IndianOil","Ground Floor, MR-4 Road, Vijay Nagar, Agasod","23.1796193","79.91064820000001","true"
"ChIJu3zTxYusgTkRRsfQy-VIHJc","Reliable auto service","near gaur tiraha, nh 12 a, Mandla - Jabalpur Road, Saliwara","23.107213","79.990974","true"
"ChIJ8_13m3etgTkRXggiK13DxBE","IndianOil","Ground Floor, NH 12A, Mandla - Jabalpur Road, Barela","23.1071943","80.00759459999999","true"
"ChIJlbqrcH6rgTkRUNf9KndNqr4","IndianOil","Ground Floor Saliwada, Barbati, Neemkheda","23.1066916","80.01068400000001","true"
"ChIJ8Y77_3urgTkRzqj-RIdxcaQ","Bharat Petroleum","India","23.1066442","80.0143947",""
"ChIJCSDbsP2rgTkRbTzadjvmTps","HP Gas","32VW+RHF, Jabalpur","23.0945531","80.04642059999999","true"
"ChIJ7_4vQD-rgTkRIUMfpkjL3sQ","Bpcl","Btl Mela Graund, Barela","23.0926385","80.0509361",""
"ChIJeTYKNgCrgTkRYCC6OJbqxC0","Petrol pamp","Barela","23.0958042","80.0520952",""
"ChIJXZsL8x6rgTkRW7orXexyQu8","PATEL AUTOPARTS BARELA","near petrol pump, in front of b.t.i. school, Barela","23.0939773","80.0609203","true"
"ChIJXyE3jxIAgTkR1TjIiYNaxLg","NAYARA","India","23.0925065","80.1101597",""
"ChIJ0TBhiBIAgTkRTrUdXzsi_gM","Jai Ambey filling station - Nayara Energy Petrol Pump","Jay Ambe Filling Station, Deori","23.091884","80.1100834","true"
"ChIJGYqs70mugTkRJfKPqAcE18M","Petrol Pump(H.P)","Saif Nagar, Anand Nagar, Adhartal, Jabalpur","23.195341","79.9426","true"
"ChIJeRy_l8-vgTkRvYeAef_fqjM","IndianOil","Ground Floor, Amkhera Road, Adhartal, Jabalpur","23.21201899999999","79.93249449999999","true"
"ChIJK-aED6GvgTkRLyk3mGYsUdo","IndianOil","near Agriculture College Road, Suhagi","23.2086719","79.95340929999999","true"
"ChIJ9aetoQKygTkRA3TAISbHOAc","Anil Transport Company","National Highway 12, Jabalpur","23.155177","79.847076","true"
"ChIJ0c5fU1mxgTkRMBGvw28Sz94","Anil Motorsolution Pvt Ltd, Ashok Leyland","Bhedaghat, Tewar","23.1545933","79.8464846","true"
"ChIJa1XuOACxgTkRuL3StajIla4","PUC Fastag available","489, MR-4 Rd, Ahinsa Chowk, Vijay Nagar, Jabalpur","23.180528","79.910415",""
"ChIJRRD7-9yxgTkRQOs-enSh10A","Hindustan Petroleum Corporation Limited","154/64, KH No 154/63, MR-4 Road, Rameshwaram, Laxmipur, Jabalpur","23.180592","79.91038499999999","true"
"ChIJV26fPSiugTkR9rcaCqrVEC8","IndianOil","Ground Floor, near Anaj Mandi, Madhotal, Agasod","23.19059219999999","79.9201574","true"
"ChIJhcpweySxgTkRLUEtyNfPaxw","Hindustan Petroleum Corporation Limited","Ground Floor, Vijay Nagar, Jabalpur","23.1824934","79.9048801","true"
"ChIJKW4OUdaxgTkRGrHGRLATllE","Bharat Petroleum, Petrol Pump -Pachori Automobiles","JABALPUR,DEENDAYAL CHOWK,J, Jabalpur","23.1923622","79.9169118","true"
"ChIJK_cfD8WxgTkRR2n48hu_5Bw","Sanskardhaani gas agency","5WQ4+MPV, Vijay Nagar Road, Kanchan Vihar, Vijay Nagar, Jabalpur","23.1892369","79.9068065",""
"ChIJw2He3qWvgTkRGN-9n3Oi650","Bharat Petroleum, Petrol Pump -Jain Automobiles","DAMOH NAKA,JABALPUR, Jabalpur","23.1845582","79.92937599999999","true"
"ChIJKyIgAXGxgTkR0ZPO8Iw1I6Q","IndianOil","Khasra No 166, near New Bus Stand, 2, Madhotal, Ganjipura, Jabalpur","23.1946","79.9126","true"
"ChIJ0wCKRACxgTkRHOBmmTDRZEQ","Plot","6W24+9G7, Shri Ram College Road, Dixit Colony, Rajeev Gandhi Nagar, Karmeta, Jabalpur","23.2009224","79.90628339999999",""
"ChIJMUVUD8GvgTkRz7MMZryW974","IndianOil","Ground Floor, Raddi Chowki, Agasod","23.1940852","79.9405958","true"
"ChIJsd0zpJKvgTkRBa76iNhkTps","IndianOil","Khasra No 330, Ghamapur Road, Chowk, Jabalpur","23.1783803","79.9453173","true"
"ChIJmcUahDOvgTkRSGBFpA0cGF4","Gautam Petroleum","in front of water tank, Bhantaliya, Jabalpur","23.1786698","79.9453668","true"
"ChIJjZLqyiuxgTkRJ8-3ed8--SU","Bharat Petroleum, Petrol Pump -Agrawal Bandhu Petroleum","KARMETA ,KATANGI ROAD, JAB, Jabalpur","23.2061191","79.9036699","true"
"ChIJ5xRJ4HKxgTkRCzj96U2mPzI","Monty Traders","Shop No. 15, Fataka Bazaar, near Deen Dayal Bus Stand, Green City Road, Jabalpur","23.2089821","79.9164498",""
"ChIJnThwT36vgTkRV5cxvIakND8","Krishna Petroleum","Vehicle Fac, Main, Adhartal, Jabalpur","23.1967016","79.9435287",""
"ChIJrzndSpqvgTkR5QtEE1IodyI","Ambikesh Petroleum","Dhani Ki Kutiya, Alok Nagar, Vehicle Fac. Jabalpur","23.2003716","79.9417742",""
"ChIJdePF33mxgTkRggabFx1XNzU","Bharat Petroleum, Petrol Pump -Bhanu Petroleum Company","PATAN ROAD, KARMETA,JABALP, Karmeta, Jabalpur","23.2001087","79.8907126","true"
"ChIJ7yTOv2ivgTkRG6iuFP4beL0","Hindustan Petroleum Corporation Limited","Ground Floor Ghamapur Laalmati, Road, Ghamapur, Jabalpur","23.177732","79.95074799999999","true"
"ChIJn8Ad7N2xgTkRFklO8mdMq8w","Hindustan Petroleum Corporation Limited","Ground Floor Raigwan, near Patan Bypass, Jabalpur","23.2018189","79.8858297","true"
"ChIJIajGxiypgTkRiSYsGmQs9jM","IndianOil","Ground Floor Jabalpur Kundam Road, Market, Khamaria, Jabalpur","23.1990066","80.0095606","true"
"ChIJhykzhe2ugTkRaMUHX4G6kqw","Hindustan Petroleum Corporation Limited","Ground Floor, GCF Estate, Jabalpur","23.1843729","79.97587879999999","true"
"ChIJwVqHXdCugTkRxwDgeXxcLBA","Shaheed JimDhari PetrolPump","5XWX+JJP, Main Road, Ranjhi, Raksha Karmachari Colony, Jabalpur","23.1965759","79.999066","true"
"ChIJFw7qRW-vgTkRlBewsyZ0cRI","GOPI PETROLEUM - BPCL (BHARAT PETROLEUM) PETROL DIESEL PUMP GAS STATION","Sheetalamai Mandir, near Sheetalamai Mandir, East, Ghamapur, Jabalpur","23.1795477","79.956141","true"
"ChIJTWrM1ravgTkRkXAy_JqaZm0","Legrand energy Pvt Ltd","Bilpura, Madai, Jabalpur","23.2130231","79.9862972",""
"ChIJQWYl3KSvgTkRgF0Tu5Didpw","Singh Petroleum","Bilpura Colony, Madai, Jabalpur","23.2153201","79.98636119999999",""
"ChIJy9iOcACvgTkRGQ-ygjulGy0","Go gas","404 hai, Jai Prakash Nagar Road, Khajanchi Nagar, Mansarovar Colony, Adhartal, Vehicle Fac. Jabalpur","23.2009038","79.9544822",""
"ChIJxaOwYO2vgTkRsPvVg-myNGo","Hp Petroleum","Vehicle Fac, Punit Nagar, Adhartal, Jabalpur","23.200891","79.95442899999999",""
"ChIJD8HbfbKvgTkRImanvDcrEMk","Om Petroleum","Adhartal, Jabalpur","23.2058857","79.9525357","true"
"ChIJoYVLEYmvgTkRU5l0Mph7Fx0","Hindustan Petroleum Corporation Limited","PH No 01, KH No 156/5/1, 156/3KHA, 156/3/GA, Adhartal, Jabalpur","23.2059749","79.95244029999999","true"
"ChIJMXsUHiuvgTkRuWmWtHx-7x0","Bharat Petroleum, Petrol Pump -Balaji Highway Fuels","SIMARIA,JABALPUR, Jabalpur","23.2247378","79.9607893","true"
"ChIJ6zPqRD2vgTkRRIHtTTHgAXg","Bharat Petroleum, Petrol Pump -Sunderdas Gianchand","MAHARAJPUR,JABALPUR, Jabalpur","23.2322488","79.9651657","true"
"ChIJ72_DCNevgTkRyxK_l4oD2fU","Muthye Petroleum","Housing Board, Maharajpur, Jabalpur","23.2364573","79.9627672",""
"ChIJY2GhknevgTkRw5_8hn-dB8g","IndianOil","Ground Floor, Transport Nagar, Adhartal, Maharajpur, Jabalpur","23.238171","79.96527999999999","true"
"ChIJIfT_4HmvgTkRyEMQr8cKstc","Bharat Petrolium Petrol Pump CNG Pump","Jabalpur, NH-7, Kanti Road, Jabalpur, Jabalpur","23.239378","79.9687127","true"
"ChIJGTudFjCvgTkRJSKaEhfq6rI","Indu Petroleum","Housing Board Housing Board, Jabalpur","23.2363978","79.95955719999999",""
"ChIJewLG9ayvgTkRxNOX9NG2d3w","Hindustan Petroleum Corporation Limited","Khasra No 56, Katni Road, Karonda Nala, Pipariya","23.2423253","79.97110359999999","true"
"ChIJ3YjBbs05DjkRwK9oRbLsuqU","IndianOil","Ground Floor, NH 7, Jbl Katni Bypass, Adhartal, Hathna","23.2404302","79.9549826","true"
"ChIJo-HHltCpgTkRd9x6_byMpZ0","Bharat Petroleum","SH-22, Jabalpur, Amakhoh","23.2009","80.09089999999999","true"
"ChIJ2dnxPWupgTkRlythRsInfL8","Indian oil Aviation Fuel Station","53M5+J78, Jabalpur Civil Airport, Jabalpur, Airport Area, Khamaria, Dumna","23.1840326","80.0582053",""
"ChIJl3v7wYWpgTkRYRrtQZWuhSM","IndianOil","Kh No 73/1 Umariya, Panagar, Market, O.F.Khamaria","23.2023599","80.07696949999999","true"
"ChIJ3aM3Xv6pgTkR7j00tUTTOV4","Pooja petroleum","Sh 22 nh 45, kundam road, Umria, Pipariya","23.202373","80.07699290000001","true"
"ChIJjeDyQwCpgTkRego4wwUyvww","Ankit Home(MT)","633R+4VW, Jabalpur","23.2028668","80.09221800000002",""
"ChIJY5cMEWqvgTkRJmyVr4ubNSY","Hindustan Petroleum Corporation Limited","Ground Floor, Panagar, Khajri","23.2445009","79.92611649999999","true"
"ChIJP3ikkuSvgTkR-O8P0xDSuVY","SAIF FUEL","India","23.2343263","79.92620079999999",""
"ChIJq3cN4sOxgTkRL9aVGPm7_jo","Option Petroleum","6WH2 GRF Highway Road, Bhedaghat","23.228964","79.90204059999999",""
"ChIJz8pHPBSwgTkRiFaGL5_cdA0","Bharat Petroleum","India","23.2273153","79.9015266",""
"ChIJpTrF7TOxgTkR88FeWmk2sWw","Pandav petroleum(A BPCL Retail Outlet)","2/3 Nagpur Katni road, National Highway 30, Jabalpur","23.227286","79.9015283","true"
"ChIJc0K20CGxgTkRVYhHALOcmF4","Kaustubh Petroleum- Bharat Petroleum Outlet","NH 34, Katangi Road, Onriya","23.2365734","79.88950729999999",""
"ChIJf6UjLWuwgTkRhOL1yy1wF88","IndianOil","Ground Floor, Katangi Road, Chowk Oriya, Jabalpur","23.2264189","79.8966962","true"
"ChIJb0IAHGuwgTkRI-YYZo8Tt-0","Hindustan Petroleum Corporation Limited","Ground Floor, Damoh - Jabalpur Road, Jabalpur","23.2273004","79.8944715","true"
"ChIJb-WQd4S6gTkRiFGejnCtRxM","Bharat Petroleum","India","23.25145269999999","79.8821251",""
"ChIJ4SISmnmlgTkRiMIsdnAyM-w","IndianOil","Ground Floor, Chauraha, Baroda","23.282815","79.92045829999999","true"
"ChIJtWNRepm7gTkRyZN76lUhwck","Bharat Petroleum Petrol Pump , SHRIRAM & BROTHERS","BARODA CHOURAHA, Jabalpur","23.283885","79.917565","true"
"ChIJB_55WUS7gTkRwvP5DUzyQaM","Matrashakti Filling Station BPCL","NH 34, Bihariya","23.25329630000001","79.88056639999999","false"
"ChIJ8fWVt_SxgTkRvWuzjdNG07Q","Hindustan Petroleum Corporation Limited","Ground Floor, Katangi Road, Panagar, Oriya, Jabalpur","23.2240736","79.8958826","true"
"ChIJ1YKXOsu7gTkRr_G2_ZwYPng","IndianOil","near Belkhadu, Khasra No 151 Nagna, near Belkhadu, Katani road, Panagar","23.269997","79.869953","true"
"ChIJjSTk7dSlgTkRRZyjS2ah85U","Rajendra Singh Petroleum Bharat Petroleum","7X97+P79, Unnamed Road","23.2692919","79.9632407","true"
"ChIJ3-eDX3yvgTkRSyery8i62sg","IndianOil","Ground Floor, NH 7, Jbl Sihora Road, Adhartal, Imaliya","23.2470796","79.9722024","true"
"ChIJJ4GukMDXeDkR3CBhxShH9c8","IndianOil","NH 7, Katni Road, Pariyat, Jabalpur","23.2571615","79.97431610000001","true"
"ChIJH-rR9JGlgTkReBjp9w96Lck","IndianOil","Ground Floor Jabalpur Sihora Road, Near Panagar, NH 7, Agasod","23.264998","79.98065799999999","true"
"ChIJ5dr6GISxgTkRQ3n1Wgl4ixM","K.G.N.welding Wark","Sukha","23.2103514","79.8651083",""
"ChIJN6zaunrPgzkRh6QeE-LS-1I","IndianOil","Ground Floor Raigwan, Panagar","23.1960764","79.8737958","true"
"ChIJTU79JW6lgTkRfvxZYvPkxSA","IndianOil","Kh No 41/7 Lamti, Panagar","23.2757743","79.9876232","true"
"ChIJwYIXAu-lgTkR5TBIFdhdx-M","Reliance Petroleum","Ground Floor, near Shantiniketan School, Nh 7, Main Jabalpur Katni Rd, Devri Kalan, Jabalpur","23.2792219","79.9878887","true"
"ChIJ-_M_v8WlgTkRRsHVfc_zsEs","सोधिया ऑयल मिल","7XPV+F9H, मेन रोड पनागर बिन्नी बाई स्कूल के बाजू से, Panagar","23.2861876","79.9934864",""
"ChIJtURRLAClgTkRmalGb7SkV70","Ssd petroleum","7XRW+CG7, Panagar","23.2910303","79.996282",""
"ChIJV4gmOROlgTkRekUd_mqijH0","Petrol Pump","7XRW+P96, Panagar","23.2917881","79.99589879999999",""
"ChIJ47at5M6lgTkRX7FCYjexW3M","Hindustan Petroleum Corporation Limited","Ground Floor, NH 30, Deorikalan, Panagar","23.2959199","79.98102670000002","true"
"ChIJ0S0dW8WlgTkROPGrPyVUSmI","H. S. VYAS PETROLEUM","7XWM+J8W, Panagar","23.296624","79.9833149","true"
"ChIJER9REBulgTkRFnSyLixvjjg","Hindustan Petroleum Corporation Limited","Khasra No 61, NH 30, Jabalpur Nagpur Highway, Barjhai, Jabalpur","23.3010679","79.98867899999999","true"