place_id,name,address,latitude,longitude,open_now
"ChIJr9nCU33TdjkR-rzt5LQV9WA","raj filling centre","3X33+MVF, Agra - Mumbai Highway, Ghatigaon","26.0541919","77.95466549999999",""
"ChIJoa9Rj6fTdjkRgQMz5CmhzZs","IndianOil","Lock No 1243/219, NH3, AB Road, Ghatigaon","26.053736","77.94323899999999","true"
"ChIJ604yt6XTdjkROXwG7lSMz0k","Hindustan Petroleum Corporation Limited","Ground Floor, NH 46, Agra - Mumbai Highway, Ghatigaon","26.052841","77.941001","true"
"ChIJCYJESXbTdjkRVT2EYyw-94M","Bharat Petroleum Petrol Pump , MARUTI FUELS","GHATIGAONNH3, M.P","26.0508907","77.9321281","true"
"ChIJKUDwlALRdjkR3UFSbQYAkQc","Reliance Petroleum","Survey No 934, Bhitarwar, Banwar","26.0330701","78.076329","true"
"ChIJK39-1MTQdjkRs80rrELkS8I","GURU KRIPA SEWA KENDRA BANWAR","23MG+4P7, Banwar","26.0327821","78.0767917","true"
"ChIJNcXtX_LRdjkRJL1AS6qIDCU","IndianOil","Survey No 646 Banwar, Antri","26.035265","78.076577","true"
"ChIJzYG5usfbdjkRwfBSQNrIkYE","Hindustan Petroleum Corporation Limited","Ground Floor, Chinor Road, Chinor, Amroul","26.024781","78.127721","true"
"ChIJ_4H1v5XXdjkRV9AAVjwfZjA","Hindustan Petroleum Corporation Limited","Ground Floor, Nayagaon Road, Chinor","25.9534216","78.0895683","true"
"ChIJ45zG_a3ZdjkRfTTeuGSu-FM","Bharat Petroleum","W4W6+4VQ, Chinor","25.945349","78.11222699999999",""
"ChIJj4FQp3LZdjkR63F7VAmccT4","IndianOil","Rarua","25.942941","78.1161662","true"
"ChIJ951K0RzOdjkRQeD4fC1xIy8","IndianOil","Lock No 1035, near JA Hospital, 219, NH 3, Panihar","26.1104165","78.03141029999999","true"
"ChIJq1hwyR7OdjkRGjfPiqyzi54","Hindustan Petroleum","Panihar, Gwalior, NH-3, Mumbai Agra Highway, AB Road, Gwalior, Gwalior","26.1132","78.03829999999999","true"
"ChIJiQ4eOdvPdjkR1epKoDoF144","Hindustan Petroleum Corporation Limited","Ground Floor, Agra - Mumbai Highway, Gwalior","26.12197119999999","78.08069119999999","true"
"ChIJOV01Kx_OdjkRtA2pa9MUoZQ","HP PETROL PUMP - KARMA HIGHWAY SALES & SERVICE","Agra-mumbai Road Panihar Nayagaon Dist Gwalior, Bhopal","26.1137349","78.0397799","true"
"ChIJoZrtVkPPdjkRC_3XimHFYL4","Essar PETROL PUMP","428V+RXX, Agra - Mumbai Highway, Gwalior","26.117106","78.044983","true"
"ChIJK6VHQDrPdjkR8q_gf25bRWw","Manohar Singh Solanki Filling Station","428V+RXX, Agra - Mumbai Highway, Gwalior","26.1171175","78.045005","true"
"ChIJk6EIOJvPdjkRgQyoAndLwIY","Shivdev Fuels (BPCL)","Shivdev Fuels, opposite CRPF camps, Panihar","26.1173743","78.0466933","true"
"ChIJw7xdtXnPdjkRpLK2-scO_7s","Bharat Petroleum, Petrol Pump -Tikait Fuels & Highway Service","VILL PANIHAR, DIST GWALIOR, Gwalior","26.11731899999999","78.05222169999999","true"
"ChIJWzhFb0fPdjkRuvNNHH0hvdo","Laxmi Mukund Fuel station","National Highway 46, Nayagaon","26.1172672","78.06365319999999",""
"ChIJBaOxCJDPdjkRmu_X4RpLoOQ","Jio-bp","Patwari Halka No 23, Ghatigaon","26.11701189999999","78.06475170000002","true"
"ChIJdXt6RtHPdjkRyN2cUebEZ4k","IndianOil","S Lock No, 12011, AB Road, Nayagaon","26.117427","78.071946","true"
"ChIJgUTBQNvPdjkRxjD1L2SKoVM","HP","India","26.1216504","78.0809132",""
"ChIJf5ZevYzPdjkRFoN3hxbcpEc","Reliance Petroleum","Ground Floor, Ki, Bawadi, Bela","26.13780019999999","78.1050058","true"
"ChIJ2_bUpa7FdjkRzC9vcbc3e_Q","NRA Petrol Pump","449G+9X, Naugaon","26.118425","78.127416","true"
"ChIJkaW6EabbdjkRzHtUqrpdgjU","M.S. balaji energy station","NH 46, Gwalior South Bypass, Gram santau, Gwalior","26.1110248","78.1373461",""
"ChIJge_W6cvadjkRVb5sGZ3odSQ","Indian Oil","India","26.1114358","78.1378758",""
"ChIJE1kK67jPdjkReWxwR0oAUP8","IndianOil","S No 113 Min 1, 1/2 & 13, Min 1/1, Bela","26.1374409","78.1032792","true"
"ChIJKetKOwDFdjkRINC1FiiwMBk","Hindustan Petroleum Corporation Limited","near Gwalior, Ground Floor NH 44, Neem chandoha, Shivpuri Link Road, near Gwalior, Jhansi Highway, Gwalior","26.140903","78.12312299999999","true"
"ChIJv_Z_-uPFdjkRypXoaMdrLp8","IndianOil","S No 166, 1165158/1, Neem Chandouha, Ajaypur","26.141473","78.126873","true"
"ChIJASEhrunPdjkRALcGZy4D5S8","Bharat Petrol Pump","44W6+J33, Gwalior","26.1465248","78.11017420000002","true"
"ChIJDyFPLQDLdjkR5Iq8W46eZJw","Prade Ground,PTS,Tighra,Gwalior","6296+7MR, Mehadpur","26.2176331","78.01204039999999",""
"ChIJn9xghmDPdjkRgycjzBIUtUQ","Hindustan Petroleum Corporation Limited","Ground Floor, Agra - Mumbai Highway, Girvai, Gwalior","26.17248099999999","78.108083","true"
"ChIJgwxOBtLFdjkRdEJg5DsyMg4","IndianOil","Ground Floor, Infront Mudgal Krishi Farms, Old, Agra - Mumbai Highway, Girwai, Ajaypur","26.1749373","78.1090157","true"
"ChIJtZ-zOV_EdjkRRgVZ5HauS84","Maa Pitambra Trading Company","Vicky factory tiraha, Saroj fuel Petrol pump","26.1749104","78.144994","true"
"ChIJGTwVGEC4djkRgPr5VSNJGJQ","NAYARA PETROL PUMP","54RP+3Q2, Baraua Nurabad","26.1901434","78.1368956","true"
"ChIJn1WHVtjFdjkR458bgwMKgKw","IndianOil","Shop No 493/1, 493/2, Kedarpur","26.165118","78.16874299999999","true"
"ChIJTcoLiMzFdjkRsGquDJREy6w","Bharat Petroleum Fuel Station","55V3+GFJ, Kampoo Road, City Center, Lashkar, Gwalior","26.1938342","78.1536373","true"
"ChIJJVnWYNfFdjkROr4fLvyzIO4","Nayara Petrol Pump","108, Nai Sadak, Sathe Ki Goth, Bakshi Ki Goth, Gwalior","26.2056151","78.1456594","true"
"ChIJBc4s-JLFdjkRHKVYGliAJgM","IndianOil","Ground Floor, near Aganbadi Kendra, Ajaypur Road, Veerpur, Gwalior","26.1818946","78.1243224","true"
"ChIJTcWjFnLFdjkRXURwbkRtR60","Petrol pump","54JG+VRH, Sikandar Kampoo Road, Sikandar Kampoo, Gwalior","26.1821877","78.1271026",""
"ChIJ-ZX9mpXFdjkRBvuFfK_4RZ4","Hindustan Petroleum Corporation Limited","Ground Floor Saikandar Kampoo Road, Ke Pass, IMLI Naka, Gwalior","26.1819505","78.1327678","true"
"ChIJsWXK1InFdjkR-aTCUK8q-1I","Kushwah ji ka Petrol pump","Sikandar Kampoo, Gwalior","26.18181599999999","78.1329782",""
"ChIJjaOODADFdjkRwtNPQI-ex6o","Bharat petroleum","AH 47, Main Road, Agra - Mumbai Highway, Girwai, Gwalior","26.1910845","78.1250396",""
"ChIJb4PVZ67FdjkRsrI2OV0cf2g","IndianOil","Ground Floor Gudi, Darpan Colony, Gwalior","26.1729311","78.1495125","true"
"ChIJ45459Z7FdjkRqtNFUNeZu_Y","IndianOil","S No 592593, Gudha, Achalpura","26.1811574","78.1464682","true"
"ChIJA4Mfo53FdjkRlXg6hrC18VE","IndianOil","Khasra No 255, Gudi, Ajaypur, near 14th Battalion, Gwalior","26.181013","78.1511575","true"
"ChIJK3IGR-_FdjkRDl3ZqpNa7B4","Shri Ram Fule","Seetla Mata Rd, Shri Ram Colony, Gwalior","26.198932","78.1299789",""
"ChIJdVNfbv7FdjkR1XpNGxjm6fQ","Gupteshwar Petro Services","Survey No-902,905, Village Bara, SADA, Pragati Vihar, Gwalior","26.2054228","78.1156415","true"
"ChIJV4UQLADFdjkRn0gJVdhKjrE","Barua hause","55H4+4GF, Bhatpura, Gwalior","26.1778059","78.1562857",""
"ChIJJbLwl8nFdjkRXcwALxLbopA","IndianOil","near SAF 2nd Battalion, S Lock No 1185 & 1186/219 Ajaypur, near SAF 2nd Battalion, Kampoo Road, Gwalior","26.187897","78.14910499999999","true"
"ChIJ3Qz3BHXFdjkR0S-Srdw2UqM","CNG POLICE WELFARE SOCIETY","Jawahar Colony, Lashkar, Gwalior","26.18631349999999","78.1531251","true"
"ChIJWZ_bku_FdjkRWNt7flU7cUM","Suvidha Fuels","Kampoo Road, Jawahar Colony, Madhav Ganj, Gwalior","26.19032","78.1500686","true"
"ChIJGQidyuLFdjkRRZwRWaouRVk","Police Welfare CNG Filling Station","55V2+26G, Idgah, Madhav Ganj, Gwalior","26.1924359","78.1505809","true"
"ChIJmWLXBDDHdjkRzGy6CHyFq3M","IndianOil","Lock No 1144/219, Bara Ph No 65, No 899902903904905, Baraua","26.21027100000001","78.11709119999999","true"
"ChIJ5dL9WM7FdjkR-4UOb81WmVA","Priya Oil Agency","54WX+7GV, Rath Khana, Madhav Ganj, Gwalior","26.1957403","78.1488071",""
"ChIJhy4EBdzFdjkRA_Vz_mHtae4","Jain brothers Bharat petroleum","Bohre marker.2nd floor.nehru petrol pump, Lashkar, Gwalior","26.2028286","78.138911","true"
"ChIJ7RwYaF7FdjkRoh9TPPK3wuA","Feul Station","Roxy Pull, Maharaj Bada Road, Gwalior","26.1958364","78.14981720000002",""
"ChIJYa87bszFdjkR6XoOKQvg1G8","IndianOil","Lock No 1197, 219, Sikandar Kampoo Road, Gwalior","26.19370799999999","78.15265699999999","true"
"ChIJ-8-rIW3FdjkRv-RSYKoFUBQ","Hindustan Petroleum Corporation Limited","Ground Floor, AB Road, Laxmi Ganj, Gwalior","26.205231","78.140421","true"
"ChIJexBc-RTFdjkRGZdwm9fLOKg","Bharat Petroleum - Saroj Fuel Shoppee","Besides Venus Banquet Vicky Factory Tiraha, Jhansi Road, Gwalior","26.1691318","78.1752278","true"
"ChIJG2_6GADFdjkRIc5D5FIeeRY","Multan paint","Maithili Sharan Gupt Chowk, Jinsi Road Number 2, Khurjewala Mohalla, Daulat Ganj, Gwalior","26.2001574","78.1566438",""
"ChIJC3S5G_rFdjkRkZwlPTAnt1U","Feul Station","near SBI, Bhander Salon B, near SBI, Salon B","26.190422","78.1693591",""
"ChIJjzitJVnFdjkRFjh8qgs0OWE","Indian Oil","Ground Floor, Patankar Bazar, Daulat Ganj, Gwalior","26.2003439","78.16242729999999","true"
"ChIJb085BS7EdjkRZ5-IEeBEpKE","IndianOil","S Lock 1061 & 1062, 219, Sanatan Dharam Mandir Road, Lashkar, Gwalior","26.2001908","78.162993","true"
"ChIJJ6CkG8jFdjkR1RM4lIOBaHQ","IndianOil","Lock No 1146, 219, Jhansi Road, Lashkar, Gwalior","26.160006","78.182983","true"