place_id,name,address,latitude,longitude,open_now
"ChIJw_Uy25n9YzkRfnnfsmzPNOY","IndianOil","Ground Floor, Rajpura","23.2801834","74.9799465","true"
"ChIJmTrd7DX9YzkRQr1-ib2rq-8","Shree Jaleshwar Petroleum KSK Rajpura","103/3, Rajpura","23.2805857","74.9796496",""
"ChIJBfW-XAD9YzkRq0WY_4cT8B0","NAYARA PUMP FRIENDS FUELS","72Q9+RW, Kaneri","23.289119","75.0190647",""
"ChIJ4ceYiho_ZjkRreF9JIvaVBw","IndianOil","Ground Floor, SH 26, Kalmoda","23.25667499999999","75.0355022","true"
"ChIJ5xpcbuv8YzkRgQi1onv3Ocw","lanOil","724P+P74, Madhya Pradesh State Highway 39A, Alniya","23.25676289999999","75.0357171",""
"ChIJc-v2VNT9YzkRuZgiyvghdP0","Kalpatru Automobile","724P+M89, Kuajhagar","23.256667","75.0358724","true"
"ChIJZ0wIWY9XYTkRwY6yFcFNN1M","Reliance Petroleum","KHASRA NO.191/8, 191/9, PH NO.31, PUSTIKA NO.97413, GRAM, Khara Khedi","23.2639863","74.92087719999999","true"
"ChIJGfRGGLz9YzkRr9zHruxcVzM","Bharat petroleum corporation limited care of shri ram petroleum sagod","8256+X5X, Dholawad Road, Sagod","23.3099792","75.01048899999999",""
"ChIJ3Xa6ukb9YzkRCpjI8S-gOpQ","Jai Balaji Enterprise, Essar Pump","827G+45G, Moti Nagar, Ratlam","23.3128186","75.0254557","true"
"ChIJAe4AizfjYzkRU757HaFqKx4","Essar Mundri petroleum","Ratlam, Jhabua Road, Mundri","23.2170918","75.0361829","true"
"ChIJbbvYcgDjYzkRYi0sm62gksI","BHARAT PETROLEUM - YUGM RAMDEVO FUEL","628P+9GM, Mundri","23.2159726","75.03629459999999",""
"ChIJRffPYsX9YzkR6Q7qHrMOahM","Mahavir Fuel Bharat Petroleum","1, 937, 28C, Karamdi Road, Ratlam","23.3106476","75.0384504","true"
"ChIJ0-qwt5j7YzkRjePXeYcte9c","Reliance Petroleum","Ph No 31 Pustika No 97413, Khasra No 191/8 & 191/9, Ratlam","23.2861755","75.08333809999999","true"
"ChIJFV3M26_-YzkRHdC9ANywRlo","IndianOil","Ground Floor, Mhow - Neemuch Road, Banjali","23.3216895","75.0598553","true"
"ChIJaanCIaH-YzkRUi3CxJTUu5k","Nayara Petrol Pump","near nagar nigam mahalwada, opposite Nagar nigam, 31, Palace Road, Ratlam","23.3252576","75.0422926","true"
"ChIJS3tW3MD7YzkR6x9mi4qMxoc","Bharat Petrol Pump","NH 79, Khara Khedi","23.2832861","75.0843108","true"
"ChIJ6WBd2e77YzkR5BEI8qOYZ6g","IndianOil","Ground Floor Kharakhedi, SH 31, Banjli, Ratlam","23.2860479","75.0823864","true"
"ChIJ_90EJpH7YzkRFcDAM_fh_2k","Hindustan Petroleum Corporation Limited","Ground Floor, Mhow - Neemuch Road, Sala Khedi","23.29414","75.07791999999999","true"
"ChIJOc_qZ437YzkRbkHtDPhokc4","IndianOil","Ground Floor Salakhedi, Mhow - Neemuch Road, Banjli, Ratlam","23.30036999999999","75.072222","true"
"ChIJsQ4bZ437YzkRHsiS48UHhrk","Gujarat Gas CNG Station","832C+4WV, Sala Khedi","23.3003525","75.07230349999999","true"
"ChIJb6xkv8r7YzkRgSDuwKea6SM","Friends Automobiles Petrol","71/2/4, Mhow - Neemuch Road, Sala Khedi","23.3003682","75.0724671",""
"ChIJFfdTUg38YzkRmV6wJhCO6PM","Hindustan Petroleum Corporation Limited","Ground Floor, Karamdi Road, Ratlam","23.306391","75.042935","true"
"ChIJgYey4DP7YzkRezGDNDqWJRY","IndianOil","Km Stone 85, Betn Km Stone 75, Dharad","23.2577656","75.1011524","true"
"ChIJReCCGff7YzkRgzAPhvhm0g8","Highway Fuels","1 Salakhedi, Ratlam","23.3105358","75.0651695","true"
"ChIJCcMnw0n7YzkRe6glDkCP5E0","IndianOil","Ground Floor, Police Line, Ratlam","23.312441","75.064345","true"
"ChIJBdsk0sPjYzkR76E852hV0I0","Jai Omkar fuels","Mundri","23.210063","75.0361695","true"
"ChIJf41VSRz8YzkRCB1oznZ-F6w","India Fuels Essar Petrol Pump","Survey No.474/2/2, Near Sethia Marriage Garden, Unkala Ganesh Road, Ratlam","23.3192718","75.0453869","true"
"ChIJGwcEUv_7YzkRMmi1sFWVE38","Hindustan Petroleum Corporation Limited","Ground Floor, Mahatma Gandhi Road, Ganga Khedi","23.3187101","75.06182009999999","true"
"ChIJQzsS84L9YzkRQP9O46qoLl4","Bharat Petroleum, Petrol Pump -Highway Fuels","SALAKHEDI,MHOW-NEEMUCH RD,, Ratlam","23.3222371","75.05936799999999","true"
"ChIJJWQzvL_7YzkRZxlGrqQL83U","Panola energy station BPCL petrol pump","Binjasan Mata ji Mandir, bhatpachlana Marg, Sala Khedi","23.2808323","75.1147258","true"
"ChIJoVX-EQD7YzkROAEWBl7g0IE","Gujarat Gas plant","83FC+P54, Hapu Khedi","23.324266","75.0704964",""
"ChIJPepiiiP_YzkRyyemPnlCtM4","BHUPENDRA BARAIYA","09, Mhow Road, Ratlam","23.3302506","75.0542952",""
"ChIJbXR2qK_-YzkRybk4L3IYQ-Y","Hindustan Petroleum Corporation Limited","Ground Floor, Mhow - Neemuch Road, Ratlam","23.332021","75.051631","true"
"ChIJ7wfUsa_-YzkRAGrgBtnAG9o","Patel Automobiles (Patel Petrol Pump)","Mhow-Neemuch Road, Fawara Chowk, Mhow Road Railway Colony, Shastri Nagar, Ratlam","23.3324358","75.0517157","true"
"ChIJy0VepaT-YzkRpHjazRW8Kzg","Hindustan Petroleum Corporation Limited","Ground Floor, Power House Road, Ratlam","23.3333501","75.04418009999999","true"
"ChIJ4a_gZQ3_YzkRE7F2P96Bm1I","Excellent Automobiles - Hero MotoCorp","Esquire Complex, Mhow Road, Ratlam","23.3343649","75.0513142","true"
"ChIJUcNwNCX_YzkRPxcsdPrNa6g","Reliance Petroleum","Municipal House, near Hotel Rituraj, Pn 22, Power House Road, Ratlam","23.333754","75.038923","true"
"ChIJL9vbVzL9YzkRHyWUIY7300s","IndianOil","Ground Floor, Mhow - Neemuch Road, Banjali","23.3344973","75.0515004","true"
"ChIJJU0kw7TxYzkR2sLISUJnbJE","Kesar Fuel","Bhatpachlana - Ratlam Road, Chorani","23.2669973","75.1711036","true"
"ChIJ7WxadXjvYzkRoG9uKHj3DsE","IndianOil","Ground Floor, Bilpank","23.2318464","75.1616064","true"
"ChIJ_b1odsvlYzkR7_lmcjsovnE","IndianOil","Ground Floor, Mhow Neemuch Road Ambodia, Fanta, Satrunda","23.2113067","75.1343706","true"
"ChIJ9wpFJoXwYzkRWCQqr_J35sE","IndianOil","Survey No 87, 2/3 & 87/5/2/1, Banjli, Shivpur","23.2994291","75.1634377","true"
"ChIJn-GMKwL7YzkRkI2cgIrGF_w","IndianOil","Ground Floor, Nagra","23.3251732","75.09751469999999","true"
"ChIJa5TgyO3-YzkRXYFhBxv8lN0","Hindustan Petroleum Corporation Limited","Ground Floor, Alkapuri, Ratlam","23.348797","75.028424","true"
"ChIJaaq78Qn_YzkRTo98PTuMcU4","IndianOil","Survey No 798/1/2798/1/3, Ph No 27 Palsoda, Banjali","23.3827104","75.01552939999999","true"
"ChIJw7fNXYv_YzkRECOJggRBU2o","IndianOil","Ground Floor, Bibrod","23.3352472","74.98863469999999","true"
"ChIJkYpXl3z_YzkR2wWfgtYDrDk","Vaishali Filling Junction","5, Mohan Nagar, Choraya, Ratlam","23.3334314","75.0245994","true"
"ChIJu_DRyO3-YzkRJ4-NQHHw6JI","Nirmal Krishna Complex","behind Sakshi Petrol pump, Naya Gaon, Alkapuri, Ratlam","23.348892","75.0284605","true"
"ChIJAWDKcQP_YzkRHfb-BBcQB5E","Shivani Dresses","Shakshi Petrol Pump, Shiv Nagar, near Komal Nagar, 18/1, Ratlam","23.3485814","75.0322166",""
"ChIJpaLnWAT_YzkRi_GrwFdAMJk","IndianOil","Ground Floor, Sailana Road, Banjali","23.3746032","75.0230534","true"
"ChIJb_Mlkxz_YzkRhFDK3nSEUt4","IndianOil","Ground Floor, Sejawata Bypass Road, Banjali","23.374182","75.02811899999999","true"
"ChIJtT59Vij_YzkRQjvRPllJ8fM","Sri Balaji Jadaw Kisan Sewa Kendra","Servey No 314/3, Vill, Banjali","23.3773693","75.0280652",""
"ChIJIUXsGc_-YzkRv7iqWzGWv4U","IndianOil","Ground Floor, Jaora Road, Industrial Area, Banjli","23.354159","75.051626","true"
"ChIJL1C7SrT-YzkR8XPHzozL4Y8","Sagar Automobiles","192, opp. D-Mart, Old, Bypass Road, Ratlam","23.3440163","75.05677589999999","true"
"ChIJ-eq3aTP_YzkR3Rqt0IdbZO0","Indian Oil","93P5+PWW, National Highway 79","23.3868623","75.0598329","true"
"ChIJYXorHq35YzkRHpYuf_Z3xmQ","IndianOil","Survey No 6, 3/2, Sanavada Banjli, Ratlam","23.3310966","75.0783036","true"
"ChIJh40XBNb-YzkRZBOuLWEC1YI","Shakti Fuel Point","Dosigoan Near NH 79, Jaora Road, Ratlam","23.3696137","75.0547297",""
"ChIJC5pOjdr_YzkRyfaGmVm9_ag","Jio-bp","Plot No 79/1 & 79/2 Nh 79, Ratlam","23.3854094","75.0584034","true"
"ChIJRc9s_M_4YzkRdkXLNHkEo0g","IndianOil","Phase No 20, Survey No 449, 4 449/5, Banjali, Sejawta","23.3836822","75.0721822","true"
"ChIJK5_I6UD9YzkR9UHMI_eF-IM","Hindustan Petroleum Corporation Limited","Ground Floor, Mhow - Neemuch Road, Ratlam","23.3870283","75.0599033","true"
"ChIJVxzS2Hz5YzkR1ipn8SNTJ8M","IndianOil","PH No 35, Survey No 222/4, Jadwa Khurd, Banjali","23.366648","75.118062","true"
"ChIJvai9mwL6YzkRSBMjI0ir9rg","IndianOil","Bangla, Survey No 305/1/38, Badodiya","23.331746","75.14533300000001","true"
"ChIJGW7OCJT5YzkRo2OMFFkWY1s","IndianOil","Ground Floor, Bangrod","23.3985747","75.10326359999999","true"
"ChIJFRvQ_A35YzkRiT_AyTj-wrc","MAA CHAMUNDA PETROLEUM","near by Balaji Marriage Garden, Sejawta, near by Balaji Marriage Garden, Road, Bangrod","23.3995596","75.10509019999999",""
"ChIJPWJyddMGZDkRO9zdvFNTypc","IndianOil","National Highway 79","23.4709965","75.0639442","true"
"ChIJZzEDlqv4YzkRxM6j4g_jH7w","IndianOil","Ground Floor, Mhow - Neemuch Road, Dhonswas","23.4130972","75.065429","true"
"ChIJHdpFQ_L5YzkRvp-pwED-JN4","Gagan Automobiles","Mhow - Neemuch Road, Dhonswas","23.4137819","75.0656991","true"
"ChIJ04fop8kHZDkRg1RkmmTmiZk","IndianOil","Ground Floor, Km Stone, 82 & 116, Dhonswas","23.4332264","75.0666037","true"
"ChIJQYatVQAHZDkR0lsfssr_TjQ","KRISHA PETROLEUM (क्रिशा पेट्रोलियम)","Survey No 3, 2/1/3/2 SH-52, Mhow - Neemuch Road, Dhonswas","23.4350705","75.0650619","true"
"ChIJ2f4eRxkBZDkRCRq6Rtt-BR4","BPCL PUMP (Shree Balaji Petroleum","Mhow - Neemuch Road, Namli","23.4558479","75.056961","true"
"ChIJT0WHhSEHZDkRNeqzSHaGHfk","IndianOil","Ground Floor Shajapur, Semliya, Road, Namli","23.4599904","75.0820954","true"
"ChIJHSiXIn4HZDkRO-3RyECgCmo","Navkar Petrol Pump","F3F7+H8X, Mhow - Neemuch Road","23.4739845","75.0633579",""
"ChIJIVqxTTIGZDkR0f7Mkjc6p34","IndianOil","H No 12, Survey No 534/1534/2, Banjali","23.4691778","75.1290841","true"
"ChIJT0kxpb33YzkRdXrlJ5vLeoc","IndianOil","Ground Floor, Kanwas","23.4001206","75.19448489999999","true"