place_id,name,address,latitude,longitude,open_now
"ChIJL5WrRnTWeDkRT6zT8fgdNy0","Bharat Petroleum, Satyapal singh thakur & Co","Lahdara, Sagar, NH-86, Sagar Rahatgarh Road, Sagar, Sagar","23.8247","78.6835","true"
"ChIJS-LQf73WeDkR95LDlcYxu2c","IndianOil","Ground Floor Bhopal Road, Near Rtkm 32 Kms, NH 86, Baheriya Sahni","23.838332","78.724974","true"
"ChIJGZ2TY_TTeDkR6fY1nUNjOzc","Diamond HP Petrol Pump","RQ42+6W4, Tilli, Sagar","23.805522","78.752326","true"
"ChIJDXvxPHTWeDkRACOs5kcZOvQ","IndianOil","Ground Floor Lahdara, Baheriya Sahni","23.8258795","78.68544779999999","true"
"ChIJn-QLvYnWeDkRNsixrrl-uWw","Hindustan Petroleum Corporation Limited","Gr Floor, Bhopal Bina, Jhansi Bypass Rd, Bamhori Renguwan","23.8382361","78.7042362","true"
"ChIJ43WBX77VeDkRYFlsmpJ1Ers","Shivaditya Petroleum","Sagar","23.8167376","78.7339497","true"
"ChIJO5HSzzzVeDkRLro5g3EHSXk","Bharat Petroleum Petrol Pump , SHARDAJI PETROLEUM","WARD NO. 47, BAGHRAJ WARDKANERA DEV, Sagar","23.812786","78.740748","true"
"ChIJZVFBxPXWeDkRXHR_DEv0RH4","Balaji Petroleum","VP23+6MC, near Jyotishi Automobiles, Amaoni","23.8505551","78.704149","true"
"ChIJ_7Pjd73WeDkRE-gHtIxvE_c","Hindustan Petroleum Corporation Limited","Ground Floor, Bhopal Road, Sagar","23.8384953","78.7256165","true"
"ChIJtzjaYA_UeDkRc09Z7ytaHfg","Hindustan Petroleum Corporation Limited","Ground Floor, Kanera Dev, near Somnath Puram, Sagar","23.810164","78.74328799999999","true"
"ChIJ1RFZPHLXeDkRGgWzF0i6z-M","SilverLeaf Petrol Pump","Kali Tigadda, Purviyau Tori, Kakaganj, Sagar","23.83221","78.736699","true"
"ChIJJYHAv_fWeDkRcal9VWVj13M","Jyotishi Automobiles","Khurai Rd, Near New Galla Mandi, Jyotishi Petrol Pump Square","23.8558475","78.70377239999999","true"
"ChIJLa0OPHjTeDkRCoiOlMAwakQ","Hindustan Petroleum Corporation Limited","Ground Floor, Rajghat Road, Tilli, Sagar","23.804801","78.75190099999999","true"
"ChIJ8QU5YADXeDkRdVn5LW_6deg","Bharat Petroleum","VP54+HR, Gadoli Khurd","23.85901819999999","78.70664579999999",""
"ChIJ_RDaAADTeDkRD0VcrwaF8Iw","Sagar Megha CNG","RQF3+93W, Sagar","23.8234918","78.7526908",""
"ChIJZTd0QkvXeDkRZ5haLFulRpU","Bharat Petroleum, Petrol Pump -Rudraksha Petroleum","Infront of District hospital, Tili Road, Sagar","23.8233455","78.7528214","true"
"ChIJvak_e_7TeDkROT4hn8SdMgc","Indian Petrol Pump","RQF3+84W, Tili Road, Balak Complex, Sagar","23.823359","78.752827",""
"ChIJi1aFpE3ReDkRzOyw6k3Zex0","servashrestha gas seva sagar bharat gas","Sagar Road, Gopal Ganj, Sagar","23.8404261","78.7510582",""
"ChIJWYL4-UTReDkR4l6kb7X3n1I","IndianOil","Ground Floor 5, South Civil Lines, Bagauta","23.840908","78.762489","true"
"ChIJcywMRXXReDkRCamm1_i_O48","Bharat Petroleum","Padmakar Nagar, NH-86, Sagar","23.8513295","78.7920513","true"
"ChIJccimRXXReDkRE52OHTXPV8c","Hindustan Petroleum Corporation Limited","Ground Floor, Makronia Road, Sagar","23.851901","78.791901","true"
"ChIJ-eGx4xPTeDkRn88p8JTtQ4g","Hindustan Petroleum Corporation Limited","Khasra No 1/9, Road, Menpani, Tilli, Patheriya Jat","23.7943382","78.7600708","true"
"ChIJXfUyRPDTeDkRTJTbK6LkE-E","Aagam Petrol Pump, LPG Gas","near Shivalaya Co, Ground Floor Tilli, near Shivalaya Co, Tigada Road, Shivaji Ward, Sagar","23.8123846","78.757199","true"
"ChIJxWUNNMXReDkRkTvotBYIxDw","IndianOil","Khasra No 459 Phase No 65, Khas ,Baheriya Sahani, Sagar","23.8338907","78.7650894","true"
"ChIJiz8D3yXReDkRigg4QW8ut7g","GOPI Prajapati","Sagar Road, Gopal Ganj, Sagar","23.8374797","78.7563156",""
"ChIJ2QTni0rSeDkROvP6FBj8EjM","HP PETROL PUMP - PANDIT MOTILAL PETROL PUMP","Patheriya Jat","23.80432","78.79551099999999","true"
"ChIJ7YS0R0PTeDkRd8mIfLRtaIA","Hindustan Petroleum Corporation Limited","Ground Floor, Patheriya Jat","23.804455","78.795792","true"
"ChIJOauWk_HXeDkRjW3yAVF3aKY","Indian Oil","Dayanand Ward, Sanichari Hills, Sagar","23.840333","78.7436941",""
"ChIJr0IEDbTWeDkR8zd3FNSzUFE","Shakti Agencies","Lacchu Chauraha, Varni Colony Road, Sagar","23.8432483","78.7432208","true"
"ChIJWYbn97bWeDkRKJKYPW_nJEs","Hindustan Petroleum Corporation Limited","Ground Floor, near Radha Krishna Talkies, Tilak Ganj, Sagar","23.8453473","78.7399093","true"
"ChIJO7Pc0oVnDjkRybQz6x2klO8","IndianOil","Kh No 119, Station road, Tilak Ganj, Sagar","23.8468196","78.7461175","true"
"ChIJK1sJI8jXeDkRAF1rTge-MYc","Shubham Bawariya","RPXV+366, Bhagwan Ganj, Sagar","23.8476541","78.74300099999999",""
"ChIJWVaeNLbWeDkRz7yLeRa47ng","Panchsheel Traders Petrol Pump","Bhagwan Ganj, Sagar","23.8471718","78.7391437","true"
"ChIJExz27OLReDkRM-7Hgz1VMl0","Bharat Petroleum, Petrol Pump -Dimple Petroleum","TILAK MARG SAGAR, Sagar","23.8484322","78.7485485","true"
"ChIJk6gH12nTeDkRrbquZKXtRmc","Aaditya Petroleum, Bharat Petrol Pump","RR92+6Q2, Sironja","23.8180022","78.8018763",""
"ChIJiTRO2y_SeDkRr8TiY14vNqQ","IndianOil","Ground Floor, Narsinghpur Rd, Sironja","23.8183216","78.80228389999999","true"
"ChIJ7UOCJsjWeDkRiXZuHT9U_NM","BPCL Petrol Pump - Agarwal Automobiles","Ambedkar Chowk, Bhagwan Ganj, Sagar","23.848552","78.738233","true"
"ChIJtbMKAwDXeDkRZKHS5AvREgo","Tarun Petrol Pump","VP2Q+6W4, Bhagwan Ganj, Sagar","23.850507","78.7398272",""
"ChIJFTVxJK5VezkRAGQbMCXIqxk","Reliance Petroleum","C/O RADHA ROADWAYS, BUS STAND, SAGAR 470002 DHANA, JABALPUR","23.8530362","78.7396279","true"
"ChIJE110-_HSeDkRbmgCVpnd404","IndianOil","Khasra No 279, 4 & 279/5, Bamhori Bika","23.771678","78.80930400000001","true"
"ChIJZQBEn_rReDkRyyJ5IunO818","Police Welfare Petrol Pump","RQRX+V5C, Sagar","23.8421779","78.79790489999999","true"
"ChIJZwUPPgDReDkRyJsO6BoqF-I","Jio BP Fuel Station","VQ3J+RGC, Makronia Road, Makroniya","23.8545527","78.78157929999999",""
"ChIJW7-8aADReDkRqlhC_y92XGY","Jiobp RS Petroleum Makroniya Sagar","in front of DMA, Rajakhedi Road, Makroniya","23.8545299","78.78169319999999","true"
"ChIJ11QhkPbTeDkRZILRDpQcN24","IndianOil","Khasra No 561 Bernawad, Bamhori Bika","23.7640962","78.8314465","true"
"ChIJK8w4g6nReDkRFb3bjKGmwsY","Anjali Petrol Pump Station","RRVJ+WX, Lidhorahat","23.8447722","78.83246419999999",""
"ChIJHatI4lrNeDkR4GqkQvgR6eI","Bharat Petroleum","QR3X+83W, Madhya Pradesh State Highway 15A, Dhana","23.7533647","78.8477095",""
"ChIJs1WeCM7NeDkRN_dp2SvfTuw","Jio-bp","Ground Floor, Sajapur Sarangpur Rd, Old, Nh 3, Sarangpur, Gopalura, Rajgarh","23.7447301","78.8637201","true"
"ChIJR3D0cCMtfzkRv4fqifEijaA","Suresh Fuel Service","Shop No.05, near Chitora Toll Plaza, Sagar","23.7283828","78.80850199999999",""
"ChIJV82pjv7XeDkRnbb4Zo6rFkU","Mahaveer Company Limited","Khurai Road, Gadoli Khurd","23.8714773","78.70846970000001",""
"ChIJbT6FHNTXeDkRrimJqsGoTT8","IndianOil","Ground Floor Bhainsa, Bada Bazar, Sagar","23.86408399999999","78.721085","true"
"ChIJYSBRkO-9gjkRKT_XpcZ78yc","IndianOil","Nh 26 LHS, Kurari, Sagar, Gadpera","23.9082287","78.7203238","true"
"ChIJrYZJ4HjXeDkRauPh-bvww4w","A.T Fuels Nayara Energy L.T.D","near Garpehra Mandir, Sagar","23.9082118","78.72038069999999","true"
"ChIJ1ZczJQDZeDkRJrMD8HenUoo","Manish agrawal and sons filling station","WPC4+RG5, North - South Corridor, Gadpahra Muhal","23.9220056","78.7063648",""
"ChIJsaRrdRTZeDkRrgekAWvNsT4","Hindustan Petroleum Corporation Limited","near Angadh Devi, NH 44, near Angadh Devi, Sagar Bypass, Gadpahra Raiyatwari","23.918771","78.72198499999999","true"
"ChIJTQxxwDbQeDkRAqccDvUpF5g","IndianOil","Ground Floor, Tigadda, Baheriya Sahani, Sagar","23.8851973","78.8197932","true"
"ChIJL9lVMgDReDkRqcOxaXunoYQ","Hindustan Petroleum Corporation Limited","No 328, 2/2, Bararu","23.8792732","78.7795912","true"
"ChIJz9po01fReDkRsDXBKgELCNE","Bharat Petroleum Shriram Highway Petroleum","VQMQ+MX, Jinda","23.88420679999999","78.7899522","true"
"ChIJ4wxp6MXReDkRpnsQdNXjfL8","Velvex Adblue (DEF) Filling Station","VQJX+P47, Jinda","23.8816463","78.7976602","true"
"ChIJuYcobTvXeDkRcPh_Og8UpZM","Shardaji Automobiles - BPCL Petrol pump","National Highway 44, Richoda","23.91425139999999","78.74607429999999","true"
"ChIJ12I0r8rReDkRuRnZtZko7Wo","Bharat Petroleum Petrol Pump , DEEPALI AUTOMOBILES","near HOTEL DEEPALI, Chhatarpur Road, Sagar","23.874465","78.807356","true"
"ChIJbXXf2LPReDkRVvU2-rF4XO8","IndianOil","opposite Dipali Hotel, Ground Floor, NH 86, Bamora Sagar Chhattarpur to Bhopal Rd,Baheriya Sahani, opposite Dipali Hotel, Sagar","23.871019","78.80798899999999","true"
"ChIJ6RFxwDbQeDkRZuLAPIpLr8E","Hindustan Petroleum Corporation Limited","Ground Floor, Tigadda, Bhedia, Sagar","23.8838728","78.8188122","true"
"ChIJ80SXWNTReDkR77RBh--LJZs","Nayara Energy Petrol Pump - Paras Fuels","National Highway 44, Baheria Gadgad","23.8858191","78.8279586","true"
"ChIJSR9zGQDPeDkRDne32xI0Rss","Meghagas CNG Stations","VVQ4+M6, Bamhori Dhunder","23.8891215","78.8562859","true"
"ChIJZcadKADPeDkRHpbgwXN0bXQ","Hindustan Petroleum Corporation Limited","Khasra No 748, 2/1 SH 14, Sagar Damoh Road, Sanodha","23.881868","78.882179","true"
"ChIJq0XVMV3PeDkRuG4ofDAVgbo","Hindustan Petroleum Corporation Limited","Ground Floor, NH 934, Sagar Chhatarpur Road, Kerbana","23.921611","78.85774099999999","true"
"ChIJ7b2KG2HFeDkRkjYaysBidRE","Maa sharda petrol pump","Sagar","23.9317631","78.86410049999999","true"
"ChIJY3MLY33FeDkRwH69z7fMp_g","Hindustan Petroleum Corporation Limited","Ground Floor, Karrapur","23.9287687","78.8739717","true"
"ChIJA9d-ZADFeDkRi0PvmWXD9HE","Petrol pump","XV3R+P9M, National Highway 934, Alampur Bheda","23.9543393","78.8909202",""