place_id,name,address,latitude,longitude,open_now
"ChIJmUacATueYzkRjWR7UmP7mYo","Hindustan Petroleum Corporation Limited","Ground Floor, near Toll Plaza, Badnagar Road, Chandukhedi","23.1670809","75.7008115","true"
"ChIJa_FdbyOgYzkRAm6jhVJNSNw","IndianOil","Ground Floor, Talod","23.094284","75.685509","true"
"ChIJQ9aWsXl1YzkR8S5P8hioslk","Bharat Petroleum Petrol Pump , KRISHNA PETROLEUM","M.P, Chintaman Road, JHAVASIACHINTAMAN JHAVASIA, Ujjain","23.13570499999999","75.727608","true"
"ChIJ4WKVRACfYzkRJv6Tuoh3LVc","Vinayak PUC Senter","5M4M+GW7, Chandukhedi","23.1562981","75.6848074",""
"ChIJGSQ-9XoLYzkRBi5CA8OTp1U","IndianOil","Ground Floor, Lekoda","23.0729469","75.7180015","true"
"ChIJde9uxlaeYzkRdGhd2Bhv6VI","IndianOil","near Ujjain Factory, Ground Floor Chandukhedi, near Ujjain Factory, Ujjain","23.157066","75.672336","true"
"ChIJ6T0yPIELYzkR2Vj53WDcug8","Bharat Petroleum Petrol Pump , LEKODA FILLING STATION","M.P, LEKODA, Ujjain Road, Ujjain","23.0670789","75.7159764",""
"ChIJazUV2UmfYzkRHyz3-Q84EpM","Gas","5P82+R9, Chandukhedi","23.1670625","75.7009375",""
"ChIJ88C_HgB1YzkRVJJgsyg0J4A","IndianOil","Ground Floor, Chintaman Road, Chintaman Jawasiya","23.1501587","75.7407563","true"
"ChIJV8e8n_qeYzkRmUj05tbvCxc","Prashant Filling Center Dealer ( BPCL )","Madhya Pradesh State Highway 18, Nalwa","23.159446","75.65728299999999","true"
"ChIJlVp6dKV1YzkRtAK8bMLTv6k","IndianOil","Ground Floor, Mohanpura, badnagar, Ujjain","23.1743936","75.7179711","true"
"ChIJAalGM2hzYzkRBQ2ccZv5xhE","IndianOil","Lock No 13008, Dewas Road, Lalpur, Desai Nagar, Ujjain","23.1404912","75.82180269999999","true"
"ChIJNbqEkXt0YzkRXqzcD4X3cQo","Hindustan Petroleum Corporation Limited","No B, 5, Dewas Road, Rishi Nagar, Ujjain","23.1677962","75.7993236","true"
"ChIJQZH5R2l0YzkRwvsvleSKOYE","Hindustan Petroleum Corporation Limited","Ground Floor, Ujjain Dewas Road, Ujjain","23.176051","75.788791","true"
"ChIJ9eBDIkALYzkRXRzoFFSAzkI","IndianOil","Ground Floor, Factory, Pipliya Ragho, Ujjain","23.1032856","75.78280260000001","true"
"ChIJny7GbdB1YzkRItvCyUzi0eE","Hindustan Petroleum Corporation Limited","Ground Floor, opposite Meghdoot Resort, SH 27, Ujjain - Indore Road, Ujjain","23.119036","75.799072","true"
"ChIJ36abOax0YzkRFyAIZrpejQY","Hindustan Petroleum Corporation Limited","Ground Floor, opposite Meghdoot Resort, SH 27, Ujjain - Indore Road, Ujjain","23.119036","75.799072","true"
"ChIJM2aolxZ1YzkR4Sk7NX0Xqc4","IndianOil","Ground Floor, Goyla Khurd, Ujjain","23.1421555","75.7905324","true"
"ChIJZ-ulLFYLYzkRYggUieyfWR0","IndianOil","Ground Floor, near tapobhumi Jain mandir, Sanwer Road, Nava kheda, Karadiya","23.105851","75.80633399999999","true"
"ChIJJ2tWq4sNYzkRGp4p3RZk8fQ","Sachin Fules & Petrol Pump","near nahar petrol pump, 1, Sanwer Road, Pawapuri Colony, Ujjain","23.10443459999999","75.80752679999999",""
"ChIJJ4Yibq11YzkRVgbixmCk67A","IndianOil","Ground Floor, Sanwra Khedi, Desai Nagar, Ujjain","23.15739","75.7697828","true"
"ChIJ5_ZR96MMYzkR7H069tvir_k","Bharat Petroleum, Petrol Pump -Nahar Petroleum","Karadiya, Indore Rd, Ujjain","23.0978669","75.813453","true"
"ChIJz2-czIt0YzkRmJtjlf0BxQM","BPCL & CNG Baghel Dealer Nanakheda","5-A, Sanwer Road, Mahakal Vanijya Kendra, Mahakal Vanijya, Ujjain","23.1569444","75.7877778","true"
"ChIJW5TA5loNYzkRkeD2Wk3Waf0","Hindustan Petroleum Corporation Limited","Ground Floor, SH 27, Ujjain - Indore Road, Ninora","23.093531","75.816126","true"
"ChIJy7XuOnJ1YzkRK3YItLYdE9Y","Shubham Pump","Road, Vikram University, Ujjain","23.1555424","75.80603789999999",""
"ChIJi3OsWmF0YzkR83sEnYD215k","Hindustan Petroleum Corporation Limited","Ground Floor, Nanakheda, Ujjain","23.1651028","75.78876170000001","true"
"ChIJ2zre51p0YzkRyadT5lTfNAo","IndianOil","Ujjain Bypass road, Haripatak Railway Over Bridge, Ujjain","23.16892589999999","75.7743151","true"
"ChIJlQnk63xzYzkRKBB0Tat5FS8","IndianOil","Lock No 1709, 32, Dewas Road, Desai Nagar, Ujjain","23.1522011","75.8108749","true"
"ChIJa51iZQBzYzkRCugAiWFzWzQ","CNG pump Avantika gas limited","Ujjain","23.1470759","75.8164338",""
"ChIJ51nJnO5zYzkRAA4UZbhZZ3U","Bharat Petroleum, Petrol Pump -Saify Auto Service","DEWAS RD, LALPUR, Ujjain","23.1425156","75.8201389","true"
"ChIJP-96fgBzYzkRd8uO8b-RmBY","Indian oil petrol pump at police line","5R45+5XM, Kothi Road, Vikram University, Ujjain","23.1554243","75.8088794",""
"ChIJy0k4ytFzYzkR_cynOdEiI3Q","Indian Oil, Umiya Petroleum","near Kia Showroom, opp. Patel Garden, Ujjain Dewas Road, Abhilasha Colony, Ujjain","23.1293353","75.8322865",""
"ChIJH2Elmm90YzkReYznpkMMtts","IndianOil","Ground Floor, University Road, Ashok Nagar, Desai Nagar, Ujjain","23.1729875","75.79260459999999","true"
"ChIJF8wXkUh0YzkRNfOZgDtP4zc","Aman Oil And Chemical","India","23.1777962","75.771069",""
"ChIJaeK0JkF0YzkRRshLPddmJ5k","IndianOil","Ground Floor, near Railway Station, Mal Godown Road, Desai Nagar, Ujjain","23.179215","75.77903200000002","true"
"ChIJT8ug7mt0YzkRoAOnnr6xiRU","Hindustan Petroleum Corporation Limited","Ground Floor, Freeganj, Ujjain","23.1785601","75.78845009999999","true"
"ChIJKdUE2jV1YzkR-cAk0gz4tc4","Preeti Kisan Seva Kendra","Preeti Kisan Seva Kendra, Sironj Road, Aron, Ujjain","23.1808411","75.7816924",""
"ChIJTfM_qfV1YzkR46ZNT2FaQRE","Dilip Jatwa","Dudh Talai, Anaj Mandi, K Piche, Ujjain","23.181654","75.7791685",""
"ChIJEYEOpmp0YzkRj7qdeC2F_bA","Govindram hanuman prasad, petrol pump","near Railway Bridge, Chamunda Mata Chouraha, Ujjain","23.1819743","75.7841358","true"
"ChIJ86RHr7F1YzkRArI-GfERXe8","GHP Lohia Petrol Pump","Freegunj Bridge, near Chamunda Mata Chouraha, Ujjain","23.1831839","75.7828155",""
"ChIJTQGDAQALYzkR5oATzr_RZU0","Sisodiya fules","3QJP+6X2, Chhayan","23.0805072","75.7873895","true"
"ChIJ82O3MSgNYzkRvINhvF6YFXc","Indian Oil - Monarch Oil","Ujjain Dewas Road, Chandesara","23.1162367","75.8514149","true"
"ChIJVwXjddUMYzkRBuikERxh-qQ","Mangalnath Fuels nayara pump","4V82+JW3, Ujjain Dewas Road, Chandesari","23.116506","75.8523115",""
"ChIJC0b22koNYzkRJf5weGbdTLo","Balaji fuel station","4V74+FC4, Ujjain Dewas Road, Chandesari","23.11363620000001","75.856073",""
"ChIJS_q-jk0NYzkRBr54HHDU2bw","Hindustan Petroleum Corporation Limited","Ground Floor, Datana","23.100294","75.872091","true"
"ChIJRc-BDQANYzkRjRD6pMkZC6w","Jio BP Petrol Pump Fuel","3VWH+PCP, Datana","23.0968448","75.8785762","true"
"ChIJ5aQfUQANYzkRANFZJFMaa8Q","Nayara petrol pump","3VRM+V9, Datana","23.092163","75.883426","true"
"ChIJNx9brj8NYzkRhhx7cNHPUuA","Essar petrol station","3R5F+CW6, Ujjain - Indore Road, Nayakhedi","23.0585422","75.82476969999999",""
"ChIJ7RFCcgkNYzkReGguv3qyEFM","Bharat Petroleum Trimurti filling station","Village panthpiplai, Ujjain - Indore Road, Ujjain","23.0472737","75.829594","true"
"ChIJM7h6VQBtYzkRJt1IAia1Xbo","Hindustan Petroleum Corporation Limited","PH No 51, Survey No 243, 2/1/1/1/1/2, Dudarsi","23.144213","75.904012","true"
"ChIJwZXTRPGdYzkRSBHQwhL8UcM","IndianOil","Ground Floor, Naikhedi, Ghatia, Dhabla Hardu, Naikhedi","23.2050844","75.6793028","true"
"ChIJaZbPBu11YzkRG5PmGxh-h1w","IndianOil","Lock No 13007, near Ujjain Factory, Badnagar Road, Mohanpura, Ujjain","23.1804","75.72800000000001","true"
"ChIJUfWJGwCfYzkRkaKzcHu2DbY","Shri Gayatri petrol pump (CNG available )","5J7P+7WC, Khadotiya","23.1631751","75.63727",""
"ChIJNarkO86eYzkRlS9ywI_ALrk","Shri Kirshna Essar","5J5H+59X, Chhankhedi","23.157982","75.62849299999999",""
"ChIJMax4_9Z3YzkREP3uQokFePE","Hindustan Petroleum Corporation Limited","Ground Floor, near Vardhan Cold Store, Unhel Road, Ujjain","23.2377238","75.7449622","true"
"ChIJdQsI1gN0YzkR2Ms8Ep1HvZk","Hindustan Petroleum Corporation Limited","Ground Floor, Kanipura Road, Ujjain","23.2045794","75.8011155","true"
"ChIJGb_oTjx0YzkRsRVx7lR29AI","Star","India","23.1903016","75.780258",""
"ChIJnVdYod11YzkR7fzvpbmGyL8","IndianOil","near Ujjain Charitable Trust Hospital, Plot no 56, Ankpat Marg, Ujjain","23.1953591","75.7770891","true"
"ChIJ3f5590F0YzkRJuSQbIkZtP0","IndianOil","Ground Floor, Agar Road, Koyla Phatak, Desai Nagar, Ujjain","23.1889871","75.7843997","true"
"ChIJaVDJZwB1YzkRB1zQjaVQS64","UMC","5QRP+83W, Koyal Phatak Chauraha, Arihant Parisar, Sirsagar, Ujjain","23.1908683","75.7851917",""
"ChIJWSz-ju3BZjkRYh9MoqiXUzk","IndianOil","Ground Floor, Ujjain - Agar Road, Ujjain","23.191841","75.7855438","true"
"ChIJXSKj0Bl0YzkRiSAaeztyXgE","FUEL CENTER BPCL PETROL PUMP","Ujjain - Agar Road, Ujjain","23.1955259","75.7875105","true"
"ChIJ3f5590F0YzkRAkUVeeFZrPg","Gas Center","near MPEB Office, 16/3, Maksi Road, Ujjain","23.1822103","75.7914782","true"
"ChIJicyAQ8l1YzkRT6cg3F4WUSo","Patrol pamp","5QXV+Q62, Rajendra Nagar, Ujjain","23.1993787","75.7930047",""
"ChIJjVj2AE51YzkR3qxDDHgsEzY","Gurunanak Fuels","near nageshwar dham, Gurunanak Fuels, near nageshwar dham, Kanipura Road, Ujjain","23.1993679","75.7933204","true"
"ChIJJeiGmyJ1YzkRTOqtCCohU7M","Rukmani Filling Station Bharat Petrol ONLINE CNG Pump","Ujjain Ring Road, Dhancha Bhavan Colony, Bapna Park Colony, Ujjain","23.1974983","75.79458989999999","true"
"ChIJ_3_22C11YzkRtWF1czHnohU","Bharat Petroleum, Petrol Pump -Subham Petroleum","FREEGANJ,NEAR RAILWAY BRID, Ujjain","23.2051297","75.78928069999999","true"
"ChIJzUwO4x10YzkRsjttTX6r30A","Hindustan Petroleum Corporation Limited","Ground Floor, Ashok Mandi Marg, Agar Road, Ujjain","23.205808","75.789672","true"
"ChIJvc90J7B1YzkRRYYY7E0KtuA","IndianOil","Ground Floor, Inner Ring Road Badnagar Kasba, Nagar, Maksi Road, Amodiya","23.1949697","75.8009795","true"
"ChIJkZd8O6d2YzkRVxWnyNud4yc","IndianOil","Survey No 90/2/1, near Ujjain Factory, Plot 61/1, Ashok Mandi Chouraha, Khilachipur, Ujjain","23.2089167","75.7904643","true"
"ChIJL8GNrIR1YzkRdvIcmUA0VVQ","Krishna Fuels","MR- 5 Inner Ring Road , Agar Maksi Bypass, Ujjain","23.1943079","75.8016884","true"
"ChIJDaC62oxzYzkRQzD54OpvMY4","IndianOil","Lock No 23009, Maksi Road, Desai Nagar, Ujjain","23.1849917","75.8150909","true"
"ChIJI-YgJrB2YzkR51RoxJed95A","IndianOil","Lock 13015 Agar Road, Khilchipur, Desai Nagar, Ujjain","23.219341","75.797445","true"
"ChIJy6EIjvN2YzkRvUkQPIFZgJA","IndianOil","Ground Floor, Ujjain Bherugarh, Unhel Road, Ghatiya, Ujjain","23.23186059999999","75.76698449999999","true"
"ChIJZZ2GkZdzYzkRLXC61HyC2j8","Bharat Petroleum Petrol Pump , MAHAKAL FILLING STATION","PAWASAPANWASA, Ujjain - Maksi Road, Ujjain","23.1898354","75.8206194","true"
"ChIJF56F_J93YzkRmtniGizApb0","Bharat Petroleum Petrol Pump , RAJNARAYAN PETROLEUM","BHAIROGADH UJJAIN, M.P","23.2357998","75.7606144","true"
"ChIJ69TxpVN3YzkRatdtCnXe9x8","Bharat Petroleum, Petrol Pump -Itc Chopal , Ujjain","KAMED,SH 27,UJJAIN, Ujjain","23.2254285","75.8015392","true"
"ChIJ8Uuh4OtzYzkRtknJoRkFijM","Hindustan Petroleum Corporation Limited","Ground Floor, Ujjain - Maksi Road, Pawasa, Ujjain","23.1921541","75.82569529999999","true"
"ChIJ8d2CfMh3YzkR5doeqTVstE4","नायरा पैट्रोलियम","6PQX+C95, Sodang","23.2385113","75.74848349999999","true"
"ChIJPzWbaK53YzkR605nkYVYa5o","Vardhan Petroleum","6PQX+G75, Sodang","23.2388335","75.7482581","true"
"ChIJDcbhskJ3YzkRbRZrpg-RnUc","Shri Awantika Jalpaan Grah","Force Shorum Ke Samne, Medical College, Ujjain - Agar Road, Ujjain","23.2304622","75.8036809",""
"ChIJhdOl4elzYzkRNJa0YywUerk","IndianOil","Survey No 168/3/1, Ph, 40, Maxi Road, Amodiya","23.1941428","75.8299086","true"
"ChIJTUa56W53YzkRnTQhMrFzgCE","Bharat Petroleum, Petrol Pump -Khushi Fuel Station","Surasa","23.2315495","75.8038485","true"
"ChIJkZFwXzNxYzkR1jcTFCJDJHM","ESSAR MAA ARBUNDA PETROLEUM","6RQ5+27C, Surasa","23.2375741","75.80814880000001",""
"ChIJkyGbAC9zYzkRvO9xY-R3wPM","IndianOil","Survey No 39/1, near Sanchi Dugdh Sangh, Ph No 51, Shankarpur, Desai Nagar, Ujjain","23.1947623","75.8479937","true"
"ChIJfV1YD39zYzkRWCfxcdCycC4","Sudarshan Petroleum","Ground Floor, Pushpanjali Nagar","23.2013614","75.87731690000001","true"
"ChIJJccHElltYzkReCE-Wc37bPc","IndianOil","Ground Floor, Tajpur","23.2050502","75.9050547","true"
"ChIJq8XYMMptYzkRkRx03wP5Xr0","SHRI RAMARDHAN KSK Indian oil","near patidar international school, Ujjain - Maksi Road, Tajpur","23.2050328","75.9051569","true"
"ChIJczzbpC5xYzkRKRM0Ycnvun4","Hindustan Petroleum Corporation Limited","Ground Floor, Ujjain - Agar Road, Dhabla Rehwari","23.2486801","75.8133142","true"
"ChIJSyzcXshtYzkRa8L5MeQha7A","Bharat Petroleum Petrol Pump , ANAND PETROLEU","TAJPUR CHOPATIMAXI ROAD UJJAIN, M.P","23.206924","75.909482","true"
"ChIJj75vkGWdYzkRC8k9I-STG4Y","Baba Nakoda Fuels (Petrol Pump)","Chakrawada","23.2606625","75.7031135","true"
"ChIJI2G2WdydYzkR6okUlAvP_aY","BPCL ANAND FUEL POINT KHEDLA","7M9J+HMW, Nagda Road, Khedla","23.2689928","75.6817115",""
"ChIJkexIEQB3YzkR1wiAdN8JMyQ","Mali krishi seva KendraJio BP fuel pump","7P3F+J7, Chakrawada","23.2540031","75.7231922",""
"ChIJBeNM29edYzkRBFziiHQ6TTw","ARYA FUEL STATION CNG PUMP","Nagda Road, Ruie","23.2860349","75.6502009","true"
"ChIJZ5iJawd7YzkRvNR1x_BXfXk","IndianOil","Ground Floor, Rui, SH 17, Ghatiya,Dhabla, Hardu, Ujjain","23.28605959999999","75.6501854","true"
"ChIJXai8QKmDYzkRExYoy-dgdmE","Hindustan Petroleum Corporation Limited","Ground Floor, Ujjain Jaora Road, Ruie","23.288497","75.645214","true"
"ChIJY5NQJLxwYzkRfZoh3lyb6lk","Bharat Petroleum, CNG Petrol Pump -Jay Nakoda Petroleum","JAITHALTECH ,UJJAIN KOTA R, Ujjain","23.28639","75.8261407","true"
"ChIJzxLAGvdxYzkRCCw3-_ZzEOw","Atharva Petroleum","ujjain agar, national highway, jhalawad","23.2590625","75.8174441","true"
"ChIJg9FXqYRxYzkRRSBQfr9Gkwk","Bharat Pump","1 Gram Jethal Tek","23.2824257","75.8214371",""
"ChIJUYzofgBxYzkRAV03_GpeO9w","Hotel Nandi Resort","7RPG+94J, Ujjain - Agar Road, Jaithal","23.2859692","75.82527809999999",""
"ChIJg-QXlr5wYzkRDF07nhImdUU","IndianOil","Ph No 42, Survey No 296, 4 300, Dhabla Hardu, Jaithal","23.2848874","75.8259964","true"
"ChIJEy3_ss55YzkRKn7Gh1Vy7KM","IndianOil","Ph No 14, Survey No, 2986/5, Dhabla Hardu, Ghatia, Panbihar","23.314103","75.785507","true"
"ChIJuzYLMgBxYzkRZX-Qj0KTu44","New petrol pump Sagar fuel station","Dewan Khedi, Amodiya","23.2558624","75.8707026","true"
"ChIJ94tWxyNxYzkRxbiyWZbaUj4","IndianOil","Ground Floor, Gunaikhalsa","23.275783","75.8952266","true"