place_id,name,address,latitude,longitude
"ChIJKX1cuv4tjjkRFCs0jRbpp2Q","IndianOil","Railway Station, Shiv Pura Sigra, Rath Yatra, Road, Varanasi","25.3117298","82.9885989"
"ChIJRVLt8yEzjjkRMq_UN0ERA-g","Reliance Petroleum","D63/10, Mahmoorganj Road, Sigra, Varanasi","25.303754","82.976351"
"ChIJiXy_BeItjjkRx10VOMNA0K0","IndianOil","Maldahiya, Lajpat Nagar, Varanasi","25.324406","82.992803"
"ChIJJWaSQgkujjkRzj9kKUrQ8bQ","IndianOil","Vidyapeeth Road, Kail Garh, Chetganj, Varanasi","25.3239693","82.9960825"
"ChIJWZnZLNstjjkRYRwkEBBBcB8","UP MOTORS, Bharat Petroleum","8XQJ+8XW, Kacheri Rd, Varuna Bridge, Nadesar, Chaukaghat, Varanasi","25.3383559","82.982463"
"ChIJzYjzWw4ujjkR_XijnqgyDeQ","IndianOil","Sant Kabir Road, Lahurabir, Varanasi","25.3232985","83.0013977"
"ChIJJYOVgc8tjjkRQNpptUbbKDg","IndianOil","Kachehri, Chauraha, Club Road, Hamrautia, Varanasi","25.342045","82.979805"
"ChIJ9SzCLBAujjkRZ5wpJn5ghuE","Hp Petrol Pump","C 7/69, Sant Kabir Road, Piplani Katra, Chetganj, Varanasi","25.3221057","83.0043714"
"ChIJif3nDNgtjjkRWcc8LR5h9rg","IndianOil","Ground Floor, near District Jail, Maqbool Alam Road, Varanasi","25.3411188","82.99277149999999"
"ChIJQR0G0oYyjjkRI2SNbQKfPQg","IndianOil","Ground Floor, Varanasi Allahabad Rd Old GT Rd, Churamanpur, Varanasi","25.298514","82.94670599999999"
"ChIJq1EsingujjkRJvJCVlPB4NA","IndianOil","Gata, 1108, Sudhakar Road, Hukulganj, Sadar, Varanasi","25.345526","82.99432399999999"
"ChIJAc7alPAxjjkRseHMySFClFY","IndianOil","Ground Floor, Bhadaini, near Mudkatta, Baba Farid Lane, Varanasi","25.2941327","83.00009159999999"
"ChIJiXs_SRUyjjkRBZG9YdCVIEs","IndianOil","BHU Road, Sundarpur, Newada, Varanasi","25.283686","82.97213099999999"
"ChIJI6X2JPExjjkRxYNs1GAvUgY","IndianOil","near Dharn Sangh Complex, Teliyana, near Dharn Sangh Complex, Durgakund, Bhelupur, Varanasi","25.291889","82.999748"
"ChIJF311vUwsjjkRYmBe0XIfiuk","IndianOil","near St. Atulanand School, NH 56, Gillet Bazaar, near St. Atulanand School, Varanasi","25.354261","82.965492"
"ChIJyck_UWoujjkRFnLKhQt6qd0","IndianOil","Railway Station, Alaipur, near Varanasi City, Old, Grand Trunk Road, Alaipura, Near Varanasi City, Jalalipura, Varanasi","25.334608","83.013245"
"ChIJFe1HFPMxjjkRQWlrSdcuuqY","Hindustan Petroleum Corporation Limited","near Sankat Mochan Hanuman Temple, 58 Durgakund Marg, near Sankat Mochan Hanuman Temple, Lanka Road, Varanasi","25.285431","83.000171"
"ChIJqRYHPvMxjjkRl5o9hn5vQRA","BHARAT PETROLEUM","72P2+23M, Sankat Mochan Road, Kaiwalya Dham Colony, Tulsi Manas Mandir Colony, Naria, Varanasi","25.28509379999999","83.0001836"
"ChIJRd6-uUYyjjkRCeRcUlDsnpY","Hindustan Petroleum Corporation Limited","Ground Floor, DLW Road, Chitaipur, Varanasi","25.275441","82.967491"
"ChIJU4xE-1EsjjkRlQKgFWpYWKo","IndianOil","NH 31, Airport Road, Suddhipur, Varanasi","25.359163","82.960518"
"ChIJydcCiPMwjjkR9hPX1Dk225s","IndianOil","No 179 Chandauli, Dahiya, Alampur, Mughalsarai","25.2567901","83.0542203"
"ChIJZ8_y9OIwjjkRNZH1lYsLN8o","IndianOil","Ground Floor Ramnagar, Tahirpur, Chandauli,Kateshar, Near Tengra Mor","25.247404","83.037719"
"ChIJefA4ZikxjjkRdDO0P1lmPSE","IndianOil","Ground Floor, NH 7 Narayanpur, Mujaffarpur","25.2208692","83.0324255"
"ChIJid57VQAxjjkRpmNZKfgBpmc","Aditya fuels","7328+HR, Katariya","25.251437","83.067021"
"ChIJz0QQXGYxjjkRUPnX0ChyhoI","MAHAJAN FUELS","vill jivdhipur, Nh 19, post, basant Nagar, chandauli","25.2524293","83.0701589"
"ChIJScyKVWYxjjkRGehLw4RVjyA","DEF uriya","732F+X2, Katariya","25.2524311","83.07260579999999"
"ChIJuWIup0gxjjkRk-mF3L3uqV8","Yuvraj Fuel Station","near Katariya, National Highway 19, Bhiti, Ramnagar, Varanasi","25.2538281","83.05877199999999"
"ChIJS34-zfIwjjkR4S2wC1ZZAWA","IndianOil","Gata No 801, 802 806 & 809, Bhiti Sadar, Katesar, Varanasi","25.2530801","83.057726"
"ChIJU1pDRgAxjjkRlRXC-QGrd3A","Dahiya","7344+3QJ, Ramnagar Road, Dariyapur, Dahiya","25.2552158","83.0568995"
"ChIJjfLstvMwjjkRf9Ro7yY_io0","Bharat Petroleum, Petrol Pump -Sakshi Road Lines","RAMNAGAR,BHITI,DST VARANAS, Varanasi","25.2541993","83.0538134"
"ChIJSZxLcwAxjjkR_SKsBd9BZaI","Hindustan Petroleum Corporation Limited","Ground Floor, Tengra Mod, Sadar, Tengra, Varanasi","25.253741","83.038952"
"ChIJT56_SVMxjjkR32kyxsiKOIk","Bharat Petroleum, Petrol Pump -Suresh Service Station (Hsd)","RAMNAGAR,TENGRA MOD,DST VA, Varanasi","25.25220749999999","83.038399"
"ChIJM4-inDQxjjkR_EA9i_cFVYk","Bharat Petroleum, Petrol Pump -Maidagin F/S (Hsd)","RAMNAGAR,RAM NAGAR,DST VAR, Varanasi","25.2510673","83.0381939"
"ChIJOXTa7acxjjkRQuR2wPtUwCk","Hindustan Petroleum Corporation Limited","Ground Floor, National Highway 35, Chunar, Rasul Ganj","25.242041","83.037241"
"ChIJSZz2gnYxjjkRDCaXW56R-pE","Bharat Petroleum, Petrol Pump -N K Panday & Co.(Adhoc)","","25.2379932","83.03686569999999"
"ChIJg1hejbExjjkRMTWdD7kCEHY","Jio BP Petrol Pump Ramnagar","62PP+JPH, Mirzapur - Varanasi Road, Rasul Ganj","25.2366527","83.03683319999999"
"ChIJme4BDgAxjjkRsGIHuPxAIYI","BPCL Retail - Ram Raghuver Petrol Station Ramnagar Varanasi","726M+9GP, Bhitti","25.2609633","83.0338194"
"ChIJQVzRYQAxjjkRNWwqJg0K0as","ARAV HIGHWAY ENERGY","62PP+23M, Chunar","25.2358542","83.0357707"
"ChIJ9dyPIgA7jjkRQdIF8QJrFIA","Online Gail Gas Cng Station Shri Naga Ji Fuels","Shri Naga Ji fuels CNG station, Billaridih mauja Chakiya Pt Deem Dayal Upadhyaya Nagar, opposite PW gurukulam, Mughalsarai","25.2529378","83.1047901"
"ChIJXxv0tz5BjjkRkyZ6ZJfHvC4","IndianOil","Ground Floor, Chakia","25.2530088","83.10505049999999"
"ChIJ_aNNi1k8jjkRyyq4zslmndU","Hindustan Petroleum Corporation Limited","Ground Floor, Ganj Khwaja, NH 2, Grand Trunk Road, Lauda","25.2637201","83.1957501"
"ChIJp2n6CmI8jjkRtkpg2xwE0Do","IndianOil","Ground Floor, NH 2, Adsand, Rema","25.268626","83.179746"
"ChIJbZolqIA8jjkRUYPuluB2CNM","IndianOil","Ground Floor, NH 2, Rewsa","25.268199","83.1697603"
"ChIJsQy15V48jjkRMamIMXiEwqM","Raja Service Station (IOCL)","Grand Trunk Road, Mohammadpur","25.2655048","83.1899303"
"ChIJsxNgB3Q9jjkRKyGDajg8-kI","IndianOil","NH 2, Ganj Khwaja","25.2663792","83.1897795"
"ChIJrzw5j1k8jjkRV3U6lk43Nrw","Hindustan Petroleum Corporation Limited","Ground Floor, Mohammadpur","25.264543","83.192365"
"ChIJV1FPKeE9jjkRdaZbdz_6j48","Bharat Petroleum, Petrol Pump -Rajiv Service Station","GANJKHWAJA,MUGHLSARAI,DSTC, Chandauli","25.268355","83.18225269999999"
"ChIJnWl6SlE8jjkRraCbtLjsaCI","Bharat Petroleum","7672+8FR, Service Rd","25.2633587","83.201128"
"ChIJe67zVAA9jjkRbuL4Hr1kfes","Jai Mata Di Filling Station - Indian Oil","7673+54X, Mohammadpur","25.263439","83.202803"
"ChIJn14H-1M8jjkRGONTDqdWmi8","HP PETROL PUMP - KISSAN SERVICE STATION","HP Dealers PO Launda Jhansi Chandauli, Varanasi","25.2622169","83.2037203"
"ChIJJTYj0V09jjkRh8hajJ5kCfQ","Hindustan Petroleum Corporation Limited","Ground Floor, NH 2, Grand Trunk Road, Lauda","25.26191099999999","83.20384299999999"
"ChIJW-02PgA9jjkRa117lo86Vhw","MAMA BHANJA SYNERGY P.V.T. L.T.D.","7674+47H, Mohammadpur, Asian Highway 1, Rampur Urf Akabarpur","25.2627344","83.2055374"
"ChIJ4xQGRFM8jjkRba5n0LeIL4A","Hindustan Petroleum Corporation Limited","Ground Floor, Lauda","25.262681","83.20664099999999"
"ChIJDbfCDQA9jjkRQ5ZGz8vUZ5A","Maa kamakhya uriya pump","7665+WXR, Jhhansi","25.262143","83.209642"
"ChIJN7pkIQA9jjkRZxqpTEl4OpQ","Maa kamakhya uriya pump m.k.t hotal jhasi Chandauli","7665+WXR, Jhhansi","25.2623625","83.2098906"
"ChIJof2MLgA9jjkRQK3NcTYuZYI","Indian Oil Petrol Pump M/s Tej Filling Station","75MP+Q9, Dhamina","25.28448299999999","83.185891"
"ChIJ-cgW8SQ9jjkRbTisEZDMYyE","Bharat Petroleum, Petrol Pump -Nk Pandey & Co.","JHANSI,ON NH, DST CHANDAUL, Chandauli","25.2618326","83.2121714"
"ChIJ9wHvKgA9jjkR6nT4qIr4sOk","IndianOil","near Surya Rama Centre, Ground Floor Jhansi, near Surya Rama Centre, Mughalsarai","25.2615099","83.2126033"
"ChIJTbMDgq49jjkRW4AVmp1CuRY","KRISH AUTOMOBILES","India","25.2616183","83.2131483"
"ChIJo4niDQA7jjkRsF5UImHMB-c","SK Power Point Indian oil pump","7595+F3M, Alampur","25.268724","83.15768179999999"
"ChIJI00un2kWjjkR57mdf7hJFBg","Petrol Pump","Majhwar Road, Majhwar Khas","25.2468557","83.2785712"
"ChIJmfk3gi8WjjkRIAG8qnLIt3A","IndianOil","Ground Floor, near DM Office, NH 2, Barthara Kalan, Chandauli","25.2609286","83.25895299999999"
"ChIJHe1brigWjjkRUl3e7gYNDHM","Chaurasia Service Station (Bharat Petroleum Corp. Ltd.)","7764+83H, NH_2, (G.T.Road), Ward No. 3, Nehru Nagar, Chandauli, Delhi - Kolkata Highway, Bichhiya Kala, Chandauli","25.2608958","83.2555988"
"ChIJKy22lVgWjjkRzCi3Hb2VY_4","Hindustan Petroleum Corporation Limited","Ground Floor, Rampur Machiya, Chandauli","25.257631","83.292321"
"ChIJYzM23n4XjjkRp0BHQZj8o28","Hariom Energy Station","NH-19, Village, Sirsi, Chandauli","25.2584138","83.2913913"
"ChIJvXSYRwAXjjkRUr2f2DiI0L0","Synergy private limited","NH35, Dandi, Prayagraj","25.25580990000001","83.3214867"
"ChIJxXe24FoWjjkRhYGzs1VbPcI","Hindustan Petroleum Corporation Limited","Ground Floor Chittoo, NH 2, Gautam Nagar, Chandauli","25.2589287","83.28412329999999"
"ChIJtSrBcQAXjjkRyVKjr50ukyA","A.F.C.kela. plant (Mahir)","775M+772, Chandauli","25.2581409","83.2831532"
"ChIJjwEt00QWjjkRFRzacnGKq8A","IndianOil","Ground Floor, NH 2, Chitton, Barthara, Kharan","25.258118","83.282861"
"ChIJbewvXwAXjjkR-aYfhOojmAU","CNG Pump","775J+7X4, Chandauli","25.2581358","83.282839"
"ChIJj66OrmQWjjkRibrRVwq-mLw","Hindustan Petroleum Corporation Limited","Ground Floor Majhwar, 126, Chakia Road, Madhuvan, Chandauli","25.238531","83.287581"
"ChIJQ9m4ZwAXjjkR9wS5GM7QXUU","Aman Giri","77G8+Q44, Basarikpur","25.2768959","83.2653191"
"ChIJsS77fQAXjjkRFqLFv7qmb70","Petrol pump ⛽","77H7+VM9, near railway crossing, Basarikpur","25.2791118","83.2645873"
"ChIJz3yhBtQXjjkRV1KXaWtCRy0","Padamjeet Bharat Petrol Pump","near Jeet palace, Sakaldiha - Chandauli Road, Basarikpur","25.2785174","83.263452"
"ChIJ6VA_dAARjjkRb-ubngI13s0","Noubat pur CNG","69WW+5W3, Khamanpur","25.2455185","83.3975842"
"ChIJIcVLUpIRjjkRU9rQW1fvwbs","IndianOil","Ground Floor, NH 2, Grand Trunk Road, Adsand, Naubatpur","25.245556","83.397221"
"ChIJV610SZoRjjkRmqQw306ILTc","ATA Filling Station","Naubatpur","25.245583","83.3971957"
"ChIJGVc_xvERjjkRQ6RbT8ehRKo","IndianOil","Ground Floor, Barthi Kamraur,Adsand, Chandauli","25.2470964","83.39030389999999"
"ChIJpRueUTwRjjkRWooJ-qmYzKc","IndianOil","Ground Floor, NH 2, Naubatpur","25.246382","83.3887963"
"ChIJk2WesEYRjjkR61BTO5HVbWM","Reliance Petrol Pump","Grand Trunk Road, Raghu Patti","25.24718399999999","83.37876279999999"
"ChIJ_zmtZVgRjjkRCbj1XEt56Ic","KAILASH FUELS JIOBP PETROL PUMP","Kailash Fuels, Delhi - Kolkata Highway, Barati Kamraura","25.2471468","83.37861939999999"
"ChIJS2d8r1sRjjkRq56OQan3Fhw","Baghai Kumhapur","69WG+XCG, Bagahi Kumhapur","25.247445","83.3760643"
"ChIJRQkdawARjjkRDvWjSi1lZxc","RPM FUELS Indian Oil Petrol Pump","69WG+XCG, Bagahi Kumhapur","25.2473952","83.3753296"
"ChIJZb77fwARjjkRpwhD4D4jaDc","R.J Chandauli","69XF+2M5, National Highway 19, Bagahi Kumhapur","25.2474753","83.3745649"
"ChIJzaRVSQARjjkRztcEF7WQ4H4","Bagahi kumbhapur","69XF+765, Bagahi Kumhapur","25.2481318","83.3731114"
"ChIJoRUhQAARjjkRTYPadfjOZmA","भारत यूरिया पंप","Bharat Uria pump 19, near Bharat Petroleum, National Highway, Bagahi Kumhapur","25.2488497","83.3721052"
"ChIJG5-rMAARjjkRKPeH4CgHMrM","MAHADEV Energy Bharat Petroleum","AH1, Bagahi Kumhapur","25.2490494","83.37131769999999"
"ChIJxd4NJXIRjjkRAzYtl8Qn5E8","IndianOil","Ground Floor, NH 2, Adsand, Bagahi Kumhapur","25.2481596","83.3701888"
"ChIJhc4AJwARjjkRDxfaw7Rhuz0","Amarrnath Fuels","AH1, Bagahi Kumhapur","25.2492019","83.3704078"
"ChIJfxPaWcgRjjkRJIB75-Mq9vA","Hindustan Petroleum Corporation Limited","Gat No 1340, NH 19, near Varanasi, Delhi - Kolkata Highway, Bagahi Kumhapur","25.248072","83.368371"
"ChIJ-91dIwARjjkRvkawpBWH4-w","Abhishek Tour And Travels","69X9+M92, Saiyadraja","25.248065","83.3680133"
"ChIJIftXeJkRjjkRwlgMKXkd7UQ","Hindustan Petroleum Corporation Limited","Arazi No 153 NH19, Delhi - Kolkata Highway, Varanasi","25.2490931","83.36771449999999"
"ChIJsXIeJQARjjkRQppzMG8YFkU","Hindustan Petroleum Corporation Limited","Ground Floor, NH 2, Narwan, Bagahi Kumhapur","25.2495261","83.36672899999999"
"ChIJhWtwT98NjjkRaCn_gBYyYTY","BPC PETROL PUMP - HARI OM FUELS","HP Petrol Pump, NH-2, Sonaw","25.2327923","83.4478669"
"ChIJQfcrhLwLjjkRuOZoWMJ201g","ESSAR Petroleum","6G4J+JF6, Sarangpur","25.2065453","83.5311365"
"ChIJH9h5XxAMjjkRNFI7L_SWp6s","बाबा बिल्डिंग","India","25.2220313","83.49373179999999"
"ChIJNWs2kmR1jjkRiUueObLslns","IndianOil","Ground Floor, Durgawati, Awarahiyananchal, Dumraith, Bhabua","25.1917013","83.51342249999999"
"ChIJMXYfFAANjjkR4lJqJEQPgMQ","CNG Pump","6FFQ+5FH, Dhanichha","25.2229451","83.48872910000001"
"ChIJB2nHfBcMjjkRSi0jqj1VgMc","IndianOil","Ground Floor, NH 2, Akorhi, Khamidaura","25.2230273","83.488659"
"ChIJoThvrq8LjjkRqXUNkTnRsg8","Hindustan Petroleum Corporation Limited","Ground Floor, NH 2, Sonawan","25.2000243","83.5413641"
"ChIJvd67xFQKjjkR_ztakNdWh0c","Bharat Petroleum","India","25.1945356","83.55059419999999"
"ChIJHWT2rmILjjkRmM2vpOIJnWY","BPC petrol pump","5HV2+M5Q, Awahriya","25.1942174","83.5504708"
"ChIJYYo5EwALjjkR-n6_w2qNiFs","Guru Gold singh","5GF9+9P5, Ashoga","25.173285","83.51933199999999"
"ChIJVTowIQANjjkRxB9BSO3suN0","SNL motors Durgawati","6FG9+MC9, Kulharia","25.2280099","83.4688212"
"ChIJB-jJTVrhjTkRGIRca7ZRmYo","Maa Bhavani Petroleum","Parasia - Nabinagar Road, Barej","25.1538426","83.62255359999999"
"ChIJ0XziIwDhjTkRqGv9yHLgME4","Jiobp Pump","5J98+3Q6, Mohania","25.1676631","83.61687870000002"
"ChIJ0VAAH-_ZjTkRZfAv_icWmdo","Bharat Petroleum Petrol Pump , JAY MAA MUNDESWARI DH","PARMARPURKESHRIGANJ","25.1676631","83.61687870000002"
"ChIJc4AnrWjgjTkRL1gBS7VNdGI","HP PETROL PUMP - SRI RAM PETROLEUM","HP Petrol Pump Awari P/o-mohania, Patna","25.1530988","83.62213969999999"
"ChIJFb7074jhjTkRCaopiSz1yLo","Hindustan Petroleum Corporation Limited","Ground Floor, Anwari","25.153178","83.621781"
"ChIJo2ujpNDhjTkRLk0RNF1EM70","Maa Mundeswari Petroleum","Dadwa, Mohania - Ramgarh Road, Mohania","25.176572","83.63031199999999"
"ChIJM8DYOxbgjTkRFYM1BlzFaJU","IndianOil","Baspurwa","25.1684958","83.60646229999999"
"ChIJhwCrUQDhjTkRla9z2RWV3c4","Tirupati Balaji Service Station & CNG","5J94+GJM, Grand Trunk Road, Mohania","25.1688345","83.6065344"
"ChIJkZux49rhjTkRtXP9fSRwzT4","Hindustan Petroleum Corporation Limited","Khata No 105, Plot No 1172, NH 2, Barej","25.150718","83.648038"
"ChIJNSwjc7PhjTkR9F_pvHI0qLM","Kisan filling station","Nh2 Devkli Mohania, Mohania","25.1703051","83.601592"
"ChIJL5bpJfThjTkRHHtnxRpXz8Y","IndianOil","Ground Floor Dewakali, Akorhi","25.17001999999999","83.600583"
"ChIJ1wweLDbhjTkRClO8sDNkVxc","IndianOil","Ground Floor Chechariya, Akorhi","25.19064000000001","83.630085"
"ChIJA0jsibHcjTkRtiJsH-HAfeI","Hindustan Petroleum Corporation Limited","Ground Floor NH 2, Kudra, Karman","25.070917","83.757922"
"ChIJwyW0rAjdjTkReE_RA8eyrk8","SHIV ABHILAKHI SERVICE STATION","Shop No 6 Kudra Road Amitha Pusawali, Road Nh19, Kudra, Mohania","25.0831924","83.7393373"
"ChIJfxvZd1bcjTkRHrHdclCvCUs","IndianOil","Ground Floor Ghataw, NH 2, Akorhi","25.0987535","83.71577839999999"
"ChIJYcBfc8DcjTkRGUKHeOL5VpM","IndianOil","Ground Floor NH 2, Fakharabad Kudra, Amirtha","25.0813059","83.7426356"
"ChIJBSPiwFLcjTkRrJQyi3PBic0","IOC Babu Banshidhar Service Station","Grand Trunk Road, Pusauli","25.1019831","83.7107747"
"ChIJaf8oo3rdjTkR6Q_JDXT35YA","IndianOil","Ground Floor, Mohania, Bhitti","25.119663","83.709564"
"ChIJb-oXMa3cjTkRHfBo2LK-BRE","HP Petrol Pump - Highway Auto Care Center","HP Petrol Pump NH2, Village-karma Po-kudra, Patna","25.06799","83.761954"
"ChIJHcqU_bbFjTkRfomOe-rwvCg","Hindustan Petroleum Corporation Limited","Khasra No 31 Khata No 31 Sakri, near Maa Sharda Dharam Kata, Belbhadra, Kudra","25.009726","83.8116416"
"ChIJR2VUo8DFjTkRj-D3ug_sEeM","Prakash kumar","10 Nh2, Kudra","25.0247275","83.8066671"
"ChIJWXrxJF7EjTkR8TrjI5pg5yk","IndianOil","Ground Floor, Kudra, NG 2, Kaimur, Bhabua","25.035889","83.808332"
"ChIJ7X2jzdTFjTkRt8ZlCogAyZM","Rohtas service station","NH2, Sakri","25.0362958","83.8084337"
"ChIJO45NuWfFjTkRjwoDT7YC4Wg","Alpha","Bus Stand, 63, Mokaram","24.994173","83.812113"
"ChIJIf4wLqfFjTkRBhDSQlFHq5U","Maa Saraswati Fuel Station-BPCL","Sakri","25.034056","83.8032315"
"ChIJdwumbnvFjTkRUWnYvu7Mubs","Bharat Petroleum, Petrol Pump -Janakdulari Petro Point","CHENARI,ROHTAS, ROHTAS SASARAM","24.9963173","83.8469834"
"ChIJ89-8TTbHjTkRDYNZSLhdYNo","Hindustan Petroleum Corporation Limited","Ground Floor, NH 2, near Chenari, Post, Padari, Sabrabad","24.9957726","83.8478226"
"ChIJXxyOkH3FjTkRqRUnDA6AoXY","NITESH ENTERPRISES","01, Khudra","25.0456887","83.79625709999999"
"ChIJQQZ_Hj3FjTkR31q1FWwKQeE","Rampur Petrol pump","Village-rampur, Kudra","25.0423372","83.7886295"
"ChIJr97v4f23jTkR-aANWrHXih8","Hindustan Petroleum Corporation Limited","Plot No 62 & 63, Khata No 32 & 39 NH 2, Thanua, Shivsagar","24.964246","83.9335567"
"ChIJt9OG-v3HjTkRATK7rwFA2FY","IndianOil","Ground Floor Grdhariya, Shivsagar","24.9712257","83.9136027"
"ChIJuVV8DwjIjTkRczoVfJ8GtSg","IndianOil","Ground Floor Shivsagar, NH 2, Gandhi Path, Rohtas","24.96966","83.92116999999999"
"ChIJxfdTxNDHjTkRF6_PL8O0zPw","Hindustan Petroleum Corporation Limited","Ground Floor, NH 2, Bamhaur","24.9761554","83.89829900000001"
"ChIJs1-jt_23jTkR8LwmmPpE1ns","ESSAR Oil Petrol Pump","2, Sasaram Rd, Dilia, Sasaram","24.963183","83.93416900000001"
"ChIJo4Vwh_u3jTkRAiwGp7_vtOU","Indian Oil Petrol Pump","2, Sasaram Rd, Dilia, Sasaram","24.962503","83.93741899999999"
"ChIJV-gsJi7GjTkRhQ1v6RPgh_s","Reliance Petroleum","Thana No 27, Nh 2, Pakhnari","24.9805522","83.8824971"
"ChIJMVCcvWC3jTkR3U8Jsrdtq1U","IndianOil","Ground Floor, kaua Dehri","24.96112669999999","83.94466919999999"
"ChIJ4YGWdwDHjTkRPeXFcbaeZ9I","Bihari 10 km sasaram toll plaza","XVMF+G9M, National Highway 19, Pakhnari","24.9838253","83.8734195"
"ChIJV1iibaTHjTkR9ipdniNCI5I","IndianOil","Ground Floor, NH 2 Pakhnari, Grand Trunk Road, Shivsagar","24.984568","83.87256599999999"
"ChIJPYXY0ku3jTkRWLUtB7bzl-A","New Jawahir Ram mohan Ram Petrol Pump","Ara - Sasaram Road, Navaratan Bazar, Laxkariganj, Sasaram","24.9532732","84.0120738"
"ChIJbXWhG3m3jTkRxFbLzYw_Csg","Bharat Petroleum, Petrol Pump -Maa Service Station","SASARAM TOWN1,ROHTAS, ROHTAS SASARAM","24.9497556","84.0158151"
"ChIJg6uM0ku3jTkRQPsZ_oVqhas","भारत पेट्रोलियम","India","24.9533356","84.0120335"
"ChIJKWvpevS3jTkRXLog2Gy31q4","Shivam Fuels","Raj Colony, Geeta Ghat Colony, Sasaram","24.9533768","84.0067002"
"ChIJ1xQNQqSxjTkRC4RptzCBXOY","Hindustan Petroleum Corporation Limited","Ground Floor, Grand Trunk Road, Sasaram","24.954301","84.018231"
"ChIJR0yv6bSwjTkRWQOJDOjdqLY","Bahadur Brothers Petrol Pump","821115, Khilanganj, Laxkariganj, Sasaram","24.9543887","84.0182079"
"ChIJ_-ER5rawjTkRh5Bpv4XRd3U","IndianOil","Ground Floor, NH 2, Gandhi Path, Sasaram","24.954536","84.02403989999999"
"ChIJ239GkyyxjTkReUIf7Ytd0oM","Bharat Petroleum-maa Tarachandi Fuels","W2HP+6P, Kota","24.9280822","84.03682739999999"
"ChIJA-9pXmq3jTkRyxZmjGr-v0o","IndianOil","Ground Floor, Sarkari Gola, Rohtas, Gandhi Path, Sasaram","24.952553","83.993988"
"ChIJqyG43LmwjTkRTw6k0oa1qGY","Prakash Petrol","Opp- prakash petrol pump, Grand Trunk Road, Sasaram","24.9549694","84.0270482"
"ChIJQSKq3LmwjTkRweevv-hYjLA","Bharat Petroleum","India","24.9549278","84.02795859999999"
"ChIJm39V56WxjTkRDhsaJrxsE14","Girija Niwash","Canaodia Petrol Pump, Dilia, Sasaram","24.9548696","84.0302148"
"ChIJDy-2su-3jTkRcTjeMWhRp3I","Hindustan Petroleum Corporation Limited","Khata No 29, Plot No 996, Beda, Sasaram","24.950609","83.988067"
"ChIJRb7Q_my3jTkRDOhglRpdxvk","Beda Petrol Pump","XX2Q+Q5W, Bhatarhi, Sasaram","24.951994","83.9879468"
"ChIJX42O12O3jTkRpRDLNglvrvI","Bharat Petroleum, Petrol Pump -Prakash Petrol","SASARAM TOWN4,ROHTAS, ROHTAS SASARAM","24.9524438","83.98293509999999"
"ChIJI77yzSW3jTkRbTAmxpibESc","Bharat Petroleum, Petrol Pump -Mansarovar Service Station","SASARAM TOWN2,ROHTAS, ROHTAS SASARAM","24.9380812","83.9678512"
"ChIJYyT3EqK3jTkRxE_MBzx08Ag","IndianOil","near Kumhau, Ground Floor NH 2, near Kumhau, Gate, Dalmianagar","24.947412","83.96790299999999"
"ChIJ9TzXR267jTkROd-7f1kHzTg","Hindustan Petroleum Corporation Limited","Khata No 66, Khesra No 889, Ara - Sasaram Road, Lalganj, Nekara","24.978135","84.018751"
"ChIJ83kJVvCujTkRwQaojcFIbV0","IndianOil","Ground Floor, NH 2, Grand Trunk Road, Sakhara","24.9178163","84.15149869999999"
"ChIJhyVsSO6ujTkRNmeYlnGOwHA","Bharat Petroleum (Ram Service)","Sakhara, Rohtas, NH-2, Sasaram Akhori Gola Road, Dehri On Sone, Dehri","24.9170781","84.1554917"
"ChIJty1gZu6ujTkRNpUjr5LFVmA","Hindustan Petroleum Corporation Limited","Ground Floor, near Coal Depot, Khairahi, Sakhara","24.9162223","84.15724929999999"
"ChIJcdO2HwCvjTkRSRA669iMk-Q","TATA MOTORS authorised D.E.F. Station","W489+R67, Dahaur","24.91696","84.11718669999999"
"ChIJW5sk7UWujTkRc-05q9LitQU","IndianOil","Ground Floor Dahaur, Dalmianagar, Pahleza","24.918091","84.129173"
"ChIJ54HIwSWujTkRc7jS9nIv32w","IndianOil","Ground Floor Kanchanpur, NH 2, Brahmapura, Muzaffarpur","24.91703","84.10768000000002"
"ChIJuyTvITCvjTkRMGp7CSd9YS8","Bharat Petroleum, Petrol Pump -Rohtas Service Station","DEHRI-ON-SONE2,ROHTAS, ROHTAS SASARAM","24.92371159999999","84.13982399999999"
"ChIJXR1vuECxjTkRTX-gHO1w2mc","IndianOil","Ground Floor, Jamuhar","24.9381515","84.1124861"
"ChIJkX9PekuvjTkReLCSlUv2S8I","Hindustan Petroleum Corporation Limited","Khasra No 575, Thana No 155, Anchal Dehri, Jamuhar","24.943395","84.104198"
"ChIJU43d8u6ujTkRDHy0IFUXJag","HP PETROL PUMP - CHANDRASHIKHA FUEL CENTR DEHRI HP","W584+FV9, HP Petrol Pump Coal Depot Po-khairan, Patna","24.916163","84.157224"
"ChIJqzApEVGxjTkR6eRVD-_wQYk","Hindustan Petroleum Corporation Limited","Ground Floor, Sasaram","24.9453927","84.0985828"
"ChIJrxIp7SawjTkRNJJHaxNqQtY","Hindustan Petroleum Corporation Limited","Ground Floor, Sasaram","24.9457628","84.0973156"
"ChIJ64LIjjC3jTkRb6-XCEs93ZU","IndianOil","Rohtas, Ground Floor NH 2, Gt Road, Dehri, Dalmia","24.9134514","84.16153469999999"
"ChIJt4x-J-avjTkRvV72x9caAE0","Hindustan Petroleum Corporation Limited","Ground Floor Dehri, NH 19, Old NH 2, Sakhra","24.9132858","84.16341849999999"
"ChIJ7VuthrqxjTkR6iquHRqPFpg","IndianOil","Ground Floor, Karwandiya","24.9484074","84.0903546"
"ChIJ57LiQqOxjTkReRK02liYY8s","Lakshmi Petrol Pump","Sasaram-Tilauthu Rd, , Chakia Karwandia, Sasaram","24.9488074","84.090704"
"ChIJ14jNLC6vjTkRn9j3R17ujbA","Hindustan Petroleum Corporation Limited","Ground Floor, near Coal Depot, NH 2, Bheria, Dehri","24.9111253","84.1668787"
"ChIJWxNZ98CujTkRGGJ431Oz9EI","Hp Petrol Pump - Adhoc Five Star Fuel Station","HP Petrol Pump Post Dehri-on-sone Dt- Bihar, Patna","24.911286","84.16752799999999"
"ChIJTcIbeASxjTkRVBInySEDUf8","IndianOil","Ground Floor, Dalmianagar, Karwandiya","24.9560507","84.0965698"
"ChIJv5gUPtCrjTkRs8ljVph-WOk","Petrol Pump","Khemda","24.8767805","84.2187348"
"ChIJCziO8LKujTkRRhssTefNT3w","Hindustan Petroleum Corporation Limited","Ground Floor, Dehri","24.9000201","84.1832201"
"ChIJdStKcOZZ7TkR5f2Z2YAdfGY","IndianOil","Ground Floor, Nh2, Barun","24.882383","84.2217963"
"ChIJl3CRacqrjTkR5OFYu24nIxo","Hindustan Petroleum Corporation Limited","Ground Floor, Barun","24.865351","84.224311"
"ChIJVePNXTurjTkRM2V59bpe7Os","IndianOil","Ground Floor, Khajuri, Barun","24.85443","84.19922"
"ChIJiV5E6EupjTkRSXDn9ye7B54","Bharat Petroleum","W54R+75X, Pali Road, Gandhi Nagar, Dehri","24.90573180000001","84.1904953"
"ChIJh2uO8LKujTkRPg4w7h4eC4s","HP PETROL PUMP - DAMODAR PRASAD SARAOGI DEHRI HP","HP Dealer, beside jagrup singh road, PO, DT, Shivganj, Dehri","24.9001319","84.183334"
"ChIJQ2D6_OqrjTkRUaNKr5HFWGU","IndianOil","Ground Floor, NH 2, Barun","24.848896","84.24432"
"ChIJ4fFVQpCvjTkRWKqd39-Uyp4","Bharat Petroleum, Petrol Pump -Siddharth Petro Centre","DEHRI-ON-SONE3,ROHTAS, ROHTAS SASARAM","24.9085324","84.1855021"
"ChIJgYqpKgCpjTkRFB-WbifGTuU","Makraen","W6F5+45R, Dehari","24.9228687","84.2078842"
"ChIJC8sNcxipjTkRijdCTQztK-w","IndianOil","Ground Floor, Dehri Nasriganj Road,Dalmianagar, Makrain","24.924133","84.20702399999999"
"ChIJaTDPZJ2pjTkRHt2f5yY_u_I","Kitchen Appliances","Station Road, Jakhi Bigha, Dehri","24.9130723","84.18596889999999"
"ChIJeYTqUFSvjTkRzuQlX6AoThE","Kitchen","Kitchen Products, Station Road, Dehri","24.91320889999999","84.185625"
"ChIJlVNuASsAjTkRnRVXRfF3Jz8","Bharat Petroleum","Bhupatpur, Aurangabad, NH-2, Grand Trunk Road, Aurangabad, Aurangabad","24.7994976","84.30975749999999"
"ChIJm263ay8AjTkR3Y-yPFfPjFE","S.Deo Filling Station,Bharat Petroleum","National Highway 2, Pirtampur","24.8034638","84.3026441"
"ChIJhdZNkBQAjTkRD-mM5SXt-zs","Hindustan Petroleum Corporation Limited","Khata No 63, Plot No 443 NH 2, Barun, Tengara","24.817125","84.2866466"
"ChIJs7_G6HL-jDkRBguN_eIhMUA","Hindustan Petroleum Corporation Limited","Ground Floor, Jasuiya More, Aurangabad","24.772181","84.345551"
"ChIJEaJiYg79jDkRq2NIWGf64Ok","IndianOil","Ground Floor Anchal, Khaira Bind","24.7970054","84.3471266"
"ChIJv9_2D-D_jDkRsfZUX5ZhBZg","Hindustan Petroleum Corporation Limited","Ground Floor, near Shree Cement Factory Gate, National Highway 139, Mufassil, Manjurahi","24.7875525","84.34746779999999"
"ChIJRRmKna4BjTkRLirODtm2nUc","Home","R79J+QWQ, National Highway 19, Bhopatpur","24.819463","84.28235749999999"
"ChIJzbL8jwv-jDkRtVvOHWXY680","Jio","India","24.7778814","84.3495865"
"ChIJb8g65XL-jDkRzZgpkXZbTsY","Hindustan Petroleum Corporation Limited","Ground Floor, Jasuiya More, Aurangabad","24.772181","84.345551"
"ChIJb2q8xl7_jDkR1qHKRcEHIrA","IndianOil","Ground Floor Kartaha, Gurmia Chowk, Dhobaul, Grand Trunk Road, Manjurahi","24.7700922","84.349625"
"ChIJ-Xt7FTf8jDkR3VOZq3wvnzI","IndianOil","Ground Floor, NH 2, Ratanwa, Ramesh Chowk, Aurangabad","24.7410349","84.3712441"
"ChIJTwF99zD8jDkRodYF_vWnggE","BPC Petrol Pump","P9R9+J27, Ratanua","24.7415264","84.3675445"
"ChIJGZwjMTP8jDkR0-cji8hewVs","IndianOil","Ground Floor, New area, Maharajganj Road, Aurangabad","24.750669","84.368269"
"ChIJ24ssDS38jDkR969zpdYLOA4","Hindustan Petroleum Corporation Limited","Ground Floor, MG Road, Aurangabad","24.7485556","84.36440259999999"
"ChIJXYjzdab9jDkRaBr1JYK8Cl0","M/S VIDYA POWER FUELS","Khata No 100, Khesra No 3512, Nagarpalika, Shahapur, Aurangabad","24.740689","84.39607199999999"
"ChIJHQHUoHz9jDkRPG9ar6vuoYg","Bharat Petroleum, Petrol Pump -Shivam Services","AURANGABAD TOWN2,AURANGABA, Aurangabad","24.7340574","84.41200479999999"
"ChIJ68rqZuf9jDkRu4dQUQcJ204","Fuel And Gas","Tiranga Lodge, Yamunanagar Road, Sahid Nagar, Aurangabad","24.7388331","84.37905719999999"
"ChIJm6nj9339jDkRUxkLtbVXAhM","Sohar bigha","P9XJ+F78","24.7486689","84.3807025"
"ChIJa62Dq7X9jDkRyfCdXgSyIAo","Bharat Petroleum, Petrol Pump -Aurangabad Service Station","PANDEYPUR,AURANGABAD, Aurangabad","24.7490238","84.37756430000002"
"ChIJz0BZ3vD8jDkRYo8gJP8s8ww","IndianOil","Grand Trunk Road, Aurangabad","24.7400602","84.3734597"
"ChIJU67ttEr8jDkRIa_j9WWONLs","Nagmatiya Petrol Pump","Aurangabad","24.7513495","84.3763129"
"ChIJhWDvQ639jDkR6knJMxc90iU","Bharat Petroleum, Petrol Pump -Om Service Station","AURANGABAD TOWN1,AURANGABA, Aurangabad","24.753368","84.37311199999999"
"ChIJLZSryFT9jDkRSlMjJv4W7RM","Om Service Station","near Overbridge, Bypass Road, Aurangabad","24.7489426","84.3615799"
"ChIJJbTkTwD9jDkR8XwtOit_2sk","Jaiprakash Singh more Ramabandh","P9W4+JC2, Rama Bandh","24.7427441","84.3552559"
"ChIJ39zJCQBf7TkR0uXqOyRrSFQ","Reliance Petroleum","Khatauni No 695 &560, National Highway 19, Hajipur, Bagh Tola, Jadhua","24.7623638","84.3578218"
"ChIJi8vOrarnjDkRGGoby0l1uK4","Hindustan Petroleum Corporation Limited","Ground Floor, Ghatrain","24.6633324","84.5645619"
"ChIJZwEW66jnjDkRT6xbZeNndq4","Bharat Petroleum - Varsha Service Station","Madanpur 2Aurangabad, NH-2, Grand Trunk Road, Madanpur, Aurangabad","24.659848","84.57323199999999"
"ChIJowXhkfPmjDkRy8JHNPTKeOQ","NRL PETROL PUMP, BPCL","NH2, Banian","24.6697789","84.5467472"
"ChIJJRljrT_njDkRSsiDmbKVDEo","IndianOil","Ground Floor NH 2, Basatpur, Belaon, Aurangabad","24.6811866","84.5238534"
"ChIJueQPO7znjDkRRUeZG06SAk0","Bharat Petroleum, Petrol Pump -Nes Aurangabad","Ghatrain","24.6589754","84.5550636"
"ChIJsxfKrqrnjDkRhZdQ_7kj9y4","HP PETROL PUMP - VIVEK GRAMIN SADHAN MADANPUR HP","AT & PO Madanpur Ghatrain Bihar, Patna","24.6630472","84.5644654"
"ChIJCWPfRSzljDkR85N0FTV5Gpo","Bharat Petroleum","Raniganj","24.687316","84.5113155"
"ChIJ75WasxfkjDkRoe1lPTlIO2E","IndianOil","Ground Floor, NH 2, GT Road Dadhpi, Madanpur, Chainpur","24.6872006","84.5093892"
"ChIJRbHJnYnDjDkRFwasvK6ydK8","Hindustan Petroleum Corporation Limited","Ground Floor, Amas","24.61255060000001","84.6715401"
"ChIJS8G6C13DjDkR0zeW8EKeHKo","Pursottam","Xmomo Shop, Jhari","24.6152096","84.64850489999999"
"ChIJG1RLdQjdjDkR-icZmUbGSac","petro pampu","NH 19, Jhari","24.6238565","84.64622639999999"
"ChIJQ2mNfHfPjDkRECNdKUI64Vs","IndianOil","Ground Floor, NH 2, Gaya - Sherghati Road, Gaya","24.5731798","84.784007"
"ChIJldpytA_PjDkRsNMdvi3s8GU","B.K Mukherjee (BPCL) Petrol Pump","HR82+WWJ, Naya Bazar, Sherghati","24.5673465","84.8022776"
"ChIJN1W8BQDPjDkR-dwF5x1AKTU","अग्रवाल आटा मोबाइल्स cng","molana chak, NH2, Akona, Sherghati","24.5734288","84.7842218"
"ChIJHdylQ8POjDkRDm_yZVRbPmM","मां दुर्गा ट्रेडर्स","India","24.5495514","84.82660369999999"
"ChIJRyiT2cHPjDkRbeD_beydelo","SHYAM FUELS (BPCL) petrol pump","NH-2 from dobhi towards delhi, vill:- gopalpur, Sherghati","24.5573321","84.8319087"
"ChIJBaBaaE3OjDkRWvnRAAhBNa4","IndianOil","Ground Floor Jogapur, Kartahi, Sherghati","24.590136","84.816093"
"ChIJA0T77W7PjDkR1EYqvY40a5w","Bharat Petrolium Shyam Fuels","HR4P+HHV, Gopalpur","24.5561056","84.8349707"
"ChIJwe4GjXjFjDkRyXtXfOAgQrM","Bharat Petroleum Raj Fuel Station","India","24.5774355","84.7660183"
"ChIJPz1Io4HMjDkRTpCaW5Zvqlw","IOC Heritage RO, Petrol Pump","GWP2+7V6, Kusha Bija","24.5356596","84.9021369"
"ChIJ3-0m1VPLjDkRqLwan64pTU0","Suraj Mandal Petrol Pump","GWGP+922, Grand Trunk Road, Nanhu Bigha","24.525319","84.934837"
"ChIJVej_chrNjDkRcHKTW-1QgQc","DOBHI SERVICE STATION Bharat Petroleum, Petrol Pump -Bp-Dobhi","DOBHI,NH-2,GAYA, GAYA","24.534938","84.90436179999999"
"ChIJw4JyAIA18zkR6o5WSOiIc5o","IndianOil","Ground Floor, Vishnupur, near Begusarai Court, Begusarai","24.509623","84.982305"
"ChIJn3SsSIk28zkRPNIYYZM6Ln8","IndianOil","Ground Floor Barachatti, Amarut","24.495232","85.039065"
"ChIJcY_9Oas38zkREAHR5XRBKJ0","Rajasthan Jodhpur Hotel","F2WP+7RR, Nauagardan","24.4957256","85.03701079999999"
"ChIJQTHa8PdH8zkR_KQsku0poyg","IndianOil","Ground Floor, Danua, Chouparan,Lohandi, Singhrawan","24.446161","85.16535900000001"
"ChIJkdCaRABH8zkR9BHwOTneO9A","Jharkhand pump","C5W8+H55, NH 19, Chordaha","24.4467667","85.1651117"
"ChIJ48vkb5048zkRSTnUOy5fvwY","jharkhand fuel station chordaha","Kenduahi alias Danua","24.4386989","85.1764491"
"ChIJ4ztXsJQ58zkRwTK6SbgUrMs","Bihar fuel station","C5W6+WP9","24.4472763","85.1618542"
"ChIJGcei0r5H8zkRNrnkeY6_98c","Hindustan Petroleum Corporation Limited","Ground Floor, Chouparan NH 2, Danua, Kenduahi alias Danua","24.43698669999999","85.17907799999999"
"ChIJCUwNL-g58zkRtPe8hhcD63E","IndianOil","Ground Floor, NH 2, Sabalpur","24.452038","85.146321"
"ChIJiQpqk4g58zkRDmdU3KaVNlc","Bhalua Petroleum Service","C4WV+V84, National Highway 2, Bhalua-II","24.44712669999999","85.14331609999999"
"ChIJPRQOu7JB8zkRkAl8tLWgWe0","IndianOil","Ground Floor, NH 02, Lohandi, Chauparan","24.391981","85.252112"
"ChIJZz8E2yxB8zkRg11FLGyJQCY","Madhyagopali Petroleum","96FJ+QFM, Bigha","24.3748579","85.2313204"
"ChIJ_VPv-y1D8zkRV_r6704eX_4","Sri Ram Electronics","Sandeep Kumar, Chaikala, Singhrawan","24.3542979","85.23100319999999"
"ChIJhcFpaBdq8zkRebm-3xp7Wv0","Hindustan Petroleum Corporation Limited","Ground Floor, NH 2, Chouparan","24.3684036","85.2917147"
"ChIJkxsUmYhr8zkRIdoQGe_-1mU","IndianOil","Plot No 161 No 07, Darjichakthana Chaupara, Lohandi","24.3999168","85.2970295"
"ChIJ5d0r2G5v8zkRRkRs9ObLjvo","IndianOil","Ground Floor, NH2, Pandeybara, Hazaribagh","24.3492787","85.3425857"
"ChIJM2bMSDdp8zkRx7kjVHsrc5g","Hindustan Petroleum Corporation Limited","Ground Floor, National Highway 19, Pandeybara, Chauparan, Hazaribagh","24.348896","85.342944"
"ChIJuddEYnNp8zkRIbhjhSzAJxM","Bharat Petroleum, Petrol Pump -Deo Petroleum","PANDEYBERA(NH2),DIST HAZAR, HAZARIBAGH","24.3471733","85.3435805"
"ChIJj-C2VgBp8zkRKp1qmedCUIs","Supreme fuel station","982V+X4X, Pandeybara, Bara","24.3525","85.3428735"
"ChIJudMLS0Vp8zkRBSJePFC1b_A","IndianOil","Ground Floor, Chouparan, Arapagar","24.3547172","85.33175589999999"
"ChIJe_MrgmVr8zkRYdQMfIEV4fg","Bharat petroleum","986W+J8, Chapri Kalan","24.3615254","85.34585299999999"
"ChIJE1uzQLNu8zkRwHDg9HRyVP4","Hindustan Petroleum Corporation Limited","No 251, Grand Trunk Road, Singhrawan","24.3417321","85.3558824"
"ChIJzw0owbpp8zkRQV3FU3GWTxc","BPCL Kamrun fuel station","89Q3+225, Keola","24.3375238","85.3526129"
"ChIJVVVVlbNu8zkRxX5XJIuUpQg","Indian Oil Petrol Pump","Grand Trunk Road, Singhrawan","24.3421295","85.3588393"
"ChIJJeUds2Jp8zkROgk9hmU11Z8","Petrol Pump Pawai Arapagar","984F+HJG, Arapagar","24.356439","85.3240635"
"ChIJ_4ffhH1p8zkRPKA4Vj3_shQ","IndianOil","Pawai","24.3566137","85.32089140000001"
"ChIJLRXmkOpp8zkRcdUefkHd2jc","Hindustan Petroleum Corporation Limited","Ground Floor, NH 2, Chauparan, Pawai","24.3567145","85.3208435"
"ChIJR-KICLdu8zkRqxirIi9vX-Q","Hindustan Petroleum Corporation Limited","Ground Floor, NH 2, Singhrawan","24.3380607","85.363371"
"ChIJUw7b1i5q8zkRbdEinX3I6fI","Petrol Pump Jharkhand","Grand Trunk Road, Kamalbar","24.3632632","85.3061359"
"ChIJHRZAyLpr8zkREgOcrObi600","IndianOil","Hazaribagh, NH 02, Chauparn, Lohandi","24.3630272","85.3057007"
"ChIJ6dFRNcVv8zkRsBLsp51-1Ns","Hindustan Petroleum Corporation Limited","Ground Floor, Barhi, Konra","24.307332","85.430741"
"ChIJJZW2ZrVv8zkRsZMIY0f8TLw","IndianOil","Ground Floor NH 2, Konra, Aurugerua","24.3051672","85.4331121"
"ChIJ0c5Jv9dv8zkRnZLPckfYzbA","Hindustan Petroleum Corporation Limited","Ground Floor, near Delhi - Kolkata Highway, NH 2, Industrial Area, Barhi","24.3034595","85.4362048"
"ChIJPT1Bcstv8zkRGG-Uez0sguA","Hindustan Petroleum Corporation Limited","Ground Floor, NH 31, Barhi","24.310551","85.421021"
"ChIJL1wnh-5v8zkRvtQZizqoZKA","Bharat Petroleum, Petrol Pump -Gopichand Hiralal Jain","8C3C+J6P, Dhanbad Road, Barhi","24.3041551","85.42098910000001"
"ChIJucHYdgBv8zkRiUZr_Ycx_B4","Shivagi shisha dukan","8C49+Q84, Patna Road, Barhi","24.3068927","85.4183267"
"ChIJT-kFxthv8zkRV4etP7zhKcc","IndianOil","Ground Floor Aurugerua, Barhi","24.296394","85.435616"
"ChIJk55-wVdv8zkRRgBReMUu69Q","IndianOil","Ground Floor, Grand Trunk Road, Barhi","24.3117037","85.40619679999999"
"ChIJx2JCUgBv8zkRBwiwdC7I2Ko","Md Rijaul mistri","121, Gaya Road, Mallah Toli, Barhi","24.311623","85.405647"
"ChIJYaeTcBdw8zkR6lID_2r5ass","Jio-bp","Near Janjagran Kendra, Plot No 144, Nh 2, Barhi","24.2864799","85.4485049"
"ChIJO4bbJRdw8zkRnc7si1I51-c","IndianOil - SWAGAT","Ground Floor, Basaria, Barhi, Aurugerua, Basaria","24.285202","85.450333"
"ChIJ3VtESgBv8zkRn7lLK-H5k3Q","Ram govind station karjo","7CJ7+2PG, Karso","24.28007019999999","85.414341"
"ChIJoXkwfZFv8zkRf5JzwNHBVSs","Hindustan Petroleum Corporation Limited","Ground Floor, NH 33, Barhi, Karso","24.280786","85.411504"
"ChIJa2VGlY5v8zkRAnsKf8iUBLc","IndianOil","Ground Floor, NH 33, Aurugerua, Karso","24.272686","85.4105"
"ChIJJWRBgEt78zkRKRvCNH8jxOw","Bharat Petroleum Petrol Pump , BP-BARSOT","NH-2, PS BARHI, BARSOT","24.22719","85.51496999999999"
"ChIJlWveHAB78zkRM83nLH5hIx0","Samonta Fuels - Nayara","7F6F+XX2, Lachhudih","24.2623794","85.4748844"
"ChIJ_xkBsnSB8zkRUIaiZMKRjFE","IndianOil","Ground Floor, Barakatha","24.1536738","85.6479184"
"ChIJa768nBd58zkReDL9krv3X6c","MSA MAHINDARA SERVICE CENTER","5HHQ+MGH, Kunharakhurd","24.1791907","85.588864"
"ChIJ4c-OAAB58zkRIsUwUVj_57s","Hindustan Petroleum Corporation Limited","Ground Floor, NH 2, Konhara, Gangpacho","24.1787821","85.5872138"
"ChIJz5abE92D8zkRz3XvUdM7qu0","IndianOil","Ground Floor, Salaiya, Barkatha, Bariath, Salaia","24.19869","85.60428"
"ChIJcTasVMV48zkRTWwJIgzUcsc","HPCL PETROL PUMP - RIYAZ KHAN SERVICE STATION","HP Petrol Pump NH 2, Konhara PO Barkatta","24.1867732","85.57351949999999"
"ChIJc1VfzSCH8zkRPxXFGKNxfXw","Hindustan Petroleum Corporation Limited","Ground Floor, NH 2, Bagodar, Antkadih","24.1148511","85.7244533"
"ChIJ2-XGesF39DkRlPEpSETggpQ","Jain highway service station","3RM3+C36, Sonturpi","24.0835305","85.802655"
"ChIJIRZgr6939DkR7rZGzGzB-ag","IndianOil","Ground Floor GT Road, Bagodar, Ghaghra","24.082979","85.80301899999999"
"ChIJY07pPSd39DkRuPKw8f2_87A","IndianOil","Khata No 47/2 Plot No 249, Bisungarh, Chautha, AOURA","24.05306","85.78766999999999"
"ChIJzQQ5VPOH8zkRsle_4c9_TNM","IndianOil","139, Atkadih, AOURA","24.1026431","85.76067520000001"
"ChIJrW4zrOiH8zkREpaRTownJys","Bharat Petroleum, Petrol Pump -Zamzam Service Station","ATKADIH, NH2, DIST- GIRIDI, GIRIDIH","24.1033876","85.75588630000001"
"ChIJcRqhEgh39DkR7xMhYERxH38","Bharat Petroleum, Petrol Pump -Gopi Chand Hira Lal Jain","BAGODAR ON NH2,DISTRICT GI, GIRIDIH","24.0752798","85.8394185"
"ChIJT6BnP0l19DkRN2ETLHQkJh8","IndianOil","Ground Floor Dorio, Grand Trunk Road, P S, Bagodar","24.049443","85.910215"
"ChIJp07RU-519DkRbtiCIwQ2xmE","Jai Hind Fuels - HP Petrol Pump","At NH2, Doriyo, Bagodar, PO, AOURA","24.0550272","85.89961989999999"
"ChIJgZu2UXl19DkR9GuHbS8xaOg","IndianOil","Ground Floor Bagodar, Dorio, AOURA","24.05611739999999","85.89838429999999"
"ChIJyY7u-Ch19DkRMiEkRqyYLSM","Bharat Petroleum","India","24.0453805","85.9223605"
"ChIJ0-KwMykL9DkRHJDjvd1aQEg","Hindustan Petroleum Corporation Limited","Ground Floor, NH 2, Bagodar, Beko","24.037412","85.93740199999999"
"ChIJCTBemwYL9DkRWtEWowkqzwI","Prince Fuels","Ghuttibari","24.0421462","85.9435582"
"ChIJF8UmDL119DkRHpXUEYLao2k","Hindustan Petroleum Corporation Limited","Ground Floor, NH 2, Hesla","24.0629901","85.87719009999999"
"ChIJy70oIMcO9DkREqcubYYciBc","Hindustan Petroleum Corporation Limited","Ground Floor, Grand Trunk Road, Isri Bazar, Giridih","23.981401","86.0349901"
"ChIJvepdxqsO9DkR2xGBu3qcNmw","Hindustan Petroleum Corporation Limited","Ground Floor, Dumri","23.9925601","86.0155601"
"ChIJk2axUh4M9DkRT8bohPxj5RE","Hindustan Petroleum Corporation Limited","Ground Floor, Dumri, Jamtara","23.9760665","86.01038229999999"
"ChIJCSVtNtQP9DkRKNd3onOdC6k","Hindustan Petroleum Corporation Limited","Khata No 8, Plot No 72/P, Phusro Road, Khaki Kalan, Dumri","23.9530605","86.0191767"
"ChIJr6d2hlkL9DkR-IkNnSgD87o","IndianOil","Ground Floor, NH 2, Kulgo","24.000483","85.996535"
"ChIJhbxwawsP9DkRSLDZAOc5UDg","Hindustan Petroleum Corporation Limited","Ground Floor, NH 2, Nimiyaghat","23.955801","86.071801"
"ChIJ_arEoPQL9DkRgBSJVzT4OK8","Hindustan Petroleum Corporation Limited","Ground Floor, Dumri","24.002451","85.992761"
"ChIJyxCMLLEE9DkR_GYw2RPx3Cs","IndianOil","Ground Floor, Nh2, Pawapur, Brahmandiha","23.9140377","86.1598346"
"ChIJa9Qv7dgE9DkRu4yDKXd8f2s","IndianOil","Ground Floor, Singhdih, Amalkhori,Bhowra","23.921008","86.13575"
"ChIJ2cff6nUP9DkRcGp-uhXnsFc","Bharat Petroleum, Bpcl Petrol Pump- SACH KHAND AUTO FUELS","23.934626, 86.105550, Grand Trunk Road, Hithwar","23.9347212","86.10594139999999"
"ChIJ5TwbI-Eb9DkRSbzWfq9FwRM","Dheeraj Patrol Pump","Chandrapura, H-72, Korkota","23.8924881","86.1355832"
"ChIJ4w_yg-wb9DkRu53uNQhqo74","ASJAD STORE","Hariharpur","23.8920423","86.1324018"
"ChIJGXDv-UOm9jkRvWmdq5zs8ls","Bharat Petroleum, Petrol Pump -D C M Service Centre","RAJGANJ, NH-2, DIST DHANBA, Dhanbad","23.8793582","86.3125353"
"ChIJ4aNiBW-m9jkRbNNN5WwYpOc","IndianOil","Ground Floor NH 2, Rajganj, Angarpathar","23.876436","86.324452"
"ChIJ209AyaCn9jkRTZrNQ70rDXw","IndianOil","Ground Floor Dayabansh, Pahar, Topchanchi, Brahmandiha","23.881376","86.293793"
"ChIJY-9hcUam9jkR7WtEio-eMTU","Hindustan Petroleum Corporation Limited","Daludih, Jarmunai, Ground Floor NH 2, Rajganj","23.880521","86.308891"
"ChIJa5U9vg2n9jkR6PzNMmPH15M","IndianOil","Ground Floor Bhimtand, Rajganj","23.878476","86.313118"
"ChIJm--nBDqn9jkRTpXz0Mnrqdw","Jio-bp","Plot No 443, 449 & 460, Topchanchi","23.8831886","86.2841254"
"ChIJPW_cCgCn9jkRjAmY_Khsuzk","CNG Gail Gas jio RMBL Rajganj","V7MM+9HH, Kotaldih","23.8834447","86.28399859999999"
"ChIJARAVFTWl9jkRCnx36qNRZx4","IndianOil","Ground Floor, Grand Trunk Road, Rajganj","23.8773394","86.3216649"
"ChIJi_AbP9an9jkRQq9PuskkNPM","Hindustan Petroleum Corporation Limited","Ground Floor, NH 2, Daludih, Rajganj","23.8752175","86.3267209"
"ChIJiyrvqsun9jkReo3toBbxxRU","Hill View Fuels","Hill View Fuels, beside Kako Hill School, road, NH-32, Rajganj","23.8527025","86.3156557"
"ChIJt6VQ-sGn9jkR783RCBM2aew","IndianOil","Ground Floor Rajganj, Barwadih, Kankomath, Angarpathar","23.8483414","86.3091472"
"ChIJV1GODeim9jkRv_NCNm6gaYg","Hindustan Petroleum Corporation Limited","Ground Floor, More, Kanko","23.839457","86.30735399999999"
"ChIJG7vDVwCn9jkRamxvjDFBGKs","AR FILLING POINT","R8Q6+9P, Udalbani","23.8373067","86.31121329999999"
"ChIJn-6zAi679jkRIRp5gSAfiso","IndianOil","Ground Floor, G T Road, More, Barwa, Kalyanpur","23.852882","86.424573"
"ChIJ2y26-dCk9jkRrVx2ZRUj5nQ","IndianOil","Ground Floor, Kalyanpur","23.8554751","86.4108017"
"ChIJBwAAAFWj9jkRkRKmuj168hs","Indian Oil Corporation","Jharudih, Dhanbad","23.8140428","86.4161998"
"ChIJ2XCjKKW89jkRCOyH8VO4hkg","IndianOil","Ground Floor, Bartand Near CMPF, Dhanbad","23.8061412","86.43121409999999"
"ChIJqaqqqqpq4okRH7yk-nMpEis","Indian Oil Petrol Pump","RFC9+9VV, near Reliance Smart Bazaar, NH-32, Saraidhella","23.82098","86.46968439999999"
"ChIJzerAcq679jkR_0_BO1DCSO0","Bharat Petroleum, Petrol Pump -Maha Maya Filling Station","KHARIKABAD, NH2, DISTRICT, Dhanbad","23.85063","86.4355451"
"ChIJz0rTUVS79jkRas5rq7FO7bg","IndianOil","KASHITAND Barwadda, Dhanbad","23.84940439999999","86.4374168"
"ChIJeyPOWha79jkRYJXibZ6zJzM","IndianOil","Ground Floor, Barwadda, Dhanbad","23.849362","86.441237"
"ChIJS9tjSme79jkR0btDQd5CpXU","ABS Hazra Petrol Pump","VC8H+H3V, Murradi","23.8663929","86.4269673"
"ChIJ7djsWkS79jkRp71SyERWzus","Bharat Petroleum, Petrol Pump -Hirak Point","Dhaiya, Dhanbad","23.8327877","86.43232669999999"
"ChIJi0FhCwC79jkRmmZ0YO8n92Q","VINDHYACHAL INDANE","MEMCO MORE, BARWADDA ROAD, Dhanbad","23.8323474","86.4313142"
"ChIJT8DAKgC79jkRNktpwptdN6E","Bharat Petrol Pump","01, Jainagar","23.8728689","86.4403908"
"ChIJExi3utuk9jkRrOEA2XSxJqk","Bharat Petroleum","India","23.8561574","86.40537719999999"
"ChIJCYbE8uC79jkRfN5L8n1v4-8","FUEL SERVICE","Bhelatand Rd, Dhaiya Road, Dhanbad","23.8254562","86.4418278"
"ChIJ8eRYjj6l9jkRbHHrCJuiCeE","Hindustan Petroleum Corporation Limited","Khata No 6, Plot No 9, Baromuri, Dhanbad","23.8258714","86.4163796"
"ChIJs04XXEWl9jkRehT06zCS1K4","Lalita fuels","near Birsa munda park, Baramuri, near Birsa munda park, Dhanbad","23.82542","86.41646639999999"
"ChIJw3uMfrK79jkRhesC5Z6nO6w","FUEL STATION","Khatal Road, Dhaiya, Dhanbad","23.8214301","86.4389954"
"ChIJAwSg5Mm89jkRJGkMZWGAWmU","Hindustan Petroleum Corporation Limited","Ground Floor, near Rani Talab Road, Dhaiya, Dhanbad","23.8188311","86.4338502"
"ChIJHVVJUXi79jkRciE0mk-BoJk","GAIL GAS CNG PUMP","RFG4+WR3, Bhiphore Hirak Road, Kunj Vihar, Dhanbad","23.8272601","86.4570559"
"ChIJA_qFsUyl9jkRzYP_afnGzrc","IndianOil","near Barwamore, Udaypur, Kalyanpur, near Barwamore, Dhanbad","23.85764500000001","86.39773799999999"
"ChIJP7LvTTS_9jkR2gG_DdJuhpA","BP COCO Bharat Petroleum","RH84+HXH, Grand Trunk Road, Deoli, Gobindpur","23.81644919999999","86.5574705"
"ChIJ8zB20FG_9jkRIM9WGUoqNiQ","Bharat Petroleum","RH85+92H, Bagsuma, Govindpur, Dhanabd","23.8159302","86.55761079999999"
"ChIJAaGgBUq_9jkRdD9mcgBGOiQ","Hindustan Petroleum Corporation Limited","Ground Floor GT Road, Gobindpur, Bagsuma","23.814801","86.560701"
"ChIJ6w6fSAC59jkRghhovQiOV0U","Friends Automobile","Benagajor","23.821269","86.5438614"
"ChIJHfD_oTe59jkRZZgVWct1NUE","Hindustan Petroleum Corporation Limited","Ground Floor, National Highway 19, Benagajar, Dhanbad","23.8203501","86.5428717"
"ChIJFUku8NS49jkRRbCQ3t7aQeI","IndianOil","Ground Floor, NH 2, Govindpur, Bagsuma","23.822193","86.543236"
"ChIJ6V67DqO_9jkRINcuDcPtYgE","Travel","QHG7 762, Dhanbad","23.8142442","86.55742599999999"
"ChIJvVBnQje59jkRgKlzFAhKlwU","Mohan Petrol Pump","GT Road ,NH-2 Near Govindpur Police station, Gobindpur","23.830442","86.5236977"
"ChIJ43jHDiy_9jkRF8pNDh4oAIY","Jio-bp","Ground Floor, Deoli, Gobindpur","23.8129996","86.5724139"
"ChIJSSKiUgC59jkRuEfB4j8ItOA","City fuels Bharat petroleum","Gobindpur","23.8325982","86.5202167"
"ChIJH5fOQcG-9jkRmAjiYhLXv3I","IndianOil","Plot No 2382 & 2384, Govindpur, Dhanbad","23.8003089","86.5238443"
"ChIJPauuYFi59jkRDgGVuVB4uhw","Sartaz indane","House 2, Patharia","23.8533372","86.53932069999999"
"ChIJe9trphvB9jkRLzoOoQQWDRY","BPC MAA YASHODA MAHARANI FUELS","RH5M+PGH, Deuli","23.8093146","86.5838611"
"ChIJKTCJhq_A9jkRtffM-wwWUKA","Hindustan Petroleum Corporation Limited","Ground Floor, NH 2, Govindpur, Gahira","23.8093301","86.5884701"
"ChIJEY5QZAC59jkRdNoIoHKR9Gw","MODERN FUELS LAHARDIH Baharat petrol","Govindpur-sahebganj Road, Lahardih, Dhanbad, pin 828109, DHANBAD","23.8620572","86.55059969999999"
"ChIJfYK3vFe59jkRAE5uUcqrjdg","Reliance Petroleum","Ground Floor Bhuiphore, Govindpur, Amaghata","23.8289855","86.5015204"
"ChIJgaz141659jkR6hL-RMHPArA","Bharat Petroleum, Petrol Pump -Maa Parwati Service Station","KAUABANDH,KOL-DELHI ROAD,, Dhanbad","23.83848739999999","86.50238739999999"
"ChIJV2QtJRPD9jkR-SJJk6Q9xr8","IndianOil","Ground Floor Nirsa, Pandra","23.7990915","86.71443339999999"
"ChIJ95m0WGbD9jkRnfL3ckIIffw","(BPCL)Maa Uma Shakti Filling Point(BPCL","QMQM+WCR, NH2, Gopalganj","23.7898679","86.6835297"
"ChIJab8UTy_D9jkRoktcwUiLhoY","IndianOil","NH2, Gopalganj","23.7905538","86.6805957"
"ChIJv3raCgDD9jkRW_tnsSsko4s","Jio Petrol Pump","QPG2+VJR, Nirsa","23.7772486","86.7015194"
"ChIJn4z-vN7D9jkRumMYwJqFQVs","Jio-bp","Ground Floor, Nh 2, Ramkanali","23.7943985","86.66509529999999"
"ChIJL2vhnR7D9jkRZnXu78-LiVc","Hindustan Petroleum Corporation Limited","Ground Floor, Grand Trunk Road, Nirsa","23.780201","86.71655009999999"
"ChIJL49U3yvD9jkRp6kdImCupxY","Bharat Petroleum Petrol Pump , INDUSTRIAL CORPORATION","NIRSAG T ROAD, NH2, Dhanbad","23.7793","86.717427"
"ChIJXan4VwDB9jkRVuzjIVeYEtw","BABA LOKNATH SERVICE STATION","QMX3+94G, Tetulia","23.7984282","86.65283819999999"
"ChIJNSHccg_D9jkRZ8f2xp4uJI4","SHIVAM FUELS","SHIVAM FUELS, MPL Jamtara road, Sambandhpur, Nirsha, Dhanbad","23.81398819999999","86.722804"
"ChIJz2WixyLB9jkRrC4ocUDlNqk","Hindustan Petroleum Corporation Limited","Ground Floor, Nirsa","23.7982667","86.6464426"
"ChIJsae4jMDD9jkR9ocu6nJwhGc","IndianOil","Ground Floor, Grand Trunk Road, Nirsa","23.7991274","86.6440875"
"ChIJF4JQjSDC9jkRDKFx_4DTA4k","IndianOil","Ground Floor Nirsa, Barbendia, Kaliasole, Kalubathan","23.754843","86.66243"
"ChIJt0pxn2rB9jkRjhaUp1_O2nA","IndianOil","Plot No 1187 P, 1188/1201, Khata No 18 Tetulia, Cmpf, Nirsa","23.7983561","86.6427509"
"ChIJSUQAHybC9jkR3JwHd-fpckg","Hindustan Petroleum Corporation Limited","Ground Floor, Ledaheria, Nirsa","23.74544260000001","86.6911227"
"ChIJTdQdqPTd9jkR9L75lmYLsXA","Hindustan Petroleum Corporation Limited","Ground Floor, Old, Grand Trunk Road, Chirkunda","23.73610099999999","86.80254099999999"
"ChIJ9a0cD_nd9jkRbNALkLfdQW8","Bharat Petroleum Petrol Pump","PRM8+P39, GT Road, Barakar","23.7336337","86.818829"
"ChIJTwX6fQHe9jkRUPio5ilQLwI","IndianOil","Ground Floor, Grand Trunk Road, Barakar","23.734554","86.826653"
"ChIJt5Pziqbd9jkRmF_SYi0-lCg","IndianOil","Ground Floor, Sanjay Chowk, near Maithon Dam, Merah, Chirkunda","23.762524","86.785629"
"ChIJD92G5T_d9jkRdFYXgV2bvdE","Bharat Petroleum, Petrol Pump -Deepak Highway Service Station","KUMARDHUBI, NH2, DIST, DHAN, DHANBAD","23.7631049","86.7948404"
"ChIJQdVuWDDd9jkR5hPT8P7o-30","IndianOil","Ground Floor, Uphara, Rafiganj, Kumardhubi, Kalimati","23.75577","86.79379999999999"
"ChIJAeEy_m_d9jkRfWvOrDjRb2o","Hindustan Petroleum Corporation Limited","Ground Floor, Kumar Dhubi, Grand Trunk Road, Dhanbad","23.745211","86.791011"
"ChIJMbiof5Dd9jkRx6tBPAlJmX0","IndianOil","Ground Floor, Kumardhubi, Chirkunda","23.74475279999999","86.7920177"
"ChIJbYU_eADd9jkRl4xBqTa8CWs","Maithan fuels⛽","QQ9C+67G, Rajpura","23.7680509","86.77069279999999"
"ChIJPUqtsxLd9jkRPO9JM4OUHOM","Model Fuels Pvt.Ltd.","QQ3C+FCR, Grand Trunk Road, Egarkunr","23.7537281","86.7710154"
"ChIJl7Bm3hrd9jkRXvjOahx1K5I","Indian Oil Jagdamba Petroleum","Rajpura","23.7676481","86.7679844"
"ChIJfw43Gxrd9jkRcz43FS_PlJs","Hindustan Petroleum Corporation Limited","Ground Floor, NH 2, Mugma","23.766091","86.767181"
"ChIJOeAZBGPd9jkRgqHLMd3R7yY","Shrabani Maji","Shop No 006, Kesar Kular, Kesar Kular Maitho Dhanbad, Maithon","23.7762725","86.7689678"
"ChIJ_2zRkYvd9jkRfljws36chW4","KUNAL MAJI","Shop No 003, Kesar Kular, Kesar Kular Maithon Dhanbad, Maithon","23.7764243","86.76885209999999"
"ChIJZczFotnd9jkR2eEDE0YQ1fg","Hindustan Petroleum Corporation Limited","Ground Floor, NH 2, Barh Jorh, Maithon","23.7640801","86.8183701"
"ChIJRX4ucgDd9jkRUuEBgRItWVQ","ECL KAPASARA INDIAN OIL CONSUMER PUMP","Mugma More, Kapasara","23.757785","86.7599067"
"ChIJkdkHmT7d9jkRCwKsUvZEPG8","Hindustan Petroleum Corporation Limited","Ground Floor Nirsa, Grand Trunk Road, Mugma","23.75852099999999","86.758399"
"ChIJoYEKrDTd9jkRh50ckyXn7fU","Siyar Kanali","QQ26+72G, Pani Tanki Road, Egarkunr","23.7506937","86.7600712"
"ChIJoRutWtbd9jkRFxaWire9ZRg","Table","PRP6 5X8 67, Barakar","23.7350842","86.81258520000002"
"ChIJURwlD_nd9jkRvCsUSZVhvPs","Sreeji automobiles","PRM7+QWX, Asansol - Barakar Road, Barakar","23.7344946","86.8148647"
"ChIJZQb3jLjf9jkRaesJaMajP2Q","Petrol Pump","Bardhaman","23.75694529999999","86.8751454"
"ChIJJVw972_g9jkRxE5vKmB0jJU","IndianOil","Burdwan Division, Lock No 11005 Sitarampur, GT Road, Kultora,Lalganj","23.718987","86.873093"
"ChIJo5DEVajf9jkRT-IIqS8uAkI","IndianOil","Ground Floor, Dendua Sitarampur, Rupnarayanpur Road, Salanpur","23.77651","86.870064"
"ChIJwTwvB_vf9jkRmKa1D3lHqUQ","Hindustan Petroleum Corporation Limited","Ground Floor, near Debjyoti Pulp And Paper Factory, NH 2, Miliakhola","23.7409501","86.8948715"
"ChIJeU5aqNnf9jkRYK2cyyXI2Hc","Bharat Petroleum","India","23.7354314","86.87459199999999"
"ChIJc-CsEiDf9jkRbH-BAssoXEs","Maa Bagala Fuel Station","PVPF+6R, Chalbalpur","23.7355129","86.8745057"
"ChIJm4LjCsff9jkRbb2_E_7RQWY","Hindustan Petroleum Corporation Limited","Ground Floor, NH 2, Marichkota, Khudika","23.7540503","86.8750721"
"ChIJQYiD_QDf9jkRSsSRUCXzlZ4","Ruma Highway petroleum","near MVI checkpost, Mouza, Rampur NH2, Khudika","23.7541876","86.8751066"
"ChIJ44FZp5sh9zkRLIywEooJqT0","Jyoti Highway Plaza","Public School, opposite Delhi, NH2, Talberia","23.7354088","86.9139522"
"ChIJG6vl24gh9zkRddwVxrhShsw","IndianOil - SWAGAT","Ground Floor, Salanpur, Lalganj, Talberia","23.7342361","86.9146904"
"ChIJI_djvLnf9jkRdEnOlVtjPoI","Hindustan Petroleum Corporation Limited","Ground Floor, Chittaranjan - Neamatpur Road, Salanpur","23.7598705","86.8740514"
"ChIJD8XUsvUh9zkRXtSU0TDdEgU","Hindustan Petroleum Corporation Limited","Ground Floor, NH 2, Talberia","23.73313929999999","86.9183053"
"ChIJGy6eTxDh9jkRsNEq9VK1TFE","Bharat Petroleum, Petrol Pump -Bengal Auto Stores","NEAMATPUR. BURDWAN DIST, BARDHAMAN","23.7157443","86.8856488"
"ChIJeRyJ8RPg9jkRR9YNQBzFwZs","Hindustan Petroleum Corporation Limited","Ground Floor, Old GT Road, Neamatpur","23.7147974","86.88636199999999"
"ChIJ7Ts4iBzh9jkRaXausSf_M-s","MAA Bhavani Fuels","PVC9+C82, Neamatpur","23.7205603","86.8681903"
"ChIJPbry4Ibg9jkR9kpRgbk1kM8","Reliance Petroleum","Grand Trunk Road","23.7240314","86.8594518"
"ChIJrc_931Lf9jkRqsChDlp6K2s","IndianOil","Plot No 341, Khatian 806 & 807, 345 & 346, Salanpur","23.770598","86.870668"
"ChIJxZqUoYbf9jkRz8f3PSu92wU","JAY BABA GHANSHYAM FUEL","CHITTRANJAN ROAD, SALANPUR , DENDUA, Asansol","23.7709916","86.87024869999999"
"ChIJc69QIfUf9zkR1bN7xRtI8zI","R N FILLING STATION","01, Dhemomain Dhemomain Road, Santinagar, Asansol","23.706349","86.91314349999999"
"ChIJe6eirGgf9zkR5A5kx9SRy1k","M Auto petrol Station","PW47+JF6, Grand Trunk Road, Munshi Bazar, Asansol","23.7065273","86.9136556"
"ChIJscVmfL8Y9zkR1f0avHJK-k4","IndianOil","Ground Floor, Kalla Road, Kalibazar, Bardhaman","23.710842","86.999352"
"ChIJy4mV59Ue9zkR3kOUNoG8pkg","IndianOil","Ground Floor, near Railway Station, Grand Trunk Road, Asansol","23.684972","86.977914"
"ChIJr97rIB8Z9zkRkGwpv3BDsTQ","Hindustan Petroleum Corporation Limited","Ground Floor, opposite Ma Ghagar Buri Mandir, NH 2, Asansol Bypass, Asansol","23.6819976","87.0048035"
"ChIJl6N1k5gY9zkRNbGko1rIqe4","IndianOil","Ground Floor, Domohani Road, Charanpur, Asansol","23.7266001","87.003495"
"ChIJm80IL24f9zkRa-jYCCK05Wk","Hindustan Petroleum Corporation Limited","33 & 34, Plot No 31, Asansol - Gourandi Road, Bardhaman","23.7179272","86.95284629999999"
"ChIJi_PCLNsY9zkRgG72ehfPWc0","Asansol Pump Station,HMRBPL, Indian Oil","MXXX+3G6, C H Kalla, Asansol","23.6976617","86.9987536"
"ChIJR5DfmYMf9zkRJfp0dpc4Wu0","Plate Booking","Asansol, Bazar, Asansol","23.6861865","86.981224"
"ChIJJxBpESAZ9zkRpcEqCbVFWn4","IndianOil","NH 2, Paschim Bardhaman, Ghagorbudi","23.6862593","87.00155579999999"
"ChIJ4QPvBysZ9zkR_eZYsHA-854","IndianOil","Lock No 12013, Grand Trunk Road, Barddhaman","23.68277969999999","86.98479900000001"
"ChIJX-7rg8cZ9zkRUZ24R_2CIUY","Khush Fuels","Arambagh Building, SB Gorai Road, Asansol","23.68058","86.9844521"
"ChIJHSJ9mSwZ9zkRDoHQkxk9Ddw","Hindustan Petroleum Corporation Limited","Ground Floor, near Rangania Para, SB Gorai Road, Asansol","23.6802445","86.9857284"
"ChIJpcEqNCQZ9zkR8i42FXitnaY","BANI DISTRIBUTORS","GT Rd36, 52a, G T ROAD, DURGAMANDIR, Ushagram, Asansol","23.679237","86.99527599999999"
"ChIJI28-uyMZ9zkR5quBUg7cdPc","HP PETROL PUMP","East N, East, Ushagram, Asansol","23.6786716","86.9990258"
"ChIJJ1-HJaMZ9zkR9LyRNVemTIY","Bharat Petroleum, Petrol Pump -Eastern Service Station","207, Grand Trunk Road, Ushagram, Asansol","23.6774684","87.0029163"
"ChIJacCyf_UZ9zkR1gXzaWjpxgs","Roy Babu","Subham 102, Bogbandhi Road, Asansol","23.6880502","87.02055930000002"
"ChIJIWhH6fUf9zkRUuoNKUJ9JrM","Burnpur Petroleum","Shtabdi Park Lower, Chelidanga Main Road, Asansol","23.6920541","86.95737280000002"
"ChIJ0-lFG-ce9zkRKRB9fq4edj0","R D Filling Station Bharat Petroleum","MXH6+438, SB Gorai Road, Beni Madhab Nagar, Hamid Nagar, Asansol","23.6779011","86.9603455"
"ChIJXYhTA7cf9zkR3XmRrMGhlMc","IndianOil","No 472/3, Hill View Park, SB Gorai Road, Chelidanga, Asansol","23.684911","86.95490300000002"
"ChIJ88uG2gQf9zkR6xeYG04iSYg","Hindustan Petroleum Corporation Limited","Ground Floor, Shaheed Bhagat Singh Chowk, Asansol","23.6940883","86.9516072"
"ChIJCUNqXxUf9zkR1jDYCrjYVDE","Bharat Petroleum, Petrol Pump -Bharat Automobiles","NH2, ASANSOL BYE-PASS, Palasdiha","23.7164509","86.9557154"
"ChIJf9cnfykX9zkRAVVnRY62aW4","Hindustan Petroleum Corporation Limited","Ground Floor, NH 2, Searsole, Rajbari","23.6473201","87.0996701"
"ChIJ4TCAMwkX9zkRAg4GXlbBoEU","BIHARIJI AUTO SERVICE STATION (Indianoil Petrol Pump)","Taltore","23.6884498","87.0835682"
"ChIJm7QTm54X9zkRJ1EIbQXrFnw","Petrol Pump","M3RH+X8M, Jamuria, Asansol","23.6924517","87.07828409999999"
"ChIJr7bWMhcR9zkR5JPbkJR_Odw","Hindustan Petroleum Corporation Limited","Ground Floor, Netaji Subhas Road, Raniganj","23.61141409999999","87.1136474"
"ChIJFfffdXQX9zkR5Nd-YU7uVJc","IndianOil","Floor 130/5 Mile, Ground, GT Road, NH 2, Satgram, Behala, Bardhaman","23.653492","87.08746599999999"
"ChIJRew3Ri0R9zkRGwiBf8uqYjw","Manoj Shaw Servicing Center","J4R6+5GM, Raniganj","23.6404697","87.1113005"
"ChIJMWKVJw0X9zkR2uLmydSk_aM","Hindustan Petroleum Corporation Limited","Plot No 189, P Ranisayer Road, Jamuria","23.6713565","87.09787709999999"
"ChIJQfl23lwX9zkRSUnvpu3ikPM","Indian Oil","India","23.6610048","87.07127349999999"
"ChIJXSQ2FwAX9zkR-6cZ98NqbZk","FUEL XPRESS","M36C+G7G, NH19","23.6610434","87.0712728"
"ChIJs28ijzIR9zkRE--gAZBAerY","IndianOil","Burdwan Division, Ground Floor, NH 2 Grand Trunk Road, Raniganj, Amrasota","23.6387359","87.11336039999999"
"ChIJPYWPjTMR9zkRuzCdAEzoPXg","Jayswal Automobiles","2, National Highway 14, Searsole Rajbari, Raniganj","23.6387194","87.1133662"
"ChIJl0fYIw0R9zkRQZj2XOmpz84","Bharat Petroleum, Petrol Pump -Prabhat Quick Auto Fillers & Eng.","near Punjabi More, NH2, Raniganj","23.6386251","87.1149124"
"ChIJQ4EdWgAR9zkRZ_9tCeQSxZo","HP Petroleum, CNG & EV Station","J4J6+4P4, Searsole Rajbari, Raniganj","23.6302744","87.1118134"
"ChIJlWjlR_ER9zkR9P_tNbEJLiQ","Hindustan Petroleum Corporation Limited","Ground Floor, Punjab More, Raniganj","23.6401158","87.1211039"
"ChIJs5UCoDYR9zkRA4NMFegYL58","Hindustan Petroleum Corporation Limited","Ground Floor, Punjab More, Old, Grand Trunk Road, Raniganj","23.6354501","87.11859009999999"
"ChIJ0xofbNYR9zkRE8_1VO7F3Us","IndianOil","Ground Floor, NSB Road, Raniganj","23.626634","87.114397"
"ChIJu4X-zLsW9zkRYFY9wcuuZUg","Toposi Hp Pump","near by colliery, Toposi gram, Kunustoria","23.6566415","87.12811620000001"
"ChIJK8zqbNMZ9zkRx-ASNi_L7Y4","Hindustan Petroleum Corporation Limited","Ground Floor, NH 2, Devchand Nagar, Bogra Chatti","23.6648768","87.0567457"
"ChIJXXJLyToR9zkRqI_twtSq_uo","JAYSWAL AUTO SERVICE","near ANJANA CINEMA, 37, NSB Road, WEST, Raniganj","23.6177525","87.1137907"
"ChIJmctXbvUR9zkRkv4Hdu4L9_Q","Hindustan Petroleum Corporation Limited","Ground Floor, Netaji Subhash Road, Raniganj","23.6158201","87.11322009999999"
"ChIJN26DIuIS9zkRcE-CaduzSyE","IndianOil","Ground Floor, Bhadur Gram, NH 2, Andal","23.593966","87.196739"
"ChIJr1eL3qsT9zkRcu8uSqGlq00","Hindustan Petroleum Corporation Limited","Ground Floor, Kajora Main Road","23.600801","87.178731"
"ChIJ6c4Mcf4T9zkR0JLYyb1sOcA","Reliance Petroleum","National Highway 19, Andal","23.5943082","87.19535069999999"
"ChIJx2VAzxUT9zkRV09FmWBnZjQ","Om Fuel Center","Railway Station Road, Kajora","23.619887","87.1865653"
"ChIJvT3W0d0S9zkRw8gkn7w8bN4","LPG Supplier (BP)","H6Q3+FMR, Dighnala, Andal","23.58873629999999","87.2041471"
"ChIJ310LQLYT9zkRFGvlunflyME","Joy Guru HP Gas Godown","H4WV+8V, Baktarnagar","23.59579","87.1447467"
"ChIJS4dAHdwS9zkR9r0RsStNuHM","Bharat Petroleum","India","23.5894246","87.2063893"
"ChIJ81LYHNwS9zkRanavB3MNVhU","National Highway service station","Andal","23.5893194","87.2064106"
"ChIJKxmmOPMS9zkRhDqQZHAfy88","Sree Ganesh Fuel Centre","H5CQ+X97, অণ্ডান সাউথ বাজার, রয়েলটি মোড়, ওয়ার্ক শপ রোড, Ramprasadpur","23.5724199","87.1884146"
"ChIJ69D0NBwT9zkRGThbLunbIfs","Nityananad Fuel Center","Shop No, 1, Royalty More Road, Andal","23.5716588","87.1895646"
"ChIJ80uHDaAT9zkRjNFyHElhvbA","Bharat Petroleum, Petrol Pump -Shree Durga Service Centre","RANIGANJ, MANGALPUR","23.6175096","87.145647"
"ChIJ14lAFcAT9zkRy7LR6KR8PwE","Fast Food Corner","ANDAL MORE, Hospital Rd, Grand Trunk Road, Durgapur","23.5873238","87.2112369"
"ChIJ3RK6c-AT9zkR-os7vQJoqvo","Hindustan Petroleum Corporation Limited","Ground Floor, Grand Trunk Road, Mangalpur, Raniganj","23.618691","87.14378099999999"
"ChIJtUtsbbkR9zkRFLBC1HjKsrQ","SHREE DURGA SERVICE CENTRE","J49Q+5X6, Raniganj","23.6179241","87.1398801"
"ChIJq7ACzzMT9zkRkztJ2bJwVXU","IndianOil","Ground Floor Dakshin Khanda, Andal","23.611049","87.21746499999999"
"ChIJf7TnK40T9zkRO7fbeK0Ol68","Manish Automobiles","Indianoil petrol pump, DakshinKhand","23.6110394","87.2178797"
"ChIJIVfHxV4R9zkRw_6muHOZkto","Aryan Fuels","Bardhaman","23.6231276","87.1390638"
"ChIJfcEMxV4R9zkRmCxTx1PPQoM","Bharat Petroleum","India","23.6231333","87.13904199999999"
"ChIJZQxbI1ET9zkR1zboW48LtGQ","Dakshin khanda Mini Petrol pump","Dakshin khanda, kalibari more Paschim","23.6179736","87.21750349999999"
"ChIJ_zYiDQAR9zkRN4YOTR3Myf4","Fatima Fuels","J47H+GX2, Doctor MN Ghosh Road, Raniganj","23.6137569","87.1298989"
"ChIJBeAuLPxt9zkRF2Z9em9fJV4","IndianOil","Lock, 11010, Mahatma Gandhi Road, Durgapur","23.555965","87.299469"
"ChIJr3_3oQxy9zkRxq9Lg3HLmEk","Hindustan Petroleum Corporation Limited","Ground Floor, Grand Trunk Road, Bhiringi, Bardhaman","23.543031","87.282911"
"ChIJ_1VvQnZy9zkR3kV9Qe_xo2w","Raja Service Station Bharat Petroleum","Delhi - Kolkata Highway, Benachity, Durgapur","23.547108","87.275454"
"ChIJeaqZBoNx9zkRKJ9vmD__J0I","Bharat Petroleum Petrol Pump","BC ROY AVE,DURGAPUR,BURDWA, BARDHAMAN","23.5053038","87.30914430000001"
"ChIJfXUcbuxt9zkRL4GeCrGrarc","IndianOil","Lock No 12016, Rtkm/38, Akbar Road, Benachity, Durgapur","23.566603","87.284988"
"ChIJEx8goedt9zkRhL57OApa3G8","Bharat Petroleum, Super Service Station","A-Zone, Durgapur","23.5717582","87.2941827"
"ChIJkxnCqq1x9zkRuBr9VFaBlG8","IndianOil","No 112, Lock No 12006, HP GT Road, Barddhaman, Khayrasole, Durgapur","23.511513","87.338753"
"ChIJ9cXA0Rpy9zkRLYx8hI1mUMk","IndianOil","Saheed, Shahid Khudiram Sarani, City Center, Durgapur","23.536922","87.29356399999999"
"ChIJTaFx-6Vz9zkRlHBWnQcJARo","IndianOil","Ground Floor, NH 2, Gandhi More, Durgapur","23.5380461","87.28983"
"ChIJBy48D5Zz9zkR_wX3K_y6zjQ","IndianOil","JL No 74, Touzi No 20, Kh No 737128, Plot No 854 & 856, Faridpur Road, Bardhaman","23.538063","87.28931399999999"
"ChIJQ04uJ7Nz9zkRyX15dbpnNoo","SUJOY","Faridpur, 713213, School Para, Durgapur","23.5401392","87.28318879999999"
"ChIJXQy6m11x9zkRsjlPTE-oUWk","Bharat Petroleum, Petrol Pump -Super Filling Station","Kabiguru Sarani, SAIL Co-operative, City Center, Durgapur","23.5474437","87.31094900000001"
"ChIJM1-KFDhx9zkRrLPMhl9iHfA","Indianoil-Adani Gas Pvt Ltd CNG Station","G8W6+XCM, Kabiguru Sarani, City Center, Durgapur","23.5474657","87.31104599999999"
"ChIJjQWKMQBx9zkRJfB_jX_I8vg","durgapur city center","G8C6+5QF, Durgapur","23.5204443","87.3119227"
"ChIJnylAqeJx9zkRrqh5h0UDwV4","Hindustan Petroleum Corporation Limited","Ground Floor Bhagatsingh, Chowk, Kabiguru Sarani, Durgapur","23.5494585","87.31193329999999"
"ChIJhSh8E_Bx9zkRo933qKC6lJg","Oil Co Service centre","G8X7+JGW, Jawahar Lal Nehru Road, City Center, Durgapur","23.5491062","87.31383199999999"
"ChIJSYLlbYNx9zkR6hOSPxVKdUs","IndianOil","Lock No 11013, Dr BC Roy Avenue Paschim Bardhaman, Industrial Area","23.512094","87.3110125"
"ChIJH8xLhJpx9zkR1kBDbDZ0xwM","Indane Bottling Plant","G877+CFC, Lenin Sarani, Industrial Area, Durgapur","23.5135615","87.313651"
"ChIJNwjXSXZy9zkR99y5ZJYW814","Hindustan Petroleum Corporation Limited","Ground Floor, Grand Trunk Road, Bhiringee More, Durgapur","23.5476305","87.27457419999999"
"ChIJnRklJwBx9zkRU655bsVms3o","D P L","L Housing Complex, D.P, Industrial Area, Durgapur","23.5115595","87.3114258"
"ChIJU1RlUT569zkRtlOlaxVrZlo","IndianOil","","23.476452","87.4029558"
"ChIJecP-jjF69zkRlvv5h5lL8EA","Hindustan Petroleum Corporation Limited","Ground Floor, near KM Stone 511, NH 2, Birudiha","23.4703912","87.4153097"
"ChIJ_XwHXNZ79zkRPLKtZrIrdk0","Maa Sarada Service Station","FC97+VWM, National Highway 19","23.4697174","87.4147887"
"ChIJRRnnRQ579zkRT-pWKi3k4ZQ","IndianOil","Lock No 13014, RTKM 8 GT Road, Burdwan, Birudiha","23.4619358","87.4308599"
"ChIJgQ9vjxN79zkRcd-khPR9SRk","Bharat Petroleum, Petrol Pump -Rajlaxmi Auto Filling Stn.","opp. DITM, Grand Trunk Road, RAJBANDH","23.4741908","87.40853349999999"
"ChIJ50RMqFp59zkRIdD5wM-ss5A","Akash Lohani","Panagarh Bazar, Panagarh","23.4535712","87.4475143"
"ChIJ1RJ9TY179zkRaoebI2JragY","IndianOil","Ground Floor, Kanksa","23.4600341","87.4555817"
"ChIJkTdVDcd79zkRY6VKaFUsKOM","BHARAT PETROLEUM - MAA KAMAKSHA SERVICE STATION","Chatty, Rajbandh","23.4873816","87.38266999999999"
"ChIJGS4qMAB99zkRnPNslfRRSTE","COCO KANKSA","FF58+724, Kanksa","23.4581396","87.46508349999999"
"ChIJzZHqqFJ59zkRShL_HAwdBVg","Panagarh Petrol Pump","Panagarh Bazar, Kanksa","23.4454119","87.45986219999999"
"ChIJp8MK_Ot99zkRteEzklTLDJQ","IndianOil","Ground Floor, NH 2, Bypass, Panagarh","23.4589409","87.465797"
"ChIJJ2Xv0ap59zkRX-kUDtf_Jh0","Bharat Petroleum Petrol Pump , MAA ANNAPURNA FILLING STATION","SHILAMPUR, KANKSA, Paschim Gangarampur","23.426611","87.44024"
"ChIJAfz6-3HV-TkRlAf-1fz8yQQ","Hindustan Petroleum Corporation Limited","Ground Floor, Budbud","23.399561","87.554221"
"ChIJ5U0PePd_9zkRM6XGsP7OKsE","Hindustan Petroleum Corporation Limited","Ground Floor Kota Gram, Kota Chandipur","23.4338013","87.5080296"
"ChIJLXUM71jV-TkR6Juri4oDPcY","Ghosh Auto Fuel","CHV2+MVR, Unnamed Road, Ramnagar","23.444245","87.55213499999999"
"ChIJNSIFsebV-TkRsYOd8kqccA8","IndianOil - SWAGAT","Bagabanpur","23.3941875","87.5698906"
"ChIJcUFXPbnU-TkRt3DSWKSOCAg","IndianOil","Ground Floor, NH 2, Grand Trunk Road, Gulsi, Paraj","23.380188","87.60197099999999"
"ChIJn06bIMss-DkROpxYgY1ShBo","IndianOil - SWAGAT","NH 2, Golgram, Galsi","23.3632568","87.6410205"
"ChIJzzjoCCnV-TkRoAGRSJtav4I","JIO - BP Petrol Pump SHREE NIDHI SALES","9JH6+797, Paraj","23.3781593","87.61092959999999"
"ChIJr8ov3kgt-DkR3x_0TQBNgSE","Bharat Petroleum, Petrol Pump -Mandal Fuel Service Station","NH2,North-East of Bhasapul more,Galsi,Purba","23.3603381","87.6497435"
"ChIJbw6NfyYt-DkRWadgkhu1SdY","Jio BP - Tirupati Filling Station","Plot No 6837, 6838, JL No 54, Vill: Galigram, Golgram","23.3541648","87.660692"
"ChIJQX5kDADV-TkReIMGLF662Tw","Hindustan Petroleum Corporation Limited","Ground Floor Galsi, Jharul","23.3862864","87.5894982"
"ChIJISRV893U-TkROREKBKcHZOc","HP PETROL PUMP - COCO STATION","NH 2, GT Road Village Paraj P S Galsi, Durgapur","23.387238","87.585301"
"ChIJdWgoQ2fV-TkRJwh2CNsD7p8","Hindustan Petroleum Corporation Limited","Ground Floor NH 2, GT Road, Galsi, Paraj","23.3864238","87.5847622"
"ChIJl0cYPvQy-DkRPwi5wLN_CpM","IndianOil","Ground Floor, Ura, Galsi, Galsi","23.32243","87.72126"
"ChIJ9eR5EEot-DkRBrZQ_5htNWM","Kalpataru Fuels","N.H-2, Galsi","23.3335176","87.70195249999999"
"ChIJrfp9agAz-DkRz1omGhPljlc","Nurtazz Xpress","8Q25+44P, National Highway 19, Sanko","23.3003371","87.75815639999999"
"ChIJB_5Boho2-DkRnotr4Pc4vrg","Bharat Petroleum - FRIENDS Service Station","UIT, near Burdwan, Goda, Bardhaman","23.2590977","87.84560680000001"
"ChIJQTMQD-JJ-DkRXtsA2ha8Dks","Hindustan Petroleum - Charu Petrol Pump","Grand Trunk Road, Khagragorh, Bardhaman","23.2555264","87.85539419999999"
"ChIJ71qRfOFJ-DkRhIYEUFbNaAY","Hindustan Petroleum Corporation Limited","Bhangakuthi BSNL Tower, Ground, Old, Grand Trunk Road, Bardhaman","23.254501","87.857601"
"ChIJH5d9g-hJ-DkRCyu9KF3Z6eI","Hindustan Petroleum Corporation Limited","Ground Floor, Mehdi Bagan, Grand Trunk Road, Bardhaman","23.252331","87.864961"
"ChIJUWZrQ-xJ-DkRCRko5xcDtzc","IndianOil","Lock, 13012, Katwa - Bardhaman Road, Bijoyram, Bardhaman","23.2703001","87.8755001"
"ChIJZ-6obG02-DkRfyBqQmsKDmM","Hindustan Petroleum Corporation Limited","Ground Floor, Byepass Road, Lakhoti, Goda, Bardhaman","23.258841","87.83383099999999"
"ChIJ49ReJHc2-DkR6hKIIvljI5s","IndianOil","Ground Floor, near Bus Stand, Fagupur, Nababhat","23.267176","87.827652"
"ChIJoYXBxTVJ-DkRf1-BSuERmmA","Hindustan Petroleum Corporation Limited","Ground Floor, Grand Trunk Road, Khagragorh, Bardhaman","23.2555012","87.8551979"
"ChIJD74Xg1I1-DkRYYOpoHKdTKc","Bharat Petroleum, Petrol Pump -Friends Service Station","KESHABGANJ, Bardhaman","23.2735949","87.81132099999999"
"ChIJqT36DR1J-DkRIUGJXVoRu5c","VK PETROLEUM","near Gopal Nagar, 7V59P44, Bardhaman","23.2607382","87.8651635"
"ChIJf8FHIg5K-DkR2STpWeqEW0E","Radhakrishna Filling Station","Palitpur Road, Kamnara","23.289174","87.8553328"
"ChIJ5-gd7TM2-DkRW2HCDKEM3H8","IndianOil","Ground Floor, NH 2, Nutanganj, Tejganj, Bardhaman","23.22906619999999","87.84115279999999"
"ChIJsUqH3M9J-DkR_6FNtzCIf7U","NARAYAN AUTO STORES - (BPCL)","BUS STAND, 66, GT, ROAD, OLD TINKONIA, opposite of SIDDHARTHA HOTEL, Bardhaman","23.2455567","87.86880470000001"
"ChIJLbkDrRBJ-DkRrENlpU14Toc","IndianOil","Lock No 13008, 48/1, Grand Trunk Road, Bardhaman","23.2439042","87.8685095"
"ChIJySUDYcVJ-DkROJpQiCiNRuA","Hindustan Petroleum Corporation Limited","97, Grand Trunk Road, Bardhaman","23.237171","87.86621099999999"
"ChIJ2VJYYsVJ-DkRy8t8k1wovdc","Dholdighi Petrol Pump","Grand Trunk Road, Khosbagan, Bardhaman","23.2370779","87.8664744"
"ChIJpefKeQBJ-DkRNozd3vSt2-8","Hindustan Petroleum Corporation Limited","Ground Floor, Das Para","23.27198659999999","87.8759697"
"ChIJI2tJ83U3-DkRzwuQttrRAuU","Hindustan Petroleum Corporation Limited","Ground Floor, Block Burdwan 1, Belkash","23.2587515","87.78552529999999"
"ChIJ3cfgZzBP-DkRhKthVfpWAsc","Petrol Pump","6W6R+PRQ","23.2118392","87.9421158"
"ChIJz1qj9_tI-DkRV_8RWz4_hoc","IndianOil","Lock No 13005, Bamchandipur, Joteram","23.219426","87.899829"
"ChIJlcBAT6RJ-DkR-IYOdt61fK0","Reliance Petroleum","NH-2, VILLAGE GANGPUR, POST OFFICE JOTHRAM, DISTRICT: BURDWAN Burdwan -1 (Rev 01","23.2165079","87.9293393"
"ChIJL4wQXQBP-DkRWp9GLJBbd24","IndianOil","Ground Floor, NH 2, Kandorsona","23.21195","87.941841"
"ChIJIwff9DpP-DkR2f4N3S_Xsfs","IndianOil","near Agriculture Farm, Ground Floor, Joteram, near Agriculture Farm, Kandorsona","23.2113848","87.94449039999999"
"ChIJFYtNZwBJ-DkRXlRe1qmyUEI","Hindustan Petroleum Petrol Pump","6WR3+5R, Dangachha","23.2396693","87.90446349999999"
"ChIJ5-eefrxJ-DkR9FWoq0YsoNo","Hindustan Petroleum Corporation Limited","JL No 71, Plot No 181, Kalna Road, Bardhaman","23.2396129","87.9036117"
"ChIJmQeDxIhI-DkR3iFmPZJZL88","শ্রীকৃষ্ণ বসালয়","5VRX+P7Q, Dhamas - Burdwan Road, Bamunia","23.191835","87.8982429"
"ChIJyzF-GVFI-DkROr7iOnGHck0","Hindustan Petroleum Corporation Limited","Ground Floor, Gopalnagar Avenue, Bardhaman","23.2173662","87.8878489"
"ChIJKXbKGZ1J-DkRqVwa_kB9RLo","Alisha fuel station","BUS STAND, near ALISHA, Gopalnagar Avenue, Bardhaman","23.2169829","87.8878194"
"ChIJm7f3JKBP-DkR4bZHyBaraPI","Hindustan Petroleum Corporation Limited","Ground Floor, G T Road, Bardhaman","23.203381","87.974031"
"ChIJl6ItXQBb-DkRguBjMc0eG5Q","IndianOil","Ground Floor, Jamna","23.1301354","88.04981910000001"
"ChIJo82Ei6pb-DkRv7QRB29U40o","GYAN GANGA SERVICE STATION","Ajhapur Masagram Purbo","23.1295271","88.05198999999999"
"ChIJ4buJ4qJa-DkREOfU02aqzbg","IndianOil","Ground Floor Kanai Danga, Chanchai, Memari, Rasulpur","23.169632","88.029243"
"ChIJyQ5vOGRb-DkRHblDwRC-SVM","IndianOil","Azhapur Near, NH 2, Masagram","23.1271763","88.0538813"
"ChIJEVvH3slb-DkRwx3bNgKinTs","IndianOil","Ground Floor Mosagram Jamalpur, Road, Burdwan","23.124231","88.042671"
"ChIJA69uEwBb-DkR4pqhoSklabE","Bharat petroleum","4386+X7, Dattapur","23.1161716","88.0613419"
"ChIJidp8IDVb-DkRBBqImCZ-5_0","Rajat Bairagi GB","Nilkuthi Primary school, Ajhapur","23.150938","88.0176853"
"ChIJmb0vC7xb-DkRsJcXo_Yqaj0","Hindustan Petroleum Corporation Limited","Ground Floor, NH 2, Jamalpur, Dattapur","23.1146476","88.06383129999999"
"ChIJzZuMMABb-DkRu1fEw81qX7M","TATA DEF STATION ⛽ টাটা ডেফ ষ্টেশন","52CH+5WC, Kanai Danga","23.1704431","88.0297636"
"ChIJmY6r18Bf-DkRjBII-x0JqrI","IndianOil","Plot No 557/565566 Dumro, NH 2","23.0113333","88.1442067"
"ChIJ1wiXIydf-DkRmCTGExrhdJg","Bharat Petroleum, Petrol Pump -Shukla Service Station","GHOSLA, Gurap","23.0492818","88.1204288"
"ChIJ0aTRSKxf-DkRwu8euJHWg_U","IndianOil","Khatian No 1729/173, Dag No 630 JL No 126, Durgapur Expressway, Gurap","23.0412407","88.1252748"
"ChIJE2ejC_9e-DkRxcrUdPphR3w","Hindustan Petroleum Corporation Limited","Ground Floor, NH 2, Durgapur Expressway, Dhaniakhali, Gurap","23.03978009999999","88.1266801"
"ChIJucVrcpdf-DkRSZBPrMAaR9M","Petrol Pump","24QG+QRM, National Highway 19, Gurap","23.0393589","88.1275773"
"ChIJt39y0YJf-DkRgxCUnG4yQ_w","HP petrol Pump","Mazinaan, Durgapur Expressway, Gurap","23.0369751","88.1291773"
"ChIJbb8ay8lf-DkRsHpG972lTE8","Bharat Petroliaam","23, Magra-Gurup Road, Bhastara","23.03043449999999","88.1389339"
"ChIJGX2N7G1f-DkRdn7cpG8eHcI","Bharat Petroleum","Kansaripur","23.0246274","88.1372809"
"ChIJTZtZG3Je-DkRXmWStSe4i5U","IndianOil","Hooghly, Ground Floor Dasghara, Birpur Balidaha, Jolekul","23.0239487","88.1043699"
"ChIJw1QIWSRf-DkRYXsDRiY2Jf0","IndianOil","PL No 903/23 ,P, Khasra No 629643, Bombay Service Station, Dhaniakhali","23.02152","88.1392285"
"ChIJ76UkAn1f-DkRagn8lp1Lnqk","Adhoc SREE KRISHNA SERVICE CENTRE GURAP (COCO)","GURAP bhastara, Nh2, Durgapur Expressway, Dulfa","23.0203836","88.1399138"
"ChIJVdbK6tJf-DkRepbQpAHDd7c","Bharasa KSK Pump (IOC)","Magra-Gurup Road, Bhastara","23.0306604","88.1527758"
"ChIJp3w1XwBf-DkRJF4XXBJ5S2M","M/S MAATARA K.S.K","239X+QH5, Gurap","23.019386","88.098985"
"ChIJoRYIjQFc-DkRFg6pvPMuw2k","SriKrishna Petrol Pump","Jaugram Main Road, Amra","23.0796877","88.0887692"
"ChIJfwaplmCK-DkRDHFy-T3qu3o","Petrol Pump","W5QP+JPR, Hooghly, Puinan","22.9391106","88.1867643"
"ChIJ8-33dV2K-DkRtJhLoEUeMFE","IndianOil","Maheswarpur,Dadpur, Hooghly, National Highway, 2, Durgapur Expressway","22.9339625","88.1888048"
"ChIJo1aTgkSK-DkRfWD5brQlpaA","IndianOil","Ground Floor, Durgapur Expressway, Goyea, Alipur","22.928943","88.192492"
"ChIJ5Xid-UaK-DkRs3vQklgJ0kc","Hindustan Petroleum Corporation Limited","Ground Floor, National Highway 19, Dadpur, Gobindapur","22.923334","88.19437599999999"
"ChIJGxqFpDFh-DkRQL6HwAvatac","IndianOil","Ground Floor, Radhaballavpur, Dhaniakhali,Ashari, Dhaniakhali","22.964099","88.166461"
"ChIJbTx-MiBg-DkRTLnSgfv_XQY","IndianOil","Ground Floor, Kanajuli Radhaballavpur, Durgapur Expressway, Puinan","22.966773","88.16586699999999"
"ChIJkd6QfgCL-DkRZ6A47o7qiY4","ENTRY FOR OMM FUEL CAFE ⛽️","X52H+J4C, Samsara","22.9509854","88.1767067"
"ChIJoc_gY31h-DkRPBR4kJu3g3o","Jio-bp","Ground Floor Kanajuli, Dankuni, Shibpur, Gurap","22.972754","88.160078"
"ChIJ0ReXr2Fh-DkRSRaIkcshm0Y","IndianOil","Ground Floor, Belmuri Dhaniakhali Road, Boso, Hooghly","22.94758","88.15898"
"ChIJeRSiNVBh-DkRSA34Qksreso","Bharat petroleum (Nandy Service Station)","X5F5+9RC, Shibpur","22.9734461","88.1595195"
"ChIJS0Wi-oiK-DkREB5YWDx9he0","Hindustan Petroleum Corporation Limited","Ground Floor, Durgapur Expressway, Nh2, Hodla","22.946151","88.179521"
"ChIJNRzdm-WL-DkRZhPh0xrtAz8","Petrol pump","W5VJ+WRF, Chinsurah","22.9452842","88.18086459999999"
"ChIJT3W-uANh-DkRhIWthNKDUb4","Reliance JioBP Petrol Pump","NH-2, P.S.Gurap Shibpur RS Dag No.331(P),329(P),335(P) & Kanajuli RS Dag No.926,913,914, Gurap","22.9771794","88.1571202"
"ChIJt_GVNX6L-DkRoX5UFvZo_UA","Durgapur Expressway","W5RM+X39, NH-2, Puinan","22.9424014","88.1827239"
"ChIJsU9LFl6K-DkRk-fRaOsFKxQ","Hindustan Petroleum Corporation Limited","Chunchura-Dhaniakali Road, Jampur","22.9388515","88.1883117"
"ChIJTXD3w1aK-DkR1xLCXnkAfhQ","IndianOil","Ground Floor Dadpur, Punian, Alipur","22.938517","88.20079009999999"
"ChIJW-TtaquL-DkRzZqutdKCz38","পার্থ লটারী এজেন্সি","W6Q5+H95, Chunchura-Dhaniakali Road, Banshdarun","22.9388805","88.2084714"
"ChIJ7wkg3B-L-DkRBm4BWI3j-Ls","Narayan Fuel","Gobindapur","22.9246898","88.1945478"
"ChIJHSHJ8t1f-DkRHboiNfYVKJg","Hindustan Petroleum Corporation Limited","Ground Floor, NH 2, Durgapur Expressway, Dhaniakhali","22.997901","88.148201"
"ChIJBRT9bwuJ-DkRitHkPcpzkzk","IndianOil","Ground Floor, Mahesh Tikari, Durgapur Expressway, Singerber, Singur","22.8698706","88.211387"
"ChIJn2zI1tyI-DkRYTYImp99wYc","IndianOil","Ground Floor, Harris, NH 2, Durgapur Expressway, Gopal Nagar, Singur, Sinher Bheri","22.83682599999999","88.229385"
"ChIJaZDHP4eJ-DkRT4i-1u4UCMs","BP Petrol Pump (Aditya Fuel)","NH19 LHS service lane, near radharani marble, to, Durgapur Expressway, Kolkata","22.894102","88.201169"
"ChIJO9cC3yqJ-DkRYdusnWxyHPg","Petrol pump","V696+WGM, Mahisatikri","22.8696406","88.2122856"
"ChIJdXoPegCJ-DkRQVnGATRCzPs","BHARAT ENERGY AND REFILLING STATION","V6J3+MX7, Mahisatikri","22.8816563","88.2049273"
"ChIJIYSyhJWI-DkRjLA9ZBIGhU4","Bharat Petroleum, Petrol Pump -Singur Energy Station","SINGUR,GOPALNAGAR GAJI,HOO, HOOGHLY","22.8210911","88.2259665"
"ChIJTzViJQCJ-DkRqECBPyENDTY","Hari Ansh Fuels","V6P3+R5R, National Highway 19, Kangai","22.886766","88.20281299999999"
"ChIJOZpiLaCJ-DkRS9DZgOXkcu0","Bharat Petroleum Petrol pump","R6CP+QRR, Malikpur, Singur, Singur","22.8219839","88.2370165"
"ChIJa5bDrKOJ-DkRbmrHoEw70qI","Nayara Petrol Pump - Mallick Fuel Pump","State Highway 2, Bhola, Mustafapur, Enayetpur","22.8252529","88.1890866"
"ChIJd7kf5UCJ-DkRy2QD_GOXYJk","Bharat Petroleum, Petrol Pump -Aditya Fuel Centre","Singur","22.81494709999999","88.23450249999999"
"ChIJZQ_IdwCJ-DkRJYE9pr-RLxs","Malikpur pamp","R69W+28P, Malikpur, Singur, Jamirberia","22.817535","88.24607329999999"
"ChIJT7itIKGP-DkR1ewQaW8koD8","IndianOil","Ground Floor, Purushottampur, Singur, Singur","22.8169368","88.24571619999999"
"ChIJ-QgodkmE-DkRTGSkgnEcEL0","Hindustan Petroleum Corporation Limited","Ground Floor, NH 2, Durgapur Expressway, Joykrishnapur","22.7466101","88.2680201"
"ChIJd6RrqMSF-DkREaeeUvo0oJw","IndianOil","Ground Floor, Singur Durgapur Expressway, NH 2, Borai, Bara Kamalapur","22.770962","88.256315"
"ChIJoRCWUPqD-DkR_tEII-QoCC4","IndianOil","Ground Floor Kalachara, Mahesh 1, Serampore, Chanditala","22.6972001","88.2539001"
"ChIJzRS4FwCF-DkRcXwrjVhx_14","TATA DEF STATION ⛽ টাটা ডেপ এসটেসন","P7V9+XJ2, Joykrishnapur","22.7448816","88.2690284"
"ChIJ-1YkSwCF-DkRtuFg43aem3k","DEF W.B AD BIUE","P7W9+V7V, Durgapur Expressway, Bhastara","22.7472495","88.2681691"
"ChIJTYriPkqF-DkRGoO-VSITJsM","Krishna Bhavan","Unnamed Road, Chikrand","22.71601060000001","88.2615125"
"ChIJBeziJgCF-DkR8r5Sn3ZZTIU","TATA GENUINE DEF STATION","toll plaza, Durgapur Expressway, Gobra, Dankuni","22.7062724","88.2851508"
"ChIJCWt_VbyE-DkRvm8jVJMEguo","IndianOil","Ground Floor, Delhi Road, Bamunari, Dankuni","22.721394","88.30688099999999"
"ChIJH4zFgkKF-DkRHigPbfhszfs","EXCEL HIGHWAY SERVICE","P8C4+JXP, State Highway 2, Mollaber Village, Bamunari","22.72159749999999","88.3074441"
"ChIJ52lvHgCF-DkRK962eWOaMOw","DEF FLUID","SH 2, Mamunali, Konnagar, Bamunari","22.7147681","88.3037566"
"ChIJZ5b3OwCF-DkRxjAiLUGkpwc","Bharat Petroleum - Sanjay Energy Station","P872+2V6, Bhadua","22.7125348","88.30215299999999"
"ChIJQSk_NgCF-DkRwUzmANQe1kk","Bharst Petrolium","P872+4XM, Delhi Road, Mollaber Village, Bhadua","22.712503","88.302441"
"ChIJ60yzbACF-DkRc3Wx-t2z8kY","Petrol Pump","P862+7MQ, Delhi Road, Rishra, Simla","22.7107091","88.30174029999999"
"ChIJ8zcA352E-DkRyiuRLmYFnW0","Hindustan Petroleum Corporation Limited","Ground Floor, Primary School, near Bhadua, Delhi Road, Mollaber Village, Hooghly","22.70804009999999","88.2995301"
"ChIJm0rBWACF-DkRp06SgWVv9uI","Bharat Petroleum","P852+FCQ, Chakundi, Konnagar, Satghara","22.708628","88.30098"
"ChIJbWqhF4yD-DkROXy8X9CXTA8","IndianOil","Ground Floor, SH 15, Chanditala","22.6945316","88.25872489999999"
"ChIJW5J0pimF-DkRMbSLLOha7KM","Banik Filling Station","S, NH2 Byepass, Delhi Road, Serampore, Dakshin Rajyadharpur","22.7501118","88.31833619999999"
"ChIJnz7OGd2C-DkRecHl-0VY5t4","IndianOil","Ground Floor, NH 6, Jaipurbill, Liluah, Anandanagar","22.648166","88.3060982"
"ChIJtbITcheD-DkRFuAxll9NO5I","Hindustan Petroleum Corporation Limited","Ground Floor, NH 2, Durgapur Expressway, Dankuni","22.6716987","88.30133699999999"
"ChIJ0Sfu7-qC-DkRX5wAMvxucqs","IndianOil","Ground Floor, NH 6, Bombay Road, Chamrail, Howrah","22.631577","88.300722"
"ChIJ7Zw8Camd-DkRq3FUxCpgpxY","Onkar Service","58, BARANAGAR, KOLKATA","22.651363","88.36550989999999"
"ChIJRW00kmed-DkRZZwWaNGzGTs","Shyamol petrol shop","M82H+52F, Nischind, Madhyapara, Bally, Howrah","22.6504328","88.32754039999999"
"ChIJsbYMjoad-DkRHzqSOzQfpis","IndianOil","Ground Floor, NH 2, Bypass Delhi Road, Bally, Howrah","22.653051","88.32951399999999"
"ChIJXxg4ydqc-DkRnJHg85yc7nw","Hindustan Petroleum Corporation Limited","Ground Floor, near Birla More, Makhla","22.6700978","88.33516089999999"
"ChIJUeO1JNaD-DkRp0_VBgehIYg","PRADIP","Belanagar, Howrah","22.6696704","88.3066953"
"ChIJB8d7BSCD-DkRz3p9qM1NJ4E","Iocl","J8P3+Q32, Grand Trunk Road, Chamrail, Howrah","22.6368822","88.3026366"
"ChIJRchZXgCd-DkRGOllfCyXV-Q","Joypur Bill","J8GH+5P3, Liluah, Howrah","22.6253823","88.329307"
"ChIJWz9GTBKd-DkRZ6slOOAswfs","Badamtalla Petrol Pump","Grand Trunk Road, Belur, Bally, Howrah","22.6392855","88.3508717"
"ChIJDWIntCGD-DkR6vTtjdR5K98","Akash filling station","M7GW+7HW, Dankuni","22.6757457","88.296463"
"ChIJA0PG5BSD-DkRKsMSkb1WcBA","IndianOil","Ground Floor, Delhi Road, Dankuni","22.680571","88.3018201"
"ChIJETWu4Jid-DkRL0tEiwK5iP8","Md Company Pvt Ltd","130/C, Grand Trunk Road, Liluah, Howrah","22.6307717","88.34788669999999"
"ChIJvbi6_u2c-DkR74fTIGQHVEg","Hindustan Petroleum Corporation Limited","Ground Floor, near Bhadrakali High School, ST Road, Bhadrakali, Hooghly","22.677401","88.352901"
"ChIJU6OzLgCD-DkRJ5CZJN5I0T4","TATA. AD BLUE DEF (URIA)","M8P3+HF3, Housing Estate Colony, Dankuni","22.6863056","88.30391519999999"
"ChIJ88u9aG-d-DkRLmFYIvGSOUM","Sur Petrol Pump","286, 1, Grand Trunk Road, Belur, Liluah, Howrah","22.6247166","88.3499113"
"ChIJZ2zj0S6d-DkRgNL3f1_K2KQ","Hindustan Petroleum Corporation Limited","Old No 44, No 286/1, 1, Grand Trunk Road, Liluah, Howrah","22.6247201","88.3500601"
"ChIJRStpO-yD-DkRkFgcFzp-NH4","Hindustan Petroleum Corporation Limited","Ground Floor, Liluah, Chamrail, Eksara","22.627325","88.291949"
"ChIJl9YweayD-DkRZunjsQvCZeM","G.S. Engineering","M76J+P27, Bhaighachi, Jagadishpur, Howrah","22.6617972","88.2800338"