place_id,name,address,latitude,longitude,open_now
"ChIJN9a5uo7fazkReKGRPO-rQpM","Hindustan Petroleum Corporation Limited","Ground Floor, NH 8, Beawar Road, Saradhana","26.3271355","74.5605888","true"
"ChIJOXslNADhazkRPj6W7prcYXk","BP AJMER COCO PETROL PUMP","near transport nagar, Beawer road, daurai, Ajmer","26.3856027","74.60914009999999","true"
"ChIJO6JiEwDhazkRSFzduY9mqZI","INDIAN OIL PETROL PUMP ⛽️","9JM5+9HP, Transport Nagar, Ajmer","26.3834748","74.6089616","true"
"ChIJ5YtVqdjfazkRg92eaJi_eMI","Kargil SHAHEED PETROL PUMP","9H5V+W4P, Ajmer","26.3598405","74.5928419",""
"ChIJg6qYQeffazkRrBkmoBlQYFg","Hindustan Petroleum Corporation Limited","Plot No 3760, Saradhana Road, Ajmer","26.351988","74.585745","true"
"ChIJgwgvb3fhazkRgULMnavo6Bo","IndianOil","Ground Floor, NH 8, Ajmer Bypass, Tabij, Dorai, Ajmer","26.36384619999999","74.608843","true"
"ChIJbbc3iOngazkR8eSIUqhmpYA","Nagpal Brothers","Somalpur, Ajmer","26.4010563","74.6225442","true"
"ChIJ8ZF6ktnhazkRHBDxQlkHOjk","IndianOil","Daurai, Beawar Road, Somalpur, Ajmer","26.401101","74.622704","true"
"ChIJuZZtMwDfazkRnEgMqzlFyVM","Hindustan Petroleum Corporation Limited","Ground Floor, NH 8, Jaipur - Jodhpur National Highway, Saradhana","26.3394001","74.57064","true"
"ChIJ-Vy3BVzgazkRU6NW9Shp_AQ","IndianOil","near Ajmer Bottling Plant, Ground Floor NH 8,Amba Masina, near Ajmer Bottling Plant, Ajmer","26.37340009999999","74.622301","true"
"ChIJO78rTcXhazkRSonS9spprHs","Awat Kala Filling Station","opp. Indane Gas Bottling Plant, N.H.8, Tabiji","26.3759087","74.6250736","true"
"ChIJ3bJ7rg_hazkR1sLVeT0xhAY","Hindustan Petroleum Corporation Limited","Survey No 4993, 1719, Jodhpur - Jaipur Road, Tabij, Jaipur","26.375689","74.625215","true"
"ChIJkc4tKwDfazkR8STaAUpES9U","Shree VeerTeja Fuels petrol pump","H. 8, HPCL DEEPO KE PASS N, Ajmer, National Highway, 8","26.3292781","74.5630123","true"
"ChIJu0_ZvrjfazkRivv7K1xXbBA","CNG","KH.No .5409, NH 8, Saradhana","26.3272673","74.5593142",""
"ChIJNXAbsD_hazkRhr6OlVYBW_g","IndianOil","Ground Floor, Bypass, Amba Masina, Parbatpura, Ajmer","26.4092001","74.66120099999999","true"
"ChIJY3jCkUDhazkR2KPZRGrhGHo","Khalsa Filling Station- BPCL Retail Outlet","Jaipur Road, Parbatpura, Ajmer","26.411284","74.66447","true"
"ChIJi3QAwC3hazkRWXk-yybQHrs","IndianOil","Nasirabad Road, Adarsh Nagar, Ajmer","26.425601","74.64980299999999","true"
"ChIJdWAbudPmazkR7ayPHUPmlQE","Petrol pump","30/1748, Nasirabad Road, Angira Nagar, Nagra, Ajmer","26.4327715","74.6476061","true"
"ChIJe_sd8arnazkRzQYqQEdO-Rk","Jio-bp","Ground Floor, Srinagar Road, Ajmer","26.449661","74.6471085","true"
"ChIJFcjaCSDnazkRtVJVlhkY4Ng","Ambica Tyre Soles -Air Compressor |Tyre in Ajmer |Service Pump in Ajmer","Shop No. 4, opp. Hotel Ratan P, R. Marg, Ajmer","26.4610759","74.6347437","true"
"ChIJJbGWDQLnazkReo9m1E_BdA4","IndianOil","Ground Floor, Jaipur Road, Bapu Nagar, Ajmer","26.4638075","74.6331398","true"
"ChIJ0WWj7RXhazkR4RCxqDAMoqo","Pratap Diesels Private Limited","Chowraha, Ajmer Bypass, Parbatpura, Ajmer","26.4061546","74.6588514",""
"ChIJAQAAMBbhazkR4Vyd6rPvIGw","Charnal Petrol Pump","CM56+QG2, Parbatpura, Ajmer","26.4093978","74.66127879999999",""
"ChIJZz4FGNbnazkR2EFsCOTInjU","Hindustan Petroleum Corporation Limited","Plot No 7194, Nasirabad Road, Ajmer","26.432816","74.64764009999999","true"
"ChIJ-e3uvtPmazkRT1Ra85kAsFI","9 No. Petrol Pump","CJMX+Q5H, NH 79, Bihari Ganj Road, Bhajan Ganj, Ajmer","26.434511","74.6472538","true"
"ChIJlzMnPijnazkRrAFicumDNVc","Hindustan Petroleum Corporation Limited","1/413, Plot No AMC, Beawar Road, Ajmer","26.4378701","74.63883009999999","true"
"ChIJi9A8CSjnazkRQDLaL2C7YbE","Hindustan Petroleum Corporation Limited","Ground Floor, Bewar Road, Ajmer","26.438971","74.639118","true"
"ChIJOad5kYLnazkRxdjHqxwTCZU","Bharat Petroleum, Petrol Pump -Lachhmi Narain And Sons","AJMER CITY, OPP RAILWAY HO, Ajmer","26.4395734","74.6392915","true"
"ChIJH6MPFZTnazkRMkczaCA7A1E","Gurudev Filing Station","Jodhpur By Pass Ring Road, Ajmer","26.4391523","74.645832",""
"ChIJm7KvIQDnazkRn49ZQeu2gDg","Charbhuja petroleum","Khatana Kheda singhawal, Ajmer","26.4498954","74.6399163",""
"ChIJ020GZjnnazkRTyBSibMaPFE","Bharat Petroleum, Petrol Pump -Raja Cycle And Motor Garage","MAYO COLLAGE ROAD, AJMER C, Ajmer","26.448655","74.65134259999999","true"
"ChIJnTZz4XS9azkRAE79gBN0n3U","Mahadev Fuel","Bagaot, Ajmer","26.457348","74.6459",""
"ChIJ6VBvyLrnazkRpViwnAMoFww","IndianOil","Plot No 655/46, Naka Madar Colony, Ajmer","26.4523514","74.6678162","true"
"ChIJxVRpcQDjazkRqzQ_oFaKuxI","Cng pump","CP93+3QP, Palra","26.4177137","74.70444250000001",""
"ChIJi4-zeFXnazkRrsRqn3O_eVs","INDRA KRIPA HAMARA PUMP","Alniyawas, Ajmer Road, Ajmer","26.4640925","74.6302121",""
"ChIJGapDfAPnazkR5v7AK_SrpVk","Hindustan Petroleum Corporation Limited","Ground Floor, Jaipur Road, Ajmer","26.46427499999999","74.63439199999999","true"
"ChIJsYvefv3mazkRdHnTyWRFx2c","Hindustan Petroleum Corporation Limited","Ground Floor, Kutchery Road, Ajmer","26.46519199999999","74.64008700000001","true"
"ChIJAUeH8NHlazkRQUwTolOxWmU","IGL CNG & LÑG Filling Station","CMQW+9J, Ajmer","26.4384781","74.6964489","true"
"ChIJsaXOWHPnazkRbcejZ8s3Uew","IndianOil","Ground Floor, opposite Patel Maidan, Jaipur Road, Ajmer","26.46699899999999","74.63950299999999","true"
"ChIJr_Qy_yPnazkRk50bNhGHMM4","Bharat Petroleum, Petrol Pump -Vakil & Co.","KUCHERY ROAD, AJMER CITY, Ajmer","26.467239","74.6409668","true"
"ChIJJwU8GXJYaTkR0wKTeSE-Nm8","IndianOil","Ground Floor, NH 79A, Bijainagar, Lavera","26.3849695","74.7636151","true"
"ChIJR6jRW8DiazkRh94mAjArSJc","Hindustan Petroleum Corporation Limited","Plot No 4199/4204, Kishangarh Nasirabad Road, Ajmer","26.37385799999999","74.7596401","true"
"ChIJz8-fUovjazkRNDDXmNc2GNs","Bharat Petroleum, Petrol Pump -Lavera Highway Filling Station","LAVERA, ADJACENT TO LPG PL, Ajmer","26.3772102","74.7622047","true"
"ChIJV_IqRJbjazkRWHC_Q-jh8Vg","Arihant Filing Station Bharat Petroleum (BPL)","rhs near BPCL GAS PLANT sringar, NASIRABAD DISTT. AJMER (RAJASTHAN, Delhi - Jaipur Expressway, Kana Kheri","26.3953077","74.7669994","true"
"ChIJuc2FPNnjazkRdOPfeTWOUgE","Hindustan Petroleum Corporation Limited","691/2877, Plot No 691/2876, kishangarh Nasirabad Rd, Nasirabad","26.397902","74.767575","true"
"ChIJW4UD8ifjazkR42tOkDsNGOc","Neha Filling Station-Hindustan Petroleum","Dilwada, Ajmer, NH-79A, Nasirabad Road, Nasirabad, Nasirabad","26.3965","74.76769999999999","true"
"ChIJJ_CYPi_jazkR1STBpd_2smE","IndianOil","Ground Floor Kanakheri, Sri Nagar, Nasirabad","26.403023","74.770718","true"
"ChIJZx2mfwDjazkRGK9koi_end0","D E F Uriea ⛽ pump","CQ4C+554, Nasirabad, Shreenagar","26.40539519999999","74.7704648",""
"ChIJe8eDqTjjazkR8oUCtZLatiQ","Hindustan Petroleum Corporation Limited","Plot No 87, Kishangarh Nasirabad Rd, Nasirabad","26.354831","74.7558701","true"
"ChIJdxGGkQfjazkRrJzWAKon6OY","Bharat Petroleum, Petrol Pump -Aarihant Filling Station","KANAKHEDI, Ajmer","26.4119346","74.7733985",""
"ChIJo-mtsHVYaTkReTx6jsPY7PY","IndianOil","Ground Floor, Nasirabad, Bijainagar","26.346","74.7528","true"
"ChIJI5QysXVYaTkR1GtFREQOM9c","dianOil","India","26.3457842","74.7530984",""
"ChIJHQmkR9TcazkRNVPtMHLirnY","IndianOil","Ground Floor, Pushkar, Banseli","26.5052001","74.542401","true"
"ChIJU5v8lJ7nazkRB7GGnaGmN58","IndianOil","Commercial Yojana, Pushkar Road, Haribhau Upadhyay Nagar, Ajmer","26.475801","74.611901","true"
"ChIJVwBrfYjdazkRtXvTYbqyJas","IndianOil","3408/3240 3410/3241, Pushkar","26.4880876","74.5665973","true"
"ChIJCXWrIwDdazkRauoADHK-tOk","Om batil cng","FHQ2+C9P, Pushkar","26.4885822","74.5509422",""
"ChIJy5Atq9fcazkROn56a_Z1cME","IndianOil","Ground Floor, Bhagwan Pura, Ganahera, Pushkar","26.500598","74.54348499999999","true"
"ChIJtWBzbCrdazkRZZK3DxVeJ_c","Om Petroleum Fuel","Pentrol Pump, Motisar Road, Pushkar","26.477606","74.5098912",""
"ChIJVVVVlV8cbDkRnPMldAXtPNQ","IndianOil","Anna Sagar, Circular Road, Vaishali Nagar, Ajmer","26.4908882","74.6210823","true"
"ChIJM7o1wmTdazkRTdfnnqs1W5w","Hp Petrol Pump","Petrol Pump, Kisan Pura, Ajmer","26.4972896","74.5070136","true"
"ChIJS4l3m_DdazkRmcDG_mNx_10","Hindustan Petroleum Corporation Limited","Survey No 2299, Kishanpura Road, Kishanpura, Pushkar","26.497651","74.50651599999999","true"
"ChIJrSIYRa_CazkRAJhE0Zad3Us","MP GAS","GHFP+WH4, Pushkar Bypass Road, Kanas","26.5247742","74.5864625",""
"ChIJ6W64WgDDazkRw9tOG1mDTy4","Shree Sumer Sagar Petroleum","GGMR+G2, Tilora","26.5326008","74.5457457","true"
"ChIJT70Su8_nazkRGOyeP14S6Rg","SAFARI MAX POWER","GJ4J+542, Makarwali Road, Ajmer","26.5053773","74.63025859999999",""
"ChIJK1zWdKPnazkR5Nxw2oklcck","IndianOil","Block C, Panchsheel Nagar, Ajmer","26.5043482","74.63161149999999","true"
"ChIJzeBycvjnazkR41UP4za1sWg","Hindustan Petroleum Corporation Limited","Plot No 216 & 217, Jaipur Road, Ajmer","26.4894082","74.6743982","true"
"ChIJhXG4rojnazkRhxTXK8eAHgg","IndianOil","Ground Floor, Lohagal","26.5080368","74.6558211","true"
"ChIJy1f3ikXlazkR2w8UvTM3wT0","BPCL petrol and CNG pump- Rajvansh Filling station and Cng pump","Grahm ghooghra, Jaipur Road, Ajmer","26.5021918","74.6902545","true"
"ChIJ0b-cVADpazkRhmZOf41Yw40","MAA ANJANI PETROLEUM SERVICE","GJHM+HW, Makadwali","26.5289375","74.6348125","true"
"ChIJx65zYO3lazkR3lwGOKcqa8I","IndianOil","Ground Floor, NH 8, Gagwana","26.515958","74.708748","true"
"ChIJo78OHTLlazkRfVyEGkvm-rg","IndianOil","Bhudol","26.4997024","74.74038759999999","true"
"ChIJsztV3wTlazkRCvJLFE-uFUg","Hindustan Petroleum Corporation Limited","Ground Floor, NH 48, Bherukheda, Ajmer","26.5162357","74.7005544","true"
"ChIJBST_c5zlazkRA4EbFtX-PcA","Patrol Pump Bhudol","FQR4+976, Bhudol","26.4909049","74.7556518","true"
"ChIJuXX0GjTlazkRzEBOrN9TYiw","GO GAS AUTO LPG PUMP , Gagwana","Gagwana puliya ke pass, ajmer, Delhi - Ajmer Expressway","26.5270091","74.7287917","true"
"ChIJs87ye9bDazkR8iYAR3uEA54","IndianOil","Ground Floor, Dungaria Khurd, Bhagwan Pura, Pushkar","26.553738","74.551626","true"
"ChIJP5NRcnvDazkRsnTrqu3Clp0","Sawariya KSK Indian Oil Petrol Pump","Ajmer - Bassi Road, Kadel","26.58429","74.5806716",""
"ChIJQxAMCQDFazkRAUSLo8Z6QAQ","Suman Filling Station Bharat Petrol Pump","near Golai Balaji, Thanwala","26.5603787","74.4898864","true"
"ChIJ-VdXvHrEazkRIt8iL2eqYQg","Hindustan Petroleum Corporation Limited","Khasra No 2248, 2206/9 Old NH 89, National Highway 58, Degana, Thanwala","26.5595901","74.4889401","true"
"ChIJtcv4AfHpazkRBabAJz1ph6o","Shiv Kripa Filling Station","Makarwali, Pushkar Bypass Road, Ajmer","26.5424214","74.6529626","true"
"ChIJBTPZVADpazkRMGip584BI1w","Hindustan Petroleum Corporation Limited","Ground Floor, NH 89, Pushkar Bypass Road, Makadwali","26.541045","74.655975","true"
"ChIJB7cHEj7pazkRBaJptyX6Nuw","BPCL petrol pump - Shree dev narayan filling station , Ajmer","NH-89, Pushkar Bypass Road, Makadwali","26.54465","74.6575805","true"
"ChIJXz6JrJToazkRxlQNmX1C1AY","Bharat Petroleum","GMV5+W67, National Highway 58","26.5447952","74.6580369",""
"ChIJk7PiLADpazkRYoY1BcjGigQ","Nayara Pump","GMP9+VV, Ghooghra","26.5373253","74.6702924",""
"ChIJR1pNdQDvazkRec6s34MjtOI","Shree dev indian oil petrol pump","HP49+376, Chhatri","26.5551683","74.7181507",""
"ChIJ39xqPY_vazkRBjjv8QM6Dqw","Bharat Petroleum Petrol Pump , LAXMI NARAIN AND SONS","AJMER JAIPUR, ROAD, Gagwana","26.5355542","74.7499725","true"
"ChIJV_3RPuDvazkRGepdlnrWEIg","Hindustan Petroleum Corporation Limited","Plot No 865, Jaipur to Udaipur Road, Chandiyawas","26.537968","74.752763","true"
"ChIJm99k8h3wazkRLb9syLuSUgQ","Essar Oil Petrol Pump","near Toll Plaza, Delhi - Ajmer Expressway, Gegal","26.550742","74.7796822","true"