place_id,name,address,latitude,longitude,open_now
"ChIJJfcju_aJQTkRB-KCs6AGxpE","IndianOil","Ground Floor Luni, Jodhpur Kachery, Tanawada","26.162134","72.988177","true"
"ChIJSXX0iS-JQTkR8tWrsSQrTfk","Indian Oil Petrol Pump","Bhadu Market, Jodhpur","26.214995","72.95076089999999","true"
"ChIJoY7Th8iLQTkR8xglohkRxbs","Bhagwati Roadways","near Bharat petrol pump, by pass, Sangriya, Jodhpur","26.2059186","73.0135864","true"
"ChIJCUOFS56JQTkR3VPkOacS3c0","KIRAN ENERGY STATION BPCL PETROL PUMP","near 23 NO BUS STAND, Boranada","26.1696661","72.934759","true"
"ChIJJ7-pQFWJQTkRaZOfX1Yi2dI","Ges office","Krishna Leela nagar, Boranada","26.1907383","72.9463233",""
"ChIJuyEe1PeIQTkRcDKbyhMnmt0","Vimal Power","India","26.1849403","72.93166029999999",""
"ChIJ7U0ugFiIQTkRPBnhYPXVMkE","Hindustan Petroleum Corporation Limited","Ground Floor, NH 25, Jodhpur - Balotra Road, Boranada","26.184556","72.931141","true"
"ChIJeRpJk18nQjkRBIx_x6vE1_c","Hindustan Petroleum Corporation Limited","Ground Floor, Boranada - Salawas Road, Luni, Salawas","26.1424678","72.9710498","true"
"ChIJ9fR_yjqJQTkRpZAeOFbRIbo","BPCL Petrol Pump - Jagdish Energy Station","Plot No. 9A, Khasra No. 93, Salawas Road, Salawas","26.1493519","72.98374299999999","true"
"ChIJJRBG1h2JQTkRiZ4okyDNeU0","IndianOil","Ground Floor, NH 112, Pal Road, Nandanwan, Jodhpur","26.2041","72.9481","true"
"ChIJ00pOqFcnQjkRZ4qZiZJiVoo","Hindustan Petroleum Corporation Limited","Ground Floor, Basni Road, Luni, Salawas","26.1424232","72.9835052","true"
"ChIJedFffDSJQTkRTJjZxNPgSB0","SUV CNG SOLUTIONS","6X42+Q8X, Phase I, Pal Gaon, Jodhpur","26.2070957","72.95080829999999",""
"ChIJy8iULQCJQTkR1WOd5SF52ys","Reliance petroleum","VISHVKARMA NAGAR shilp gram, Plot 10, opposite Ashapurna City, Vishvkarma nagar, Pal, rod, Jodhpur","26.209612","72.95210449999999",""
"ChIJ-7L2FACJQTkRX3WiBOlAvx8","Lalji Energy Station Bharat petroleum","6X6C+72F, Pashu Mela Road, Phase 1st, Sangriya, Pal","26.21068339999999","72.9700625","true"
"ChIJ78PkqyOJQTkRPrhlRUO_msU","IndianOil","Shilp Gram, Plot No CP/1, Bhandu Kallan","26.213724","72.954596","true"
"ChIJZ_zbqCOJQTkRZRnLz32hMpE","NAKODA MOTORS FUEL STATION (PETROL PUMP)","CP 1, slip garm, Industrial Area, Pal","26.2141183","72.9546684","true"
"ChIJAwaocgGJQTkRimYE8ulteIo","Hindustan Petroleum Corporation Limited","Ground Floor, Pal Road, Boranada","26.218487","72.95566699999999","true"
"ChIJW06tbgSIQTkR6cjkiOS4b7U","IndianOil","Ground Floor, Jodhpur - Barmer Road, Narnadi","26.142699","72.906759","true"
"ChIJvSMibPiJQTkRU21B7EaGFyQ","Nayara Petrol Pump - Parvez Filling Station","K.No 110, 2, Gigana Fanta, Pal Gaon, Jodhpur","26.2195342","72.9558911","true"
"ChIJl2lOiC-JQTkRoXK_gGjPkm4","IndianOil","Ground Floor, Pal Road, Gandhi Maidan, Jodhpur","26.2221001","72.95570099999999","true"
"ChIJ3ZodJkOJQTkRNC67KAvBIjs","Pal Gas Godam","6X8J+M7H, Pal Road, Pal Gaon, Jodhpur","26.2166764","72.9807464","true"
"ChIJVfE_qjKJQTkRR52oxS7o1zs","Bharat Petroleum, Petrol Pump -Nasrani Petrol Pump","PAL,JODHPUR-BARMER ROAD, JO","26.2228378","72.9569425","true"
"ChIJd1lWHQCJQTkRLhvDwXMyF2E","Bharat Petroleum Paras Petroleum","6X9H+4C6, Pal Gaon, Jodhpur","26.21814449999999","72.9794094","true"
"ChIJfcGuz1CJQTkRPxzc9NlilrE","H P Petrol Pump- Aastha Filling Station","near Royal enclave, Main Pal By Pass Service Road, near Royal enclave, Pal - Sangariya Bypass Road, Jodhpur","26.2128446","72.99046779999999","true"
"ChIJEzBidwCLQTkRh5V2xdZ8Vvc","Rajputana Automobile","6X5W+Q5V, opp. Parshnath City, Pal - Sangariya Bypass Road, Parsvnath City, Jodhpur","26.2092648","72.9960203",""
"ChIJNWRKzTGJQTkRLsFVwmcROOA","Janta Service Station","1/18, 2/18, Boranada Road Main DPS CIRCLE Pal Vilas, Jodhpur","26.225711","72.95817199999999","true"
"ChIJ_w-8gnOJQTkREXSawW9DWgs","Ramdev Filling Station","Chopasani Housing Borad, Jodhpur","26.2219379","72.9897905",""
"ChIJ7RWnfwCJQTkRr36r6lZg0tM","J.R.DHAYAL FILLING STATION","Bujhawar","26.2209051","72.9135253","true"
"ChIJEyIAhMiLQTkRmHeE0t4GZXA","Bharat Petroleum, Petrol Pump -Jai Shree Filling Station","near RAILWAY CROS, SANGRIYA, near RAILWAY CROS, Jodhpur","26.2056426","73.013624","true"
"ChIJ2SoGJACLQTkReq5N04QeEdI","Veer tejaji nagar","6283+RW7, Basni, Jodhpur","26.2170431","73.0047908",""
"ChIJtQEmYzOGQTkRvj4w4TdE3SY","Hindustan Petroleum Corporation Limited","Swagat Vatika, Jhanwar Road, Doli","26.1806289","72.8813351","true"
"ChIJVYjgiJkgQjkRGLq9Iq17K3Y","BPCL Depot, Salawas","42RF+523, Salawas","26.1403911","73.02254409999999",""
"ChIJ29kMthaLQTkR7GGZPH2cYiU","Pashuaahar Petrol Pump ⛽","6294+GXF, M.I.A. 1st Phase, Basni, Basni, Jodhpur","26.2188186","73.007421",""
"ChIJb8YBZLaLQTkRi1543JEltBU","IndianOil","Pal - Sangariya Bypass Road, Transport Nagar, Phase 2, Basni, Jodhpur","26.218711","73.00769799999999","true"
"ChIJQxrLLwgoQjkRGGR6f2gr6Z0","Hindustan Petroleum Corporation Limited","Ground Floor, NH 25, Jodhpur - Balotra Road, Bhandu Kallan","26.121201","72.8979301","true"
"ChIJqxtkUrSPQTkRlVmYGsxkjJs","Jio-bp pulse","near Hotel Aarunya Royale, Ground Floor, Niom Hospitality Veetraj City, near Hotel Aarunya Royale, Jaisalmer Bypass Road, Jodhpur","26.2385343","72.95248169999999","true"
"ChIJW2tg6tuPQTkRH4bO7vip_6w","Panchvati, shri narayan panchgavya anusandhan","6XQ8+8RW, Pal Balaji, Khema-Ka-Kuwa, Jodhpur","26.2383504","72.967079","false"
"ChIJ8cWaEgCPQTkR5Z9hiUsixOc","JRD ENERGY","DALI BAI MANDIR SE, Jhanwar Road, Jodhpur","26.2392835","72.9404539",""
"ChIJHyW-lhKLQTkR_PG-Q8QRYmg","Bharat Petroleum, Petrol Pump -Jaswant Singh & Sons","JHALAMAND,VILLAGE, JHALAMAN, Jodhpur","26.22049359999999","73.0533693","true"
"ChIJ2zTr552LQTkRH0ckcwB6Bn8","BLUE CITY FUEL STATION","near National Highway 62, Jhalamand, near National Highway 62, Circle, Prithviraj Nagar, Jodhpur","26.2269361","73.0391277","true"
"ChIJa5VlCksgQjkR3K_CZ00bPGU","Reliance Petroleum","KHASRA NO. - 165 , LHS, TEHS, TOWARDS, NH- 65, Jodhpur","26.1130143","73.05947239999999","true"
"ChIJF9Yn5_yLQTkRNASs-YQiWW0","Bharat Petroleum, Petrol Pump -Nasrani Petrol Pump","Ansals Sushant City, Bhakrasni","26.1647306","73.0469473","true"
"ChIJyX5eTQCLQTkR_mqPiYgsCLI","Indian Oil Petrol Pump (N R Filling Station)","52GW+QV, Sangariya","26.176995","73.04714","true"
"ChIJkxAf_hkhQjkRo3exB6ZxX7s","Anupam Motor, Ashok Leyland","Mogra","26.1345816","73.0548841","true"
"ChIJ701HPAAhQjkRh5g8GrOMfGs","CNG pump","43M3+QW2, Mogra","26.1343781","73.054762",""
"ChIJFSWEsmkgQjkRSDLxb4h2BS8","IndianOil","Ground Floor Pali Road, National Highway 62, Mogra","26.1342746","73.05462349999999","true"
"ChIJfdLvSwiLQTkR_ilOaq8B-aw","Hindustan Petroleum Corporation Limited","Ground Floor, near Shatabdi Circle, NH 62, Jodhpur Pali Road, Kudi Bhagtasni Housing Board, Jodhpur","26.2119301","73.0423201","true"
"ChIJ-xWauA-LQTkRizHyOdEBIEk","HANUMAN PURUSHOTTAM HP GAS GODOWN","6334+QW4, Unnamed Road","26.2043771","73.0573436",""
"ChIJp7vm5PkhQjkR8YorHpyIRvo","IndianOil","Ground Floor NH 62, Old NH 65, Luni, Mogra Khurd","26.1240085","73.0571409","true"
"ChIJWfpu2n2LQTkRSINoDrROdUE","IndianOil","Ground Floor, Jhalamand","26.2118001","73.061101","true"
"ChIJmya9CQCLQTkRhjx4ZRQ9skY","Ummed Prajapati Kumar budharam ji parivar","63F3+586, Hanuman Nagar, Jhalamand, Jodhpur","26.2229167","73.05325169999999",""
"ChIJm3tSPVOLQTkRbj1Jp5Cu7c8","Shyam Energy Station - BPCL FUEL STATION","Bpcl petrol pump, Shyam Energy Station, nr. Jhalamand, Circle, Jodhpur","26.2309885","73.034065","true"
"ChIJXX88FCmLQTkRvhpstA9Qz1s","Bharat Petroleum, Petrol Pump -Basni Filling Station","RO AR BASNI,TRANSPORT NAGAR BASN, Jodhpur","26.2324537","73.02183540000001","true"
"ChIJk0U_iIyLQTkRIOXaXzDsVNA","Kishore Filling Station - BPCL Fuel Pump","Basni Area, National Highway 62, Saraswati Nagar, Jodhpur","26.2344374","73.0197448","true"
"ChIJXw64bksgQjkRg4_spS9mrA0","Bharat Petroleum-JP Filling Station","4365+4PC, National Highway 62, Mogra Kalan","26.1103077","73.05925359999999","true"
"ChIJeVk_5EyLQTkR68aL4hClEvc","Jio-bp pulse","Plot No 7, Pali Road, Saraswati Nagar, Jodhpur","26.2352319","73.0194088","true"
"ChIJw8awJUsgQjkRLMQjMw9eDSI","Hindustan Petroleum Corporation Limited","Ground Floor, NH 62, Jodhpur Pali Rd, Luni, Mogra Kalan","26.109501","73.060701","true"
"ChIJk6okeGqLQTkReGK7I-DYElg","Hindustan Petroleum Corporation Limited","Ground Floor, Jodhpur Bypass, Jodhpur Road, Jhalamand, Jodhpur","26.2271263","73.06402419999999","true"
"ChIJ8zAWG5eLQTkRUH1G_E7pjIw","BPCL - Basni Filling Station","Basni Phase 2, M.I.A. 1st Phase, Basni, Basni, Jodhpur","26.2368544","73.0104549","true"
"ChIJ9Snj8O0fQjkRo905BDpdFGM","Bharat Petroleum, Petrol Pump -Vijay Filling Station","Guda Road, Bishnoi Colony, Jodhpur","26.1493581","73.1250597","true"
"ChIJ7yhqG7eOQTkRKGfmYKLC2ls","Hindustan Petroleum Corporation Limited","Ground Floor, near Pal Balaji, Pal Road, Pal","26.24454009999999","72.9734701","true"
"ChIJVX0CFY6OQTkR5OwZz-IdS6M","IndianOil","Chopasani Road, Chopasni Housing Board, Jodhpur","26.2710968","72.9772418","true"
"ChIJ2x2-nymMQTkR3Qo4huCgcQs","Ratan Enterprises ( Bharat Petroleum Pump )","Plot No 7, Near Vishal Mega Mart Upper Ligh Scheme No.3 Upper, Chopasni Road, Jodhpur","26.2774518","72.9957055","true"
"ChIJIyBV-S-MQTkRYvXy5fT9hVc","SHANKARLAL RAMRATAN, BPCL PETROLPUMP","Residency Road, Sindhi Colony, Sector-E, Shastri Nagar, Jodhpur","26.274013","73.0047309","true"
"ChIJWeuILy6MQTkRmW2R_5Z4zp8","Hindustan Petroleum Corporation Limited","601, 9th B Road, Sardarpura, Jodhpur","26.2769578","73.0020645",""
"ChIJcZLzUzqMQTkR97TDWF08y_A","Hindustan Petroleum Corporation Limited","Ground Floor, Residency Road, Opp. Medical College, Jodhpur","26.2717201","73.0082601","true"
"ChIJE9E-7i-JQTkRNOl-HeD-QXA","Bharat Petroleum Gas Station","State Highway 16, Jodhpur","26.280783","73.0189943","true"
"ChIJ4XUaJy6PQTkRKQLLiQ7p1jQ","BPCL - DUDI FILLING STATION","plot no 3 gangashree roop vatika","26.24647779999999","72.9527888",""
"ChIJj4h2Tw2PQTkRWvKvchq0XHQ","IndianOil","New Jodhpur Bypass Road, Chopasani Road, Jodhpur","26.254201","72.94760099999999","true"
"ChIJ68i3acGOQTkRP0nIyqAULRI","Hindustan Petroleum Corporation Limited","Ground Floor, Jhanwar Road, Shankar Nagar, Chopasni Housing Board, Jodhpur","26.252991","72.96484099999999","true"
"ChIJtzPGLyyMQTkR7WSSXpMSOCU","Hindustan Petroleum Corporation Limited","Ground Floor, NH 65, Jodhpur Pali Road, Nimbla, Jodhpur","26.2557788","72.9653404","true"
"ChIJ08D6H_qPQTkRVlB8AKo5xqY","Jaishree automobile chopasni","filter house ke samne, Chopasni Road, Jodhpur","26.2647353","72.9618448","true"
"ChIJJX9cdQCPQTkRq6M2LrwiXgQ","सुभाष नगर A","A शिवाय पेट्रोल पंप के पीछे, 72, सुभाष नगर, पाली","26.2510467","72.9839473",""
"ChIJySyoeACPQTkRSbPOURuoyjE","RAJ AUTOMOBILES","7XCG+HQP, 2nd Puliya, Jodhpur","26.2714601","72.9769645","true"
"ChIJZUrJ0JONQTkRM_9rjIgxfek","Hindustan Petroleum Corporation Limited","Ground Floor, RIICO Road, 10, AIIMS Road, MIA 2nd Phase, Basni, Jodhpur","26.2416555","72.9984666","true"
"ChIJf6ad2p2OQTkRkZJgdpAsLHs","Jaswant Singh Petrol Pump","Masuria Colony, Baldev Nagar, Jodhpur","26.2668786","72.9911861","true"
"ChIJUV9NHGiPQTkRzcRlXD-ATGA","IndianOil","police station, near Pal Balaji Mandir, Keshav Nagar, Shastri Nagar, Jodhpur","26.2653248","72.9928132","true"
"ChIJN9-q1iyNQTkRjw790wQEYh4","Rd Brothers","1 A1 Emery Industrial Area","26.2580392","73.0022283",""
"ChIJ9-KiH5yLQTkRpI9_ksHSM3A","Hindustan Petroleum Corporation Limited","Ground Floor, Diesel Shed Road, Bhagat Ki Kothi, Jodhpur","26.241735","73.010826","true"
"ChIJVfSBMsyNQTkRBc-yZwvuaRo","IndianOil","near Diesel Loco Shed, Outlet Main Basai Road, Jodhpur","26.24453699999999","73.011398","true"
"ChIJbYWaUXWNQTkRj9IsEatXITY","Shri Ram Filling Station","7XCX+VC8, Pal Road, Sector-E, Baldev Nagar, Jodhpur","26.2721612","72.9985635","true"
"ChIJPwdVzxWNQTkRZkRdx3sv10s","Hindustan Petroleum Corporation Limited","Ground Floor, New Power House Road, ITI Chowk, Jodhpur","26.2581225","73.0081194","true"
"ChIJTY2WPQCPQTkR2tm5A8f63pM","Dalley khan Petrol pump","near बजाज मोटरसाइकिल-राजा बजाज, 77a, Soorsagar Road, Pratap Nagar, Jodhpur","26.2794033","72.9913333","true"
"ChIJ02kuF0uNQTkR2X1VMKhEKQM","IndianOil","Ground Floor, Soorsagar Road, Pratap Nagar, Jodhpur","26.2798576","72.9912435","true"
"ChIJGzIIWymMQTkRyQGskAMDn98","IndianOil","Lock 1418, Chopasani Road, Pratap Nagar, Jodhpur","26.278211","72.998199","true"
"ChIJsbw4m_KNQTkRGzQKQPML8XA","IndianOil","Ground Floor, Chopasani Road, Near Bombay Motor Circle, Jodhpur","26.278507","72.9979117","true"
"ChIJZSYnAwCNQTkRyRBJwI8PxZ0","Haji umrao khan petrol pump हाजी उमराव खान पेट्रोल पम्प","Near, Bombay Motors Circle, Jodhpur","26.2785115","72.9979159","true"
"ChIJZ1IUpG2NQTkRhceef_H7F6Y","Sharda Filling Station","Sharda Filling Station, Jodhpur","26.2787189","72.99919899999999",""
"ChIJy2vhYe6NQTkRL4_dkIp5fyA","GAYATRI PETROL PUMP","GAYATRI PETROL PUMP, Jodhpur","26.2819972","72.99919899999999",""
"ChIJsx-E0l6MQTkR1wPYgn8pJcs","Bharat Petroleum, Petrol Pump -Naman Fuel Centre","Ratanada Circle, Jodhpur","26.2719461","73.0368355","true"
"ChIJdxhaQ62NQTkRf6RuMUO74Qk","Bharat Petroleum Petrol Pump","72QH+PX8, High Court Road, Sri Ganganagar, Jodhpur","26.28928569999999","73.0299679","true"
"ChIJ1TjLr9aNQTkRL_xxJpZDxtM","IndianOil","Lock No, 11019, Market Circle, Ratanada, Jodhpur","26.271299","73.036301","true"
"ChIJwVTORz-NQTkRqi5mwYIB7HA","BHATI PETROL PUMP","Jo6, Ratanada, Jodhpur","26.2730785","73.0293615",""
"ChIJmxrCwweNQTkREQTDdQrENVA","Shree Sainalrai Filling Station","Shree Sainalrai Filling Station, Dhandhaniya, Sasan Balesar, Jodhpur","26.27843319999999","73.0128671",""
"ChIJIfvRiEmMQTkREMze2r-JAo0","Sanghi Brothers Petrol Pump","72J9+7QF, Station Road, N K Sanghi Circle, Ratanada, Jodhpur","26.2808133","73.0188874","true"
"ChIJRZRMp1eMQTkR1gKjSVDJUyM","IndianOil","Circuit House Road, East Patel Nagar, Jodhpur","26.279411","73.03769700000001","true"
"ChIJk3Zs_C-MQTkRsfVbKq6L3sk","Nasrani Petrol Pump Bharat Petroleum","Chopasani Road, Sardarpura, Jodhpur","26.2803463","73.00487489999999",""
"ChIJKVN6mzOMQTkRSucK1-07N48","Hindustan Petroleum Corporation Limited","Ground Floor, opposite Nasrani Cinema, Chopasni Road, Jodhpur","26.282493","73.01014599999999","true"
"ChIJaSvemzOMQTkRh3lohRVm6dM","Hindustan Petroleum Corporation Limited","Ground Floor, opposite Nasrani Cinema, Chopasni Road, Jodhpur","26.2826901","73.010401","true"
"ChIJgcOX2HaLQTkRhN_5Whsi3a8","HP Petrol Pump - Sai Filling Station","State Highway-61, near Gora Hotel, Sardar Samand Road, Jodhpur","26.2429743","73.0758304","true"
"ChIJG53MSG6TQTkRugjFYUpgppw","Hindustan Petroleum Corporation Limited","Khasra No 15, 2 SH 61, Alakhdara","26.243063","73.07592799999999","true"
"ChIJ-aCOobKNQTkR0qlFIskLlfM","Hindustan Petroleum Corporation Limited","Ground Floor, opposite Ansal Royal Plaza, Kutchery Road, Jodhpur","26.2893001","73.02838009999999","true"
"ChIJYTC9mzL1QTkRJBDm_zSYWrg","Nayara Petrol Pump-High Caliber filling Station","Khasra No. 100/11, Village - Uchiyarda, Distt, Tehsil, Jodhpur","26.2429778","73.1175689","true"
"ChIJlxrFILCNQTkRshEngN-x7EE","Hindustan Petroleum Corporation Limited","28, Shikargarh Road, Kanhaiya nagar, Jodhpur","26.275361","73.0827501","true"
"ChIJawkHEgD1QTkRmRiGHMhC_8s","JIOBP - SHAMRATHAL RING ROAD","64XW+W7M, Nandara Kalan","26.2498478","73.1456634",""
"ChIJx9mBOKv5QTkRj9RSArNDw8E","Hindustan Petroleum Corporation Limited","near Dangiawas, Ground Floor NH25, New Jodhpur Bypass Rd, near Dangiawas, Jhalamand Crossing Road, Nandara Kalan","26.2494629","73.1481439","true"
"ChIJs0eWBgD1QTkRfeD1BGuEFm8","Shree Pabuji filling station","7532+RM, Nandara Kalan","26.2545625","73.1516875","true"
"ChIJNZTbeHT0QTkRQE6LMmTlu7E","IndianOil","Ground Floor Nandra, New Jodhpur, Bypass Rd, Agolai","26.25152","73.155584","true"
"ChIJYzYL_dmPQTkRyJas5Jb5BFI","(NAYARA) KHETESHWAR PETROLEUM","Main Road, Khudiyala - Bambor Road, Barli","26.319427","72.94158999999999","true"
"ChIJvcGE8fuRQTkRVyyCDk-bGz0","Hindustan Petroleum Corporation Limited","Ground Floor, Road, Keroo","26.337225","72.936893","true"
"ChIJuxJBnf2RQTkR_OeMxbjvOH0","BPCL Petrol Pump","Jodhpur","26.3292305","72.9845153",""
"ChIJLZMH6eeRQTkR8z6qVJ49Rnw","Reliance Petroleum","Khasra No 75/2 Nh 114, Jaisalmer Road, Gevon, Jodhpur","26.3291101","72.98777299999999","true"
"ChIJjUhHtOGNQTkRQaiVoldqYhE","Hindustan Petroleum Corporation Limited","Ground Floor, Soorsagar Bypass Road, Jodhpur","26.309869","72.995003","true"
"ChIJIwhQAf6RQTkRQiL7P1Ju7F8","Sankhla Auto Electric Parts","8XHQ+W7R, Fidusar chopad, opp. Reliance Petrol pump, Jaisalmer Road, Soorsagar, Jodhpur","26.3298582","72.9881537","true"
"ChIJVznMz8-RQTkRDuvU4tMw3UA","IndianOil","Jaisalmer Road, Soorsagar, Jodhpur","26.3028708","72.99557209999999","true"
"ChIJmZOHXUqPQTkR6_QxgV9V3_I","Bharat Petroleum, Petrol Pump -Bharat Fuels","KAYALANA CHORAHA, Jodhpur","26.30337330000001","72.9958882","true"
"ChIJgTZSKDyQQTkRNvv4Hp8b-aU","Bharat Petroleum, Petrol Pump -Shree Dada Darbar Service Station","BARLI SARHAD, Jodhpur","26.338429","72.92595419999999","true"
"ChIJO6Hzz-qbQTkRKz8oCBE8iaQ","IndianOil","Ground Floor, Keru","26.3402898","72.92300449999999","true"
"ChIJdTPvT02PQTkRP4UKmjYh2FI","Supreme Energy Station- Indian Oil","Aarna Jharna Flyover, Near, Jaisalmer Ring Road, Barli","26.3132411","72.9075755","true"
"ChIJUy08aACRQTkRpF4xq6tURcM","Gunjan Fuelling Pvt Ltd","9X32+6QP, Jakharo Ki Dhani","26.3530823","72.9519622",""
"ChIJcebz8OWNQTkRL8D0vvpika4","Hindustan Petroleum Corporation Limited","Ground Floor, Soorsagar, Jodhpur","26.3145065","73.0046287","true"
"ChIJ_5h9AwyNQTkREusk81ImfVo","Bharat Petroleum, Petrol Pump -Himmat Petrol Service","Royalty Circle, Soorsagar, Jodhpur","26.3093221","73.0068118","true"
"ChIJ8QQk97qRQTkRXo5eExJFcOM","BPCL PETROL PUMP","Major District Road 104, Jakharo Ki Dhani","26.35780189999999","72.9775429",""
"ChIJWwpQh7ONQTkRuvi3-yRpwCI","Ges SarvisSenter","Gida Gida, Jodhpur","26.2904815","73.0256409",""
"ChIJGUCgC9GPQTkRBU9Fz1Ynm2M","Bharat Petroleum, Petrol Pump -Amar Jyoti Filling Stn","KERU /JODHPUR-JAISALMER RO, Jodhpur","26.3175701","72.8774559","true"
"ChIJl4AqJACbQTkRstkpDRlWyFU","Keru","8V9G+2XF, Keroo","26.3180278","72.8772505",""
"ChIJs3GjRKCNQTkRqTMeBiTr5XU","Bharat Petroleum","MAHAMANDIR RLY STATION, JO, Jodhpur","26.310078","73.03864349999999","true"
"ChIJG4BTUnONQTkR2aOGENyyydg","Bharat Petrol Pump","Bhadwasiya RTO Link Road, Jodhpur","26.3133602","73.04703049999999","true"
"ChIJ11G8-XiNQTkRcIRd2kzSNA8","Narpat Petrol Service","Mandore Road, Near Bhumiya Ji ka Mandir, Kishore Bagh, Maderana Colony, Jodhpur","26.3272261","73.0429296","true"
"ChIJ5V0WsmOSQTkRMVwp_kI7OxA","Hindustan Petroleum Corporation Limited","Ground Floor, near Mondor Garden, Mandore, Jodhpur","26.3499401","73.03715009999999","true"
"ChIJVyjra1SNQTkRnBxbubmRoow","Laxmi Petroleam Indian Oil","near Sumer School, 01, near Sumer School, Mahamandir, Jodhpur","26.3074254","73.0378138",""
"ChIJJVNIYU-NQTkR-vtyb7EH7bo","Bharat Petroleum, Petrol Pump -Narpat Petrol Service","KISHOREBAGH,MANDORE,JODHPU, Jodhpur","26.310153","73.03821429999999","true"
"ChIJeVo2OXuNQTkRx2ZY4wFzzSQ","Nayara petrol pump BABARAMDEV AUTOMOBILES","magraj ji ka taka, 41, Jodhpur","26.3175065","73.0436996","true"
"ChIJWWcI4uCNQTkRQX_ZqRhrzWk","Hindustan Petroleum","Hindustan Petroleum, Jodhpur","26.29556","73.0401818",""
"ChIJwZR1eC6NQTkRDLbPWJ_KL3s","Aainath Filling Station","Shop Number 01, Jodhpur","26.30393149999999","73.0496903",""
"ChIJKUGj2maNQTkR8AWFmKjSgW4","Omkar Singh Tak and Sons","Near, Lalsagar Underbridge, Jodhpur","26.3281377","73.04543749999999","false"
"ChIJZ32d8HmSQTkRzZd8SglfN5M","Hindustan Petroleum Corporation Limited","Ground Floor, near Royalty Naka, Soorsagar Road, Mandore, Jodhpur","26.3394986","73.02930630000002","true"
"ChIJCVtBNACNQTkRrRVYCfW66pc","Hp petrol pump","Main, Bhadwasiya RTO Link Road, Parihar Nagar, Maderana Colony, Jodhpur","26.3196948","73.0581198",""
"ChIJ5a8cFZ6NQTkRs2insOMI14Q","Hindustan Petroleum Corporation Limited","Ground Floor, Panchayat Samiti, near Mandore, Lal Sagar Road, Lal Sagar, Jodhpur","26.333401","73.047701","true"
"ChIJwYniSWeNQTkR4v_AIsKg5mc","नेशनल ओटो गैस एवम सर्विस स्टेशन","India","26.3315338","73.0627751",""
"ChIJFc2VCACTQTkRv-6T6l59D6w","Hindustan Petroleum Corporation Limited","Ground Floor, NH 62, Mandore, Jodhpur","26.3663994","73.0577062","true"
"ChIJz86ykVDzQTkR-2fg-vmzSNk","Bharat Petroleum, Petrol Pump -Shanti Automobiles","VILLAGE NANDARI, NANADARI, Jodhpur","26.31478599999999","73.097856","true"
"ChIJdySuWhvzQTkRsD1rgvbMGX8","VIRENDRA SINGH (KUKU)","Santi nager, Banar","26.3164778","73.11317989999999",""
"ChIJR4XgoZPyQTkRClwF9JfeKSM","IndianOil","Octroi Barrier Banar, Road, Jaleli Fojdara, Ajmer","26.3249957","73.1187846","true"
"ChIJtZRUPMztQTkRN0PZ8OnCnl8","Himanshu Ac","10, Road, Noduka, Anganwa","26.3451355","73.0926542",""
"ChIJKR6vxmLyQTkRyBKw34u4HeI","Hindustan Petroleum Corporation Limited","Ground Floor, Banar Road, Gujrawas Khurd","26.3342101","73.1368401","true"
"ChIJ0WoAFTDyQTkR2gy6qXQWtbI","Reliance Petroleum","Khasra No 585/1, Vishnoiyon Ki Dhani, Banar","26.315471","73.16932899999999","true"
"ChIJ-2wW_eeSQTkRJsKMjCLbJeo","BPCL - K.K. Filling Station","BHATIANADI,MANDORE JODHPUR, Jodhpur","26.37224489999999","73.0638718","true"