place_id,name,address,latitude,longitude,open_now
"ChIJv-Prv4mEbzkRzwa_apZhnjU","IndianOil","Ground Floor, Swami Vivekananda Nagar, Kota","25.118501","75.822998","true"
"ChIJVZs7weiRbzkR03JrUUQYHSA","Bharat Petroleum Corporation Limited, Kota TOP","NH-27, Baran Road, Village- Brijeshpura, Tehsil, Kota","25.1054065","75.830902","true"
"ChIJfwpG9t-EbzkRYVH5VSz0eK4","IndianOil","Part 2, Block A, Rajeev Gandhi Nagar, Choraha, Kota","25.144301","75.853203","true"
"ChIJM0GS9d-EbzkRuVNQ2FTdN3c","BPCL Petrol and CNG Pump - Bedi Brothers","Bharat Petroleum, near Aerodrum Circle, Jhalawar Road, Kota Airport Area, Gumanpura, Kota","25.1659381","75.8510561","true"
"ChIJUXUz9AKFbzkRivWH1R9T63Q","Hindustan Petroleum Corporation Limited","Plot No 1, Jhalawar Road, Transport Nagar, Indraprastha Industrial Area, Kota","25.129101","75.85521899999999","true"
"ChIJi0c9iyqbbzkRUhYncdcTACA","IndianOil","Aerodrum Circle, Jhalawar Road, Gumanpura, Kota","25.169101","75.852097","true"
"ChIJixCPGwGFbzkRB4baunz_bwI","Reliance Petrol Pump","Jhalawar Road, Anantpura, Kota","25.1241579","75.8570964","true"
"ChIJxRN7JiibbzkRY_LogrYijGQ","Hindustan Petroleum Corporation Limited","Ground Floor, near Power House, Aerodrome Road, Kotri Road, Kota","25.175971","75.853291","true"
"ChIJ5U3J0y2FbzkRI_BSYA8idII","Bharat Petrol Pump","59, DCM Road, Ramchandrapura, Dhanmandi, Kota","25.1624844","75.8616146","true"
"ChIJoV_0R6mFbzkRzImRcA_Ymu8","IndianOil","Jhalawar Road, Anantpura, Kota","25.1155462","75.8606975","true"
"ChIJUyN7kGOcbzkRJUNo_qauRhM","IndianOil","Ladpura, Nanta","25.211615","75.791466","true"
"ChIJefyT-buDbzkRO82mu94G4eU","BPCL Petrol PUMP KOTA (CNG*)","4RH3+PPV, Swami Vivekananda Nagar, Kota","25.1293566","75.8042992","true"
"ChIJYQDIOTaDbzkRwKW0slgWhcY","Tejraj Singh","Naya Gov, Kota","25.1227696","75.7936236",""
"ChIJXVA8dQCFbzkR4MZeODRgjIs","Shah Manjil (Nawaz Shah)","No 68 Shah Manjil (Nawaz Shah ) Amwa, Shivpura, Balrampur","25.1524902","75.81735309999999",""
"ChIJg5x4vgyFbzkRrpC82yXYUIY","Vp Pvt","246vhl, Swami Vivekananda Nagar, Kota","25.1216501","75.82467009999999",""
"ChIJJ9GE-MWEbzkRI0Otgo6Ohn0","BP kota","New Jawahar Nagar, Talwandi, Kota","25.1531302","75.8364659","true"
"ChIJEbqYbPKEbzkRF_zLbhQFK0c","IndianOil","Balaji Market, near Medical College, Rangbari Road, Ladpura, Kota","25.128799","75.83460199999999","true"
"ChIJBRR0TQCFbzkR8A5TaPGGqKg","Shivpuri.m.p.","5R4P+HGJ, New Jawahar Nagar, Talwandi, Kota","25.1564664","75.8362808",""
"ChIJKWPz_V2FbzkReewTL3Af3Cw","Amanhs","3h5, Mahaveer Nagar 3, Kota","25.136799","75.8427396",""
"ChIJE0-jpNiFbzkRckg_crTdboY","Meena Chelani","House No 102, First Floor, Sector 11A Parijat Colony Special, Housing Board, Mahaveer Nagar, Kota","25.132817","75.8459203",""
"ChIJw2sLHgCbbzkRZFbwo7O1jzo","Kaithu","5RHJ+HX7, Kaithunipol, Rampura, Kota","25.178919","75.83243399999999",""
"ChIJk8dVTgCFbzkRH1eGY8X291w","Indian Oil Petrol Pump","4VX3+6FG, Commerce College Road, Sector 1, Talwandi, Kota","25.1480726","75.8537178",""
"ChIJAcFAU3uFbzkRWouVjXBEPt8","Shivaya fillling Station","No. 3, A-46(B), Road, Indraprastha Industrial Area, Kota","25.1386953","75.8547967","true"
"ChIJVU0M9oKFbzkRypCp-0C6HxY","Bharat Petroleum, Petrol Pump -Heera & Company","Rawatbhata Road, Gumanpura, Kota","25.1747993","75.8447886","true"
"ChIJsZ5yxrmFbzkRQPViMrIZpDU","Reliance Petroleum","RELIANCE PETROL PUMP, SH 19, KHANPUR PIN CODE 326038 KHANPUR","25.1375337","75.8550647","true"
"ChIJA5owH4ObbzkRLLuM2Ws3XOk","JBR INDUSTRIAL WORKS","406, Axis Bank, Shopping Centre, Gumanpura, Kota","25.1685517","75.849655",""
"ChIJI3vdO9WEbzkRDdTrzuamWuI","IndianOil","Ground Floor, opposite airport, Jhalawar Road, Kota","25.16517069999999","75.85142689999999","true"
"ChIJk47_1FqbbzkRufODAmJCBnc","Hindustan Petroleum Corporation Limited","Ground Floor, Gumanpura, Kota","25.1756314","75.8457725","true"
"ChIJcxOLO9WEbzkRzeUSBFw6aHI","Hindustan Petroleum Corporation Limited","Plot No 3, Jhalawar Road, Aerodram, Dhanmandi, Kota","25.166101","75.85170099999999","true"
"ChIJARNbedWEbzkRyJtucvfPCkQ","MICRO FUEL SERVICE","India","25.1637916","75.85297059999999",""
"ChIJaUoeh2cqezkR96HSjAd3f2M","Hindustan Petroleum Corporation Limited","680, 899/677, near Asalpur Chauraha, Kh No 677, Jhalawar Bhopal Rd, Asalpur, Aklera","25.1682854","75.8515953","true"
"ChIJ3Qc61MaFbzkRpEfN2VSPFOk","IndianOil","Kh No 32 Plot No, Anantpura, Kota","25.1196028","75.8519096","true"
"ChIJWYHkinybbzkRQUrVkyn4bCU","IndianOil","Ladpura, Nanta","25.200232","75.811089","true"
"ChIJH9kTEwCbbzkR_deA1YmG16I","CNG PUMP -Torrent Gas, Nevaji FS Nanta","6R26+3GR, Nanta","25.2002013","75.8113631","true"
"ChIJgerkTdWabzkRMRWkP_274KU","IndianOil","Ground Floor, opposite New Mandi, Dhanmandi, Kota","25.166901","75.854103","true"
"ChIJC5g-O7abbzkRnXhp0iuzi-8","Uma Filling Station","Uma Filling station ESSAR PETROL PUMP KHARA Nu 1560/2 NH 52 KOTA JHALAWAR HIGHWAY MANDANA, DIST, Kota","25.200326","75.811382","true"
"ChIJ7z_SS_SbbzkRzOwl5oUf8h4","Sonu Kahar","Naka Chungi, Bus Stand, ke samne Puliya, Kota","25.1932102","75.8313757",""
"ChIJ9bYaOzqFbzkR-6fCljnjoEo","Jio pump","207, Dhanmandi, Kota","25.1238894","75.8569684",""
"ChIJH1XlTCuFbzkRvWb311uSW8s","ASHOK OIL COMPANY","India","25.166744","75.8582527",""
"ChIJq6lo-yebbzkRfsCH7ghUxdU","TANKRAS","India","25.1783602","75.8527806",""
"ChIJvy6WnqmFbzkRkmKZWHtk-2E","BPCL PETROL PUMP -Jain Filling Station","Indraprastha Industrial Area, Kota","25.1180361","75.860353","true"
"ChIJ53nVXPyFbzkRRe_ntO6ia7k","Bharat Petroleum, Petrol Pump -Jain Filling Station","Jhalawar Road, Anantpura, Kota","25.11800029999999","75.8604131","true"
"ChIJQfokiAWFbzkRZ3s4ple1vi0","Hindustan Petroleum Corporation Limited","RIICO Road, Plot No P3, Bhamashah Mandi Road, Sanjay Gandhi Nagar, Kota","25.1289717","75.86497949999999","true"
"ChIJ_3u3WA-FbzkRdAsm4N4xKdo","IndianOil","Bhamasah Krishi Upaj Mandi, Kota","25.1279792","75.864967","true"
"ChIJ_7Eveg-FbzkRxl4EGZsf6Y4","CNG Filling Station-Gail India","Sanjay Gandhi Nagar, Indraprastha Industrial Area, Kota","25.1294725","75.8653988","true"
"ChIJDQkyMzCFbzkR5gRdzEVbn9g","IndianOil","Ground Floor, Industrial Area Road, Kota","25.159101","75.865997","true"
"ChIJuwD8fgiFbzkR_ZuiIHMJ90U","BPCL Petrol Pump - Vinod filling station","Radheshyam, Road Number 6, Indraprastha Industrial Area, Kota","25.1238682","75.86501299999999","true"
"ChIJ-2eMAQCFbzkRpC6se7uUwMI","CNG pump industrial area kota","4VH8+CH4, Sanjay Gandhi Nagar, Indraprastha Industrial Area, Kota","25.128512","75.8664672",""
"ChIJY0tvJhCbbzkRexGwqSJ15Qo","Hindustan Petroleum Corporation Limited","Khasra No, 268 & 269, Bundi Road, Kunadi, Kota","25.1995932","75.8397288","true"
"ChIJSVSQpiGbbzkRwW8gdQEIbO8","IndianOil","Ground Floor, Baran Road, Kota","25.19251059999999","75.8503975",""
"ChIJ2edNZQybbzkRYVNx8znPsuo","Bharat Petroleum","9, Bundi Road, Ladpura, Kota","25.20435519999999","75.83372949999999",""
"ChIJQ200FuqFbzkR1mT8kAYg6x8","Roopchand Jain Petrol Pump","Jhalawar Road, Anantpura, Kota","25.1058967","75.8617419","true"
"ChIJ_X2bv_mabzkRLdxIGkGO6Go","IndianOil","Plot No 3, Mohan Niwas Vistar, Yojana, Kota","25.209608","75.863548","true"
"ChIJ9ejQUTiFbzkRnPnGrdP2omk","Shaheed Hemraj Meena CNG Filling Station","5V3F+VPC, Kota Industrial Area, Kota","25.1546782","75.8742524","true"
"ChIJpxzTbwuFbzkROZNUedyj4ZA","HP petroleum","Kota Industrial Area, Kota","25.1538422","75.8757552","true"
"ChIJbSnl8cqFbzkRgWoAMKILTDM","IndianOil","4VWV+44M, Deoli Arab Road, Ladpura, Udyog Nagar, Raipura, Kota","25.145599","75.893402","true"
"ChIJ6cESQGmFbzkRxts6FD3J3Dg","Hindustan Petroleum Corporation Limited","near Raipura, Plot No CP1, Deoli Arab Road, Chauraha, Raipura, Kota","25.1512507","75.89846010000001","true"
"ChIJ1QZXUTOFbzkRf-EirK9RX4A","Hindustan Petroleum Raipura","5V2X+GC, Raipura, Kota","25.1512732","75.89888119999999",""
"ChIJLf3FK0-bbzkRzo2sqqwhPy4","Jai Shree Stone & Marble","5VGP+5PV, Borekhera, Kota(Raj.) petrol pump, near Welcome Associates, Borkhera, Kota","25.1754828","75.8868086","true"
"ChIJzZ_QawCPbzkRT_BRcGLgJ18","Hindustan Petroleum Corporation Limited","Ground Floor, NH 27, Raipura Circle, Ladpura, Sukhpura","25.144641","75.908091","true"
"ChIJSYhcCACbbzkRNIiLH_STwNY","Petrol pump","Petrol Pump, near borkhera, Shriram Nagar, Kota","25.1799021","75.8833385",""
"ChIJZUPS4NubbzkRGM4cw7AYbEw","IndianOil","Ground Floor, Rampura, Ladpura, Kota","25.1920072","75.85655779999999","true"
"ChIJQ4Ai_sKPbzkR2URHMtk3HGE","Dhakarkheri STP- 40MLD","4WJ9+64G, Dhakarkheri","25.1305523","75.917819","true"
"ChIJi-O9dwubbzkRqbGF7GzqFGM","Bharat Petroleum, Petrol Pump -Ujagar Singh Sethi & Brothers","MBS Hospital Road, Kota","25.1939796","75.8533879","true"
"ChIJj5zyggiQbzkRrQ2FR_1-IsU","Hindustan Petroleum Corporation Limited","Khasra No 27 Borkheda Road, Naya Nohra, Borkhandi","25.182951","75.90336099999999","true"
"ChIJw7eiFQCFbzkRgQDKxE0eeYk","Parth motors def urea","3VQ7+X9H, Jhalawar Road, Vigyan Nagar, Kota","25.0899304","75.8634818",""
"ChIJB3XToo-bbzkRLoovoqch2Cc","CNG Kota","Unnamed Road, Kota","25.1992525","75.8601431",""
"ChIJ65hqj-SabzkRf_Yi5AYBJWQ","Bharat Petroleum","India","25.1994132","75.86001619999999",""
"ChIJ9-DjEsOPbzkRw9AkhBl33ro","Bharat Petroleum","India","25.1599449","75.92733869999999",""
"ChIJ04HcUwSPbzkR2Ijhwl-j59w","Ushara filling station (BPCL)","5W5G+XW, Chareenda","25.1599545","75.9273522","true"
"ChIJz1S9piePbzkR4ct0-U37-8o","Jain agro service station","Kaithoon-kota Road Near khera, circle, Kota","25.1322666","75.9503615","true"
"ChIJIQCg6FeObzkRKo1s_LDBTaA","IndianOil","Ground Floor, Kethun","25.130905","75.956768","true"
"ChIJG4f6UDePbzkR7WURQ6SbcHo","Ansari Feeling Station","Feeling Station, Kethun","25.130861","75.9679139",""
"ChIJURLUt3ORbzkRRP9UHYRVsB0","Bharat Petroleum, Petrol Pump -Jaishree Filling Station","BORKHANDI, KOTA BARAN ROAD, Kota","25.1825646","75.917333","true"
"ChIJHx2gPACRbzkRQ___1it8bxM","PETROL PUMP","near Mahalakshmi Puram, Baran Road, Kota","25.182368","75.913172","true"
"ChIJs5OCRgCPbzkRolMpB8-rL2k","BP DME 352","3WWV+5WQ, Ramnagar","25.0954531","75.9448725","true"
"ChIJlZitYhmRbzkR9I5sm6H3MHA","IndianOil","Khasra No 690, Ladpura, Daslana","25.1919251","75.96088209999999","true"
"ChIJoUbsysKRbzkRpEabpuPMqcQ","Bharat Petroleum","India","25.1892073","75.9679889",""
"ChIJHyO74e2RbzkRe71z0ZC_ZGU","Vakrangee Petroleums (BPCL)","NH27, Baran Road, Kota","25.1893524","75.967882","true"
"ChIJ8VeOttyRbzkRcsVNU1-DLNQ","IndianOil","Ground Floor, Oppposites Oil Depot, Kota Bypass, Baran","25.1882198","75.97045349999999","true"
"ChIJW0mP7OWRbzkRqAZUE2-padI","भरत फेब्रिकेटर्स","India","25.1888812","75.9766456",""
"ChIJQZGRPQCNbzkR20H5-N2BSTk","Nagar filling station","42H3+4C, Godalyaheri","25.12783439999999","76.00351959999999",""
"ChIJFR3ozyONbzkRWzCfFBD-clc","Dhakad fuel station kishanpura road kaithoon","Ground Floor, Kethun - Sangod Road, Godalyaheri","25.127604","76.003456","true"
"ChIJKW4cHh6MbzkRfJG4mk8ggyM","Hindustan Petroleum Corporation Limited","Khasra No 243, 1 SH 51, Ladpura, Kethun","25.1055557","75.9927857","true"
"ChIJUURZLgCRbzkR7T2ZTKmNZlM","Lpg gas kota","6W43+7C, Gandhi Colony, Kari Bawadi, Kota","25.2056777","75.90359020000001",""
"ChIJBydLMACbbzkRCJHFlr2tKwQ","M/S YATHARTH FILLING STATION","6W43+9JF, Chandresal Road, Gandhi Colony, Kari Bawadi, Kota","25.205938","75.90406159999999",""
"ChIJvTPsQACdbzkRz0q4BhlH6e0","CNG PUMP - Torrent Gas, Bhatia Filling Bundi Road","6RH2+C4, Gordhanpura","25.2283935","75.8001266","true"
"ChIJ7y8tMDudbzkRNN1hRNGoWCE","Hindustan Petroleum Corporation Limited","Ground Floor, near Agamgarh Gurudwara, Ramnagar, Ladpura, Gordhanpura","25.228541","75.800291","true"
"ChIJ03a3_g6bbzkRg66md4Iqa0U","Hindustan Petroleum Corporation Limited","Ground Floor, Ladpura, Naya Khera","25.217454","75.81663800000001","true"
"ChIJY2X-RambbzkRyZFssVpATeo","IndianOil","Bundi Road, Naya Khera","25.212401","75.82370100000001","true"
"ChIJee7H0J2bbzkR_aPE0AyOFuo","Jai Chambal Petrol Pump and Cng station","Tiraya, Kota","25.2123374","75.8242022","true"
"ChIJ-1-JGp6bbzkR7G0jbc1Lg7U","Bharat Petroleum","","25.2107763","75.82489079999999","true"
"ChIJtf1KtTybbzkRs2cu0aAp2c8","Hindustan Petroleum Corporation Limited","Ground Floor, Lalsot - Kota Mega Highway, Girdharpura","25.21899","75.83259","true"
"ChIJa70PbE-dbzkRYFIAAjYChbU","Hindustan Petroleum Corporation Limited","Ground Floor, Bundi Road, Bargaon","25.24669039999999","75.77951420000001","true"
"ChIJVVVVVZyebzkR1Kp5kfCfDgg","IndianOil","GF, Bundi Road, Nayapur, Bada Gaon, Naka, Govindpur Baori","25.2503454","75.7782794","true"
"ChIJn6S7mZ2ebzkRgHYF4kf5epQ","IndianOil","Ground Floor, Adgaon Naka, Alfanagar","25.25259999999999","75.7756","true"
"ChIJyYOwmZ2ebzkRbQUZ3z3PDB0","Devnarayan Filling Station","near, Kota Road, Govindpur Baori","25.252718","75.7757699","true"
"ChIJge4nbUyfbzkRlWZrsHhFoOk","Hindustan Petroleum Corporation Limited","near Shriram Automall, Khasra No 363/104 Kota Road, Kota Govindpur Bawdi, Talera, near Shriram Automall, Bundi","25.2608401","75.7690801","true"
"ChIJvwxdVgCbbzkRxQhOG_cDAwc","CNG STATION","6V77+GWC, Kota","25.2138156","75.8647527",""
"ChIJkegzcwCbbzkRxyhsYY5ecyE","Shree Ganesh Filling station","6V77+GWC, Itawa road, Kota","25.2138156","75.8647527",""
"ChIJHRw29Y6fbzkRJfmvwDPw5Kk","Balaji Nayara Energy","Bundi Road, Ballop","25.2745243","75.7593809","true"
"ChIJ7ZLgt1-ebzkR-BbfOXFDwBg","Hindustan Petroleum Corporation Limited","No 581/157 844/585 & 846/726, National Highway 52, Ballop","25.274581","75.758141","true"
"ChIJVwRezl6abzkRGyRbksvSpUg","Hindustan Petroleum Corporation Limited","Ground Floor, near Manoj Talkies Cinema, Station Main Road, Kota","25.218341","75.871281","true"
"ChIJI2Zh04OQbzkRJTSv-hUpFug","IndianOil","Ground Floor, Ladpura, Chandresal Road, Arjunpura, Sogriya","25.2237001","75.902901","true"
"ChIJJ9py7IiRbzkRztX23_44SLs","Hindustan Petroleum Corporation Limited","KH No 702/102, Rangpur Road, Ladpura, Kota","25.2527501","75.9054801","true"
"ChIJTatyh7ifbzkR-8GXHoZLzno","IndianOil","Ground Floor, Bundi Road, Kota","25.3087388","75.7373179","true"
"ChIJz5QbQcefbzkRZRQH29KAP5c","Arham filling statiom","Ground Floor, Chitawa Road, Talera","25.3132342","75.7841397","true"
"ChIJFx-9GRafbzkRuMTmH9xXFfU","BHARAT PETROLEUM PUMP भारत पेट्रोलियम पम्प","Tehsil, NH 52 Village Kheroli, District, Talera","25.2844516","75.7544942","true"
"ChIJLwxzlbOfbzkRMYw3VBF31vg","petrol Pump + C.N.G.","Kota Road, Raghunathpura","25.2992046","75.7441265","true"
"ChIJB7uE0MifbzkRs6oJOPAVyJ0","Prithvi Filling Stn","8P8J+CJG, Talera","25.3160719","75.7315667",""
"ChIJiX2LNqeXbzkR0W195gvdTu4","IndianOil","Ground Floor Iswar Nagar, Kesoraipatan, Keshoraipatan","25.3146001","75.929401","true"
"ChIJMVZ4eteZbzkRWApLglCKQ5U","IndianOil","Ground Floor, Suwasa, Keshoraipatan","25.3280001","75.8661","true"
"ChIJAyDYyMCZbzkRPP0CCcj23Nc","Bharat Petroleum Petrol Pump , CHITAWA FILLING STATION","Chitawa","25.328439","75.867981",""
"ChIJLypWSnGXbzkRGkDIdAlREHc","Aswal Filing Station","8W26+C8F, Lalsot - Kota Mega Highway, Keshoraipatan","25.301075","75.9107956","true"
"ChIJqSn6WXSXbzkRzVSC1VD_1jc","Reliance Petroleum","Ground Floor, Sh 33, Lalsot - Kota Mega Highway, Keshoraipatan, Ishwarnagar","25.308401","75.91986899999999","true"
"ChIJc6-l8aaXbzkRtQpior-97VQ","Bharat Petroleum, Petrol Pump -Aswal Filling Station","KESHVRAI PATAN, KOTA LALSO, BUNDI","25.294371","75.9275651",""
"ChIJU0peaQCXbzkROHGm6dGZ1-o","Hindustan Petroleum Corporation Limited","Ground Floor, Keshoraipatan, Lesarda","25.327231","75.92278200000001","true"
"ChIJ12ti5uCWbzkR3OFtBPVms_o","Bharat Petroleum","Matra Petrol Pump, Keshoraipatan","25.2941778","75.9503766","true"
"ChIJV1Ql1EyWbzkR-qStgaTI6j4","Hindustan Petroleum Corporation Limited","Khasra No 746, 7 SH 33, Keshoraipatan","25.329381","75.946773","true"
"ChIJpRBJPAqXbzkRFXJCdCX15sg","Nayara petrol pump","8XP4+WF5, Rajasthan State Highway 33, Chadi","25.3372636","75.95624730000002","true"