place_id,name,address,latitude,longitude,open_now
"ChIJxQ2q37bvZzkRTbeqpCd9Lxg","Auto LPG Pump","GMMJ+5Q2, National Highway 8, Sector 14, Hiran Magri, Gordhan Vilas Rural","24.5328914","73.68190249999999","true"
"ChIJlwrwlrvvZzkRjySX2mB_5ZY","IndianOil","Ground Floor, NH 8, Goverdhan Villas, Dhundi, Udaipur","24.540687","73.68520099999999","true"
"ChIJKV8jI6fvZzkRTPatlCxBedI","Nayara Petrol Pump","Sabina, Khera, Plot No. 1-2, 100 Feet Road, Sector 14, Hiran Magri, Udaipur","24.5422131","73.6983611","true"
"ChIJRceCMSHuZzkRI4sd0mh2pto","HP PETROL PUMP - CHOUDHARY PETROLEUM HOUSE","Ahemdabad Road, Udaipur","24.496775","73.6551574","true"
"ChIJgdu2Le7vZzkRno33c7GfqpY","Hindustan Petroleum Corporation Limited","Ground Floor, NH 8, Balicha","24.513205","73.666748","true"
"ChIJa956bjDuZzkRIxZEXWN2aZ8","IndianOil","Ground Floor, Valicha, NH 8, Dhundi, Udaipur","24.51218799999999","73.66713399999999","true"
"ChIJ6-ey5eHxZzkRWFdNVhamUoU","Dalal Fueling Station","FMV3+C8V, Lai","24.4936221","73.6533058","true"
"ChIJD7o-YADxZzkRPEDXaZe52zI","V max petroleum","FMV3+C8W, Lai","24.4936053","73.6533194",""
"ChIJB68NiVLvZzkRM4VEsuR0DlQ","Patel Filling Station BPCL Dealer N.H.-8 Balicha Bypass","N.H.8 BALICHA, BYPASS, Udaipur","24.5223514","73.6747462","true"
"ChIJg2iSc1bvZzkRYGd9XmGPp_I","ADANI CNG station","DUNGARPUR-UDAIPUR ROAD, Balicha","24.5224076","73.674889","true"
"ChIJg-0ncQDxZzkRXdJy4AFkK1M","Aadyaashakti maa filling station","HJ3X+JWR, Rani Road, Malla Talai, Udaipur","24.55412279999999","73.6497681",""
"ChIJDcoqiRnwZzkRIKgbdSU9dQs","Hindustan Petroleum Corporation Limited","Ground Floor, SH 50, Sisarma, Udaipur","24.562303","73.65538099999999","true"
"ChIJIQHUbinvZzkRYyscO6LksnY","KSV Filling Station","GMJW+JQC, Nela bypass road, Gordhan Vilas Rural","24.5315679","73.6968885","true"
"ChIJk5PJ2avvZzkR_h_3-64ioa8","IndianOil","Ground Floor Nela, Udaipur Byepass, H Magri, Udaipur","24.53153","73.697401","true"
"ChIJDVzF_JfvZzkRZ6AaxY7a3pA","LAKECITY CNG CENTER","India","24.5483812","73.6882499",""
"ChIJX30dFwDvZzkRGnF9_UgWWgo","Hindustan Petroleum Corporation Limited","Ground Floor, 100 Feet Road, Sector 13, Hiran Magri, Udaipur","24.5486657","73.6947971","true"
"ChIJk_9nqIrtZzkRSu9wvFt9cUs","IndianOil","Ground Floor Kaya, Road, Dhundi, Ahmedabad","24.4516001","73.6537001","true"
"ChIJObNVpdzvZzkRcqHeGsu1Qxk","Hindustan Petroleum Corporation Limited","Ground Floor, Sector 11, Hiran Magri, Udaipur","24.56133","73.69360999999999","true"
"ChIJXzaRbAvvZzkRIWPeD74nFEk","MEERA GAS SERVICE","262, Sector No.11, Hiran Magri, Udaipur","24.5596053","73.69601829999999","true"
"ChIJ18nVVA7vZzkRrHIy8vLFu_E","Hindustan Petroleum Corporation Limited","Ground Floor, Jaisamand Road, Savina, Udaipur","24.5419101","73.7095701","true"
"ChIJ0WvoVnnvZzkRZgz0UD6Etis","Bharat Petroleum, Petrol Pump -Karni Roop Service Centre","Udaipur Road, Patel Bahwan, Udaipur","24.5652254","73.6937581","true"
"ChIJy9EfnPPlZzkRgiyXEDaBDO8","Hindustan Petroleum Corporation Limited","Ground Floor, Rampura Chauraha, near Eklingnath Garden, Udaipur","24.5834201","73.6546501","true"
"ChIJ6y1baMTlZzkR86Y7X2JWPWk","Petrol Pump","आजाद नगर, एकलव्य कॉलोनी, सीसराम रुरल","24.5835809","73.6570004","true"
"ChIJod7e483vZzkR6ggL62y-jWs","Bharat Petroleum, Petrol Pump -Raj Filling Station","UIT SUBCITY CENTRE, Udaipur","24.5596751","73.70372449999999","true"
"ChIJodvq-_vvZzkRjaPwrQmZ_fQ","Hindustan Petroleum Corporation Limited","Reti Stand, Plot No 5, Tekri road, Udaipur","24.562228","73.701571","true"
"ChIJJZR2ghHvZzkR_ON04NCUUUw","IndianOil","Gokul Village Road, Sector 9, Udaipur","24.5448526","73.7153842","true"
"ChIJQVWJ527vZzkR-JRTIpfF-ZQ","Hindustan Petroleum Corporation Limited","Ground Floor, Sector 6, Hiran Magri, Udaipur","24.559361","73.716871","true"
"ChIJ8TrpkH_lZzkRcaIB5-MQCuU","IndianOil","Ground Floor, City Station Road, Udaipur","24.5745001","73.69970099999999","true"
"ChIJDwvjmn_lZzkREHExcTJWjjk","Hindustan Petroleum Petrol Pump","National Highway 927A, Jawahar Nagar, Ganga Gali, Udaipur","24.5749056","73.6997916",""
"ChIJl2tbtlLlZzkRnFLk61GA1x4","BPCL Petrol pump (Dalal Brothers)","SEWASHAM CIRCLE, Pathon ki Magri, Sevashram Choraha, Sundarwas, Subhash Nagar, Udaipur","24.581618","73.71958029999999","true"
"ChIJlyJtvXnlZzkR3rQwlvo6Pp0","Hindustan Petroleum Corporation Limited","Ground Floor, Nara Khada Chowk, opposite Town Hall, Udaipur","24.5815701","73.69590099999999","true"
"ChIJewCFak_vZzkR_rQE8e2iJZk","IndianOil","Ground Floor, Jaisamand Road, Dakan Kotra","24.5057911","73.737126","true"
"ChIJ2W30PwDvZzkRgBKXRQ-ltMk","Girja Vyas Petrol Pump - RK Puram,Udaipur","GPV8+X47, Gokul Village Road, Gokul Village, Sector 9, Udaipur","24.5449036","73.7153039","true"
"ChIJDyvUjGnvZzkRVmbWPh25nTg","Essar Fuel Station","Sector 6, Udaipur","24.5582622","73.7227554","true"
"ChIJN5QQPELvZzkREp9XtX8oqlo","IndianOil","Ground Floor Jhamarkotra Road, Hiran Magri Main Road, Manva Kheda, Udaipur","24.5594001","73.726101","true"
"ChIJ46xLrxbvZzkR2NZJNK3WZ_4","Bharat Petroleum Petrol Pump , SHREE KISHAN FILLING STATION","Main Jhamarkotra Road, Udaipur","24.555521","73.73792999999999","true"
"ChIJpXLdjIjvZzkRHoCU8AVSEtc","Pandit filling station","Central Area, Udaipur","24.5633672","73.70186369999999","true"
"ChIJMagXdMzoZzkRE9V3AxSjqbY","Hindustan Petroleum Corporation Limited","Ground Floor Kaladwas, Road, Eklingpura","24.549411","73.75195099999999","true"
"ChIJe3cC9BDvZzkReMtcgWnlgMw","Petrol pump","HP86+2RQ, Street Number 7, Central Area, Udaipur","24.5650827","73.7121188",""
"ChIJ11T2KNroZzkRHtZ1WZ18hls","IndianOil","Ground Floor Kaladwas, Girwa, Udaipur","24.5391","73.7620001","true"
"ChIJXzQN2tTvZzkRKYctmnPS374","IndianOil","Ground Floor, Sector 4, Hiran Magri, Udaipur","24.5676011","73.72158859999999","true"
"ChIJWZEmCavpZzkRKfVvH1WTcas","Nayara Petrol Pump - Shrinath Filling Station","Umarda road, Udaipur","24.5356389","73.7670387","true"
"ChIJ9Q4G2_XvZzkRQXzFs2dq5S8","BPCL Radhe Krishna Filling Station","Manwa khera, Pratapnagar, Eklingpura","24.5630044","73.740073","true"
"ChIJFWicTMyRZzkRRfZ59kXRlDQ","IndianOil","Ground Floor, NH 8, Hiran Magri Main Road, Udaipur","24.5712653","73.7221465","true"
"ChIJ1wR6EEbvZzkRJ0OfHofSWC8","Bharat Petroleum Petrol Pump , PATEL FUEL STATION","PLOT NO 2, 4, Savina Main Road, Hiran Magri, Udaipur","24.5714041","73.7228504","true"
"ChIJwds2EQDlZzkR82PjP5hUHJk","Adani Cng pump","NH927A, Udaipole, Jawahar Nagar, Ganga Gali, Udaipur","24.5748407","73.6997773",""
"ChIJVx6sclTvZzkRGfJJH1HLhRw","Shree Ramkripa Filling Station","HPCV+V9R, Road Number 1, NH-8, Square Near FCI Office, Madri Industrial Area, Transport Nagar, Udaipur","24.5722437","73.74339499999999",""
"ChIJA8sr3KbvZzkRgwkvN032dek","Baba Ramdevji Filling Station","B, opp. Airtel Office, 173, Road Number 12, Madri Industrial Area, Udaipur","24.5750648","73.7422819",""
"ChIJJw5nTirvZzkRayUaoV64lYM","Baba Ramdev Ji Fuels","near Airtel Zonel Office, 01, Khempura Main Road, Udaipur","24.5751779","73.7422327",""
"ChIJ65L0A3nlZzkRFSyplETaRrU","Hindustan Petroleum Corporation Limited","Ground Floor, Road, Surajpole, Udaipur","24.5801201","73.6973801","true"
"ChIJeZCVBHnlZzkRsnghF_VnkRs","IndianOil","Ground Floor, Surajpole, Nada Khada, Udaipur","24.58040009999999","73.697301","true"
"ChIJaZqjpXnlZzkRksIbYGuPNVo","Bharat Petroleum, Petrol Pump -Udaipur Filling Station","Ashoka Cinema Road, Shakti Nagar, Udaipur","24.5812157","73.6969658","true"
"ChIJhYgkUQDvZzkRbHXW5istAUc","Cng Petrol Diesel","HPFW+WFG, Transport Nagar, Udaipur","24.5755033","73.7466283",""
"ChIJ9fM2eQDvZzkRj-bVyLNjPRo","BP UDAIPUR (BPCL COCO)","road no 1, E-263, Madri Industrial Area, Transport Nagar, Udaipur","24.5755377","73.7467424","true"
"ChIJseNIEgDlZzkRXfW6BJfDmUI","Hp petrol pump","opp. Town Hall, 5, Panchsheel Marg, Thakkre Baba Conlony, Bapu Bazar, Shakti Nagar, Udaipur","24.5815396","73.6964376",""
"ChIJCS0Lw-fpZzkRWELBqgW4WYM","Hindustan Petroleum Corporation Limited","Ground Floor, opposite Reliance Chemotex, Transport Nagar, Udaipur","24.567438","73.761777","true"
"ChIJyy_W5V_lZzkRzdXhDu5HloM","IndianOil","Ground Floor Chittorgarh Rd, Dungla, Udaipur, Mangalwar","24.585445","73.712479","true"
"ChIJz_BTdZDpZzkRTaxVSr0iq44","IndianOil","Ground Floor Bhoiyon Ki Pancholi, Kanpur","24.5671483","73.7645291","true"
"ChIJYw4tP5foZzkRoT7DwSTHtok","IndianOil","Ground Floor, H Magri, Girwa, Udaipur","24.5674699","73.7761189","true"
"ChIJp0bXcQDpZzkRRseYgEacX44","बालाजी फिलिंग स्टेशन लकडवास","HR33+C5X, Lakadwas","24.5536196","73.80299169999999",""
"ChIJle15ZgDrZzkRGOybTZ_Fyfw","S N mince Diesel Pump","FRPQ+PJ5, Way to Personal Office, Jhamar Kotra","24.4867516","73.83911599999999",""
"ChIJzwsScHLlZzkRDe_y8SZ6VMQ","Bharat Petrol Pump, Chetak Circle","National Highway 76A, Hospital Road, Chamanpura, Udaipur","24.5907599","73.6894272","true"
"ChIJ_7ndtHPlZzkRl28l2MT5RD0","IndianOil","Ground Floor Chetak Circle, &, Hospital Road, Dhundi, Udaipur","24.5907001","73.6922001","true"
"ChIJw85zpnblZzkRCs0Btc0InpI","Hindustan Petroleum Corporation Limited","Ground Floor, Hospital Road, Udaipur","24.589795","73.69526499999999","true"
"ChIJ6QIQ7pnlZzkRdmMWmRHogNY","Bharat Petroleum, Petrol Pump -Udai Filling Station","100 Feet Rd, Near, University Road, Keshav Nagar, Udaipur","24.5919215","73.7113729","true"
"ChIJbdbSJ0DlZzkRQ8EizuN4HbM","Tea Store","B181, Neemuch Kheda, Udaipur","24.6111404","73.67895279999999",""
"ChIJxaNUiW3lZzkRBZhhJK1eMAA","Aadarsh Indane Gramin Vitrak","3rd Street, Akola","24.6063741","73.6859813","true"
"ChIJKW5FfdHlZzkRoiiTxt8Od6Y","Gurukripa Petroleum Exchange","Damani Building, 7, Hospital Road, Seth Ji Ki Bari , Opposite MB Hospital, Chamanpura, Udaipur","24.590569","73.691935",""
"ChIJcxpOiwzlZzkR9ChUSaRyAyo","IndianOil","Ground Floor, Dhundi, Panchwati, Sardarpura","24.5976001","73.69330099999999","true"
"ChIJ7ZjrWwXlZzkRsfmsCU5QfFw","Nayara Petrol Pump, Kedaar Petroleum Pvt Ltd","Nayara Fuel Station, New Fatehpura, Panchwati, Udaipur","24.60643689999999","73.68997279999999","true"
"ChIJT-ey9vPlZzkRzZB84uSaF3M","tulsi filling station","HMQW+VC4, DHUNIMATA, Udaipur","24.5896418","73.6960757","true"
"ChIJPQJERADlZzkRrkrI27pY_q8","Bharat Petroleum Pump","1, opp. gurudwara, near new BPCL petrol pump, opp, Gurudwara Road, Shastri Circle, Shakti Nagar, Udaipur","24.5866952","73.69799600000002",""
"ChIJNYNzPuLlZzkRZM_gxc_Xg-k","IndianOil","Ground Floor, 80 Ft Road Ashoka Palace Rd, H Magri Phulla, Udaipur","24.6024507","73.70066899999999","true"
"ChIJqZ_rx_LlZzkR-L4jUoHxkfw","Adani CNG","RK Circle, Pulla Bhuwana, Udaipur","24.6074398","73.6987486","true"
"ChIJYwI-3AflZzkR54QBQNKs6sk","Bharat Petroleum, Petrol Pump -Diggaj Fuels","Shobhagpura, Udaipur","24.6073654","73.698813","true"
"ChIJC2nr2_zkZzkRcmEdYOw9oEw","IndianOil","Ground Floor, Saiphon Chourha, H Magri, Bedla Road, Fatehpura, Udaipur","24.6208624","73.6898832","true"
"ChIJu_Z5YP_lZzkR1ktbBR9URWM","Sai Kripa Fuels Petrol Pump","khasra number 1470, Plot no. 1, 1475, New Bhupalpura, Udaipur","24.5914357","73.7042347","true"
"ChIJI5hcn5zlZzkR2YLpwkTEgQA","Hindustan Petroleum Corporation Limited","Ground Floor, 100 Feet Road, Shobhagpura, Udaipur","24.600267","73.709069","true"
"ChIJ2328IqrlZzkRH8RBb85AWoc","Sai Filling petrol Station","near Coca cola factory, Badgaon Main Road, Ramgiri, Udaipur","24.6440509","73.6752337","true"
"ChIJmR8kD6HlZzkRmK7MWHFuLxQ","Nayara Petrol Pump - Yuvin Petroleum","JP48+FCW, Shobhagpura, Udaipur","24.606226","73.7156627","true"
"ChIJp8FAJRHmZzkRxB4Rbi_pMYs","Nayara Petrol Pump Transport Nagar","1-C, Airport Rd, Janakpuri, N.B. Nagar, Bedwas Airport Road Janakpuri, N Bhairway Nagar, Bedwas, Transport Nagar, Jharnon Ki Sarai","24.59396049999999","73.7628625","true"
"ChIJX4nOShbmZzkRsaPgJwBMNuU","Hindustan Petroleum Corporation Limited","Ground Floor, NH 76, Bedwas, Udaipur","24.5939334","73.764814","true"
"ChIJF-kv0G3kZzkRp83Y3AZlQCc","Hindustan Petroleum Corporation Limited","Ground Floor, opposite Zohra Marble, Amberi","24.6533746","73.7191259","true"
"ChIJHQuN5cTlZzkRj7yvricCsPQ","Hindustan Petroleum Corporation Limited","Khasra No 489, Airport Road, Sunderwas, Udaipur","24.586828","73.739229","true"
"ChIJ3ZP8HADlZzkRuVYxw0RJ6NI","Jagdish filling station","New, Old RTO Road, Pratap Nagar, Udaipur","24.5987314","73.7446966",""
"ChIJo2SnA-LlZzkRKQpbIHGfwQo","Hindustan Petroleum Corporation Limited","Khasra No 1157/231/A & 1154 Plot No 3/A/1, A/2 & B/1, Pratap Nagar, Udaipur","24.5950012","73.7465637","true"
"ChIJmTmrDQnlZzkRWVD1w_tEnVo","New BPCL petrol pump Meera Nagar Bhuwana","JP97+7F9, Bhuwana, Udaipur","24.6181543","73.7137398",""
"ChIJLwRH48HnZzkRnPqe3ZXXO6A","Bharat Petroleum, Petrol Pump -Eklingji Service Centre","Bhuwana, Udaipur","24.591305","73.75026559999999","true"
"ChIJaSHZ-wjmZzkRQprDvHhucK0","MS Vishal Filling Station - Bharat petroleum","HQR2+VCX, Near Ambe Mata Mandir, Airport Road, Pratap Nagar, Udaipur","24.5922493","73.7511184","true"
"ChIJfffEdcDnZzkRIkMGRTjM6wY","Nayara Petrol Pump","Power House, Debari, NH76, Udaipur","24.6086","73.816479","true"
"ChIJLW9DlnDnZzkRlu8yvLWsabk","Hindustan Petroleum Corporation Limited","No MDR 36A, RIICO Industrial Area, Gudli","24.640228","73.82891099999999","true"
"ChIJIYXOXmTdZzkRc74xWeflirw","Hari Priya Filling Station","Dabak, Udaipur Road, Udaipur","24.6205939","73.849642","true"
"ChIJiWs6tRfmZzkR7JtPqnkk2RE","Bharat Petroleum, Petrol Pump -Siddhartha Energy Station","SIDDHARTHA ENERGY STAT, Udaipur","24.5947015","73.76970220000001","true"
"ChIJSTN-38rnZzkR6kCce30BoLc","VC Filling Station","Airport Road, Nakoda Nagar, Udaipur","24.5915759","73.7552132","true"
"ChIJsbbkIVTnZzkRn_abbhZY0a8","CNG PUMP (UDAIPUR ECO ENERGY)","Bheru Singh Ji Ki Bari, Rajasthan Vidhya Peeth, At, Pratap Nagar, Udaipur","24.5916205","73.7542382",""
"ChIJF7yBWuPnZzkRP3tNuOCx3TI","IndianOil","Ground Floor, Kurabad Road, Bichhri, Dhundi, Debari","24.591995","73.82940099999999","true"
"ChIJP5y41hTnZzkR3JNdg5pyshA","IndianOil","Ground Floor Dabok Chour, Chouraha, Pratapnagar, Udaipur","24.6100743","73.8232957","true"
"ChIJe5UprHjlZzkRKTvtgnB1dxk","IndianOil","Ground Floor, Dabok Chour, Pratapnagar Chouraha, Dabok","24.6100743","73.8232957","true"
"ChIJ-wBsDMjnZzkR1FcZlr2bS3M","DEBARI GATE FILLING STATION","JQM3+2XW, VILLLEGE VADA, DHINKLI","24.6326046","73.7549628",""
"ChIJe2Hcl_3nZzkRhI_MOejuTCM","Harikripa fuel station","Plot no. 1, Gudli","24.6257893","73.8216233","true"
"ChIJs5hB-WLDZzkRs4krMAyz0cA","Hindustan Petroleum Corporation Limited","Ground Floor, Kurabad Road, Girwa, Debari","24.5762625","73.8459738","true"
"ChIJM7Wp2KXCZzkRW9KIm46aziQ","Quality Filling Station","HRGW+5XW, Unnamed Road, 313024, Sakroda","24.5754158","73.8477936","true"
"ChIJZXtedInnZzkRK7-4Px2xUOA","IndianOil","Ground Floor, near Reliance Pump, Bhalon Ka Guda, Debari","24.6180274","73.838669","true"
"ChIJW57uZQDnZzkRlCWQ7nWLBrU","Relaince petrol pump debari","JR9Q+8RP, Tulsidas Ji Ki Sarai","24.6181796","73.83962489999999",""
"ChIJhwHwZ1HjZzkRMNQ9TKVFuEw","IndianOil","opposite BSF Camp, Ground Floor NH 27,, Rathoro Ka Guda, opposite BSF Camp, Udaipur","24.6676273","73.66022339999999","true"
"ChIJhQHjZNv8ZzkRuz56c0yzWN8","IndianOil","Ground Floor, Girwa, Dhundi, Barodiya","24.6941298","73.6360931","true"
"ChIJEdA0XgT9ZzkRdgLD-3rP3YM","HARIHAR FILLING STATION","teh badgaon NH27, Barodiya","24.6945749","73.63614369999999","true"
"ChIJt8N6S9rlZzkRdSKYudxhQ2E","Fuel Marchant","Lakhawali Road, Bedla, Udaipur","24.6467816","73.6905902",""
"ChIJ_7UXlOr9ZzkR1xJ-b71L9CA","Bharat Petroleum, Petrol Pump -Badrinath Filling Station","Oswal Bhavan, Bara Bazar Road, Nada Khada, Udaipur","24.7214205","73.6289082","true"
"ChIJsZavcQDlZzkROzMhT_VTiUY","IndianOil","Ground Floor, NH 8, Bhuwana, Udaipur","24.629311","73.711775","true"
"ChIJMeo2cgDlZzkR3ey06x82xNA","Cng pump","Indian Oil Corporation, Ashok Chowk, Adarsh Nagar, Jaipur","24.6292438","73.7117659",""
"ChIJp6S1UBDlZzkR_Hj4caMnVNc","Eklingji Service center","NH 8, Sukher, Udaipur","24.6389352","73.7154031","true"
"ChIJs6vOCDrlZzkRi-WAsUdMKTo","R.K. Fuels","near bank of baroda, Sukher Road, Udaipur","24.6379514","73.7158884","true"
"ChIJQcsQfpvlZzkRpNW9cfrrAOI","Diamond Motors BPCL Petrol Pump","Sukher Road, Sukher","24.6469671","73.71839659999999","true"
"ChIJQ-ESO07kZzkRAkKeZzMzSSM","Amritdhara Submersible Pumps","JPH7+48G, Sulabh Shochalaya Road, Sukher","24.6278219","73.7133422",""
"ChIJW4CtR9zlZzkRoed-bZ7qmWU","DEBARI GATE FILLING STATION 2","MP3J+7XX, Dheekli Road, Udaipur","24.6532303","73.7324759",""
"ChIJqwGNZaTjZzkR0bYUIL_iBJ4","IndianOil","Ground Floor, Mohanpura","24.71049290000001","73.7314253","true"
"ChIJs7PKIgDjZzkR0dTdTrkyO3k","SHREEJlCNG","NH 8, NATHDWARA ROAD, Mohanpura","24.710505","73.73172269999999",""
"ChIJdYld21bjZzkRigUAFYy3gXw","Royal Biodiesel Feeling Station","Opp. Prem Sagar Dhaba, NH-8 Eklingji Bypass,Nathdwara, Road, Udaipur","24.7238518","73.73163810000001",""
"ChIJwbPhGPzdZzkR-iRHBB2JdZE","IndianOil","Ground Floor Mavli, Ghasa, Road, Bijanwas","24.6942","73.8480001","true"