place_id,name,address,latitude,longitude,open_now
"ChIJ7_pF1qdzKDoRGKD4Kc2QI9E","IndianOil","Rahangi","21.9976099","82.09528859999999","true"
"ChIJW5IYJA5zKDoRpUT96F7izV4","Panchdevi petroleum","Chakarbhatha","22.0117142","82.09888749999999","true"
"ChIJJ1HlTBRzKDoR0aRrJRGKFcU","Petrol Pump","24C2+9XW, Bodri","22.0209949","82.10245479999999","true"
"ChIJLTZ_mrNyKDoRgSKfkvvTWAw","Petrol Pump","Bilaspur","22.0420205","82.05620669999999",""
"ChIJLxUsdONtKDoRTS9nMI7usVw","Hindustan Petroleum Corporation Limited","Ground Floor, Raipur - Bilaspur Expressway, Dhaurabha","21.9544309","82.02734120000001","true"
"ChIJr8WAY2tzKDoRzlgoxlZvngo","IndianOil","Ground Floor Pendridih Chowk, Sakri, Bypass Rd, Bahtarai","22.0057118","82.0562994","true"
"ChIJlSaIn_ZzKDoRNIxorU85EjA","Neel Mangal Fuels","Sakri bypass, pendridih, Borsara","22.0054193","82.05625239999999",""
"ChIJ718nkgNzKDoRAP5-QqVJ2uM","IndianOil","near Hirri, Ground Floor NH 200, Hirri, near Hirri, Mines, Anda","22.0077352","82.0889143","true"
"ChIJIScbLThzKDoRfJQWuRB2rbI","Maa kaveri fuels","238Q+J2X, Chhatauna Main Road, Amsena","22.0166114","82.0876205","true"
"ChIJD9YrkltyKDoRgMAJT7QzK8A","HP PETROL PUMP - SHRI SIDDHI VINAYAK FUELS","Ground Floor, Hardi","21.9910269","82.0687827","true"
"ChIJBwf3lSxzKDoRS1_mMVcqg5g","Hindustan Petroleum Corporation Limited","Ground Floor, opposite Pratap Chowk, Rahangi","22.011038","82.092259","true"
"ChIJN6pNBF1yKDoRSv8UBqhKELs","Bharat Petroleum- Antulal & Sons","X3Q7+MWH, Belan Road, Pendridih, Jhalpha","21.9891953","82.06486459999999","true"
"ChIJZzhdIF1yKDoR7ebzIWpkfmU","IndianOil","Ground Floor Pendridih, Anda","21.98838799999999","82.0652272","true"
"ChIJndN1uURyKDoRfDTjUp-q-7w","BHARAT GAS","India","21.9860192","82.0690386",""
"ChIJ6Xcp1KRyKDoRrLH1Okf782A","IndianOil","Ground Floor, Takhatpur, Camp, Chakarbhatha, Amsena","22.0303001","82.0515001","true"
"ChIJWe5BTlxzKDoRUbzhOFnvC_g","IndianOil","near New High Court, Ground Floor, Bodari NH 200, near New High Court, Bilaspur Road, Camp, Chakarbhatha","22.01713489999999","82.09990359999999","true"
"ChIJC3Njy7pyKDoRXHzug-pE4v8","Hindustan Petroleum Corporation Limited","Ground Floor, Chakarbhata Camp Takhatpur, Hirri, Mines, Amsena","22.0315801","82.0518084","true"
"ChIJ3VzddHVzKDoRTzPKvhTATvc","Ashok Leyland Truck Stock Yard","X3M5+HF4, Hardi","21.9838779","82.0587127","true"
"ChIJ0UbihbNyKDoRPo1fcwywj2E","Yash petroleum Bharat Petroleum","India","22.0420373","82.0564919",""
"ChIJmchEZaVzKDoRoTMjMTpj4vM","Suresh Fuels Bilha","X39P+3J9, Bilaspur","21.9676521","82.0866224",""
"ChIJo1OZ9mdzKDoRy8-tFtAYz4Y","Sitadevi Diesel Pump","24M7+V2J, NH 200, Bilaspur","22.034723","82.1125302","true"
"ChIJV1xkSApyKDoRZJLffZq300w","Tirupati Hydraulics","X29V+R52, Service Rd","21.969505","82.04288079999999",""
"ChIJ9Vl6S0dzKDoRm1P-iJfQ5zY","Bharat Petroleum Petrol Pump , MAHAVIR FUELS","NEAR SARSWATI AGRO INDUSTRIESMAIN ROAD BILHA, POST, Bilha","21.9616959","82.0543604","true"
"ChIJT4EEF_lzKDoR1aUt8OzunnQ","IndianOil","near Hirri, Ground Floor Bilha,Nipania, near Hirri, Mines, Bilaspur","21.961657","82.05233009999999","true"
"ChIJ4eIONzFzKDoRQnsdbZ5im-o","IndianOil","Ground Floor Bilha, Mines, Hirri","21.9551435","82.0901406","true"
"ChIJjXoTqlNzKDoRm4Vaqseiv5E","Hindustan Petroleum Corporation Limited","Ground Floor, NH 200, Bilaspur Road, Bilaspur","22.0455901","82.1199401","true"
"ChIJi4iyFfBtKDoRHxG8LFECVRM","Bharat Petroleum, Petrol Pump -Tirupati Petroleum","DHAURABHATA, Bilaspur","21.96341","82.0330195","true"
"ChIJn8yAT1NzKDoRQVm2lRvd0oc","Reliance Petroleum","Ground Floor Raipur Road, Prasada, Transport Nagar, Bilaspur","22.0478514","82.12173589999999","true"
"ChIJIdsLv1RzKDoRphf_-0cmDd0","MAHAMAYA MOTORS","India","22.0475161","82.1236543",""
"ChIJLQazQKsMKDoRDqIF_ASu528","IndianOil","Kh No 1433, Camp, Tifra, Chakarbhatha","22.050165","82.12315699999999","true"
"ChIJaXfW8l8LKDoRhPSVtiRcOPo","IndianOil","Ground Floor, Tarbahar Phata, Bilaspur","22.0497086","82.1237309","true"
"ChIJEz6F7rMNKDoRk0VWBuE6lh8","Motilal service station","beside as fun, Sirgitti chowk, beside as fun, Bilaspur Road, Parsada","22.0502983","82.1236043","true"
"ChIJw_oDFKsMKDoRilGfgdbhZQE","Gumber Petrol Pump, Bilaspur","Tifra, Bilaspur","22.0506501","82.1239032","true"
"ChIJW7yMmqgNKDoRV257-XZR5W0","Hindustan Petroleum Corporation Limited","Ground Floor, CSIDC, Tifra, Bilaspur","22.050721","82.124111","true"
"ChIJByXsFW50KDoRBdDtD3rMzuk","Sati Devi fuels IndianOil","Ground Floor, Camp, Dhamni","21.986001","82.1398001","true"
"ChIJq16awBQLKDoRAVoJ0Uyq9gw","Hindustan Petroleum Corporation Limited","Ground Floor, Link Road, Bilaspur","22.077931","82.150531","true"
"ChIJ7znc3MQKKDoRoZbwWKDrYcU","Hindustan Petroleum Corporation Limited","Ground Floor, near Gurunanak Chowk, Torwa, Bilaspur","22.0671279","82.1834042","true"
"ChIJB3y8rc50KDoRsUE2bl_niU8","IndianOil","near Bannak, Plot No 995/5, Chowk, Sirgitti, Bilaspur","22.0437146","82.1556002","true"
"ChIJKeHZYRkLKDoRmn7C0hhvqD4","IndianOil","Ground Floor, Tifra, Bahtarai","22.059411","82.130284","true"
"ChIJDwMkDdILKDoRdUuijGgPvxY","Ashish Mishra","near by Indian Oil Petrol Pump, 02, Kali Mandir Road, Tifra, Bilaspur","22.0597207","82.13061669999999",""
"ChIJT0c6oFsLKDoRGIiPkofxEt8","IndianOil","near Dps School, Ground Floor Maharanapratap Chowk, Tifra,Bahtarai, near Dps School, Bilaspur","22.065697","82.135764","true"
"ChIJqUbRXQALKDoR6FTxtgCWQFY","Jio pump Mahadev energy","355J+32P, Sankar Nagar, Bilaspur","22.0553576","82.1798622",""
"ChIJ6dVtakELKDoRNItXviB0bk0","Hindustan Petroleum Corporation Limited","Ground Floor, Vyapar Vihar Road, Bilaspur","22.0691861","82.14515589999999","true"
"ChIJjVNONEILKDoRrhytfSJHka0","Hindustan Petroleum Corporation Limited","Ground Floor, Ring Road, Priyadarshini Colony, Bilaspur","22.0707061","82.1430125","true"
"ChIJn0QWxyYLKDoRfng3BptZt-M","Anurag Fuels (Indian Oil)","3598+3X6, near Kanoi Paper Mill, Raigarh Road, Bilaspur","22.06765","82.167397",""
"ChIJR4wXhWcLKDoR8KPtT-5nWB4","Hindustan Petroleum Corporation Limited","Ground Floor Ring Road, No 2, Maharana Pratap Chowk, Bilaspur","22.0739287","82.1366319","true"
"ChIJMZqHQOsLKDoRX3ADXZBS67M","Amba fuels","Tikrapara, Bilaspur","22.0718745","82.162144","true"
"ChIJba3TEmcLKDoROZzpqQzzlYk","IndianOil","Ground Floor, Tifra, Bahtarai","22.07473","82.13511","true"
"ChIJaRnD5SILKDoRVPyqxv2bypQ","Bharat Petroleum","India","22.0720068","82.1622337",""
"ChIJ6WKlQ7UKKDoRputk4ZPnIwQ","IndianOil","Ground Floor, Torwa, Bilaspur","22.053331","82.193855","true"
"ChIJrTPj2uh1KDoRle5FXGxVsaU","IndianOil","Ground Floor, Dhuma","22.0226977","82.2127604","true"
"ChIJzbp8hRgLKDoR7-4fDbca6SQ","Hindustan Petroleum Corporation Limited","Ground Floor, Old High Court Road, Bilaspur","22.07512669999999","82.1637544","true"
"ChIJE4PPwuQLKDoRQ7-C4Y_jOlo","IndianOil","Indu Chowk, Ground Floor, Jarhabh, Rajiv Gandhi Chowk, Bahtarai","22.0784893","82.1405064","true"
"ChIJ4fy8bQALKDoRkUI0ukVK6Mw","Khamtrai chowk","34HR+V97, Bilaspur","22.0796545","82.1409152",""
"ChIJ24jeDAALKDoRHFT3cBjBSOA","HP PETROL PUMP MOONI FUELS","34HR+V97, Dhaurabha","22.0796545","82.1409152",""
"ChIJSfohdQALKDoRY3RCcd_dhF0","Jio bp Mahadev Energies","beside Murg Musallam, Mandir Chowk, beside Murg Musallam, Jarhabhata Road, Bilaspur","22.0805156","82.1410556","true"
"ChIJXSUepfTfJzoRKMHlJlFv3_o","ANURAG FUELS BILASPUR","Dhenka","22.0306271","82.219714",""
"ChIJb_9v4wPfJzoR6Ji2tinnKKY","Hindustan Petroleum Corporation Limited","Ground Floor, NH 200, Masturi","22.001441","82.253731","true"
"ChIJtQxmp43fJzoR1OKMdSfKLtc","Hindustan Petroleum Corporation Limited","Ground Floor Bilaspur Masturi, Road, Dhenka","22.0269032","82.223927","true"
"ChIJy0MspfTfJzoR3nx3oNM4YaA","IndianOil","Ground Floor, Raigrh Road, Darrighat","22.0303132","82.2200209","true"
"ChIJdVPF0-HfJzoRZEtbTikQPX8","IndianOil","Ground Floor, Masturi","21.9983908","82.257982","true"
"ChIJDe8E58ffJzoRxVbSlzOZSUU","IndianOil","Road, Masturi","21.970074","82.25744879999999","true"
"ChIJywPxyz_fJzoRRct1lTdJiUE","Pratima Fuels Bhadora Masturi","Pratima Fuels Bhadora, Masturi","22.01288359999999","82.2741863","true"
"ChIJZ3fZSVneJzoRmbUIcXNuOPw","IndianOil","Ground Floor Kirari, Masturi, Aramsahi","22.01331","82.274485","true"
"ChIJn25lWvLeJzoRBy6l8WHd3ZI","Hindustan Petroleum Corporation Limited","Ground Floor, Masturi - Jairamnagar Road, Masturi","21.999197","82.276905","true"
"ChIJa19M-LkLKDoRddh--H9gCzQ","Vineet fuels","35GV+9VQ, Mopka Bypass Road, Rajkishore Nagar","22.0759602","82.19473459999999",""
"ChIJVQHP72AMKDoRdc0yYuuClHU","IndianOil","near Uslapur, Ground Floor Mungeli Road,Uslapur, near Uslapur, Railway Crossing, Bilaspur","22.09997299999999","82.106515","true"
"ChIJqzb9JYcMKDoRCEbQkFOhISs","IndianOil","Ground Floor, SH 7, Mungeli Road, Mangla, Bahtarai","22.093446","82.12191399999999","true"
"ChIJp-kUlXELKDoRr38Lbh_FRNk","Hindustan Petroleum Corporation Limited","Ground Floor, Mungeri Road, Tehsil Chowk, Bilaspur","22.0868351","82.14289529999999","true"
"ChIJNZsUKQ0LKDoR9kYAOBHCSwc","IndianOil","Ground Floor, SH 2, Sarkanda, Bahtarai","22.095253","82.142534","true"
"ChIJiaD2OfoNKDoR6KVOp6z8O1s","Bharat Petroleum, Petrol Pump -Sarwamangala Fuels","USLAPUR, NEAR RLY CROSSING, Bilaspur","22.0998471","82.0701784","true"
"ChIJ_fUgLaQNKDoRAry2P1syYHo","Police kalyan Petrol Pump","Sakri, Bilaspur","22.1000456","82.0703455","true"
"ChIJ9UnIylgNKDoRx1okL_LTj_c","Hindustan Petroleum Corporation Limited","Ground Floor Mungeli Road, Takhatpur - Bilaspur Road, Sakri, Bilaspur","22.1032056","82.0913121","true"
"ChIJe8t4dEUNKDoRGtuYxasZ0HU","Hindustan Petroleum Corporation Limited","Ground Floor Takhatpur, Bypass, Sakri, Turkadih","22.1120125","82.0735344","true"
"ChIJhWG2oJ8NKDoRCfSoWi0dqDY","ks and sons","NH,45 CHENNAI TO BANGALORE HIGWAY, KANCHEEPURAM","22.1133662","82.0685953",""
"ChIJG-SRpkwNKDoR-wrMRDNcAQY","Sarwamangala FuelsBharat Petroleum","34X5+M4Q, Uslapur","22.099422","82.1080399",""
"ChIJ8R8_5x8NKDoR3u7jj6kpVVE","Sarasvati Kaushik","578, Uslapur","22.0886149","82.1167849",""
"ChIJAyzUCQALKDoRUN-vg1zuDbc","Petrol Pump Indian Oil","34JH+MRM, Parijat Extension, Nehru Nagar, Bilaspur","22.081717","82.1295559",""
"ChIJgyLULnQNKDoR_T_MpwMwTkU","IndianOil","Ground Floor Lokhandi, Takhatpur, Bahtarai","22.13230399999999","82.093819","true"
"ChIJo5csSQALKDoRBgkzl3u5Lqg","Nagar Nigam pumping station","34WH+VQC, Mangla, Bilaspur","22.097191","82.1293881",""
"ChIJfWGYU4ALKDoRILD__2hWNHI","IndianOil","Ground Floor, Mangla, Bahtarai","22.098853","82.130352","true"
"ChIJTaeV63sLKDoRuRQ8jsSgdrA","IndianOil","Mungeli Naka Ground, Ground Floor Old, Kukudakhandi, Bahtarai","22.0895319","82.1345884","true"
"ChIJOagdv3ELKDoRDIT-x2W7AxU","Fuel","34PV+Q24, District Court Area, Bilaspur","22.0868878","82.1425806",""
"ChIJ67AYNwATKDoRLnqHQejuoRI","Petrol pump","42F8+CF4, Kathakoni","22.1235028","82.01619029999999",""
"ChIJP1AnNBMLKDoRrQ7V0_duRa4","Bharat Petroleum, Petrol Pump -Antulal And Sons","GATORI, Masanganj","22.0857891","82.14340469999999","true"
"ChIJ5wvh7CkLKDoR4A7qcTtevv8","Hindustan Petroleum Corporation Limited","Ground Floor, Seepath Chowk, Sarkanda, Bilaspur","22.096316","82.144975","true"
"ChIJeUeWuIwLKDoRMmUXa0B1QRs","Santosh Petrol Pump","NH 111, Koni, Bilaspur","22.1194655","82.1344934","true"
"ChIJseZQ-qYOKDoRAomqyH0sKIQ","IndianOil","Turkadih","22.1466003","82.1137509","true"
"ChIJRykKNG0LKDoRxiNU1ComiXM","Police kalyan Petrol Pump","flower market road","22.0835756","82.1493773","true"
"ChIJUfpcWwULKDoROjirOmxX0Oc","IndianOil","Ground Floor Chatapara, Bahtarai","22.08362","82.14955100000002","true"
"ChIJH2oPVbgLKDoRUUukyRyst08","Petrol pump","Devkinandan chowk, Bilaspur","22.0876055","82.1488507",""
"ChIJQ9fEKw0LKDoRaCHVWot4jrs","HP PETROL PUMP - A V & RAMDASS CO.","Opposite Pratap Chowk, Birkona-Sarkanda Road, Gol Bazar","22.0883","82.1499","true"
"ChIJYXNTFbQLKDoRHHLASz0Uke8","Hindustan Petroleum Corporation Limited","Ground Floor, Seepat Road, Chantideeh, Bilaspur","22.098351","82.159331","true"
"ChIJ47NpehELKDoRgJJ1pTTPNlU","IndianOil","Ground Floor Chatideeh, Bahtarai","22.0978644","82.1630141","true"
"ChIJSfuLJ2sLKDoRxcYShZOaItI","Shri Shyama Fuels BHARAT PETROLEUM","35X7+49H, Seepat Road, Devnandan Nagar Phase 2, Sarkanda, Bilaspur","22.097806","82.163484","true"
"ChIJjXtp5QALKDoR3EcsrFOLmpA","काबरा ग्रेनाइट एण्ड टाईल्स","India","22.0957608","82.1683657","true"
"ChIJbRI_YsgLKDoRdDUZTUZmwTs","IndianOil","near Secl HQ, Ground Floor Seepat Road, near Secl HQ, Baima Nagoi Road, Bilaspur","22.0954982","82.16879349999999",""
"ChIJxTU7dHILKDoR-RSce_O2EeU","Kartar Fuels(Bharat Petrolium)","Lingiadih","22.0824878","82.17946839999999","true"
"ChIJ2_Kl5N4LKDoRt-6VD_In-lw","Hindustan Petroleum Corporation Limited","Ground Floor, Raipur Road, Parsada","22.081489","82.179584","true"
"ChIJ35njKekKKDoRX83Aa5L1pRc","Sitadevi Petrol Pump Bharat Petroleum","35QV+2C9, Rajkishore Nagar","22.08754","82.1936231","true"
"ChIJx_W54JQLKDoREKOkFKTv3gY","ANURAG FUELS","35PX+MGG, Mopka","22.0866787","82.19882080000001",""
"ChIJA2HifD8LKDoRW_3P3hXUzfM","Bharat Petroleum, Petrol Pump -S. Devi Service Station","BILASPUR RAIPUR ROAD BOD, Bilaspur","22.088145","82.2036388","true"
"ChIJnVMiUoIKKDoRAssfV3C7pKQ","IndianOil","Ground Floor Sipat Road, Mopka, Baimanagoi, Bilaspur","22.092161","82.212266","true"
"ChIJHd4ty0HhJzoRepzGBaJawcM","VIRAJ FUELS Bharat Petroleum","36JH+R69, Bilaspur","22.0827094","82.2276886","true"
"ChIJYcCAH5rhJzoRv78woF55ZOE","Hindustan Petroleum Corporation Limited","Ground Floor, Koyla Vihar Colony, Sarkanda, Lagra","22.102627","82.230212","true"
"ChIJscPNfUXhJzoR18d3D9UYkWY","IndianOil","Ground Floor Masturi, Aramsahi","22.0762051","82.2423993","true"
"ChIJO-SPCrThJzoRtSpeFKKfTp4","Arya Fuels Bharat Petroleum","India","22.1064069","82.24198539999999","true"
"ChIJYbYOaPThJzoRD6ImrY5UCak","IndianOil","Seepat Road, Pandhi","22.1102724","82.2454059","true"
"ChIJXYMk2UrgJzoRgArsqrDRpR0","Hindustan Petroleum Corporation Limited","Ground Floor, Seepat Road, Bilaspur","22.1174846","82.2536271","true"
"ChIJ4Yl2mlwLKDoRxLnhplQkB3M","Ashutosh Petroleum","45QM+47, Nougai","22.1377987","82.183229",""
"ChIJY6QymSUKKDoR6LEWzKWtg1c","Bharat Petroleum","India","22.1378937","82.183385",""
"ChIJ_eNSnvIPKDoRfYoNWJoAi6g","IndianOil","Ground Floor, Takhatpur, Ghutku","22.1780973","82.08743609999999","true"
"ChIJve_QZSsQKDoRtNariI8FA1g","IndianOil","Ground Floor Ganiyari, State Highway 8, Takhatpur","22.1880436","82.0375646","true"
"ChIJvSQMQMoOKDoRR-1cQW7Sj5o","Amit Motor's","549F+GG3, National Highway 130, Sendri, Bilaspur","22.1687681","82.1237864","false"
"ChIJf1AUtswOKDoRmQSkMVKhfRg","IndianOil","Ground Floor, Sendri, Bahtarai","22.174888","82.127436","true"
"ChIJAQAAkEYJKDoR5EGSt8-qUaE","Bharat Petroleum, Petrol Pump -Sharda Petroleum","GIROLA, DURG","22.16396","82.1447634","true"
"ChIJIeGZDtoIKDoRN_452jeCcY0","Hindustan Petroleum Corporation Limited","Ground Floor, Ratapur Road, Sendri, Bilaspur","22.1985241","82.1382814","true"
"ChIJQWYTX1kJKDoRBfHvFqjMSKE","IndianOil","National Highway 130, Gatauri","22.1903952","82.13663869999999","true"
"ChIJb7acNwAJKDoRVHo1KKA8Bwk","Antulal and sons, Bharat Petroleum","54RP+HP8, Sendri, Gatauri","22.1914035","82.1368293",""
"ChIJsyumTMUIKDoRrnFVpj1_X4s","HP Petrol Pump - R B Gatauri","Hpcl Petrol Pump Vill.-gatauri, Bilaspur Ratapur Road PS- Sendri","22.203557","82.139732","true"
"ChIJOQHOWO7jJzoRzn_qzycx8_o","Shree Nand Petrolium","56G8+V9Q, Paunsara","22.1772024","82.21598879999999",""
"ChIJz1s1km3hJzoRuNzqjBODURg","IndianOil","Ground Floor Sipat, Beltara Road, Janji, Bilaspur","22.13101","82.27018699999999","true"
"ChIJ2X6_hFvhJzoRnwEndrw_jNM","Hindustan Petroleum Corporation Limited","Ground Floor, NTPC Township Sipat","22.142871","82.286091","true"