place_id,name,address,latitude,longitude,open_now
"ChIJX9wF-ynzJzoR1FoEit8Zq2c","Petrol Pump","Sarai Singar","22.3065418","82.5559258",""
"ChIJqwMgqA-MJzoRzjYJJ5-wr40","Bharat Gas Godown Adarsnagar","8JXP+757, Adarsh Nagar, Kusmunda","22.3481656","82.63542919999999",""
"ChIJm0ikP6aNJzoRtSKn9eYv3XI","Bharat Petroleum, Petrol Pump -Tarun Fuels","BANKI MONGRA, Korba","22.3036187","82.6117584","true"
"ChIJS1Sy5BqNJzoRheBtbOOm4Mw","Dawarka Fuels KSK","On gevra pantora, road, Birda","22.2701132","82.6441318","true"
"ChIJT1-QYTKNJzoR4VJ-JvbtlYQ","IndianOil","Ground Floor, Katghora","22.268893","82.64376639999999","true"
"ChIJL8LzSQDzJzoRlUJzfGTi8c0","RANI FUELS","7HV3+X3J, Pravesh Baloda Marg, Sarai Singar","22.2952577","82.55292779999999","true"
"ChIJ0_spCU3zJzoRNtZm8XA0xnw","HP Bhumi Fuels","Sarai Singar, Hardi Bazar","22.299145","82.5529049","true"
"ChIJvetc42eNJzoR5LAt330tock","IndianOil","Gevra Road, Kusmunda","22.3469379","82.6529774","true"
"ChIJxdN-2lyNJzoRS0mANucN6nc","Hindustan Petroleum Corporation Limited","Ground Floor Bhairotal, Korba - Banki Mongra Road, Kusmunda","22.354979","82.63831499999999","true"
"ChIJ-Y-19pWNJzoRz5KUhPTNm_w","IndianOil","HN 1137/1 Premnagar, Colliery, Kusmunda","22.355313","82.637653","true"
"ChIJpVRnQwCRJzoRke4HVeagsgY","Hindustan Petroleum Corporation Limited","Ground Floor, Karma","22.241034","82.65207600000001","true"
"ChIJQdZk7JORJzoRFlUdwAcFUj0","Bharat Petroleum, Petrol Pump -Akash Fuels","KANKI, DIST-KORBA, Korba","22.2417896","82.6579534",""
"ChIJr5h0K2vzJzoRLVAaU2iKVus","IndianOil","Ground Floor Baloda Road, Dhatura, Birda, Hardi Bazar","22.265552","82.546656","true"
"ChIJTdevAUaSJzoRO1CuozzTOuM","IndianOil","Ground Floor, Hardi Bazar, Birda","22.226131","82.6214991","true"
"ChIJzR66f2GFJzoRv5VXggSpnJ8","INSTAFUEL, DEALER-BPCL","BALCO-URGA, BYPASS ROAD, BARBASPUR","22.29754579999999","82.7376747","true"
"ChIJfyuLxgOQJzoRs5Em4-wty1c","Hindustan Petroleum Corporation Limited","Ground Floor, Korba - Champa Road, Urga","22.262601","82.72822699999999","true"
"ChIJzbv3MTePJzoRNK7EUBxvKCg","IndianOil","Ground Floor, Hasdeo Project, near Sharda Vihar, Sharda Vihar, Korba","22.350647","82.708522","true"
"ChIJ8-F0vjSPJzoR728Mm8PI18U","IndianOil","Ground Floor, Transport Nagar, Korba","22.359055","82.70869499999999","true"
"ChIJ7Tf8_MuPJzoRiC1PbjHOB-k","IndianOil","Ground Floor, Semipali","22.2770617","82.719323","true"
"ChIJHa-ZB_KPJzoRM9Wui2nt5qI","Shri Balaji Service Station","State Highway 4, Urga","22.2846117","82.7239957","true"
"ChIJpyXFfPqPJzoRW25RkWQrH50","IndianOil","Ground Floor, Main Road, Barpali, Urga","22.277466","82.726849","true"
"ChIJ4eVAR8-PJzoRlm9gUD3xc4o","IndianOil","Ground Floor, near Bajrang Toki, Mahatma Gandhi Road, Korba","22.3423972","82.7007904","true"
"ChIJZetT1WOFJzoRwUFAlPsD0QQ","Bharat Petroleum","7PWP+JX3, Urga-Risdi Bypass Road, Korba","22.2965008","82.7374277",""
"ChIJT6kFh7eJJzoRJtRAZ6Mr5uk","IndianOil","Ground Floor, near Railway Crossing, Tulsi Nagar","22.34732199999999","82.69713080000001","true"
"ChIJ__Y3tiiPJzoRpxaHEk_oVk4","Murarka Petrol Pump","Murarka Petrol Pump, Power House Road, Korba","22.3493762","82.6964897","true"
"ChIJvWSZYzuPJzoRtFtp2a_OCLE","Bharat Petroleum Petrol Pump , NATHMAL BADRINARAYAN","TRANSPORT NAGARTRANSPORT NAGAR, Korba","22.3497028","82.69614709999999",""
"ChIJ1w99ArWPJzoRv-Rnu6V4Uqg","Shree Balaji Fuels, BPCL Petrol Pump","Sarwamangala Para Road, Sarwamangala Para, Korba","22.3538385","82.69249429999999",""
"ChIJOUf0EYyFJzoRAEZnUJvc4G4","Hindustan Petroleum Corporation Limited","near Urga, Ground Floor NH 130A, Urga Hati Road, near Urga, Railway Crossing, Urga","22.2763617","82.74245160000001","true"
"ChIJv-2IpyuPJzoR-hWpeBNDnR8","Hindustan Petroleum Corporation Limited","Ground Floor, Old, Darri Road, Korba","22.353946","82.695781","true"
"ChIJcckPKMuRJzoRY4M39bKh76A","IndianOil","Ground Floor, Patarhi","22.2570934","82.7302105","true"
"ChIJvbQ_lVCPJzoRWUo9CHs536A","Bharat Petroleum Petrol Pump , SHRI R G FUELS","SECL, MURAPARTEHSIL, Korba","22.354088","82.70946099999999","true"
"ChIJH7Lg3DKPJzoRXqbVhQG46FY","R.B. Fules","Lalu Ram Nagar, Korba","22.3586578","82.7042094",""
"ChIJqwgFqvmPJzoRRALjAdFx7vI","IndianOil","Ground Floor, Transport Nagar, Korba","22.358891","82.704571","true"
"ChIJLeRWx-6FJzoRLU5WNwrGioA","IndianOil","Ground Floor, Urga Bhaisma, National Highway 130A, Kukricholi","22.2763889","82.7516277","true"
"ChIJjUimIc2IJzoRcLYeZJTFMq8","Hindustan Petroleum Corporation Limited","Indira Commercial Centre, PN 206 & 207, Transport Nagar","22.3613701","82.7046501","true"
"ChIJoT8mBxaJJzoR5WQILvssoE4","IndianOil","Ground Floor, TP Nagar Road, Tulsi Nagar","22.3636363","82.6990408","true"
"ChIJK0Fp78yIJzoRvhPN1whMMYo","Bharat Petroleum","IRCC, 126, Transport Nagar","22.3621861","82.70581229999999",""
"ChIJG821BACFJzoRNNIwN5szTJE","ANUGRAH FUELES KUKRICHOLI","7QG4+97F, Kukricholi","22.2759382","82.7556622","true"
"ChIJASHnchKJJzoR9K6Wsbn-WNw","IndianOil","Hasdeo Project, Plot No 7 Transport Nagar, Korba","22.363369","82.707556","true"
"ChIJm5ldGbGRJzoRzaX00PZ4O1g","IndianOil","Korba - Champa Road, Patarhi","22.2431856","82.7336725","true"
"ChIJH9Tf6LSIJzoRz_OJ1b--L9g","Hindustan Petroleum Corporation Limited","Ground Floor, Madarsa Road, Budhwari Basti, Korba","22.3622401","82.71315799999999","true"
"ChIJC6rFHBOFJzoRv_SZzrABO04","RAMA CHOICE CENTER","7QPG+24Q, Karmandi","22.2850934","82.7753448",""
"ChIJoZxTfACbJzoRk1wH1EagJ8w","Anugrah fueles","7Q8G+63F, Bhaisma","22.2655602","82.7751622",""
"ChIJC7xpV3aHJzoRSc_0SBN2K0g","IndianOil","Ground Floor, Hasdeo Project, Police Line, near Korba Jail, Korba","22.3650675","82.75518679999999","true"
"ChIJpYcv5caJJzoRS5eqEidpPCI","Hindustan Petroleum Corporation Limited","Ward No 21, Plot No 11 & 10/A, Kosawadi, Korba","22.3626401","82.7315801","true"
"ChIJ36FJME2PJzoRW0D4VsEIAcg","IndianOil","Ground Floor, Ghantaghar Chowk, Korba","22.359995","82.721443","true"
"ChIJTZLB6HaGJzoReXVyqcjbcgg","Bharat Petroleum","9Q87+QCX, Ring Road, Risdi, Korba","22.3669926","82.7636024",""
"ChIJM01PXv-KJzoRP2TzVYIpp9c","IndianOil","Ground Floor Sutarra Road, Bankimongra, Mongra, Korba","22.408486","82.60376","true"
"ChIJuzdt0V3zJzoRqKAZJHRDmIo","IndianOil","Ground Floor, Wcl Gevra Project, Gevra","22.346529","82.542411","true"
"ChIJ-1jOvJiJJzoRTDvgejq-1e8","IndianOil","Ground Floor Katghora Road, Jamnipali, Chhuri","22.41334100000001","82.669167","true"
"ChIJ4052bP-KJzoRwDX_vVy-R8Y","banki petrol pump","CJ43+RHQ, Banki Mongra","22.4070859","82.6039904",""
"ChIJXxcdL7H0JzoRXwhZeGm9ZBU","Hindustan Petroleum Corporation Limited","Ground Floor, Dipka - Katghora Road, Gevra","22.3705512","82.5542109","true"
"ChIJB9oL8Kz1JzoRHMVC7lBqBPk","IndianOil","Ground Floor Dipika, Dipka - Katghora Road, Korba","22.3580455","82.5492379","true"
"ChIJS7cz1k_zJzoRagg7nU32KXU","Gopichand service stations dipka","near police chowki, Dipka","22.3464173","82.5425841","true"
"ChIJX1rTkpiJJzoR0RnCSmgg8uU","Hindustan Petroleum Corporation Limited","No 211, Darri, Jamnipali","22.4131962","82.6690721","true"
"ChIJIefBX76LJzoRhTk7A3BYmvs","Bharat Petroleum, Petrol Pump -Sanjay Service Station","CHHURI, Korba","22.427532","82.5762465",""
"ChIJA4HZr3OGJzoRHughhF_sb8s","IndianOil","Ground Floor, Bypass, Risdi, Balco Nagar","22.3709031","82.75951099999999","true"
"ChIJm2jwEACJJzoRvXbCMBgVNdc","Bhidhuna","petrol pump ke samne, bali gli, Korba","22.363222","82.7170316",""
"ChIJtWYK8JqIJzoRi1p7W2YIpiM","Balco Petrol Pump","9PVG+Q94, Balco-Korba Road, Korba","22.3943991","82.725943",""
"ChIJQwUCAK2JJzoRW63gmQytAEk","IndianOil","Ground Floor, Hasdeo Project, Rumgara","22.40741999999999","82.72108","true"
"ChIJAwlfui6GJzoRB9_qU7hGJK8","IndianOil","Ground Floor Balconagar, Ajgarbahar","22.4024001","82.7408001","true"
"ChIJIXyOnTuGJzoRMHnmBG5EDts","Hindustan Petroleum Corporation Limited","Ground Floor, Infront of, Ring Road, Gate, Balco Nagar","22.394764","82.747241","true"
"ChIJ_5FxEjyGJzoRApPdz8JvG9k","Sharma Petrol Pump","Rishda, Balco, Korba, Korba","22.3910294","82.7500168","true"
"ChIJDe94OACHJzoRV5eQ0wtD1TQ","Shri Balaji Fuel Point","9QC5+9RG, Risdi, Korba","22.3709305","82.7595759","true"
"ChIJ39hmRY0giDkRxzQXNB-hpFk","Bharat Petroleum","Chhuri, Korba, SH-4, Korba Road, Katghora, Katghora","22.473858","82.615156","true"
"ChIJ7dKM7zCJJzoR7GGC2502LgE","H P petr","Bengchul, Bhatapara, Korba","22.4363775","82.6615092",""
"ChIJfYADLpYhiDkRZ5GyTFcKdXM","IndianOil","Ground Floor Kathghora, Chhuri","22.484946","82.598292","true"
"ChIJL4UuuUcgiDkR6iDuOwCcSuk","Tulsi Petrol Pump, Jenjara","FHMP+84J, Korba Katghora Bypass","22.4833441","82.5852687",""
"ChIJI7JmuUcgiDkRkVvv45eB9OA","IndianOil","Hasdeo Project, Ground Floor Salora, Katghora, Korba","22.48372999999999","82.585289","true"
"ChIJOTqKsJEhiDkRW09xvB_yTr8","Hindustan Petroleum Corporation Limited","Ground Floor, Korba Road, Katghora","22.483868","82.582032","true"
"ChIJrz5uqlv1JzoROGgGS4hSNEk","Shri Balaji Fuel Jawali","CGHP+QHR, Jawali","22.4294776","82.5363957","true"