place_id,name,address,latitude,longitude,open_now
"ChIJGUrLkpv4VRERVcMMAvyYNZ4","IndianOil","Ground Floor, Raipura, Raipur","21.2207069","81.5928321","true"
"ChIJh39Z5HneKDoRD1sK9HtehZg","Hindustan Petroleum Corporation Limited","Khasra No 631/11, PH, 104, Mahadev Ghat Road, Raipura, Raipur","21.229542","81.5989029","true"
"ChIJM0643D_eKDoRi_vdmf4LiUg","Bharat Petroleum R. B. DIESELS","Amanaka, Raipur","21.24261809999999","81.5809161",""
"ChIJ42uY1tvdKDoRg3q2Kut96tY","Hindustan Petroleum Corporation Limited","Ground Floor, Link Road, Mahadev Ghat Road, Raipur","21.233921","81.609241","true"
"ChIJjanLhY3fKDoRNSRae-hPHOg","Shri Ram Fuels","Patan - Raipur Road, Amleshwar","21.1986287","81.5719435","true"
"ChIJuWIftujeKDoRFdMk0_6PggU","Bharat Petroleum","India","21.1986593","81.5719682",""
"ChIJ_RLMvcHfKDoR17tBvn7REqE","Bhaskar fuels","Durg, Khamariya pahanda kumhari marg","21.1891504","81.5385184",""
"ChIJ8YiDhPjfKDoRqe3uqFFAwM4","Hindustan Petroleum Corporation Limited","Ground Floor, near Wall Fort Vihar, Amleshwar","21.199011","81.57228669999999","true"
"ChIJt8WN30_ZKDoRIq8cnfT2WKE","Bharat Petroleum Petrol Pump , PANDE FUELS","MOTIPUR-JHIT, Patan Road, SAKHARA","21.164904","81.54151",""
"ChIJC8wBDE3ZKDoRsmIQyXb8u4Y","IndianOil","Ground Floor Motipu, Raipur Jamgaon, Road, Patan","21.166156","81.539552","true"
"ChIJFZYLMgDZKDoR804PnECQSec","Rameshwar sahu","4HX4+R62, Jheet","21.1495061","81.5555291",""
"ChIJKWJH_4reKDoR_xhjLOovZsQ","IndianOil","Ground Floor RaipurPatan Road, Patan, Amleshwar","21.214682","81.584231","true"
"ChIJ-dpeq4veKDoRFTRbd--CGYI","Hindustan Petroleum Corporation Limited","Ground Floor, Patan - Raipur Road, Amleshwar","21.2144688","81.58464959999999","true"
"ChIJzw8lHZ_fKDoRrhuancAQ3l4","Hindustan Petroleum Corporation Limited","Ground Floor, Mahadev Ghat Road, Bhatagaon, Raipur","21.2164727","81.5926849","true"
"ChIJf-f3OwDZKDoRP0AHqwxh7ec","Diwaan Aara mill","4GXC+PF5, Jamgaon","21.1496641","81.5224233",""
"ChIJIaSFrNHZKDoRe8Sl4p-Vm4M","Hindustan Petroleum Corporation Limited","Khasra No, 123/1, Funda, Godadih - Raipur Road, Patan, Jamgaon","21.146308","81.524496","true"
"ChIJu8qXufTdKDoRFWI-4h5t7-U","BAJPAI PETROLEUM","ROAD, BHATAGAON, Kathadih","21.1830587","81.6133093","true"
"ChIJZRbyC8zZKDoRw8tFPQqlSzE","Hindustan Petroleum Corporation Limited","Ground Floor, Motipur Patan Road, Patan","21.130263","81.56431099999999","true"
"ChIJLQe7HcTdKDoRtqcsxHieCNs","IndianOil","Ground Floor, Sheetla Mandir Chowk, Bhatagaon Road, Kathadih","21.1960167","81.6128606","true"
"ChIJBUsBTyLdKDoRkKpWUP6341Q","Hindustan Petroleum Corporation Limited","Ground Floor, Shitla Mandir Chowk, Bhatagaon, Raipur","21.205047","81.615133","true"
"ChIJhUrYPArcKDoRXHVEQq4c_eY","IndianOil","Ground Floor, Kathadih","21.173507","81.620699","true"
"ChIJod7r4rTfKDoR6AfBl8LvuM4","Mahadev fuels","bridge, Near, Ring Road Number 1, Raipur","21.23234189999999","81.5977096","true"
"ChIJK-b60nDeKDoRAYxzv0OBYvs","Bharat Petroleum","India","21.2323537","81.5978901",""
"ChIJRYEyGtjdKDoRSlvKk764a0M","Hindustan Petroleum Corporation Limited","Ground Floor, Ring Road Number 1, Maitri Nagar, Changurabhata, Raipur","21.2312322","81.6028678","true"
"ChIJ6forlZnfKDoRvnNkuaZNxsI","Bharat Petroleum, Petrol Pump -Gulab Thakur Fuel Station","RR1 SARONA,WALFORD CITY SI, Raipur","21.2432605","81.57964570000001","true"
"ChIJeZGD7YzfKDoRc-VOybd28cg","Hindustan Petroleum Corporation Limited","Ground Floor, Ring Road Number 1, Sarona","21.243908","81.58008099999999","true"
"ChIJ3dbCIHrfKDoRkZpOmmC81yA","Jio BP Ring Road 1","6HWH+4FX, Raipur","21.244863","81.57887699999999","true"
"ChIJQwFt3zTdKDoRB5r93fRr_uY","Hindustan Petroleum Corporation Limited","Ground Floor, Jal Grih Marg, Bhatagaon, Raipur","21.213606","81.622267","true"
"ChIJ_e5yb0_dKDoRP6Xu6ayDpR8","Kushalpur, Petrol Pump","6JG7+H7F, Patel Para, Raipur","21.2264386","81.61318539999999","true"
"ChIJHQvAVEbdKDoRwe_NHJGT6RI","IndianOil","No 1, Ring Road, Bhatagaon, Raipur","21.220901","81.61921699999999","true"
"ChIJTSuEmgrdKDoRUpfZRT4GcFU","IndianOil","Ground Floor, Bhatagaon, Raipur","21.21865099999999","81.621147","true"
"ChIJ5TUH6QbdKDoRJ05_lwapKfM","Bharat Petroleum, Petrol Pump -Sundernagar Filling Station","Raipur","21.2341633","81.6083577","true"
"ChIJRzz1GwDfKDoRn6PJ4CIdpTQ","BHAV SINGH THAKUR FUELS","6HXH+HGF, Sarona","21.2489404","81.5788103",""
"ChIJ03xA0cLfKDoR22-YyKTtIXY","Bharat Petroleum, Petrol Pump -Vimal Transport","KUMHARI (NH-6), DURG","21.2496895","81.5432874",""
"ChIJ51-xKGjdKDoReD174oRINq0","Hindustan Petroleum Corporation Limited","Ground Floor, Ring Road Number 1, Sunder Nagar, Bhatagaon, Raipur","21.216851","81.624415","true"
"ChIJe0Hm-WvbKDoRPSX9aOua3l0","IndianOil","Ground Floor, Old Dhamtari Road, Sejbahar","21.1557825","81.66410429999999","true"
"ChIJs4dUK_7cKDoRLAOKdt0962c","Bharat Petroleum Petrol","No.1, Dhamtari Road, Pachpedi Naka, Raipur","21.2202664","81.6499595",""
"ChIJc1_osQPdKDoRsbR_z1OTeTI","Pujari Fuels","Ashoka millenium, Ring Road Number 1, Beside, Raipur","21.2244172","81.6548407","true"
"ChIJyzm6IdncKDoRlmiR0wBMkmo","IndianOil","Ground Floor, Amlidih, Raipur","21.2265732","81.6501869","true"
"ChIJIU0FiRTbKDoRHmE3_aPwCus","Bharat Petroleum","4MR8+W32, Doma-1","21.14226439999999","81.6651562","true"
"ChIJT0ztRwPdKDoRgKayFSi0xAo","Shanti HP Gas Agency","Shopno B3, G K Milestones, New Rajendra Nagar, Raipur","21.2257014","81.6574722","true"
"ChIJd1aSShrdKDoRq4nxr6OUXc4","IndianOil","Pachpedi Naka, Telibandha, Purena","21.230811","81.662498","true"
"ChIJYbJ7A-jdKDoRetdX40gmD1g","FR Fuels Bharat Petroleum","opposite Raj Kumar College, Great Eastern Road, Raipur","21.243007","81.615011","true"
"ChIJYTcZZpjdKDoRQXZgLVar3eQ","Motorists Paradise PETROL PUMP","Moudhapara, Raipur","21.2449953","81.6385361",""
"ChIJKdT7y5jdKDoRoRvW1ul5kHw","HP Petrol Pump - Chawla Service Station","OPP. Secretariate Shastri Chowk","21.2456864","81.64060359999999","true"
"ChIJJw3lCFjdKDoRj2b6cFY5zGc","IndianOil","Ground Floor, Mowa, Raipur","21.2419533","81.6683058","true"
"ChIJX9hZce7dKDoRnqDZmyPxNSo","Hindustan Petroleum Corporation Limited","Ground Floor, Kandul Road, Boriyakhurd","21.19443099999999","81.649935","true"
"ChIJNTdFhIbdKDoRme7C23IHy9o","Hindustan Petroleum Corporation Limited","Ground Floor, Old Dhamtari Road, Sundar Nagar, Boriyakhurd","21.19841139999999","81.64693059999999","true"
"ChIJCwv1ClTcKDoRUSg_W27I0xg","HP PETROL PUMP - AGRIMA FUELS","Old Dhamtari Road, Boriyakhurd","21.1983598","81.6470033","true"
"ChIJnRFh3FTdKDoRv2Chftq9sns","dauji petrol pump","Old Dhamtari Road, Boriyakhurd","21.1967528","81.64864519999999","true"
"ChIJ_canHlncKDoRqpCEjrCTHS0","IndianOil","Ground Floor, Boriyakhurd","21.205009","81.64407299999999","true"
"ChIJx-8n2zfdKDoRHKEt61pnBtQ","Bharat Petroleum, Petrol Pump -Maa Shitla Fuels","MUJGHAN, Raipur","21.17727129999999","81.6607555","true"
"ChIJ6Q02l3vdKDoR_qEQ3Wx0jpQ","MEMANFUELS","Singanpur NH-30, Raipur","21.2088637","81.6580725",""
"ChIJLVLV6hzdKDoRH0NcAwYTgp4","IndianOil","Ground Floor, Tikrapara, Raipur","21.216358","81.655734","true"
"ChIJ_UC_7__cKDoRYJpEtIEBi2c","Hindustan Petroleum Corporation Limited","Ground Floor, Tikrapara, Raipur","21.2202201","81.6487772","true"
"ChIJy9GQYPzcKDoRmtqTA0JkN3w","Hindustan Petroleum Corporation Limited","Ground Floor, near Colors Mall, Tikrapara","21.216641","81.655591","true"
"ChIJxxPRFkHdKDoRoOm72EIEn2k","PUJARI HIGHWAY FUELS (Bharat Petroleum)","N.H.30, New Dhamtari Road, Lalpur, Raipur","21.2128616","81.6616822","true"
"ChIJ51KWFfvdKDoR90HD11OvHik","Hindustan Petroleum Corporation Limited","Ground Floor, NH 43, Ring Road Number 1, Chowk, Tikrapara","21.22083","81.649219","true"
"ChIJ_zto3jrdKDoRIxTkxdJhdoM","Arora Highway Services","near Wholesale Fruit Market, Devpuri","21.2118471","81.6645399","true"
"ChIJI7Kxl6vdKDoRlYkjUFtA4qg","IndianOil","Ground Floor, near Pujari Park Road, Tikrapara, Raipur","21.2241029","81.6439481","true"
"ChIJxQQ5c-jcKDoR_7RI6_B2oO4","B S Bhatia & Co.","opposite Union Bank Of India, NH:30, opposite Union Bank Of India, Devpuri Road, Raipur","21.20949809999999","81.6678542","true"
"ChIJOaBjzOfcKDoRV0RVZchOmuo","Reliance Petrol Pump","Survey No. 8/6 & 16/30, Village Deopuri P.H.No. 114, National Highway 43, Lalpur, Raipur","21.21084859999999","81.66675649999999","true"
"ChIJs4srQJzPKDoRWIeWqoH4lDo","IndianOil","Ground Floor, ABHANPUR, Julum","21.1348069","81.62342459999999","true"
"ChIJde5O7vLdKDoRiuFEOk3N1Yo","Hindustan Petroleum Corporation Limited","Ground Floor, Jal Grih Marg, Tikrapara, Raipur","21.228172","81.637056","true"
"ChIJl5A8BK_dKDoR-5lTgHcAfH0","IndianOil","Ground Floor, Old Dhamtari Road, Tikrapara, Raipur","21.22908809999999","81.63984119999999","true"
"ChIJF-2j767dKDoRqGTz6dG9Tmo","Jai Bhawani Petroleum","6JHQ+WW9, Opposite Police Line Gate, Tikrapara, Raipur","21.2297871","81.6398438",""
"ChIJxzWHZq_dKDoRthlxCIXF9rc","IndianOil","Police Line, near Kalibadi Chowk, Tikrapara, Raipur","21.23141589999999","81.64010979999999","true"
"ChIJJagCBhXdKDoRRReWv9sdoK0","sumanfuels","National Highway 30, Raipur","21.2320322","81.6398397",""
"ChIJWb22tYfdKDoR-NpnRMFUQSY","S N fuel","5MXP+VR4, State Highway 2, Raipur","21.1996465","81.68708730000002","true"
"ChIJAQ_fDb_dKDoRAw8Wwyb_n2w","Alterantive Fuel","6JQG+PQX, Great Eastern Road, Aminpara, Raipur","21.2393659","81.6269894",""
"ChIJiS0AABDdKDoRALNoSTjIprs","HP PETROL PUMP - ADHOC VISHWABHARTI FUELS","Hpcl Retail Outlet, beside BRT Depot, Nrda Riko, Raipur","21.233","81.65830199999999","true"
"ChIJobGPBgDdKDoR6Rtqw6Om1DU","Marut gas agency","6JVJ+37V, Badhai Para, Jawahar Nagar, Raipur","21.2427359","81.6306566",""
"ChIJuzjvEKrdKDoR4uf9sZikGis","Bharat Petroleum, Petrol Pump -Ahmedji Bhai & Sons","Jaistambh Chowk, Raipur","21.2438137","81.6363198","true"
"ChIJ8dAL5DLdKDoR64uld4zFnPU","Hindustan Petroleum Corporation Limited","Ground Floor, Great Eastern Road, Ravigram, Telibandha, Raipur","21.2371801","81.6891601","true"
"ChIJhcodG83CKDoRvlQ4Xt0ZL3c","IndianOil","Ground Floor, Chhokra Nala, opposite IGKV, NH 6, Labhandi Road, Raipur","21.241853","81.6922091","true"
"ChIJA4jrokHDKDoRQ01p6WYsokY","IndianOil","Ground Floor, Banarsi, Raipur","21.192432","81.707092","true"
"ChIJv6O9sRvDKDoRtLscJAGXk8U","IndianOil","Ground Floor, near BJP State Office, Temri","21.1946038","81.7020031","true"
"ChIJ_TqIMgDFKDoR4n-vXWYnVWM","Sai Amrit Fuels","5P97+FV7, Raipur - Abhanpur Road, Mana","21.1686606","81.71466980000001",""
"ChIJeWTmYQDDKDoRDt4zIiCcjXM","Yaduvanshi home{jitendra kumar }","6P42+F6F, Temri","21.2061818","81.7005444",""
"ChIJ7cA3mi3DKDoRuqjivOeGhkM","Hindustan Petroleum Corporation Limited","Ground Floor, near Fundahar, VIP Road, Chowk, Raipur","21.208971","81.700851","true"
"ChIJ__7SOwDFKDoRnL92XctftVE","SAI SHUBH FULES Bharat Petroleum","5P2C+PQ, Bhatgaon-1","21.1518008","81.7219563",""
"ChIJO1AXvvrCKDoR3jyrn4c03Ac","IndianOil - SWAGAT","Ground Floor, Chedi Khedi, Raipur","21.235047","81.725235","true"
"ChIJCwUUMvrCKDoRW87KMPjrEhM","HP PETROL PUMP - JAI MATADI SERVICE STATION","HPC Dealer NH 6, Mandir Hsaud Road, Telibandha, Dist. (CG), Raipur","21.2338","81.72872","true"
"ChIJ781tPfrCKDoRU55RtiPoVLc","Hindustan Petroleum Corporation Limited","Ground Floor, NH 53, Serikhedi, Raipur","21.234707","81.72867099999999","true"
"ChIJhUbxLjrdKDoRwatybucdaTc","Oswal Petrol Pump (Oswal Highway Services)","1, Kolkata - Mumbai Highway, Jivan Vihar, Raipur","21.2395966","81.6778953","true"
"ChIJ8bF4FADDKDoRK08PR6D7SAo","Rathore Fuel","6Q65+27, Atal Nagar-Nava Raipur","21.21004","81.7581683",""
"ChIJ4brAtD3dKDoRitBPok0BJlQ","Hindustan Petroleum Corporation Limited","Ground Floor, NH 6, Telibandha Ring Road, Raipur","21.237771","81.671841","true"
"ChIJdSjT5TvdKDoRgWLq3mI0_iY","HP PETROL PUMP - MINOCHA AND COMPANY","6MQG+P77, Kolkata - Mumbai Highway, Telibandha, Raipur","21.239292","81.67567300000002","true"
"ChIJ62uWSADdKDoRE21lWCJht5k","CNG Filling Station","6MQG+P9R, Jivan Vihar, Raipur","21.2393749","81.675882","true"
"ChIJiwSZb_XbKDoRjOiF9mHPtNw","HP Petrol Pump - Raj Petroleum","Ground Floor, Abhanpur, Khilora","21.1238401","81.6670601","true"
"ChIJ71OD5RPdKDoRRpu4Kf0oi98","HERO SPRINT","India","21.2398271","81.6629009",""
"ChIJS_rJEADDKDoR4hs8PTpe398","Awas Chowk , Atal Nagar Nava Raipur","5QXC+82, Atal Nagar-Nava Raipur","21.1983461","81.77006779999999",""
"ChIJGV5r72zDKDoRGHNPpPKoMkc","Hindustan Petroleum Corporation Limited","Ground Floor, near BRT Depot Naya, Naya Raipur Marg, Raipur","21.198415","81.771818","true"
"ChIJMStpNqjFKDoRRIkYW1rIlRw","IndianOil","Ground Floor, Bendri, Abhanpur, near Mintu Public School, Raipur","21.120901","81.73650099999999","true"
"ChIJSxZzAAzbKDoRRtp3S-GOSkg","IndianOil","Ground Floor, Abhanpur","21.116581","81.6670333","true"
"ChIJOxTxmg3dKDoRwazjHgYu-PM","Jai Jawan Auto Services","near Marine Drive, Great Eastern Road, near Marine Drive, Bhawanipatna - Raipur Highway, Civil Lines, Raipur","21.2413806","81.6575008","true"
"ChIJXW1cbdPfKDoRgtsnwUvI3dE","BPCL Petrol Pump","National Highway 6, Tatibandh, Raipur","21.2559798","81.55767159999999","true"
"ChIJ68cSDubfKDoRxwDxZhB0LvE","Bharat Petroleum","Kumhari, Raipur, NH-6, Armori Bhandara Highway, Raipur, Raipur","21.251445","81.53281799999999","true"
"ChIJf--3nPDfKDoRI2iypSw_KJs","Bharat Petroleum Petrol / CNG","Raipur-Bhilai-Durg Expressway Road (NH6), Ward Number 15, Kumhari, Bhilai","21.2496278","81.523213",""
"ChIJ79vePgfeKDoRr1uQ6Fb_H_o","IndianOil","Ground Floor, Parmanand Nagar, Kota, Raipur","21.2585239","81.601889","true"
"ChIJFb3g7a3gKDoRGatLNWzqHTM","Hindustan Petroleum Corporation Limited","near Sondongri, Ground Floor Ring Road 2, Gogaon, near Sondongri, Chowk, Raipur","21.277078","81.60089599999999","true"
"ChIJJ67LfSzeKDoRDEg0l1m2A3g","IndianOil","Ground Floor, Tatibandh, Raipur","21.2565676","81.56251549999999","true"
"ChIJP6jmkR3fKDoRhY85ZAqppqE","Jai Siddhivinayak Petroleum","N.H.53,Near Bajipura Sumul Daan Factory, Titva (Bajipura), Ta-Valod,Di","21.2586913","81.5663538",""
"ChIJb2GRnrPfKDoRrjQQ1dH2who","Hindustan Petroleum Corporation Limited","Ground Floor, Ring Road, Chowk, Tatibandh, Raipur","21.258191","81.56696099999999","true"
"ChIJiTb-_CfeKDoRBJx401u5nFQ","IndianOil","Ring Road Number 2, Tatibandh, Durg","21.263508","81.570854","true"
"ChIJ6bVvEqrfKDoRFOYXpmVHYsM","Hindustan Petroleum Corporation Limited","Ground Floor, Apollo pharmacy line, near Bharat Mata School, MIG-22, Great Eastern Road, Shri Shanti Nath Nagar, Tatibandh, Raipur","21.25986559999999","81.5754541","true"
"ChIJK-t_aQDhKDoRSlo_s1B8RMg","Induria Fuels CG","7H97+JW5, Tatibandh, Raipur","21.2690109","81.564864","true"
"ChIJD0-JHFDfKDoRD93NqXZ7HLE","IndianOil","Ground Floor, Doomar Talab Thana Road, Raipur","21.2508075","81.5833983","true"
"ChIJ0RQbZL3hKDoRXbgKywPXs9Y","Bharat Petroleum, Petrol Pump -Oberoi Freight Carriers","SONDONGRI","21.2663763","81.578937",""
"ChIJxUiKmbnfKDoRbSV063QUNnE","Hindustan Petroleum Corporation Limited","Ground Floor Portico, near Hotel Sarovar, Hirapur Road, Tatibandh, Raipur","21.260371","81.58308099999999","true"
"ChIJ2_VqnZ_gKDoRPv4JH6MAKEY","Hindustan Petroleum Corporation Limited","Ground Floor, Hirapur Colony, Raipur","21.267501","81.58080100000001","true"
"ChIJKfWl4-XfKDoRnucC0pXRSy4","Jio-bp","Ground Floor, Opposite Yug Bodh Prakashan, Nh 6, Kumhari","21.2513028","81.5320844","true"
"ChIJayEB7uXfKDoRUqE3bOyJqds","IndianOil","Ground Floor, Dhamdha, Kumhari","21.2511943","81.531207","true"
"ChIJL0ibdfzvLzoRBKcxyopnj9w","MS D P R FUELS","Hirapur","21.260601","81.588646",""
"ChIJuzvRHezfKDoRj2-YkB4mqU0","Jannat line","Under Bridge, Mohba Bazar, Raipur","21.2585935","81.5895735",""
"ChIJAc3SyaXgKDoR_rUL_7b4KE0","Bharat Petroleum","India","21.27245509999999","81.5903149",""
"ChIJi23osAjeKDoRcBe7pz8ZIYs","Bharat Petroleum, Petrol Pump -Top Up Center","GREAT EASTERN ROAD, FLYOVER, Amanaka, Raipur","21.25277","81.5984972","true"
"ChIJX1hktQjeKDoRmXgOxQ2gwXA","Hindustan Petroleum Corporation Limited","Ground Floor, Great Eastern Road, Amanaka, Raipur","21.2512774","81.59853849999999","true"
"ChIJ5wShzsLhKDoRax_E_TumVfo","Bharat Petroleum, Petrol Pump -Raipur Madras Roadlines","Ring Road Number 2, Bhanpuri, Raipur","21.275938","81.5975244",""
"ChIJHahrBPLgKDoRP9SSpvnlbl0","IndianOil","Ground Floor, Urla Road, Tendua","21.295212","81.571491","true"
"ChIJ_SLuRk7dKDoRWQrgDIQYecw","IndianOil","Ground Floor, Kota, Raipur","21.2519027","81.60850289999999","true"
"ChIJIeQTs67dKDoRQFbmtj9wpAI","Bharat Petroleum Petrol Pump , SUYASH FUELS","KOTA, Gudhiyari Main Road, Raipur","21.2592143","81.60857419999999","true"
"ChIJid7OYBEhKToRmlURxz3_4SM","Hindustan Petroleum Corporation Limited","Durg, Khasra No 357/6 Dhamdha, Rampur Chorha","21.25403679999999","81.5078793","true"
"ChIJT1NxXw4gKToRVoz_WgTeIGA","Jio-BP","6GW4+4VQ, Great Eastern Road, Kumhari","21.2453446","81.5072428","true"
"ChIJ0ZMAy2UhKToRm9CK_VAPF-E","Hindustan Petroleum Corporation Limited","Khasra No 30/3, 30/6 30/4 & 29/1, Dhamdha Road, Kumhari","21.2441638","81.5058997","true"
"ChIJJdDtBU3nKDoR3a76JSib5hw","Hindustan Petroleum Corporation Limited","Ground Floor, Ring Road Number 2, Gogaon, Raipur","21.280171","81.605732","true"
"ChIJ-yrsw9nnKDoRNymLo_IPNMs","Shanvi Fuels","Ring Road Number 2, Gogaon, Raipur","21.2802906","81.6060275","true"
"ChIJYQCilxEgKToRf_HHf7f9YV8","Hindustan Petroleum Corporation Limited","Ground Floor, near DMC, NH 6, Kumhari","21.244077","81.5027662","true"
"ChIJZ8QNK4YhKToRwYad0vIsKoA","Bhawani Service Station","Bhawani Service Station, NH 53, Great Eastern Road","21.2439459","81.50267889999999","true"
"ChIJ423DVpbhKDoRy3OqZlnYQNs","Jio bp petrol pump new","Sarora, Tendua","21.2966999","81.5917709",""
"ChIJDfQAjk7nKDoRuCL0X2Ok5AY","IndianOil","Ring Road Number 2, Gondwara Basti, Raipur","21.281786","81.609543","true"
"ChIJwcvhUA3dKDoRUp4KlJYGEkc","Hindustan Petroleum Corporation Limited","Ground Floor, Kota Road, Ramnagar, Raipur","21.251111","81.61954399999999","true"
"ChIJTSK3D0DnKDoRU49ziJAOGq0","Shubh Petroleum fuels","Ground Floor, Gondwara Basti, Raipur","21.2867579","81.6061612","true"
"ChIJEQrL07chKToR-9Yu4U5tBWY","IndianOil","Ground Floor, NH 6, Janjgiri, Kumhari","21.2426341","81.49749489999999","true"
"ChIJ4wcumxYgKToRMB-XwcsQW80","TCI PUMP","H-1/318, Nagpur - Bhandara - Rajnandgaon - Raipur Highway, Kumhari NP Part","21.24319329999999","81.49725169999999","true"
"ChIJ4dMacRLnKDoRxNFNDsA-3cs","Dammani petrol pump","National Highway 200, Bhanpuri, Raipur","21.2950105","81.63595889999999","true"
"ChIJN9aUH1LdKDoR3-1qKRRBjgo","Indian Oil Petrol Pump","VIP Colony, Raipur","21.25940869999999","81.68576829999999","true"
"ChIJdSf4VRvnKDoRNKHsLBl37_o","Hindustan Petroleum Corporation Limited","Ground Floor, Bhanpuri, Raipur","21.3088601","81.63623009999999","true"
"ChIJqUO_ff3mKDoR_nIMQFkmNDc","Bharat Petroleum, Petrol Pump -BP-Raipur","8J8Q+5H7, RAVABHATA (TRANSPORT N, Transport Nagar, Birgoan, Raipur","21.31496","81.63886719999999","true"
"ChIJVdnKagXdKDoRkmnU_ZWo5os","MASIH FUELS","02, Raipur","21.2484516","81.6303777",""
"ChIJFS6nB5LdKDoRhL6KhyYSxjs","Popular Petrol Supply Co","Plot No:204, Station Road, Opp Hotel Panchsheel, Karveer","21.2551492","81.6303858",""
"ChIJgy5fvpTdKDoRcdN8dedC9qU","IncanOil","India","21.2479416","81.6266358",""
"ChIJhQTZgZbdKDoRlPPfGIO6j-w","Indian Oil","6JXG+3P5, near SBI Bank ATM, Jawahar Nagar, Raipur","21.2476362","81.6268559","true"
"ChIJj_TADyrdKDoRFwod_J5ZcTQ","IndianOil","Ground Floor, Postal Colony, Tikrapara","21.2473727","81.62642149999999","true"
"ChIJcxnTeADdKDoRX5rpl0oCkCo","रायपुर छत्तीसगढ़","6JWG+FHV, Agrasen Chowk, Raipur","21.2462257","81.626418",""
"ChIJuXyez_LdKDoR-srzwvl4PAg","Hindustan Petroleum Corporation Limited","PH No 107, Khasra No 1144, near Pahari Chowk Road, 5 & 1144/2, Kal Bada, Sukrawari Bazar, Gudhiyari","21.2570333","81.62481059999999","true"
"ChIJ09phCADdKDoRLTI55cjmABo","Body care spa","2 floor, siddha chashma dukaan body care spa, chowk, Station Road, Fafadih, Raipur","21.2565802","81.63503879999999",""
"ChIJ-ajU74_dKDoR4QjnwA9DUTs","Daga Petrol Pump","Station Road, Nahar Para, Station Road, Moudhapara, Raipur","21.2565128","81.63569609999999","false"
"ChIJsRDdzo3dKDoRf9u9b0liq30","IndianOil","Ground Floor, Fafadih Chowk, Raipur","21.256722","81.63650299999999","true"
"ChIJL6dwjpvdKDoRQk1hTWwcebg","Hindustan Petroleum Corporation Limited","opposite Medical College, Ground Floor Medical College Road, opposite Medical College, Jail Road, Raipur","21.251845","81.6410104","true"
"ChIJ26ngEovdKDoROYvvaqgvbOg","SHRI RAMDEV OILS","India","21.2626013","81.62733159999999",""
"ChIJtSJ_KprdKDoREeMmFtaaQ4E","Hindustan Petroleum Corporation Limited","Ground Floor, opposite Secretariate, Great Eastern Road, Raipur","21.24576009999999","81.6405901","true"
"ChIJb0N1yT_dKDoRS5agkHz1xkY","Hindustan Petroleum Corporation Limited","Ground Floor, opposite Secretariate, Jail Road, Raipur","21.245881","81.641571","true"
"ChIJpRtK4JXdKDoRv55qt_6ygOc","IndianOil","Ground Floor, Palari, Raipur","21.263191","81.63732399999999","true"
"ChIJURYlhe7nKDoROK5h_2OvIF0","IndianOil","Ground Floor, near Railway Station, NH 30, Gudhiyari Road, Shrinagar, Raipur","21.2696534","81.6326905","true"
"ChIJmZ0478ndKDoRPcY4FY6LYtY","Hindustan Petroleum Corporation Limited","Ground Floor, Great Eastern Road, Civil Lines, Raipur","21.243491","81.648071","true"
"ChIJm-ewfffnKDoRloEB35qshmY","Bharat Petroleum, Petrol Pump -Babla Brothers","Rawabhata, Industrial Area, Bhanpuri, Raipur","21.276583","81.6363301",""
"ChIJn3Gjx5PdKDoRAPiLbGXhBCQ","IndianOil","Lock No 11011/93008 Vidhan Sabha Road, Pandri, Chowk, Lodhi Para Kapa, Raipur","21.262077","81.659103","true"
"ChIJy3r1XGPdKDoRX_-ZNbv-4-I","Hindustan Petroleum Corporation Limited","Ground Floor, near Railway Crossing, Vidhan Sabha Road, Pandri, Raipur","21.263181","81.659421","true"
"ChIJFT6eUmzdKDoRr7_aXwnrDDU","Hindustan Petroleum Corporation Limited","Ground Floor, Kachna Pahuch Marg, Shankar Nagar, Raipur","21.25102499999999","81.663411","true"
"ChIJwXFLyn3CKDoRNdSeokvko3I","Hindustan Petroleum Corporation Limited","Khasra No 120/2, 121/1 123/1 & 124/1, Ring Road Number 3, Pirda-2","21.2651904","81.73764829999999","true"
"ChIJO-tSdDvoKDoRZfpd9fLLJ80","SPEED FUELS, BHARAT PETROLEUM","7PP9+CRP, Vidhan Sabha Flyover, Ama Seoni","21.2860764","81.7195818","true"
"ChIJjbpLYjToKDoRafu4a4FcE1k","Aadarsh Fuels (BPCL Petrol Pump)","BPCL Retail Outlet, State Highway 9, Nardaha","21.2906639","81.73218729999999","true"
"ChIJpb0FhjjCKDoR62bcfBxdIgs","IndianOil","Ground Floor, Tulsi -2","21.240801","81.757701","true"
"ChIJUduu7zjCKDoRYDfB0TW-SxY","Hindustan Petroleum Corporation Limited","Ground Floor, Ring Road Number 3, Tulsi -2","21.2420524","81.7582307","true"
"ChIJP_drIrndKDoRbQ-uDsif23A","SHRI BALA JI FUEL STATION","in front of rawan statue, near bandwa talab, Kachna Road, Raipur","21.2599414","81.6862653","true"
"ChIJab07XqbCKDoRLikGoEq3YWU","Hindustan Petroleum Corporation Limited","Ground Floor, Kachna Road, Raipur","21.2664301","81.7046601","true"
"ChIJKce4da7dKDoR76z1PW6gTko","Atul Rubber Processors Pvt Ltd","VIP Colony, Raipur","21.2639434","81.6810399",""
"ChIJccJJa4vdKDoRLxhUMe87oEc","M/s JESRAJ FILLING POINT, BPCL","7M6G+HXC, VIP Road, Shankar Nagar, Raipur","21.2614401","81.6773994",""
"ChIJgzMIqYTdKDoRKv-oWltB-i8","Surya Fuels Petrol Pump (Bharat Petroleum)","7M4G+23P, Kachna Road, Bhawna Nagar, Shri Ram Nagar, Anupam Nagar, Raipur","21.2550813","81.6752082","true"
"ChIJrTO_0wDoKDoRKifcsTRwwFM","Hindustan Petroleum Corporation Limited","PH No 109, Khasra No, 432/1, Raipur - Baloda Bazar Marg, Raipur","21.2758683","81.6934455","true"
"ChIJkQyZ7PPnKDoRIfHVjCdwfP4","Gurudev Fuels, BPCL Petrol Pump","Mowa, Vidhan Sabha Road, Mowa, Raipur","21.2706253","81.67871749999999","true"
"ChIJDz3m5gToKDoR1RFhtfswkwk","IndianOil","Ground Floor Kharara, Vidhan Sabha Road, Saddu","21.27889099999999","81.70057469999999","true"
"ChIJXzmovEPpKDoRZaPd31MUt3E","Hindustan Petroleum Corporation Limited","Ground Floor, Vidhan Sabha Road, Ama Seoni","21.28040099999999","81.70449099999999","true"
"ChIJ9Z-qx-rdKDoR5mjRHAVizSQ","SANT SADHNA SYSTEMS","Ph No 63, KH. No. 480/52, 480/29, Raipur","21.2512919","81.6676334","true"
"ChIJYbv6CrfdKDoRIsA8jp3kYdY","A.B Fuels","Dubey Colony, Mowa, Raipur","21.2674866","81.67016799999999","true"
"ChIJZ-LdRvbfKDoRM7c22XbT0so","IndianOil","Ward No 7, Municipal Corporation, Daldal Seoni","21.2754803","81.67511089999999","true"
"ChIJqdPpyN_dKDoR5W5MtZKs5tk","Siddhivinayak Purti","AT Plaza, near Andhra Bank, Kachna Pahuch Marg, Geetanjali Colony, Shankar Nagar, Raipur","21.251507","81.6639438",""
"ChIJXYCxqCPoKDoRj6yoyhJuFmo","IndianOil","Ground Floor, Sankari","21.27652969999999","81.7234617","true"
"ChIJobkNiF_pKDoRE2XXCxVgfro","Bharat Petroleum Petrol Pump , LALIT FUELS","RR3,SAKARI, Raipur","21.277393","81.72245699999999","true"
"ChIJ5YEeJj3oKDoRUJl2OYRHVS4","IndianOil","Ground Floor, beside Police Housing Board Colony, Vidhan Sabha Road, Ama Seoni","21.2839969","81.71561779999999","true"
"ChIJOQzYJwDnKDoREcGgMbmCyhc","Swasti Fuels IOCL","7MGC+FC5, Daldal Seoni Main Road, Avani Vihar, Mowa, Raipur","21.2761275","81.6711181","true"
"ChIJRw4hgCPpKDoRvtmNtnJgI9c","Hindustan Petroleum Corporation Limited","Ground Floor, Ring Road Number 3, Barauda","21.2916933","81.7085549","true"
"ChIJ6csNnf7pKDoR9LlZw48fFEQ","Sahu Fuels","7PR5+V68, Barauda-1","21.29215869999999","81.7080866",""
"ChIJz3TYJVzpKDoRoTKG-4LoYaI","IndianOil","Ground Floor, Baroda, Raipur","21.294791","81.703378","true"
"ChIJ8UsesEvpKDoRJOVGIVWyDb4","Reliance Jio-bp Petrol Pump, Ring Road 3, Raipur","7PW2+QV, Ring Road Number 3, Barauda","21.2969375","81.7021875","true"
"ChIJDR4OoknhKDoRC3VYNP3slQU","Hindustan Petroleum Corporation Limited","near Urla, Khasra No 107/8 & 154/1 Urla Belra Road, Urla, near Urla, Industrial Area, Patharidih","21.33886459999999","81.5964729","true"
"ChIJjQEyL8zhKDoRWqY_0DcsJg4","Hindustan Petroleum Corporation Limited","Ground Floor, Guma-2","21.311387","81.563527","true"
"ChIJDcALj0nnKDoRN8e8_FfIc38","RKB ENERGY AND FUELS","near bajrang power, New NH30 Tatibandh to dhaneli, near bajrang power, Bendri Road, Urla","21.3193882","81.5990667","true"
"ChIJE3KxFSzhKDoRPF87mmHvqP4","Indian Oil","India","21.3200992","81.59916779999999",""
"ChIJFYn-wPzhKDoRE_NMtMgNTxM","Hindustan Petroleum Corporation Limited","Ph No 101/29, Kh No 38/1 & 38/2, Borjhara","21.304624","81.594872","true"
"ChIJZ3QxWlvhKDoR-KBEGTjaFjU","IndianOil","Ground Floor, Berla, Kandarka","21.348607","81.5874755","true"
"ChIJV9nmWADjKDoR5SU4gxul7gI","lGD buildcon","9G6X+52, Lata","21.360457","81.547591",""
"ChIJb_aHFADnKDoRNseerx1vIQk","NAMOKAR FULES URLA","Infront of shourya plywood, 44/26, Acholi, Urla","21.3203342","81.6069782",""
"ChIJfZZt4HPhKDoRoigdtBmula0","Anika fuels","9H4P+XW, Kandarka","21.3573883","81.58731999999999","true"
"ChIJo-eAJnLnKDoRAzE4GUcqjT0","IndianOil","Ground Floor, Singhania Chowk, Urla","21.3100142","81.60999540000002","true"
"ChIJ974lurHnKDoRpwIakesg_6I","Sangeeta fuels Pump Birgoan Karma Chowk","8J56+W39, Urla Industrial Complex, Birgoan, Raipur","21.3097896","81.61024599999999",""
"ChIJW-5Q2zTnKDoRRoRhbbDi168","HP PETROL PUMP - B. S. FUELS PATHARDIH","Pathardih, Urla Vill-pathardih Urla Belra Road, NR. Urla IND. Area., Raipur","21.3071271","81.61926609999999","true"
"ChIJhxDqxmTnKDoRjdLyn2_lEM8","Hindustan Petroleum Corporation Limited","Ground Floor, Industrial Growth Centre, Urla Road, Birgoan, Urla","21.3071174","81.6192727","true"
"ChIJf91e5IbnKDoRoUq1dCr5ChE","Bharat Petroleum","8JMC+XPX, Kanhera","21.3349899","81.6218438",""
"ChIJP6l7eQfnKDoRkpkKPKIj_e4","Akash Gas indane","9J47+7FH, Kumhari-1","21.3556908","81.6137426",""
"ChIJe20a3fnnKDoR581XXdP0lQ8","Suraj Enterprises","Banjari Nagar, Birgoan, Banjari","21.315131","81.6301581",""
"ChIJsQ3S6UDnKDoR6kok1-KqNdU","IndianOil","Ground Floor, Ring Road Number 2, Gondwara Basti, Raipur","21.2884254","81.62150419999999","true"
"ChIJDennscvnKDoRA0YYCmP6Fto","Praveen Petroleum","near Shanta Sweet, Bhanpuri Main Road, Raipur","21.3121703","81.63171",""
"ChIJFczUEQDnKDoRilpwgfBg2Z8","Simran Fuel","Juneja Complex, Ring Road Number 2, Urla Industrial Complex, Bhanpuri, Raipur","21.2918673","81.6285997",""
"ChIJGfXqt-vnKDoR1ZDbkhzB6Oc","Raipur Madras Lubricants","7JRH+FH4, Bhanpuri, Raipur","21.2911444","81.6289608",""
"ChIJe4-jat_lKDoRmIWX-hkM_hg","Hindustan Petroleum Corporation Limited","Ground Floor, NH 30, Raipur - Bilaspur Expressway, Siltara","21.36495499999999","81.665177","true"
"ChIJBzLi2N7lKDoROB3GXr55T-8","IndianOil","Ground Floor NH 30, Siltara","21.3665961","81.66485469999999","true"
"ChIJNdxvmv3mKDoR_YoEyVdvoYY","BABLA AND BROTHERS","8J8Q+8WR, Transport Nagar, Birgoan, Raipur","21.3158647","81.6397667",""
"ChIJMYx1TADnKDoRTJKDXWxAQM8","Sarna","8J7Q+HJG, Bilaspur Road, Rawabhata, Industrial Area, Bhanpuri, Raipur","21.3139445","81.639082",""
"ChIJZ-KsUPnmKDoR4cl03dA_jX4","IndianOil","Ground Floor, Tikrapara","21.321601","81.642001","true"
"ChIJV95ztprnKDoRQOu5n29GZ4Y","Bharat Petroleum, Petrol Pump -V. K. Damani & Co","Mowa Railway Over Bridge,Raipur,Chhattisgarh, State Highway 9, Bhanpuri, Raipur","21.309846","81.6359871",""
"ChIJRwfaY-HlKDoRtSVSAKkqyOo","IndianOil","Ground Floor, Bilaspur Road, Rawabhata, Birgoan, Raipur","21.3256974","81.64332089999999","true"
"ChIJv4Hpqh3nKDoRWjSYeF5kOFc","Bharat Petroleum, Petrol Pump -Top Up Center","Rawabhata, Industrial Area, Bhanpuri, Raipur","21.308692","81.6363627",""
"ChIJ8XH49rTnKDoRKLO3iaMyxOs","IndianOil","Ground Floor, Metal Park, Road, Rawabhata, Raipur","21.3313689","81.64140599999999","true"
"ChIJeZTmDPfmKDoRdHsqyhucD0I","IndianOil","Ground Floor NH, Road, Rawabhata, Bhanpuri, Siltara","21.328501","81.644001","true"
"ChIJl3FCvfznKDoRuxie-0KSsKk","Maruti Fuels","8MP2+GHH, Ring Road Number 3","21.3363135","81.651484",""
"ChIJy7WFiw3nKDoR1NXZhcs781o","Hindustan Petroleum Corporation Limited","Ground Floor, near Bhanpuri, Bilaspur Road, Chowk, Raipur","21.2953623","81.6366899","true"
"ChIJUV5Hn3LnKDoRLWdb4pVsoh8","Hindustan Petroleum Corporation Limited","Ground Floor, Bhanpuri, Raipur","21.289441","81.63676099999999","true"
"ChIJgaZY-EbmKDoR7dWWz9SEgIM","IndianOil","Ground Floor, Dharsiwa","21.3308301","81.6656258","true"
"ChIJDWG5-kbmKDoRe9_PZHjYhKk","Bharat Petroleum","8MJ8+M96, Ring Road Number 3, Dhaneli 1","21.3316525","81.6658953",""
"ChIJ0SV-BDnnKDoR99veM2gvO6I","IndianOil","Ground Floor, Ring Road Number 3, Giraud","21.3255088","81.67619499999999","true"
"ChIJxb-IYU_pKDoRg4jjNxmji_s","IndianOil","Ground Floor, Vidhan Sabha Road, Ring Road Number 3, Tekari-2","21.3194253","81.6851095","true"
"ChIJxRQ9RSvmKDoRR-smYmn-mnM","Hindustan Petroleum Corporation Limited","Ground Floor, Ring Road Number 3, Tekari, Mandhar","21.31811369999999","81.6864288","true"
"ChIJLdsfs9jlKDoRWQmt-bMCIVQ","Bharat Petroleum, Petrol Pump -A-1 Fuels","SILTARA(VILL-SANKARA),, Raipur","21.364625","81.6636296","true"
"ChIJ9Q0D3tbnKDoRZiSR2hCqj1o","IndianOil","Ground Floor Parsulidih, Outside Muncipal Limit, Raipur","21.308529","81.686844","true"
"ChIJkdwf2UDpKDoRG-MwyMNB29k","SMG Fuels","Tekari-2, Ring Road No.-3(Zora, Dhaneli bypass Road, Raipur","21.3115509","81.69142219999999","true"
"ChIJyb40uHLlKDoR00kjDuwU-vo","Nayara Energy Limited-Vardhan Fuels","Phase 2 Siltara, service road, Raipur","21.3711769","81.6660667","true"
"ChIJ687YsOrlKDoRx-rEkJDoBfY","Hindustan Petroleum Corporation Limited","No 387/3 & 387/7, NH 200, Raipur - Bilaspur Expressway, Charoda","21.3869746","81.66997649999999","true"
"ChIJG74RA7rpKDoReZcRih9pZIw","IndianOil","Ground Floor, Bhurkoni","21.313495","81.708052","true"
"ChIJSxw9DLrpKDoRxRXGrfSWpc8","IndianOil","Ground Floor, NH 130B, Kharora Road, Semariya-2","21.3127958","81.7378511","true"
"ChIJuez0EADpKDoRV_0mvZP0FpE","Reliance Jio BP Pump","Nardaha jila, Raipur - Baloda Bazar Marg, Semariya-2","21.302937","81.7367873",""
"ChIJRRusYKjpKDoRoGj8XiBKAog","IndianOil","Ground Floor, Donde Khurd","21.317501","81.744401","true"
"ChIJQy5tjG3pKDoR6crNi3KacAY","Hindustan Petroleum Corporation Limited","Ground Floor, SH 9, Raipur - Baloda Bazar Marg, Donde Khurd","21.322061","81.748761","true"
"ChIJA1ySFqrpKDoRpYwC3qHUDMU","Hindustan Petroleum Corporation Limited","Ground Floor Nardaha, Road, Pacheda-1","21.292571","81.740361","true"
"ChIJF8wi3OrpKDoRgebfeIo1Tk4","Bharat Petroleum, Petrol Pump -Shree Balaji Fuels","RAIPUR-KHARORA ROAD DOND, Raipur","21.3271607","81.75577679999999","true"
"ChIJcVzZzm3pKDoRSpo0FWZWoWU","IndianOil","Ground Floor, Dhamtari Road, Nawagaon, Raipur","21.335072","81.76122099999999","true"
"ChIJufN76oDlKDoRia2jM9V_r7E","Jio-bp","Survey No 434/1, 437/1 & 438/1, Dharsiwa","21.374107","81.6670801","true"
"ChIJf6zgId3lKDoReGwnNfNhiOE","Hindustan Petroleum Corporation Limited","Phz 2, CSIDC, No 527 & 531/7/P, Amenity C, NH 200, Raipur - Bilaspur Expressway, Siltara","21.374001","81.6662001","true"
"ChIJNduPGgDlKDoRA8Dre1jdoM4","SUPER FUELS SILTARA (BPCL)","9MG8+FJ, Akoli-2","21.37622829999999","81.6665517","true"