place_id,name,address,latitude,longitude,open_now
"ChIJBd1YZCZ3SjoRSJtpf0ZyNOQ","Hindustan Petroleum Corporation Limited","Survey No 39/1, NH 5, Chinakondrupadu","16.2329273","80.3166565","true"
"ChIJcVuI8RJxSjoRGkVw9DvNXuQ","Hindustan Petroleum Corporation Limited","Ground Floor, opposite Excise Police Station, Guntur Road, Prathipadu","16.1867348","80.3414568","true"
"ChIJGVHMegZxSjoRLz80qxxMc-w","IndianOil","Lock No T1/313/4, D No 116, Prathipadu","16.177892","80.33028999999999","true"
"ChIJmfXMJ591SjoRS99amQEsj1I","Hindustan Petroleum Corporation Limited","near Housing Board Colony, No 115/2, Nallapadu Road, Ankireddy Palem","16.2952459","80.40591090000001","true"
"ChIJ1SiypZ91SjoRjqpIN92OtJs","IndianOil","Lock T1/00000000473/4/5, No 4096, No 177, Nallapadu Road, Nallapadu","16.2947741","80.40809689999999","true"
"ChIJadnJq-B2SjoRueqBbJqb6Z4","Hindustan Petroleum Corporation Limited","Door No 778/1, National Highway 16, Prathipadu, Yanamadala","16.242689","80.3266192","true"
"ChIJrYSbY4h1SjoRLLQ-NDYPOto","IndianOil","SY No 65/A, Etukur","16.2565691","80.4202474","true"
"ChIJx8ZbDqV1SjoRqd9Ivsjt8CU","Hindustan Petroleum Corporation Limited","Ground Floor, NH 5, Service Road, Guntur","16.2827573","80.4015005","true"
"ChIJZWHidMB1SjoRJ5HOev6SvKk","Indian Oil","79RQ+454, Mahatma Gandhi Inner Ring Road, Nallapadu Rural","16.2902634","80.3879551",""
"ChIJPeg7QgB1SjoRbd7wjXVtPgc","Hp mabujani petrol pump janib","7C5C+CVW, Guntur","16.258721","80.422077",""
"ChIJn2svl_51SjoRqqk1YZnx928","Hindustan Petroleum Corporation Limited","Ground Floor, near Etukuru, Etukur","16.2586728","80.4222241","true"
"ChIJeUyFKKpxSjoRsG4aqkBT2JQ","Hindustan Petroleum Corporation Limited","Survey No, opposite Veterinary Hospital, 366/A1, Guntur - Prathipadu Road, Prathipadu","16.183482","80.33845099999999","true"
"ChIJ5_jzSQB1SjoREAFwXLsjnng","Nayara Petrol Bunk","88-103, Rotary Colony, Ankireddy Palem","16.28475509999999","80.4066835",""
"ChIJGzguMOB0SjoRnQDxn8E8O30","Arunachalam Bharat Petroleums PETROL BUNK","Etukuru Road, Guntur","16.2696825","80.4303912","true"
"ChIJ_yjYlFZ1SjoRlHwM6nP0y0M","HP","Bus Stop, Housing Board Colony Side, Guntur - Sattenapalli Road, APHB Colony, Nallapadu","16.2952214","80.40666329999999",""
"ChIJm_g_EicLSjoRm8jAyoOX-eg","Hindustan Petroleum Corporation Limited","Ground Floor, near Microwave Tower, NH 5, Service Road, Budampadu","16.2703915","80.469583","true"
"ChIJWbShBTh1SjoRJKO6OUoXuzg","PDR & Son Petrol Bunk","Patnam Bazar Road, Lalapet, Guntur","16.2909479","80.4424417","true"
"ChIJZ0CR8hR1SjoRgAELTVB48Ok","Bharat service station","Hpcl Dealers Near Medical Club OLD G.T Road,, Guntur","16.29139899999999","80.428579","true"
"ChIJO72KbxJ1SjoRtVEfewzjtYs","Hindustan Petroleum Corporation Limited","Ground Floor, near Medical Club, Old, Grand Trunk Road, Guntur","16.2915507","80.4285392","true"
"ChIJAUuW6jV1SjoRah5ztZtlIPY","A V Krishna Murthy & Sons - Best Bharat Petroleum Petrol Bunk in Guntur","D No 14-1-66 Stadium Road Opp Old Bus Stand, Guntur","16.2932981","80.4508216","true"
"ChIJ1VgMZEh1SjoRgqnbP7JDgGg","IndianOil","Ground Floor, Sambasiva Pet, Guntur","16.296856","80.444786","true"
"ChIJwRm6N7UKSjoRzPuvAvzjKq8","IndianOil","D No 151, Indian Bank Colony, Lock T1/405/6/9, Guntur","16.296478","80.455437","true"
"ChIJ1XWGwVx1SjoRR6AdOOoRLeQ","IndianOil","D No 154, Lock T1/415, 6/7/8, AMV Road, Guntur","16.306967","80.4364784","true"
"ChIJbbUuLIYLSjoRr-orcX8iHyQ","IndianOil","4/124, Guntur - Ponnur Road, Narakoduru","16.2305282","80.50997199999999","true"
"ChIJYYsbyXp1SjoRtUCzukBV5AM","Hindustan Petroleum Corporation Limited","Ground Floor, near Swami Theatre, Krishna Nagar, Guntur","16.3066676","80.42099639999999","true"
"ChIJ9W7DHLd0SjoRoalJxlWAwpY","IndianOil","Rs No 2, 1B, Guntur - Vatticherukuru Road, Ananthavarappadu","16.2444476","80.44451579999999","true"
"ChIJLW8syjR1SjoRnhMeGq-fLno","Venkata Sai Durga filling station, Ananthavarappadu","MDR31","16.2444173","80.4465026","true"
"ChIJR5awrNh0SjoRhAiNX3axW20","Bharat Petroleum BP Guntur","opp. hanumaan statue, Service Road, Guntur","16.2705435","80.43825149999999","true"
"ChIJh8sKAwB1SjoR1hl9gLdDjuY","Hindustan Petroleum Corporation Limited","Survey No 242, 1A, Service Road, Guntur","16.2713254","80.43556260000001","true"
"ChIJDyvODCF1SjoR08y6l7Z_WNw","IndianOil","Lock T1/357/8/9, D No 134, Nallacheruvu, Guntur","16.2751511","80.4360557","true"
"ChIJ3_Kc5SN1SjoRXQijYKq3dhA","Bharat Petroleum - AMARALINGESWARA FILLING STATION","India","16.2772953","80.43733",""
"ChIJsQbsybILSjoRitsWVSltkZw","IndianOil","Ground Floor, near Ankireddypalem, NH 16, Choutra, Y Junction, Guntur","16.26971","80.46668009999999","true"
"ChIJ70z6LxYLSjoR3kkhA6tRC_0","Bharat Petroleum","India","16.2573779","80.4778092",""
"ChIJEaTJH8oLSjoRLvUVlAFKqyk","IndianOil","Ward 33, near Guntur - Ponnur Road, No 1218/B1A, Muthyala Reddy Nagar, Guntur","16.2689352","80.4698141","true"
"ChIJQx2BI8gLSjoRnSGTA-_hH7w","Nayara Petrol & Diesel Station","7FJ4+8PP, Guntur","16.2803525","80.45666849999999","true"
"ChIJj-MoqrALSjoROMeMJzcuJNc","IndianOil","Survey No 80/1, Budampadu","16.2542568","80.4827756","true"
"ChIJ3VM85wx1SjoR65i2Lh4R4_8","IndianOil","Sy No 534, Bus Stop 19/7/87, 1 & 534/3, Ponnur Road, Sangadigunta, Guntur","16.281358","80.455072","true"
"ChIJkXX_cQB1SjoRVvvqRa2JQNg","Hindustan Petroleum Corporation Limited","Old D No 25, Survey No 13/2, New D 86/14, VIP Road, KVP Colony, Guntur","16.2877349","80.4253006","true"
"ChIJDbqIcl51SjoRjNRN4nRXB-M","Jio-bp KKR Agencies","near KKR Sai Nivya Theatre, Old, Mirchi Yard Road, Guntur","16.2885534","80.4195479","true"
"ChIJV4ptGQALSjoRX4aKAKEvrcA","Nayara Petrol & Diesel Station","6FVV+V32, Guntur","16.2446436","80.49263859999999",""
"ChIJCwfn0P91SjoRYbZuS5vx3BQ","Hindustan Petroleum Corporation Limited","Ground Floor, R Agraharam, Guntur","16.2909644","80.4424858","true"
"ChIJq0AbiXJ1SjoRo8E9jZ7IPsU","Hindustan Petroleum Corporation Limited","Ground Floor, near Mastan Dargah, Nagarampalem, Guntur","16.2917064","80.43973419999999","true"
"ChIJUzn6mYsLSjoRCNDIgcTQuxw","Sivakumar","161-3, Mallaiah Lingam Nagar, Ali Nagar, Old Guntur, Guntur","16.2874618","80.4588411",""
"ChIJK-_UbJ91SjoRSOM1dWJDmPU","BPCL","7CRH+F3V, 0 lane, Kodandaramaiah nagar, Guntur","16.291227","80.42768199999999",""
"ChIJ0wIE_HcjSjoRg_8usX2y5qU","IndianOil","Ground Floor, near Port Land, Fishing Harbour, Guntur","16.2920486","80.4277079","true"
"ChIJGfCFycN1SjoRWm1lxBwpqbM","Bharat Petroleum, Petrol Pump -Pioneer Oils","OPP HINDU COLLEGE GUNTUR, Guntur","16.2934439","80.4437164","true"
"ChIJZ-R5Dzh1SjoRzZm8rr9pwwU","Hindustan Petroleum Corporation Limited","Ground Floor, near Hindu College Road, Kothapeta, Guntur","16.29382099999999","80.443041","true"
"ChIJAZ_DMN51SjoRLTQ2VM3qqDc","IndianOil","Survey No 237, opposite K & M Hotel, Collector Office Road, Guntur","16.294125","80.440834","true"
"ChIJ3RejMFt1SjoRMAf3toqyFJA","HP Petrol bunk","D No 22, near Old Bus Stand, 4/17, Grand Trunk Road, Lalapet, Guntur","16.2929242","80.45061199999999","true"
"ChIJBbB0HlB1SjoRU0HtLB0LkiM","Rosaiah Bharat Petroleum","7CVX+FJ5, Pottur Vari Thota, Guntur","16.2936447","80.44912269999999",""
"ChIJMwX79-R1SjoRT_J3l4VuVKs","Bharat Petroleum, Petrol Pump -Lakshmi Oil Fillings","Nallapadu Road, Guntur","16.2929459","80.4204908","true"
"ChIJG-cO4lFzSjoRW3StnROfyYs","VIJAYALAKSHMI OIL TRADERS","331/c1, Valluru Road, Vatticherukuru","16.178192","80.44334719999999","true"
"ChIJ-bqw4s4LSjoRrS5ene8NheU","Hindustan Petroleum Corporation Limited","Ground Floor, opposite RTC Bus Stand, Nandivelugu Road, Guntur","16.2937378","80.45561169999999","true"
"ChIJbQGGCm11SjoRT2gvPD15BPQ","Nallagunta Arch","26-47-001,, Main Road, Nalakunta, Guntur","16.2963079","80.4230688",""
"ChIJI45hTthySjoRgdxoi7yiSHc","IndianOil","D No 125, Lock T1, 333/4/5, Vatticherukuru","16.1753221","80.4416552","true"
"ChIJs9szryQLSjoRJVi4esjzz70","PANCHAMI FUELS ( BHARAT PETROLEUM CORPORATION LIMITED)","SURVEY NO 140/B, Narakoduru","16.2372209","80.5014872","true"
"ChIJcxCuCewLSjoROR-Yk5V7iq0","Bharat Petroleum, Petrol Pump -Ch.L.Narasimham & Co","KAKANI ROAD GUNTUR, Guntur","16.2990592","80.45697229999999","true"
"ChIJSZ3ldAB1SjoRreCiRYrYpCY","Hindustan Petroleum Corporation Limited","TS No 91 & 92, 5th Lane, Dash 1, Brodipet, Guntur","16.3026182","80.43735149999999","true"
"ChIJMWadyO11SjoRoW0fh4VKrS4","N 1833 THE ANGALUR PRIMARY AGRICULTURAL CO-OP SOCIETY LTD","Venugopal Rao Nagar, opp. Apcob Bank, Guntur","16.3003344","80.411422",""
"ChIJ1y0_hMh1SjoRgmoQIqOTAkA","Brohith","Balaji Nagar, 62-54, 7th Line, Guntur","16.3055822","80.4372704",""
"ChIJlflkQtB1SjoRDyCwmoufzAw","NARUKULLAPADU PRIMARY AGRICULTURAL COOP CRIDIT SOCIETY LIMITED","near Iskon Temple, 2-67, NGO Colony, Guntur","16.3019315","80.41188749999999",""
"ChIJsyDHaAB1SjoRD6a71itMwXM","CNG bink","8C4P+MJ7, Guntur","16.30665249999999","80.4365402",""
"ChIJhXyBwVx1SjoR06HdXRNnF2Q","Raghu Oil Corporation","Door No 6, opposite Hollywood Theatre, 29-15, Koritepadu Road, Koritepadu, Guntur","16.3069836","80.4364973",""
"ChIJ77TroDcLSjoR1rPcBaxLeRc","IndianOil","beside PADAMAJA PETROL BUNK, 11a, Kakani Road, Sitaram Nagar, Guntur","16.3040164","80.4606544",""
"ChIJYYa0cogLSjoRqVXD8yggDk4","Hindustan Petroleum Corporation Limited","Ground Floor, Narakoduru","16.229086","80.5111154","true"
"ChIJkeAyKRUMSjoRI4vC0ALMYSM","Hindustan Petroleum Corporation Limited","Survey No 221, opposite Jaya Lakshmi Spng Mills, SH 48, Chebrolu","16.20731319999999","80.52208689999999","true"
"ChIJqUh91UgJSjoR4uEyPRo-304","IndianOil","Door No 131, Lock T1/349/50/1, Near Sangam Dairy, Vadlamudi","16.2382898","80.5607762","true"
"ChIJp-o21lELSjoR4qG8EGxWHhA","JIO BP Vejendla","to, Guntur -Tenali Road, Vejendla","16.2287816","80.5275411","true"
"ChIJ74HcvmwMSjoR8CklSLSItec","Surendra Filling Station Bharat Petroleum","SH-48, Guntur - Ponnur Road, Chebrolu","16.2113505","80.5196869","true"
"ChIJfSoTFzcMSjoRH4z-3uKpHdU","Nayara Petrol Bunk","5GRG+G52, Chebrolu","16.1912695","80.525381","true"
"ChIJb5TlOsUJSjoRv3_-mB_Rw9E","NAYARA ENERGY LTD , ESSAR OILS . DURGA OIL FILLING STATION","State Highway 261, Garuvu Palem","16.2414149","80.57112","true"
"ChIJE1-499ENSjoR-nUGq_LEKEY","IndianOil","S No 963, 2A 963, 2B Chebrolu, Brahmanakoduru","16.1760276","80.5334501","true"
"ChIJd_AP8IsKSjoRdA6jyXflBBQ","Bharath Petroleum","Guntur","16.3017265","80.4944759","true"
"ChIJJ2cGDZUKSjoRlnk2niAH5XQ","IndianOil","Survey No 581/1 Takkellapadu, Main Road, Balaramunipet, Guntur","16.2982115","80.478659","true"
"ChIJcb3YJeKJNToRKebm89p_JiE","IndianOil","D No 159, Lock No T1/428/9/30/1, Perecherla","16.315737","80.349749","true"
"ChIJt8Ddam2KNToR8EE3LhwpU5o","IndianOil","Door No 149, T1/400/1/2, Peda Palakaluru Road, Guntur","16.3284746","80.3896582","true"
"ChIJ4fnLpHt1SjoRts2HvHBxe-8","IndianOil","Lock T1/451/2/3, D No 168, Pattabhipuram, Guntur","16.3089503","80.4184416","true"
"ChIJqTc-JmN1SjoRyNbKi40SL68","Hindustan Petroleum Corporation Limited","Ground Floor, Brindavan Gardens, Guntur","16.3153927","80.4219883","true"
"ChIJKWGEJWN1SjoR87JTTSdjbZ8","IndianOil","Ground Floor, 3rd Lane, Guntur","16.3135964","80.42230649999999","true"
"ChIJyRat9aOKNToRPhxnS1UVToM","Bharat Petroleum","156/1, Amaravathi Road, Nagaral, Velangini Nagar, Guntur","16.3244716","80.4380481","true"
"ChIJL36FVAB1SjoRktKcig3tX6U","JAYAN ENERGY STATION","8968+2R5, Nallapadu Rural","16.3097843","80.36707489999999",""
"ChIJ7V3XCb2JNToRk-vlrN7uuhM","IndianOil","D No 74, Lock No T1/208/9/10, Perecherla","16.3149313","80.35865629999999","true"
"ChIJNQCvTPCJNToRB5tu8POg6MY","Bharat Petroleum భారత్ పెట్రోల్ బంక్","Brr Gardens, Palakaluru Road, China Palakaluru","16.3282138","80.3565007",""
"ChIJzXcX_x2KNToRVne1YzE6OOY","Hindustan Petroleum Corporation Limited","RS No 83/2 & 84/A2, China Palakaluru, Guntur","16.331365","80.366032","true"
"ChIJaaMjRBGKNToRaxal_2eRAcA","HP petrol bunk","Palakaluru Road, Guntur","16.3314405","80.3658643","true"
"ChIJydAUTH6JNToRCkXWLSrbSOg","Essar Petrol Pump","Hyderabad - Guntur Road","16.3310313","80.3330656","true"
"ChIJF846QNOJNToRh3qRNwAYrzY","Bharat Petroleum, Petrol Pump -KARTHIKEYA VENKATESWARA F/S, Perecherla","Perecherla Village Road, Guntur","16.3317174","80.3320225","true"
"ChIJEeqV-Xt1SjoRoMv3zzCEaF8","Shell filling station","8C87+823, Stambalagaruvu, Guntur","16.3161128","80.4127279",""
"ChIJ4RnnNYF3SjoRUeZ8M7JS7UE","Bharat Petroleum, Petrol Pump -Snm Fuel Park","DOKIPARRU ON SH50, Guntur","16.310472","80.31802499999999","true"
"ChIJBTpm-1R1SjoR9K3sfLGxxeY","IndianOil","Lock T1/451/2/3, D No 168, Pattabhipuram, Guntur","16.309558","80.415691","true"
"ChIJRyXWuBp1SjoR0Y4UEiTEa8w","SRI RAMASWAMY FILLING STATION","SRI RAMA SWAMY FILLING STATION, B-9,MAIN ROAD, OLD, Pattabhipuram, Guntur","16.3087116","80.41801029999999","true"
"ChIJHRtJltyJNToR5c1zP7Mi15E","HP Petrol Pump","88R9+73P, Guntur","16.3407063","80.31771599999999",""
"ChIJ7XqFhDaJNToRN4pO68jP16k","Hindustan Petroleum Corporation Limited","D No 354/1C SH 2, Visadala Road, Medikonduru","16.3411428","80.31658139999999","true"
"ChIJecNMj_CLNToRJYZV8mYVGT8","IndianOil","near RTO Office Road, Survey No 221/6AC1, Adavi Takkellapadu, near RTO Office Road, Peda Palakaluru","16.3372615","80.42016430000001","true"
"ChIJHd9NzZOLNToRGsNx_YQO0nU","Sai Filling Station","Inner Ring Road, Phase-2, Guntur","16.3384473","80.42473629999999","true"
"ChIJk04_N0x1SjoRiCFgQ52Usbk","Bharat Petroleum, Petrol Pump -Lakshmi Harihar Petroleums","H.H.MAHAL GUNTUR II TOWN, Guntur","16.3093987","80.4347373","true"
"ChIJpzBEeQB1SjoRyhTQ1P2qE5I","Hindustan Petroleum Corporation Limited","Survey No 517, Slash 1B, Naidupet, Guntur","16.3101069","80.43482639999999","true"
"ChIJ-zAIqGx1SjoRB5z6BHwVBUg","Hindustan Petroleum Corporation Limited","Ground Floor, opposite Water Tank, 4th Lane, Koritepadu, Guntur","16.3086967","80.43556","true"
"ChIJeah2J6GKNToRO20ebzJj31c","Hindustan Petroleum Corporation Limited","Ground Floor, Amaravathi Road, Gauthami Nagar, Guntur","16.3203656","80.4374074","true"
"ChIJw9VS_KUKSjoRA2HVrHJ_bYk","Hindustan Petroleum Corporation Limited","Ground Floor, Varappadu, Guntur","16.3127725","80.46659199999999","true"
"ChIJIezbVl_1NToRm5C1lx4Goqc","Reliance Petroleum","D No 8, near Auto Nagar, 24/61, Mangalagiri Road, Gaddipadu, Autonagar, Agatavarappadu","16.3192818","80.47218579999999","true"
"ChIJq7Ely1_1NToRURgbEusetg8","Hindustan Petroleum Corporation Limited","Survey No 131, near Indira Cooperative Society, 1/A/2 Phase 1 & 2, Autonagar Road, Agatha Varappadu, Guntur","16.3211249","80.4750919","true"
"ChIJ4zn7mmD1NToRYYa5k6EYpXY","P. S. Rao Fuel Products - Bharat Petroleum","3rd LINE, Autonagar, Agatavarappadu","16.3228663","80.4780117","true"
"ChIJWVwMRlyLNToRUjKnT1pkLQc","Hindustan Petroleum Corporation Limited","Survey No 282/2, Inner Ring Road, Reddypalem, Guntur","16.3284739","80.4483262","true"
"ChIJAZud7Lb1NToRarxL1UpKZ7Y","Bharat Petroleum - Baba Oil Corporation","Guntur","16.3266734","80.4557701","true"
"ChIJEwdRfi-LNToRySkmY9CKH3I","Hindustan Petroleum Corporation Limited","D, No 130/13, Amaravathi Road, Annapurna Nagar, Gorantla, Guntur","16.3351326","80.43869","true"
"ChIJLe7SB0P1NToR4xNmbTZhicA","Hindustan Petroleum Corporation Limited","Ground Floor, near Pedakakani, Mahatma Gandhi Inner Ring Road, Agatha Varappadu, Agatavarappadu","16.3245586","80.4635018","true"
"ChIJfyLtpX4LSjoR_A9KEexdp8Q","MRS FILLING STATION","National Highway 16 Service Road, Autonagar, Guntur","16.3175664","80.4840849","true"
"ChIJJ6DeOvwLSjoR233x1Zy2Tiw","IndianOil","near Autonagar Road, No B 43, National Highway 16, Agatha Varappadu, Pedakakani","16.3154799","80.4827153","true"
"ChIJ9ZxydQD1NToREvKa0izpk-Y","Bharat Petrol & Diesel Station","3, Autonagar, Pedakakani","16.3257436","80.48237979999999","true"
"ChIJVapG2XH1NToR-GL5SJG8Zrc","Hindustan Petroleum Corporation Limited","Ground Floor, NH 5, Pedakakani","16.3353601","80.4885201","true"
"ChIJgw3fEiD1NToRAjcOmEMJPbk","Fuel Point","Food And Cafe, Road, Pedakakani","16.3198643","80.47335009999999",""
"ChIJ108tsl71NToRNAtPHUQZRis","Sesha Sai Bharat Gas Company Godown","8FFC+GQR, Agatavarappadu","16.3238632","80.4718934","true"
"ChIJ2zSh-I71NToRDKHioziOlGE","IndianOil","near Chillies Dhaba, Mahatma Gandhi Inner Ring Road, Agatha Varappadu, Agatavarappadu","16.324086","80.46745349999999","true"
"ChIJzySX4Uj1NToRGwFgQpmrxRY","Bharat Petroleum, Petrol Pump -Swathi Fuel Station","KOPPURAVURU, Guntur","16.362501","80.50098369999999","true"
"ChIJ24O9Qyf1NToRWStgnjM4n48","IndianOil","Back Gate, opp. Ramakrishna Venuzia Road, Road, Kaza","16.3716543","80.5355311","true"
"ChIJz5xaMn2LNToRhh0UsA33zR0","Petrol Pump","Amaravathi Road","16.4077909","80.4213153",""
"ChIJM7Q_L16PNToROEc1LO8E3qU","Bharat Petroleum Petrol Pump , ANNAPURNA OIL FILLING STATION","210/ARAVELA, Guntur","16.416945","80.355036","true"
"ChIJ55pxJGCLNToRNrX7yBA4r7E","Fuel Station","Survey No 61/3A1A, Sub Station, near Tadikonda, Amaravathi Road, Tadikonda","16.4044118","80.42254090000002","true"
"ChIJGRcVN_yLNToRQXGnoTIP0VM","Hindustan Petroleum Corporation Limited","Survey No 123/1, Guntur - Amaravathi Road, Lam","16.3751235","80.4323564","true"
"ChIJ8z24DtCLNToRyvam91gO9Y0","IndianOil","Ground Floor, near Lodge Center, Amaravathi Road, Gorantla","16.3547933","80.43660919999999","true"
"ChIJ-YOCUuCLNToRbZ7Tyq_dWVQ","Kommineni Filling Station BPCL","opposite Hosanna Mandhir, Amaravathi Road, Gorantla","16.3499844","80.4377188","true"
"ChIJJdusLq-MNToRTJ5hZVcMadI","Hindustan Petroleum Corporation Limited","D, 142/3, Tadikonda - Rayapudi Road, Swarajya Nagar, Tadikonda","16.4162892","80.44485739999999","true"
"ChIJD12C6q_2NToRrK2fdB-H9XA","IndianOil","Lock No T1/360/1/2/3, D No 135 Chinakakani L, Colony, Mangalagiri, Apsp","16.4058558","80.5534971","true"
"ChIJra_Kplv3NToRy0c9S1QH_cI","Hindustan Petroleum Corporation Limited","opposite NRI Hospital, Survey No 236/1A1 GT Road, Mangalagiri, opposite NRI Hospital, Chinnakakani","16.4143191","80.5600961","true"
"ChIJgeo0n6bxNToRjXzIKzaN71Q","Bharat Petroleum Corporation Limited - Sree Bharathi Filling Station","opposite Cricket Stadium, Nidamarru Road, Mangalagiru","16.4314065","80.5547461","true"