place_id,name,address,latitude,longitude,open_now
"ChIJW3r9GTjxNToRpIEV38ZLU0Y","Indian Oil - Mangalgiri Indane","masjid street, Mangalagiru","16.4311049","80.5671557","true"
"ChIJDw0jhkfxNToRi4MvbG583cI","IndianOil","D No 187, Lock, T2/1/2/3/4, Colony, Mangalagiru","16.430279","80.565777","true"
"ChIJ23w8G0jxNToR4JN-BnrYNXg","Hindustan Petroleum Corporation Limited","D No 7/380, Trunk Road, Mangalagiru","16.428394","80.56588099999999","true"
"ChIJ1fbSKFHwNToR6cGOPFWXfL0","Hindustan Petroleum Corporation Limited","Ground Floor, beside Vijayawada Retail Regional Office, Mangalagiri Road, Tadepalle, Guntur","16.4717734","80.5965717","true"
"ChIJHf8Cn0_3NToRo9Ajq7-rLrc","Hindustan Petroleum Corporation Limited","Ground Floor Mangalagiri, Tenali - Vijayawada, Nutakki","16.4087921","80.61914809999999","true"
"ChIJQWD4127wNToRfVcaAyxKg-A","Hindustan Petroleum Corporation Limited","Survey No 95/1, National Highway 16, Tadepalli, Guntur","16.4800299","80.6172966","true"
"ChIJqa81bwDxNToRbtBqk4VWFFg","Battalion Petrol bunk","CHQM+72X, Atmakur","16.4382465","80.5826129",""
"ChIJOfSrDBvxNToRc1DHjpXKSH8","IndianOil","D No 1, Lock No, T1/403/4, APSP Colony Road, Mangalagiru","16.4323947","80.5826845","true"
"ChIJ-1wHE5HxNToR7ndkcjWL95E","Indian Enterprisse","CHHH+PMV, Mangalagiri Flyover, Atmakur","16.4293587","80.5791636",""
"ChIJ8dzLK-3xNToR3J6m9ZvTi50","Hindustan Petroleum Corporation Limited","22, 26 & 27, Survey No 220/3, Plot No 21, Mangalagiru","16.4289302","80.5741271","true"
"ChIJw0SCdjDxNToRdDn2ZD6Hbyk","VKD Vinay H P Filling Station","CHHG+74M, Balaji Nagar","16.4282013","80.5752949","true"
"ChIJGfUVESHxNToRlqR0UKRD6lo","Hindustan Petroleum","Tenali Road, Mangalagiru","16.4271449","80.577052","true"
"ChIJM4kvHGnxNToRE6hPcSvPccA","Bharat Petroleum, Petrol Pump -Ch.L.Narasimham & Co","Vijayawada - Guntur Highway, Mangalagiru","16.4240723","80.57604839999999","true"
"ChIJl--LDZ_xNToRdzCu8JXwLmw","Hindustan Petroleum Corporation Limited","Survey No 372, APSP Cooperative Society, APSP 6th BN Road, Vaddeswaram","16.446429","80.594701","true"
"ChIJ6zFZKN_xNToROovevrdJnaU","IndianOil","near Coca Cola Company Bus Stop, 50/C2C, Tenali Mangalagiri Rd Atmakuru, near Coca Cola Company Bus Stop, Pedavadlapudi","16.4183363","80.5911704","true"
"ChIJgeo0n6bxNToRjXzIKzaN71Q","Bharat Petroleum Corporation Limited - Sree Bharathi Filling Station","opposite Cricket Stadium, Nidamarru Road, Mangalagiru","16.4314065","80.5547461","true"
"ChIJMRzpZFPxNToRCnxmf6OcTSw","IndianOil","Ground Floor, near Sai Baba Temple road, Service Road, APSP Colony, Navuluru","16.456538","80.5661057","true"
"ChIJra_Kplv3NToRy0c9S1QH_cI","Hindustan Petroleum Corporation Limited","opposite NRI Hospital, Survey No 236/1A1 GT Road, Mangalagiri, opposite NRI Hospital, Chinnakakani","16.4143191","80.5600961","true"
"ChIJ029wE1XwNToRT3ZumU-VZck","Bharat Petroleum Petrol Pump , SAROJA SERVICE STATION","SY.NO 335/1BMANGALAGIRI, Prakasam Barrage Road","16.465696","80.590209","true"
"ChIJD12C6q_2NToRrK2fdB-H9XA","IndianOil","Lock No T1/360/1/2/3, D No 135 Chinakakani L, Colony, Mangalagiri, Apsp","16.4058558","80.5534971","true"
"ChIJiZfrYI3xNToRSRM4x-w2w6A","IndianOil","Survey No, 307 & 308, Tadepalle, Guntur","16.471151","80.5957139","true"
"ChIJmYkYAgDxNToRod-c8H0u-_A","Indian oil petrol bunk","FHCW+F78, Tadepalle, Nulakapeta","16.4711508","80.5957172",""
"ChIJj-GfT-3xNToRwzdTzUiN34o","HP petrol pump, COCO tadepalli","FHCW+MJ8, Tadepalle","16.4716646","80.5965701","true"
"ChIJ5ZLdzZvxNToRtBMe7tLSKig","Hindustan Petroleum Corporation Limited","Survey No 168/3, Old GT Road, Polkampadu, Guntur","16.4830928","80.598782","true"
"ChIJp5KQyb7xNToRkJkmn600kwU","IndianOil","Door No 139, Lock No T1/372/3/4, Guntur","16.480157","80.6181287","true"
"ChIJw1XLTzjwNToR5bbneSD5Z6w","Hindustan Petroleum Corporation Limited","Ground Floor Tadepalli, near Undavalli Centre, Guntur","16.490316","80.601402","true"
"ChIJ0YB5ulr3NToREq-_j4eI3zw","IndianOil","Harika jr college, road, Revendrapadu","16.3952415","80.6248025","true"
"ChIJF_SjRRnxNToRZE9CdpEiEUE","Akhil","opposite Guntur, 12-643/11, 18 Road, Tadepalle, akhil, Mahanadu","16.4892999","80.6128123",""
"ChIJiYLWl5L5NToRXuddCT_WcWs","ASR Filling Station","CJ6Q+RJ, Nutakki","16.4121248","80.6390448","true"
"ChIJB9ERI875NToRYgI7hoSlwow","IndianOil","Ground Floor, Mangalagiri, Nutakki","16.41238","80.639703","true"
"ChIJ_YJxfBD7NToRao9r5nBNdwU","Bharat Petroleum","FMMQ+2CP, Vijayawada Road, Kanuru","16.482591","80.6885937","true"
"ChIJbY10XNn6NToR9VXjaJ3eVO8","IndianOil","Lock No T1/183/4/5, D No 64, Autonagar, Venkata Ram Nagar, Kanuru, Kanuru","16.4816979","80.6930227","true"
"ChIJ-5AuRdn6NToRVtJmvzVxtzw","Arunasri Filling Station Hp Petrol Bunk","Ground Floor, Auto Nagar 100 Feet Road, Auto Nagar, Vijayawada","16.4981216","80.67247359999999","true"
"ChIJ_yfY_636NToRhX73p42s9i8","IndianOil","D No 4, VD No 11/7, Lock No T1/9, Near Kalmandapam Moghul, 10/11, A S Rama Rao Road, Rajapuram","16.507236","80.643509","true"
"ChIJQ5l_cAD7NToRhV7LDNoH6lA","Krupa Filling Station (B.P Petrol Station)","CMC2+QJ, Nutakki","16.4219389","80.6515524","true"
"ChIJ6-ssLm_7NToRpAEnNTYpF84","Bharat Petroleum - Kiranya Enterprises","CMXP+2X, Vijayawada","16.4475831","80.6874139","true"
"ChIJ5clBo3X5NToRFvv9RDS55VQ","FINEST OIL FILLING STATION NAYARA PUMP","India","16.4016966","80.6787379","true"
"ChIJGzu0p4H7NToRjp90h8XwSZ0","IndianOil","muncipality, Penamaluru, near Ramalingeswara Swamy Temple, Tadigadapa Donka Road, Yanamalakuduru, Pedapulipaka","16.4833582","80.6600983","true"
"ChIJ2yP2m1D7NToRNmGZqmVDnKA","Sri Phanindra Oils","9 1, Vijayawada Road, Kamayyathopu, Ashok Nagar, Vijayawada","16.4852679","80.68251029999999","true"
"ChIJqaT6awD7NToR0O7DPmflBJs","Bend circle","FMW3+7M8, Benz Circle, Vijayawada","16.4956621","80.6542015",""
"ChIJxRIoEd36NToRPBPeDJYBvrk","Sri Lalithadevi Gas Agencys H P Gas","#56-15-4 Ganapathi, Temple Street, Patamata, Vijayawada","16.4929241","80.6677046","true"
"ChIJUezlYff7NToReOJi7KqM94s","Meghagas CNG Station","Ashok Nagar, Kanuru","16.4845236","80.6852117","true"
"ChIJh_qXXwD7NToRPM9f0V8O8d4","Yalamnchili NR Filling station","57-3, AH45, Patamatalanka, Benz Circle, Vijayawada","16.4951904","80.6611018",""
"ChIJnaIjNAD7NToRDiJhetJb1gU","Indian Oil Petrol & Diesel Station","57-8-14, Yadavula St, Yadavula Bazar, Patamata, Benz Circle, Vijayawada","16.4952631","80.6611175",""
"ChIJVSLzddv7NToRJeFeOkHNm5c","Jay Ramanjaneya Service Station(Bharat petrol bunk)","near Navata Road Transport, 11-45, Sanath Nagar, Kanuru","16.4874439","80.68187979999999","true"
"ChIJWzC2xS77NToRk2oiEHzqTIA","IndianOil","No T1/74/5, Krishna, D No 26, Lock, adjacent Kdloa Kalyana Mandapam, 6, National Highway 16, Sriram Nagar, Vijayawada","16.496899","80.652146","true"
"ChIJn_lF67j6NToRwR-yoFCrHKU","IndianOil","No T1/18/19, D No 7, Lock, 20/21/22, Sriram Nagar, Vijayawada","16.497814","80.65352600000001","true"
"ChIJuw_LFaH7NToR1bV0VCMpsgY","farmsteel products","FMVF+HF9, Auto Nagar, Vijayawada","16.4939122","80.67375",""
"ChIJ27S9NMD7NToRBOWMYktyICI","Auto nagar gas fitting shed","FMWC+3V5, Auto Nagar, Vijayawada","16.4951432","80.67224259999999",""
"ChIJPW6bTrv7NToRzuaEM0_tnbs","Hindustan Petroleum Corporation Limited","Ground Floor, Panta Kaluva Road, Patamata, Vijayawada","16.495134","80.673323","true"
"ChIJBa_e_0P7NToRoGars-xci1k","Supreme Fuels - Indian Oil Flagship Outlet","55-1-15, Jawahar, Auto Nagar 100 Feet Road, Vijayawada","16.4969133","80.67139949999999","true"
"ChIJfyac9K_6NToRxbtF9YvUerM","Chennupati Petrol Bunk Bharat Petroleum","Katragadda Pitchaiah Street, Labbipet, Vijayawada","16.5017747","80.64240769999999","true"
"ChIJ40ybEvn7NToR4tx5FVO-JOg","IndianOil","D No 1A, Lock, 6 Canal, T1/77/8/9/80/1/2/3/4/5, SPSC Bose Road, Vijayawada","16.498263","80.671921","true"
"ChIJD4O6Ld_6NToRu88bMIYbmOw","Hindustan Petroleum Corporation Limited","Ground Floor 1st Cross, 5th Road, Auto Nagar, Vijayawada","16.497179","80.67513799999999","true"
"ChIJZ-Y9QLH6NToRLy4z8-kmTcI","Sree Vijaya Lakshmi Oil Traders","55-6-20, 1st Cross Road, 5th Road,, Auto Nagar, Vijayawada","16.498657","80.67542999999999","true"
"ChIJ20vYXq77NToR7SZtzAbNUXA","IndianOil","Ground Floor, near Kennedy Highway, Kanuru Main Road, Auto Nagar, Penamaluru","16.49177","80.68915299999999","true"
"ChIJP19XSvr7NToRisrpvrDDQ-0","Bharat Petroleum Petrol Pump , CITY POLICE SERVICE STATION","CITY ARMED RESERVE GROUNDSM.G. ROAD, Labbipet","16.5038666","80.63630119999999","true"
"ChIJwVxVbQD7NToRHGgZxRvdvjY","Bharat Petrol Bunk","GJ4W+FCH, Siddhartha College Road, Mogalrajapuram, Shanti Nagar, Labbipet, Vijayawada","16.5061904","80.64610549999999","true"
"ChIJbaKDLQD7NToR-IXRq-jP-do","Giribala Gjmr filling station","GJ4W+J88, Mogalrajapuram, Christurajupuram, Vijayawada","16.5065472","80.6458253","true"
"ChIJi7X38rH6NToR0dv4iVNCs4w","Hindustan Petroleum Corporation Limited","RS No 21/10, D No 32/9/18, Mogalrajapuram, Vijayawada","16.506801","80.6450101","true"
"ChIJ5cFkLdj6NToR3YK_5yizoiA","Hindustan Petroleum Corporation Limited","D No 54/9/54A, Plot No 19 & 20, Auto Nagar 100 Feet Road, Auto Nagar, Vijayawada","16.502191","80.674431","true"
"ChIJtUhMftf6NToRMFVAGs5V9ng","HP PETROL PUMP - SANKAR FILLING STATION ADHOC","1ST Cross, 5TH Road Jawahar Auto Nagar Vijayawada, Vijayawada","16.502997","80.674117","true"
"ChIJu2JG4Fr7NToRjqbXTZeWxFU","Narayana prasad bunk","GM2H+M5G, Auto Nagar, Vijayawada","16.5016969","80.6779426",""
"ChIJL0H92Yf7NToRoI5-u1ZbLmQ","Venkata Rathaiyaa Charcoal","1, Ramapuram Colony, Poranki, Poranki","16.4740933","80.71160610000001",""
"ChIJu5Ykjtb9NToRQ5RWjcgxjfA","Hindustan Petroleum Corporation Limited","Gr Floor, NH 9, Vijayawada - Machilipatnam Road, Kankipadu","16.4292811","80.772543","true"
"ChIJk8kti2X8NToRE2CsutEeRRk","IndianOil","Lock No T1/55/6/7/8, D No 19, Penamaluru, Ganguru","16.459198","80.736654","true"
"ChIJz2RNZgD9NToRnlFcOydoPN0","Hindustan Petroleum Corporation Limited","Ground Floor, Gosala","16.444717","80.753042","true"
"ChIJ2T0Z4Ff7NToRyEpEMaP3w64","Bharat Petroleum, Petrol Pump -Sri Vani Bhavani Filling Station","PORANKI ON MACHILIPATNAM R, KRISHNA","16.4741513","80.713189","true"
"ChIJ8yiIJpn_NToRQZYJOYl8ID8","Hindustan Petroleum Corporation Limited","RS No 231, Kankipadu","16.3975066","80.7309834","true"
"ChIJia1jWC38NToR4pFaUYZ9a00","Kankipadu Petrol Bunk","National Highway 65, Kankipadu","16.4368775","80.7649019",""
"ChIJp1Nr3FP9NToRO59gVwYqows","Meghagas CNG Station","Vijayawada - Machilipatnam Road, Bank Colony, Kankipadu","16.4292927","80.7725537","true"
"ChIJ2Yo7jtb9NToRSu2aGy-vJt0","HP Petrol Pump - Sri Krishna HP Fuels","Hpcl Dealers Machilipatnam TO Vijayawada Road Kankipadu, National Highway 65, Vijayawada","16.429016","80.77258069999999","true"
"ChIJLcQVL1f7NToRMxxpJrzHKGM","IndianOil","Ground Floor, Penamalur, Nidmanuru,Poranki, Penamaluru","16.4923633","80.7145446","true"
"ChIJX2smjU7uNToR_rtiSWEacLE","IndianOil","D No 17, Lock No, T1/45/6/7/8/9, Gollapudi","16.53828649999999","80.5873902","true"
"ChIJPbcPIOrvNToR4VP0TeEo9dc","IndianOil","D No 47, Lock, Bangarayya Shop, T1/138/9/40, Chittinagar, V D Puram, Vijayawada","16.528708","80.611116","true"
"ChIJVVB2_gLwNToRUZMvsr4fawI","HP Petrol Bunk","GJ5F+QJR, Opp. Vijaya Krishna Super Bazar, Vijayawada Road, Vijayawada","16.5094975","80.6240282","true"
"ChIJuUZCqgPwNToR6n5aU5YOndA","IndianOil","D No 39, Lock T1, 118/9/120, Vijayawada Road, Vijayawada","16.509089","80.624397","true"
"ChIJJQoZw3O1NToRHemPzssjBOg","IndianOil","D No 75, Lock T1, Vutukuru, Gampalagudem,Penugolanu, 211/2, Vijayawada","16.5156787","80.6251794","true"
"ChIJWfJ3yv3vNToRtih9YKu5xU4","Hindustan Petroleum Corporation Limited","Ground Floor, Sambamurthy Road, Gandhi Nagar, Ongole","16.51522199999999","80.62571009999999","true"
"ChIJv5dvd1jlNToRVY9q8x5FtRc","Hindustan Petroleum Corporation Limited","Ground Floor, CK Reddy Road, Ayodhya Nagar, Vijayawada","16.526525","80.63285599999999","true"
"ChIJidW1eFPlNToRVHR0OxsXxLA","IndianOil","DN No 79, Door No 30/22/82, Lock No, T1/221/2/3, Eluru Road, Vijayawada","16.5158697","80.6386193","true"
"ChIJ-aEjjmDlNToRqH8---M81tY","Hindustan Petroleum Corporation Limited","Survey No 57, Police Quarters Road, Ajit Singh Nagar, Vijayawada","16.5371391","80.6361755","true"
"ChIJE6-6tF_lNToRiB3fpJfRjp4","IndianOil","Lock T1/188/9/90, D, 66, Nuzvid Road, Vijayawada","16.537703","80.63647499999999","true"
"ChIJFY-UK9DvNToRFFQzHBUvVHk","IndianOil","Krishna, L No T1/6/7/8, D No 3/75/12/81, Bhavanipuram, Vijayawada","16.522585","80.596909","true"
"ChIJ-f-DvWjvNToRhJ2zlf7Dcj4","Hindustan Petroleum Corporation Limited","Ground Floor, Bhavanipuram, Vijayawada","16.5250146","80.5942652","true"
"ChIJA858kjvvNToRT6FDvC0ZaCM","HP Petrol Bunk","Bank Center, near Swathi Theatre Road, opposite hp petrol bunk, Hyderabad - Vijayawada Highway, Bhavanipuram, V D Puram, Vijayawada","16.5237963","80.595986",""
"ChIJlXla9fbvNToRFDYofk5tcak","Hindustan Petroleum Corporation Limited","Ground Floor, Bhavanipuram, Gollapudi, Vijayawada","16.524291","80.595871","true"
"ChIJD_jJkJnvNToRY9KMZP0PZtc","Bhagyanagar Gas Limited CNG Station","1/4/63B, Bhavanipuram, V D Puram, Vijayawada","16.5237037","80.59675089999999","true"
"ChIJDfKLuZjvNToR7UlY11JL-kE","Mahesh Filling Station","Kummaripalem, V D Puram, Vijayawada","16.5180831","80.6020774",""
"ChIJ0amQmuHvNToRDLQ5iYOiTxE","Bharat Petroleum, Petrol Pump -Sri RajaRajeswari Petroleums","Bhavanipuram, Vijayawada","16.5289071","80.59145889999999","true"
"ChIJO2yl0TzvNToR2mM-34rDlyc","Hindustan Petroleum Corporation Limited","S No 547/2B, Gollapudi, Vijayawada","16.519872","80.60170800000002","true"
"ChIJHwJEubTvNToRa3VcrLRH44g","Bharat Petroleum, Petrol Pump -Gsr Vana Durga Filling Station","Vijayawada Bypass Road, Gollapudi","16.5388427","80.58929739999999","true"
"ChIJn-37k7TvNToR0O_rWNfdkFQ","HP PETROL PUMP - TIRUMALA FUELS","near Whole Sale Market, Hpcl Dealers Gollapudi Bypass Road, near Whole Sale Market, Gollapudi","16.538794","80.590042","true"
"ChIJH-1WdEbvNToRYHH2Kx2RdwA","Hindustan Petroleum Corporation Limited","Ground Floor, near Whole Sale Market, Bypass Road, Gollapudi","16.539021","80.5901486","true"
"ChIJ1SP0WADvNToR2t74Ov12rSY","Fuel station","T1-93/4/5, Gollapudi","16.54189999999999","80.5815983","true"
"ChIJK9XbIQDvNToRMYJDwXfSpR8","Bpcl","GHQV+JQP, Vijayawada Bypass Road, Jojinagar, Vijayawada","16.5390979","80.5944559","true"
"ChIJm4ubjw7vNToRq-zZ4b-gyNU","Bharat Petroleum, Petrol Pump -Seth Motilal Rupchand","1 Town, Kaleswara Rao Market, Tarapet, Vijayawada","16.51354109999999","80.6154341","true"
"ChIJVcXs02HvNToR4-JR3vVBa8g","Nayara Petrol Pump - GRBN Filling Station","RTC Depot, near Vidhyadharapuram Main Road, Jojinagar Road, Bhavanipuram, Vijayawada","16.5366267","80.60068679999999","true"
"ChIJU7gOKMfvNToReVEZUaCjvfU","IndianOil","Sitara Theatre, Y Cross Road, Gollapudi, Vijayawada","16.537492","80.600494","true"
"ChIJ9YTZvbvvNToRMPu9zPkJY9s","AR 402","GJ99+M6Q, Foot Over Bridge, Islampet, Vijayawada","16.5192025","80.61811349999999","true"
"ChIJUaUwzw3lNToRmIAt_A9CrW4","Hindustan Petroleum Corporation Limited","RS No 73/4 Plot, 1 & 2, Kundavari, Kandrika, Vijayawada","16.5103657","80.6215745","true"
"ChIJsd0NLAzvNToR8kT-BChtXfk","Water service point","near Royal Hotel, #11-64-14,Gulam, near Royal Hotel, Ghouse Mohiddin Street, Kothapet, Vijayawada","16.5234983","80.6179523",""
"ChIJA-QdqwLwNToR2mSba0kMGH0","RATNAM LUBRICANTS","India","16.5119987","80.6217009","true"
"ChIJEQlEsALwNToR43S7bCNLOQg","MOHAN OIL COMPANY","GJ6C+GVM, Gopala Reddy Road, Governor Peta, Vijayawada","16.5113404","80.6221795",""
"ChIJ85WV4vDvNToRKZl81bdS5NM","Mahaa Filling Station 1","GJ8C+CX7, Hanumanpet, Vijayawada","16.5160255","80.6224233",""
"ChIJ0RuLFg3tNToRxWD0Ecj333M","Bharat Petroleum, Petrol Pump -Sai Leela Filling Station","Mandadam, Amaravati","16.5134763","80.5328633","true"
"ChIJGbzJimTtNToRLnHy37tupUU","Hindustan Petroleum Corporation Limited","Survey No 284/A, Mangalagiri - Rayapudi Road, Mandadam, Guntur","16.5149115","80.5320654","true"
"ChIJi2OWg_rxNToRPmFlQkW8qG8","Hindustan Petroleum Corporation Limited","Ground Floor, opposite Super Bazar, Vijayawada Road, Vijayawada","16.508851","80.624911","true"
"ChIJw41oRxTvNToRB8z8AgOGTkU","HP Petrol & CNG Bunk","GJ8F+8J8, Andhra Ratna Road, Hanumanpet, Vijayawada","16.5157787","80.6240665",""
"ChIJ15JQS5nzNToRYVreylCmtiA","IndianOil","Tulluru, Sy No 407 & 408, Mandadam, Malkapuram","16.497641","80.5316225","true"
"ChIJL0tq6e_vNToRUQlR8yAsnWc","PHILADELPHIA FILLING STATION","Ramarajyanagar, Naga Sai Temple, Ramaraju nagar, kabela center,vijayawada, 520012, RR Nagar, Vijayawada","16.5445273","80.6045745","true"
"ChIJI20CAKjvNToRa0lh1ZC7taY","IndianOil","Sitara Convention, Kabela Road, Gollapudi, Vijayawada","16.5432258","80.6065758","true"
"ChIJOzrqxEfvNToRsvlFROJg19M","Hindustan Petroleum Corporation Limited","No 411/6, Survey, RR Nagar, Vijayawada","16.5433677","80.60641199999999","true"
"ChIJ5esJlJXvNToROCcWyJqLYW8","IndianOil","D No 73, Lock T1, 205/6/7, Gandhi Nagar, Hanumanpet, Vijayawada","16.515766","80.625092","true"
"ChIJwTzx7LH7NToRQutzBCVXGHs","IndianOil","D No 37, Lock T1, 112/13/14 Ig 4095/13032, Auto Nagar, Vijayawada","16.5156831","80.6251885","true"
"ChIJz0QW-NT6NToRCZdc9a0eAyw","IndianOil","D No 54, Sri Ramachandra Nagar, Lock T1, 154/5/6/7/8/9, Vijayawada","16.5156831","80.6251885","true"
"ChIJdSclwb3vNToR8JhMKUwfAcs","Hindustan Petroleum Corporation Limited","S No 5/6, Kabela Centre, Kabela Road, Bhavanipuram, RR Nagar, Vijayawada","16.5419956","80.60880809999999","true"
"ChIJp0bJb2XxNToRX2UKMeIyeUE","Bharat Petroleum, Petrol Pump -Sri Ramanjaneya Petrol & Diesel Sta","opp. SUB COLCTR OFFICE, VJA","16.5068949","80.6281764","true"
"ChIJ8cq5Ea_vNToRlmwHy5A6B4Q","Bharat Petroleum bunk","Annapurna Devi street, Gandhi Nagar, Vijayawada","16.5182914","80.6270042","true"
"ChIJWxhWxorvNToRxjvuJFFGcTI","Hindustan Petroleum Corporation Limited","Ward No 8, Block No 31, NTS 940/1A, Gandhi Nagar","16.516727","80.628778","true"
"ChIJOYfo-FTlNToR7uVCRxg8Y9I","SIREESHA Petrol Felling Sation","Adavaladeevi ,5-57, Guntur,Andhara Pradhes 522268 Adavaladeevi, Vijayawada","16.5169121","80.6328024",""
"ChIJ5yj7pdfkNToRauhm6yrBRb8","IndianOil","Door No 8 6/7, Ramavarapadu, Vijayawada","16.5244224","80.6798871","true"
"ChIJW8BTosrkNToRlWRIBJIrrj4","Hindustan Petroleum Corporation Limited","Survey No, 177/1, Enikepadu, Vijayawada","16.5169015","80.6987518","true"
"ChIJhS4TWqrlNToRsLZj63hhHO0","Hindustan Petroleum Corporation Limited","Ground Floor, Nuziveedu Road, Vijayawada","16.563241","80.67387099999999","true"
"ChIJaYzOiEnlNToRZL68iQD6tpU","Bharat Petroleum, Chintapalli Filling Station","ELR ROAD, MARUTI NAGAR, Vijayawada","16.5171744","80.6451068","true"
"ChIJc1OR42TlNToR6LkeODsIgZU","Hindustan Petroleum Corporation Limited","Survey No 13, opposite BSNL Bhavan, 2 & 13/3, Eluru Road, Maruthi Nagar, Vijayawada","16.516844","80.643551","true"
"ChIJX8FsUFLlNToRkA2tMp6w_UA","IndianOil","Lock No T1/181/2, D No 63 Krishna, Eluru Road, Vijayawada","16.516668","80.641562","true"
"ChIJp7BgT5nlNToRg8DKCgBv11U","Keith Electronics vijayawada","30-20/1-22E, Kotilingam Street, Moghalrajpuram, Sitharamapuram, Vijayawada","16.517034","80.641677",""
"ChIJhdjmUgDlNToRCZkkROcC6lY","Indian Oil Petrol and Diesel Pump","MatruSriKrupa building, 1st floor 23-22-1/7, BRTS Rd, beside bus stop, G.S.Raju Road, Vijayawada","16.5211865","80.6371134",""
"ChIJ8Xq_GTjlNToRarElHD-X2tI","Hindustan Petroleum Corporation Limited","Survey No 118/5, Sivalayam Road, Satyanarayanapuram, Vijayawada","16.522349","80.63479799999999","true"
"ChIJ53xx8eXlNToRxA8JJtofVd8","IndianOil","D No 109, Lock T1, 297/8/9, Eluru Road, Padavalarevu","16.524395","80.658587","true"
"ChIJYYnI2yzlNToRoRcbY3Eoro8","Sri Balaji Fuel Point","Ring Road, NTR Colony, Kanuru","16.515102","80.66952289999999","true"
"ChIJPeY7xSzlNToRDZ5E12pvlik","Indian Oil","GM89+3RC, ESI Road, Veterinary Colony, Kanuru","16.515177","80.669512",""
"ChIJn225Q0TlNToRbDnOtdCsYOY","HP PETROL PUMP - GJMR FILLING STATION","Door NO 21-9-15 Main Road, Madhura Nagar Vijayawada, Vijayawada","16.5291792","80.64745920000001",""
"ChIJ2x9yQQD7NToRp_8yJ3w6_7s","bpcl petrol bunk","GM7C+3R7, Mahanadu Road, Sri Ramachandra Nagar, Kanuru","16.5126704","80.6720485",""
"ChIJeyadd1jlNToR9uqSJ9bYHCk","SURYA FILLING STATION","Lotus Landmark, Ayodhya Nagar, Vijayawada","16.5263125","80.6330625","true"
"ChIJvx7gAK78NToRVpEELWxir8s","IndianOil - SWAGAT","D No 18, Lock No T1/50/1/2/3/4, Gudavalli Nidamanuru","16.5111103","80.73220169999999","true"
"ChIJq2FP7bH8NToRBEcd0v3dE3k","Hindustan Petroleum Corporation Limited","Ground Floor, NH 7, Nidamanuru, Vijayawada","16.510361","80.740783","true"
"ChIJm4noo678NToROJqsfbjVE6Y","Bharat Petroleum, Petrol Pump -Sri Ramanjaneya Petrol & Diesel Sta","NH 5 NIDAMANUR VIJAYAWADA, KRISHNA","16.5107981","80.728167","true"
"ChIJ96EXYEL7NToRZZo2q0a5ojQ","H&H Petroleum Filling Station(BHARAT PETROL BUNK)","9, Kakani Venkata Ratnam Road, Enikepadu, Prasadampadu","16.5079987","80.70596019999999","true"
"ChIJQYZFjs37NToRzxvdTPjU30g","Hindustan Petroleum Corporation Limited","No 218/1E, Survey, 100 Feet Road, Enikepadu, Prasadampadu","16.5106732","80.70666899999999","true"
"ChIJzbn9OAD9NToRb7i0BhYexTQ","Cng after ganna varam air port","GP6R+983, NH 44, Nidamanuru, Vijayawada","16.5107964","80.7406589",""
"ChIJ8VUJWgD7NToRlA9vRzMC_PA","Kanuru Energy Station","GM4V+79M, Major District Road 164, Enikepadu, Kanuru","16.5057751","80.6942572",""
"ChIJ9-J2VwDlNToR1_cfC6CZ72U","Bharat Petroleum- Himagiri Filling Station","5-15/2, near ford showroom, BMPS Road, Prasadampadu, currency nagar, Ramavarappadu","16.521444","80.6914181","true"
"ChIJH0rtSCjlNToRJ4NujGf6vlU","Hindustan Petroleum Corporation Limited","No 82/4, RS, Prasadampadu, Vijayawada","16.5171287","80.6836898","true"
"ChIJB0eLfADlNToRmDsNYR6ck10","Cng pump","near Petrol Pump, 3-45,Balem Vari Vidhi, near Petrol Pump, Main Street, Prasadampadu, currency nagar, Ramavarappadu","16.5169487","80.6835646",""
"ChIJGYrXPGLlNToRapugIf5YmDo","IndianOil","Autonagar Road, Ballem Vari Street, Prasadampadu, Kanuru","16.512161","80.6816034","true"
"ChIJE3VyM53jNToRh342T6nWKIA","IndianOil","SY No, 718 Gannavaram, Vedurupavuluru","16.5414021","80.73082959999999","true"
"ChIJY6fX60v7NToRxIA43EkKMdI","Castrol authorised distributor ( Sri kanaka durga distributors)","# Plot no. 82, Block no - 22, Near Appolo Tyre Goodown, 3rd Road, 5th Cross Road, Auto Nagar, Kanuru","16.5060155","80.6775006","true"
"ChIJZT3u3-v7NToR1LH6FRx-L-c","Bharat Petroleum, Petrol Pump -Tc I India Ltd","AUTO NAGAR VIJAYAWADA, KRISHNA","16.5084629","80.6774303","true"
"ChIJkXYHfKH7NToRNYIE4KO3WZ4","IndianOil","Auto Nagar, Kanuru","16.5065659","80.67657679999999","true"
"ChIJW8_AUsD7NToRnU_4TBPYgNE","Turbotic Lubricants","GM5G+WCP, Auto Nagar, Kanuru","16.5098453","80.6760927","true"
"ChIJO0xyLQDlNToRVMpB-XZccLM","Iocl petrol pump and megha cng gas station","GMGG+786, Inner Ring Road, Gunadala, Kanuru","16.5256635","80.6757793",""
"ChIJO75FXwDjNToRjQag0uOBE_Q","Hindustan petroleum","HP3G+69M, Vedhurupavaluru Road, Mustabada","16.553085","80.7259244","true"
"ChIJA0ChWADlNToRfqStvEa8444","Near SLV meadows Irr gunadala near ramavarapadu ring Vijayawada city ntr district ap","GMMH+Q28, Near SLV meadows, near ramavarapadu, Inner Ring Road, ring, Gunadala, Vijayawada","16.5344006","80.67758789999999",""
"ChIJ0T7cTQDlNToRAwalUO-9OLc","Gunadala Vijayawada","GMMH+Q28, Near SLV meadows, near ramavarapadu, Inner Ring Road, ring, Gunadala, Vijayawada","16.5344006","80.67758789999999",""
"ChIJI11ciVP9NToRikwG-eCE0Vo","Hindustan Petroleum Corporation Limited","Krishna, RS No 8/1A, Gannavaram Kankipadu Road Uppuluru, Kankipadu","16.4990415","80.776465","true"
"ChIJAYtgvBvlNToR9c-I7CFniRY","SAI KRISHNA FUEL FILLING STATION","Inner Ring Road, Nunna Road, Vijayawada","16.5457053","80.6693923","true"
"ChIJT0T0WfjkNToRY4TurRHW1eY","IndianOil","Ground Floor, Nunna Bypass Road, Vijayawada","16.5596744","80.6857927","true"
"ChIJEzHwJADlNToRNCY-kzstb_0","Hindustan Petroleum Corporation Limited","Ground Floor, Inner Ring Road, Gunadala","16.545542","80.667234","true"
"ChIJbfvqZ8ziNToRdCv65gaTpFU","IndianOil","Bacon Factory, S No 228/6, Kesarapalli","16.5228173","80.7810628","true"
"ChIJn9-PIRbsNToRLPZo-f4GgkI","Hindustan Petroleum Corporation Limited","Survey No 305/3B & 305/3A, NH 65, Vijayawada - Mylavaram Road","16.5794114","80.52832280000001","true"
"ChIJLXnULhTsNToRhCGEnbGMi6Y","IndianOil","Lock T1/103/4/5, D No 34 Vijayawada, Ibrahimpatnam, Chilukuru","16.5812876","80.5264356","true"
"ChIJMYn70AzsNToRhd_Z9t0OzoU","Hindustan Petroleum Corporation Limited","Ground Floor, Exchange Mylavaram Road, VTPS Colony, Ibrahimpatnam","16.592851","80.522171","true"
"ChIJsUer53fsNToRp9eNT6dUM9M","Bharath Petroleum Bunk BP IBM","Kotikalapudi - Modepalli Road, West Ibrahimpatnam, Vijayawada","16.6000738","80.5117465","true"
"ChIJZWNsmkTvNToRCmsf9jQfu0A","NAYARA","India","16.5885797","80.6197576",""
"ChIJRbJmLvvvNToRiibLs2k26bw","BPCL Petrol Bunk [Maruti Filling Station]","HJ38+5X5, State Highway 32, Jakkampudi","16.5528901","80.61748419999999",""
"ChIJi31zWjntNToRMcuvs7mmizM","Hindustan Petroleum Corporation Limited","Ground Floor, Main Road, Paritala, Vijayawada","16.57897999999999","80.52870999999999","true"
"ChIJUYtuBhnvNToRnTai7yIa5F4","S.V.K FUEL & RETAIL STORE (HPCL PUMP)","4-4-1/3A/1, DBR Bailding Jakkampudi, Vijayawada","16.5532708","80.6236543","true"
"ChIJibbQXJTvNToRooqNRmfy0TI","Hindustan Petroleum Corporation Limited","No 33/6, 100 Feet Road","16.5533065","80.62371089999999","true"
"ChIJy2wEbADtNToRDRe5HdXFwS4","CNG filling station","T1-103/4/5-34, Vijayawada","16.5814032","80.52656569999999",""
"ChIJfe8rRiztNToRAMBqDLJCoSk","petrol pump ibrahimpatanam","Ibrahimpatnam","16.5837327","80.5255268","true"
"ChIJVUg4ihPsNToREU82YeDn8I8","Indian Oil","India","16.583756","80.5255186",""
"ChIJaXlmhHfvNToRrGcKS1hbYzw","IndianOil","YV Rao Estate, Pipula Road, Road, Ambapuram","16.5526481","80.62533189999999","true"
"ChIJY9zW3b3vNToRohbUAeyAc8A","IndianOil","Survey No 2/1, YV Rao Estate Krishna, Pipula Road, Vijayawada","16.5507921","80.6299009","true"
"ChIJbxDUcOHrNToRqJQkN2H7DHI","Kondapalli Automobiles, IOC Petrol Pump","Door # 5, Arya Vysya Kalyana, Mandapal Road, Kondapalli, Ibrahimpatnam","16.620232","80.540675","true"
"ChIJq2yZrljtNToRiSFouztM_Ek","Bharat Petroleum, Petrol Pump -Bp-Ibrahimpatnam","IBRAHIMPATNAM, OSTS","16.5891465","80.520091","true"
"ChIJf1hn98TvNToRkfsg3y7ZmpM","Hindustan Petroleum Corporation Limited","RS No 2, 1 Portion, Old, New, Vijayawada Nuzvidu Road, Vijayawada","16.5504187","80.6314601","true"
"ChIJp3EOhQvpNToRGRXaBBzS58w","Vishnu Engineers works at Dr.nttps","JHMG+JPM, Unnamed Road, Kotha Kavuluru","16.634082","80.57679999999999",""
"ChIJPUtKdQDtNToRS04VjYZ-cvM","IOCL Fuel station - Axis Energies","Ibrahimpatnam","16.5905794","80.5184719","true"
"ChIJXVeAQNt1SjoR1YDIX_Njjqw","Maaya Autobahn","HGR9+69Q, Ibrahimpatnam","16.5905625","80.51843749999999","true"
"ChIJLwK1AQDtNToRY8mOO6K7AoY","Indian Oil Petrol pump","HGR9+833, Hyderabad to, near Mecdonals, national highway, Vijayawada","16.5907623","80.51768489999999",""
"ChIJBWSBUcDpNToR0mb0gw7OwNA","BPCL Filling Station and ev","JHJ3+PCQ, Vijayawada","16.6318351","80.5536212",""
"ChIJy9nXJWDpNToRiA9mGg-NmaM","Hindustan Petroleum Corporation Limited","S No, 3800/3A, Ibrahimpatnam, Kondapalli","16.6273583","80.5441937","true"
"ChIJU3iBbwDpNToRYQicUX-Xo5k","Bharath petrol bunk","JJG9+V5M, Vijayawada","16.6279188","80.6170109","true"
"ChIJETbSgmPlNToR7zh47mbv9Wg","Hindustan Petroleum Corporation Limited","S No 385/386, PNT Colony, Vijayawada","16.5443019","80.6382197","true"
"ChIJOaOLSrHlNToR6SYOjYGwH4U","Gas Godown","GJWR+R7P, PNT Colony, Vijayawada","16.5470987","80.6407029",""
"ChIJJcQT8u_pNToRPA5gbHYuBx8","RCM Store","2 ed sreet, Ida, Vijayawada - Mylavaram Road, Baharampur","16.6413815","80.5576902",""
"ChIJ7cffONvrNToRnK5ynKy-cN8","CNG","JG26+5HW, Kotikalapudi - Modepalli Road, West Ibrahimpatnam","16.6006178","80.5115974",""
"ChIJFyqvPnHpNToRAgtKoAeKA74","Bharat Petroleum","India","16.64235469999999","80.558798",""
"ChIJH8OOXLDlNToRUW4hqHIWXg4","Bharat Petroleum, Petrol Pump -Sree Sai Filling Station","Payakapuram, Payikapuram","16.547901","80.6518847","false"
"ChIJvZP9vKrlNToRqar--wOzaEM","Honey service station Indian oil","near Powergrid, Gunadala Road, Vijayawada","16.5620951","80.6760821","true"
"ChIJOTJAAQDlNToRGRDKy58PMgM","Srinu gadi adda","JM3P+659, Vikas College Road","16.6030442","80.6854754",""
"ChIJW2eAqRbkNToR4AZt2A4fICY","NAYARA","India","16.5918993","80.7044566","true"
"ChIJB-r0PQHkNToRN69VwXHvEwg","IndianOil","SY No 389/6, Lock No T1/59, 60, DN 20, Surampalli","16.6052701","80.71769789999999","true"
"ChIJXT7cWQDjNToRBWAzjSUP4GI","Hindustan Petroleum Corporation Limited","Ground Floor, Western Bypass, Vedurupavuluru","16.574099","80.734445","true"
"ChIJX48IPADjNToRZNHOTWyZ8dk","Megha CNG Gas","HPFP+XF, Vedurupavuluru","16.5749144","80.73623479999999",""
"ChIJ70EYMQTkNToRZns-LtonLs0","Bharat Petroleum","India","16.6014567","80.7149503",""
"ChIJq_9dfS7hNToRQVrpjigaomw","Nri F/s Petrol Bunk","Adavinekkalam","16.6261016","80.7219427","true"
"ChIJI6Ml1SnjNToReUJOf3KoNEI","SV ENERGY PARK","11-2A-4, Sy.No.11, 2A-3, Vijayawada West Bypass Road, GANNAVARAM, Purushottapatnam","16.5709441","80.77977600000001",""
"ChIJ-0lvwIniNToR208D2THZomY","Hindustan Petroleum Corporation Limited","Ground Floor, Agiripalli Road, Gannavaram","16.5659375","80.7919014","true"