place_id,name,address,latitude,longitude,open_now
"ChIJYyM-t_9rOToRSYDTMm1WKSM","Hindustan Petroleum Corporation Limited","S No, 575, Balacheruvu Road, Kanithi, Gajuwaka, Visakhapatnam","17.6435301","83.1670101","true"
"ChIJATSRWIVuOToRaqDP6-_JLlo","IndianOil","Steel Plant, Sector 9, Desapatrunipalem, Visakhapatnam","17.6557034","83.1318675","true"
"ChIJRcyqV0xpOToRSwox6Enumic","IndianOil","Lock No T1/22, Ravidas Street plant, near Cantee, Junction, Balacheruvu Road, Visakhapatnam","17.6606646","83.16776039999999","true"
"ChIJ606IffFtOToR84OfM81S1Bk","Hindustan Petroleum Corporation Limited","S, Atchutapuram Road, Paravada, Visakhapatnam","17.6248167","83.0867507","true"
"ChIJ_VzVldNuOToR28EcMBOObW0","Hindustan Petroleum Corporation Limited","D No 31/4/3, Gajuwaka, Kurmannapalem, Visakhapatnam","17.68495009999999","83.1611301","true"
"ChIJz3-ZTwBvOToRetz31Euw1Z0","Indian Oil Filling Station","M44J+8QM, Nehru Road, Sector 12, Steel Plant Township, Visakhapatnam","17.6558356","83.1319175",""
"ChIJc7XtgEJpOToRS44RA5BE2w8","IndianOil","S No 335, 1M Kanithi, Gajuwaka, Visakhapatnam","17.660496","83.186371","true"
"ChIJJ89IzvltOToR3mkYwkd4QZo","IndianOil","Sub station junction, Visakhapatnam","17.6279039","83.0889487","true"
"ChIJG20G6GRpOToRWSZQhsSnvWo","BPCL Petrol Bunk","M53W+P7V, Visakhapatnam","17.65436859999999","83.1956756","true"
"ChIJxRl9ta9pOToRMH0aivd-NMc","IndianOil","S No 287, 6, Gangavaram Port Road, Visakhapatnam","17.6642927","83.18959629999999","true"
"ChIJhzXMO09pOToRJl4XKvYkFlY","IndianOil","Sy No 315/3B1 315, 7A 315/8A 315, Kanithi Road, Gajuwaka, Visakhapatnam","17.6628765","83.1925959","true"
"ChIJJbeGoddpOToRLUgSVnzbAos","Hindustan Petroleum Corporation Limited","Ground Floor, Gangavaram Port Road, Gajuwaka, Pedagantyada, Visakhapatnam","17.6643724","83.1913392","true"
"ChIJ05EkxT9pOToRiamw1DcOoDU","Bharat Petroleum, Petrol Pump -Lakshmi Durgaa Filling Station","M5FM+22J, KARNIVANIPALEM, Sri Nagar, Gajuwaka, Visakhapatnam","17.67153","83.1856274","true"
"ChIJmT5-HV1tOToRwxHWkuLy9vI","Hindustan Petroleum Corporation Limited","S No 34/9, near NTPC, Vada Cheepurupalli, Swayambuvaram","17.5817701","83.087445","true"
"ChIJM9XoIwBpOToRooAnAc8dgKI","Dibbapalem","DIBBAPALEM, Gangavaram, Visakhapatnam","17.6784967","83.18307",""
"ChIJMyyhV0xpOToREWoHE8rQfIk","Indian Oil (Ravi Rays-Diesel Bunk)","near Steel Plant, Vadlapudi, near Steel Plant, National Highway 16, main gate, Visakhapatnam","17.68483789999999","83.1713024","true"
"ChIJs-u4sBZvOToRUGU636dbOvA","Bharat Petroleum, Petrol Pump -Steel City Petro Fill","AGNAMPUDI, Visakhapatnam","17.6880443","83.141634","true"
"ChIJF0KoTKBpOToRLZqMMTNQK9w","Hindustan Petroleum Corporation Limited","No 43/5, S, Dayal Nagar, Pedagantyada, Visakhapatnam","17.6719949","83.2105078","true"
"ChIJaevPbBFpOToRZHwdEM-T8m4","Hindustan Petroleum Corporation Limited","Survey No 152/2, near The Gajuwaka Club, Gangavaram Port Road, Gajuwaka, Visakhapatnam","17.6771354","83.1933413","true"
"ChIJN31W0QVpOToRyuaNwP8nHp4","IndianOil","Lock No T1/44, Gajuwaka, Visakhapatnam","17.684501","83.202103","true"
"ChIJkW8piJ9pOToR9RXbjLZmg08","Bharat Petroleum","M6C5+4VC, Balacheruvu Road, Pedagantyada, Visakhapatnam","17.6703109","83.20962949999999",""
"ChIJKzjzxGBpOToR5ZwyJ8kyhr0","BHARAT GAS GODOWN STREET","23-60-3, Azeemabad, Gajuwaka, Visakhapatnam","17.6760862","83.2119783",""
"ChIJ-2WiraVpOToRF1XvZ3ooS4A","Hindustan Petroleum Corporation Limited","S No 79, Kakatiya ITI Road Junction, Balacheruvu Road, Gajuwaka, Visakhapatnam","17.6795857","83.2153828","true"
"ChIJwagSrRZpOToRkeolhjjjm7I","Bharat Petroleum, Petrol Pump -Kanchansri Agencies","KARNIVANIPALEM, VISAKHAPAT, Visakhapatnam","17.6762364","83.1915727","true"
"ChIJA0TwY35pOToRkb3PEI7cJY8","HANUMAN PETROLEUMS","Sri Nagar Main Road, Sri Nagar, Gajuwaka, Visakhapatnam","17.6777894","83.1886689","true"
"ChIJW_J7DpBpOToRXnlzw563CJM","Bharat Petroleum, Petrol Pump -V Chalamaiah Sons","NEW GAJUWAKA, VISAKHAPATNA, 13-1-7/2, High School Road, Gajuwaka, Visakhapatnam","17.685532","83.2168081","true"
"ChIJU9jfU-BpOToR3G28nvou3Ic","Bharat Petroleum, Petrol Pump -Mahalakshmi Enterprises","M6M2+GVG, OLD GAJUWAKA, VISAKHAPATNA, Junction, Old Gajuwaka, Chaitanya Nagar, Gajuwaka, Visakhapatnam","17.68395","83.202371","true"
"ChIJAf2Ouy5pOToR04camu4jENw","Hindustan Petroleum Corporation Limited","D No 28/16/1, Vadlapudi, Gajuwaka, Visakhapatnam","17.6857037","83.17119559999999","true"
"ChIJR9X7dxhpOToRRwwxcWRjBl0","Hindustan Petroleum Corporation Limited","D No, 123/4, Sri Ramnagar, Vadlapudi, Gajuwaka, Visakhapatnam","17.6834901","83.1862301","true"
"ChIJ99blP0tuOToRZ6KTGLyrXEg","Hindustan Petroleum Corporation Limited","S No 174, NH 5, Aganampudi, Parawada, Lankela Palem","17.6888074","83.10455859999999","true"
"ChIJWSes2vRoOToRraBAa5ZSkTI","Anuradha Auto Service Centre","National Highway 5 Gajuwaka, Akkireddypalem, Visakhapatnam","17.7165133","83.2045941","true"
"ChIJZQbpRwBvOToRuUKDWXtuqN8","RAMANALAKSHMI SONS ENERGY STATION -IOCL","Sy no 37, 3B1, Askapalli - Aganampudi Road, Duvvada, Gajuwaka, Visakhapatnam","17.6967568","83.1497418","true"
"ChIJVVVVVSlvOToR3F1HPEIA2o8","Ravi Rays","Door No 32, near Steel Plant, M 1, Main Gate, Vadlapudi, Kurmannapalem, Visakhapatnam","17.698036","83.15953999999999",""
"ChIJYZLZ4RRvOToRMj9bCCg-FIE","Nayara Petrol Bunk","M5W6+PJJ, 1, Phase 7, Dwarakapuri Colony, Vuda Colony, Kurmannapalem, Visakhapatnam","17.6976672","83.1628053","true"
"ChIJq41CGzZpOToR6w99TSSPdO0","Mahalakshmi Bharat Petroleum Pump","P53J+Q9P, Yadava Jaggaraju Peta, Visakhapatnam","17.7044593","83.18094599999999","true"
"ChIJceKnnJBpOToRv8PBHTXA4Xk","IndianOil","Sy No 39/P, Chinagantyada, Plot No 197/3, Visakhapatnam","17.696341","83.187637","true"
"ChIJtfVicv1wOToR6jSegJUeToo","IndianOil","Lock No T1/78, NH 5, Chinagantyada, Gajuwaka, Visakhapatnam","17.6839263","83.1900644","true"
"ChIJpZ4YMEtuOToRCIwfJV2Jc70","IndianOil","Ground Floor, Lankelapalem Rd NH 5, Gopalapatnam, Visakhapatnam","17.6897001","83.10380099999999","true"
"ChIJdeavRBppOToRDBQY8JZIQ3E","Bharat Petroleum, Petrol Pump -Sri Sai Medha Pure Fuels","D block, Road, Tungalam, Auto Nagar, Visakhapatnam","17.6996999","83.1915423","true"
"ChIJhXftR-9pOToR_w320Hc9RqE","Anuradha Auto Lubes - Lubricants in Vizag","Plot No. 91, 92, B-Block, Auto Nagar, Visakhapatnam","17.695861","83.19572699999999","true"
"ChIJ1ZqDSwBvOToR5BC5l14VHhw","Nayara Petrol Bunk Pedamusidivada","P453+M89, Pedamusidivada","17.7098729","83.1027421",""
"ChIJlzt_RwBvOToRsTWyUXczCjk","Hindustan Petroleum Corporation Limited","Ground Floor, Sabbavaram Road, Lankelapalem","17.697364","83.097019","true"
"ChIJd8ElU_NvOToRmteqKBPolXE","Hindustan Petroleum Corporation Limited","Ground Floor, Sabbavaram Road, Lankelapalem","17.697364","83.097019","true"
"ChIJQdhTqm1pOToRTJlV3Iua4xg","Indian gas agency","P52X+GW2, Auto Nagar Road, BHPV Township, Visakhapatnam","17.7010242","83.1998043",""
"ChIJK_A8WLJvOToRAe0VRLYW3dQ","Sri venkata satya agencies","P4MP+F6M, Nanginarapadu, GVMC 88th ward, pedda gollapalem post, sabbavaram, mandalam, Nanginarapadu","17.7365355","83.1352735","true"
"ChIJd1v4NgBvOToRCgIHTjNPypI","Bharat Petroleum Petrol Bunk","M3HV+2V, Visakhapatnam","17.6774819","83.0952078",""
"ChIJzxSLButvOToRuDdlldNw87w","Hindustan Petroleum Corporation Limited","Ground Floor, Pharma City, Lankelapalem","17.6760019","83.0948413","true"
"ChIJo-FxEABvOToRBX_ff_ntqWk","HPCL Petrol Bunk","Pharmacity Road, parvada Road, Lankelapalem","17.67590599999999","83.094838",""
"ChIJ6ZPDdQBvOToRygn2faJp01A","SNJR BHARAT Petroleum station","SNJR, BHARAT PETROLEUM PUMP, near sri Annapurna transport","17.6869881","83.08033669999999",""
"ChIJuavjfABvOToREhHU8us0nec","Bharat Petroleum Petrol Bunk","P4P2+PFV, Paidiwada Agraharam","17.7357008","83.10187169999999",""
"ChIJ0fQd99FpOToRjuIXgznJWmg","Hindustan Petroleum HPCL Petrol bunk","13, 530011, 62-1-13, ramakrishnapuram, High School Road, Sriharipuram, Visakhapatnam","17.6891355","83.2408628","true"
"ChIJV-rFZHlCOToRHonrIAiRV6s","IndianOil","Lock No, T1/31, Malkapuram, Visakhapatnam","17.6875535","83.2556113","true"
"ChIJw3mApIJCOToR08z6jfIXb0w","Bharat Petroleum BP-VIZAG INSTALLATION","P742+9CX, BPCL Road, HPCL Steel Plant","17.70599","83.2511035","true"
"ChIJ37VMvJZCOToRVZNWcIYJn2c","BPCL- Vizag Port Petrol Bunk","Scindia Rd, Collgate Bus Stop, HPCL Steel Plant, Visakhapatnam","17.7149854","83.26581639999999","true"
"ChIJFf_hdAdoOToRZVAGHHT35Gs","IndianOil","Karasa Ward No 31, S No 651, 652 & 653, Marripalem, Visakhapatnam","17.7407621","83.2427755","true"
"ChIJ9UlQlg9nOToRRP9zuxqTsNA","Reliance Petroleum","Door No 58, 17/50/1, NAD Kotha Road, Gate, Oppsite, NSTL, Visakhapatnam","17.7464402","83.24027869999999","true"
"ChIJm3za7bZCOToRQjgjrdV2WbI","Hindustan Petroleum Corporation Limited","S No 60/1A, near Old ITI Junction, D No 57/1/92/1A & 2A, Kapparada, Visakhapatnam","17.735311","83.268541","true"
"ChIJB81X37JCOToR4TvuLP8Fuxg","IndianOil","Lock No, T1/6, Muralinagar, Kapparada, Visakhapatnam","17.7416896","83.2639913","true"
"ChIJs7OgS1VCOToRIK5uPRa2XDs","IndianOil","Lock No T1/84, opposite Town Police Station, Port Area, Visakhapatnam","17.6958091","83.2930063","true"
"ChIJ99Bt8CxpOToRYoLFgEgOQJY","Essar Petrol and Diesel","M6RH+C5M, Gajuwaka - Scindia Road, Pittalavanipalem, Sriram Nagar, Visakhapatnam","17.6910986","83.2279101",""
"ChIJT5f27MtpOToR91fNL87b1r0","SATYA JAISHEEL PETROLEUMS, CORAMANDAL GATE, MALKAPURAM","65-1-194/c, High School Rd, Coromandel Gate, Ajantha Colony, Sriram Nagar, Sriharipuram, Visakhapatnam","17.6905735","83.23233429999999","true"
"ChIJdQ4seABpOToRzMpZs1HHopo","SDN FRUIT AND FLOWERS","M6QM+X7V, Coromandel Gate, Sriharipuram, Visakhapatnam","17.6899848","83.2329483",""
"ChIJfxyba0dpOToR-1zP-Q-yK30","Hindustan Petroleum Corporation Limited","RS No 23, HPCL Housing Complex Sriharipuram, Yarada Park Road, Malkapuram, Visakhapatnam","17.6888314","83.2410543","true"
"ChIJM0-4OwBDOToRxg39LIARwN4","Indian Oil Petrol Bunk","M7Q4+255, T1-31, Gajuwaka - Scindia Road, HPCL Steel Plant, Visakhapatnam","17.6874403","83.255618",""
"ChIJfY4JJgBDOToRQBo57-0YQ4M","Ganapati site petrol pump and cng station","M7Q4+27Q, Visakhapatnam","17.6875917","83.2557333","true"
"ChIJBUl4ECJoOToRUj18fDqoIDk","Hindustan Petroleum Corporation Limited","S No 2, Allagadda, Petro Park, Port Road, Visakhapatnam","17.7175939","83.24510509999999","true"
"ChIJB5J3cwBDOToRjm_xRn-M4rs","EIPL LPG Terminal","P763+G2Q, East India Petroleum Road, HPCL Steel Plant, Visakhapatnam","17.7113363","83.25259609999999",""
"ChIJ_RkLbQBpOToRWqZbMaI8bbM","Hindustan Petroleum Corporation Limited","Ground Floor, NH 516E, Port Connectivity Road, Visakhapatnam","17.7188322","83.2467334","true"
"ChIJD5_zWABpOToRw6M8uxJ3YJo","HP Fuel Station","Port Road, HPCL, Visakhapatnam","17.7188322","83.2467334","true"
"ChIJn3NyQABDOToRkINADekfrrM","Circar petrol pump","M7R9+J4X, Scindia Road, Hindustan Shipyard Colony, Visakhapatnam","17.69160429999999","83.2678686",""
"ChIJcwvOIwBpOToR1WRmTTab7VA","Signals","P6PJ+FM6, Kakani Nagar Road, Kakani Nagar, Visakhapatnam","17.7361624","83.2316441",""
"ChIJdagvgvhpOToRYTiHJOblHJI","Nayara Petrol Bunk - Vasishta Express Fuel Station","Survey Number 238/1, MES Pump House, Peda Narava","17.7399823","83.19972109999999","true"
"ChIJ9xngqr1nOToRAQO4zxM-eMM","IndianOil","Lock No, T1/14, Nad Junction, Visakhapatnam","17.7430768","83.2354639","true"
"ChIJ_5n6HN1nOToRXzCaXSa3EuM","Bharat Petroleum, Petrol Pump -Sapthagiri Filling Station","Araku - Visakhapatnam Road, Nad Junction, Buchirajupalem, Gopalapatnam, NSTL, Visakhapatnam","17.74515","83.2243703","true"
"ChIJ2WEEHxlpOToRoDie2n6MOjc","Bharat Petroleum, Petrol Pump -Sri Sai Petroleums","MARRIPALEM, VISAKHAPATNAM, Visakhapatnam","17.7407914","83.24692739999999","true"
"ChIJ43aJ7ABoOToRP23AjZy8fDk","Hindustan Petroleum Corporation Limited","S No 96/3, Main Road, Marripalem, Visakhapatnam","17.740651","83.249219","true"
"ChIJdT7UMQBnOToR5pjBjyPgTHQ","Sri Bharpani petroleum JIO BP","P6WR+M35, NSTL, Visakhapatnam","17.7466437","83.2402425",""
"ChIJgQscD9BnOToR4w3Y3Y_rjYQ","Hindustan Petroleum Corporation Limited","D No 8/12/60, Araku - Visakhapatnam Road, Gopalapatnam, Marripalem, Visakhapatnam","17.7524796","83.2180028","true"
"ChIJjddMAWhDOToRJrBouA6saqA","Hindustan Petroleum Corporation Limited","CR Reddy Circle, opposite Andhra University, Siripuram, Visakhapatnam","17.7229421","83.317978","true"
"ChIJbUGz5S1DOToRLSJ8Yu95AAU","Hindustan Petroleum Corporation Limited","near Police Station, Plot No 121 & 122, Balayya Sastri Layout, Visakhapatnam","17.738161","83.304751","true"
"ChIJcYeQ5S1DOToRWaos5UvnpsE","IndianOil","Ward No 34, VPT Land, Survey No 2/1, Dondaparthy Extn, Visakhapatnam","17.73997499999999","83.29608700000001","true"
"ChIJm-ScRjxDOToRiGE-Ss4mp7s","IndianOil","Lock No T1/71, Resapuvanipalem, Visakhapatnam","17.7329263","83.317839","true"
"ChIJA96o7y1DOToRgWgC3DARgYA","Kusum Kunj Enterprises","P8Q3+M8M, NGGOS Colony, Akkayyapalem, Visakhapatnam","17.739205","83.3032861","true"
"ChIJi6vzultDOToRUAA-RB8mYAE","Hindustan Petroleum Corporation Limited","opposite Polamamba Temple, S No 111, Pedda Waltair, Visakhapatnam","17.7294172","83.3289934","true"
"ChIJc3ILwDVDOToRwlJRzVDxmxs","IndianOil","Lock No T1 8, AP State Civil Supplies, Eenadu, Seethammadara, Visakhapatnam","17.740299","83.313411","true"
"ChIJ0f1TSVJDOToRxLQgmlnCDo0","IndianOil","L No T1, 91011, Isukathota, MVP Colony, Visakhapatnam","17.740999","83.32790399999999","true"
"ChIJUXnDbaZEOToRHOUI87v20Xk","Bharat Petroleum","Sarovar Apartment, 105, Beach Road, Lawsons Bay Colony, Pedda Waltair, Visakhapatnam","17.7319789","83.3407762","true"
"ChIJPTwdBFNDOToRMFv6OPQCy50","Bharat Petroleum Petrol Bunk","P8VH+2CC, MVP Double Road, A.P.G.O Colony, Sector 1, MVP Colony, Visakhapatnam","17.7425659","83.3285033","true"
"ChIJCTY-iv1COToR-7yR0GZYvfE","Hindustan Petroleum Corporation Limited","D No 26/3/8, Chittaranjan Marg, Visakhapatnam","17.704401","83.2933201","true"
"ChIJZePXbcxDOToRzvblveb_VBk","BPCL - Matsya Marines","FISHING HARBOUR RD, VISAKH, Visakhapatnam","17.7000524","83.3029471","true"
"ChIJ6fGZeSlDOToRcJR4jv3NQq0","Pratibha Vaishnav","STREET, Kotha Agraharam, Jalaripeta, STREET, Visakhapatnam","17.7011365","83.30225709999999",""
"ChIJVb3_37FpOToRv1zTYp3GV5w","Ramachandra Gas Agencies","21-1-35, Town Kotha Road, AVN College Down, Jagadamba Junction, Visakhapatnam","17.7044571","83.29805259999999","true"
"ChIJ64oPUR1DOToRfHeWy90164U","IndianOil","Lock No T1, 29, 75 Feet Road, Old Town, Visakhapatnam","17.7086828","83.29339829999999","true"
"ChIJcfEDTx1DOToR_ZoDdrIL2Bw","Hindustan Petroleum Corporation Limited","D, 26/3/1, 75 Feet Road, Purna Market, Visakhapatnam","17.709151","83.294321","true"
"ChIJy9KrLxtDOToRBlB7LQ-xiDY","Hindustan Petroleum Corporation Limited","Turner Choultry, D No 28/8/34, Main Road, Jn, Town Kotha Road, Visakhapatnam","17.709361","83.300921","true"
"ChIJiwEjDY5DOToR5LsQ2buQAAE","Akshaya fire services","Raja Rammohan Roy Road, Suryabagh, Jagadamba Junction, Visakhapatnam","17.7114208","83.2988197",""
"ChIJFdWV4RpDOToRHg3BREkifWY","Hindustan Petroleum Corporation Limited","D No, 28/2, Turners Choultry Main Road, Maharani Peta, Jagadamba Junction, Visakhapatnam","17.7108908","83.3015944","true"
"ChIJ6e8e5R1DOToRWtBJFiuE17E","Bharat Petroleum","P77V+HM3, Bowdara Road, Daba Gardens, Allipuram, Visakhapatnam","17.7138809","83.29417409999999",""
"ChIJa-B5bDVDOToRWrYEheXN-J8","Tirumula enterprises BPCL petrol station","beside Manorama Theater, 32-1-179, Bowdara Road, Allipuram, Visakhapatnam","17.7138709","83.2942364","true"
"ChIJz7x-9RtDOToRcEG3XDet7p4","IndianOil","No T1, Lock, 88, Leelamahal Road, Daba Gardens, Visakhapatnam","17.713301","83.298897","true"
"ChIJOy7wxyJDOToRCbvZ7UDwCvk","IndianOil","Lock No T1/13, Convent Junction, Visakhapatnam","17.717301","83.289001","true"
"ChIJewBnW7lDOToRQOcwPPLBLKQ","Kiran fuels","325 Kiran, Maharani Peta, Visakhapatnam","17.7127956","83.30872699999999",""
"ChIJTSJam0pDOToRG7oZ5inLGa0","IndianOil","opposite DRM OFFICE, Station Road, Rateti_Aswini, Dondaparthy, Visakhapatnam","17.7181392","83.29919629999999","true"
"ChIJ9d2C7iNDOToRm2MnElBCsIw","Indian Oil","P7GX+5WJ, Waltair Station Approach Road, Dondaparthy, Railway New Colony, Visakhapatnam","17.7254579","83.2997516",""
"ChIJsYC7odhCOToRuRid7RbLD4Y","IndianOil","D No 43/9/216, Sri Siddi Enclave, Railway New Colony, Visakhapatnam","17.72765039999999","83.29305049999999","true"
"ChIJm-ScRjxDOToRzEiwEdiMkr4","Hindustan Petroleum Corporation Limited","D No 48/19/11, Asilmetta, Opposite RTC Complex, Visakhapatnam","17.7248401","83.30774009999999","true"
"ChIJy6EYJDxDOToRGTko9BlNI5E","Bharat Petroleum Petrol Bunk","Riza Mansion, 9-1-262, Rama Talkies Road, CBM Compound, Asilmetta, Visakhapatnam","17.72487","83.3091656",""
"ChIJFx8E4jdDOToRDS7dokg6UHc","Petrol Pumps","52-14, 77/a, 1st Lane, Dwaraka Nagar, Visakhapatnam","17.7257937","83.3075105",""
"ChIJm_QQf39DOToRYDOOem8aPtk","Hindustan Petroleum Corporation Limited","Ground Floor, near Siripuram Junction, Siripuram, Visakhapatnam","17.7212283","83.3195022","true"
"ChIJ8Zq0wPNDOToRePb3BGX8xmg","Bharat Petroleum, Petrol Pump -Lakshmi Samanvi Fuels","VIZAG CITY (DIAMOND PARK), Visakhapatnam","17.7317968","83.2995237","true"
"ChIJeb2L-TpDOToRKWBnrWfcoHc","Reliance Petroleum","D No 50, 81/1, 6 Seethampeta, Dwaraka Nagar, Visakhapatnam","17.7303301","83.306455","true"
"ChIJ-5NYCQBDOToR63hA-MTCCbE","Vtc tower","P8G8+F5Q, Asilmetta, Visakhapatnam","17.7262172","83.3154703",""
"ChIJEUrxHjlDOToRIthVQMbC1vA","రవి క్రిష్ణ మెస్","India","17.7285537","83.311939",""
"ChIJfysQ29ZCOToR2M0beyxne4s","Hindustan Petroleum Corporation Limited","Shop No 5/2C/1, WN 34, Railway New Colony Road, Thatichetlapalem, Visakhapatnam","17.7354421","83.2888955","true"
"ChIJfar_OUZDOToR00FLm4qop20","Geo Fuel Pump","Back Side, Staff Quarter, Andhra University, Visakhapatnam","17.7255081","83.32167510000001",""
"ChIJm-ScRjxDOToRwPmZkL4wBSw","Hindustan Petroleum Corporation Limited","Door No 52, next to Bullayya College, 14/77/2, Resapuvanipalem Road, Visakhapatnam","17.7304578","83.3149071","true"
"ChIJszX2IyNDOToRcqgmFHAMtcs","Bharat Petroleum, Petrol Pump -Sujatha Agencies","M.V.P COLONY, VISAKHAPATNA, Visakhapatnam","17.7321733","83.317139","true"
"ChIJJ8d5IFlDOToR9yZFTt0GYJE","Siva Jyothi Enterprises CNG","9-1-44, Resapuvanipalem Road, AU North Campus, Resapuvanipalem, Andhra University, Visakhapatnam","17.732425","83.31778419999999",""
"ChIJY-1IAABDOToRRvqW5kSS8uE","HPCL Petrol Bunk","P8Q7+37X, Seethammadara, Visakhapatnam","17.7377302","83.31324219999999","true"
"ChIJaVmEEltDOToR0UEKx28z7t8","Inidan Oil","India","17.7289846","83.327473",""
"ChIJ-TbfxkZkOToRycmxB98Oiss","Hindustan Petroleum Corporation Limited","S No 130/2, Sabbavaram","17.802348","83.13963199999999","true"
"ChIJc4bN8kRkOToRlJ8YadxAAoM","IndianOil","Ground Floor Patha Road, Main Rd, Adduru, Sabbavaram Agraharam","17.8017001","83.1349","true"
"ChIJyfQwWf1lOToR5gr0yrWFMmc","Sri Ganesh filling station","Iruvada","17.7797915","83.1290464","true"
"ChIJyas8hAFlOToRxj6UhALVPC8","Bharat Petroleum, Petrol Pump -Sri Satyasai Enterprises","SABBAVARAM VILLAGE, VISAKH, Visakhapatnam","17.7822096","83.1170228","true"
"ChIJ84FCRQBlOToR7rrI3F7Bg8E","Nayara petrol bunk","Q4QF+W34, Sabbavaram","17.7897607","83.1227031",""
"ChIJfUeVPABlOToRGZAiN_en63Y","VSP-0-J-006","R42M+8VJ, Sabbavaram Agraharam","17.8008013","83.13460719999999",""
"ChIJl_yoLABlOToRhF1V-RDc4ec","Vizag","R42M+8VJ, Sabbavaram Agraharam","17.80083","83.134655",""
"ChIJC7XOh1BlOToReyEtZPfpbWY","IndianOil","Lock No T1/28, Adduru","17.8034001","83.1405","true"
"ChIJMU07ZwBlOToRLzx1bWBj4o8","Petrol Pump","SH-38, Chodavaram Road, Gotivada","17.7932454","83.11554799999999",""
"ChIJ16wMtJZmOToRGjnyevV_RlQ","Hindustan Petroleum Corporation Limited","S No 85/2, 3, 7 & 8, Pendurthi Vepagunta Pinagadi, Road, Rampuram","17.804964","83.178381","true"
"ChIJEZNsVJ9mOToRVGCjl8tBYO8","IndianOil","Ground Floor, Pendurthi, Chinamushidiwada, Pinagadi","17.81001","83.1699","true"
"ChIJT-4Y56JmOToRZAkWmY2pVIc","Hindustan Petroleum Corporation Limited","S No 64/22/25/26, Pinagadi","17.8127108","83.1742161","true"
"ChIJZ8p6wrBnOToRxRN3HDMtguk","IndianOil","Lock No T3 & 120, Vepagunta, Visakhapatnam","17.77200329999999","83.21628439999999","true"
"ChIJebEJzrBnOToR-qgrjwsiLjI","HP Gas Godown","Q6C8+FJ8, NAD Flyover, BC Colony, Vepagunta, Visakhapatnam","17.7711598","83.2165775","true"
"ChIJLev7PtBkOToRcYas6pBt-VI","IndianOil","Sy No 107, 678 21, Sh 38, Lagisettipalem","17.7939108","83.0881757","true"
"ChIJzezLJgVnOToRLt-iq1dXU2o","BFFS","Krishnarayapuram, Visakhapatnam","17.7838702","83.2144596",""
"ChIJScobkqlnOToR6SrEzGnwCzc","Hindustan Petroleum Corporation Limited","Survey No 32, 11 & 12A, BRTS Road, Krishnarayapuram, Pendurthi, Visakhapatnam","17.7864873","83.2137006","true"
"ChIJuWhpMdhmOToRe6kmGOxjpoc","Bharat Petroleum","S NO 221 Penduthi Village Mandal, Pendurthi, Visakhapatnam","17.8235255","83.2048142","true"
"ChIJ5eRbk3BnOToRI1BebVN3y2s","HP Petrol Bunk","Survey No 211, Old Gosala Junction, near Gopalapatnam, BRTS Road, Old Adavivaram, Simhachalam, Visakhapatnam","17.771132","83.2355778","true"
"ChIJD3R63etnOToRuGVCujIOBsE","Information","D.no 402:, Sri Vigneswara Nilayam, back side hp petrol bunk, Sujatha Nagar, Visakhapatnam","17.7967465","83.2130438",""
"ChIJX_qOoANnOToRDJ0CZFTGYfA","Hindustan Petroleum Corporation Limited","S No 151/2, Papayyarajupalem Junction, Chinnamushidiwada, Pendurthi, Visakhapatnam","17.796781","83.211541","true"
"ChIJ9RL9VeZnOToRFNvd8SI-RMc","IndianOil","Ground Floor, Pendurthi, Visakhapatnam","17.81811099999999","83.206411","true"
"ChIJASsQAQBDOToR__UBXjVdUzI","Bharat bunk kailasapuram","P7VM+66R, Ganesh Colony, Visakhapatnam","17.7431094","83.28301569999999",""
"ChIJt6Z21dlmOToRNBp50jL2olY","Dora Filling Station","India","17.8232388","83.2049361",""
"ChIJP87DNOVnOToRX74Mn3FRoOs","Hindustan Petroleum Corporation Limited","S No 221, Pendurthi, Visakhapatnam","17.8260049","83.2144916","true"
"ChIJ_XDLNNhmOToRbMGWnJCAiaw","Hindustan Petroleum Corporation Limited","Survey No 188, 2B, Kothavalasa Road, Pendurthi, Visakhapatnam","17.8252406","83.2042687","true"
"ChIJb6i8eqtcOToRqCeOn2xE10k","Bharat Petroleum (Venkojipalem Petrol Bunk)","223, MVP Colony, MVP Sector 1, Venkojipalem, Visakhapatnam","17.747549","83.3315939","true"
"ChIJgxT6Aa1EOToROcPl6zzlKaY","IndianOil","MNVP Colony, opposite Appu Ghar, Beach Road, Kailasagiri, Visakhapatnam","17.7430196","83.3441065","true"
"ChIJvf-7iU5DOToRQc5OhSlIm7M","Bharat Petroleum","P8QF+54C, B.A.R. & Co, BPCL Petrol Bunk, # 53-17-17/2, Maddilapalem, National Highway 16, Maddilapalem, Visakhapatnam","17.7377451","83.3225911","true"
"ChIJlfZTIadcOToRDHQLKQgJ5NQ","Bharat Petroleum BPCL Petrol Bunk","Service Road, Indira Gandhi Nagar, Adarsh Nagar, Visakhapatnam","17.7617115","83.3339556","true"
"ChIJud7YEltDOToRJkkiHa9cuwY","IndianOil","Lock No T1/16, Chinna Waltair, Visakhapatnam","17.7290004","83.32749629999999","true"
"ChIJo67L0lZbOToRISPtL1t3j5M","Police Welfare Petrol Bunk (HP) - Hindustan Petroleum","9-580, Police Quarters Road, Vishalakshi Nagar, Visakhapatnam","17.753821","83.341293","true"