place_id,name,address,latitude,longitude
"ChIJd9vbxprAvzsReKpdik33wiQ","BPCL Petrol Pump","GR2G+957, Altinho, Panaji","15.5009118","73.8254371"
"ChIJTXQTr47AvzsRBOchqhLwDzs","Vernekar Marketing","Suyash Complex, near Old Passport Office, Swami Vivekanand Road, Ozari, Panaji","15.4957373","73.82536019999999"
"ChIJa-RhcobAvzsR5wjX4UJW-L0","Hindustan Petroleum Corporation Limited","Chalta No 40, PTS 35, near Panaji Residency Hotel, Dayanand Bandodkar Marg, Panaji","15.5004299","73.8310961"
"ChIJRQuNcobAvzsRXA40JRrh-bM","Agências Bharat Petroleum","GR2J+2PG, Mahatma Gandhi Road, Campal, Patto Colony, Panaji","15.5000658","73.8318211"
"ChIJAQAAAJTAvzsR0Gb7YooTNVA","Bharat Petroleum Corporation Limited","Plot No 32, E D C Complex, Patto, Post Baug No 228, Panaji","15.4969111","73.83466419999999"
"ChIJvyaUPmLAvzsRwRWIdQBM940","Bharat Petroleum","GR4G+G53, Alto- Betim Porvorim, Bardez","15.506267","73.825435"
"ChIJmUTP_YzAvzsRIc7i-X0Wcvc","Bharat Petroleum Petrol Pump","FRWC+8C9, near Don Bosco High School, Mahatma Gandhi Road, Santa Inez, Panaji","15.49578109999999","73.82110569999999"
"ChIJATHHJ4PAvzsRtVgHTKawgE4","IndianOil","opposite Kadamba Bus Terminus, Neugi Nagar","15.4951585","73.8391086"
"ChIJW4uDPJrAvzsRA-3fJSb1-uk","Hindustan Petroleum Corporation Limited","No PB 138, Rua de Ourém, Tiswadi, Panaji","15.488901","73.83196099999999"
"ChIJMwYeF4bAvzsR-KQPfhahvZ0","HP PETROL PUMP - MANGUIRISH S CENT. PANJIM","Road Panaji GOA, Avenida Dom João de Castro, Vasco Da Gama","15.5005081","73.8308253"
"ChIJz_fibYnAvzsR_KNfAZpd2Gc","G M S Contoco & Bros","GR2G+94X, opposite Ferry Point, Dayanand Bandodkar Marg, Ozari, Panaji","15.500985","73.825373"
"ChIJsXScgYbAvzsR9SsSPD6o_a8","Hindustan Petroleum Corporation Limited","Survey No 2850 & 2851, No, PB/138, Dayanand Bandodkar Marg, Near Head Post Office, Tiswadi Nearr, Panaji","15.4996653","73.83339"
"ChIJudjExprAvzsRUHGghChQouU","Bharat Petrol Pump","FRVJ+4P9, Rua de Ourém, Altinho, Panaji","15.4927803","73.8318438"
"ChIJXRxDMx_BvzsRqsJ44fDCXtA","Goa Natural Gas Pvt Ltd CNG Station","Neugi Nagar","15.4953416","73.8391015"
"ChIJVVVVVWTAvzsROxEuyK4kRms","Bharat Petroleum Petrol Pump.","NH-17, Alto near Teen Building Alto- Betim Porvorim, Porvorim","15.5193846","73.8291097"
"ChIJwz2ctVbAvzsRRxunJ7ReAwo","Hindustan Petroleum Corporation Limited","near Shantadurga Temple, Survey No 84/6, Nerul Coco Beach Road Reis Magos, near Shantadurga Temple, Bardez, Nerul","15.5082991","73.8021022"
"ChIJ29cl2NHAvzsREW6y0VCw5w0","Indian Oil Petrol Pump","Miramar, Panaji","15.4655658","73.8066056"
"ChIJfVQmtfjBvzsR1i3Df8qIwF4","IndianOil","Ground Floor, Dando, Caranzalem, Panaji","15.465588","73.8065522"
"ChIJ2e1e2Om4vzsRT723nKSTVZ0","IndianOil","near Football Ground, Survey No 183/13 Bambolim,Batim, near Football Ground, Agaçaim","15.439803","73.873283"
"ChIJd0OqtQy5vzsRqU-uvPURLBA","Petrol pump","CW55+5FV, near Ferry Point, Quelossim","15.4079779","73.90866"
"ChIJiZ6CLQC5vzsRRdddeeUZYJw","HPCL petrol pump","9VPG+HCH, Sancoale","15.3864399","73.8761033"
"ChIJl7GB_063vzsRuXAtl31HZMU","Hindustan Petroleum Corporation Limited","Survey No 46/1, National Highway 66, Verna, Mumbai","15.361322","73.927551"
"ChIJTeAHdlOxvzsR9mLrhaTinQw","Hindustan Petroleum Corporation Limited","Survey No 163, Rmc Plant, near Adwalpalkar Strongest, 1/A, Salcete, Loutolim","15.347739","73.96823599999999"
"ChIJ_4XeftOzvzsRIihTm_ZcMTI","Clarina BPCL Petrol Pump","Vidyanagar, Gogol Housing Board, Madgaon","15.2829212","73.98026829999999"
"ChIJJcplN3yxvzsRW2ATk2eS5Dk","Hindustan Petroleum Corporation Limited","Royal Enfield Showroom, No 5 & 57, Margao Bypass Road PT Sheet, Salcete, Fatorda, Arlem, Madgaon","15.290841","73.976491"
"ChIJ2S8OW5-zvzsRfHM1sSjU7aM","Hindustan Petroleum Corporation Limited","Survey No 77/9 & 77/13 Goa Mumbai Highway, National Highway 66, Navelim","15.2493959","73.9704091"
"ChIJJ8MvpBOzvzsRbKvQ_EF41mE","Furtado Fuel Center","6XX9+HJC, Bellem, Navelim","15.2489332","73.9690553"
"ChIJ648fRACzvzsRMZnF4H_qtbs","Bharat Petrol Pump","7X3V+RGF, Lakaki, Dikarpal","15.2545687","73.9938071"
"ChIJcz8mflGzvzsR5CZ_OgIjMCI","Ramnathkar Petroleum","next to Military Camp, Dikarpal","15.2545229","73.9939469"
"ChIJEa2-E4OzvzsR4uyGQyXgqng","Bharat Petroleum Petrol Pump","NEAR REGINA APARTMENTSACSONA, DIULAR","15.2553627","73.9443113"
"ChIJwWNKp-mzvzsRnQFvzzHS_6M","BPCL Pump","Madgaon","15.2719078","73.956643"
"ChIJx0_-ROizvzsRn2Pj_JDN98U","Y.R. N. Kurade BP Petrol Pump","BP Petrol Pump, Abade Faria Road, Comba, Pajifond, Madgaon","15.2739044","73.9574433"
"ChIJJVCFROizvzsRe_xD-UloaF4","Hindustan Petroleum Corporation Limited","Chalta No 215, opposite Municipal Garden, Goa Mumbai Road, Salcete, Madgaon","15.274161","73.957411"
"ChIJO9asmVuzvzsRcHBaYjsqx1w","Shree Kamakshi Filling Station ADHOC","Abade Faria Road, Comba, Pajifond, Madgaon","15.2742746","73.9574068"
"ChIJt_IleABNvjsR7IyRzU-Bby4","Hindustan Petroleum Corporation Limited","ground floor, Quitol, Betul, Quepem","15.2759619","73.9583889"
"ChIJV0YB7OezvzsRCZYAbpVaoO4","Hindustan Petroleum Corporation Limited","Chalta No 171, No 207, PT Sheet, Salcete, Padre Miranda Road, Madgaon","15.277011","73.958411"
"ChIJ75qyPgCzvzsRKDF0Wl-WLXk","Mohidin Auto Care Centre","7XH5+4GH, nr. CINEMETROPLOE, Pajifond, Madgaon","15.2778208","73.95887429999999"
"ChIJz0XKBxKzvzsRvoum0jLMp8s","Bharat Petroleum","nr. CINEMETROPLOE, Madgaon","15.277884","73.95877060000001"
"ChIJb94ruD1NvjsR4dFzd63T5m8","BP Petrol Pump","Cuncolim","15.1784534","73.99896729999999"
"ChIJD7eenrtNvjsRIIVNmU7fols","Dessai Petrol Pump","NH 66, Pattem, Bally","15.1485504","74.02006659999999"
"ChIJ1zhJryZNvjsRmbOTlpGHGCc","Hindustan Petroleum Corporation Limited","Survey No 269, near Cuncolim, 2C, Road, Industrial State, Ambavali","15.184906","74.017938"
"ChIJrYvD9jJNvjsRM3wlo0JR62c","IndianOil","Ground Floor NH 17, Cuncolim, Salcete, Barsen","15.196733","73.99673299999999"
"ChIJ-5Md1_lTvjsRObvGEmu_jYk","IndianOil","Survey No 25, 1 AR, Cordem","15.1123459","74.0356566"
"ChIJW3uI_QJQvjsRe34JeeRfBfA","Hindustan Petroleum Corporation Limited","Survey No 191/6, near Panvel - Kochi - Kanyakumari Highway, NH 66, Goa Mumbai Highway, Gudi, Canacona","15.029391","74.03294100000001"
"ChIJjzaYsOZbvjsR5rSrHXYwKV0","IndianOil","Ground Floor Loliem, Canacona, NH 17, Agonda","14.9413424","74.0597016"
"ChIJp_2eI3JevjsRWnnVQZL4bAc","IndianOil","Ground Floor, Ramnagar - Karwar Road, Sadashivgad, Asnoti","14.8741229","74.1341174"
"ChIJN0gv22NcvjsRf1HZcqDBmCA","Hindustan Petroleum Corporation Limited","Bus Stand, Survey No 289/2, Loliem NH 66, near Polem, Mumbai Highway, Canacona","14.916916","74.08072600000001"
"ChIJNTqXTLBdvjsR7I14FSobaDk","shree mahamaya service station","Loliem","14.9141017","74.0833882"
"ChIJ66hf2zBhvjsRZeZ8YYiGpc0","IndianOil","Ground Floor, Binaga, Karwar","14.785206","74.133506"
"ChIJfSvMu3dnvjsR_FPgRGjqsWM","Bharat Petroleum Petrol Pump","Karwar Port, Panvel Highway, Edapally, Karwar","14.7983902","74.1149282"
"ChIJSTyGozRnvjsRKxKcTxQVKhw","Bharat Petroleum, Petrol Pump -V.R.Haldipur (Baithkol)","Baitkol Lighthouse, NH66, Edapally - Panvel Highway, Kodibag, Karwar","14.8012707","74.1176323"
"ChIJGxuMzxZnvjsRRLzguzjf7L0","IndianOil","Ground Floor, Baithakol, Karwar, Kajubag, Karwar","14.7993782","74.1115178"
"ChIJZ1p6vcRnvjsRRamQLiNG1aU","IndianOil","Ground Floor, Awara Road, Karwar","14.8007047","74.1125675"
"ChIJ47fDjtNgvjsRFktlayf-ykA","Haldipur Petrol Bunk","Green Street, Kodibag, Karwar","14.8066223","74.12791279999999"
"ChIJuVezk9NgvjsROZpJi_BMXJI","IndianOil","Ground Floor, near Subhash Chandra Circle, Green Street, Karwar","14.8070809","74.12818109999999"
"ChIJqQXP79NgvjsR0jqijOoO9gM","Bharat Gas Agency,Jantabaza,kodibag","R44H+RH9, State Highway 6, Kodibag, Karwar","14.8070341","74.1289875"
"ChIJVcPULtJgvjsRgapJ5VO3uNc","IndianOil","Ground Floor, Dr Kamalakar Road, Green Street, Kodibag, Karwar","14.8095972","74.1294143"
"ChIJSV8yp3BhvjsRp0l7GbQq3Yk","IndianOil","Ground Floor Chendia, Yana - Karwar Road, Amdalli","14.7690501","74.1638901"
"ChIJrRqOBABhvjsRIyu7ef-Y_sQ","Arga,chendia, petrol pump","Q597+JHW, Naval Base Karwar, Arga","14.7691225","74.1639604"
"ChIJSbjGdNWJvjsRTrgGNnQhVDE","Bharat Petroleum Petrol Pump , NORTH KANARA DIST CO-OP FISH MKTNG","FISHING HARBOUR, Amdalli","14.746292","74.228421"
"ChIJIYSaY9yIvjsRSj8adQvK9wc","Hindustan Petroleum Corporation Limited","Ground Floor, NH 17, Hallikeri","14.713261","74.293261"
"ChIJG3q-ulWPvjsRld5utG1MAzU","dianOil","India","14.6797516","74.3155706"
"ChIJ4b53r1WPvjsRpvwRay-F_VE","Indian oil petrol pump","near Indian oil petrol pump, Ankola","14.6799346","74.315193"
"ChIJjUKbhweGvjsR_Tn4De-OWZU","IndianOil","Ground Floor, NH17, Shedgeri, Ankola","14.6684297","74.31209989999999"
"ChIJ70EuCrOIvjsRQELn0HuwOh0","IndianOil","Ground Floor, NH 63, Baleguli, Ankola","14.6926336","74.3090789"
"ChIJbRuiwgaHvjsR7rUIFrvfF68","P S Prabhu Petrol Bunk","vasudev building, opp. PS Prabhu petrolpump, Ankola","14.6614","74.3060648"
"ChIJjTyFxguGvjsRn_tY7bIRGis","Hindustan Petroleum Corporation Limited","Ground Floor, Ankola","14.659091","74.307931"
"ChIJiSoVRACFvjsRl5RQo0hHtnc","Pradeep Gaonkar Bole Auto LPG ⛽ ( GO GAS )","J8X9+XR9, Ankola","14.6499148","74.3196069"
"ChIJXclGJQCDvjsRSAAWGAxVu6I","Bharat petroleum","H9FM+FP9, Madangeri","14.5741242","74.3837805"
"ChIJIXlo4TmDvjsR7_UdUago2zY","Solo......","Madangeri","14.5740466","74.38379119999999"
"ChIJdyORO74nvDsRzRZJNHKi45k","IndianOil","Ground Floor, NH 17, Mirjan","14.480896","74.43322890000002"
"ChIJY1jzIFYvvDsRMVw1ToUr-ZA","Total Gas lpg filling station","NH 66 Kalbhag, Handigona","14.4050131","74.4055815"
"ChIJ56uspFUvvDsR7_PhzK_wsxY","IndianOil","Ground Floor NH 66, Alvekodi","14.4085922","74.40378609999999"
"ChIJudYEKwA7vDsR2glydnx0BDQ","Hindustan Petroleum Corporation Limited","Ground Floor, NH 17, Honnavar","14.282601","74.4526601"
"ChIJj3__e_86vDsRACJ4cjzUar8","Bharat Petroleum","India","14.2799399","74.4492538"
"ChIJVTHaUSo7vDsRT8DlRmRj1gM","Priyadarshi Fuel Station - BP","Honnavar","14.2799312","74.44924400000001"
"ChIJRXP9Sak7vDsRDKi11kKIDtg","IndianOil","Ground Floor, Honnavar Port, Honnavar","14.2768711","74.4401391"
"ChIJ8_KqJwA7vDsRGVPHxFhfWWU","North kanara district co-operative fish marketing federation LTd. Honnavara","7CGJ+3PH, Kasarkoda","14.2756052","74.43140009999999"
"ChIJeTXFAOo6vDsRtOZv-8vWcpU","IndianOil","Ground Floor, Honnavara, Karki","14.3009531","74.4344211"
"ChIJub9gxi86vDsRnEYCzxeDlvY","IndianOil","Ground Floor Mangalore Road, National Highway 66, Areangadi","14.2441101","74.44278609999999"
"ChIJ-yXuwNg7vDsRGx2XbMHeX2E","IndianOil","Ground Floor, Honavar, Kavalakki","14.2977559","74.49450259999999"
"ChIJT1WBMtRAvDsRwpXjtfDK3wI","IndianOil","Ground Floor Mavalli, Bhatkal, Murdeshwar, Anantwadi","14.1057406","74.50459579999999"
"ChIJx2Ys07ZBvDsRi7lz4QSHDpM","IndianOil","Ground Floor Nirgadde, Bhatkal, Murdeshwar","14.1159207","74.5026756"
"ChIJFT0Rv4w5vDsRN0uzLdB1fvU","Bharat Petroleum Petrol Pump , SHREE JANARDAN AUTOCARE","SY NO - 18, MANKI","14.1802078","74.4875888"
"ChIJ895RwzVBvDsRXE8ysFzTc1A","Hindustan Petroleum Corporation Limited","Ground Floor, Bhatkal, Bengre","14.061451","74.507925"
"ChIJvVtMnVVDvDsRgFY8szS5eMY","IndianOil","Ground Floor, Bhatkal","14.0512145","74.514336"
"ChIJt6OgVaNDvDsR14JO6G9ye0c","Yadhuveer Petro Park","3G27+7P8, Bangaramakki","14.0506689","74.51433329999999"
"ChIJydiDucJCvDsRVfLpuvph9f0","IndianOil","Ground Floor, Susgadi, Bhatkal, Belke","13.9924089","74.5589267"
"ChIJAcIXpOFCvDsRcpOz8xIiBKQ","Bharat Petroleum Petrol Pump and CNG Gas Station","National Highway 66, Near, Kargedde, Bhatkal","13.9964527","74.54879989999999"
"ChIJy-3TAx5DvDsRSR3yi5VrWF0","IndianOil","Ground Floor, NH 17, Karwar Rd, Belke","13.9977998","74.5462214"
"ChIJD47QqjJDvDsRXOztcyLSkWA","IndianOil","Survey No 15A, Bhatkal","13.9688098","74.5345177"
"ChIJ60ZbSwBnvDsRqlgNcakMFHo","Ad blue","NH 66, Hadhalli, Shiroor","13.9402551","74.5958139"
"ChIJD_i4EEdnvDsRQVFJdHwoMR4","VEERAJ FUEL STATION HP Petrol Pump","VJX7+PV2, National Highway 66, Melpangthi, Shiroor","13.899257","74.61463049999999"
"ChIJI9UU2WVnvDsRD6IH3qATIUI","IndianOil","Ground Floor NH 17, Kurandur","13.911672","74.6031196"
"ChIJW6LRD-VgvDsRHjIyBHcMR7A","Bharat Petroleum, Petrol Pump -S.G. Enterprises","Kollur - Baindur Road, Baindur","13.8535227","74.6303657"
"ChIJkQpWCflgvDsRgzux4lq3ieY","Essar Oil","RJVJ+6RW, Bijooru","13.843103","74.6320726"
"ChIJnRc3rtpgvDsRbo5HibcLl90","IndianOil","Ground Floor Barline Road, National Highway 66, Baindur","13.873189","74.6288761"
"ChIJtxXvEs1nvDsRxFF_sSjNjeo","Hindustan Petroleum Corporation Limited","Ground Floor, near Green Valley School, NH 17, Kundapura, Mohideenpura, Shiroor","13.8992644","74.6142594"
"ChIJBXYQdwBhvDsRgSaqhiXYkzM","Falcon GoGas Auto LPG Station","VJ7H+2M9, Baindur","13.8625271","74.62923479999999"
"ChIJMf08hbxhvDsR_ajxRPOn09c","IndianOil","Ground Floor, near Kisan Seva Kendra, Yedthare","13.8525251","74.6296658"
"ChIJH6r8cB2NvDsR3v7sSnafFZo","Sowparnika fuel station (hp)","MMQ2+XJQ, Trasi Proper","13.6899663","74.6515994"
"ChIJPwxk-GWMvDsRhujgxoLuc_0","Hindustan Petroleum Corporation Limited","Ground Floor, Trassi Road, Gangolli - Trasi Road, Kundapura","13.689951","74.651673"
"ChIJt4SRTW-MvDsRdLCMsTJ7udA","IndianOil","Trasi, Maravanthe","13.6892691","74.6524357"
"ChIJSza0SxSMvDsRdm0RMXvtLzk","ESSAR","India","13.6881919","74.66757419999999"
"ChIJkw7zFQCNvDsR0VSIW_JV4J8","M/s Gali Shrinivas And Son'S","Hosadu","13.6880627","74.66759320000001"
"ChIJJ5bCmP2NvDsRqBrmmuHPaDE","H S Fuel & CNG Mullikatte","National Highway 66, Hosadu","13.6890899","74.66877"
"ChIJlZE6JBSMvDsRjhl7Arl7brE","Indian Oil","India","13.6886278","74.66889880000001"
"ChIJz6ZK_lWNvDsROAfWGjedM3g","BPCL - Suprabha Fuels ,Kollur&Maranakatte road,Mullikatte.","MMVG+C7X, Ganadamakki Road, Bantwady, Hosadu","13.6936115","74.6757356"
"ChIJEWZj6ACLvDsRydS1HF5KNII","IndianOil","Ground Floor, opposite Govt Junior College, Navunda, Badakere Proper","13.7463701","74.63789009999999"
"ChIJGYQMIgCNvDsRe8rqcZXGNx4","Hindustan Petroleum Corporation Limited","Ground Floor, NH 66, Hosadu","13.6865477","74.6757219"
"ChIJF4xxnAiOvDsRnFaY4hX7xb0","Hindustan Petroleum Corporation Limited","Ground Floor, Kundapura","13.630311","74.69079099999999"
"ChIJrVSW_YyRvDsRL9vRS7HsqgM","Hindustan Petroleum Corporation Limited","Ground Floor, Kundapura, Koteshwara Proper","13.5941701","74.6956301"
"ChIJQZ5eqv6RvDsRVWO4Aw8H1nw","IndianOil","Gandhi Maidan, Ground Floor, NH 17 Mangalore Rd, Kundapura, Udupi","13.613386","74.692464"
"ChIJBYyaxT-RvDsRASoZpRCsO2I","MAHALASA GO GAS","opp. Vinayaka Talkies, NH66, opp. Vinayaka Talkies, Kundapura","13.6111521","74.6935297"
"ChIJEypM692RvDsR4YAvZeHE4CQ","IndianOil","Ground Floor Vaderahalli, Kundapura, Adi","13.614796","74.6987049"
"ChIJG1isEfGRvDsRThnmOk__uuk","Reliance Petroleum","opposite Ankadakatte, Survey No 334, 1A1 Kasaba, Koteshwara Proper, Nh 17, opposite Ankadakatte, School, Kundapur","13.6040408","74.6950079"
"ChIJtW3KjqKRvDsRuCo9vGCmom4","Karthikeya fuels","Kundapura - Shimoga Road, Kundapura","13.612595","74.71049239999999"
"ChIJO8syBhGOvDsRyzs619XHg8I","IndianOil","Gandhi Maidan, Ground Floor NH 17, Karwar Rd, Kundapura, Udupi","13.634059","74.701854"
"ChIJq54YhoyRvDsRliX9NP_oy44","Hindustan Petroleum Corporation Limited","Sy No 88/3, Bus Stand, near Koni, Kundapura - Shimoga Road, Koni","13.6142026","74.7167168"
"ChIJXfRIK5SRvDsRUH4RWQAdEW0","IndianOil","Ground Floor Koteshwara, Haladi, Road, Kundapura","13.5918023","74.70720759999999"
"ChIJcbSiSEuRvDsRYLgn9DzgTiE","HI TECH AUTO GAS","Hi Tech Complex, 77 Kundapur Road Koteshwar Beejady Cross, near Coastal Crown Mall, opp. Maiyya Dose Camp, Udupi","13.5874707","74.6978122"
"ChIJz7VOh8iRvDsRg9ZP5pO6dLM","Bharat Petroleum, Petrol Pump -Rajalakshmi Service Station","KOTESHWAR, UDUPI","13.5874433","74.6984033"
"ChIJ5dGB_IqRvDsRT43gRxWVrrQ","KALIKA BIO FUEL","HPV8+FH, Koni","13.5936444","74.7163892"
"ChIJe-9tpGwFsDsRMOB9niDWOUI","IndianOil","Ground Floor Gangolli Port, Bunder Road, Kundapur, Ganguli","13.639228","74.6700195"
"ChIJPdErleuNvDsR7YalyAbUKtU","IndianOil","Ground Floor, Bunder Road, Gangolli","13.6410547","74.6711234"
"ChIJ3zrNzviNvDsR6HM4yV90OAE","IndianOil","Ground Floor, Kundapura","13.6477881","74.6746249"
"ChIJZ5vU7WiOvDsRKcSC4kByRpE","Rajani Fuel Centre","National Highway 66, Tallur","13.6517719","74.7065003"
"ChIJXaNcq9CNvDsRfO_OvulbUFI","IndianOil","Ground Floor, Manganese Road, Gangolli","13.6492127","74.6728352"
"ChIJa9AeCb8MuDsRpYyX3R7zuw8","IndianOil","Ground Floor, Kundapura, Basroor","13.6296886","74.7354002"
"ChIJW8jn0miRvDsRZ9MMqGFZn80","IndianOil","Ground Floor, Kundapur, Gopadi","13.5699395","74.69105739999999"
"ChIJV-iGOMeXvDsRTH_I5qGQwRw","IndianOil","Ground Floor, Pandeshwara - Barkur Road, Halladi, Harkadi","13.463543","74.75057699999999"
"ChIJnzHsYSSXvDsRWQXXyL5L36c","GO GAS station","Nanda Theatre, Bus Stop, Edapally - Panvel Highway, Gundmi Village","13.4744477","74.71405810000002"
"ChIJNVswtV2WvDsRRYoa9uSbQv4","Bharat Petroleum Petrol Pump","FPH7+677","13.4780447","74.7131766"
"ChIJMQ1NmtWXvDsRlSBYU6mO9ec","IndianOil","Ground Floor, National Highway 66, Varamballi","13.4426856","74.7371908"
"ChIJjW1PcaCXvDsR883IyUWnpgI","Nayara Energy-Barkur","Brahmavar-Barkur Road, Kachoor","13.4621514","74.7493716"
"ChIJA6-14caXvDsRjyZ7KtJcryo","Propel","India","13.4620693","74.74960380000002"
"ChIJZ1L70ai9vDsRVRNwT7v8RX4","Sri Vinayaka Total - Auto LPG Brahmavara","Hebri - Brahmavar Road, Bramavara","13.4400848","74.7404835"
"ChIJkQKxxX29vDsRbf9B75itkGY","TotalEnergies","CPQR+X6V, Service Road, Bramavara","13.4399764","74.74053310000001"
"ChIJCYC0GaGXvDsRadhvTfhB1Jo","Hindustan Petroleum Corporation Limited","Ground Floor, Herady, Barkurpete","13.4839773","74.7530127"
"ChIJ_0m4rEOXvDsRQ31a-SI025g","MRPL HiQ Fuel Station, Saligrama","Saibrakatte Road, Chitrapaadi","13.5087188","74.7093847"
"ChIJDYnGZYW8vDsRtboppNko8Qo","Hindustan Petroleum Corporation Limited","Ground Floor, NH 17, Kinnimulki, Nittur, Udupi","13.3627978","74.74369779999999"
"ChIJl0jOwV27vDsRoDZGHDtmyX0","Bharat Petroleum","Udupi-Agumbe Highway, State Highway 65, Kunjibettu, Udupi","13.3463727","74.7586973"
"ChIJUfUA-3O9vDsR69TwplzkVyI","Hindustan Petroleum Corporation Limited","Ground Floor, NH 17, Udupi Kundapura Road, Bramavara","13.424581","74.74000099999999"
"ChIJEyJemPO8vDsRi8vu44gtiGo","IndianOil","Ground Floor, NH 17, Puthur, Udupi","13.3778591","74.74108850000002"
"ChIJQ0-8Q129vDsRhfFVCO6YN-Y","Sushma Filling Station","Survey No 209/46, near Perampalli Nekkar Krishnadasa Marga, Udupi","13.367625","74.752803"
"ChIJ-369Wte9vDsRml-66pTiwAA","IndianOil","Ground Floor, Co Op Society, near Uppoor, Thenkabettu Road, Kelarkalabettu","13.3905547","74.7581659"
"ChIJLcoVETS9vDsRm3gqeVOXSBg","Sima fuels & services Bharat petroleum , sima tours & travels","Bus Stop, Kudure Kalsanka, Kalsanka Ambagilu Road, Nittur, Udupi","13.3597008","74.7494873"
"ChIJ_ZnJWQC9vDsRzuaZR6EMaug","Hindustan Petroleum Corporation Limited","Ground Floor, Mooduthonse Kemmannu Road, Thonse West","13.389727","74.71493699999999"
"ChIJw5eQ1528vDsRsBOTBJWVvko","IndianOil","Ground Floor, Kalsanka Ambagilu Rd, Gundibail Doddanagudde, Kunjibettu, Udupi","13.3547916","74.7510715"
"ChIJJewPNwC9vDsROXGAw0vAxmI","Shree Varaha Energy Station","tenku mane, Malpe Road, Tenkanidyoor","13.3626014","74.7170486"
"ChIJVVWnCp68vDsRpK6hyFa8izg","Hindustan Petroleum Corporation Limited","Ground Floor, Gundibail, Kunjibettu, Udupi","13.3540701","74.7512201"
"ChIJX7oEmTtbozsRmoxjPCOyknM","IndianOil","Ground Floor, Kallyanpur Hampankattemoodu, Tonse, Udupi","13.3897713","74.7115532"
"ChIJY54yMaRFZzkRq6OVzvFJC38","IndianOil","Ground Floor, NH 66, Ambalpadi, Udupi","13.3447938","74.7361346"
"ChIJp1-W0Hq7vDsRXfrCPNT_bpI","SNEHA GO GAS STATION","8PVV+G6W, SIRI BEEDU BANNANJE, Udupi - Agumbe Highway, Thenkpete, Maruthi Veethika, Udupi","13.3438561","74.7430651"
"ChIJU7KoQF29vDsRiR62KFHEsHc","JAI GANESH FUELS","Indizel Fuel Diesel Pump, 57 6 E, Panvel - Kochi - Kanyakumari Highway, Heroor","13.4165872","74.7424221"
"ChIJrfAsGQC7vDsRM0Dl55gZvX0",",बेवा चौराहा","8PVW+HX8, Udupi","13.3439188","74.74745039999999"
"ChIJ2W9pAGW7vDsRz9cgDj9LpGM","Hindustan Petroleum Corporation Limited","Ground Floor, near City Bus Stand, Maruthi Veethika, Udupi","13.3439","74.748083"
"ChIJ7yQUy2W7vDsR6mIjomnRAyc","IndianOil","Ground Floor, Kalsanka - Rajangana Road, Udupi","13.3441889","74.7502473"
"ChIJS6Gw3XS7vDsREcscW1Ebcfs","IndianOil","Ground Floor, near Triveni Ice Plant, Ambalpadi, Udupi","13.341696","74.735755"
"ChIJwZMTTRG9vDsRCitaeCqOCbU","Bharath Petroleum,Srilaxmi Fuels and CNG Station","next to Hotel Manasa, Baikady, Bramavara","13.4204914","74.73958859999999"
"ChIJVzunppO6vDsRx-1s10SbGy4","Hindustan Petroleum Corporation Limited","Ground Floor, NH 17, Katpadi","13.282121","74.749371"
"ChIJM4rnMe26vDsRPj9kmKpqJJk","IndianOil","Ground Floor, NH 17, Karwar Road, Katpadi","13.2855191","74.7475334"
"ChIJK6GAjaW6vDsRW6ol443Xy2k","IndianOil","Ground Floor, Bailoor","13.2710193","74.7677784"
"ChIJzeRl5_y6vDsRqvgvM_5sfwg","IndianOil","Ground Floor, NH 66, Udyavara, Alevoor","13.304115","74.7437899"
"ChIJuaCOqJ26vDsRrhGDLqcFY5k","Hindustan Petroleum Corporation Limited","Survey No 59/10B & 59/19B NH 66, Kaup, Mooda Bettu","13.2649243","74.7486576"
"ChIJiyly0newvDsRBlof6OeMa04","Shanthi Oil","India","13.26208","74.7480853"
"ChIJs6cXXE67vDsRDBkl78RLUOQ","Hindustan Petroleum Corporation Limited","Ground Floor, NH 17, Katpadi","13.282121","74.749371"
"ChIJGz-tJIOvvDsRWgszP-XiLAs","IndianOil","Ground Floor, Kurukalu, Bantakal, Shankarpura","13.2564962","74.7822936"
"ChIJ6bkDS4u7vDsR679LNW8niZA","IndianOil","National Highway 66, Udyavara, Udupi","13.3039436","74.7440381"
"ChIJ5ViYXP26vDsR_LP_cVLxKgs","OG Autogas (Aegis Autogas)","8P4V+PQ6, National Highway 66, Korangrapady, Bailoor","13.3067983","74.74440539999999"
"ChIJO5bCjE-wvDsRBE6LQg4upTQ","IndianOil","Ground Floor NH 17, Mangalore Road, Kalathur, South, Udupi","13.228428","74.746922"
"ChIJgxv0pgilvDsRsrD7WuQF0AQ","MRPL HiQ Dendoorkatte","Gram Panchayat, SH 37, Dendoor Katte, Manipura, Udupi","13.2943156","74.7810129"
"ChIJYVqF0fKxvDsRclKWx5M5E84","Bharat Petroleum Petrol Pump , Elite Service Station","SY NO 25/7 & 127/4,MALLARU VILLAGESHIRVA, ROAD, Kombagudde, Kaup","13.225597","74.757109"
"ChIJS5LUwH2yvDsRieSmugR4HBY","IndianOil","Ground Floor NH 66, Nadsal","13.1313814","74.7733262"
"ChIJTULGnIWtvDsR7AfZBg_0FwY","IndianOil","Ground Floor, Padubidri","13.140991","74.7890201"
"ChIJf4lHoc2zvDsR8wEEdwtbuoI","Kalyani Petroleum Indian Oil","Edapally - Panvel Highway, Yermal","13.1649964","74.7623454"
"ChIJSb4yS4KxvDsRMZ3_Bk5s4hg","Hindustan Petroleum Corporation Limited","Ground Floor, Yermal, Bada","13.177251","74.758961"
"ChIJFZVL7_SxvDsRuWZ78ctk_zc","Budhagi Service Station HP Petrol Pump","Budhagi Service Station Yermal Bada Village, NH 66,Udupi Taluk Yermal, Mangalore","13.1775455","74.7584334"
"ChIJD4C5pHSzvDsRUBMSKIkz0ZY","Bharat Petroleum Furtado Fuels","4QWC+9WV, National Highway 66, Padubidri","13.1459759","74.7723075"
"ChIJYwMLaXGyvDsRaha0j9G2q1w","Hindustan Petroleum Corporation Limited","Ground Floor, Surathkal, Padubidri","13.145541","74.773011"
"ChIJSTtcbz6zvDsRlJd9YLaXr0I","Vishal Service Station, Padubidri","POST YERMAL, Bada","13.1408219","74.77208879999999"
"ChIJ4atT2WStvDsRAitb_oHko2w","Bharat Petroleum Petrol Pump , VISHAL SERVICE STATION","POST YERMAL, Bada","13.140784","74.7815199"
"ChIJVZzP9rtSozsR1_5oKa0ncOI","HP PETROL PUMP - SRI BALAJI FUEL STATION","HPC Dealer Karnad NH 17 Karnad, Mangaluru","13.0698","74.7971"
"ChIJATPR6FOtvDsR_4t2YWDAoZ0","IndianOil","Ground Floor Shuvavagali, Mulki, Aithikaribettu","13.0898941","74.78799099999999"
"ChIJha3IfplTozsRk36Y56QoAgI","Mishwar Service Station","3RF5+2RH, Mulki, Badriya Nagar","13.0725631","74.809624"
"ChIJ18ZG5xitvDsRplzHg3XBHOM","Bharat Petroleum, Petrol Pump -M A Krishna Nayak & Co(Mulki)","National Highway 66, Mulki","13.0827813","74.7895377"
"ChIJxVfiH45SozsRbkjMGPyK7ho","IndianOil","Ground Floor Haleangadi, Mangalore","13.0526248","74.79674589999999"
"ChIJcbaC5YlTozsRVLUC18Ha_0k","Balakrishna Petroleum","S Kodi junction, Kinnigoli, Mangaluru","13.0600792","74.8227259"
"ChIJ4WnuvVdTozsRWQRrF1IFphU","Bharat Petroleum","2RW8+73H, Haleyangadi","13.0456816","74.8152348"
"ChIJMT3YafVvqTsRgIwGd3s2g5M","IndianOil","Ground Floor Haleyangadi, Kemral","13.0523506","74.8267328"
"ChIJ1TVoODhTozsRxRKTKBUGEoA","Firdos Stor","Vijyanda Building, Pakshikere","13.0452139","74.821343"
"ChIJ12yoF-CtvDsRhuGfFxpX-K8","IndianOil","Ground Floor, Avral, Hejamadi, Kaup","13.1017697","74.7880888"
"ChIJieMG6BBTozsRc0yl4U6eID0","IndianOil","Ground Floor Murathamale, Battakodi, Kinnigoli","13.0594686","74.84123520000001"
"ChIJ99XccUxQozsRxYoQRFVKRXY","Deepak Sales and Services - BPCL Petrol Pump","West Coast NH 66 Opp Industrial Area Baikampady Panambur, New, Mangaluru","12.9490998","74.810379"
"ChIJQ8olMKFQozsR_lgMVl-fnHc","IndianOil","Ground Floor, Panambur, near Nmpt Hospital","12.937382","74.804315"
"ChIJMx7qyVpQozsRWevj9tLsM7c","JB Highway Service Station","near Panambur Beach, Mangaluru","12.940372","74.8160719"
"ChIJ4cmAqmFQozsRHj594ZX8jgY","Highway Petroleum Agency - HPCL","Panvel - Kochi - Kanyakumari Highway, Panambur, Baikampady, Mangaluru","12.9470716","74.8123274"
"ChIJkQ8KPYZQozsRoPShMDtMIdA","IndianOil","No 201, Veekay Towers, Bangrakulur, Mangaluru","12.9196784","74.8318366"
"ChIJQ3mqu1vypDsRgUHTtlZmlt0","HP PETROL PUMP","Hpcl","12.977921","74.8346296"
"ChIJq6qqan1aozsRXxL_v4lWeqU","IndianOil","Abbakkanagara Layout, Derebail, Mangaluru","12.907771","74.83609799999999"
"ChIJL5fb9k5QozsRBtqWnyuYgpI","IndianOil","Ground Floor, Panambur, NH 17, Meenakaliya, Mangaluru","12.9452817","74.8125117"
"ChIJo24NeGFRozsRS5-hyf6ic6w","Vishnu Enterprises","opposite to Nmpt Ground, Vishnu Enterprises Nh 66, opposite to Nmpt Ground, Mangaluru","12.9455908","74.8124709"
"ChIJoVkarVpQozsRqeNMEf_vHhs","MRPL HiQ Retail Outlet, Panambur","WRR8+87H, New Mangalore, Industrial Area, Baikampady, Mangaluru","12.9408242","74.81574309999999"
"ChIJL5oEdwBRozsRLh1OQbBKsIA","SWATHI SERVICE STATION","WRX5+MXP, Panambur Beach Road, New Mangalore, Kuloor, Industrial Area, Baikampady, Mangaluru","12.9492024","74.8099671"
"ChIJq8UV5oFRozsRVIdDUcwIHJQ","NAYARA PETROL PUMP","WRX6+W8J, Industrial Area, Baikampady, Mangaluru","12.9498448","74.8107657"
"ChIJj7fgYktQozsR8ficyg8T7Yo","IndianOil","Ground Floor, Panambur","12.950521","74.80970099999999"
"ChIJpQkpd1RQozsRcIeTjDS8moQ","BPCL LPG Bottling Plant, Mangalore","575011, Unnamed Rd, New Mangalore, Industrial Area, Baikampady, Mangaluru","12.9497085","74.8218043"
"ChIJpds-CbFRozsRd5nTZeGgh4A","Bharat Petroleum Corporation Limited Mangalore Territory, Mangalore Coastal Installation","XR57+Q6V, New Mangalore, Industrial Area, Baikampady, Mangaluru","12.9594982","74.8130607"
"ChIJK-qxvYlQozsR9p-Y9kqejjQ","IndianOil","National Highway 66, Kuloor, Mangaluru","12.9242276","74.8292462"
"ChIJOd-2eHRRozsRFlIyWOhqu4g","RR AUTO LPG gas station","Honnakatte, Kulai, Mangaluru","12.9680472","74.8058081"
"ChIJ16DPhaxRozsRp1Zg1QYFUeY","Bharat Petroleum, Petrol Pump -Edathil Fuels","THOKUR","12.924376","74.83214869999999"
"ChIJVyoOQtdRozsRwxCdgoqc7vU","Bharat Petroleum, Petrol Pump -Sowkar M Baba Pai (Lady Hill)","MLR, LADYHILL, Mangaluru","12.9242718","74.8322088"
"ChIJHTxhb6FbozsRB3CWiwFD360","Reliance Petroleum","Survey No 25, opposite Frontline Motors, 1C1 & 25/1C2, National Highway 66, Kuloor, Bangra","12.9194728","74.8327244"
"ChIJ6ztjCPdbozsRnT4AfBTVUd0","IndianOil","Ground Floor, Permannur","12.824248","74.8603845"
"ChIJDUR26LhbozsR8CnQdT8fGfU","IndianOil","Ground Floor, near Mangaladevi Temple Road, Mangala Nagar, Mangaluru","12.8500955","74.84841999999999"
"ChIJxUqLdDVaozsRcKU2V6khQ_A","Bharat Petroleum","VV92+6QP, Mother Theresa Road, Bendoor, Mangaluru","12.8680832","74.8519452"
"ChIJeT_f2CxaozsRQjBmpELGdjc","IndianOil","Ground Floor, near Pumpwell Circle, Pumpwell, Mangaluru","12.8673871","74.8654918"
"ChIJFUElgCxaozsR-R95SixO3kw","IndianOil","Ground Floor, opposite Capitanio High School, Nanthoor, Mangaluru","12.8692989","74.8679523"
"ChIJ88gbfX9ZozsRbgFi1yEZahI","Bharat Petroleum Corporation Limited","Railway Consumer Depot, Junction, Mangaluru","12.866989","74.87764"
"ChIJC29XFatbozsR08B6IuG0dSk","IndianOil","South Wharf, Bunder, Mangaluru","12.8551519","74.8332003"
"ChIJQ3UGOjZaozsRqy_Z4JVO2pY","Bharat Petroleum","near Meena Sea food Restaurant, Mallikatte, Kadri, Mangaluru","12.8735693","74.8513696"
"ChIJ3eUr-0taozsRayjaPDQ-4eU","Petroleum and explosives safety organisation","VRCW+46P, KMC Mercara Trunk Road, Hampankatta, Mangaluru","12.8703371","74.8455754"
"ChIJs4F1w09aozsRKeS9g1OwksQ","Bharat Petroleum, Petrol Pump -M A Krishna Nayak & Co(Kodialbail)","Kodailbail, Mangaluru","12.8744995","74.8399132"
"ChIJi7BYtBVaozsR_cAE0hiEsaQ","IndianOil","Ground floor, Kadri Hills, Mangaluru","12.890659","74.854843"
"ChIJXyMgMABbozsRB_ToXL_kx-U","Hindustan Petroleum Corporation Limited","St No 42, Block No 2, S No 644/P1 & P2, Mangalore Rd, Marnamikatte, Mangaluru","12.8499945","74.8477111"
"ChIJ78B8dfhbozsRWbe4MdNQeOI","Bharat Petroleum, Petrol Pump -St Joseph Service Centre","Valencia Road, Kankanady, Mangaluru","12.8590117","74.8551313"
"ChIJsfOeFdNbozsR_PFznHe_BF8","IndianOil","Pumpwell Circle, Kankanady, Mangaluru","12.8649239","74.8666316"
"ChIJz3h3dDVaozsR5Jcnye7bcSc","United Motors","VV92+6QP, opposite Sanjeevini Doctors Avenue, Falnir Road, Mangaluru","12.8680832","74.8519452"
"ChIJ4S2K28FbozsRn_ohxzYQsMw","Falnir","VR8X+XGX, Falnir Road, Bendoor, Mangaluru","12.8674936","74.8488673"
"ChIJnfGuYyxaozsRLjmmUtVDEoI","Oil Centre","India","12.8695278","74.8673112"
"ChIJA8mgg5dbozsRxvhAKKIlnJ8","IndianOil","Hampankatta, Mangaluru","12.8680422","74.84697849999999"
"ChIJAQAAMDdaozsRoTc2TBQ80v4","IndianOil","Ground Floor, Balmatta Road, Mangaluru","12.87239","74.8542171"
"ChIJWaUrTaJbozsRLVR-s-0CS-4","HP Petrol Pump","Bunder, Mangaluru","12.8534939","74.83359759999999"
"ChIJOUpjnwpeozsR9w9WiTfWF2A","Bharath Petroleum Petrol Pump Thalapady - Kerala","QV3F+FPP, Kanwatheertha, Thalapady JHC","12.7537007","74.87433399999999"
"ChIJxa3QnN9dozsRuF0Dk4oL0o0","IndianOil","Ground Floor, NH 17, Thalapady JHC","12.757723","74.8734079"
"ChIJjRJz5nldozsR48yNJZlMwJQ","Hindustan Petroleum Corporation Limited","S No 115, 2A2, National Highway 66, Talapady","12.766782","74.87082699999999"
"ChIJidZ1VothozsRvSTuyeVcdfc","IndianOil","Tin 32130236722C NH 17, Manjeshwaram, Anekallu","12.719701","74.8953701"
"ChIJa_G7YbRdozsRY_LyQnKtRU4","MRPL HiQ- R V FUELS","D No : 8-1-105, Block, Uchila","12.7721531","74.8665354"
"ChIJyZxHo0ldozsRS-h774hcwLI","Jio-bp","VILLAGE:SY.NO 95, 6AP1 -P4, NH-17, Someshwar Village, DISTRICT :","12.776088","74.86523559999999"
"ChIJqVatSYFdozsR35IWukGyovY","BPCL Petrol Pump, Someshwara Fuels & Energy","Bus Stand, Uchil, Kalavarnika, Someshwara","12.7774446","74.8648112"
"ChIJ_7-UKUddozsRTuR6ldr8TFc","KALANDER ZAKARIYA","Thalapady JHC","12.7767823","74.8632772"
"ChIJU-OHpkhhozsR0FP2qzwfCc4","Prakash agency Bharath petroleum","Angadipadavu, Hosangadi, manjeshwar, 671323, Durgipalla Road, Manjeshwar","12.7082521","74.9087381"
"ChIJPeo4qUliozsR3b5aWiGxumM","Hindustan Petroleum Corporation Limited","Ground Floor, NH 17, Bandiyod, Shiriya","12.6217245","74.92918240000002"
"ChIJ1WyzAw5hozsRj-l9QKXze8Q","IndianOil","near Bus Stand, Ground Floor NH 17, Ammeri, Uppala, near Bus Stand, Kasaragod","12.673726","74.909168"
"ChIJ5Y55chphozsRMgk_HRaYIRw","Bharat Petroleum Purushotham Fuels","Edapally-Panvel Highway, Kasaragod, Uppala","12.679355","74.90502099999999"
"ChIJ48ykc1BjozsR-BUbVvRYJPQ","InSquare Petroleum (MRPL)","JWPF+GRQ, Bandiyod, Mangalpady","12.6367479","74.92529259999999"
"ChIJGTq7JbxiozsR3E1nhTabeFE","IndianOil","National Highway 66, Perwad, Mogral","12.5772174","74.95056"
"ChIJuYG1Z75iozsR_rrtfj37LNM","Hindustan Petroleum Corporation Limited","Ground Floor, Rajeev Nagar, Perwad, Kumbla (Kumble)","12.5785129","74.9488135"
"ChIJh26tsZFiozsR9RiJupvRKn4","Bharat Fuel Agencies Petrol Pump","Kumbla–Badiadka Road, Kumbla (Kumble)","12.5901062","74.95252339999999"
"ChIJD8bb652CpDsRzEwIo_01KEw","Chowki Bharat Petroleum BPCL Petrol Pump","PO, Kavugoli, Kudlu","12.5305576","74.96889829999999"
"ChIJUUQxKbxiozsRwrRR1O22MXI","Formula-1 Service Station","Nh66, Perwad, Kumbla","12.5775341","74.9504422"
"ChIJowXudcOCpDsRAPmCFywBSGs","Hindustan Petroleum Corporation Limited","Ground Floor, Kasargod Madhur Road, Uliyathadka, Madhur","12.543463","74.9998586"
"ChIJe8I95QuDpDsRAIIAS5j7bdU","AK SONS PETROLEUM","Kasaragod – Madhur Road Uliyathadukka-madhur, road, Chowki -Uliyathadukka, Kasaragod","12.5438228","75.00006320000001"
"ChIJq8a14nWBpDsR25BGYAIPBhg","IndianOil","Tin 32130543609C Kanhangad, Kalanad Road, Chemnad","12.456026","75.015125"
"ChIJl0IZfQ6BpDsR7gMVX--62Uk","Hindustan Petroleum Corporation Limited","Ground Floor, Udma","12.444861","75.023301"
"ChIJrxRG6UKCpDsRZOoTu3J6bUQ","C T Moideen Kunhi And Brothers","Petrol Pump, Kasaragod","12.5033616","74.9928786"
"ChIJhdHVq4GDpDsRakY8V6h392I","MRPL Petrol Pump - M.I.K Fuel Station","opposite Jama-ath Higher Secondary School, Chemnad","12.491879","75.0027577"
"ChIJZ4MVpYODpDsRKV17s6zy9n0","Hindustan Petroleum Corporation Limited","Ground Floor, MG Road, Kasaragod","12.503391","74.99291099999999"
"ChIJgb9Dwt59pDsRcwIzm2N40fA","IndianOil","Tin No 32130654546C Kanhangad Kasargod SH, Chittari, Kasaragod","12.3597056","75.0650658"
"ChIJ9Y8Edjd8pDsRZ16O2SR0tN0","Hindustan Petroleum Corporation Limited","Ground Floor, Manikoth, Kanhangad","12.332671","75.081531"
"ChIJ8ZdTXEB8pDsRFWIrWammisE","United Agencies, BPC","Puthiyavalapu, Kanhangad","12.3231027","75.0862339"
"ChIJR5ujLaeApDsRWeh6EfHsIqQ","IndianOil","Ground Floor, Pallikere - Periye Road, Kanhangad","12.387702","75.04357399999999"
"ChIJo0USUACBpDsRmQTjaxi9hQg","Biogas Plant","92QR+4GM, Pallikere","12.387827","75.041292"
"ChIJHehCEFF8pDsRMikiGnJ-ot8","Bharath Petroleum petrol pump & CNG Station","83PX+GX3, Puthiyakandam Village, Kanhangad","12.3362604","75.0999356"
"ChIJ1-D85AJ7pDsRHxN_f3cdpaw","IndianOil","opposite AG College, Tin 32130664918C Padanakkad, Bengalam, opposite AG College, Kasaragod","12.257893","75.11725500000001"
"ChIJ90heJOd6pDsRQi6t6R9uqic","Hindustan Petroleum Corporation Limited","Ground Floor, Nileshwar","12.249741","75.12879099999999"
"ChIJ69zeGeB6pDsRAA3Jo1kAay8","Petrol Pump","744H+7XF, Nileshwaram – Edathode Road, Nileshwar","12.2556775","75.12992109999999"
"ChIJQbckk916pDsR_tTMXQXFYAM","IndianOil","Ground Floor NH 66, Nileshwaram, Kasaragod","12.249547","75.132252"
"ChIJoY3_0gp7pDsR-MyEi3L8UYY","IndianOil","Ground Floor, NH 17, Padannakkad","12.277358","75.11021"
"ChIJQdNOeZ96pDsRHjV4s58YS_I","Hindustan Petroleum Corporation Limited","Ground Floor, near Madakkara, Thuruthy - Achamthuruthy Road, Madakkara, Harbour","12.2149348","75.13079069999999"
"ChIJcaoJxaF6pDsRRUxJCMigm5M","Madakkara BPCL- Petrol Pump","648J+6R8","12.2155368","75.13208829999999"
"ChIJ_xqWEtJkpDsR4gRR90lRPuU","Sree narayana Nayara fuel station","7595+8JJ, near Block junction, Nileshwar","12.2683403","75.1590093"
"ChIJ11i_KLpvpDsR9nx905dJhnY","IndianOil","Ground Floor, Karivellur, Taliparamba, Ettukudukka, Karivellur","12.1833811","75.1840989"
"ChIJr5CLjCtwpDsRct39KFS4fOU","IndianOil","Ground Floor, Thekkepuram, Padne","12.172421","75.149106"
"ChIJkddJIJJupDsRrVvxhh3YYYI","Hindustan Petroleum Corporation Limited","opposite Village Office, Ground Floor Payyanur, opposite Village Office, Kasaragod - Kannur Road, Vellur","12.144231","75.214451"
"ChIJvWd6gvhvpDsRHDG9QDGHPbs","Bharat Petroleum Cheruvathur","NH 17, Cheruvathur","12.2135792","75.16279209999999"
"ChIJ26PqlslvpDsRijLPE9K9qOc","Hindustan Petroleum Corporation Limited","Ground Floor, Anoor, Karivellur","12.190031","75.173731"
"ChIJTX0JyzlvpDsRE0cb9GtwO0s","TRIKARIPUR FILLING STATION","TRIKARPUR FILLING STATION BUILDING, 136/7, Thangayam, Thrikaripur","12.1483942","75.1828105"
"ChIJA1CwCPdvpDsRaZFLmlaS8o0","TRIKARIPUR FILLING STATION","Xl/ 13, Filling Station, Thrikaripur","12.1457497","75.1828417"
"ChIJeVccMWpupDsRYML1p4K_BwM","BPCL Chovvery Petrol Bunk","45WM+738, Chandera – Trikaripur – Olavara Road, Chovvery","12.145652","75.18271159999999"
"ChIJFe7MDe5vpDsRZaWi8qOB2zI","Hindustan Petroleum Corporation Limited","Ground Floor Kannur, Kasaragod - Kannur Road, Pilicode","12.202711","75.162291"
"ChIJueexu-pupDsRBo-986_iTrQ","IndianOil","Ground Floor Aravanchal, Kankole","12.1508151","75.22331369999999"
"ChIJe_6BDOpupDsRv5ywCkfLcJY","KANKOL SERVICE CO OP BANK LTD","XII/301, CO OP BANK BUILDING, Pulingome-Kozhichal Road, Kankole","12.1652884","75.23308279999999"
"ChIJxQmWNABlpDsR9fVGYJiU36s","BPCL Petrol Pump","65FR+96J, Chembrakanam","12.2234516","75.1905068"
"ChIJ83o4WABlpDsRBc2fUxfyVtM","ANEESH/KARTHIKA","65FR+FFX, Chembrakanam","12.223735","75.1912256"
"ChIJS5R9KnJupDsRK1qTyWX7EHs","IndianOil","Thankayam, Edachakai, Thrikaripur","12.1343106","75.18388019999999"
"ChIJ3Xa_NTlspDsRhInDJ9dG-Jw","Bharat Petroleum Perumba","NH 17, Perumba, Payyanur","12.1094858","75.2184568"
"ChIJe704_ztspDsRBH-kmNG4jCY","Hindustan Petroleum Corporation Limited","Ground Floor, Payyanur","12.111221","75.218641"
"ChIJoff4FDlspDsRQEiptM964Uc","Hindustan Petroleum Corporation Limited","Ground Floor, Payyanur","12.109291","75.217061"
"ChIJLx5L-xFrpDsRR-rHntgMB-I","IndianOil","Ground Floor, NH 17, Vilayancode, Pariyaram","12.0746109","75.2780957"
"ChIJZWU-60lrpDsR_GrHZ1jWzcM","Bharat Petroleum, Petrol Pump -Emcee Fuels","PILATHARA KNR, KANNUR","12.0826833","75.2572502"
"ChIJxw1iU9trpDsRZWJhn4Hfj1Q","IndianOil","Ground Floor, Kadannapally Road, Pilathara","12.0766555","75.2590496"
"ChIJ9xjLAABrpDsRgIgLyQ6loyw","MOTO DEF filling station kstp road pilathara","37F5+VQ7, Pazhayangadi Road, Pilathara","12.0746565","75.2594084"
"ChIJIVpfv41rpDsRrX_3ISwTIdM","IndianOil","NH 66, Vilayancode, Pilathara","12.0764192","75.2692151"
"ChIJr5XoJY1rpDsRAEtjC95UlQ4","IndianOil","RS No 79, Kadannappally","12.0990936","75.275729"
"ChIJ90wR_ztspDsRB-ZptqamMeA","Hindustan Petroleum Corporation Limited","Ground Floor, Payyanur","12.111221","75.218641"
"ChIJ7S8cpAprpDsRZhJ4Zu0u2B0","Hindustan Petroleum Corporation Limited","Ground Floor, Kadannappally","12.103237","75.281103"
"ChIJf5g3BjlspDsRONKVIXWn-Ao","IndianOil","Ground Floor, Aravanchal","12.1086829","75.2162426"
"ChIJPf6xELNrpDsROW_muzsmtA4","IndianOil","Ground Floor, Korom Aravanchal, Muthathi, Kanayi","12.1265112","75.2580703"
"ChIJwQ2fCcltpDsRVVjBSC4mq3o","IndianOil","Ground Floor Kandoth, Payyanur","12.1177731","75.2178177"
"ChIJ4atG9V1rpDsRhJ2xg6tKdA8","Bharath Petroleum Petrol Pump Alakyampaalam","Pariyaram","12.0736875","75.2830625"
"ChIJW1oykX1vpDsRDkG9WZ9-U-8","Bharat Petroleum - Amrita Fuel Station","KNR, NH17 PAYYANUR, KANNUR","12.1207111","75.21704559999999"
"ChIJgYNtdbkUpDsRCuezkNbLQQA","Hindustan Petroleum Corporation Limited","Ground Floor, near New Bus Stand, Pazhayangadi","12.027296","75.266879"
"ChIJIVxodPkUpDsRuEIjsMX4vTI","IndianOil","Ground Floor, Pazhayangadi Road, Cherukunnu","12.002122","75.28617299999999"
"ChIJ14zmYgcVpDsRd1d7fgwvWZI","Bharat Petroleum, Petrol Pump -Sree Krishna Agencies","PAZHAYANGADY RD KNR, KANNUR","11.9812259","75.3152894"
"ChIJmWhUTgAVpDsRdnnIGk6aCUw","Hindustan Petroleum Corporation Limited","Ground Floor, Cherukunnu","11.9774017","75.3185933"
"ChIJS4QkDfcVpDsRb-jI936UCrk","AVA Petroleum Bharath Pertroliem","p o, Pazhayangadi Matool Road, Thavam","12.0130773","75.27742549999999"
"ChIJXcs9aTEUpDsRZoQtggW2cwY","IndianOil","Ground Floor, near Oliyankara Juma Masjid, Matool","11.9686592","75.28775379999999"
"ChIJV3U5LgAVpDsRe7lywgPGDr8","pedlar vijayan","27JX+C3H, Ezhome","12.0310544","75.2977274"
"ChIJAzWPMoU9pDsRpHh7eZRnVxY","Hindustan Petroleum Corporation Limited","Ground Floor, Manna Road, Valapattanam, Kannur","11.9213984","75.35261349999999"
"ChIJR9V-a5A9pDsROE0yeHf4Cy4","IndianOil","Ground floor, Valapattanam, Kannur","11.924726","75.354523"
"ChIJ80EGuTA9pDsR_N_O8JSDZso","K C GOVINDAN","opposite to Amana Toyota, Valapattanam, Kannur","11.922375","75.35467580000001"
"ChIJ28SVxqs9pDsRhrHa7TMfjWw","IndianOil","Ground Floor, Valapattanam, Kannur","11.921965","75.354558"
"ChIJH6sAKhs9pDsRZVc1t1fsctg","Hindustan Petroleum Corporation Limited","Ground Floor, Manna Road, Valapattanam, Kannur","11.9213984","75.35261349999999"
"ChIJ_-zJEpk9pDsRXJ-tiWIUncc","Bharat Petroleum Petrol Pump , SREEDEVI AGENCIES","Chirakkal, Puthiyatheru","11.921241","75.361634"
"ChIJNWJPmp49pDsRcuWy7P8sNRA","A.M Water Service Station","W985+MP2, National Highway 17, Chirakkal","11.9166424","75.3592523"
"ChIJWa0pS4k9pDsR6RMSk-KHqRQ","Umar Abdullah BHARATH PETROLEUM BPCL VALAPPATTANAM","W8HW+2RG, Valapattanam","11.9275565","75.347073"
"ChIJIaPv7Zc9pDsRRQzPSIzLqsM","IndianOil","Ground Floor, Chirakk R S, Kattampally - Kottali Road, Chirakkal, Kannur","11.924734","75.363341"
"ChIJRSF3z9I9pDsRqtjhEn8mQ7E","Bharat Petroleum Pump- Pappinisseri Ceramics","W9P2+87H, Cottons Road, Chungam, Pappinisseri","11.9358229","75.3507364"
"ChIJUTpJKz09pDsR1kLbFDv0ORQ","Bharat Petroleum Pallikulam Petrol Pump","Ancham Peedika - Kolathuvayal Road, Chirakkal, Puzhathi","11.908133","75.3674403"
"ChIJtWvXXC8WpDsRjQV9BuH_9T4","IndianOil","Ground Floor, Azhikode","11.921863","75.334116"
"ChIJK-Ls4Kw9pDsRqlNXGYkXtIQ","Megha bharath gas godown","W932+9WW, Chirakkal","11.9034803","75.3523158"
"ChIJCV6qVCk9pDsRJn7eeSQjcN4","Hindustan Petroleum Corporation Limited","Ground Floor, opposite Ramesh Store, Panankavu, Chirakkal, Kannur","11.9116019","75.374737"
"ChIJR45BzUE9pDsRLdDWpLYLuPE","IndianOil","Ground Floor, Pallikkunnu, Kannur","11.9002725","75.3682182"
"ChIJrewFrHEXpDsRelqc5lIrN2c","Hindustan Petroleum Corporation Limited","RS No 181/125 & 182/124, Azhikode North","11.9318534","75.3274911"
"ChIJO6KkMgg-pDsR6Ev7xw4p3sY","Hindustan Petroleum Corporation Limited","Ground Floor, Nh 17, Pamballa, Keecheri, Pappinisseri","11.957766","75.3557261"
"ChIJsfvCYLw9pDsRvYk5td8duqU","NAMANS SMOKE TESTING CENTER","W95R+7J8, Pulloopi Kadav, Puzhathi","11.908156","75.391582"
"ChIJ4YZO_x49pDsRor14CXwQTSY","Petrol Pump Kakkad","Kakkad, Kannur","11.8950625","75.3849375"
"ChIJXThVn3ckpDsRbH42umFjl1w","IndianOil","Ground Floor Etakkad, Muzhappilangad","11.815689","75.437161"
"ChIJIVcOgkgjpDsRzWUEHEgg0Lw","IndianOil","Ground Floor, Bypass Road, Thazhe Chovva, Chelora","11.860126","75.414509"
"ChIJSzgxggElpDsR0roReBe9vGs","MRPL Petrol pump","RCQR+WQQ, Koothuparamba – Chovva Bypass Road, Kadachira","11.8399743","75.44193"
"ChIJzbm50E8mpDsRq_cG2DOVpOk","N. Sadananda Pai & Co - Bharat Petroleum","QF2V+C7Q, TC Road, Vadikkal, Thalassery","11.7510976","75.4932462"
"ChIJpdFiH0YmpDsRF6Kn46mqDDY","IndianOil","Ground Floor, Cherakkara,Thalassery, Sreerangam, State Highway 30, Marighar, Pallithazhe, Chonadam, Thalassery","11.753592","75.50008199999999"
"ChIJo3xgvpsopDsRMpbJyLd6U4c","IndianOil","Ground Floor, Moolakkadavu - Vayalilpeedika Road, Pandakkal, Mahé","11.759253","75.535147"
"ChIJbSB8qmMopDsRYt5GOTNknCg","IndianOil","Ground Floor Pandakkal, Mahe, Edayilpeedika","11.741729","75.54228499999999"
"ChIJu7hNtQonpDsRRs7PWGv_Wic","Bharat Petroleum, Petrol & Diesel Filling Station","Illathaazha, Thalassery","11.7464984","75.5094835"
"ChIJT7mqDP4npDsRL-gCKhUDrpc","Bharath petroleum C Surendran & Company","QF2X+V2M, State Highway 30, Pallithazhe, Chonadam, Thalassery","11.7522129","75.4975497"
"ChIJeziLmk8mpDsRqckQvFKe_Rc","STANDARD SERVICE STATION","QF2V+XXH, Railway Station Road, Pallithazhe, Chonadam, Thalassery","11.7524426","75.49499949999999"
"ChIJ06ikVRkppDsRvWOSaZ-U1pA","BPCL Salila Auto Fuels","QG5J+4WC, Thalassery-Koppalam-Panoor Road, Kodiyeri","11.7578003","75.53226819999999"
"ChIJW_o2awAppDsReUSYVnSzv3I","Koppalam petrol pump","QG5J+4WP, Koppam","11.7578467","75.5323183"
"ChIJbftPNwAppDsRmA0jxFxV-iI","KC PETROLEUM","Moolakkadavu Junction, Pandakkal","11.7582414","75.5327708"
"ChIJ7UFqak4mpDsRRdlTjlhzGvg","Hindustan Petroleum Corporation Limited","Ground, Narangapuram Juma Masjid, near Thalassery New Bus Stand, Thalassery","11.7490223","75.4944419"
"ChIJxT15nl4ppDsRCgzyECukxwM","EMIRATES PETROLEUM","EMIRATES PETROLEUM Moolakkadavu, 19/5 AND 19/7, Pandakkal, Mahe","11.759772","75.5353453"
"ChIJXXKxuJsopDsRUquLcsv_fX0","Hindustan Petroleum Corporation Limited","Ground Floor, Payyanur Tellicherry Road, Pandakkal, Kozhikode","11.7594438","75.5354333"
"ChIJeX1vTm4ppDsRvVQkFnkMu6Q","Hindustan Petroleum Corporation Limited","Ground Floor, 4th Mile, Thalassery","11.7798949","75.52815199999999"
"ChIJtw_LbIYopDsRUSjHNzt2s2o","IndianOil","Ground Floor, Cancer Centre, Road, Pandakkal, Mahé","11.749035","75.537864"
"ChIJ5eGIoXAopDsRktUjRywGjXQ","IndianOil","Ground Floor Paral Chokli, Road, Mahé","11.732842","75.534832"
"ChIJTTdoQgAppDsR_ThiGsvCIbY","BPCL Retail outlet Paloor MAHE YATHRA MANGAL","National Highway 66 Mahe muzhapilangad nh 66, Palloor, Mahé","11.7281608","75.5394189"
"ChIJCfhdaQAppDsRmLJo8nk3iuU","Hindustan Petroleum Corporation Limited","RS No 73, 3A, National Highway 66, Palloor, Mahé","11.7272521","75.5404513"
"ChIJXSuexmkopDsRb-0zEIg4h2I","IndianOil","Ground Floor, பல்லூர், நலுதற","11.7319787","75.5451944"
"ChIJ5Wk5NAAppDsRGPHXhv9wHYY","Hindustan Petroleum Corporation Limited","RS No 73, 8 Bypass, Service Road, Palloor, Kozhikode","11.7272222","75.5409763"
"ChIJScME1aiCpjsRq1kvJe1qCiE","Bharat Petrol Pump","MGVP+RJF, Mahé","11.6945593","75.53655069999999"
"ChIJj4joxRmDpjsRRuioMnXEDmw","Salila Auto Fuels","moolakadav pandakkal, Pandakkal, Azhiyur","11.697467","75.54222680000001"
"ChIJ-QNYCamCpjsR4KmlQw9gNag","Hindustan Petroleum Corporation Limited","Ground Floor, Parakkal, Mahé","11.6953712","75.5358871"
"ChIJ1_ZeqKmCpjsRA_YLfREpqQI","IndianOil","Ground Floor, Main Road, Parakkal, Mahé","11.697117","75.53551399999999"
"ChIJLeWF6-EppDsRMkVhh00UXns","Hindustan Petroleum Corporation Limited","Ground Floor, near Mothal Bridge, Pallikkunnu, Kannur","11.701881","75.5713557"
"ChIJf_78TCwppDsRDbOyopLbGOU","IndianOil","near Rc Church, Ground Floor Main Road,Mahe, near Rc Church, Kozhikode","11.703708","75.535133"
"ChIJ2wQrvAMopDsREbDSDw5_whE","IndianOil","Ground Floor, Link Road, Mahé","11.7043042","75.5354279"
"ChIJMSakCQQopDsRjNbf5BpdsTY","IndianOil","Ground Floor, Main Road, Mahé","11.705478","75.534457"
"ChIJw0J8CwAppDsRRia_bH52QG0","Mahe","PG4M+JF3, Mahe Bridge, New Mahe","11.7065142","75.53368329999999"
"ChIJL5k4IAAppDsRXa1WDQ_ZjjE","Indian Oil SREE MOOKAMBIKA FUELS","PG9W+73Q, Palloor","11.7182056","75.5452219"
"ChIJAayd1UOEpjsRrUDcCkxpMK8","IndianOil","Ground Floor Karimbanapalam, Vatakara","11.58881","75.5917001"
"ChIJa4Uly2qEpjsR9juEh6wjnWU","IndianOil","Ground Floor, Narayana Nagar, Vatakara","11.5937053","75.5974909"
"ChIJU8yRcGWEpjsRIFt1yUTwvhY","Bharat Petroleum [K K sons petrol pump]","30/308, JT Road, Kozhikode, Vatakara","11.6005431","75.58504669999999"
"ChIJWWXRRGWEpjsRBN-fzt3SFxw","Hindustan Petroleum Corporation Limited","Ground Floor, JT Road, Vatakara","11.601701","75.585161"
"ChIJER97-VuFpjsR7vw-bVu-spY","IndianOil","No 44/69, Meppayil, Vadakara, Nadakkuthazha","11.58944","75.607958"
"ChIJ6ZYVCs2FpjsRx3byJTunhWE","IndianOil","Ground Floor, Puthuppanam, Mandarathur","11.568013","75.607329"
"ChIJafOkzCWHpjsRl8tLICSODeE","Hindustan Petroleum Corporation Limited","Ground Floor, Vadakara Perambra Road, Keezhal Mukku","11.5883788","75.6386952"
"ChIJJZj_HACDpjsRwFRHQaWrPvg","Ev charging station","JH8H+9FH, Chorode","11.615929","75.57871899999999"
"ChIJr7kHKMyIpjsRhRItRfSDm5A","IndianOil","Ground Floor, Chingapuram, Thikkoti","11.497292","75.627121"
"ChIJWRKgeVOPpjsRUj9JQHjbyzE","IndianOil","Ground Floor, NH 17, Payyoli - Perambra Road, Iringath, Kozhikode","11.520674","75.61836799999999"
"ChIJNZaP9ZmJpjsRIgjkSVkr5tI","Nandi petroleum","Nandi Bazar, Payyoli","11.4765268","75.6374544"
"ChIJ90p90XOJpjsRkDjbEAheJGM","C K petroleum BPCL CNG","GJ5F+GJ7, Payyoli","11.5085064","75.6243886"
"ChIJcYJjpqGIpjsRRTk9lFo1SYA","Hindustan Petroleum Corporation Limited","Ground Floor, Kizhur","11.5242679","75.6405418"
"ChIJfYEVsVWPpjsRmualQMGCDOo","Hindustan Petroleum Corporation Limited","Ground Floor, NH 17, Calicut Road, Vatakara","11.5243809","75.6170188"
"ChIJhxqVMQCJpjsR37d8eNN3nGc","Nandi","FMH6+2HP, Moodadi","11.477889","75.66187099999999"
"ChIJtUcFCxCKpjsRky9blol_Sqg","Bharat Petroleum, Petrol Pump -Daya Petroleum","NH47 KOILANDY CLT, Kozhikode","11.4309708","75.70089089999999"
"ChIJQcUhnxqKpjsRverF9sb2EjE","IndianOil","Melur Quilandy, NH 17,Kilur Meladi","11.431426","75.700678"
"ChIJ-T0_TtFhpjsRBJJ6xVunyew","IndianOil","Ground Floor NH 17, Chemancheri","11.405253","75.720364"
"ChIJW41WAxyKpjsRRZW93I_k4uY","Hindustan Petroleum Corporation Limited","Ground Floor, Koyilandy","11.437171","75.69679099999999"
"ChIJu3TyrDSLpjsR49ibvV1ZbM4","IndianOil","Ground Floor, Harbour,Koyilandy, Kozhikode","11.4335001","75.691599"
"ChIJoTKg1fthpjsRZeNBwGqf4_M","Hindustan Petroleum Corporation Limited","RS No 34/10A, 35/1A & 35/1B, Koyilandi, Chemancheri","11.392171","75.727941"
"ChIJW5iCjI2JpjsRZ7nLW3MYkzY","IndianOil","Ground Floor NH 17, Koyilandy","11.4522101","75.686252"
"ChIJbwIPhNtepjsRJhQjXvCvuj8","Bharat Petroleum Pump City Petrols","michael's church, kannur Rd, near st, West Hill, Kozhikode","11.284804","75.7686817"
"ChIJabFlIM5epjsRdVbNSizpzxc","IndianOil","Ground Floor, Chakkorathukulam, Kozhikode","11.2756739","75.7722368"
"ChIJh7bZjuBdpjsRol5wpYQpzd0","IndianOil","Ground Floor, Kozhikode Balussery Road, Chelannur","11.3377972","75.8101214"
"ChIJG9ii6sxepjsRVTveQzWOpDI","Hindustan Petroleum Corporation Limited","Ground Floor, Kannur Road, Nadakkave, Kozhikode","11.270233","75.77617599999999"
"ChIJW2wwq7RepjsRHlpnI1qWxXs","Hindustan Petroleum Corporation Limited","Ground Floor, near Eranhipalam, Mini Bypass Road, Kozhikode","11.2696","75.78923809999999"
"ChIJ6zl8cjNZpjsR1BO7kbmnryo","Hindustan Petroleum Corporation Limited","Ground Floor, Kannur Road, Nadakkave, Kozhikode","11.266921","75.77666099999999"
"ChIJNSC-Qv9fpjsR490Qmg1MwOo","Nayara Fuel Station KK Petroleum","8Q5M+X5R, Kunduparampa, Kozhikode","11.3111571","75.7825877"
"ChIJOQ0sHwBfpjsR5foYPa3O0s0","Indian Oil Petrol Pump - Vrindavan Petroleums","8Q3Q+XQM, Vengeri, Kozhikode","11.3049611","75.7894278"
"ChIJg7f5HkdfpjsR3EWpAqVwY30","Meenakshi Fuels-Bharat Petroleum","near Kakkodi bridge, Kozhikode Balussery Road, Thanneerpanthal, Vengeri, Kozhikode","11.311908","75.7996095"
"ChIJR5GQ2ZZepjsR_YKy0Pf4rCQ","Hindustan Petroleum Corporation Limited","Ground Floor, Vengeri, Thadampattuthazham, Kozhikode","11.296491","75.792011"
"ChIJLRakhUBfpjsRawk-Kw_uN4g","Hindustan Petroleum Corporation Limited","Survey No 67/1, Cherukulam","11.328031","75.770411"
"ChIJW70yZABdpjsRe2eSWPjXaIs","KANNADIKKAL PETROLEUM (Indian Oil Fuel Station)","8R25+PG5, Kannadikkal, Kozhikode","11.3017145","75.80868459999999"
"ChIJK0NLJcJfpjsRf7Hp7iqKtx4","IndianOil","Ground Floor, Puthiyara, Kozhikode","11.309006","75.751785"
"ChIJ-XKGUdhdpjsR3bJsk2P6H0M","IndianOil","Ground Floor, Mukku, Kakkodi","11.3281208","75.8094326"
"ChIJW0D0JgdfpjsR8bytmhC9g-s","Smoke test center","7QJC+936, Kannur Road, Bilathikkulam, Kozhikode","11.2809097","75.77015349999999"
"ChIJb1PY-chepjsRxWV1Z93eeBQ","IndianOil","Wayanad Road, Eranhipaalam, Kozhikode","11.278147","75.7805272"
"ChIJTfzNcABfpjsRlCvhimLZWcs","Hindustan Petroleum Corporation Limited","Ground Floor, SH 38, Pooladikunnu, Purakkattiri","11.339791","75.761321"
"ChIJf2zOSvZfpjsR3kncbhj5qak","IndianOil","The Secretary, Puthiyangadi, Kozhikode","11.3192091","75.7472904"
"ChIJ_9CpjBhcpjsR63CGBgQy4ng","IndianOil","Merikunnu, Paroppadi, Kozhikode","11.291703","75.815086"
"ChIJJSDhUuNfpjsRJW4dmh9InIc","Bharat Petroleum and CNG","East Nadakkavu East Hill Road, East Hill, Kozhikode","11.2707334","75.777597"
"ChIJ4Ur7HbBbpjsRJWEsFgwfQps","Hindustan Petroleum Corporation Limited","Ground Floor, Kozhikode Bypass, Pantheeramkavu","11.222211","75.85564099999999"
"ChIJrefJBg9bpjsR5w7ff564EgQ","Bharat Petroleum, Petrol Pump -Ameya Petroleum","Mathara - Palazhi Road","11.2503598","75.841325"
"ChIJoYjtFJVbpjsR2nMT5YMptz8","Hindustan Petroleum","Palazhi, Pantheeramkavu","11.2511218","75.8318729"
"ChIJSfd-zIdbpjsRG8JrPvtAvu4","Hindustan Petroleum Corporation Limited","Ground Floor, East Devagiri, near Medical College Road, Kozhikode","11.269579","75.84285009999999"
"ChIJO9EtRHxbpjsRD_xqcXqXH6A","IndianOil","Ground Floor, near Calicut Medical College, Mavoor Road, Velliparamba, Kozhikode","11.269292","75.86109400000001"
"ChIJHx1FpK5bpjsRJFXmSaLw79Y","IndianOil","Ground Floor, NH Bypass, Pantheeramkavu","11.234379","75.846687"
"ChIJ7XJo9e1bpjsRVWYFksL4tXM","HP Masters service station","6VC4+W52, Pantheeramkavu","11.2222717","75.8554046"
"ChIJWb0GBrtbpjsRW6HMLhjM8sM","Nayara Petrol Pump","Olavanna","11.226187","75.83648529999999"
"ChIJ8UODdbhbpjsRB8lKSzBO34w","Hindustan Petroleum Corporation Limited","Ground Floor, near Olavanna Road, Junction, Olavanna","11.2259446","75.8360186"
"ChIJc1Z1MitbpjsR7jY22WydVd8","AK Fuels","Indian Oil Petrol Pump Mankavu, Mankave Pantheerankave Road, Mathara, Kozhikode","11.2280778","75.83256089999999"
"ChIJ0WmExHBbpjsR4y4gEpbD_os","BHARAT PETROLEUM -CITY MAX ENERGY","near TVS showroom, PERUMANNA, near TVS showroom, Kozhikode","11.2386729","75.872946"
"ChIJzRLsahhbpjsROPf83-j459c","IndianOil","Ground Floor, Perumanna Road, Perumanna","11.239092","75.875272"
"ChIJGWPhVQBbpjsRjEKt-a-6FjU","Mangavu","6RPF+H33, Guruvayurappan College Road, Mankave, Kozhikode","11.2363805","75.8226866"
"ChIJUcVmXSVapjsRlN3dE_n4TIM","SHARICO OIL EXTRACTORES","India","11.2150536","75.8171043"
"ChIJwVp59e1bpjsRp1HNBSXn2Cs","IndianOil","Ground Floor, near Farook College, Karad Paramba, Vazhayur","11.204522","75.879306"
"ChIJq9QjkeZbpjsRvaZf5WnfizE","Bharat Petroleum, Petrol Pump -M.Kutty Hassan Kutty","Kovoor MLA Road, Ummalathoor, Kozhikode","11.271157","75.8317722"
"ChIJ3xrFzChQpjsRDpS3bJOcLHI","IndianOil","Ground Floor, near Kinfra Park, Andiyoorkunnu, Chelambra","11.1489571","75.8919526"
"ChIJUZPTbCtQpjsRVrGo1KX1SNQ","Hindustan Petroleum Corporation Limited","Ground Floor, Kolakkattuchali, Idimuzhikkal, Malappuram","11.143939","75.8955452"
"ChIJPVbAudFPpjsRFR-_Kb7i5HE","IndianOil","Ground Floor, Chelembra, Pallikal","11.1501387","75.9097669"
"ChIJe1D_fgRQpjsROaa1xYQtedk","IndianOil","Ground Floor Andiyoorkunnu, Kaithakunda, Ayikkarapadi","11.178269","75.894277"
"ChIJ96YMNwBRpjsRbmm2fzIBAyo","Indian Oil Petrol Pump","4VVW+746, Thenhipalam","11.1431703","75.8952753"
"ChIJ7QtuoPpPpjsRnjRvC6dz5hk","BPCL Petrol Pump (Royal Fuels)","Kakkanchery-Kottappuram Road, Pallikal","11.1484766","75.9024445"
"ChIJ9ZPONjlPpjsRIqpKFGHKaMM","Hindustan Petroleum Corporation Limited","Ground Floor, Devathiyal - Neerolpalam Road, Kohinoor","11.1240626","75.9029297"
"ChIJe1PHFQBRpjsR4dkk2QekZQg","BPCL Kohinoor Petroleum","4V9V+MCP, 66, National Highway, Chelari","11.1194506","75.8931577"
"ChIJV2yQkN1RpjsRVYB6EJIhyao","Hindustan Petroleum Corporation Limited","Ground Floor, Chelembra, Kakkanchery, Malappuram","11.1561509","75.8910521"
"ChIJ0yltCuVRpjsRRnkcUNYIb8g","IndianOil","Chelari, Ground Floor NH 17, Chenakkalangadi","11.111501","75.889906"
"ChIJC5tnfbZPpjsRM2FIId4Es2Y","Hindustan Petroleum Corporation Limited","Ground Floor, Kottappuram Kakkanjery Rd, Pallikal","11.1522953","75.91773239999999"
"ChIJtUDXQgBRpjsRFxcSxEJGYbM","Hindustan Petroleum Corporation Limited","Ground Floor, Moonniyur","11.1031297","75.8924473"
"ChIJ6VmrTOxRpjsRz_WDQD8GaKM","Nayara Petrol pump","4V3V+46Q, Chelari","11.1028385","75.8931021"
"ChIJA9dHcghRpjsRRHLOFanxQsM","MAGMA FUELS","AYIKARAPPADI, 11th Mile, Kozhikode","11.1746231","75.8976893"
"ChIJnckXiNRPpjsRdE_V_E4fh4w","Hindustan Petroleum Corporation Limited","Ground Floor, Ernad, Cherukavu","11.1707731","75.91301299999999"
"ChIJ5RwAKvtRpjsRdff0K0-d5jg","MRPL NASEER PETROLEUM","5VHQ+QRG, National Highway 966, Ramanattukara","11.1794999","75.8893614"
"ChIJaxHAzDxPpjsReEkbvEdHpHM","Hindustan Petroleum Corporation Limited","Ground Floor, Parambil Peedika, Peruvallur","11.1032472","75.924526"
"ChIJUwSsMW9RpjsRSYCS7yKRW-k","NAYARA FUEL STATION","Saridha Body Builders, Palakkad - Kozhikode Highway, Ramanattukara","11.180761","75.885785"
"ChIJEw9AVq9NpjsRhBLI0R-XSng","Petrol Pump HP Kolappuram PETROL DIESEL CNG","66, National Highway, Kolappuram","11.0615808","75.9348328"
"ChIJ_XBhOnpNpjsRB5ZRu4wdiyY","IndianOil","Ground Floor Chemmad, Thirurangadi, Cherumukku, Malappuram","11.047948","75.909264"
"ChIJsx7ND4tNpjsRsq1iScGn6rk","BPCL Thalappara","Thalappara","11.0740466","75.9037937"
"ChIJ91YZDwBNpjsR85nO48ZDW1w","Property for petrol pump","Shop 01, Mannilpilakkal, Kooriyad","11.047629","75.942751"
"ChIJLTjxW1ZNpjsRalU-Sglu7Vw","Bharat Petroleum, Petrol Pump -Vengara Petroleum Agency","CALICUT RD KAKKAD MLPRM, MALAPPURAM","11.0386451","75.9378165"
"ChIJJ4NSZGNNpjsR35von97qb-0","JAI JAWAN Agencies","2WRH+CJR, Tirurangadi","11.0411245","75.9290059"
"ChIJ6eeZJwBNpjsRbeCjbQqvWno","Mamburam fuels","3W6C+5V2, Mampuram","11.0600726","75.92241190000001"
"ChIJFVi1YbFNpjsR285ev6hmUeg","Hindustan Petroleum Corporation Limited","Ground Floor, Road, Mampuram Road, VK Padi","11.0603333","75.9223056"
"ChIJn_8iYNxNpjsR5s7Qtx7gzd8","Nayara","State Highway 72, Pathmoochi, Vengara","11.0489423","75.9557099"
"ChIJTz9UOPxNpjsR0z9dVpu59lY","IndianOil","Ground Floor, Kakkad","11.0328663","75.9397166"
"ChIJp1zhuqpNpjsRaxaMmb5la30","Bharat Petroleum, CNG and Petrol Pump -Maliyakkal Fuels","CALICUT RD CHEMMAD MLPRM","11.0467566","75.9110541"
"ChIJw4G0TJ9NpjsRE2Ga7oj1J8o","Hindustan Petroleum Corporation Limited","Ground Floor, Valakulam, NH 17, Venniyour","11.0215625","75.948083"
"ChIJ48LvUmNNpjsRXEDw_5va0Ys","Hindustan Petroleum Corporation Limited","Ground Floor, Parappanangadi Road, Chemmad","11.0431419","75.90503439999999"
"ChIJS5nNyjVMpjsRj6uQvck4T50","Hindustan Petroleum Corporation Limited","Ground Floor, Kuttoor, Abdul Rahiman Nagar","11.0811866","75.9508101"
"ChIJ1-J4BwBNpjsRwRn3i2441LI","Hindustan Petroleum Corporation Limited","Ground Floor, Kodinhi Road, Tirurangadi","11.0342355","75.9081519"
"ChIJTU8k-rdNpjsR-XXWXJtQces","Hindustan Petroleum Corporation Limited","Ground Floor, Achanambalam Road, Vengara","11.0550734","75.9782218"
"ChIJYT5SOgBNpjsRjiWq-K7e-Wk","puthupparambu petroleum","road, Puthuparambu Town","11.0228258","75.96859119999999"
"ChIJ07_vH4m0pzsRrx5dslmc39A","Hindustan Petroleum Corporation Limited","Ground Floor, National Highway 66, Chenakkal, Kottakkal","10.9748313","76.00732599999999"
"ChIJl359-5-0pzsRa4TqIyY0l0c","IndianOil","Ground Floor NH 17, Chappanangadi, Kottakkal","10.99159","75.993119"
"ChIJHwLO6lizpzsRepmtNFXz9Yg","Hindustan Petroleum Corporation Limited","Ground Floor, Changuvetty","10.999081","75.99129099999999"
"ChIJAZsGBxu0pzsRRDP2CwGq-Gs","Hindustan Petroleum Corporation Limited","Ground Floor, Punnathala, Puthanathani","10.9344004","76.00712469999999"
"ChIJV2tH7CW1pzsRaJ4XqGDORR8","IndianOil","Ground Floor, NH 66, Randathani","10.958539","76.0076247"
"ChIJTcx7I--zpzsR7ADGVOJZ7s8","Jio-bp","Ground Floor, opposite Ayurveda College, Kottakkal","10.996965","75.9877214"
"ChIJobzRVMi1pzsRaUdVa05h630","BHARAT PETROLEUM ITHIKKAL PETROLEUM KOTTAKKAL","Herbal Garden, near ARYA VAIDYASHALA, Tirur - Calicut Rd, Kottakkal","10.9999133","75.99651399999999"
"ChIJV4NIvWW1pzsRPM2MaRRb9OE","Nayara Petrol Pump","X234+9M4, Randathani","10.9536698","76.00701649999999"
"ChIJh96b3ZuzpzsR9Ft_cagUJZk","IndianOil","No 422/4, Kurukathani Road, Kallingalparamba, Perumanna Klari Gramapanchayat","10.9621605","75.97591539999999"
"ChIJg3eFb2mzpzsRXf9DrLEn42Q","KRS PETRO PARK Nayara Energy Petroleum ️","XXG8+6WR, Perumanna Klari Gramapanchayat","10.9745126","75.96698219999999"
"ChIJm42Fw8WzpzsRkqLM5Kj1OGg","Bharat Petroleum Petrol pump","XX98+X7W, Tirur - Malappuram - Manjeri Road, Perumanna Klari Gramapanchayat","10.9704056","75.9656407"
"ChIJ2bsPd7a0pzsRZgsGZKB3Wdc","IndianOil","Ground Floor Chappanangadi, Kottakkal","11.009417","76.014228"
"ChIJZ9VojZG1pzsRXSlGNObiu5g","IndianOil","Ground Floor, Puthanathani - Tirur Road, Kalpakanchery","10.94094","76.00021"
"ChIJZ6l33F2zpzsRQMplK_0mA5U","Bharat Petroleum, Petrol Pump -Risha Petroleum","KALPAKANCHERY MLPRM","10.940041","75.98068690000001"
"ChIJvSmU0W2zpzsRJucDaGhzKsI","Hindustan Petroleum Corporation Limited","Ground Floor, Vallikkunnu, Kozhichena","10.9962209","75.9609893"
"ChIJgY2ObwC1pzsR9S-TL2peY-Y","Indian oil petrol pump","WXPV+9QJ, Puthanathani","10.9366764","75.9936252"
"ChIJXU34Li62pzsR0Xabr5w_DP8","IndianOil","Ground Floor Valanchery Perinthalmanna Road, Vailathur, Puthanathani","10.893371","76.074432"
"ChIJVWrftzK2pzsR_RQrqi4hcTY","Bharat Petroleum","V3PF+M5J, Panvel - Kochi - Kanyakumari Highway, Valanchery","10.8867039","76.0728912"
"ChIJBYNGrDK2pzsRVmIAnNUeEiU","Hindustan Petroleum Corporation Limited","Ground Floor, Pattambi Road, Valanchery","10.885842","76.0735158"
"ChIJSyI3VoK2pzsRYYSGzMAZnaU","IndianOil","near Edayur, Ground Floor, Vettichira NH 66, near Edayur, North, Punnathala, Puthanathani","10.92861","76.02627"
"ChIJI0gckAq3pzsRSbOkmnZKxos","IndianOil","Ground Floor, Karthala, near Kinfra Park, Kuttippuram","10.8640103","76.038292"
"ChIJBTrmIwC3pzsRhwQXFGS77iA","Indian oil patrol pump","V3X6+59H, Valanchery","10.8979365","76.0609865"
"ChIJ7QABGyrIpzsR0GAn0w9cgCs","IndianOil","Ground Floor, Kozhikode Road, Valancherry, North, Edayur","10.8979668","76.06125709999999"
"ChIJoTK02ci3pzsROpQrwRtKj8I","SECURENPURE","ambalaparambu(Indian oil.petroleum pump","10.8973052","76.0445964"
"ChIJxdIAVay3pzsRIMwaQgPTmAI","IndianOil","Ground Floor, Moodal Bypass, Ambalaparambu, Kanchippura","10.8966982","76.0441866"
"ChIJVc2sfNi3pzsRscv6Z0VZ0PM","Hindustan Petroleum Corporation Limited","Ground Floor NH 66, Valanchery, Kanchippura","10.9135267","76.0454586"
"ChIJu1Y8wOu3pzsRDzqiVSzJiJk","IndianOil","Ground Floor Edayur, Karippol Road, Valanchery","10.925452","76.030547"
"ChIJt59yNAC3pzsRBYlmiPYgR3Q","Karipol","W2GJ+H29, Karippol, Kurumbathur","10.9254956","76.0305616"
"ChIJMY1FJADJpzsRyDQ_40KxF58","MRPL PETROL PUMP, MOONAKKAL POOKKAATTIRI, VALANCHERY","W33Q+2R3, Pookkattiri","10.9025006","76.0895524"
"ChIJpQB1NanJpzsRCqnfteuRJLQ","IndianOil","Pookkattiri","10.9026001","76.09088799999999"
"ChIJHx_avku1pzsRy-QeYBeQxpA","ANUS FUEL AGENCY Bharat Petroleum","KADAMPUZHA-VETTICHIRA ML, MALAPPURAM","10.939263","76.03884769999999"
"ChIJCcI9CwC3pzsRCbis45TfB3c","Jio-bp","V28R+V9H, Moodal, Athavanad","10.8671792","76.0409803"
"ChIJPbO5HQC3pzsRL9e_2nDUmvg","Hindustan Petroleum Corporation Limited","Ground Floor, NH 66, Moodal, Kuttippuram","10.8668711","76.0406319"
"ChIJeYWado_JpzsRG3hEMj8VLdw","IndianOil","Sy No 48/1A Edayur, Irimbiliyam - Valanchery Road, Tirur","10.8811232","76.0864122"
"ChIJIZ_QHJ25pzsRbnv1UxOAW8c","IndianOil","Ground Floor, Edappal - Kuttippuram Road, Kadanchery, Kaladi","10.7968856","76.0064953"
"ChIJI02KQHy3pzsRj0ZUvhQP-sE","Hindustan Petroleum Corporation Limited","Ground Floor, Kuttippuram","10.8438329","76.0318374"
"ChIJCaoOmnK5pzsRIWvqbAKsoaM","IndianOil","Ground Floor Edappal, Vattamkulam","10.7878935","76.0084806"
"ChIJIZ4vKG65pzsRZlZFBtgR8Lk","MKHK Bharat Petroleum","opp. bharat petroleum pump, State Highway 69, Edappal","10.7833673","76.0078678"
"ChIJ39WgM4S5pzsRvvGjM1nFkw8","Hindustan Petroleum Corporation Limited","Ground Floor, Kandanakam","10.8110586","76.01014459999999"
"ChIJo9c-NQC5pzsR6TSlrM2t5vw","Jayanthi Fuels","R2GM+M6, Tavanur","10.8266718","76.0331083"
"ChIJB14HdAC5pzsRr1ByX6Vf84k","Barath Petroleum(I B Auto fuels)","R2P9+74C, Tavanur","10.8356875","76.01776559999999"
"ChIJeVeu6na5pzsRxxEbuIHEoA0","Reliance Petroleum","13/191 Kuttippuram Road, Thrissur - Kunnamkulam Road, Edappal","10.7902454","76.00892549999999"
"ChIJA2riCny3pzsRruOW-xLxWH4","IndianOil","Ground Floor, Main Road, Karthala, Thirunavaya","10.844916","76.031944"
"ChIJjQRIEAC5pzsRg-bfY5Oz7Zs","Hindustan Petroleum Corporation Limited","Ground Floor, Edappal","10.7849512","76.0182161"
"ChIJD35xIl27pzsRTAu1hvG6jHE","HP Fuel Station","RXPQ+6V, Tavanur","10.8353126","75.9897074"
"ChIJ0WiN_gC6pzsRn13TcmA6SqQ","VALLIYAMMU PETROLEUM","India","10.8351316","75.989584"
"ChIJtcmdGQC5pzsRfLwZkouw65k","Hindustan Petroleum Corporation Limited","Ground Floor, Sakacheri, Edappal","10.7855592","76.0034196"
"ChIJhSvkyMm3pzsRf9JP7vYy1zA","Bharat Petroleum, Petrol Pump -Chaithram Fuels","NH17 KUTTIPURAM MLPRM, MALAPPURAM","10.8577018","76.0365668"
"ChIJx_gDeN--pzsRGay8GBJSRrY","Emirates Petroleum Nayara","Thrissur - Kunnamkulam Road, Changaramkulam","10.7326116","76.0384842"
"ChIJ0RiBmyG_pzsRKoU3uNfWhEQ","Hindustan Petroleum Corporation Limited","Ground Floor, Changaramkulam","10.732491","76.044071"
"ChIJATZcWSW_pzsRR8ZK47im7Jw","Hindustan Petroleum Corporation Limited","Ground Floor, SH 69, Kadavallur","10.7195462","76.0614043"
"ChIJQ3hBSkS_pzsR7Fbqblb56B4","IndianOil","Ground Floor Changaramkulam, Chiyyanoor, Kokkur","10.73285","76.039442"
"ChIJGaHxZty-pzsRCBkRF53LJ7A","IndianOil","Ground Floor Changaramkulam, Cheruvallur, Nannammukku","10.733841","76.031172"
"ChIJndDhRinBpzsRY1M2rG_TOJA","Bharat Petroleum, Petrol Pump -Baburaj Fuels","PERUMBILAVU,KADAVALLUR, THRISSUR","10.712544","76.0880791"
"ChIJtzjuE7a_pzsRtP6-AxdnJSs","IndianOil","Ground Floor, Pazhanji - Mangad Road, Thrissur","10.687312","76.04595100000002"
"ChIJ9UeRLui5pzsRTIukujgCflo","IndianOil","Eravakka, Kumaranallur, Kappur","10.7738428","76.04686889999999"
"ChIJHTI1hr-_pzsRYLM6ENf1w1g","Hindustan Petroleum Corporation Limited","S No 304, Thalapilly, Pazhanji","10.687001","76.060141"
"ChIJ40EmtzbBpzsRRU6oENcyzQY","IndianOil","Ground Floor, Chalissery","10.742601","76.09746319999999"
"ChIJgYLiqZPqpzsRs6_lJwfcqqA","Hindustan Petroleum Corporation Limited","Ground Floor, Chemmanthatta","10.648141","76.117071"
"ChIJBf6bFiTApzsRPYeFwWf_ugg","Hindustan Petroleum Corporation Limited","S No 953, State Highway 50, Talappilly, Chiramanangad","10.673851","76.11580099999999"
"ChIJnet4bADBpzsR83MhgPtd6K8","Hindustan Petroleum Corporation Limited","Ground Floor, Kecheri Akkikavu Road, Chiramanangad","10.6761222","76.1078474"
"ChIJZ3RvzxbrpzsRsu5c-6k7-s4","Neeliya Fuels Kechery BPCL","J4HC+QFF, Kechery, Eranellur","10.6294311","76.12116929999999"
"ChIJ91sIeEGVpzsRWNeqVo0Wk_w","IOAGPL CGS, Thrissur","M34M+RVM, Chowwannur part","10.6570899","76.0846674"
"ChIJN76zUB7rpzsR2PfLL_BBeC0","NAYARA Petrol Pump - Grand Fuel Station","Thrissur - Kunnamkulam Road, Choondal","10.625158","76.10441209999999"
"ChIJpxzyewDrpzsRlQ5dUBnDOjE","Kechery Fuels","J4FH+C49, Kuranchery - Kechery Highway, Indira Nagar, Kechery, Eranellur","10.6235362","76.1278651"
"ChIJ-eez6B7rpzsRRZL-XOXMV8o","Hindustan Petroleum Corporation Limited","Ground Floor, Thuvanoor, Kechery, Choondal","10.6207609","76.11202000000002"
"ChIJmfkoLQDrpzsRri_43NRY-aA","Kechery","J4CF+98M, Kechery, Eranellur","10.6209543","76.1232976"
"ChIJDbjOYgTrpzsRFqR4dTG2LnM","IndianOil","Ground Floor, Kechery, Chemmanthatta","10.617612","76.123497"
"ChIJZ9XN4wnApzsR_6FrbmbYbRc","IndianOil","Ground Floor, Akkikkavu, Akathiyoor","10.6814469","76.0859475"
"ChIJBR_ENTKVpzsRXQYz4EDB3tY","Bharat Petroleum, Petrol Pump -Mala's Petro Park","J3PJ+4CX, Thrissur - Kunnamkulam Road, Kanipayyur","10.6353658","76.081136"
"ChIJZVKjAACVpzsR-ofGtREvGAk","Cng pipeline","J3PJ+5C5, Kunnamkulam","10.6353881","76.0811192"
"ChIJ0_9qHADrpzsRyaiZ2pOHg8M","IndianOil","Ground Floor, Kechery, Eranellur","10.6146457","76.12927909999999"
"ChIJX9BHfgDrpzsRfvMeZNeqjUQ","Royal petrol park","J47H+PHQ, Kechery, Eranellur","10.6146236","76.1292582"
"ChIJFwV8wFmVpzsRmZCdrJd3hps","IndianOil","Ground Floor, Pattambi Road, Kunnamkulam","10.661466","76.072425"
"ChIJJQFzdIjupzsRxzorukKNIQc","IndianOil","Ground Floor, Punkunnu, Punkunnam, Thrissur","10.5397716","76.1919408"
"ChIJp2wINdXtpzsRBCZ3TRKtz94","Reliance Petroleum","Thrissur Reliance Retail Outlet (KLF068),M/s. Four Star Agencies,Puzhakkal Muthuvara, Guruvayoor Road, Kpuram, Thrissur","10.5488233","76.1749784"
"ChIJ3xPXdiLspzsREeM2zDbXieE","Hindustan Petroleum Corporation Limited","Survey No 206, 1 & 207/3, Amalanagar, Thrissur","10.5592433","76.1710666"
"ChIJO4KO21fupzsRcnsn3-7HCWI","IndianOil","Ground Floor, near Ashwini Hospital, Vasanth Nagar, Thrissur","10.539361","76.215001"
"ChIJ57LbyU_upzsR_LqX6iCgQ80","Bharat Petroleum Pump","Kodungallur - Shornur Road, Chembukkav, Thrissur","10.5276621","76.2152569"
"ChIJHyj2PVjupzsR9GJMOxUjOSk","Hindustan Petroleum Corporation Limited","Survey No 145, 2 SH 22, Shoranur Road, Patturaikkal, Thrissur","10.538371","76.212121"
"ChIJNfb1RXHvpzsR6ymZd1cJw5w","Bharat Petroleum Pump P Ramaswamy","TRISSUR, Thrissur","10.5229506","76.2044889"
"ChIJm6SoWeHtpzsRX4PbiAWEQfM","Hindustan Petroleum Corporation Limited","Sy No 585/1, SH 75, Olari - Pullazhi Road, Ayyanthole, Thrissur","10.510751","76.17338099999999"
"ChIJRd-GQADvpzsRD9G2r-GlgwY","Hp petrol pump","Kuttoor, Thrissur","10.579936","76.1907535"
"ChIJY2uCAIDvpzsRhIUDAT0zVOk","Bharat Petroleum, Petrol Pump -P.V.Narayanan & Co.","M.G.ROAD, THRISSUR, Thrissur","10.5237267","76.20879219999999"
"ChIJZ2GLdADvpzsRKnAtjaQSso4","Sreelakhmi","M Corp, H P Petrol Station, Mahatma Gandhi Road, Thrissur","10.5234503","76.2088785"
"ChIJvf1WH0TupzsRgVj48mgmJbU","Hindustan Petroleum Corporation Limited","Ground Floor, Mahatma Gandhi Road, West Nadakkavu, Thrissur","10.5235416","76.2089933"
"ChIJ907tJVfupzsR4IfaY6tEs8Y","Bharat Petroleum Pump PN Krishna Iyer & Sons","Afwini junction, Vadakke Bus Stand Road, Peringavu, Thrissur","10.5352333","76.2154577"
"ChIJ2TAMcUXupzsRoEFoZI-GlUw","Hindustan Petroleum Corporation Limited","Ground Floor, Swaraj Round North, Naikkanal, Thrissur","10.526501","76.212171"
"ChIJ42AkJFDupzsR-Ajol3Cua18","Bharat Petroleum, Petrol Pump -Ambadi Service Centre","THRISSUR (NORTH BUS STAND, Thrissur","10.529261","76.215094"
"ChIJe-7HeQDvpzsRM7f4MauutnI","Lpg","G6H7+3Q3, Thrissur","10.5276416","76.2144349"
"ChIJZzti72PvpzsRprR2TuxUcdE","IndianOil","Ground Floor, Viyyur, Kolazhy, Thrissur","10.561115","76.217816"
"ChIJv6cvgX3vpzsRc2Q8ftd1z24","IndianOil","Ground Floor, Central, Thrissur","10.5175603","76.2107247"
"ChIJgTBf3fXrpzsRRAdyJZvBDIo","IndianOil","Ground Floor, Peramangalam","10.582818","76.160429"
"ChIJuw2L9O_tpzsR5xtpXn6Ln0c","NAYARA PETROL PUMP(SREEVALSAM FUELS )","Thrissur Kanjani, Vatanappally - Kanjany - Thrissur Road, Chettupuzha, Thrissur","10.5057109","76.1664734"
"ChIJ5dCk6KHwpzsRuCSphmpzO84","Bharat Petroleum Pump","National Highway 544, Amballur","10.4317658","76.266421"
"ChIJMzI6V0LwpzsRU2yxMBlg19A","IndianOil","Ground Floor, Ollur, Erayamkudi","10.467434","76.245729"
"ChIJgRJu2EPwpzsRdn1gflOKMmQ","Bharat Petroleum, Petrol Pump -Ollur Fuels","F6CV+2Q5, Ollur Industrial Estate, Ollur, Thrissur","10.469748","76.2441734"
"ChIJr_T9aD_wpzsR3RY-ylK7PUg","IndianOil","256, Police Station Road, Panamkuttichira, Ollur, Thrissur","10.4762245","76.24386009999999"
"ChIJowXpwv75pzsRGbLRbC-QOPg","IndianOil","Ground Floor NH 47, Pudukkad, Kottai, Thrissur","10.407281","76.275294"
"ChIJUQljSfb6pzsROlKqxdso2I8","Hindustan Petroleum Corporation Limited","Survey No 715/16, 22 & 24, Amballur - Kallur - Kallayi Road, Kallur","10.457451","76.302561"
"ChIJRSyjNY_wpzsR-hNPos77-t8","IndianOil","Ground Floor, Nenmanikkara","10.448224","76.257876"
"ChIJ1f-IT4XwpzsR6_4J14_Z_Yk","IndianOil","Ground Floor NH 47, Amballur","10.443583","76.260504"
"ChIJV3lsOADxpzsRQZXRADoiPJo","Hindustan Petroleum Corporation Limited","Survey No 1136/1, NH 544, Kochi - Salem Highway, Marathakkara, Thrissur","10.46448","76.25805"
"ChIJv1q7T_3xpzsRfBr_fMf2OLU","IndianOil","Marathakkara - Kallur Road, Mannavu, Marathakkara, Thrissur","10.4642913","76.2659405"
"ChIJH_ddwabwpzsRQe3kmej32Ts","Hindustan Petroleum Corporation Limited","Ground Floor, NH 544, Kochi - Salem Highway, Puthukkad","10.425781","76.267091"
"ChIJj5eQegDxpzsRncTlrvxys_Y","TCM Fuels","F7P2+7X6, Padavarad, Ollur, Thrissur","10.4858033","76.2525933"
"ChIJAUZK-lf4pzsRMpE1UilyZkc","IndianOil","Ground Floor, Perambra","10.358095","76.31697799999999"
"ChIJwxZ0S8f5pzsRRcx4dLI_ELo","Hindustan Petroleum Corporation Limited","Survey No 325/2, NH 544, Kochi - Salem Highway, Nellayi","10.3837654","76.29276519999999"
"ChIJg7DRXEf4pzsRXQjgGD8ez5o","IndianOil","Ground Floor Pulippara, Manakulangara, Chembuchira","10.352395","76.295035"
"ChIJ6y_Qa8H5pzsRSTyl7unIOM8","Hindustan Petroleum Corporation Limited","Ground Floor, NH 544, Kochi - Salem Highway, Nellayi","10.3853377","76.29032839999999"
"ChIJZ8yEHXD4pzsRZRtXvM1b-84","Hindustan Petroleum Corporation Limited","Survey No 291/1 & 292/4 SH 61, Potta, Highway, Moonnupeedika","10.3352378","76.3048987"
"ChIJLxdyVwD5pzsRIvLyRDzlAkc","Garuda Fuels Nayara Retail Outlet","The Bike lab, Matha Arcade, Marothompillikkara, Kodakara","10.3700795","76.3100836"
"ChIJ00lIp2j5pzsROuuXxnoBU_I","Hindustan Petroleum Corporation Limited","Survey No 1437, 3 & 1438/1, Kodakara Vellikulangara Road, Mattathur","10.380603","76.316671"
"ChIJa6jKphb4pzsRwjx2HsOZuQc","IndianOil","Ground Floor, Alur, Kalletumkara","10.341131","76.28811"
"ChIJGcMkesADCDsRdJy9wqBhYcU","Panthalookaran Fuel Agency (PFA)","87RQ+97P, Alur","10.3409625","76.28820309999999"
"ChIJm6o0D4z5pzsRlPyB78pmoaQ","Hindustan Petroleum Corporation Limited","Sy No 518, Pudukud Road, Mupliyam","10.4059359","76.2970057"
"ChIJe0ir-Af5pzsRrJfj8d30HeY","Bharath Petroleum Nandipulam Petrol pump","C83J+262, Pudukad Mupliyam Road, Nandipulam","10.4025065","76.3305245"
"ChIJ3RIKJ94DCDsRsyobRVmjCXM","Hindustan Petroleum Corporation Limited","Ground Floor, JTS Road, Junction, Koratty","10.2608257","76.3597845"
"ChIJI_fNsScCCDsRM2PFjx-7blU","IndianOil","Meloor","10.2958125","76.3613125"
"ChIJ7euLRVEBCDsRtJ95uQ9VedA","IndianOil - SWAGAT","Ground Floor NH 544, Pongam, Koratty, Erayamkudy","10.2458655","76.37041789999999"
"ChIJ1Swb34cDCDsRhrrR1HqK9UM","IndianOil","Ground Floor, Annamanada Mukundapuram,Kottamuri, Annamanada","10.23928","76.32882599999999"
"ChIJV3naYmwCCDsRkdtKKbqW8lc","IndianOil","Ground Floor, Main Road, Chalakudy","10.3099862","76.33745789999999"
"ChIJtVhKYGwCCDsRzSofzOWKEAw","Hindustan Petroleum Corporation Limited","Ground Floor, Chalakudy","10.310451","76.33751099999999"
"ChIJvRr7ZScDCDsRya3FB2nUtsQ","NAYARA Petrol Pump - Josco Fuels","Koratty","10.2755595","76.34575099999999"
"ChIJDScvZ9cDCDsRONdWugVB95w","Hindustan Petroleum Corporation Limited","Ground Floor, NH 544, Koratty","10.261784","76.35555099999999"
"ChIJGbgk5pADCDsR59AAnBBXtrA","Thrissukkaran Fuels","Thrissukkaran Fuels, Thriveni Junction, Chalakudy","10.2762182","76.3269162"
"ChIJC6tue2kDCDsRuaMOtdrMXzA","Hindustan Petroleum Corporation Limited","Sy No 727/2, Muringoor–Kadukutty Road, Kadukutty","10.2693607","76.3196157"
"ChIJDYxWhmEBCDsRhuHViPqfxdk","IndianOil","Ground Floor Mukundapuram, Koratty, Chirangara - Nalukettu Road, Thrissur","10.250021","76.369126"
"ChIJ77OZV00BCDsROzIOrCEEY9E","CNG PUMP - Angamali - Chalakkudi Road","69WC+53J, National Highway 544, Pongam, Kizhakkummuri","10.2454736","76.3701329"
"ChIJncHe8gwDCDsRnrYPIZ4Qoa8","IndianOil","Ground Floor, Chalakudy","10.3013133","76.3330222"
"ChIJv16kBQsECDsRGKadz3UY0lY","Hindustan Petroleum Corporation Limited","near Mambra, Sy No 408/4 Kallur Thekkummuri, near Mambra, Pongam Road, Mambra","10.2349789","76.3429584"
"ChIJAekS-2oCCDsR0UD4-GJY9tY","Hindustan Petroleum Corporation Limited","Survey No 445, near Chalakudy, 4 SH 21, Athirappilly Road, Chalakudy","10.3059441","76.3383156"
"ChIJ_yAHWgAFCDsRdOpzOuO7ZR8","My house","68JW+VHQ, Mambra","10.2322343","76.34649809999999"
"ChIJM2hWDRMDCDsRuuMKiVhYhvk","Global Lpg Distributors","State Highway 21, Chalakudy","10.3100628","76.3381479"
"ChIJ5Q843bYDCDsR5D6nY9uPx2A","Bharat Petroleum, Petrol Pump -Kallely'S Fuels","Chalakudy","10.310925","76.3372618"
"ChIJVXTS8yQGCDsRW6wkaGMi6sg","Bharat Petroleum, Petrol Pump -pynadath Fuels","Near to cochin international airport, Nayathode junction","10.1615614","76.3945157"
"ChIJjWtCRGcGCDsRc2JbQPm-glw","Hindustan Petroleum Corporation Limited","Ground Floor, Kochi - Salem Highway, Angamaly","10.1897172","76.38603479999999"
"ChIJjXLdn20GCDsRumExuPDc7Vw","Hindustan Petroleum Corporation Limited","Ground Floor, NH 47, Angamaly","10.1767913","76.3766567"
"ChIJP50AvRgGCDsR18dRebVbENo","IndianOil","near Angamally, Ground Floor Nedumbassery, near Angamally, Angamaly","10.158721","76.385938"
"ChIJpTcKXCEGCDsRUwqBBE7n5fY","Bharat Petroleum Pump COCO","5934+5F6, Athani airport junction","10.1529003","76.35613649999999"
"ChIJKzK4GbQHCDsR1CjtstBARV8","Bharat Petroleum - St George Petroleum","5CH7+P7, Vengoor, Nedumbassery","10.1799639","76.41519"
"ChIJFWU4QSAECDsRhauyuMsckhY","IndianOil","peechanikad, Karukutty – Elavoor Road, Peechanicadu, Karukutty","10.2156129","76.361748"
"ChIJeafh4gEHCDsRss9vql8uaOI","IndianOil","Ground Floor, Angamaly Manjapra Road, Angamaly","10.20201","76.41012599999999"
"ChIJwU3g4ZcFCDsRWA6HI_uRLf0","Hindustan Petroleum Corporation Limited","Ground Floor, near Parakkadavu Block Office, Kurumaseri","10.172051","76.33016099999999"
"ChIJrWAGZwAHCDsR-IUNe8JsBu8","IndianOil Fuel Station","P.O, Kariyad, Mekkad, Aluva","10.1615653","76.36515419999999"
"ChIJ52AoWJQHCDsRuYlTNNHYaZo","Bharat Petroleum Aviation Fuel","595P+G5M, Nedumbassery","10.158847","76.3854162"
"ChIJFR8q27MHCDsR4Z6KNWHHFP4","Hindustan Petroleum Corporation Limited","Ground Floor, Kavaraparambu, Nayathode, Angamaly","10.1830601","76.396993"
"ChIJF4uYHgAHCDsR3rlQc7Izv_Y","VRL pump","Vrl logistics ltd, behind Idamalayar office, Angamaly","10.1882178","76.39596720000002"
"ChIJT5t6QFUHCDsROmfo83Vsgek","Hindustan Petroleum Corporation Limited","Ground Floor, Kavaraparmbu, Angamaly","10.1975707","76.3851801"
"ChIJn5Tz3D8HCDsRDFQ7CKOKIzA","Bharat Petroleum, Petrol Pump -Krishna Petroleum","ANGAMALI, ERNAKULUM","10.201025","76.38373899999999"
"ChIJ2ShyyE0GCDsR4g2eBtcbanc","EXCEL SERVICE STATION","5CM4+J6M, M C Road Vengoor Angamaly, Vengoor","10.1840977","76.4055549"
"ChIJ0ReYzA0PCDsRwqJOCeKzbew","Bharat Petroleum Pump- Pathinarupara Fuels","Avinashi - Tiruppur - Palladam - Pollachi - Cochin Road, Athani","10.1449611","76.3526082"
"ChIJqy8Ppe4GCDsR3h-TqS_OFD8","IndianOil","Ground Floor, Njalookara, Azhakam, Karukutty","10.212089","76.39335"
"ChIJx6As_2gPCDsRQ3k2SoLI1yg","IndianOil","Ground Floor NH 47, Chengamanad, Kochi","10.141196","76.35277599999999"
"ChIJ8yuoXAAPCDsRsIm-U2p6uuw","Nayara Energy-UB Traders","Kaprassery","10.1385435","76.3536488"
"ChIJsUOVFpsOCDsR1U58b27yckA","IndianOil","Ground Floor, Thaikkattukara,Muttom Kalamassery","10.07004","76.33056599999999"
"ChIJUUDp4b8OCDsREauAE45e91I","IndianOil","Ground Floor NH 47, Ambattukavu, Thaikkattukara, Aluva","10.083891","76.340605"
"ChIJa8Zkd4wOCDsRbn5f0V_xD0w","Bharat Petroleum Pump Vadakkal Fuels","38JF+56V, Pathalam Bridge, Pathalam, Kalamassery","10.0804924","76.3230444"
"ChIJkXcz_ykMCDsR_-PBN27UYDU","Hindustan Petroleum Corporation Limited","Ground Floor, near Premier Junction, Kalamassery, Ernakulam","10.062211","76.323211"
"ChIJMzkAfe0PCDsRJRqRrNJFJaA","Bharat Petroleum Pump","Muppathadom, Edayar, Edayar","10.0839851","76.3139262"
"ChIJYa5Yj8wOCDsRBuTFvBbk7IA","Bharat Petroleum Pump","Aluva - Munnar Highway, Ashokapuram, Erumathala West, Keezhmad","10.0920717","76.36125779999999"
"ChIJz5m1kNkOCDsRUQNiTEVqcF4","Bharat Petroleum Pump Ammus","4932+32X, Ernakulam Road, Kunnathery Thikavu, Aluva","10.1027377","76.3501002"
"ChIJ_____zwPCDsRpBnWH8Ai6Vg","IndianOil","near Thottakkattukara, Ground Floor Aluva, near Thottakkattukara, Ernakulam","10.11403","76.334308"
"ChIJpxtndioPCDsRLo1ow1Q5jnc","Hindustan Petroleum Corporation Limited","Ground Floor, Periyar Nagar, Aluva","10.1079501","76.35945009999999"
"ChIJAQAw72sMCDsRPWZhbEuKS1A","Bharat Petroleum Pump","28PW+P4V, Thrikkakara, Mundampalam, Ernakulam","10.0368747","76.3453035"
"ChIJm4oFsvYLCDsRpsN13NWl0kA","Hindustan Petroleum Corporation Limited","Ground Floor, Vk Colony, Kuzhivelippady, Pukkattupady","10.048576","76.369297"
"ChIJARj-Hj0PCDsRTHhxl0BJkQU","Hindustan Petroleum Corporation Limited","Ground Floor, Paravoor Junction, Aluva","10.119451","76.343271"
"ChIJezNjIooPCDsRpliN_1PZJkw","IndianOil","Ground Floor NH 47, Alwaye, Thaikkattukara, Kochi","10.091487","76.345389"
"ChIJxQ8Qz4YOCDsRju_MBDvSuIE","IndianOil","Ground Floor, Kalamassery,Thaikkattukara, near Truck Terminal, Kalamassery, Kochi","10.068382","76.321241"
"ChIJP42kdwANCDsRULKkrG_GMus","Bharath Petroleum Petrol Pump - Kochi Metro Operated","North Kalamassery, HMT Kalamassery, Ernakulam","10.0589829","76.3223561"
"ChIJwfe9MlMJCDsRoW-EX90wWUw","Hindustan Petroleum Corporation Limited","Ground Floor Combara, NAD Road, Aluva","10.0716531","76.36382520000001"
"ChIJbUbLewAPCDsRR04PO2vaq6o","AR Glass tuff FABRICATION","38WC+G2H, Muppathadam Megalaya Road, Muppathadom, Edayar, Aluva","10.0963204","76.32011609999999"
"ChIJGa2Q4I4NCDsRlGWdhLeoSo4","COCO STATION KALAMASSERY CNG PUMP","Biotechnology Zone, Kinfra Hi-Tech Park, 15 A, HMT Colony, North Kalamassery, Kalamassery, Kochi","10.053678","76.349323"
"ChIJD7Yzs1QJCDsRSjqPHY24yyY","IndianOil","Ground Floor, Kombara Road, Naval Armament, Aluva","10.0686437","76.3634964"
"ChIJbV5tIAANCDsRo_qtUZ3XYHo","Gail road cng pumb","383X+8P5, HMT Kalamassery, Kochi","10.053265","76.34937169999999"
"ChIJ91BknCUNCDsRWmOEislfXOw","IndianOil","Ground Floor, Thammanam, Ernakulam","9.9861901","76.30905899999999"
"ChIJ64MhwytzCDsRcqMMQQUYMMs","Bharat Petroleum Company Owned Pump and CNG Filling","Hub Bus Terminal, Vyttila Mobility Hub Road, Vyttila, Ernakulam","9.9703261","76.3215876"
"ChIJcZ775idzCDsRuHQtNA8Uw68","Hindustan Petroleum Corporation Limited","Ground Floor, NH Bypass, Vyttila, Kochi","9.9639974","76.3187918"
"ChIJHwD7a85yCDsRQzMufjWrteg","Bharat Petroleum Pump PC Auto Fuels","X893+2JX, Sahodaran Ayyappan Road, Elamkulam","9.9676206","76.3041164"
"ChIJy8O_3icNCDsRILn2uVldIBU","Hindustan Petroleum Corporation Limited","Ground Floor, NH47 Bypass, Chakkaraparambu, Kavaraparmbu, Ernakulam","9.985883599999998","76.3156912"
"ChIJu0PfoctyCDsRiB4bJPE5a2U","Bharat Petroleum","Kaloor - Kadavanthara Road, Ernakulam","9.9710992","76.2985478"
"ChIJ04Y6qslyCDsRH15GPMcRLjk","Hindustan Petroleum Corporation Limited","Ground Floor, Sahodaran Ayyappan Road, Kadavanthra, Kochi","9.966028899999998","76.29701229999999"
"ChIJqd_UiSMNCDsR6xJkbBKc-GE","Supergas Auto LPG Station TVA Fuels","# 35/2953 - C, Thammnam, Puthiya Road, Ernakulam","9.990766799999998","76.30950059999999"
"ChIJpaWcoRVzCDsR9n07pdwKemE","Hindustan Petroleum Corporation Limited","Ground Floor, Vadakkekotta, Thrippunithura, Kochi","9.9523767","76.33763189999999"
"ChIJteoPAgJzCDsRNThdpsCkYKU","IndianOil","Ground Floor, NH 47, Kundannoor Bridge, Maradu, Ernakulam","9.9431","76.3186367"
"ChIJP_mYGLdyCDsRE2wfyYIRE0A","Hindustan Petroleum Corporation Limited","Ground Floor, Sahodaran Ayyappan Road, Valanjambalam, Kochi","9.9649389","76.2899905"
"ChIJQeRF-JRyCDsR30zsWYJe9Nk","Mookken Devassy Thevara and Co","Mookken Devassy (Thevara) & Co. BPC Dealers Perumanoor Jn, Thevara, Kochi","9.948623099999997","76.2914763"
"ChIJG1XM-blyCDsRreGpMUUSPf0","IndianOil","Ground Floor, Mahatma Gandhi Road, Ernakulam","9.962243099999998","76.288491"
"ChIJSffcxANzCDsRIZaCk6dWV7E","Bharat Petroleum Pump","W8PC+XGV, Kochi-Madurai-Tondi Point Road, Maradu, Ernakulam","9.9374936","76.32128809999999"
"ChIJRaD9EAJzCDsR2xBe5pkGiuM","IndianOil","Ground Floor, Bypass, Kundannoor, Maradu, Kochi","9.9379001","76.318499"
"ChIJGdfTD00NCDsRpSdATKWSRBo","Hindustan Petroleum Corporation Limited","Ground Floor, opposite Maharajas College Ground, Mahatma Gandhi Road, Kochi","9.9754901","76.28468099999999"
"ChIJ7dWChRANCDsRKBWQbcCtmIk","MOOKKEN DEVASSY PALARIVATTOM & Co.","SN Jn, Palarivattom - Edappally Road, Old Rd, Palarivattom, Ernakulam","10.0037567","76.3051826"
"ChIJE7PTI0ANCDsRbQdMMd3snMI","IndianOil","Ground Floor, Kaloor, Ernakulam","9.995344099999999","76.292686"
"ChIJ9dACm60MCDsRzh16otaD6Co","Bharat Petroleum, Irumpanam - Company Owned Company Operated","Seaport - Airport Road, Irumpanam, Kochi","9.978978799999998","76.3529152"
"ChIJDQPpBq5yCDsRXo5c2oh44xI","IndianOil","Ground Floor, Durbar Hall Road, Ernakulam","9.967718","76.28222629999999"