place_id,name,address,latitude,longitude,open_now
"ChIJ83XUnZvuDzkRiiVyLXmQhkA","IndianOil","Ground Floor, Phase No 8, Sector 55, Sahibzada Ajit Singh Nagar","30.6968588","76.73237519999999","true"
"ChIJ97lNi9HoDzkRblkRirmtVYQ","Reliance Petroleum","Sector 108, Banur Road, Mohali","30.6580785","76.6773848","true"
"ChIJValRHeLoDzkRGU2OnpmmqbU","Nanak Filling Station","Sector 103, Baba Banda Singh Bhadur Marg Vill, Saneta","30.6367307","76.6869648","true"
"ChIJPQw-q5XuDzkRQuLtbAidaNI","IndianOil","Ground Floor, near Gurdwara, Sector 70, Sahibzada Ajit Singh Nagar","30.6928807","76.7135602","true"
"ChIJoyKP1TPvDzkRX-QZulirV3M","Bhatti fuels station bharat petroleum","140307, Sector 110, Sahibzada Ajit Singh Nagar","30.6691526","76.6728132","true"
"ChIJu9MWoA_sDzkRsdwdLfHGyuA","IndianOil","Ground Floor, Sector 65, Sahibzada Ajit Singh Nagar","30.6796615","76.7464784","true"
"ChIJm_6n8R_sDzkRai8F_6hIzsA","Hindustan Petroleum Corporation Limited","Ground Floor, Phase 9, Sector 63, Sahibzada Ajit Singh Nagar","30.692001","76.734601","true"
"ChIJ_yLdannpDzkRKcQMFrkCxDc","NAYARA Filling Station","Chandigarh International Airport Road, Aerotroplis, Sahibzada Ajit Singh Nagar","30.6281568","76.7268034","true"
"ChIJTRTDREDsDzkRIO2Wj5ymaY0","IndianOil","Ground Floor, Sector 49, Chandigarh","30.6969845","76.758506","true"
"ChIJ3U4F7kDsDzkR8toZg89nXMw","IndianOil","Ground Floor, Sector 46D, Sector 46, Chandigarh","30.698511","76.758614","true"
"ChIJy85VcjHsDzkRTAzuJLIZ7GE","Amalia Pump CNG Filling Centre","44C, National Highway 21, Chandigarh","30.7097261","76.748739","true"
"ChIJXUeNIi3sDzkRrbYUOGLi4kw","Hindustan Petroleum Corporation Limited","Ground Floor, Sector 52B, Chandigarh","30.714641","76.742891","true"
"ChIJl9vySXnuDzkRxvQoaZRmncE","Hindustan Petroleum Corporation Limited","Ground Floor, Phase 3 A, Sector 53, Sahibzada Ajit Singh Nagar","30.720431","76.729291","true"
"ChIJ02r6eZzvDzkR-joYgiZc25g","IndianOil","Ground Floor, Kharar Landran Rd, Railon Chapar Chiri Khurd, Sector 116, Sahibzada Ajit Singh Nagar","30.712416","76.65644999999999","true"
"ChIJ88AyNPPlDzkRiugivrQdtBc","Hindustan Petroleum Corporation Limited","Ground Floor, Chandigarh Sirhind Road, Kharar","30.681873","76.633817","true"
"ChIJrwSj1HfuDzkRUZYaYdKur_c","BPCL CNG Petrol pump","PPHM+H83, Vikas Marg, Block C, Sector 41, Chandigarh","30.7288858","76.7333074","true"
"ChIJaaSAd0XpDzkRuotzTaxaxmE","PAWAN PETRO STATION","SECTOR- 84, Sahibzada Ajit Singh Nagar","30.6636957","76.7153494","true"
"ChIJNR7DLADvDzkRkyXjIa0vXqI","Hindustan Petroleum Corporation Limited","Ground Floor, Sector 97, Sambhalki, Sahibzada Ajit Singh Nagar","30.6704812","76.6925315","true"
"ChIJ4egdfQDvDzkRAOon4e2gtSo","Indian oil petrol pump","MMFR+757, Sector 97, Sahibzada Ajit Singh Nagar","30.6733165","76.69039099999999","true"
"ChIJ6avcW7ruDzkR0-X9FBMlOkI","IndianOil","Ground Floor, Sector 79, Sahibzada Ajit Singh Nagar","30.68168589999999","76.718728","true"
"ChIJ9ZFvr8bvDzkRvO4XNNQawDg","Pollution centre","MPR5+8V8, Sohana, Sahibzada Ajit Singh Nagar","30.6907906","76.70969989999999",""
"ChIJq3crCADvDzkRIJ0kmUKfHNs","Cng pump","MPV7+2F, Sahibzada Ajit Singh Nagar","30.6928258","76.71387349999999",""
"ChIJPcExfx3pDzkRY2h9Wp3pJnU","Hindustan Petroleum Corporation Limited","Ground Floor, Banur Road, Kharar","30.634041","76.687811","true"
"ChIJZ1a5IwDtDzkRH9NYKyhjcGs","Indian Oil Petrol Pump","House No. 1301, 5, Phase 11, Sector 65, Sahibzada Ajit Singh Nagar","30.6795995","76.7465163",""
"ChIJB2LQUQLvDzkR6b_BpwAcyTA","Car washing","2017, Mattaur Road, Sector 71, Sahibzada Ajit Singh Nagar","30.7011366","76.7100818",""
"ChIJlVUJUBrvDzkRUJFLEW2NzUA","Hindustan Petroleum Corporation Limited","Ground Floor, Sohana, Lakhnaur, Sahibzada Ajit Singh Nagar","30.694695","76.67818299999999","true"
"ChIJN3UtWTvpDzkRhYxJFr948L0","Indianoil-Adani Gas Pvt Ltd CNG Station","JMFR+PF6, National Highway 205A","30.6242903","76.6911349",""
"ChIJ71fZfnLpDzkRDxEzkFbM_WI","IndianOil","Ground Floor Banur Landran Road, Bathlana, Durali","30.624399","76.69060499999999","true"
"ChIJEVBL0XDvDzkRUGYOmH9YMHg","Hindustan Petroleum Corporation Limited","Sector 61, Sahibzada Ajit Singh Nagar","30.7044598","76.72643699999999",""
"ChIJh-rrkLzvDzkRiUuZROdY_6k","IndianOil","near CHD Engineering College, Ground Floor Landran, near CHD Engineering College, Kharar - Landran Road, Chunni Kalan","30.68905299999999","76.66478699999999","true"
"ChIJzaMOA0zvDzkRuTkLeIrbXG4","JIA Petros","MMR7+4P2, State Highway 4, Sector 112, Sahibzada Ajit Singh Nagar","30.69027059999999","76.664272","true"
"ChIJ1_cV6dDrDzkRZsi6jPIyfag","IndianOil","Ground Floor, Aerocity Road, Block F, Sector 55, Chandigarh","30.6387001","76.7564001","true"
"ChIJL6HhAf3tDzkRalFWhgw4R_A","Maurya Traders","792, Faidan Nizampur, Bair Majra, Chandigarh","30.6873148","76.7654268",""
"ChIJXwYA2U7tDzkR2RIcZU_2bOE","Maan Vehicle Pollution Check Centre 49","Ground Floor, Vikas Marg, Sector 48B, Sector 49, Chandigarh","30.69702550000001","76.7587984","true"
"ChIJVcqjeADtDzkRbmn2HCO5B8Q","Karan Filling Station, Vill. Kajheri, Sector 52, Chandigarh - 160036.","PP6V+C6G, Kajheri Village, Sector 52, Chandigarh","30.7110299","76.74309509999999",""
"ChIJmUwX6fftDzkRbtt7FoN6E68","IndianOil","Ground Floor, Sector 52, Chandigarh","30.711113","76.7430526","true"
"ChIJn5vSzRLtDzkRzTbYHxiJpj0","IndianOil","Sector 51, Chandigarh","30.70984979999999","76.74723139999999","true"
"ChIJ40RKRwDtDzkRYK4Nr6ou-CY","IndianOil","Ground Floor, Sector 44, Chandigarh","30.709665","76.74904599999999","true"
"ChIJCxDfIBPrDzkRHg4KIvKI9r8","Hindustan Petroleum Corporation Limited","Ground Floor, Block G, Gmada Aerocity, Sahibzada Ajit Singh Nagar","30.62973229999999","76.7703963","true"
"ChIJw0CTOF3rDzkRGzSfRAxEozg","Pollution Check Centre","6422, Block G, Gmada Aerocity, Sahibzada Ajit Singh Nagar","30.6293532","76.770566",""
"ChIJv9O-DQDtDzkRsglJEjcJeKk","Indian oil Petrol pump","PPFQ+465, Vikas Marg, 42C, Sector 42, Chandigarh","30.7228076","76.7381059",""
"ChIJe1K6yjTsDzkRt0K61J8-ct8","IndianOil","Ground Floor, Sector 43, Chandigarh","30.716741","76.752579","true"
"ChIJfZzQGRDvDzkRdgmi1ePR2YI","Bharat Petroleum, Petrol Pump -Mohali Cargo Movers","6, Balongi Road, Sector 57, Balongi, Sahibzada Ajit Singh Nagar","30.72949659999999","76.6985581","true"
"ChIJZYjK9KLvDzkR5BAxLU_kvlw","Panday Chulla Repair","Shop No 609, near Water Tanki, Balongi, Sahibzada Ajit Singh Nagar","30.7288344","76.6933519",""
"ChIJyXDWHgDrDzkRzQao3h7XvJU","Aero Mart","JQHJ+XC4, Bakarpur Link Road, Gmada Aerocity, Naraingarh","30.62989499999999","76.7810712",""
"ChIJ9cDyBMTpDzkRvsdvaxNtWNU","Hp","India","30.59293929999999","76.70421",""
"ChIJvXAbSNTpDzkRcI29aG7xNMQ","Hindustan Petroleum Corporation Limited","Ground Floor, NH 205A, Kharar Banur Highway, Tangori","30.592831","76.704141","true"
"ChIJkempUCLrDzkRdX3hvhRgxq8","Hindustan Petroleum Corporation Limited","Ground Floor, NH 64, Patiala, Rajpura Road, Nabha","30.6400501","76.8046501","true"
"ChIJL2BQuE_rDzkR5p3J-h9kdrk","IndianOil","Ground Floor, Ambala Road, Zirakpur","30.665453","76.816332","true"
"ChIJNSk_6YzsDzkRHllaClg3Iac","Bharat Petroleum","Plot No.738, Ram Darbar, Industrial Area Phase II, Chandigarh","30.6962207","76.78749309999999","true"
"ChIJDx7pyTXrDzkR0opILYMVJZM","Hindustan Petroleum Corporation Limited","Ground Floor, Ambala - Chandigarh Road, Zirakpur","30.6539601","76.82170099999999","true"
"ChIJ91gHWSzrDzkRT5aDzZtVdxU","IndianOil","Ground Floor, NH 22, Ambala - Chandigarh Road, Baltana, Singhpura","30.641392","76.82294499999999","true"
"ChIJMcegrkWTDzkRnJZP0RMjE2I","IndianOil","GROUND FLOOR, GK Panchkula, Sector 16, Panchkula","30.6722669","76.83954949999999","true"
"ChIJm1VS3VTsDzkRchhRJr-5qGo","Hindustan Petroleum Corporation Limited","Ground Floor, Dakshin Marg, 20C, Sector 20, Chandigarh","30.718041","76.776231","true"
"ChIJr2wsTtzsDzkRI7XCO-oqfWQ","IndianOil","Ground Floor, Sector 28 C, Sector 28, Chandigarh","30.714531","76.80646500000002","true"
"ChIJZbgoIL-UDzkRBC_aum4qXwA","Natraj Filling Station","K - Area Road, Sector 20, Panchkula","30.6613496","76.84480560000002","true"
"ChIJj7eTwdbtDzkRDrz1AYLmS3o","IndianOil","Sector 42, Chandigarh","30.71838039999999","76.7636794","true"
"ChIJx44NPa3tDzkRGYO5CQSIWqc","IndianOil","Ground Floor, Sector 34B, Chandigarh","30.720192","76.77031699999999","true"
"ChIJ2eR4BZztDzkR0DGGnRC4LDE","Bharat Petroleum (COCO)","457, Dakshin Marg, Sector 21C, Sector 21, Chandigarh","30.7232745","76.77161629999999","true"
"ChIJqaX2WbmUDzkRNAPOpebxPOM","IndianOil","Ground Floor Industerial Area Phase 1, Plot 1, Sector 12, Near, Panchkula","30.669782","76.84934799999999","true"
"ChIJKQwTNKztDzkRDeZQFUF4pyk","IndianOil","Dakshin Marg, Sector 21, Chandigarh","30.724312","76.770866","true"
"ChIJcfz25F-TDzkR74j9RqqKeAA","IndianOil","Ground Floor, Sector 12 & 14, near DC Residence, Panchkula","30.6822437","76.8481626","true"
"ChIJr-7ywtjsDzkRlyGbrv3jZp8","IndianOil","Madhya Marg, Sector 26, Chandigarh","30.720783","76.809944","true"
"ChIJRTkpqTOTDzkRAWFkU-JyqcQ","Hindustan Petroleum Corporation Limited","Ground Floor Pocket, 4 & 5, Sector 13, Chandigarh","30.710241","76.82918099999999","true"
"ChIJE3Amj9nsDzkRKZNhhOs_MNw","Petrol Pump","Madhya Marg, Sector 26, Chandigarh","30.7256294","76.8042656","true"
"ChIJB5MidLDtDzkR4CZtUSvcfWI","BPCL Petrol Pump","2948, Sector 22C, Sector 22, Chandigarh","30.7293832","76.7664049","true"
"ChIJT747Va_tDzkRRTrl-87c2h8","Hindustan Petroleum Corporation Limited","Ground Floor, near Aroma Hotel, 22B, Sector 22 Market Road, Sector 22B, Sector 22, Chandigarh","30.730261","76.77433099999999","true"
"ChIJR6A1-RntDzkR9ugradTQwAY","INDIAN OIL BHAWAN","plot no 3a, Sector 19A, Madhya Marg, Chandigarh","30.7324405","76.79740559999999","true"
"ChIJj1jCe2qTDzkRnh-5pm5dXtg","Bharat Petroleum","Sector 8, Panchkula","30.7010475","76.84941770000002","true"
"ChIJeVuMDnjrDzkRxR761_5BLFg","Hlo","1102, Chandigarh","30.6738734","76.8000091",""
"ChIJ2VTM__nrDzkRYXbnMBiYRrg","Varuna Pump (LGMPL)","Sco. 21, Sant Kirpal Nagar, Zirakpur","30.6573633","76.8143517","true"
"ChIJ7VfdL8rrDzkR8szvc-ILwYM","Hindustan Petroleum Corporation Limited","Khasra No 551, National Highway 7, Nabha Sahib","30.64274009999999","76.8062901","true"
"ChIJs3nHiZLsDzkRO68pOEcEsWY","I.S. Industries ( Cng Kit Dealer )","Plot No. 48, 10, Marla Kothi Road, Ram Darbar, Industrial Area Phase II, Chandigarh","30.6957526","76.7923143","true"
"ChIJDwcMeObtDzkRh7BnFiykMPg","Citco Petrol Pump","Apartment Building, Industrial Area Phase I, Chandigarh","30.69268749999999","76.8023125","true"
"ChIJP7Qp0OrrDzkRNgTxBjEc64A","Anamika gas chulla repair","JRV7+3QP, near PRINCE PHARMACEUTICALS, Lohgarh, Zirakpur","30.6427424","76.8142426",""
"ChIJKSALavDtDzkRP2iF-xLcX2g","IndianOil","2, Dakshin Marg, Industrial Area Phase II, Chandigarh","30.69669039999999","76.79630159999999","true"
"ChIJEaowUSbtDzkRrtpTDV_AvaU","IndianOil","2, Dakshin Marg, Industrial Area Phase II, Chandigarh","30.69669039999999","76.79630159999999","true"
"ChIJi42jEPHsDzkRHfQJRjoNo-4","Hindustan Petroleum Corporation Limited","Ground Floor, Sector 31, Chandigarh","30.705381","76.787311","true"
"ChIJgXbHXBXtDzkR_5K4c20EFHA","IndianOil","Phase 3, Industrial Area Phase 2, Chandigarh","30.68762549999999","76.8250214","true"
"ChIJ2VylJQDrDzkR3DPfuUAU1uc","EV CHARGING STATION","JQ9W+M85, Chhat","30.6191346","76.7958682","true"
"ChIJZcD2LkbtDzkRxMMsHnZhSJc","15 Petrol Pump","MRRG+Q94, Mauli Jagran, Daria, Chandigarh","30.6918985","76.8259612",""
"ChIJAe82QwCVDzkR7Sr6jCxfG_Y","BHARAT PETROL PUMP","New Generation Independent Duplex, 1, Guru Gobind Singh Nagar, Dhakoli, Zirakpur","30.6590534","76.83825519999999",""
"ChIJwwY42QHrDzkRPpN3_enkRyI","IndianOil","PR 7, Ground Floor, Airport Road Road, Bypass, Dhurali, Zirakpur","30.617364","76.80538399999999","true"
"ChIJgwgKUG7rDzkRcNh114kBDtQ","Hindustan Petroleum Corporation Limited","Ground Floor, Aerocity Road, Derabassi, Shatabgarh","30.616688","76.805916","true"
"ChIJx0S7bFeNDzkRhvR9mGxzE9M","IndianOil","Ground Floor, Pinjore Nalagarh Road NH21A, Charnia, Sector 20, Panchkula","30.6722669","76.83954949999999","true"
"ChIJI61zoFeTDzkRZC0xkUwtBtU","BP-Industrial Area","MRMP+8GP, Industrial Area Phase 2, Panchkula","30.6833301","76.8363217","true"
"ChIJdQrK2mrtDzkR-bImWRgTzj8","IndianOil COCO","Coco 33, Sector 33, Chandigarh","30.7173523","76.7756876","true"
"ChIJzVf6WbmUDzkRQz6Kg99mswM","IndianOil","Ground Floor, NH 22, National Highway 5, Dhakoli, Patiala","30.6638869","76.8423986","true"
"ChIJD__6gm-TDzkRRT5g7a6TlgI","IndianOil","Ground Floor, Industrial Estate, Urban Estate, near Huda City Centre 2, Sector 5, Panchkula","30.69443099999999","76.857698","true"
"ChIJ3apGxqmVDzkR9mGp02lDTs4","Hindustan Petroleum Corporation Limited","Ground Floor, Ramgarh Road, Mubarakpur, Kakrali","30.631371","76.873291","true"
"ChIJoQ4Wzg2VDzkR-CmlAfTzdOg","RLB Industries","Ramgarh Road, Mubarakpur, Sanauli","30.62025580000001","76.86300159999999","true"
"ChIJeYfsnz2TDzkRh7eZmN0lJso","Banveet service station and Petrol Pump","329, Chandigarh - Panchkula Road, Motor Market, Motor Market, Sector 13, Chandigarh","30.7127433","76.8463644","true"
"ChIJjZAmHhiTDzkRjvfbJEAGBPk","Hindustan Petroleum Corporation Limited","Ground Floor, Sector 5, Panchkula","30.71565","76.8492918","true"
"ChIJZcdf-cWVDzkR__lM90DQaRg","IndianOil","National Highway 7, Sector 20, Panchkula","30.6666706","76.8484099","true"
"ChIJKxBgRt2VDzkROnYwU-j3QV8","Paul Petroleum Consultants | Reconstitution Of Petrol, Diesel, CNG & LPG Dealership","# 457, Sector: 12A, Panchkula","30.6717062","76.8488764","true"
"ChIJW99wrHyVDzkRUT6i-AVL2gI","Hindustan Petroleum Corporation Limited","Ground Floor, Main Market, Sector 20, Panchkula","30.6680958","76.85906460000001","true"
"ChIJXdufp8CVDzkR3-V_UeRd-VE","Petro India Filling Station","Inner market, near BSNL office, Sector 20, Panchkula","30.6655708","76.8618262","true"
"ChIJVR8PAwCTDzkRZhMZcWCdPTc","Petrol Pump Sec14","MRJX+V6Q, Sector 14, Panchkula","30.6822166","76.8481204","true"
"ChIJRzmc2mWTDzkRAzTB_j7crvQ","IndianOil","Ground Floor, Sector 4, Panchkula","30.691739","76.855542","true"
"ChIJ1983sn6TDzkR7aP1rduavIw","IndianOil","&, Ground Floor NH 22, Kalka Shimla Road, 3, Sector 8, Panchkula","30.689042","76.867131","true"
"ChIJuVoZS1uUDzkRWr_1Nrd_OR8","MAXCARE","India","30.6558113","76.8835161",""
"ChIJ9cIEV0SUDzkRFvaZO4l_4QY","Sainik Filling Station","National Highway 73, Sector-27, Panchkula Extension, Panchkula","30.6550392","76.886892","true"
"ChIJpyk3xZyTDzkRhp4j9r0vhlo","Central Market 5","NLG RETAIL SHOPPEE, C/O, Sector 8, Panchkula","30.6965107","76.8571835","true"
"ChIJtWM5PVOUDzkRMEmTUXyXlPo","IndianOil","Ground Floor Morthikri, Dera Bassi","30.6411387","76.87986149999999","true"
"ChIJ1U02DQCVDzkR3kZIdARjHiA","Prakash petros","Prakash petors pradushan kendar, Old Ambala Road","30.62874","76.8487762",""
"ChIJj7cOegSVDzkRTLDnPihlQTk","Parkash Petros","Nagla","30.6286875","76.8493125","true"
"ChIJ_ey12W2UDzkRsMf2aU9RpIQ","IndianOil","Ground Floor, Sector 20 & 25, Panchkula","30.67255600000001","76.889528","true"
"ChIJh93iFGqTDzkRl3ZZEhuZXzs","IndianOil","1, Sector 5 & 8, City Centre, Ground Floor, Panchkula","30.7001924","76.8503186","true"
"ChIJNfvYlHGTDzkRQQ0yUzUwesQ","Sector 2 BP Petrol Pump","Sector 2, Panchkula","30.69878639999999","76.8619401",""
"ChIJZwe7q62VDzkRNL0KtlkFvNE","IndianOil","Ground Floor, Ramgarh, Road, Mubarakpur, Kakrali","30.63110199999999","76.873924","true"
"ChIJF-FFMVOVDzkRlCbdcEkLj3E","Jasmeet Petroways","JRFX+RVV, Old kalka, Jammu - Delhi Road, Mubarakpur, Dera Bassi","30.6246223","76.8496814","true"
"ChIJE-fPxA2VDzkRCtP8WsY5Duk","Hindustan Petroleum Corporation Limited","Ground Floor, Mubarakpur, Dera Bassi","30.62023099999999","76.862501","true"
"ChIJ68CGJuiTDzkRf966J4QgFLk","IndianOil","Ground Floor, Sector 1 & 8, Panchkula","30.706819","76.86602599999999","true"
"ChIJBfQd0WqVDzkRemNcuxprcr8","IndianOil","Ground Floor, Ramgarh Road, Mubarakpur, Bhankharpur","30.616957","76.85546409999999","true"
"ChIJpU6IygqTDzkR06G3GATbX2I","IndianOil","Ground Floor, Industrial Estate, near Suraj Cinema, Panchkula","30.7067575","76.8707271","true"
"ChIJb1c1ZwCTDzkRb94_DPlHH9M","CNG PUMP","Shop No 4, near Petrol Pump, Khark Mangoli","30.7067671","76.8707408",""
"ChIJ3xFckYmTDzkRTb8sIJLOAj8","Hindustan Petroleum Corporation Limited","Ground Floor, Chandigarh Kalka Road, Panchkula","30.7121901","76.8481401","true"
"ChIJhfsALRWVDzkRsEq4WEvEKr0","HIRDA RAM MANSA RAM","near Bus Stand, Mubarakpur, Dera Bassi","30.6144142","76.8513155","true"
"ChIJHbO-XgqTDzkRRy6oKT10tfk","Indianoil-Adani Gas Pvt Ltd CNG Station","92, Modern Housing Complex, Sector 13, Chandigarh","30.7125023","76.8484647","true"
"ChIJmwm4njSVDzkRApjlIYTLJFE","Jio-bp","Ground Floor Lhs Zirakpur, Rd, Dera Bassi","30.6171896","76.82778449999999","true"
"ChIJwws7YwCVDzkRD52qYz8o2kg","Indian Gas agency in zirakpur pandwala","JV8H+5VM, Pandwala","30.6154656","76.87966879999999",""
"ChIJJx0AdwCVDzkRpK1D50xV8jA","Indian Oil - Adani Gas CNG Station","Ambala - Chandigarh Expressway, Dappar","30.6077345","76.8367422",""
"ChIJH5sCEaftDzkRFvj7tjNilSc","National Service Centre - BPCL","Neelam Cinema, Jan Marg, Sector 17-E, Chandigarh","30.73928679999999","76.7801908",""
"ChIJm8DPgXTuDzkRO0e4xTtO5xU","IndianOil","Ground Floor, Sector 55, Sahibzada Ajit Singh Nagar","30.73439200000001","76.727989","true"
"ChIJa0FkqA3uDzkRkBDBb5touBU","IndianOil","Ground Floor, Sector 56, Sahibzada Ajit Singh Nagar","30.73965099999999","76.724357","true"
"ChIJ_fM-yQ3uDzkRsCDXMMOWsGA","Hindustan Petroleum Corporation Limited","Ground Floor, Vikas Marg, Sector 39, Chandigarh","30.74112939999999","76.7242555","true"
"ChIJIYCukcvvDzkRo6FCKXNMYRg","Hindustan Petroleum Corporation Limited","Ground Floor Chandigarh, Kharar Rd, Daun Majra, Rupnagar","30.737241","76.683571","true"
"ChIJ80-MHuvtDzkRvQJMR7--niU","IndianOil","Ground Floor, Sector 37A, Sector 37, Chandigarh","30.74269699999999","76.75497399999999","true"
"ChIJhesBLqHtDzkRRJjLcZFXhpU","IndianOil","Ground Floor, Sector 22, Chandigarh","30.7367889","76.7760883","true"
"ChIJvei7TVXlDzkR-P5Yxbthjps","Hindustan Petroleum Corporation Limited","Ground Floor, near Bus Stand, Kharar","30.7503301","76.6404201","true"
"ChIJxXhWbHPtDzkROtARhTJljlg","Hindustan Petroleum Corporation Limited","Ground Floor, Madhya Marg, Sector 17A, Chandigarh","30.744541","76.786621","true"
"ChIJq6qqqgvtDzkR9FqkAZbVhmA","Hindustan Petroleum Corporation Limited","Ground Floor, Madhya Marg, 17B, Chandigarh","30.7420839","76.7891502","true"
"ChIJ4X4RMg3tDzkRbh9ieBftX7Q","Bharat Petroleum Pump","NIELT, 138, Madhya Marg, Sector 32D, 9C, Sector 9, Chandigarh","30.7430476","76.7893256","true"
"ChIJM958QQbvDzkRlxsz4aHo6WY","IndianOil","Ground Floor, Phase 6, Sahibzada Ajit Singh Nagar","30.73599209999999","76.7150028","true"
"ChIJiQy-WADvDzkRi8nSZCL7T9E","Amit","SCO-22, Phase 6, Sector 56, Sahibzada Ajit Singh Nagar","30.7368333","76.71522499999999",""
"ChIJk7f5VBPuDzkRLUsnAvFSaiw","Company Owned & Company Operated Pump","PPP8+J97, Chandigarh Road, Sector 57, Sahibzada Ajit Singh Nagar","30.736542","76.7159113","true"
"ChIJeaDFXQDvDzkR9nX7FBUBIHc","Dhadkan Bharat Gas","PPXF+7C3, Daddu Majra Colony, Chandigarh","30.7481375","76.7235469",""
"ChIJSXVnuuPtDzkRcAvgO5b3Rb4","IndianOil","Ground Floor, Shanti Path, Sector 38 West, Sector 38, Chandigarh","30.745636","76.73736600000001","true"
"ChIJi18ZFQDvDzkRIMPTR-QUtnk","Sawhney filling station","Sawhney filling station, opposite VR Mall 160055, Sahibzada Ajit Singh Nagar","30.7397205","76.67804","true"
"ChIJn8QfRDbvDzkRfZLbmLxlVUs","Chawla Gas Station","Sector 118, Sahibzada Ajit Singh Nagar","30.7381784","76.6750958",""
"ChIJ01yIZgDvDzkRbGZaPrhADqc","Reliance Petroleum","PMQG+828, Sector 118, Sahibzada Ajit Singh Nagar","30.738593","76.67510109999999",""
"ChIJLYttHpvvDzkR_yQV3bJqAh0","IndianOil","Ground Floor Airport Road, Sohana, Ballomajra, Sector 55, Kharar","30.738091","76.6746903","true"
"ChIJSa_qdADvDzkR5RB5qFglsYA","GS Filling Station Petrol Pump Chajju Majra","Chajju Majra Road, Model Town, Punjab","30.73592559999999","76.66642949999999",""
"ChIJ2QDOJ7ftDzkRQPuw5n0tLlc","Petroleum Consultant","House no. 1210, Sector 37-B, Chandigarh","30.7396592","76.7545351","true"
"ChIJKaF0_RDxDzkR6E8850pWO8Q","IndianOil","PR 4 Road, Togan, Kharar","30.7700709","76.7278743","true"
"ChIJpzLHvt7tDzkRVu24AG4iSSY","Super Bharat Gas agency (godown)","QQ42+6RG, Unnamed Road, Sector 25 West, Chandigarh","30.7555578","76.75207739999999",""
"ChIJtyXuSxjxDzkRqQ3MX3BCrJ8","Elite Electrical","SUNRISE HOMES, Jandpur Road, Sector 125, Kharar","30.75949510000001","76.6664272","true"
"ChIJjy-RNZ3xDzkRO57x372T_iI","Hindustan Petroleum Corporation Limited","No PR/4, Chandigarh Kurali Road, Tira","30.777581","76.721932","true"
"ChIJH5c6zeXvDzkR2x36ayHoc-c","IndianOil","Ground Floor Ropar Chandigarh Road, Kharar, Sahibzada Ajit Singh Nagar","30.74399","76.65785199999999","true"
"ChIJY-YRZIDtDzkR_KZ8bQCjr2A","Bharat Petroleum","Dakshin Marg, 35B, Sector 35, Chandigarh","30.72906029999999","76.7657752","true"
"ChIJI9xS2NjsDzkRDmpFfgSqOOU","Bharat Petroleum & CNG Station","Madhya Marg, Sector 28, Chandigarh","30.72011449999999","76.80953579999999","true"
"ChIJBUkPFQrtDzkR-GB_5sqTZic","IndianOil","Ground Floor, 920 A I A-2, 17F, Sector 17, Chandigarh","30.73833419999999","76.7810764","true"
"ChIJuyAX1nLtDzkR_EYsTCyKfGY","Pollution centre","National service centre BPCL, 17E, Sector 17, Chandigarh","30.740018","76.777654","true"
"ChIJS9052P_tDzkRoBWqc7kRy04","IndianOil","Ground Floor, Sector 21, Chandigarh","30.7241366","76.7708966","true"
"ChIJf66xGXPtDzkRKyw06puO8F0","Kapoor service station","Sector 21, Chandigarh","30.7241124","76.7708808","true"
"ChIJEaEFIw3tDzkRBmBa3pl1kPA","HP PETROL PUMP - HAPPY SERVICE CENTRE","Madhya Marg, 17B, Chandigarh","30.74210219999999","76.7888234","true"
"ChIJUVgJfLDtDzkRu-FTb1nU2_Q","Bharat Petroleum","India","30.7286232","76.765851",""
"ChIJZ8PDTRftDzkROdKr9AY0eaw","Hindustan Petroleum Corporation Ltd (Regional Office)","No 6A, Madhya Marg, 19B, Sector 19, Chandigarh","30.73369469999999","76.79742089999999",""
"ChIJAVP-7hntDzkR4pKw3yLNcaw","Hindustan Petroleum Corporation Limited","Ground Floor, Madhya Marg, Sector 19A, Chandigarh","30.7318301","76.7980501","true"
"ChIJT5eaqrLtDzkR01GCrcnvxq8","IndianOil","ground, Sector 34B, Sector 34, Chandigarh","30.718891","76.768166","true"
"ChIJFWN1-9HtDzkRkM1yiT_lDjo","IndianOil","Ground Floor, Sector 7-C, Sector 7, Chandigarh","30.73679499999999","76.800247","true"
"ChIJybkdZQ7tDzkRbhdbO3x5OXA","Sidhu Service Station","Sidhu Service Station, Sector 7-C, Sector 7, Chandigarh","30.7325211","76.80073010000001","true"
"ChIJW_SLw3HtDzkRRpo2I9g1CDk","Hindustan Petroleum Corporation Limited","Ground Floor, Sector 10, Chandigarh","30.7510301","76.79055009999999","true"
"ChIJE8o264LtDzkRGLXYlj5Cm64","Hindustan Petroleum Corporation Limited","Ground Floor, opposite Govt College For Women, Sector 15, Chandigarh","30.75496100000001","76.777771","true"
"ChIJQ8JI0-DsDzkRiV9WL9Agu1Q","Braham Sarup & Sons","28, Sector 28 D, Chandigarh","30.7162997","76.8004424",""
"ChIJqUOv0GjtDzkRhAYR2EQaTcw","BPCL Petrol Pump Auto Service Station","4A, Vigyan Path, Road, Sector 4, Chandigarh","30.7529381","76.7977557","true"
"ChIJOXFrK4XtDzkRcZMKdblTK-g","28 Petrol Pump","PR74+WG8, Sector 28 Market Road, 28B, Sector 28, Chandigarh","30.71478879999999","76.80633689999999",""
"ChIJPV0dZzqSDzkRGlTLyKcqEOk","Bharat Petroleum","Chuna Bhatti, Bhagwanpur","30.7449761","76.9032589","true"
"ChIJHw7G5jySDzkRpeHnakhrG-M","IndianOil","Ground Floor, Chandigarh Kalka Road, Chandi Mandir","30.75193799999999","76.90501499999999","true"
"ChIJQRtSXT2SDzkRDSCquKPY8KA","Hindustan Petroleum Corporation Limited","Ground Floor NH 5, Panchkula Kalka Highway, Surajpur, Near, Chandi Mandir","30.7546301","76.9052401","true"
"ChIJKX7ED-GSDzkRTjjpdnGxYko","Petro Connect - BPCL Petrol Pump","PVJ3+83Q, Mansa Devi Complex, MDC Sector 4, Sukteri","30.7308342","76.852719","true"
"ChIJZ2Vp0aOTDzkR3dNDwIyPLnw","IndianOil","Ground Floor, near The Lalit Hotel, IT Park Road, Chandigarh","30.731057","76.836423","true"
"ChIJR4XnRaftDzkRpcRXi7E058I","Government Petrol Pump Pwd","PR77+4WX, Industrial Area Phase I, Chandigarh","30.7128687","76.8148449","true"
"ChIJF3jdOAuTDzkR43E0ukTqeso","Toll tax","Chandimandir Toll Plaza, Chandigarh Kalka Road, Chandimandir Cantonment, Panchkula","30.73884919999999","76.89792659999999",""
"ChIJK7vtSADtDzkRQ2h3FahYaOA","Indian oil Petrol Pump","QQCX+946, Khuda Ali Sher Road, Khuda Ali Sher, Nayagaon","30.7709217","76.7977676","true"
"ChIJAyvWtimSDzkRxQGzME528U4","IndianOil","Burj Kotian, Morni Road, Chandi Mandir","30.741828","76.91645199999999","true"
"ChIJUdUXJrfzDzkRYgnUUWYx5uw","Balaji filling station","near uco bank, Khuda Ali Sher Road, Nayagaon","30.7707876","76.79711759999999","true"
"ChIJy3L2cNDwDzkRqQ0zcl24Ls8","IndianOil","Ground Floor, Kurali, Boothgarh, Majhi, Sahauran, Siswan Road, Sahibzada Ajit Singh Nagar","30.83396200000001","76.677733","true"
"ChIJRe4UgtrwDzkR7jcXHnzrOwU","Nayara Petrol Pump","RMMH+889, Sialba","30.8332963","76.678366","true"
"ChIJhyjV2Qb6DzkRipYxlke2xnM","Hindustan Petroleum Corporation Limited","Ground Floor, Kurali Chandigarh Road, Siswan","30.834101","76.638201","true"
"ChIJ3UyI4F7xDzkR5OZ99H6j974","Jio-bp pulse","Flat No 723B, Gr Flr, Omaxe Silver Birch, New Chandigarh","30.813024","76.700853","true"
"ChIJSeDb1gHxDzkR4sFS02UygaE","Hindustan Petroleum Corporation Limited","Khasra No 12, Chandigarh Kurali Rd, 8/1/1, PR 4 Road, Bansepur","30.788175","76.715082","true"
"ChIJb0LoIhzxDzkRR2qAKe0HCNY","IndianOil","Ground Floor Salamatpur, Kharar","30.814157","76.72403","true"
"ChIJZbZo4lDxDzkReZ4ok4_9Epc","IndianOil","Pr 4, Kansala, Kharar, Taqipur, Hoshiarpur","30.824623","76.69359899999999","true"
"ChIJVwqnDADxDzkRqK2izgFZM3o","Hindustan Petroleum Corporation Limited","Ground Floor, Kurali, PR4 Road, Kansala","30.8246282","76.6930297","true"
"ChIJvZJsFADzDzkRe3p3C0a6UQw","IndianOil","Ground Floor Eco City, Mullanpur, Sahauran","30.811055","76.73899899999999","true"
"ChIJtXk9n4XzDzkRVnU53FEpikA","Jio-bp pulse","Sales Office, OMAXE THE LAKE, PN 6, Kurali Chandigarh Road, Apt, Mohali","30.8232185","76.73471909999999","true"
"ChIJDaiSbqLxDzkRWZuGqIRtDl0","Chandigarh Fuel Station","near Sunny Enclave, PR-7 Airport Road Village Husainpur Sector 123, near Sunny Enclave, Kharar","30.77461809999999","76.6795824","true"
"ChIJ93-ubQDxDzkRCD79wOWdceI","Indian oli","QMFH+XF6, Sahibzada Ajit Singh Nagar","30.774908","76.6786379",""
"ChIJATaqd8fxDzkRg-66t8oYS-o","Bharat Petroleum, Petrol Pump -Khattra Fuelz","SULTANPUR KHARAR SAS NAGAR, Chandigarh Baddi Road, SAS NAGAR","30.8495643","76.7265156","true"
"ChIJLWdgL7TzDzkRk0Bw-w40btI","Hindustan Petroleum Corporation Limited","Ground Floor, Milkman Colony, Dhanas, Chandigarh","30.767895","76.749421","true"
"ChIJ2-nD75_xDzkRTVt8YUeoo2k","Bharat Petroleum Petrol Pump , SHIVALIK FILLING STATION","VILLAGE-CHANDPUR, TEH-MAJARIKURALI, SISWAN ROAD, Sahibzada Ajit Singh Nagar","30.8337937","76.6541652","true"
"ChIJJRaEIwDzDzkRX3Y3d5aleJ8","Nikhil Home","QQXQ+322, Chhoti Bari Parachh","30.7976387","76.78750029999999",""
"ChIJybEQRUb3DzkR42UUK0jhVpc","ESSAR","India","30.85607079999999","76.6606312",""
"ChIJPboWRUb3DzkRynp1E-57s88","Nayara Petrol Pump, Khera","Khera","30.85629149999999","76.660836","true"
"ChIJgyt3QbzyDzkRzCKeTUMEqp8","GOGA JI SERVICE STATION","India","30.7824874","76.8070077",""
"ChIJPapwVQDzDzkRi1ecVe-s88w","Nayagaon punjab","QQFV+6C6, Nayagaon","30.7730251","76.793527",""
"ChIJNXPIlliMDzkRVwcpCd4jqzs","IndianOil","near Km Stone 6, Ground Floor NH 21A, Giridah, Ambala, BCW Suraj Pur, near Km Stone 6, Ambala","30.834891","76.872948","true"
"ChIJe84tI_mNDzkRFHN4u8KFIBw","HP Both Petrol Pump","HMT Factory Pinjore, Panipat","30.78193899999999","76.911221","true"
"ChIJSUl0U4eODzkR3nbpV2gLEjs","IndianOil","Ram Nagar, Ground, Pinjore - Swarghat Road, Kalka","30.8253611","76.9241543","true"
"ChIJy6QLjWeLDzkRZ2fJEc-AlRs","IndianOil","Ground Floor, NH 21A, Nanakpura, Pinjore","30.871938","76.849659","true"
"ChIJd0H0LbGNDzkRymbCNly_EEs","IndianOil","Ground Floor, NH 21A Nalagarh, Road, Dhamala, Pinjore","30.813505","76.88924399999999","true"
"ChIJuZS0C7iNDzkRRD6fIo6yzgM","Bharat Petroleum, Petrol Pump -Target Fuels & Lubricants","PINJORE BADDI, PINJORE BAD, Panchkula","30.8093942","76.894983","true"
"ChIJc8pH-3SNDzkRW8drdFqyp50","Bharat Petroleum, Petrol Pump -Doon Valley Filling Station","NAVANAGAR, PINJORE BADDI R, Panchkula","30.8582431","76.8565804",""
"ChIJDbMBpxONDzkRM419yjnkYH0","Hindustan Petroleum Corporation Limited","Ground Floor, near HMT Factory, Pinjore","30.782271","76.910921","true"
"ChIJU_847G-MDzkRU9mY1HWErf0","Hindustan Petroleum Corporation Limited","Ground Floor, Kalka - Baddi Road, Charnia","30.8536276","76.8845523","true"
"ChIJC9yoBn6ODzkRge-0j4w7QAE","Hindustan Petroleum Corporation Limited","Ground Floor, Kalka - Shimla Highway, Kalka","30.8244601","76.9235301","true"