place_id,name,address,latitude,longitude
"ChIJ0wLeTvcVrjsRu-8tKDtwW-w","Shell","opp. Ramaka Mandir, 127 Bull Temple Rd, opp. Ramaka Mandir, Channi Rd, Bengaluru","12.953503","77.56741"
"ChIJ9dYp7yo-rjsREBm4keC1FN8","IndianOil Petrol Pump","near Rani Chennamma Circle, 281, 100 Feet Ring Road, Padmanabhanagar, Banashankari, Bengaluru","12.9222146","77.5600343"
"ChIJsxM8vgkWrjsRz5F_o-Kaie8","MAHENDRA ASSOCIATES","54, Sadar Patrappa Road, Bengaluru","12.9648033","77.58095639999999"
"ChIJ29IXwZYVrjsRNwZ47ylafp4","Bharat Petroleum Corporation ltd","Southend Circle, Jayanagar, Bengaluru","12.9365547","77.5805109"
"ChIJ7_yVpv0VrjsRKywZCmCeCAQ","Bharat Petroleum Corporation ltd","No.24, opposite CCB Office, 1, Mysore Road, Briand Circle, Bengaluru","12.9640549","77.57043829999999"
"ChIJWTaEpt0VrjsRENUxu2byMSE","Gogas Auto LPG","5, Lal Bagh Main Road, Vinobha Nagar, Sudhama Nagar, Bengaluru","12.9586423","77.5868661"
"ChIJ44s6Cd4VrjsRP1mBJiI7Ro4","TotalGaz LPG Station","9th Floor, G9, 1st Cross Road, Sampangi Rama Nagara, Sampangi Rama Nagar, Bengaluru","12.9615297","77.5856386"
"ChIJQULpUesVrjsRM6CUe5BNwG4","Hindustan Petroleum Corporation Limited","45, Vanivilas Road, Basavanagudi, Bengaluru","12.9480351","77.5733845"
"ChIJl9gekMMVrjsR5swhlPHpHQg","IndianOil","No 2, Dr MH, Marigowda Road, Sudhama Nagar, Bengaluru","12.9521491","77.5892154"
"ChIJeZ1kGMQVrjsR6y3GbpW6TP4","Shell","Hosur Road, Mavalli, Bengaluru","12.9496054","77.5928571"
"ChIJpZ7N3HkWrjsRoHK39_xMVH4","Shell","next to UB City, 24, Vittal Mallya Road, Bengaluru","12.971323","77.59702999999999"
"ChIJK43lk5QVrjsRMkYnPCA_KS0","IndianOil","Ground floor, Rashtriya Vidyalaya Road, Basavanagudi, Bengaluru","12.941932","77.580376"
"ChIJG0yR0L8VrjsRwx3OMQkH1_U","Sipani Total Gaz","10, T Mariappa Road, Jaya Nagar 1st Block, Jaya Nagar East, Jayanagar, Bengaluru","12.9420477","77.5854052"
"ChIJ0Y9u9XoWrjsRB0_j1PSoQl8","Hindustan Petroleum Corporation Limited","6, Kasturba Road, Bengaluru","12.975903","77.5978703"
"ChIJK_ylv8cVrjsRMov1DipUcWo","Aegis Autogas","Reliance TimeOut Corner, Wilson Garden, Hosur Main Road, Arekempanahalli, Hombegowda Nagar, Bengaluru","12.9461189","77.5949792"
"ChIJBRGQa8QQrjsR16GIvG6C9Hw","Bharat Petroleum Corporation ltd","93 5th Cross, near Central School, Dr, Doctor Rajkumar Road, SSI Industrial Area, Bengaluru","12.9805953","77.5571782"
"ChIJL4JG6ccVrjsRYyIKr0k7jv4","Bharat Petroleum Corporation ltd","opposite 10th Cross Road, 53, Hosur Main Road, Arekempanahalli, Wilson Garden, Bengaluru","12.9457943","77.5952751"
"ChIJm4eH54oVrjsRc0JCLrQaEh4","Hindustan Petroleum Corporation Limited","Survey No, 73/7, 3rd Cross Road, Mount Joy Extension, Hanumanthnagar, Bengaluru","12.9415087","77.5641517"
"ChIJVVqFEG8WrjsR_MNU-VrDwXI","Hindustan Petroleum Corporation Limited","5, Raj Bhavan Road, Bengaluru","12.982293","77.59411589999999"
"ChIJ-Ug8qvE9rjsRmG7nP01mbnw","IndianOil","10, 3rd Cross, Doctor Rajkumar Road, S.S.I.Area, 6th Block, Rajajinagar, Bengaluru","12.981062","77.55828009999999"
"ChIJwa_kgJkUrjsRzRYAfG7YFFM","IndianOil","No Ca/11, A19, Th Main Road, Sector 2, HSR Layout, Bengaluru","12.90729","77.644684"
"ChIJh7f9zL8UrjsR4bORFlPBtHI","IndianOil","13/1, Hosur Road, Singasandra, Bengaluru","12.8812099","77.64530169999999"
"ChIJPaf9zL8UrjsRx2CA0u4t_pM","Shell","near Shell Petrol Pump, 137 20th Main, Hosur Road, Bommanahalli, Bengaluru","12.9005571","77.6335166"
"ChIJuSCRwk1rrjsRMit8cJkex6w","IndianOil","Sy No 65, next to Manipal County Road, Singasandra, Bengaluru","12.8741093","77.6411957"
"ChIJb1hsjl4TrjsRrMoKvgpnQT0","IndianOil","Site No 3839 & 40, RRR Group, Haralur","12.8990184","77.6584068"
"ChIJP0sKWY4UrjsRELVEEJYOlW4","Hindustan Petroleum Corporation Limited","opposite JSS Public School, CA Site No 1, 14th Main Road, Sector 4, HSR Layout, Bengaluru","12.9152997","77.6383182"
"ChIJr7nwVIYUrjsRIO5kkegWuMM","IndianOil","Survey No 38, Ring Road, Sector 4, HSR Layout, Bengaluru","12.9210236","77.6448992"
"ChIJc9iyb7RsrjsRV2RKK0b2Vv4","IndianOil","Ground Floor, Junction, Naganathapura, Rayasandra, Bengaluru","12.8761804","77.67152200000001"
"ChIJeVq-lEATrjsRrE6lRyUNM_A","Shell","Hosa Rd, Hobli, Srvyno25/1, Varthur","12.899336","77.675489"
"ChIJb-eKI3ATrjsRW3lacy-te3o","Hindustan Petroleum Corporation Limited","Sy No 23, Haralur Main Road, Ambalipura, Sarjapura, Bengaluru","12.914749","77.666963"
"ChIJw-oNKn4UrjsRB7KutfyqOIg","IndianOil","Khata No 267, No 97, 6/1, Sarjapur Road, Agara Village, Bengaluru","12.9247825","77.65069319999999"
"ChIJNV9Qw2MUrjsRPamWXVRqje4","Nayara Petrol Pump","1st Main Road, Koramangala, Bengaluru","12.9280599","77.6372119"
"ChIJq3NPE1YUrjsRRc7yY3L8wFc","SUPERGAS Auto LPG Station - Sapthagiri Enterprises","2/26, BEML Main Road, Maruthi Nagar, Madiwala, Bengaluru","12.924324","77.614532"
"ChIJqZyY1sgUrjsRd0_mGFZv5KQ","IndianOil","4, 6th Main Road, BTM 2nd Stage, Bengaluru","12.9163592","77.605283"
"ChIJ9wejXwAVrjsR7oZFbCYiVkM","lpg auto gas bunk","1, Kudlu Main Road, Krishna Reddy Industrial Area, Hosapalaya, Muneshwara Nagar, Bengaluru","12.8903348","77.6436655"
"ChIJY0S4ahoVrjsRj4FKKuhJIVs","IndianOil","Survey No 82/2, Singasandra, Bengaluru","12.8854131","77.6418443"
"ChIJW4tDPkEVrjsR9psowcBuaMA","Shell petrol pump","49 Hosur Road Begurhobli, Situated at, Singasandra, Bengaluru","12.883492","77.642851"
"ChIJYfoEvkAVrjsR7_xcTOoBAQw","CHIDANAND R Service","VJVP+J5R, 29, Hosur Road, Papannareddy Layout, Garebhavipalya, Garvebhavi Palya, Bengaluru","12.8940455","77.6353132"
"ChIJY3qvDOUVrjsRwHUQbvkuPe0","Manu gas agency","VJWM+495, Om Shakthi Layout, Hongasandra, Bengaluru","12.8952523","77.6334749"
"ChIJ7XRcSwAVrjsRBCO7yNaGk7Y","GAIL CNG PUMP","267, Mico Layout, Garvebhavi Palya, Bengaluru","12.8965042","77.6349718"
"ChIJfzfjs9ZtrjsRXOdftINDNeI","IndianOil","Sy No 95, Chandapura- Anekal Road, Bengaluru","12.7977114","77.7060523"
"ChIJERsGlUlsrjsRK2tpzQOP_Rs","Total LPG Gas station","Tranquil City, Bommasandra Village, Bengaluru","12.8153247","77.6924116"
"ChIJtXBwXzNsrjsRxKzJUEid0cg","IndianOil","Amenity, next to ESI, Plot No 145/B, Hosur Road, Bommasandra Industrial Area, Bengaluru","12.8151733","77.6913872"
"ChIJGwGwRnptrjsRYiMKcNFhFnY","Don 4","RP52+3GF, Unnamed Road, Tranquil City, Bommasandra Village, Bengaluru","12.8076859","77.70128380000001"
"ChIJkWlsXzNsrjsRnrXN_4uGtKg","IndianOil","Plot No 240/C, Hosur Road, Bommasandra Industrial Area, Bengaluru","12.8083477","77.69811039999999"
"ChIJEQPIEdJtrjsRQDyKoXKQArw","Gowtham Oil","India","12.8021879","77.7042074"
"ChIJMfHudoxtrjsR_2Fkk1FycSk","IndianOil","Sy No 121/3, Hobli, Chandapura, Attibele","12.8053291","77.7063127"
"ChIJwTOplKBtrjsRxl-qp5Z5nHw","MITHUN Mistry","RM8W+MXV, Bommasandra","12.8167303","77.6974369"
"ChIJC2Wx9mJurjsRjvyC77twneM","Hindustan Petroleum Corporation Limited","S No 77, Chandapura- Anekal Road, Chandapura, Iggalur","12.7945563","77.706521"
"ChIJNcTIxh5trjsRYCbPSAmiT4g","Shell Petrol Bunk Chandapura","Hale, Terracon Doctors Enclave, Chandapura, Bengaluru","12.8000258","77.71383879999999"
"ChIJpyrFWxptrjsRZRXUvCiXa6Y","SAKALASPUR ENTERPRISES","near Dmart, Hosur Road, Bengaluru","12.8168964","77.6914194"
"ChIJn99ZJoltrjsRvW9mx13GxMo","IndianOil","233A, Bommasandra Industrial Area, Hosur Road, Muthanallur, Anekal","12.8169517","77.69107489999999"
"ChIJDwrUHbxtrjsRCrpPBlumbSw","BHARATH PETROLEUM , PETROL PUM - RK FUEL STATION","HAL, Chandapura, Bengaluru","12.7993738","77.7165083"
"ChIJ1a-uDgBtrjsRo3HEgj_a7fA","RK FUEL STATION","opposite Nisagara Keerthana Apartments, Hosur Road, Biotech Park, Chandapura, Bengaluru","12.7991444","77.7166261"
"ChIJAS-sgh9trjsRPu8hraiRFjM","Anjanadri Fuels Nayara Petrol Bunk","RM7M+RJJ, Canara Bank Road, Bommasandra Industrial Area, Bommasandra","12.8145954","77.6840264"
"ChIJ-UItnyxtrjsRwJp20JJkFDo","S4 Staffing","NTOA, Hosur Road, ATTIBELE, Thirumagondanahalli, Bengaluru","12.7963034","77.7181351"
"ChIJG4cFz2dtrjsR6sn7GmncWBE","Bharat Petroleum Corporation ltd","NH 7, Anekal, Chandapura, Bengaluru","12.7956695","77.718532"
"ChIJPe1EREFsrjsRsaBXr2k4TDU","SHELL - BOMMASANDRA","5c/1, Bommasandra Jigani Link Road, Bommasandra Industrial Area, Bengaluru","12.8179","77.68128829999999"
"ChIJk7aJxn9prjsRt1YcNlQeAmo","Shell","47/D APC Circle Road Bridge Jigani Link Road, Hosur Road, Jigani","12.817917","77.68127799999999"
"ChIJAU3n8zZvrjsRT-h4yWDgiMo","IndianOil","Sy No 176/3 Bidaragere, Attibele Hobli, Anekal, Bengaluru","12.8175421","77.6777486"
"ChIJH3pd7d5trjsRe-psDBsaKI4","Hindustan Petroleum Corporation Limited","Survey No 33, Chandapura, Attibele","12.776084","77.769616"
"ChIJ7yAwZ6dxrjsR5s_jNosVQzw","IndianOil","No 18, opposite Ashok Leyland Plan, 1, CIDCO, State","12.765539","77.790925"
"ChIJFVjv2y5yrjsRXWUchLdbSKQ","Dhathri Fuels (NAYARA Petrol Pump)","Survey No.268/4 (Old No.268/2, Bidaraguppe, Attibele","12.8022034","77.78277"
"ChIJ41r5a_txrjsRO2t2zXZfbag","IndianOil","Survey No 2 Krinasagara, Anekal, Attibele","12.784407","77.752113"
"ChIJMwLn9P1xrjsRNuIZNMy6GfM","PEARL VALLEY FILLING CENTRE","near Sk Bar Guest Line, 01, near Sk Bar Guest Line, Bengaluru","12.7866582","77.74545599999999"
"ChIJ-4AoustxrjsRpz11oRbt2A4","Bharat Petroleum, Petrol Pump -Lake Side Fuels","Zuzuvadi","12.7706501","77.7864967"
"ChIJRRmFYwBxrjsRj2KfbheV0Y4","Hindustan Petroleum Corporation Limited","Bengaluru, Survey No 45/3 NH 44, Anekal, Attibele Near Attibele Toll","12.774789","77.781121"
"ChIJw2YAOBlxrjsRoDbXqGfbLnM","Bharat Petroleum, Petrol Pump -Shri Lakshmi Venkateshwara Fuels","ATTIBELE ON ANEKAL RD, BANGLAORE URB","12.7717768","77.7709236"
"ChIJC8UXDr9xrjsR12VkbSEjMvo","IndianOil","Sy No 188, 1, Chandapura - Anekal Road, Attibele","12.7687632","77.769848"
"ChIJPfi0OARxrjsR-mp68KV66e4","Bharat Petroleum BP Petrol Pump","QQ5X+C5X, Sipcot Ph. I, Hosur","12.7586034","77.7979797"
"ChIJO_kTEjpxrjsRmnGgCxBMUlI","RAGHUVEER fuel service station","3, Attibele - Anekal Road, Kuvempu Nagar, Attibele","12.768538","77.7697706"
"ChIJjTizTwBxrjsRA-MH0CFijmc","AREHALLI COMCO HPCL","QQ6C+VQ, Arehalli","12.762133","77.771986"
"ChIJb9-2bQBxrjsRmxVS_nd9nt0","Emission testing centre","QQ5X+78M, Sipcot Ph. I, Hosur","12.758306","77.79834579999999"
"ChIJv4IgxY1xrjsR7Il0fuEjJEc","MRPL HIQ (SHRUDU FUEL STATION)","105/2, TVS ROAD, AREHALI VILLAGE, Bengaluru","12.7607852","77.7724478"
"ChIJoea-K7FxrjsRPQZfOAvqUF8","IndianOil","Hissa No 294, Sy No 118, Anekal, Hobli, Ballur, Attibele","12.758001","77.774101"
"ChIJwyOv7NhxrjsRb1FqSRAiDMw","IndianOil","Survey No 1/1, Hobli, Indlabele, Sampangiram Nagar, Attibele","12.7921413","77.777632"
"ChIJqbcmrvlwrjsRAunJ9XCebyM","Sai Fuels","PQXV+635, ESI Ring Road, Mookondapalli","12.7480028","77.7927279"
"ChIJ3W26VQBxrjsRC_Z4wkNto-o","Nayara Energy Petrol Pump","PQWJ+G84, State Highway 85, NRI Center City, Hosur","12.7466435","77.7809668"
"ChIJuXn1rK1xrjsRCeXZWQLBOpA","Essar Petrol Bunk","Attibele-Rayakottai Road, NRI Center City, Hosur","12.7466439","77.7806717"
"ChIJ25uv0ONwrjsR3afK22PoN_0","NATIONAL SERVICE STATION","near Chennai silks, Bangalore main road, Hosur","12.7480647","77.80787339999999"
"ChIJ_zXYHoJ3rjsRct3KAiEZYR8","Hindustan Petroleum Corporation Limited","Electronic Complex, Plot No 20, Dharmapuri-Bengaluru Road, Sipcot Phase II Industrial Complex, Krishnagiri","12.715701","77.883701"
"ChIJo2lsqP15rjsRcU1W6iq7URI","Hindustan Petroleum Corporation Limited","S No 25/17, 25/18 A & 24/10B2, Rayakotta Road, Naligabetta Agraharam","12.705801","77.845201"
"ChIJ09OMN_t5rjsRysubrbZ8KWA","IndianOil","Rs No 579/1B Onnalvadi, Rayakotta Road, Avalapalli","12.7010847","77.84760279999999"
"ChIJHwdtv-p5rjsRNqRAi1iO8ao","Essar Petrol Bunk","MVP5+V86, Rayakotta Road","12.687158","77.8582565"
"ChIJC_j-wKx3rjsRBLDvcpiIGuE","Muneswara Chekken Center","Ashook Lailand, Uned 2, Ganthinagar, Hosur","12.7253949","77.8751425"
"ChIJfz-5YgB3rjsRen4RwWcGP5A","Iocl","PVF6+V6J, Service Road, Moranapalli","12.7250198","77.8608936"
"ChIJY-uNfYN3rjsRyATxrLYDfl8","Ankit","Fuel Pump, Krishnagiri","12.7260032","77.85459279999999"
"ChIJxSo3bwB3rjsR4WqDyolypRE","Popular fuels","PVG3+CJG, Service Road, Maruthi Nagar, Moranapalli","12.7257512","77.8540664"
"ChIJFys6sdJ3rjsRtLbpEOfjY1Y","Bharat Petroleum, Petrol Pump -T.V.Sundram Iyengar & Sons Ltd","PERANDAPALLI, NH-7 HOSU, KRISHNAGIRI","12.711809","77.89564639999999"
"ChIJE_iI2-N3rjsRvMjCIK0Kg5A","IndianOil","Lock No 11006, 635 109, 11007, Nh 7, Perandapalli, Hosur","12.7100878","77.89718739999999"
"ChIJobpjLgt3rjsRbakG1x35EWU","Anand Fuels","S No 419/1A, Lock No Ig 7107 Mornapalli, Avalapalli","12.7270169","77.851435"
"ChIJ3bsS9EZ3rjsRft6Q23vgNXs","IndianOil","S No 419/1A, Lock No Ig 7107 Mornapalli, Avalapalli","12.7272759","77.8512068"
"ChIJZ7jvG_x3rjsRswO7R3Vp9_8","Havish Petroleum (HP)","196/2, Bangluru road, Dommasandra, Sarjapura Hobali,Anekal, Dommasandra, Bengaluru","12.7267786","77.8497921"
"ChIJH5AKz153rjsRxhVWWeVDGdo","Essar Petrol Bunk","PRPW+363, Gnanasekar Layout Road, Hosur","12.7351329","77.8455357"
"ChIJ76zXviN3rjsRm26rUshwPBQ","Metablue AdBlue Filling Station","1/74-2B Athimugham Main Road Perandapalli Hosur Tamil Nadu 635109 Perandapalli","12.7247131","77.90849159999999"
"ChIJZcO6Wqd5rjsRbQm-kyekr8U","SLN FUELS","Rayakootai Road, Haleseebam","12.6870681","77.89515279999999"
"ChIJ91inYLl5rjsRFGjMYkkpR3g","Essar fuel station","MVHG+VF, Gudisaganapalli","12.6797218","77.8762489"
"ChIJZdajprNwrjsRtrfFa4oBFdE","Pioneer Roadways Petrol Bunk","State Highway 17, Old Rayakottah Hudco, Hosur","12.7226438","77.8334543"
"ChIJo5sT3MpwrjsR4i-MPfovOAw","IndianOil","Lock No 1100111002 & 22007, Rayakotta Road, Avalapalli","12.7324479","77.8354678"
"ChIJ_d2gCgB5rjsRQJtUCvVJ6kc","SREE ANAND ENERGY STATION","SH 17, Onalvadi","12.6763828","77.86587349999999"
"ChIJGVH2wnR4rjsRkmeSmQWJYG8","Hindustan Petroleum Corporation Limited","Ground Floor, near Bangalore Highway, National Highway 44, Shoolagiri, Kamandoddi","12.687201","77.92620099999999"
"ChIJg2wcQ9nWrTsRSuOhs7BZA90","Hindustan Petroleum Corporation Limited","Sy No 351, 2B & 351/SC, Hosur - Krishnagiri Road, Shoolagiri","12.6652786","78.0036449"
"ChIJ3V3OZQDXrTsRJivyFsppHlw","LIANO ENTERPRISES (AdBlue Filling Station)","Vasantham Complex, K/10, Koneripalli","12.6788065","77.9609564"
"ChIJMdpBmgPXrTsRD9U2atpT99c","IndianOil - SWAGAT","Ground Floor, NH 44, opposite Tab India Granites, Koneripalli","12.6802759","77.9571078"
"ChIJByBtUkF3rjsR_qxFJCShhEg","IndianOil","S No 192/3A, Hosur, Addakurukki","12.6807474","77.9523111"
"ChIJ73zY0_rXrTsRN59j1Xk8pT8","Jio-bp","SURVEY NO 322/1B, 2B, 3B, VILLAGE NALLAGANAKOTHAPALLI, HOSUR KRISHNAGIRI ROAD, S, VILLAGE NALLAGANAKOTHAPALLI, HOSUR KRISHNAGIRI ROAD, S, Hosur","12.6710187","77.9799592"
"ChIJAUGg2nR4rjsRSsP0AFxr3UE","Jio-bp","S No 1224, Nh 7, 1 & 2 & 256/1 & 257/1, Hosur 2, Kamandoddi","12.6882775","77.926934"
"ChIJp29fJNnWrTsRX6u7ShoC8I0","HPCL","M283+F5Q, शूलागिरी,Shoolagiri","12.6662226","78.00298579999999"
"ChIJO3qgONnWrTsRkqQUP0_02I4","Petrol Pump And Way Side Amenities","M283+89R, Shoolagiri","12.6658577","78.0034034"
"ChIJa-E-h-DXrTsRyVxrU2SMsf0","Sri Balaji Fuels, Essar Oil","Samanapalli","12.6373125","77.97693749999999"
"ChIJTUIZvnfRrTsRFP9xFjYqE5c","Bharat Petroleum GHAR COCO Outlet","J3R7+6HX, Chennekothapalli Road, Chinnar","12.6406098","78.0639989"
"ChIJT9dB9rnXrTsRQiDr9rGdt1g","IndianOil","Ground Floor NH 7, Gollapalli, Soolagiri, Chappadi","12.6494347","78.0352679"
"ChIJDerrX2fRrTsRMjowOa595wY","Cube Stop Highway Rest Area","NH 44, Bangalore, Shoolagiri, to, Bengaluru - Chennai Highway, BP, Hosur","12.64057","78.064487"
"ChIJwUev9UXRrTsRei0q0T5Z43c","IndianOil","Sy No 30/1B3 30/1B4, Devarkuttapalli, Chappadi, Krishnagiri","12.6363142","78.07104609999999"
"ChIJiWOq43HRrTsRLfcNcZRLHXo","Hindustan Petroleum Corporation Limited","Survey No 67, 2B & 2C, National Highway 44, Chennapalli","12.6438506","78.0540564"
"ChIJl738Dc3RrTsRyVVrYsoL4ig","Motodef adblue","Immidinayaganapalli","12.6435081","78.0533348"
"ChIJfXB0vT_RrTsR4cJijAGiMdY","IndianOil","Sy No 83/3A1A, Sennapalli,Chappadi, Chennapalli","12.646497","78.04638899999999"
"ChIJBdLWRQDTrTsRZ1ZsgALMopQ","Motodef adblue filling station Immidinayakanapalli shoolagiri","J3FJ+R2Q, Mallasandiram","12.6248764","78.0800388"
"ChIJRfibYgDRrTsRQDuRzcQ4N7c","Metablue Adblue® / DEF Filling Station","Hosur NH, Sundagiri","12.6461875","78.0444375"
"ChIJOQ30MgvRrTsRrgaRcYiKb2c","QBlue DEF (AdBlue), filling station","J2XP+R4, Gollapalli","12.6496348","78.0355823"
"ChIJVda-sDPRrTsRkPIGDaIjKho","Hindustan Petroleum Corporation Limited","SF No 234/1, Hosur - Krishnagiri Road, B/1, Salem","12.6543452","78.0252797"
"ChIJB4IKdqjNrTsRuSiiI7Gzut0","BP Petrol Pump - SUPER FILLS","bus stop, NH-7 bangalore highway sikkarimedu, village, Kurubarapalli","12.5876444","78.1448727"
"ChIJz96QPcDMrTsRX464yKliEz0","IndianOil","SF No 236/1 Bkundarapalli, Ramapuram, Beerpalli","12.564037","78.178015"
"ChIJBw4y5BbNrTsRqzIx1kMQCL4","Hindustan Petroleum Corporation Limited","6A, 5B1 & 6B1, near Krishnagiri Bangalore Road, SF No 291/5A, National Highway 44, Periyapulivarsai, Billanakuppam","12.5819943","78.15782569999999"
"ChIJ9yv0UsTNrTsRlJQQAhhOEYc","ADNAN FUELS NAYARA PETROL STATION","Survey No: 260, 5GA, Polupalli","12.580647","78.16116339999999"
"ChIJGZhb-evMrTsRmAM_wXunctI","IndianOil","S No 215, 2, National Highway 44, Kundarapalli","12.5703358","78.174089"
"ChIJZ_i2iqPNrTsRPSbajwrAD3I","ESSAR Petrol pump puliyanchery","J44J+62V, Puliyanchery, Gollapalli","12.6056064","78.13004959999999"
"ChIJI8M_-JTMrTsRlwaYdhOCZKU","Hindustan Petroleum Corporation Limited","SF No 258/2B, Kundarapalli","12.5689076","78.18207389999999"
"ChIJFyyGhpHNrTsRUA91UL5obH4","IndianOil","Ground Floor, NH 7, Kurubarapalli","12.6015899","78.1244595"
"ChIJ1WtOgAzNrTsRn6cr-3UK2nA","IndianOil","Ground Floor, NH 7, Kundarapalli","12.5604575","78.1829012"
"ChIJSzKECjA1rDsR6713vhB3rG4","Indian Oil Petrol Pump","Subedhar Naidu, Chennai Bypass Road, Krishnagiri","12.5186113","78.2137365"
"ChIJZU6sU5Q0rDsRXTKDSNoHrp4","Hindustan Petroleum Corporation Limited","13/43 J, Salem Main Road, Krishnagiri","12.518801","78.221501"
"ChIJ_xQ-ALs0rDsR115rDhn74lg","HP PETROL PUMP - AYESHA FUELS","HPC Dealers S.f.no.15/7, T.b.road Oldpet, Krishnagiri, Coimbatore","12.5300189","78.2164781"
"ChIJlXdxWKM0rDsRij-ZEbDReVw","Bharat Petroleum","Sp Vikkram Fuel Agencies, near Central Theatre, near Forest office, Bangalore Road, Londenpet, Krishnagiri","12.5270723","78.212684"
"ChIJT4HYVac0rDsRVdfN3dHjjcM","Hindustan Petroleum Corporation Limited","Survey No 35/1, Rayakottai Road, Kathujuganapalli","12.5270429","78.2021606"
"ChIJEX0XaBI0rDsR2IcFbqbaSF8","Hindustan Petroleum Corporation Limited","Ground Floor Pananthoppu, BUS Stop, Sundekuppam","12.472891","78.21494899999999"
"ChIJA1_orY00rDsRHrD2g7UhqNU","Bharat Petroleum BP Petrol Pump - BKPM Sons","G65C+7FP, NH-7, Bangalore Road, Krishnagiri","12.5081189","78.22131949999999"
"ChIJ3-vf-Ng1rDsRnawS5BTaVic","IndianOil","SF No 453, 1B & 453/2B, Agraharam, Agasipalli","12.5051279","78.223666"
"ChIJuRvvrI81rDsRnPBqDbBEd5g","Indian Oil(CNG) - Aavin Fuel Station","G63F+5J4","12.503668","78.22394039999999"
"ChIJs12vhoo0rDsRIDC6GpJ5qrI","IndianOil","Ground Floor Devasamudram Ma,thur, Agraharam, Krishnagiri","12.501544","78.223018"
"ChIJrSX19lE1rDsR1S8LGZldXMc","S.P.Vikkram Fuel Agencies, Bharat Petroleum Dealer CNG","KRISHNAGIRI TOWN, Krishnagiri","12.5014842","78.2226778"
"ChIJ-2W9g5I0rDsR5Gh4jmqcnIg","K A K C Petrol Bunk","Lock No 11020, Salem Main Road, Agraharam, Krishnagiri","12.5141065","78.2220262"
"ChIJyZIZ1-o0rDsRWsn8cDIGj-Q","Hindustan Petroleum Corporation Limited","51, Madras High Road, Krishnagiri","12.519501","78.224701"
"ChIJ0Q5nWiQ1rDsRW6_-PaZAbGg","Bharat Petroleum Petrol Pump , SHRI MAHAALAKSHMI FUEL PARK","Thiruvannamalai Road, Krishnagiri","12.515296","78.23292000000001"
"ChIJf491XUY1rDsRdQDRnskDnkE","Bharat Petroleum COCO Outlet Krishnagiri","NH44, Bangalore, Salem Highway, Krishnagiri","12.4949218","78.2207573"
"ChIJiV5G_5U0rDsRX24ahAVv6t0","KNS Agency","KNS Agency, opposite to Indian bank, Bangalore Road, New Pet, Krishnagiri","12.5217425","78.2194336"
"ChIJsXQSRnk1rDsRSrMRxr4veTg","IndianOil","Sy No 11/1B2, Boganapalli","12.5212528","78.228003"
"ChIJZact_b00rDsRW9rJ1_ze890","IndianOil","S No 103/1B, Boyanapalli, Beerpalli","12.5226473","78.21914040000001"
"ChIJ0x_AEao0rDsRg5kN_V-4eEk","IndianOil","Lock No 11010, NH 7, Bangalore Road, Agraharam, Krishnagiri","12.5230667","78.217286"
"ChIJ-bjAqKk1rDsRndLcgXQGmnY","Hindustan Petroleum Corporation Limited","SF No 15/7, TB Road, Old Pet, Krishnagiri","12.530049","78.2164816"
"ChIJh6KKQjFLrDsRwiTXvWVkGhA","IndianOil","SF No 413, 7414/1, Krishnagiri Main Road, Barugur","12.5437759","78.3544726"
"ChIJ6yEWxTZLrDsR_CzWXWgsc-c","Hindustan Petroleum Corporation Limited","Ground Floor, opposite Main Bus Stand, Krishnagiri Main Road, Bargur","12.542801","78.356701"
"ChIJZ5ahoDVLrDsRABGDWd9XZYI","K.S.K FUEL AGENCIES","Chinna Bargur, Bargur","12.5476169","78.3595725"
"ChIJAUGtZspKrDsR6TMtLbuFF2g","Hindustan Petroleum Corporation Limited","Survey No 793, 6B & 793/4 NH 46, Madepalli, Kandikuppam","12.545453","78.31709300000001"
"ChIJO0P3uKdKrDsRnZgDEzLvcWE","IndianOil","S No 388, Orappam","12.5346782","78.2949512"
"ChIJSXrNYAC1rTsRDMoR7TnBxak","LOGAN FUELS BHARAT PETROLEUM","POST AND TALUK, H82V+G37, Madepalli Road, NH 48, MADEPALLI VILLAGE, CHENNAI, TO, KRISHNAGIRI HIGHWAY, Bargur","12.5510912","78.34320679999999"
"ChIJ7wszz2W1rTsR-xqeX8r3NYg","IndianOil","No 657/4B659/2B659/3A, Varatanapalli","12.5771788","78.3023267"
"ChIJ3akxJ9K0rTsR9Xx6QKMOwY4","KANAKADASA FUELS","Salinayanapalli","12.5555617","78.34827779999999"
"ChIJlQ-JSyc1rDsRq-wP6C14Qrk","SHREE MAHAGANAPATHY AGENCIES","Orappam","12.5355007","78.28130519999999"
"ChIJA4yc5xhLrDsRYKXHTZSruHA","IndianOil","S No 469/1, Barugur, Mallapadi","12.524753","78.3458873"
"ChIJxTJ6ylVLrDsR59Mws6iCK5w","Essar Petrol Bunk","G8FW+F25","12.5236353","78.345118"
"ChIJBwclz93LrTsR_V0NIDN7JOg","Hindustan Petroleum Corporation Limited","SF No 984/2, Palepalle","12.5694051","78.286512"
"ChIJp7UnpJo1rDsRZUFHZO0PhNU","UMT fuels (ESSAR FUEL STATION)","Orappam Village, Taluk, Bargur","12.5357583","78.2715504"
"ChIJfcRKWTRNrDsRVD5uB25T5wk","Hindustan Petroleum Corporation Limited","Ground Floor, Mumbai Highway, Chennai","12.551082","78.448662"
"ChIJSwfJ7S1NrDsR0yMlqdB59Ao","Hindustan Petroleum Corporation Limited","SF No, near Krishnagiri Chennai Highway, B/1, NH 46, Ankinayanapalli, Krishnagiri","12.535587","78.3940538"
"ChIJF0jtHqRNrDsRDl-KkcIoEug","Metablue Adblue® / DEF Filling Station - Barugur","National Highway, Ankinayanapalli, Chennai","12.5350263","78.3877617"
"ChIJ-3tT7Z9NrDsRpkWT5oREjWE","IndianOil","No 354/1A2, Velakkalnatham, Bengaluru - Chennai Highway, Bandarapalli","12.5481579","78.4323967"
"ChIJTXp-zwVNrDsRrKy1vfQ1jg0","JONE ENTERPRISES QBLUE DEF FILLING STATION","near Indian petrol bunk, near R.R.HOTEL, to, Bangalore Highway, Velakalnatham, Chennai","12.5482773","78.4331436"
"ChIJdUsvWY9MrDsR76g_4pssV_c","IndianOil","Sy No 28/B2, Barugur, Sigaralapalli","12.5129574","78.3965772"
"ChIJk2-kkNBNrDsRUAa9pKL3bUU","IndianOil","Muchanimedu, thapalmedu, Mallapadi","12.5151395","78.3922694"
"ChIJI40ru6RNrDsRAoHuD4A2pmQ","SHELL PETROL PUMP","Barugur - Thirupattur Road, Sigaralapalli","12.5033167","78.4103932"
"ChIJl-wgNn5LrDsRL1vI2mwWZb4","HP Petrol Bunk","G9P9+4C6, TPT Road, State Highway 131, Bargur","12.5352774","78.36852379999999"
"ChIJvX0AIx1LrDsRgD_eikxN2Jk","Hindustan Petroleum Corporation Limited","SF No 42/3A, Mallapadi","12.535406","78.368431"
"ChIJNaViSBCtrTsRegN1JX6cRYk","IndianOil","Lock No 05433, No 20S, No 99, Rd, 2Ei/P Sorakkayal, Natham","12.5892534","78.507178"
"ChIJm0g6AwOtrTsRzUKkEm918WI","Bharat Petroleum","Natarampalli, Vellore, NH-46, Chennai Bengaluru New Bypass Road, Vellore, Vellore","12.5933821","78.51768349999999"
"ChIJGZDYrY-yrTsRy1yVQ4MT8yg","IndianOil","No 59/1A2 Pazhayapettai Rd, Pachur, Bandarapalli","12.5911601","78.46126009999999"
"ChIJyZlkfACtrTsRT3e1gCT11T8","Thoppalagunda","HGR7+J2M, Natrampalli","12.5915819","78.5125455"
"ChIJh9vZPqWtrTsRxqFmBGxvQIw","Hindustan Petroleum Corporation Limited","Ground Floor, NH 48, Pachoor","12.5754443","78.4821206"
"ChIJbzRwXcutrTsRx34wERrKtwE","IndianOil","S No 75, 2 & 75/4, Natrampalli - Kuppam Road, Jangalapuram","12.601901","78.503782"
"ChIJrTs2nYetrTsRF7dZVffupb0","Bharat Petroleum, Petrol Pump -P.S.S.Agencies","Vellore Road, VELLORE AMBEDKR","12.5891584","78.5202147"
"ChIJxZeC9Y2trTsRPqC2CfktUYo","HP Petroleum Bunk (COCO)","Natrampalli","12.5750625","78.4796875"
"ChIJY_I6CQCtrTsRyXXOq-_j-T8","Motodef adblue filling station Muthanapalli","Motodef adblue filling station, Muthanappalli, Natrampalli","12.5707237","78.4762092"
"ChIJXXRyP8ytrTsR-5qd-UUHA5A","SRI RAMA ACHANAIA WORK SHOP","JF6X+WQV, Natrampalli - Kuppam Road, Nayanaseruvu","12.6123543","78.4994304"
"ChIJibdG5kNTrDsRJawVr4LpcIU","IndianOil","5/152, Natrampalli Road, Kollakottai, Agraharam, Achamangalam","12.5512846","78.5077785"
"ChIJR_6Rnm2zrTsRvNKNx-stNKI","PMS FUEL'S, Bharath Petroleum Fuel Station","Mumbai Highway, Pachoor","12.5653413","78.4698928"
"ChIJoTW-9PasrTsRYfYVDexYaXw","IndianOil","near Toll Gate, Mumbai Hwy, District Vellore, near Toll Gate, Natrampalli","12.6007287","78.5362921"
"ChIJnR8VAaerrTsR-xvRIyTe0_w","Hindustan Petroleum Corporation Limited","Ground Floor, Mandalavadi","12.608555","78.5970632"
"ChIJXdNLCJ2prTsRSg_Iz9aPuZM","IndianOil","2/2, Blk No 27, Lk 05432, Chettiyappanur, NH 46, WN F, Govindapuram, Vaniyambadi","12.666045","78.61348699999999"
"ChIJF6f0BgCrrTsRGU5bXypGN3U","MRPL HiQ Bethakallupalli (SRI BALAJI FUELS)","JHQ9+6RC, Thekkupattu","12.6380606","78.56951409999999"
"ChIJMUOPN_WrrTsRhjDnjMZBzPI","BP Petrol Pump","BHARAT PETROLEUM NH46, krishnagiri ranipet road, kethandapatti village po,, Vaniyambadi","12.624976","78.56618619999999"
"ChIJAVJeuHWsrTsRtf0uMCj6Mo0","Hindustan Petroleum Corporation Limited","Ground Floor, NH 48, near Bangalore, Chennai Highway, Vaniyambadi, Kethandapatty","12.6227732","78.5641201"
"ChIJ0bu24HyprTsRp8ajw-o8KQc","Hindustan Petroleum Corporation Limited","Ground Floor, NH 46, Bengaluru - Chennai Highway, Vellore","12.654901","78.601931"
"ChIJg3ecGNKrrTsRoaVlBIjPQhg","IndianOil","Ground Floor, Tirupatur Vaniambadi Rd, SH 18, Chinnavepampattu, Chettiappanur, Vellore","12.641722","78.6064542"
"ChIJDang4HuprTsRUa5w4XDpm-k","IndianOil","Lock No 06226, Vaniyambadi, Satipur NH 46, Krishnagiri, Main Rd, Chettiyappanur, Vellore","12.658441","78.605423"
"ChIJ_zVDLtmprTsRf3BgBX-wZkU","SREE VENKATESHWARA AGENCY BPCL","VSV ROAD, PADUMEANI,PERIYAPETTAI, KODAYANJI ROAD, Vaniyambadi","12.6739781","78.60071169999999"
"ChIJs_hFgf8HrTsR4eXi5utbDFA","Bharat Petroleum, Petrol Pump -Yogalakshmi Agencies","SENGALIKUPPAM, VELLORE AMBEDKR","12.7200915","78.6631914"
"ChIJ20hMAAAHrTsRhffeZ2kD9uw","Hp petrol bunk","25, Minnur","12.7237348","78.6688283"
"ChIJP-YXaO0HrTsRMhyi6mcJot8","Shell","India","12.7236115","78.6690347"
"ChIJ6-TYegAHrTsRR1evQ2CCF5g","SAI PETROLEUM","25, Minnur","12.7238513","78.6691555"
"ChIJD5dTgMmprTsRO2phebitvKs","Hindustan Petroleum Corporation Limited","Ground Floor, Kailasagiri Road, Vadacheri","12.722475","78.646931"
"ChIJvylE9y6prTsRGIdrbiUVbIM","Hindustan Petroleum Corporation Limited","near Bangalore, S No 227/2A NH 48, Ambur, near Bangalore, Bengaluru - Chennai Highway, Chengilikuppam","12.706681","78.648476"
"ChIJp2eHRukHrTsRuAlgVEX-Z1M","Bharat Petroleum","India","12.7291422","78.6748001"
"ChIJE-GLcKwHrTsRvoWf_lO39Lo","Sri. Sivasakthi Agencies","PMHG+WMR, Vellore","12.7298704","78.67663759999999"
"ChIJN1bt13gHrTsRpsVLDU0AeTI","RDH Agency -AD BLUE BUNK","National Highway 48, Minnur","12.7297894","78.67675290000001"
"ChIJBcZORQmprTsRQETXK960HpA","SONA AUTO Gas","NH 48, Girisamudram, Vaniyambadi, Tirupathur","12.6962503","78.6403466"
"ChIJrQYWCyUJrTsRp-XXkB9FWtc","IndianOil","Lock No 1099, M C Road, NH 46, Agaram, Ambur","12.7799577","78.71789869999999"
"ChIJZZbbVO4IrTsR1qL8TxcCT7A","Hindustan Petroleum Corporation Limited","57/1, MC Road, Ambur","12.7779346","78.7162091"
"ChIJgYfz5_0IrTsRe3PcH7bLtXM","IndianOil","S N 4/1A1, Lock No 1257, Devalapuram Pernampet Amburrd Rd, Bazaar, Ambur","12.7903657","78.708467"
"ChIJ6ewrYCUJrTsR-d3rsL2_SEk","Amutham Agencies Bharat Petroleum","New Govindapuram, Vellore, NH-46, Vellore, Vellore","12.802693","78.736266"
"ChIJy7LfQnMJrTsR7__5GXK9vhg","Bharat Petroleum","Ambur Bypass Road, Thutipet, Ambur","12.8121171","78.7100411"
"ChIJve02kk0JrTsR8KjZJcGWjr4","Bharat Petroleum, Petrol Pump -N.S.Rajan","AMBUR TOWN NH-46, VELLORE AMBEDKR","12.7853603","78.72195549999999"
"ChIJyV1JuokJrTsRlfsY7IMLIt8","Bharat Petroleum, Petrol Pump -Amutham Agencies","KANNIGAPURAM NH46, AMB, VELLORE AMBEDKR","12.7895288","78.7216747"
"ChIJvXOMPd4JrTsRpcXBqfsSMs0","A S.ENTERPISES","95, Chunnambukara Street, Naganadi, Ambur","12.7880804","78.71743409999999"
"ChIJIeKZJAAJrTsRt2eNDZiENS4","Bharat petroleum","QPJ9+339, Ambur","12.7801672","78.71772709999999"
"ChIJlwJUFdUJrTsRdu4niioukGw","SRI AMMAN GAS AGENCY","44/12 /1, Ambur Bypass Road, Anandha Nagar, Ambur","12.7812135","78.7157309"
"ChIJ71betZEJrTsRDzeyOaYWDqg","Reliance Petroleum","near Sai Sakthi Theatre, 34/1, Mc Road, Vellore","12.777976","78.7154246"
"ChIJhToNoPsIrTsRq6u7uJ3hWF4","Bharat Petroleum, Petrol Pump -Sri Vignesh Traders (CNG Station)","T S No. 9 Ambur - Pernambet Bypass Road, Ambur","12.7851422","78.7105399"
"ChIJJWaDbRQJrTsRcn2nsjuTMqw","AG&P Pratham CNG Station","Sri Vignesh Traders T S No.9 Ambur - Pernambet bypass, road, Ambur","12.785068","78.7104798"
"ChIJg2tJ2IoJrTsRdH0nUs8GWro","Bharath Petroleum","QPXJ+2PC, Ambur Plantation R F, Ambur","12.7980045","78.7328091"
"ChIJkYXm-vIIrTsRh1yqrrLM36E","IndianOil","Lock No 1128, NH 46, Ambur, Alankuppam, Vellore","12.7714158","78.71129189999999"
"ChIJM_S5wBoJrTsRdY60qI4EoEE","IndianOil","SF No 79/1, Lock No 1222/1, Ambur, Gudiyatham Rd, Chinnavarikam","12.8211631","78.7096894"
"ChIJt0J6Ok8IrTsRw_K1Gxxc3sM","IndianOil","Ground Floor, near Samundiamman, Koil, Karumbur","12.781277","78.68600099999999"
"ChIJ_fNyZF4JrTsR8ml3NnitRN4","KALAIVANI AGENCY BPCL OUTLET","QMFM+PC6, State Highway 130, Vengatasamudram","12.7742792","78.6835278"
"ChIJbeKruOgNrTsR4dziRBcEkP0","Hindustan Petroleum Corporation Limited","Ground Floor, Madras Bangalore Road, kulithigai","12.8545801","78.8202357"
"ChIJYzepNbYNrTsRBPUsJa8DF78","Hindustan Petroleum Corporation Limited","Ground Floor, Gudiyatham Road, Ambur","12.8648397","78.80121749999999"
"ChIJZcj14DkNrTsRbsJFfVt09BI","Essar Petrol Pump","VQ6Q+PWR, Mailpatti","12.8618734","78.7897564"
"ChIJV4Uu44MOrTsRqIuoiAj9_08","IndianOil","No 70/5B2Am, near Sugar Mill, NH 46, C Rd, Ambur Nr, Kilmurungai","12.8362894","78.786518"
"ChIJ87r_HG8SrTsRHWOQVrySqQc","Hindustan Petroleum Corporation Limited","Survey No 118/1, 118/2 118/3 & 118/4A, Ambur, Madhanur","12.874605","78.85330809999999"
"ChIJFcwIW4MUrTsRPI0FJ7jKLeo","Hindustan Petroleum Corporation Limited","Ground Floor, MB Trunk Road, Pallikonda","12.902441","78.933931"
"ChIJ12BbyDATrTsRINmEoX3bK4g","IndianOil","&, No 146/8A, Koothambakkam Pallikonda, Madhanur","12.8878624","78.8787234"
"ChIJ7W8LQVITrTsRYfyujA_k_fA","JV Enterprises Bharat Petroleum","Agaramcheri to Gudiyattam Road Goodanagaram, TK, Gudiyatham","12.9139762","78.87539389999999"
"ChIJA4aXW2wVrTsRNwX4L1Zh08k","Hindustan Petroleum Corporation Limited","Ground Floor, Chennai Banglore NH, Erayangadu","12.9107396","79.0009163"
"ChIJlw5vOE4VrTsRO4praG4IIok","Bharat Petroleum, Petrol Pump -S.A.V Agencies","KALANIPAKKAM, VELLORE AMBEDKR","12.9101248","78.9865834"
"ChIJMW0T7VQVrTsRLdIkmeVaWhM","Bharat Petroleum, Petrol Pump -V.S.Renugopal","POIGAI SATHYAMANGALAM, VELLORE AMBEDKR","12.9089405","79.00081850000001"
"ChIJZ8nlrG4VrTsRSDG0dlKEGV4","Arulmigu Annamalaiyar Fuels","243, Road, Ganganallur, Anaicut","12.879898","78.9981086"
"ChIJD5zEubAVrTsRZQIlwWPP2Vo","petrol Bunk","VXHM+5MF, Anaicut","12.8779326","78.9841612"
"ChIJuatw4o0VrTsRA_Zq-7uXB3w","Bharat Petroleum (Mithra Agencies)","State Highway 122, Tharvazhi","12.8819361","79.0110252"
"ChIJYYVs-rYVrTsRgomrb1ceLig","IndianOil","Lock No 1150 SH 122, Alangayam Rd, Odugathur","12.8747944","78.98182659999999"
"ChIJK7HKt65BrTsRI-5J-bHRO0U","IndianOil","A Site Ksk, Survey No 56/5A2, Mudinampattu","12.9405978","79.01968339999999"
"ChIJ22sr-N0VrTsRYbsK9qMMIJI","IndianOil","No 230, A1 & 230/A2, Vaniyambadi","12.8702342","78.9732593"
"ChIJXWUH-rc4rTsRCs8OBoUzYeM","SRI SRINIVAS AUTO SERVICE","No.111, Bangalore Road,, Mullipalayam, Vellore","12.923399","79.120511"
"ChIJqxx-YsA_rTsRlAMB2PvurMg","Bharat Petroleum","335/1, BANGALORE TRUNK ROAD, Sathiyamangalam, Poigai","12.9166364","79.0413595"
"ChIJv9cNYsA_rTsROeD401AsKMw","Amman Thunai Transport And Petrol Bunk","W28R+HFX","12.9164965","79.04124879999999"
"ChIJs0PDUEw_rTsRpDN3KZpAuXQ","Shell","Mumbai Highway, Melmanavur, Revenue Village, Vellore","12.915055","79.077642"
"ChIJ3aZfIwA_rTsRcEo6-k4yitM","Euro def","W37F+GJQ, Poigai","12.9138311","79.0741152"
"ChIJbcSRGMY_rTsReGFsXthuP_E","SRI BALAJI AGENCY, Bharat Petroleum Fuel Station","National Highway 48, Abdullah Puram, Vellore","12.9149957","79.0714979"
"ChIJbefkCwA_rTsR_puYqwgAhg4","Hindustan Petroleum Corporation Limited","No 40/7, Perumalnagar, Vellore","12.9230349","79.1016259"
"ChIJ5z7bu9s_rTsR1dGKmrjbi3Q","IndianOil","Lock No, near Aerodrome, NH 46, Sathiyamangalam, Anpundi","12.914361","79.063965"
"ChIJo9SvAAA_rTsRF7CuzHw1Vj4","Go gas","W377+WGP, Sathiyamangalam, Vellore","12.9148486","79.0638352"
"ChIJiUtAcLg4rTsRxCd2Ml9vlfY","IndianOil","Lock, 139, 1089, Bangalore Road, Mullipala, Vellore","12.923682","79.121597"
"ChIJG6kVb7g4rTsR_iU6J6i5E3c","Reliance Petroleum","opp. to JOTHI THEATRE, SURVEY NO 612/ PART, TALUK, Vellore","12.9235352","79.1228723"
"ChIJK8r6BRQ5rTsRfkgYFEf9c8A","Jio-bp","T, opposite Jothi Theatre, 612/1, Bangalore Road, Vellore","12.9232454","79.1229596"
"ChIJd3ULNAA_rTsRMgrsv5G0eb4","KKS Fuel Agency","V3H7+VRX, Ussoor","12.8797407","79.0646241"
"ChIJsxWmMcs-rTsRPnuk_FKUiZ4","Hindustan Petroleum Corporation Limited","Survey No 807, 2B, Gandhi Road, Mahalakshmi Nagar, Ariyur","12.8805912","79.1091651"
"ChIJ8VT1T5A5rTsRZizIt71t9v8","Hindustan Petroleum Corporation Limited","Door No 9, 3, Old Bypass Road, Thottapalayam, Vellore","12.927031","79.128951"
"ChIJGem49MA5rTsR_fJN0eVq9S0","IndianOil","Sy No 41/1, Prison Department, Thorapadi, Tiruvannamalai","12.8901775","79.12317639999999"
"ChIJa69D8uI3rTsR3leFAcXuXIU","S P G Agencies - HP Petrol Pump","NH-46, Pilliyarkuppam Perumugai, Chennai","12.9479131","79.21456859999999"
"ChIJGf8p3os5rTsR0FQ03g2cBEU","IndianOil","Lock No 1109, NH 46, Arcot Road, Sathuvachari, Vellore","12.9415177","79.17673289999999"
"ChIJX4HsXAE4rTsRXQYvQFqA2gk","IndianOil","No 259, 1A/2, NH 46, Sathuvachari, Venkatapuram","12.943223","79.195503"
"ChIJl69txXM4rTsRV2prxeEn_4o","Kalaimagal Petrol Bunk","HPC Dealers N A A, Arcot Road, Rangapuram, Sathuvachari, Chennai","12.9397585","79.17268899999999"
"ChIJ58u6C2c5rTsRkPzzkEZ7NMg","Hindustan Petroleum Corporation Limited","Ground Floor, Rangapuram, Vellore","12.9397486","79.17261359999999"
"ChIJj7wMozNHrTsRsnmIFtgn2U4","IndianOil","SN 228/13A228, Vellore Institute of Technolog, 14B, T Iruvalam Road, Katpadi, Brahmapuram","12.9689546","79.18502579999999"
"ChIJH8Wj_AU3rTsREVPwovXL9Q4","Hindustan Petroleum Corporation Limited","Ground Floor, NH 46, Pilliyarkuppam, Perumugai","12.947949","79.213351"
"ChIJs1iuUGE4rTsRn8V49t3wV-E","Sathuvachari Third Stage Pump House","India","12.9294838","79.1596993"
"ChIJh4z_s2I4rTsRtw38I_AvwqU","Muthu Gas Services Centre","behind Rajan Medicals, 263, Regional Transport Office Road, Sathuvachari, Vellore","12.93508","79.15590999999999"
"ChIJnb0tOaE3rTsR6Ec2Z62hxXo","Bharat Petroleum Petrol Pump , RAMANI SHANKAR AGENCIES","ARAPAKKAM VILLAGECHENNAI - BANGALORE HIGHWAY NH 48 VELLORE, AMBEDKR","12.947148","79.217068"
"ChIJcwHKcog4rTsRHGzFrKGfgQg","IndianOil","Lock No 1277, 1131, Sathuvachari, Vellore","12.934667","79.153521"
"ChIJs5Mki583rTsRSDCKomdjdX8","IndianOil","Lock No 1231/1279/61/5, St Sathuvachari, Rangapuram, Phase 14, Guruthopu","12.945545","79.2273101"
"ChIJHxYPsxNHrTsRHUDOD29PA9o","Subhra Bhattacharjee","D Block, Men s Hostel, VIT University, Katpadi, Vellore","12.9731811","79.1590054"
"ChIJKRLCcQBHrTsRsRS575coRhU","AGP CNG Dispenser Station","X593+7JR, VIT Road, Katpadi, Vellore","12.9683607","79.1540816"
"ChIJh8DyD5I4rTsRjs-Ch9uxubQ","IndianOil","No S/2920, 1, IDA Scudder Road, Vellore","12.928419","79.14306599999999"
"ChIJr7iq-UA2rTsRrqIEvUbYNds","Hindustan Petroleum Corporation Limited","Ground Floor Melvisharam, Nandiyalam","12.9262998","79.2646689"
"ChIJHyNY1ss1rTsRijuv3y-s1s8","Hindustan Petroleum Corporation Limited","Ground Floor, Bengaluru - Chennai Highway, Veppur","12.9129916","79.30796769999999"
"ChIJz9GNl_U1rTsRCktWlnwyY-Y","Jio-bp","PLOT NO.16-22 & 39-43, COMMERCIAL PLOTS, Sipcot Phase II Industrial Complex, Ranipet","12.9517391","79.30881459999999"
"ChIJ8-3Isa01rTsRgPxoLzgdSfg","IndianOil","Lock No 1088 North Arcot, NH 46, Bazaar Street, Arcot","12.9120246","79.3264009"
"ChIJEzjy_6w1rTsRlie9BVV25_c","Bharath Petrol Bunk kumar agencies","W86G+GQ3, State Highway 122, Arcot","12.9112583","79.326925"
"ChIJndvvOdY1rTsRF7OMYgc52gc","IndianOil","S No 101/1A13A18A113A116A1, 29117/7/8, 11 Rasathupuram, Melvisharam","12.914822","79.291412"
"ChIJC7KkEuM1rTsRZz-5sDldNy4","Sakthi Gas Agency","W75R+V79, Ramadoss Nagar, Melvisharam","12.9086579","79.2906388"
"ChIJjdxjEgA1rTsRw-Mo2g3cQlc","JS PETROL BUNK","W75X+P7G, Walajapet","12.9093243","79.2982043"
"ChIJuYeK-wI1rTsRrxCAi2Oknyg","Hindustan Petroleum Corporation Limited","Ground Floor Arcot, Road, Melvisharam","12.9088889","79.2984907"
"ChIJXysLKgA3rTsR_PyI9p0GXyM","Poonjolai Nagar ranipet district, Greater Vellore City Municipal Corporation","W7M5+764, Melvisharam","12.9332767","79.2591456"
"ChIJbQdun6o1rTsRQUUsVwQBpoU","IndianOil","TS No 437A Block No 35, Bazaar, Arcot","12.9041692","79.3111081"
"ChIJ7wCX-p81rTsRrMrWt1rNbng","Nayara Energy Limited - Aishwaryam Agency","near uzhavar sandai, Arcot, near uzhavar sandai, Vellore Main Road, Ranipet","12.9041189","79.31224499999999"
"ChIJG2JsFgA3rTsRa_HpXxn2EQI","Bharath petroleum Cks Agencies","V7GQ+G2V, Arcot - Kannamangalam Road, Arcot","12.8763592","79.2875405"
"ChIJF3MrWU00rTsRtUIEfPu0p7Q","Hindustan Petroleum Corporation Limited","No 37, Timiri Road, Arcot","12.907271","79.323841"
"ChIJ54ZJJ9vKUjoRZq8_s_EcFKo","IndianOil","Survey No 74, Lock No 1024, 1272, 2A59/2, Walajapet, Thenkadapanthangal","12.9215232","79.3945391"
"ChIJXzvAiRE1rTsRFTVmP8upGjQ","IndianOil","Ground Floor, MBT Road, VC Mottur, Walajapet","12.9251013","79.3528351"
"ChIJOf_kpCk1rTsR74UlEtNNWHs","IndianOil","Lock No 1022, Tin No 33514284010, Ammanthangal, NH 46, Ranipet East, Vellore","12.912779","79.37282429999999"
"ChIJuXnMwa3LUjoRyNzlfxeO1sE","Shree Nilaa & Co - IOC Dealer","S.no 74/2, Thaluk, Thenkadapanthangal","12.9133799","79.39512359999999"
"ChIJizmmA8LLUjoRELCldAO9vYA","IndianOil","Survey No 74, Lock No 1024, 1272, 2A59/2, Walajapet, Thenkadapanthangal","12.9215232","79.3945391"
"ChIJO2wMuCU1rTsRceTnnx_ebw8","BPCL outlet pump","W988+WR7, Anaicut Road, Walajapet","12.9172926","79.3670432"
"ChIJZQkPPC81rTsRomGjimaT95I","Hindustan Petroleum Corporation Limited","Ground Floor, near Bengaluru - Chennai Highway, Walajapet","12.9124226","79.36487609999999"
"ChIJtR9TeMzLUjoRjRFfMrNLlkA","Bharat Petroleum, Petrol Pump -Shanthi Service Station","WALAJAH(NH4), VELLORE AMBEDKR","12.9087","79.4081796"
"ChIJmf33ZAA1rTsRMstnGJaZSbI","BHARAT PETROLEUM , WALAJAPET","W9R8+9F8, Walajapet","12.9409172","79.3661906"
"ChIJ56n2kSo1rTsRs6Ow7VyK1ss","IndianOil","Lock No 110 NH 4 Byass Road, Ranipet, Anandalai","12.926216","79.348406"
"ChIJT4GeXszLUjoRsD_IbUFi1DY","IndianOil","S No 114, 2C2, Kattery, Walajapet","12.9039873","79.41880669999999"
"ChIJdX762SA1rTsRaT86BVK-9hM","Bharat Petroleum, Petrol Pump -Siva Agencies","119, MBT Road, Ranipet","12.9270817","79.34745769999999"
"ChIJ66jKqr40rTsRqYGJgE8rpM0","Essar Petrol Bunk - எஸ்ஸார் பெட்ரோல் பங்க்","V9J7+Q9Q, Gudimallur","12.881953","79.3634969"
"ChIJuwiOxVc1rTsRSgULlg24_xU","NAYARA","State Highway 61, Ammoor","12.9547393","79.37115370000001"
"ChIJNZRwYts1rTsRzjtsaoXSwAc","Hindustan Petroleum Corporation Limited","Ground Floor, Arcot - Kanchipuram Road, Puduppadi","12.873389","79.36872199999999"
"ChIJ_79LpmzJUjoR2OpttqcIGbc","Bharat Petroleum , Sri Krishnasamy Fuels","S.F, 253, MBT ROAD, ARAKONNAM T, Sirukarumbur","12.8982447","79.49196549999999"
"ChIJZSvnvxnJUjoRMq4Gns7WfG8","BHARATH PETROLEUM BALASUNDARAM AGENCIES OCHERI","NH-4, Madras Bombay Trunk Road, Ocheri, Vellore, Arcot","12.897257","79.505616"
"ChIJfaIp88fLUjoREWwI0Dqo6ck","Reliance Petroleum","NH-4, RANIPET, KADAPERI VILLAGE,KADAPERI POST, WALAJA TALUK, 632, DISTRICT, VELLORE","12.9007557","79.4483765"
"ChIJq73tYK7LUjoRSA44f8M7nTk","Sree balaji fuel agency","Kaveripakkam, Vellore, NH-4, Madras Bombay Trunk Road","12.9014136","79.4644386"
"ChIJz6GNOdrLUjoR100mFvG1Q8k","HP GAS","India","12.9006539","79.46367029999999"
"ChIJ1x_aSNHHUjoRSeXSsWHYI6A","BHARAT PETROLEUM PALANI AGENCIES","Panapakkam, Vellore, SH-126, Arakkonam Ocheri Road, Arcot, Arcot","12.9253527","79.56630849999999"
"ChIJt461iBTHUjoR32un2u0zdI0","BPCL filling Station car care centre","VHWC+HQR, Ponniyamman Pattarai","12.8964852","79.5719038"
"ChIJ7-M6L3PHUjoR-Bx97a6_YJ0","Indian Oil - COCO Damal","x road, Ponniyamman Pattarai","12.8907175","79.56731839999999"
"ChIJYfWhCGXGUjoRv9LgLuL-Zuw","Essar Petrol Pump","VHQW+4FX, Damal","12.8878537","79.5962273"
"ChIJ6ekoe2_GUjoRDTOkmUAcjio","HP Petrol Pump - Sri Balaji Highway Service","SY NO. 530, Bengaluru - Chennai Highway, NH-4, Damal","12.8866301","79.5960492"
"ChIJGb795dXHUjoRU9Zo72DjXX8","IndianOil","Lock No 1163, Ocheri Road, Jagirthandalam, Arakkonam, Panapakkam","12.9230019","79.5614951"
"ChIJ15N96H7IUjoRikwISbaK988","Hindustan Petroleum Corporation Limited","Ground Floor, Arakkonam, Ocheri Road, Panapakkam","12.9218809","79.5568033"
"ChIJA6O5MADHUjoRxurzx8EClRQ","SRS INDANE GAS GODOWN","WHHG+9Q, Nedumpuli","12.9284078","79.576971"
"ChIJEwSYVXDBUjoRdtHgObhNDpI","IndianOil","No 16, Sembarambakkam Kancheepuram to Arakkonam, Rd, Karai","12.8913548","79.6865304"
"ChIJIWtVmbTDUjoRNcQS83wHYOo","Hindustan Petroleum Corporation Limited","Ground Floor, Arakkonam, Kanchipuram - Vellore Road, Kanchipuram","12.849766","79.693362"
"ChIJxZYwKE3CUjoRtEe63v87zt4","IndianOil","Lock No 1120, Ayyangarkulam","12.846587","79.695776"
"ChIJOeSF9E3CUjoRhPRSwbEQ01s","Krishna Petrol Pump - B.G.KRISHNAN - BPCL","94, Salai Street, Kanchipuram","12.84418","79.69946159999999"
"ChIJhSO4SqfDUjoRhfz1-I5sNko","IndianOil","Pillaiyarpalayam, Putheri","12.8328328","79.6784072"
"ChIJq-gmHeHDUjoRwkkm4BH6JYQ","Bpcl petrol pump Nexus petro","Kanchipuram","12.8732535","79.6696953"
"ChIJGTYxwGHDUjoRO87k3gEFDqo","SRI THROWPATHI AMMAN AUTO WORKS","1 Anna Auto Nagar","12.8713264","79.6649766"
"ChIJb0HmpwTDUjoRWYjXFGurlPY","IndianOil","opposite Thirumalai Polytechnic, Plot No 12 Vlr Road, Kanchi Kilambi,Ayyangarkulam, opposite Thirumalai Polytechnic, Kanchipuram","12.864786","79.66196699999999"
"ChIJXdy5DSvCUjoR6vzsQ-NbKow","IndianOil","No 71/6, Lock No 1129, Whitegate, Karai NH 4, Bengaluru - Chennai Highway, Kavaraipettai","12.8739562","79.6972945"
"ChIJCVXs5knBUjoRExYe2KxPCT8","Bharat Petroleum Petrol Pump , VINAYAGAMANI AGENCIES","VISHAKANDIKUPPAM VILLAGEARAKKONAM, Kancheepuram - Chengalpattu Road, Kanchipuram","12.892027","79.686542"
"ChIJm9D8pQbDUjoRki3zeRSiOiQ","Nayara Petrol Bunk","No.4, Kanchipuram - Vellore Road, Nellukara st, Achukattu","12.8560865","79.6842288"
"ChIJ0SjASO_BUjoRJGh2xfS9Cak","Vinayagamani Agencies","VMXM+CXC, Vishakandikuppam","12.898567","79.6848917"
"ChIJJVEReQHDUjoR1R6Xqvc0ly0","Green Auto Gas","RMWW+V47, East Coast Road, S.K, Vellore","12.847163","79.695308"
"ChIJEwv2w8XDUjoRVP6G7sV47Mw","Nayara Energy Limited-VDT","Vandavasi To Vellore Bypass (Outer Ring Road, Kilkathirpur Main Road, Kanchipuram","12.8324828","79.6665199"
"ChIJedhf0lDDUjoRdT-8j2rEx0o","V S MOHAN SRI SANGUPANI FUELS","30B, Nellukara Street, Kanchipuram","12.8377352","79.702911"
"ChIJNdvnz1bCUjoRgcKVXViYyqo","IndianOil","Lock No 1158, Nellukara Street, Ayyangarkulam","12.8375997","79.7028005"
"ChIJV0qwgYzpUjoRUyKBaPMFrnk","Hindustan Petroleum Corporation Limited","Ground Floor, NH 4, Attuputhur","12.874781","79.764851"
"ChIJUdgUNizpUjoRLxt29GFDup8","INDIAN OIL","VQG6+9M9, National Highway 48, Attuputhur","12.8759099","79.7617375"
"ChIJpbgGLPHpUjoRFUVTgDFl_IA","Hindustan Petroleum Corporation Limited","Ground Floor, Bengaluru - Chennai Highway, Vedal","12.874031","79.756861"
"ChIJz_O1SOHpUjoRNFdMG9PO8Bo","BPCL Petrol Pump Banu Fuels","Km 65, NH 48, near BPCL Petrol Pump, Bengaluru - Chennai Highway, Vedal","12.8748319","79.754024"
"ChIJXV8UeMHpUjoRaBx0m8qr45U","SHRI NIRMALA KARVANNAN AGENCY","Marutham","12.8551895","79.8050808"
"ChIJh7eD3FHpUjoRaTObxr7rGfc","COCO Bharat Petroleum, Petrol Pump -Bp-Ghar Vedal","VPFW+6XW, VEDAL OSTS, National Highway 48, Kanchipuram","12.873365","79.7473674"
"ChIJE7iNe8LpUjoRGowGMCOSWLk","IndianOil","near Vaiyavur, Ground Floor Gowri Ammanpettai Vedal, near Vaiyavur, Rajakulam Rd, Enathur","12.8569894","79.7544168"
"ChIJ2TAAK_zpUjoR3wrGkcO7m8s","IndianOil","Lock No 1098, NH 4, Kanchipuram - Chennai Road, Collectorate, Vedal","12.8737881","79.74302689999999"
"ChIJjXuy-BfpUjoRYb46gk0Jpyk","Hindustan Petroleum Corporation Limited","Sy No 45 & 6, National Highway 48, Vedal","12.873633","79.7401036"
"ChIJdw_QY3XtUjoRBJrskBeQ9wc","Hindustan Petroleum Corporation Limited","Ground Floor, Bengaluru - Chennai Highway, Mambakkam, Kanchipuram","12.9316716","79.8986778"
"ChIJuXKoL-rsUjoRC-ubbowBXa4","IndianOil","1, Pannur, to, Thiruvallur Road, Sunguvarchatram","12.9498632","79.8571717"
"ChIJq2JU9FHsUjoRDGi5ib5Ivn4","Petrol Bunk","Molachur","12.9199902","79.8686977"
"ChIJAZ6A81HsUjoRz9XUlQm_w4s","Hindustan Petroleum Corporation Limited","Ground Floor, Bengaluru - Chennai Highway, Sunguvarchatram","12.919913","79.868693"
"ChIJezcoDKntUjoRdp4zANmTMv0","NAYARA Energy Limited, ANNAI AGENCY","Sunguvarchatram","12.9271642","79.88209309999999"
"ChIJ18ZbwkPsUjoRF-hh4AqeQiQ","BPCL Fuel Station","Santhavelur","12.9135095","79.85616619999999"
"ChIJJ1DyyGvsUjoRPIqqWeAybaY","Hindustan Petroleum Corporation Limited","Survey No 541, 2A1 & 2A2, Santhavellore","12.91124","79.84860340000002"
"ChIJaW64PZftUjoR_HdUdMU-sBw","Hindustan Petroleum Corporation Limited","Survey No 92/4, Sriperumbudur","12.9437231","79.8656187"
"ChIJ-dYFpRDtUjoRgPbDy5IMtWM","Essar petrol bunk","WR6V+5WQ, Nandimedu","12.9104658","79.8448512"
"ChIJ-b-omUnzUjoRmB_jPWstHjs","IndianOil","SNo 9798 & 99/2, Senthamangalam","12.9095573","79.8417315"
"ChIJAZlm0p7tUjoROzEBhNzp9l8","HP PETROL PUMP - SRI. N.V.S. AGENCIES","HPC. Dealers SNO. 119/3, Mambakkam Village, NH. 4 Banglore Highway, Chennai","12.925886","79.900311"
"ChIJnXbKUpztUjoR61Yey7ttcXU","Indian oil","WWM5+VPG, National Highway 48, Mambakkam, Sriperumbudur","12.9346779","79.9093371"
"ChIJzaS5BtDyUjoRlUhPAjDiYnw","IndianOil","Ground Floor, Chennai Bangalore Highway Sriperumbudur, Gunduperumbedu","12.967612","79.95323200000001"
"ChIJjwMBhJnyUjoRrq19DremKJw","IndianOil - SWAGAT","Lk No 1157/122 Sriperumbudur, Gunduperumbedu","12.949577","79.928238"
"ChIJlYZU0ZvyUjoR2MAltvh5ZTU","IndianOil","Krishna Nagar, Sriperumbudur","12.9490914","79.92729349999999"
"ChIJuc-gb4nyUjoRy_E3Yk3z2JQ","Hindustan Petroleum Corporation Limited","Ground Floor, Perumalpattu - Kottamedu Road, Kanchipuram","12.9364686","79.93552199999999"
"ChIJryCXT9bzUjoRNQ3UG4gMrLw","SRINIVASA FILLING STATION BPCL PETROL PUMP","near Palmira and Rodem Hotel, Survey no 191/2C Byepass Road NH4, near Palmira and Rodem Hotel, National Highway, Chennai","12.9672142","79.95411419999999"
"ChIJ48BSGPvzUjoRQI61UUCMj-A","Bharat Petroleum, Petrol Pump -Srinivasa Filling Station","SRIPERUMPUDUR (RAJIV MEMOR, KANCHIPURAM","12.9672076","79.9542574"
"ChIJuYWQ65fzUjoRUyzuxiENuW8","Hindustan Petroleum Corporation Limited","Ground Floor, Bengaluru - Chennai Highway, Sriperumbudur","12.964025","79.948661"
"ChIJy8RHTzDzUjoR5bBAaK_IRcs","Kash Fuels","XXF4+F5F, Nenmeli, Sriperumbudur","12.973683","79.9554258"
"ChIJP0dq1-fyUjoRhCQkLgku958","Hindustan Petroleum Corporation Limited","Ground Floor, Kundrathur - Sriperumbudur Road, Sriperumbudur","12.953988","79.952765"
"ChIJYfDgK6TzUjoRaVOfVGpUENM","Bharat Petroleum Petrol Pump , TNR FUELS","1612, SRIPEREMBUDUR TO, Kundrathur - Sriperumbudur Road, RDSRIPEREMBUDUR","12.9539097","79.95413649999999"
"ChIJBV7SZJXyUjoRfqVr79HCetc","Bharat Petroleum BP Petrol Bunk","XW4Q+3R4, V.R.P. Chatram, Sriperumbudur","12.9551371","79.93956879999999"
"ChIJJdhDeHPzUjoRbS0AGLfJH84","Shell Fuel Station","Service Road, Sriperumbudur","12.952611","79.932389"
"ChIJUT4KE4fzUjoRdTLu2ZqgS6Q","Indian Oil Petrol Bunk - COCO Sriperumbudur","Swagat Sriperumbudur, NH 4, Chennai - Bangalore Highway, Near Nokia Factory, Krishna Nagar, Near Nokia Factory, Sriperumbudur","12.9502224","79.9297928"
"ChIJTbIJ8hvzUjoRqfqjVvQp4-U","Bharat Petroleum K.A.N Filling Station","WWQP+V7V, Perumalpattu - Kottamedu Road","12.939734","79.93568460000002"
"ChIJ_Qq5VwDzUjoRVnzIrwP0Z1k","Bharat petroleum VALLIAMMAL AGENCIES","WWQP+26, Sriperumbudur","12.9370179","79.9352893"
"ChIJb_KNYQDzUjoR6NiKzn_VuUg","BALA AGENCIES","Sy.No.347, Singaperumal Koil - Sriperumbudur Road, Pondur","12.9363987","79.9352457"
"ChIJMR5YhXftUjoRMXLQljFGHyY","Bharat Petroleum, Petrol Pump -Hu Sreeram Agency","Madipakkam, Chennai","12.9384585","79.9187616"
"ChIJLY2w_MeMUjoRM6SFAlRuPyg","IndianOil","near Hyundai, Ground Floor Sriperumbudur, Gunduperumbedu, near Hyundai, Irungattukottai","12.992028","79.985528"
"ChIJb2Co3p-LUjoR8zLBd33KvCQ","HP Petrol Pump","Queensland Bus Stop, No. 345/1 Bangalore Highway Road Opp.Queens Land, Chembarambakkam","13.0273545","80.0294988"
"ChIJZRESR62LUjoRJJ4upcsYOXk","IndianOil","No 1108/122, Chembarambakkam Chennai Bangalore Hwy, National Highway 4, Kuthambakkam","13.0381688","80.0525279"
"ChIJ-ywnE06KUjoREVUftp2XRK8","IndianOil","No 3/66, NH 4 Chembarambakkam, Poonamallee, Kuthambakkam","13.041277","80.059856"
"ChIJKWeKwXWLUjoRqhrUHzr-6g0","Bharat Petroleum","India","13.0257423","80.0265994"
"ChIJ3S3d_6CLUjoRUvpWKzARxZA","Bharat Petroleum (Diesel only bunk)","22JM+3HF, National Highway 4, Chembarambakkam","13.0301976","80.03391309999999"
"ChIJMbIqHaGLUjoR92qYB4GCBlA","IndianOil","Lock No 1111, No 397/2, Kanchipuram - Chennai Road, Mevalurkuppam","13.0304824","80.0346764"
"ChIJsXFnUQCLUjoRW4Fg3yNJHv0","Sarath Fuels, BPCL","22JP+36P, Chembarambakkam","13.0304583","80.03526830000001"
"ChIJta2LXbOLUjoRHgT6RnOBdzg","Bharat Petroleum","Chembarambakkam","13.0310959","80.0355088"
"ChIJ32NooX2LUjoR6ApFz2Arzok","srinivasa agency","2296+C2G, Arakkonam Highway, Thandal, Kuthambakkam","13.0185591","80.01009309999999"
"ChIJ5aV5ITyNUjoRHQDiNSt7JrQ","Hindustan Petroleum Corporation Limited","Kanchipuram, S No 174/3 Keevalur Road, Thandalam, Sriperumbudur","13.0120106","80.0088457"
"ChIJhVv20heLUjoRRJ0lda6QuqY","Chembarambakkam Petrol pump","5/243, Bengaluru - Chennai Highway, Chembarambakkam","13.0344092","80.04003510000001"
"ChIJu38uRTqLUjoRUZh8qzEazak","Shell Chembarampakkam","Bengaluru - Chennai Highway Village 32 Poonamalle, Taluk, Thiruva, Chembarambakkam","13.034773","80.0398297"
"ChIJ3Ry5mb-NUjoRtQARWmxL9PM","Bharat Petroleum, Petrol Pump -Praveen Enterprises","MEVALURKUPPAM, KANCHIPURAM","13.0189978","80.0042496"
"ChIJhaB92SeNUjoR3AfFkuENFMc","REC Petrol Bunk","Rajalakshmi Engineering College - Bus Shed, Rajalakshmi Nagar, Mevalurkuppam","13.0113522","80.0063497"
"ChIJx-AFPw2LUjoRZFi5NiRdUZw","MONISHA ELECTRONIC WEIGH BRIDGE","X2X6+H8H, Sipcot Main, Sriperumbudur","12.9989829","80.0105249"
"ChIJjwX3sKqNUjoR4p3SHyy_Xl4","Pedhamma Agencies (Aegis Auto Gas)","2X9V+FXJ, Mevalurkuppam","13.0187175","79.99489229999999"
"ChIJ04zmF6KNUjoRefng1oSZFHo","Bharat Petroleum, Petrol Pump -T P R S Fuels","IRUNGATTUKOTTAI, KANCHIPURAM","13.001651","79.9915075"
"ChIJi3Bn4EmLUjoRdhkstm8ZoZ4","IndianOil","No 198/1A2, Kundrathur - Sriperumbudur Road, Irungattukottai","12.9849479","80.01132900000002"
"ChIJ9Yyq7s2LUjoR7JuFEiOw-DY","SRI Kamatchi Enterprise - Bharath Petrol Bunk","VOC Street, Thirumazhisai","13.0605318","80.0494216"
"ChIJXfHlzsyLUjoRzlf62lJs-eI","Bharat Petroleum cng","3353+86W, Voyalanallur","13.0583642","80.0530685"
"ChIJb-8kSMRhUjoRqEWk0R0PysA","IndianOil","474, Trunk Road, Indrani Nagar, Karayanchavadi, Chennai","13.0453399","80.1133371"
"ChIJg3-cqcBhUjoRJYzWYwQdE7A","Aegis Auto Gas Station Poonamallee","14, Poonamallee High Road, Kumananchavadi, Chennai","13.0484363","80.1204305"
"ChIJT-x-WdxhUjoRa1V_iua_fhM","Shell","Poonamallee High Road, Vill, Poonamallee, Chennai","13.04935","80.10623"
"ChIJN3Xn5DlhUjoRW0uFKWjtDZQ","Bharat Petroleum, Petrol Pump -N.A.Agency","Thiruverkadu, Chennai","13.0681222","80.1279943"
"ChIJ_RELnQyKUjoRfs3vHgA8nag","Bharat Diesel","333V+R2M, Bajanai Koil Street, Aria Maruthanallur, Poonamallee, Chennai","13.0545886","80.0925589"
"ChIJUYuKMrBhUjoRFYGK1sOfg-0","IndianOil","Lk No 1165, 2/254, Mount Poonamallee Road, Iyyappanthangal, Chennai","13.040283","80.131192"
"ChIJA2cXzZ1hUjoRd3K6XSK7eRM","Hindustan Petroleum Corporation Limited","52B, Poonamallee High Road, Velappanchavadi, Tiruvallur","13.0609401","80.14017009999999"
"ChIJ27orP65hUjoRhLJ8Miv41cY","Bharat Petroleum Bunk","2, Trunk Road, VGN Nagar, Iyyappanthangal, Chennai","13.0388117","80.1328812"
"ChIJW8qK8Z1hUjoRTT6xEY4Ss-4","IndianOil","Lock No 1095/122 93/2, PH Rd, Velappanchavadi, Ayappakkam, National Highway 4","13.0611332","80.1422072"
"ChIJR8QUBSRiUjoRTGCiuebgkZ0","IndianOil","Lock No 1178, 121 Ambattur, Tiruverkadu Link Road, Koladi, Tiruvallur","13.0829989","80.1265988"
"ChIJfdx7BjJgUjoRrO_qpHy_rNs","IndianOil","S 365/3A1, Mangadu Kundrathur Road, Mangadu Road, Sriperumbudur","13.0253786","80.1096232"
"ChIJsylOxg9iUjoRv_e9OirEwV4","Shell","Poonamallee - Avadi High Road, Avadi","13.0893286","80.1082065"
"ChIJ5RbjOw5iUjoRTARWD9MkERk","Nayara Petrol Pump","34R5+H7Q, Paruthippattu, Avadi","13.0914692","80.1082306"
"ChIJnY1u20OKUjoRziapOkk7o84","Hindustan Petroleum Corporation Limited","Ground Floor, Poonamallee High Road, Nazarathpettai","13.045564","80.071882"
"ChIJkQBUmGdhUjoRW3jd1uIAO00","Bharat Petroleum, Petrol Pump -Sundaram Motors","Senneer Kuppam, TIRUVALLUR","13.0584642","80.11380129999999"
"ChIJ3b5tMOlhUjoRZGGnNtsf5Gc","The Chennai Industrial Services","No. 3/389, Poonamallee - Avadi High Road, Senneer Kuppam, Poonamallee, Chennai","13.0583932","80.11295009999999"
"ChIJO_Dvw9VhUjoRNYuxbmwuThA","Bharat petroleum","Sri Saravana Complex, Mount Poonamallee Road, Kumananchavadi, Chennai","13.0594242","80.1132962"
"ChIJD05hye5hUjoR5eEjTH3HXOI","TVS Petrol Pump","3457+R83, State Highway 55, Thiruverkadu, Avadi","13.0595114","80.1132836"
"ChIJcwEcBuphUjoRiexFQlD6SwQ","Bharath Agencies CNG GAS STATION","Chennai","13.0619734","80.1131315"
"ChIJiVHYhRhhUjoRndFrSO897fY","Go GAS AUTO LPG BUNK","3427+64J, Poonamallee - Avadi High Road, Senneer Kuppam, Chennai","13.0505924","80.1127666"
"ChIJjxmGiLBmUjoRqIUqbp8p0yU","IndianOil","Lock No 1106, 122, Kaliamman Koil Street, Koyambedu, Chennai","13.0648488","80.1978264"
"ChIJN0IgE9pgUjoRFyJkc77HEQc","IndianOil","Lock No 1038, 42/62, Nelson Manickam Road, Aminjikarai, Chennai","13.072632","80.2213884"
"ChIJXc8XzYRmUjoRBShLegn5Lrs","IndianOil","New No 141, Old No 25 Arumbakkam, Aminjikarai, Puliyur","13.06054","80.2116058"
"ChIJN3ppTvhjUjoRecc4qn6JFE4","Bharat Petroleum COCO Outlet","Ambattur Estate Road, TS Krishna Colony, Chennai","13.0882632","80.18514309999999"
"ChIJh4IfJ1BhUjoRYgnjTj6gpn4","Hindustan Petroleum Corporation Limited","opposite Lbear Mat School, 147/B, Poonamallee High Road, Nerkundram, Chennai","13.072751","80.18878099999999"
"ChIJH6emy2pkUjoR9AdMq-77ElI","Bharat Petroleum, Petrol & CNG pump","VILLIVAKKAM (NR PADI JN.), Chennai","13.1028366","80.2081924"
"ChIJtUaQ9plmUjoRd6nwqp5E7RU","Hindustan Petroleum Corporation Limited","Block No 22, CP20, Main Road, MMDA Colony, Arumbakkam, Chennai","13.069641","80.215201"
"ChIJnzK6FHlmUjoRzG-jGt1MDv8","Kumaran Service Station HP Petrol Pump","Poonamallee High Road, Dasspuram, Chetpet, Chennai","13.0767004","80.2391004"
"ChIJQbTSa6VmUjoRXK1rYH1toHc","IndianOil","opposite Flower Market, No 4793/4678, Lock 1188/122, opposite Flower Market, Koyambedu, Chennai","13.069619","80.199821"
"ChIJj188KQ5kUjoRIANrF_4-HlU","IndianOil","P No 1381, Lock No 1172/122 W Extnch, B, Anna Nagar, Chennai","13.094107","80.19837199999999"
"ChIJqRvGG9VlUjoRVMy90eJnc94","Hindustan Petroleum Corporation Limited","26, New Avadi Road, Kilpauk, Chennai","13.083091","80.233871"
"ChIJa8pgnJ9mUjoRjOJpyC6k5-4","Total Gas,Visu fuel Hub","Ols #71,Opposite Panchaliamman Koil, 313, Poonamallee High Road, Arumbakkam, Chennai","13.0772986","80.2107142"
"ChIJW0Y_SJZmUjoRI8JFHl7Mpjo","IndianOil","Lock No 1135, No.12, 122, Jawaharlal Nehru Salai, Arumbakkam, Chennai","13.0731729","80.20974559999999"
"ChIJ2TWXnKRmUjoR21slGcUU9aM","SUPERGAS - Auto LPG Station - Noblegas LPG Services","208/24, Jawaharlal Nehru Salai, Jai Nagar, Arumbakkam, Chennai","13.0703618","80.2039492"
"ChIJcYcErSVkUjoRUc4c1Bg-rfo","Hindustan Petroleum Corporation Limited","No E, 1, Anna Nagar 3rd Main Road, Chennai","13.088151","80.21833099999999"
"ChIJlWhxSwRkUjoR6vHZEr-iK3I","Hindustan Petroleum Corporation Limited","No R21/2, Ambattur Industrial Estate, Chennai","13.087567","80.19482099999999"
"ChIJH05Jy4BmUjoRC078mASeFMA","IndianOil","Lock No 1013, 122, Poonamallee High Road, Shenoy Nagar, Aminjikarai, Chennai","13.0750061","80.2304573"
"ChIJHR_BtYBmUjoRxpREPLS36Og","Hindustan Petroleum Corporation Limited","near PACHAIYAPPAS COLLEGE, 737, Poonamallee High Road, Chennai","13.075221","80.230841"
"ChIJNW0ofX5mUjoRuO_7jbgqTwo","Bharat Petroleum","310, Poonamallee High Road, Chetpet, Chennai","13.0757611","80.2347508"
"ChIJHUHJke1mUjoRpeMlU7fryjE","IndianOil","Lock 1199/121, S No 163, Sivan Kovil South Street, Stpuliyur, Kodambakkam, Chennai","13.0536321","80.2202519"