place_id,name,address,latitude,longitude,open_now
"ChIJs8zQtpKUTTcR2MoaHfNtEJc","IndianOil","Ground Floor Bungkawn, Ngaizel Road, Kulikawn, Aizawl","23.7048959","92.7177263","true"
"ChIJLTGJai-XTTcR3FXnGZZSjyg","IndianOil","Ground Floor, Chawlhhmun, Melriat","23.6421214","92.72567939999999","true"
"ChIJ0fHvPg-VTTcRKw6vYG3V4Rc","IndianOil","Ground Floor, Melthum, Aizawl","23.6830674","92.7223473","true"
"ChIJvRvTZgCVTTcRLcpvA53as3g","Hindustan Petroleum Corporation Limited","Ground Floor, Ngaizel Road, Kulikawn, Aizawl","23.698731","92.72049100000001","true"
"ChIJa0r2OeyUTTcRT7I8yNiGWTY","Aizawl Bypass Filling Station â€” IOCL, Kulikawn (World Bank Road)","PP5C+2W7, World Bank Road, Kulikawn, Aizawl","23.7075333","92.722308","true"
"ChIJ5ZpKAfuVTTcRJsA_0PgOPBc","IndianOil","Ground Floor, Kulikawn Road, Tlangnuam, Aizawl","23.708223","92.72200199999999","true"
"ChIJzy-ijMeUTTcRqGwIHHs_QAo","IndianOil","Ground Floor, Treasury Square, Venghlui, Aizawl","23.726096","92.71865799999999","true"
"ChIJIb4BfFCTTTcRQPLW5dQMuu8","Hindustan Petroleum Corporation Limited","Ground Floor, Tuivamit, Aizawl","23.737221","92.679531","true"
"ChIJwdZ3EQLtTTcR8kSgYfvphDg","IndianOil","Ground Floor, Zonuam, Chawlhhmun, Aizawl","23.7339022","92.696569","true"
"ChIJxZ9XdlbrTTcRyGBTbcs-TME","Hindustan Petroleum Corporation Limited","Ground Floor, NH 54, Sairang Road, Vaivakawn, Aizawl","23.745941","92.7000618","true"
"ChIJ7domEwCVTTcRRJG3pp7Dw8c","IndianOil","New Capital Complex Road, Khatla, Chawlhhmun, Aizawl","23.727946","92.707331","true"
"ChIJu3YzgRSVTTcRw9lPwdErNwg","MIZORAM STATE COOPERATIVE MARKETING AND CONSUMERS FEDERATION LIMITED","near P and E Office, New Capital Complex Road, Aizawl","23.7339029","92.70910549999999",""
"ChIJZX4miwbtTTcR2P1RPE9OTdE","IndianOil","Ground Floor, Saingura Sailo, Electric Veng, Phunchawng, Aizawl","23.777687","92.681333","true"
"ChIJzxEFhEzrTTcRNpo4C0XOD5s","Singson Filling Station (HPCL), Hunthar","Hunthar, VENG, Guwahati","23.7421815","92.71293039999999","true"
"ChIJ2wGG7LnrTTcRRhD3pkQ6D14","Fire Department Filling Station, Hunthar Veng","House No. B, 84, MacDonald Hill, Zarkawt, Aizawl","23.7414423","92.7136093",""
"ChIJpxUgkkvrTTcRi6RcRfC_EXA","Lalboi Filling Station","Company Peng, Ground Floor Armed Veng, Hunthar, Chaltlang, Aizawl","23.743792","92.713763","true"
"ChIJfcIPWgCVTTcRyaZYfR0wHPc","Lung tolai","PPJ8+7WM, Aizawl","23.7307175","92.71731059999999",""
"ChIJq1DkMraUTTcR4ydfr05Bnr0","KERO GAS CORNER","PPJ9+72J, Vee Thanga Street, Dawrpui, Aizawl","23.7307236","92.7175226",""
"ChIJb-lTizDrTTcRbmtVTZJXwT8","IndianOil","Ground Floor, Ramhlun North Road, Chaltlang, Aizawl","23.7499301","92.725355","true"
"ChIJ_ddPOfKVTTcRDNpDNEjQbN4","C Vanlalruata Filling Station","near C. Vanlalruata Filling Station, World Bank Road, Aizawl","23.7257002","92.73617340000001","true"
"ChIJpfYSSNiUTTcR7wzBSncpIxM","Bharat Petroleum","PPGP+7GR, World Bank Road, Aizawl","23.725727","92.7362567",""
"ChIJJ7wlHBTrTTcR6kFNTgLZ4U4","CL FILLING STATION 2","Ramhlun Venglai, Aizawl","23.74494510000001","92.72352509999999",""
"ChIJPQDNNq7rTTcR7z5mnS1rsdA","DINDIN FILLING Station","Ramhlun North, Aizawl","23.7454088","92.7232901",""
"ChIJRVFLVTHrTTcRk8TwZaDQR4Q","IndianOil","Ground Floor, Ramhlun Venglai, Chaltlang, Aizawl","23.7454197","92.7233009","true"
"ChIJQdjhY96VTTcRc_NXEZAc0q0","Lalhriattiri Filling Station (BPCL), Falkland","Falkland Road, Aizawl","23.7303619","92.7416605","true"
"ChIJKxPiqf3rTTcR4Rz4A_0uBkg","IndianOil","Ground Floor, Transport Department, Chaltlang, Aizawl","23.7510956","92.7247843","true"
"ChIJu4rfESbrTTcR8dS6t2fXfzs","IndianOil","Ground Floor Bawngkawn, Lunglei Road, Chaltlang, Aizawl","23.752271","92.73369609999999","true"
"ChIJ-02x4DrrTTcRTLWp4tXKOjM","IndianOil","Ground Floor, Sairang Road, Bawngkawn, Chaltlang, Aizawl","23.755459","92.72746200000002","true"
"ChIJ6TNjx5-VTTcRUO4x5tMQ9_o","Bharat Petroleum - Zemabawk Filling Station","Zemabawk, Aizawl","23.7304413","92.75771739999999","true"
"ChIJjX41LwC_TTcRETja87iDfRQ","Akhawli Filling Station","Bung Bangla","23.7324245","92.7809304",""
"ChIJIQY4nXu_TTcRRwi-xv4lVqQ","J.F.R","PQPW+25F, Tuirial Airfield Access Road, Tuirial Jail","23.7350514","92.79541770000002",""
"ChIJd-t3CAC_TTcRmhRoCckxgog","Seling OP Filling Station","HPCL PETROL PUMP, Edenthar","23.7356809","92.81633819999999",""
"ChIJQ53wgIy_TTcR4iWVNF_t4Dw","IndianOil","Ground Floor, Phaibawkkawn, Seling","23.735495","92.838224","true"
"ChIJIyS39lm_TTcRfaSTJsJGPY4","IndianOil","Ground Floor Seling, Sesawng","23.732015","92.847068","true"
"ChIJH1JXSP7BTTcRUWm0QbnBHO8","Hindustan Petroleum Corporation Limited","Ground Floor, Sesawng","23.7429512","92.8472695","true"
"ChIJgcHxoMLtTTcReD8yjfqg79M","IndianOil","Ground Floor Lengpui, Sairang, Aizawl","23.805465","92.65468299999999","true"
"ChIJdwfn-FnsTTcR5ZAg55UXPv8","IndianOil","Ground Floor Sairang, Lengpui, Aizawl","23.793734","92.668989","true"
"ChIJJVm0E27tTTcRLvVjGfHNeg0","Hindustan Petroleum Corporation Limited","Ground Floor, NH 108, Sairang","23.8198473","92.6584891","true"
"ChIJ8bYEIw_tTTcRTVhSD_1EU6s","Hindustan Petroleum Corporation Limited","Ground Floor, near Chiahlui River, NH 44A, Lengpui","23.822191","92.622171","true"
"ChIJh3AzNQDvTTcRmQtZRH0-TgI","Hindustan Petroleum Corporation Limited","Ground Floor, Sairang","23.8419034","92.6607983","true"
"ChIJCzBS5gXzTTcRtVPOMZkGhS8","IndianOil","No 92, Zotlang, Rawpuichhip","23.7890959","92.582118","true"
"ChIJr49ZkeHvTTcR081cTLG2D3E","L T K ENERGY CENTRE","Buichali, Dinthar, Sairang","23.8602047","92.6474865",""