place_id,name,address,latitude,longitude,open_now
"ChIJWVPHt44oSTcRSfjS-req4vs","Petrol Pump","QVXR+WV7, Imphal","24.799779","93.8921761",""
"ChIJS-Nva68nSTcRy6fAlBNm2fs","IndianOil","Ground Floor Puramakhong, near DM College, Singjamei Road, Chingamakha, Imphal","24.765698","93.92761399999999","true"
"ChIJ60PDCMglSTcRhs2lFlAfH4A","IndianOil","Ground Floor, Kunjanh 39, near Manipur University, Langthabal Kunja","24.7351119","93.9373554","true"
"ChIJZZzESGUmSTcRrvIp4bS1ArE","IndianOil","Ground Floor, near DM College, Kakwa, Imphal","24.7702079","93.9377894","true"
"ChIJya0HHgAnSTcRsQ9Ktw_4WRo","SASC Filling Station","Meitram NH-02, Tiddim Road, Imphal","24.743536","93.8686237","true"
"ChIJ5eJLOFAvSTcRJQGLCohmqys","IndianOil","Ground Floor Malom, near DM College, Imphal","24.7434011","93.868601","true"
"ChIJL5WoHQAvSTcR5t3ZzLn-gU0","Petrolpump site","PVVC+H36, National Highway 2, Changangei","24.7439194","93.8701506",""
"ChIJl-FVbxsvSTcRyRSq8w9b9DM","Utlou oil pump","PVH2+765, National Highway 2, Yarou Meitram","24.7281472","93.8506104",""
"ChIJIwz57WgvSTcR4YYDk-EyRTc","chaningleima service station","NH-150, Phoijing Awang","24.7273813","93.84863329999999","true"
"ChIJnc1zqGIpSTcRwmpwefmxN4s","IndianOil","Ground Floor Changangei, Tulihal","24.7626924","93.8873977","true"
"ChIJy486BWIvSTcR5EgFDTez1Wk","IndianOil","Ground Floor, Phoijing, Bishnupur","24.7178701","93.85823959999999","true"
"ChIJSZxDPY0uSTcRjq_AyOVUNeE","IndianOil","Ground Floor, NH 150, Nambol - Heigrujam Road, Bazar, Awangjiri","24.722419","93.843868","true"
"ChIJyT6NsV8tSTcRZa_KvUuGJ70","IndianOil","Ground Floor, Nambol Heikrujam Road Imphal West, Awangjiri","24.737914","93.8245872","true"
"ChIJ00lHi1cvSTcRoUF5DaMbfgE","Hindustan Petroleum Corporation Limited","No 106, Hiyangthang","24.7576787","93.9041992","true"
"ChIJATZ50uYvSTcRjbeR7MiJ3No","IndianOil","Ground Floor, Arong, Hiyangthang, Imphal","24.7174901","93.896198","true"
"ChIJWWF2IVgvSTcRrXimOXasWzw","IndianOil","Ground Floor, Awangjiri, Utlou","24.7052623","93.85415789999999","true"
"ChIJFwN4UAArSTcRSzC-JfBPBpQ","SLHS BPCL OIL PUMP","QR98+46Q, Makha Leika, Moidangpok","24.7680857","93.8171479",""
"ChIJS8QDWwApSTcRIQwv3mDFO6U","Petrol Pump","QVQQ+PPM, Toubungkhok, Road, Imphal","24.7890488","93.89017969999999",""
"ChIJO4ODtPsvSTcR3S_elstYqWo","Hindustan Petroleum Corporation Limited","Ground Floor Wangoi, Samurou","24.715087","93.904762","true"
"ChIJOYpEKxwmSTcRIPyi83QXdHE","Emoinu Oils","QWG5+9JJ, Imphal","24.7759621","93.9090299","true"
"ChIJgegaCJkoSTcRQ7pxtDNpPnc","IndianOil","Ground Floor, near DM College, Shadokpham Road, Shadokpham, Imphal","24.7862053","93.89865019999999","true"
"ChIJ4RUqYx4mSTcRiNQ_rKaPRHI","M/s Krishnadas service station","Ghari","24.7770272","93.9086521","true"
"ChIJSRUhwPApSTcRC4vm6uGTyl8","Hindustan Petroleum Corporation Limited","Ground Floor, Part 3, Patsoi","24.7964033","93.8788907","true"
"ChIJa4p1Oe4lSTcR3phNdphSL5E","IndianOil","Ground Floor, Khaidem, Imphal","24.7215076","93.9148668","true"
"ChIJ0cLIhI0oSTcRNJEv3H017Fc","IndianOil","Ground Floor, Langjing Achouba, near DM College, Imphal","24.795218","93.88886199999999","true"
"ChIJQaybEtAnSTcRIMI8Ke0Xo_c","IndianOil","Ground Floor, NH 137 A, near Manipur University, Monsangei","24.7618428","93.9214829","true"
"ChIJzWXFHNwrSTcR5wsMefxFOrc","Keithelmanbi Petrol Pump","QR84+WCG, Keithelmanbi","24.7673103","93.80607599999999","true"
"ChIJr99ExY8nSTcRikfTmxDnUh0","IndianOil","near DM College, Ground Floor CC Pur Road, Sangaiprou, near DM College, Imphal","24.780313","93.91363009999999","true"
"ChIJDa9IlionSTcRH1VG-AHtywA","IndianOil","Ground Floor Langjing, Imphal - Silchar Road, Imphal","24.7956695","93.8958127","true"
"ChIJ5_-CwG0nSTcRRXAbWRykWcs","M/S Y. S. Service Station","QWJ8+X98, Sangaiprou Mamang Leikai, Imphal","24.7824042","93.9159554","true"
"ChIJY4QlrR4rSTcRaled8-CyF5A","IndianOil","near CRPF, Ground Floor, JNV Rd NH 37, Langjing, Keithelmanbi, Khumbong, near CRPF, Imphal","24.770035","93.80032299999999","true"
"ChIJlc1KQAEnSTcR8Wvhuu-OwM8","IndianOil","Ground Floor, Ningthemcha Karong, near Heirangoithong Bridge, Imphal","24.772787","93.92646540000001","true"
"ChIJyw60bu4nSTcRaeXNDMP6-ts","Hindustan Petroleum Corporation Limited","No 45, Airport Road, Imphal","24.784706","93.91884689999999","true"
"ChIJSxB6ebAtSTcR-44b4XJjcw4","Nambole Refilling Outlet","Maibam Chingning, Tiddim Road, Bishnupur","24.7025529","93.8117757",""
"ChIJr1n1V9MlSTcRR1GjaiDQD3M","IndianOil","Ground Floor, Kyamgei Palli, near Manipur University, Imphal","24.747747","93.93532599999999","true"
"ChIJQeWCeWsmSTcRzJ7CgUr2UfQ","IndianOil","near DM College, Ground Floor Mayai Lambi Road, near DM College, Heirangoithong Bridge, Imphal","24.776037","93.92893199999999","true"
"ChIJgx66VbcpSTcRwCB6u5Wm-SA","IndianOil","Ground Floor, near DM College, Iroisemba, Imphal","24.8081455","93.8974614","true"
"ChIJtWPPYlMlSTcR10RxejQo4Hc","Waikhom filling station, bpcl","QW4Q+GPM, Thongju Part II, Imphal","24.7563315","93.93929999999999",""
"ChIJoX0A_jEmSTcRNeuZWy6FJ0w","IndianOil","Ground Floor, DM College, near DM College, Tera Bazaar-Nouramthong Road, Sagolband, Imphal","24.7992501","93.91674010000001","true"
"ChIJOZ7tejgmSTcRH9QKMNEdsTA","IndianOil","Ground Floor, near DM College, NH 150, CCPur Rd, Kwakeithel Thokchom Leikai, Imphal","24.791337","93.92604299999999","true"
"ChIJuyAy71AmSTcRWen7Xda_UVo","IndianOil","Ground, near DM College, Moirangkhom, Imphal","24.7954297","93.9404299","true"
"ChIJBzDReTQnSTcRtbgZSRP402A","IndianOil","Ground Floor, Bashikhong Torban, Khongman","24.7527921","93.94705569999999","true"
"ChIJe8UyvU4nSTcR_tnFIU1Ha_Y","IndianOil","near Manipur University, Ground Floor Part 1 Pheijaleitong, Thongju, near Manipur University, Imphal","24.759961","93.941323","true"
"ChIJP6jne2YmSTcRqlIQ55-s17Y","Bharat Petroleum NES Imphal City-3","India","24.775881","93.93900219999999","true"
"ChIJzfIEhoQlSTcRFS9TcyZtiJA","IndianOil","Ground Floor Moreh, Road, Lilong Chajing","24.714125","93.942527","true"
"ChIJWQHls18mSTcRDdrIpnPJB04","Bharat Petroleum South City Petroleum","QWMV+7W6, Singjamei - Kongba Road, Singjamei, Imphal","24.7831583","93.9447782",""
"ChIJKw3ET6cnSTcRMuO4ot1qR88","IndianOil","Ground, near DM College, Churachandpur Road, Imphal","24.7853593","93.93636599999999","true"
"ChIJyel-d4_XSDcRyGLsa6s2hXI","IndianOil","Christan Centre, Ground, Mayang Langjing, Haochong","24.7853593","93.93636599999999","true"
"ChIJTe7Ua7wmSTcRo9dkAkZlcss","IndianOil","Ground, near DM College, Takhok Awang, Imphal","24.7853593","93.93636599999999","true"
"ChIJv6gSZFwmSTcRFabnAbUsR3I","IndianOil","Ground Floor, near DM College, Singjamei, Imphal","24.7861445","93.939689","true"
"ChIJ7XrxyPMmSTcRhEzyTZGda-s","IndianOil","Ground Floor, near DM College, Singjamei - Kongba Road, Chingangbam Lekai, Khurai, Imphal","24.7855701","93.954154","true"
"ChIJt_88__0nSTcR0wZ1cZKgYYQ","Cosmo Fuel Care (BPCL)","near Kongba Uchekon, Kongba Uchekon","24.7759721","93.9692761",""
"ChIJIz2Tz0snSTcRPZXGQwusL4A","IndianOil","Ground Floor, Kongba Road, lairenpak, Imphal","24.7737145","93.97142629999999","true"
"ChIJcWpVl60nSTcRvUH9lRBGcDc","IndianOil","Ground Floor, near DM College, Elenagbam Leikai, Keishamthong, Imphal","24.79107089999999","93.93666879999999","true"
"ChIJRfUeGgIlSTcRaZs6sGgOzUI","Hindustan Petroleum Corporation Limited","No 16, Lilong","24.7033985","93.94593850000001","true"
"ChIJzaTp7kgmSTcRtYSUfRWpK04","IndianOil","Ground Floor, Keisampat Market, near DM College, Tiddim Road, Imphal","24.79540799999999","93.9300501","true"
"ChIJNWuwya4nSTcRUfhwlKbRcRw","NRL Oil pump Ayangpalli","QXQ5+XR7, Kongkham Leikai","24.7899199","93.9595336","true"
"ChIJvQa7q-8mSTcR82CUnNMmU7M","Bharat Petroleum Wangkhei Ayangpalli Petroleum","India","24.7899911","93.95957639999999",""
"ChIJCR3q7eEnSTcR29aw91Ko8Sk","IndianOil","Ground Floor, pukhri mupal, Sayang Road, Imphal","24.7965479","93.9213946","true"
"ChIJ_1B3IwAnSTcREmxH5iD-EWg","M/S KEIKHU FELLING STATION","QXP9+9R9, Naharup Pangong Makhong Road, Makha Leikai, Imphal","24.7859048","93.96959629999999",""
"ChIJvxHoKQAnSTcR8QOUXOvMubE","Bharat Petroleum AZ Service Station","Angom Colony, Lairikyengbam Leikai","24.7995648","93.95023839999999",""
"ChIJt3qiIxIlSTcRcxJift1KyFM","IndianOil","Ground Floor, Lilong Chajing","24.692671","93.949524","true"
"ChIJkyYXAwAnSTcRvyQufPLrw0o","Patrol Pump Bharat Petroleum","RW3F+35F, Sagolband Bijoy Govinda Leirak, Sagolband, Imphal","24.8026914","93.9229184",""
"ChIJoRaDav4mSTcR3aI9aqVTW3Y","IndianOil","Ground Floor, near DM College, N S Road, Palace Gate Home Church Lane, Imphal","24.803095","93.95089399999999","true"
"ChIJMSXrN0gnSTcRqzY90CQFJjg","IndianOil","Ground Floor, near DM College, Uripok Kangchup Road, Imphal","24.807627","93.9276501","true"
"ChIJP59VRsgnSTcRXBXB07WlHp4","Uripok Energy Station (BPCL)","RW4F+XPJ, Uripok Ningthoukhongjam Leikai, Uripok Ahanthem Leikai, Uripok, Imphal","24.8074595","93.92425689999999",""
"ChIJdTHrSHUnSTcR8Alk31cU_ao","IndianOil","Ground Floor, near JNIMS Road, Ayangpalli Road, Awang Konmgpal, Wangkhei, Porompat","24.805444","93.957742","true"
"ChIJwUltNgInSTcR18NnQMeI1zY","Bharat Petroleum","India","24.807268","93.95333169999999",""
"ChIJkTcr_BIlSTcR3QdZK0O_pyU","A ahmed","MWMR+888, Chingkham Road, Chingkham Hill, Chingkham Kabui, Haoreibi","24.6832827","93.94082859999999",""
"ChIJl7AO4zElSTcRiXI9PxT_gaA","IndianOil","Ground Floor Ushoipokpi, Arapti","24.68316699999999","93.94044199999999","true"
"ChIJjc3szaEnSTcRz7Ghx_9uZtE","M/S LR LOKTAK FILLING STATION","Awang Leikai, Ningthoukhong, Imphal","24.8109862","93.92363929999999",""
"ChIJH6KVb0UnSTcRkWslhyoy9fk","Manipur Gas","RW7P+8MM, Majorkhul North Street, Majorkhul, Thangal Bazar, Imphal","24.8133328","93.9366869",""
"ChIJiRP4yH0jSTcRlokg3TECuHU","IndianOil","Ground Floor, Andro, Imphal","24.715414","94.02887899999999","true"
"ChIJS2CDfRAjSTcRA4SJbLjcpBI","IndianOil","Ground Floor Yairipok, Angtha","24.68394","94.038118","true"
"ChIJdWGIDpIpSTcRN-fQ1W-Ndmk","Hindustan Petroleum Corporation Limited","Ward No 1, Mamang Lekai, Lamshang","24.823871","93.86397099999999","true"
"ChIJK4-iBCUpSTcRv8rklLG_hHI","IndianOil","Lamshang","24.8283232","93.8564802","true"
"ChIJF3Iqq8MpSTcRlmWfiVYF5iI","Akham Energy Station","RVR8+G2C, Mayang Langjing - Lamshang Road, Mayang Langjing","24.8413186","93.8650152",""
"ChIJXVYtOD8pSTcR3lbhf3sRI_s","IndianOil","near CRPF, Ground Floor Langjing, Tera Uthak, Lairensajik, near CRPF, Imphal","24.845035","93.83166399999999","true"
"ChIJkRn1J_ApSTcRg4GTi4dfyMk","IndianOil","Ground Floor, Langol, Meitei, Near, DM College Road, Imphal","24.838604","93.90587599999999","true"
"ChIJ84s5m14oSTcRgcU899IYlcI","IndianOil","Christan Centre, Ground Floor, Kangchup, Rd, Lamsang, Haochong","24.8363104","93.80868319999999","true"
"ChIJE7tkujYnSTcRRdhOtHxFt5A","Mahipal Petrol Pump","Lamphel Road, Lamphelpat, Imphal","24.8206355","93.92625849999999",""
"ChIJjXuf104nSTcRwpiVfCg6VCo","IndianOil","Ground Floor, near DM College Road, Lamphelpat, Imphal","24.82696799999999","93.93059009999999","true"
"ChIJ30S63DcnSTcRssN4H4SKxrQ","IndianOil","near DM College, Ground Floor NH 150, near DM College, Khoyathong, Imphal","24.8152101","93.94002499999999","true"
"ChIJNwLohp4nSTcR2ngdqWn4WDQ","IndianOil","Ground Floor, near DM College Road, Dimapur Road, Chingmeirong, Imphal","24.833409","93.94476499999999","true"
"ChIJo1u8kg8nSTcRnEW2ytHolhU","NRL Pump","KHURAI THANGJAM LEIKAI, PO LAMLONG, BAZAR, PS POROM, Imphal","24.8173379","93.95592099999999","true"
"ChIJayWUnHLYSDcRYNU5eybn670","IndianOil","near DM College, Ground Floor Imphal Dimapur NH, near DM College, Khabam Lamkhai, Imphal","24.864317","93.9288401","true"
"ChIJnwt8QxPYSDcRE9V4ZdF5-KI","Kangleipak Service Station","VW9G+V67, Luwangsangbam Makha Leikai, Luwangsangbam, Imphal","24.8696615","93.92555899999999","true"
"ChIJz8v-7agnSTcR3jPTVJG7ths","IndianOil","Ground Floor, near DM College, Dimapur Rd, North A, O C, Imphal","24.815134","93.94369499999999","true"
"ChIJQ5RXqaEnSTcR6AjAYIQ7USk","IndianOil","Ground Floor, near DM College, Dingku road, Khongnang Ani Karak, Imphal","24.82596299999999","93.94381299999999","true"
"ChIJJ3kEM6AnSTcR3rCbP9PRK1w","IndianOil","Ground Floor, near DM College Road, Road, Chingmeirong, Imphal","24.82779499999999","93.944572","true"
"ChIJr9d79KMnSTcRbyyzp3vEPSg","MS PG PETROLEUM AGENCY","Chingmeirong, Imphal","24.8276468","93.94487769999999",""
"ChIJyX886AYnSTcRUGUJfuPl5wY","IndianOil","Ground Floor, Chingmang, Lamlong Bazaar, Sawombung","24.812198","93.95041599999999","true"
"ChIJM5Y-LSsnSTcR_wF2MEA9jE8","MS Manipur Gas","RWMW+VM2, Sangakpham Bazar Near Don Bosco School, Chingmeirong, Imphal","24.8346485","93.9466412",""
"ChIJh6AztFsnSTcRXvgsYP4B1v4","IndianOil","GF, Minuthong to, Junction, Lamlong Bridge, Khurai Thangjam Leikai, Chingmang","24.819447","93.957276","true"
"ChIJFznDVbEnSTcRyfmi93Wrryo","M CUBE filling station","M Cube Filling Station, Khurai Thangjam Leikai, Imphal","24.82188949999999","93.95727219999999",""
"ChIJHSdGVZknSTcRNopJUG3QzwE","IndianOil","Ground Floor, Khongnang Karak, Near, Lamlong Bridge, Imphal","24.8242701","93.958485","true"
"ChIJjxAlbJcnSTcRsZvDswICRdM","IndianOil","Ground Floor Imphal Ukhrul Rd, Chingmang, Khurai, Imphal","24.82592099999999","93.9647501","true"
"ChIJCfpcPRcnSTcRkZBeCZmopzQ","IndianOil","Ground Floor Khurai, Lamlong Bazar, Chingmang","24.8291461","93.9686471","true"
"ChIJeTUIkEMnSTcRhS9Alxudhq8","Janeshwor Service Stations","Imphal - Ukhrul Road, Khurai Thongam Leikai, Imphal","24.8291874","93.96911310000002",""
"ChIJ_ySfoVAnSTcRc6k1i-7zBqM","IndianOil","Ground Floor, near DM College, NH 39, Mantripukhri, Imphal","24.851801","93.935676","true"
"ChIJPfdTOgAnSTcRGNO3WsmpHnY","Laxmi Service Station","16, Khurai Thongam Leikai, Imphal","24.8231817","93.9730033","true"
"ChIJd4FhinbYSDcRnJuYJgWQHmA","NRL Oil Pump","near NRL oil Pump, Chumbrei Thong, Mantripukhri, Achanbigei, Imphal","24.8557703","93.9328627","true"
"ChIJJ9Mji3bYSDcRjmyIF7rUQjM","Bharat Petroleum","India","24.8558355","93.9329515",""
"ChIJlwc-RjcnSTcRH9Cyxk7ZUGI","IndianOil","No 49, Bheigyabati Leikai Brahmapur Mangji, Chingmang","24.82274199999999","93.97864009999999","true"
"ChIJSRrIwCInSTcRACxeyaSn9pA","PETROL PUMP KHURAI KHOMIDOK","RXW9+5VM, Imphal","24.8454625","93.9696719","true"
"ChIJUYcaklEnSTcRS0EobLunuVM","IndianOil","Ground Floor NH 150, Angom Leikai, Khabeisoi, Imphal","24.8412801","93.982124","true"
"ChIJlRa_vpffSDcRXGU3mXfWp0w","IndianOil","Chingarel Tejpur, Ground Floor, Waiton Chingarel Rd Waiton, Chingmang","24.866254","94.006222","true"
"ChIJIeba4IPfSDcRsSwtG-EGja8","MS CHINGAREL TEJPUR","Chingarel Tejpur, Imphal - Ukhrul Road","24.8662957","94.0061229",""
"ChIJx2YU0IPfSDcRDZcijaBhvs4","IndianOil","Ground Floor, near Lamlai, NH 202, Imphal - Ukhrul Road, Sawombung","24.8726874","94.0145465","true"
"ChIJUVfbRtLfSDcRHqhUjxu3LGg","IndianOil","Ground Floor Huyumpok, near DM College, Paorabi Road, Imphal","24.873783","94.01352299999999","true"
"ChIJcQ70SJTfSDcRY3fTTTctLcE","A & I OIL STATION","Lamlai","24.869604","94.04541119999999",""
"ChIJVZueNgDfSDcRbP8RgbeqPew","Hindustan Petroleum Corporation Limited","Ground Floor, Bazar, Imphal - Ukhrul Road, Lamlai","24.869814","94.052803","true"
"ChIJP684zCTXSDcR7qAtUH_3LpA","IndianOil","Ground Floor Pheidinga, Ahallup, Imphal","24.902101","93.884001","true"
"ChIJYyEfCg3XSDcRCSa4D0rsLfE","Tendongyan Petrol Station","WV6M+HC8, Tendongyan","24.9114011","93.8835758","true"
"ChIJ6T8Vx0XXSDcRUVERNrTdOCo","Khonghampat Petrol Pump","VVPX+QQR, Khonghampat","24.8869849","93.8993965",""
"ChIJC1R6RDPXSDcRfWdVKSwVoik","IndianOil","Ground Floor, Lamhang, Maharabi","24.9288411","93.87958839999999","true"
"ChIJI-dZegTZSDcRMhVb6SxlL7M","Langam Nganthoi","W7X, Imphal","24.8984955","93.9108083",""
"ChIJMWzfzAnZSDcRh6C-GUaBFhg","IndianOil","Ground Floor, near DM College Road, Leikinthabi - Koirengei Road, Koirengei, Imphal","24.889194","93.916176","true"
"ChIJCUMtPADXSDcRyr3c30HB2vo","Helipad","WRWX+FGV","24.9462334","93.84879389999999",""
"ChIJE2BWkzHZSDcRR-4zaKuLjxk","IndianOil","Ground Floor, NH 2, Imphal Dimapur Rd Ahallup, Khabam Lamkhai, Luwangsangbam, Imphal","24.861111","93.931165","true"
"ChIJx4i_yRHfSDcRZzCOpIzpTIg","G.P.S. OIL SERVICE STATION","Imphal-Saikul Road, Yumnam Khunou","24.9242591","93.9914372","true"