place_id,name,address,latitude,longitude
"ChIJJRLGnRPO5zsRZSpJgPEs-aE","HP Petrol Pump","3, Maulana Shaukat Ali Road, Grant Road East, Khetwadi, Girgaon, Mumbai","18.9610079","72.8200425"
"ChIJ1wXm72zO5zsRi2yflxtatfY","Bharat Petroleum Corporation ltd","Police Station, near Agripada, 14A, Doctor Anandrao Nair Marg, Mumbai","18.9751859","72.8234232"
"ChIJbU3taB7O5zsRETQqIptpdMI","IndianOil Petrol Pump (Marine Lines)","A & B, Plot No 100, Netaji Subhash Chandra Road, Mumbai","18.9440219","72.8231823"
"ChIJ____v3XO5zsRevUGR3BJNss","New Kampala Service Station","Anand Arshan, next to Jaslok Hospital, opposite Doctor Houses, Doctor Gopalrao Deshmukh Marg, Mumbai","18.9724894","72.8095664"
"ChIJRSsboCbO5zsRgi2fslIRmnE","Bharat Petroleum Corporation ltd","Mohammed Ali Road, Carnac Road, Mumbai","18.9487978","72.83521"
"ChIJa-FQg_rO5zsR89yGG2x-VFs","Bharat Petroleum Corporation ltd","No 142, Lamington Road, Girgaon, Mumbai","18.96465","72.81980999999999"
"ChIJlbaelTzO5zsRvntYKJD0TLg","IndianOil Petrol Pump (Bhuleshwar)","Telephone Exchange, near Madvi, 26, Mohammed Ali Road, BP Lane, Mumbai","18.9558839","72.8325487"
"ChIJ1_WjVyTO5zsRwUbMpy_bwM0","Exxon","Shop no. 34/4, Devkaran Nivas, 7th Floor, Samuel Street, Issaji Street, Masjid Bandar West, Masjid Bandar, Mumbai","18.9517982","72.8360967"
"ChIJw6YqpC_O5zsRmEksGEY2_5Q","BPCL Petrol Pump - Varma Automobiles","85, P D'Mello Road, East, Masjid Bandar, Mumbai","18.9529047","72.8417857"
"ChIJdWKoEy_O5zsR4sM83fnVWWA","Hindustan Petroleum Corporation Limited","opposite vyapar bhawan, 95, P D'Mello Road, Carnac Bunder, East, Masjid Bandar, Mumbai","18.9513763","72.84150749999999"
"ChIJl62lu0HO5zsRBZkWg4PM7Wc","Hindustan Petroleum Corporation Limited","next to Piccadilly Flats, Ground Floor Clare Road, next to Piccadilly Flats, Chamber Lane, Byculla, Mumbai","18.9692758","72.8298389"
"ChIJjT9vlkjO5zsRhqp8NbYABng","Universal Motors Bharat Petroleum Pump","Jindal Mansion, Rambhau Bhogle Marg, Thakkar Estate, Byculla, Mumbai","18.9708189","72.8407756"
"ChIJAZkSV2fO5zsRWAx-0exCgZ8","IndianOil Petrol Pump (Jacob Circle)","next to Kasturba Hospital, Sane Guruji Marg, next to Kasturba Hospital, Arthur Road, Agripada, Mumbai","18.98524129999999","72.8308533"
"ChIJXV8sjdDR5zsRbutEQ8BSWHA","Bharat Petroleum Corporation ltd","Ground Floor, R Kamani Road, Ballard Estate, Fort, Mumbai","18.93751259999999","72.839832"
"ChIJX5ORQnDO5zsRRBJS0JbJ7gA","Hindustan Petroleum Corporation Limited","opposite Air Cond Market, 75, Tardeo Road, Mumbai","18.974041","72.814071"
"ChIJP81ngQnO5zsRnP8njVDKFq4","Petrol Pump","b4, Malabar Hill, Mumbai","18.9573653","72.8069685"
"ChIJq6U0R3XO5zsRUEctNHQPm7g","IndianOil Petrol Pump (Cumballa Hill)","opposite tata Sanatorium, August Kranti Road, Cumballa Hill, Mumbai","18.9643122","72.8056601"
"ChIJhR_Xmd_N5zsR5s6P3AbQuTE","IndianOil Petrol Pump (Cumballa Hill)","100, Bhulabhai Desai Marg, Breach Candy, Cumballa Hill, Mumbai","18.9655882","72.8034536"
"ChIJx6Jbt1LO5zsR12uQb4lkikM","LAXMI ENTERPRISES (BPCL)","XVJ2+5C8, Signal Hill Avenue, Brick Bunder Tank Road, Reay Road, Mumbai","18.980417","72.8510861"
"ChIJw6XdfF_O5zsRP1An_zs3U-I","Hindustan Petroleum Corporation Limited","next to Creative Industrial Estate, Ground Floor, Sitaram Mill Compound NM Joshi Marg, next to Creative Industrial Estate, Delisle Road, Mumbai","18.988625","72.831255"
"ChIJP4rXIOnF5zsRyZLj-nJYFnQ","Hindustan Petroleum Corporation Limited","Ground Floor, Mahul, Mumbai","19.0114601","72.9014401"
"ChIJjYF_TwDF5zsRPav4zY-En9U","JD Metering Station ONGC","XW64+63, Navi Mumbai","18.9606158","72.9051444"
"ChIJs369S8Pc5zsRdBYM0U0tMe0","IndianOil Petrol Pump (Panvel)","Lock No 11028, Jasai Naka, near BG Shirke Company, Uran - Panvel Road, Panvel, Navi Mumbai","18.943091","73.028211"
"ChIJSYUK_-nc5zsRDHcgcb6tTXA","Bharat Petroleum","India","18.9376575","73.0229183"
"ChIJlZp7xMfd5zsRkOj-ynfEDis","S.R brothers automobile (bpcl fuel station)","near jasai, At post polish station, near jasai, Uran - Panvel Road, Jasai","18.9374588","73.0229253"
"ChIJYWhdHjbd5zsRU-LYhCeaBBo","Reliance Petroleum","Survey No 132, H No 5, Uran, Jasai","18.9392193","73.03228829999999"
"ChIJnfLubvfc5zsREizk47rLhNg","Hindustan Petroleum Corporation Limited","Survey No, 1/32A & 1/33, National Highway 348, Uran, Jasai, Paundkhar","18.919168","73.0277912"
"ChIJcY7SO63d5zsRZLvbTSwWngE","Jay Bhawani Petrol Pump","JNPT Road, Navi Mumbai","18.91887999999999","73.0277845"
"ChIJyTyHLQDd5zsRRVBXuJhZM_A","SEABIRD EMPTY CONTAINER DEPOT","W27H+R5Q, Dhutum","18.91459979999999","73.02798299999999"
"ChIJu9QBAADD5zsRhJLDFbRA3nU","Koreshwar Petroleum (JAYWANTRAO PATIL)","X374+W2R, near JWL LOGISTICS, JNPT Road, GAVANFATA, Ulwe, Navi Mumbai","18.9648529","73.0550222"
"ChIJEwaLgpLd5zsR7exaxaT_3ok","IndianOil Petrol Pump (Lodhivali)","42/2B/142/442/542/842/942 & 42/1143/6 &7 Dhutum, Uran - Panvel Road, Lodhivali","18.912754","73.0253881"
"ChIJgXi0LADD5zsRdHiU4oaSorE","Mahanagar Gas CNG Station","X2MG+CVQ, Sector 2, Ulwe, Navi Mumbai","18.9836903","73.0275158"
"ChIJPzAxGmLd5zsRZ-dYOEcEZds","Hindustan Petroleum Corporation Limited","Survey No 47/1E,47/2, 47/1B, Uran SH 104, Gavhan Phata Chirner, Road, Dighode","18.913416","73.045883"
"ChIJmzJf3Kjd5zsRJMHeQiOVA3Y","Mahanagar Gas CNG Station","Dighode","18.9131581","73.0461483"
"ChIJWVKeuF3c5zsRC8t7-syeUW4","IndianOil Petrol Pump (Jaskhar, Sector 1)","near JNPT Road, Plot No 103A, Shikhar Dronagiri Node, Uran, Jaskhar, Sector 1, near JNPT Road, off NH 4B, Raigarh","18.9071355","73.0189347"
"ChIJYRdk7tjn5zsRdJMCTBZr0Bw","Jio-bp","Sy No 10/5, 10/6, 10/7A, 10/7B Jnpt Palaspe Phata Road, NH 4B, Panvel Bypass, Nandgaon, Navi Mumbai","18.9680982","73.1194921"
"ChIJcVt5cyvm5zsRKe1Q0LYl6uI","Vaibhav Automobiles","NH 4, Mumbai-Pune Road, Village kolkhe, Post OMGC, Kolkhe","18.966173","73.13888279999999"
"ChIJN93fi7Xn5zsRvibxnijDa8I","Indian Oil Petrol Pump","W4XJ+396, Sakinaka, Chirvat","18.9476604","73.1308975"
"ChIJt0kUrEHo5zsR83HZKYpSRCw","Bharat Petroleum, Petrol Pump -Anashwara Auto Service","Panvel Industrial Co-Op Estate Road Panvel Industrial Estate, HOC Colony, Panvel, Navi Mumbai","18.9949992","73.1145782"
"ChIJqR3I34Xn5zsRhwH5A2ZEDAw","M. M. Enterprise","X4CM+696, village, Kolkhe, Navi Mumbai","18.9705377","73.1333863"
"ChIJQTAGkEDn5zsRIBfmSL66Gdo","Shrijal Puc Center","Shop No 06, Palaspe Phata, Panvel, Navi Mumbai","18.9707032","73.1314299"
"ChIJOSw6aX_o5zsRVu5mKif0ZJI","Mahanagar Gas CNG Station","NH4, Peth, Kolkhe Village, Panvel, Navi Mumbai","18.97130809999999","73.13182619999999"
"ChIJxb8Ef3_o5zsRRdeniXnraLY","Hindustan Petroleum Corporation Limited","Khata No 86, Palaspe Phata Kalokhe, S No 121, Mumbai - Pune Highway, Panvel, Navi Mumbai","18.971231","73.131731"
"ChIJjYeRe2jp5zsRRx7A4lf18qE","IndianOil Petrol Pump (Panvel)","Ground Floor, Lodhivali, Navi Mumbai","18.9718138","73.1309658"
"ChIJbVgxK4Tp5zsRasfmPHS8BA8","Bharat Petroleum, Petrol Pump -A.G.Jajal & Sons","Panvel, Palaspe Phata, Panvel, Navi Mumbai","18.9718541","73.13100179999999"
"ChIJl37CMtTn5zsR-4sArispn1o","IndianOil Petrol Pump (Panvel)","Gut No 94/1/B Kolkhe, Panvel, Lodhivali","18.9673825","73.1283843"
"ChIJ3bSSA0Pn5zsRYnfzyW3-y3Q","Shell petrol pump Kolkhe panvel","Taluka Panvel Nh 48, Old, Nh4, Navi Mumbai","18.96471","73.14117999999999"
"ChIJS40mWXfo5zsR8bvivfNccU4","Mahanagar Gas CNG Station","X4FF+X54, National Highway 4, Kalundre Gaon, Panvel, Navi Mumbai","18.974897","73.1229575"
"ChIJ5ZGVWHfo5zsR4HeBrS97Wj8","Hindustan Petroleum Corporation Limited","Survey No 49, near ONGC Gate, 3/A, Mumbai Pune Road, Kalundre Gaon, Panvel, Navi Mumbai","18.974911","73.122961"
"ChIJKf594fjp5zsRC61SRiUP1mc","SK Highway Online Puc","Shop No 05, Palaspa, Panvel, Navi Mumbai","18.975104","73.12293"
"ChIJo76A3N3n5zsR6xTyqBD3HqQ","Century Fuel Station","Century Fuel Station, Shirdhon, Panvel, Navi Mumbai","18.9496643","73.1310767"
"ChIJj4I4FwDn5zsRkCj8cQTGY3c","M/S koreshwar petroleum bambavi","JNPT Rd, &, National Highway 348, Navi Mumbai","18.96917699999999","73.1138544"
"ChIJO3cyFgDp5zsR1yFA_bbvfs4","CNG Pump","410206, Sector 16, New Panvel East, Panvel, Navi Mumbai","18.9881368","73.1283618"
"ChIJffl9VFfp5zsRZegkw3tT8SY","IndianOil Petrol Pump (Panvel)","Plot No 296, Pune Road, Panvel, Mumbai","18.98398049999999","73.1161595"
"ChIJxdyLeQDp5zsRHKpiCjb6Ixo","SAVITRI FUELS Bharat petroleum","X4P9+WPP, Takka Road, Sector 21, Forest Colony, Panvel, Navi Mumbai","18.9873312","73.11932879999999"
"ChIJ3dMlmCTl5zsRTnVMTEWBZqw","Vicky and Tejas Automobile CNG Station","W627+Q9V, Lodhivali","18.9019787","73.2134224"
"ChIJl79uD9_l5zsR6PtBeiCs_Pg","Mahanagar Gas C.N.G Pump","W627+W86, Lodhivali","18.902277","73.21328009999999"
"ChIJT1SFNADl5zsRC6J4exhh_9g","Mhanagar gas CNG pump","V5WP+R88, Dand Apta Road, Rasayani","18.8964873","73.18664919999999"
"ChIJ5zQyyOnl5zsRf-O8rNlaxAM","Bharat Petroleum, Petrol Pump -Gurugobind Motors","NADHAL, NH4, DIST RAIG, RAIGAD","18.9021347","73.22190979999999"
"ChIJw2tz6fvj5zsR83ibSCeFXOg","Reliance Petrol Pump","V5HQ+2PP, HOC Colony Rd, Vat","18.8775823","73.1893247"
"ChIJFcyGyIjk5zsR-Iw7mibA0dI","Hindustan Petroleum Corporation Limited","Ground Floor, near Agarwal Packers, Manivali, Khalapur, Navi Mumbai","18.9017201","73.23446009999999"
"ChIJO_qUra3m5zsR8Qv067-i-1k","Hindustan Petroleum Corporation Limited","near Police Station, Plot No P/33, MIDC Industrial Area, Patalganga, Rasayani","18.886341","73.173046"
"ChIJGzrqsK3m5zsRclVh7-zW0o0","IndianOil Petrol Pump (Patalganga)","Lock No 11010 MIDC, Panvel, Mazgaon, Patalganga, Near Truck Terminal","18.8867491","73.172613"
"ChIJB7S7v_Hn5zsRvkCaw0xEHJ8","Bharat Petroleum, Petrol Pump -Bhimsen Mali And Sons","RASAYANI, RAIGAD","18.88600929999999","73.17235269999999"
"ChIJx7GAR0nLzzsREdGJt97sLrM","Jio-bp","near Borivali, Plot No 16, SH 81 Mumbai Goa NH 17, near Borivali, Patalganga","18.8932829","73.1657309"
"ChIJPwmZtbDm5zsRsB1pcefl_bw","IndianOil Petrol Pump (Apta)","Lock No 12024, Apta","18.89207099999999","73.16461199999999"
"ChIJTdhjUe0H6DsRUwXBoyBGeuE","Indian Oil Fuel Station and cng","Siraj Dokadia Road, Dahivati Tarf Boreti","18.7903916","73.29989259999999"
"ChIJ73zbxG4H6DsR8QtDCuBX_R4","Nayara Petrol Pump","near Nayara petrol pump, Bazarpeth, Khopoli","18.790915","73.3403775"
"ChIJ9elVnRYH6DsRN32jmyr_m_U","Hindustan Petroleum Booster Plant","Saphale, Mogalwadi, Khopoli","18.7775933","73.34351339999999"
"ChIJ8XU8BU_95zsRrqHVaYk7KUA","Essar Shuubh sales Petrol Pump","Survey No. 3651, City, Parishad, Khopoli","18.82513299999999","73.28453189999999"
"ChIJp1Lub3cH6DsRnKZUwTOhdqw","IndianOil Petrol Pump (Lodhivali)","Ground Floor, Mumbai Pune Expressway, Khalapur, Panvel, Sajgaon","18.79039819999999","73.2998756"
"ChIJ7WjZerUH6DsR48UHoiFMieE","HP Auto Care Centre Sajgaon","near Khalapur Toll Gate, Mumbai - Pune Expressway, TAL, Sajgaon","18.79267979999999","73.2969614"
"ChIJD33mUPIH6DsRfQhlOo2EUWE","Hindustan Petroleum Corporation Limited","Survey No 13, near Khalapur Toll Naka, 1/2A/15/1A/2B &14, Mumbai - Pune Expressway, Khalapur, Sajgaon","18.793025","73.296761"
"ChIJA84JF0wH6DsRsJTDaSRm7DM","Autocare Foodhub","Q7VW+879, Siraj Dokadia Road, Dahivati Tarf Boreti","18.7932759","73.2957333"
"ChIJtQjIHXwH6DsRv6OQxWydeWk","IndianOil Petrol Pump (Sarsan)","Khalapur Toll Gate Mumbai Expressway, Sarsan, Khopoli","18.793707","73.2957211"
"ChIJNTJnEH8H6DsRhvW05wVfm7w","Bharat Petroleum Petrol Pump and CNG , RAM PETROLEUM","Khopoli - Pen Road, VILL, Sarsan","18.799405","73.3025596"
"ChIJV_kU2fUH6DsRR3EYnA3FohI","IndianOil Petrol Pump (Bassein Road)","opposite Bhushan Steel, Ground Floor Khopoli Pen Road, opposite Bhushan Steel, Bassein Road, Nifan","18.8002721","73.2941665"
"ChIJ045Ka_oH6DsREh5jm2HojSE","Hindustan Petroleum Corporation Limited","Survey No 26, Hissa No 1, Khopoli - Pen Road, Paliphata, Dahivali, Khopoli","18.794201","73.28723099999999"
"ChIJqaY_RgAH6DsRgec5TzdYHKg","AEGIS GAS (LPG) PVT LTD Bottling Plant","Plot no 4, Takai - Adoshi Road, Aadhosi, Industrial Area, Honad","18.7705852","73.3074608"
"ChIJqR1aR1UH6DsRcmjLbEi-7G4","Hindustan Petroleum Corporation Limited","Ground Floor, Old Mumbai Pune Highway, Khopoli","18.8016201","73.3238101"
"ChIJR6wYKX8H6DsR-EndYicc87E","BPCL Petrol Pump Hemkunt Auto","4, National Highway, Navanath Colony, Shri Ram Nagar, Khopoli","18.8009313","73.3246185"
"ChIJCVnDfgD95zsRNQpx3BvVodQ","MAHANAGR CNG PUMP","R857+XW9, National Highway 48, Millat Nagar, Hal Kh.","18.809913","73.3149443"
"ChIJ_6VFYkr95zsRWNPbEcvc2IA","Mauli Enterprises Mahanagar Gas","77/4, 5, Hal Budruk Next to Reliance petrol pump Mumbai, old expressway, Pune","18.8100105","73.3147975"
"ChIJJe1OED395zsR-beH4V6qZXM","Reliance Petrol Pump, Khopoli","77/1, 2, Old Mumbai - Pune Highway, Hal Budruk, Khopoli","18.8101437","73.3144927"
"ChIJqRPbrkH95zsRaQfU_c7qb6I","Hindustan Petroleum Corporation Limited","Ground Floor, NH 4, Khalapur, Khopoli","18.80912099999999","73.31723099999999"
"ChIJsyocNFwH6DsRaI3pqrvixAk","IndianOil Petrol Pump (Sangdewadi)","Survey No 8/8, Khopoli Pali Rd, Opp Novotel Adlabs Imagica Hotel, National Highway 548A, Khalapur, Sangadewadi","18.7711085","73.2855649"
"ChIJ0RH8XAYB6DsRMrf9z9Ss1Oo","Hindustan Petroleum Corporation Limited","opposite Kailash Parwat Hotel, NH 4, Old Mumbai - Pune Highway, Lonavala","18.7576329","73.413741"
"ChIJyWSmARAB6DsRRoxUh-NNXts","Hindustan Petroleum Corporation Limited","Ground Floor, Old Mumbai - Pune Highway, Gawliwada, Lonavala","18.7543322","73.4051281"
"ChIJ4aKeAHqqwjsRSJuC5wZlnbY","IndianOil","Gat No 490, Mtdc Resort NH 4, Karla, Maval, Kamshet","18.7604822","73.47134439999999"
"ChIJPa77fQAB6DsRxs1GPWuxEK0","Trinetra Petroleum","QC6H+5Q3, Varsoli, Lonavala","18.7603973","73.4293454"
"ChIJRxrRY3sB6DsRNlD9uVoKXHM","IndianOil","S No 1213, Tal wadga, Kusgaon, Pune","18.76073139999999","73.429189"
"ChIJF3QX-G4B6DsR1NPSb2X8Ook","Hindustan Petroleum Corporation Limited","Gat No 55, Part 1, Varsoli, Pune","18.759402","73.437399"
"ChIJFWPSCgAB6DsRSmILcuuoUMQ","Bharat Petroleum","QC45+63V, Gawliwada, Gavliwada, Lonavala","18.7551758","73.4076753"
"ChIJW0pleAAB6DsRA0cX-Z1gfGk","Jio BP Pulse EV Charging station","z, 75, 136, Takve Kurth, Lonavala, Lonavala","18.75498","73.4041417"
"ChIJrUIGZYgB6DsRpEL_ugiZ1NU","Hindustan Petroleum Corporation Limited","Survey No 70, Hissa No 2 Bhushi, near Legacy Villa, Maval, Lonavala","18.7329109","73.4046327"
"ChIJtYUznNarwjsREBy2s-Kvu7A","Torrent Gas CNG Station","QF6C+8GG, Karla","18.7608075","73.47132979999999"
"ChIJBWuGlDGrwjsRLHp4UfU-HUk","jayesh petro services","karla , old mumbai pune highway, Karla Caves Road, Lonavala","18.7605861","73.4715538"
"ChIJIRe8gP0B6DsRGegJS6ojTTw","Hindustan Petroleum Corporation Limited","near Police Training Center, Ground Floor NH 4, Old Mumbai Pune Hwy, Maval, near Police Training Center, Khandala, Pune","18.7604813","73.3871286"
"ChIJnWsczsurwjsR708nGdustd4","Hindustan Petroleum Corporation Limited","Gat No 624, 625, Mumbai - Pune Expressway, Mawal, Taze","18.7498419","73.51749"
"ChIJC_f9cXOswjsR__cbQrHwao8","Hindustan Petroleum Corporation Limited","Gat No 198, No 1, NH 4, Mumbai Bangalore Hwy, Naigaon, Kamshet","18.7597239","73.5663802"
"ChIJs13srBCpwjsR45Hk_KTxqKc","Hindustan Petroleum Corporation Limited","Gat No 162, Pawna Road, Kadahe, Maval, Kamshet","18.69718929999999","73.5297416"
"ChIJM3wt9eyrwjsRNE2qFUFBYWQ","GAIL SV wadivelli station","QGCM+5V, Wadivale","18.7704238","73.5346627"
"ChIJ6YIPOcKxwjsRPtrdZq740do","IndianOil","Ground Floor, Maval, Talegaon Dabhade","18.7186353","73.6697384"
"ChIJ6eICiCGuwjsR0CMIXgL7Va0","IndianOil","Ground Floor Wadgaon, Maval, Adhale Bk","18.7166866","73.6477034"
"ChIJ6z9XcnKvwjsRcepFSPT5aLs","BP Petrol Pump","on, Mumbai - Pune Expressway, Urse","18.7119385","73.65223519999999"
"ChIJ5-PYJkuvwjsRXHW3pr6iwTA","Hindustan Petroleum Corporation Limited","Hissa No 1, near Expressway, Survey No 118, Maval, Vadgaon","18.725737","73.651319"
"ChIJQYCYNgCvwjsR9-TCubNyNqA","Baba petrol pump indian oil","PJPQ+VHP, Tuljapur road, Osmanabad, Vadgaon","18.7372002","73.6389598"
"ChIJnU7iOQquwjsR9l9G0Wei_Ok","Bharat Petroleum, Petrol Pump -Avadai Petroleum","WADGAON MAVAL,NH4,PUNE, PUNE","18.7383328","73.6346037"
"ChIJ3W8j6r2vwjsRHTEDKllTmok","Bhegade Petroleum","Gat no 140, Vadaon, Vadgaon","18.7368234","73.64178009999999"
"ChIJrY-edACvwjsRp20hxmNzhIs","VADGAON PETROLEUM","PMH3+MCR, Vadgaon","18.7292396","73.6535075"
"ChIJgdZSQgCxwjsR3widoNeQZNo","Sambhaji Indane Gas Agency","PMH3+9QV, Vadgaonmawal Phata, Talegaon Dabhade","18.7284897","73.65442949999999"
"ChIJ03Zji9SvwjsRIZ9hIh6O-hQ","IndianOil","Gat No 4/P, Maval, Bebadohal","18.6933562","73.6492241"
"ChIJVYE5TYGxwjsRlsGOhvY0HfY","BM Petroleum (Bharat Petrol Pump )","PMP3+RW9, near vishal lawns, Talegaon MIDC Road, Mhalaskar Wadi, Vadgaon","18.7370455","73.6548493"
"ChIJL0AgJwCvwjsR_5MRnTtDEwQ","Plastic pyrolysis systems industry","MJHP+JF6, Darumbre","18.6792663","73.6357287"
"ChIJIbhqOMKxwjsRcvhg7MRL9P4","Indian Oil","India","18.7186783","73.6698952"
"ChIJB9VWCgezwjsRp7tn_o7W3VE","SHREE BALAJI FILLING STATION","Gat No 128, Talegaon MIDC Road, Katavi","18.7427417","73.6580273"
"ChIJf1olkcexwjsRfcQkyXv6nRU","Bharat Petroleum, Petrol Pump -Jagannath Auto Services","TALEGAON CITY RD, PUNE","18.7329916","73.66756230000001"
"ChIJ73M4TvWzwjsRv8PyjXcLJmM","Devkar Petroleum","Urban Life, Talegaon - Katvi Road, Pune","18.7430885","73.6607381"
"ChIJm3xkeAStwjsRKUH7Z50qedY","IndianOil","Lock No 12013/37B Bhoyare, Vadgaon","18.7517818","73.6126532"
"ChIJw2OAUcyxwjsRJ1nThEPnvsk","Hindustan Petroleum Corporation Limited","Parandwadi Road, Near, Somatane","18.701516","73.6706832"
"ChIJRYLOdQCtwjsRWfnXIUeWHnI","Jio BP","Mohite Wadi, Phata","18.752488","73.6086103"
"ChIJ84NpT7awwjsRxHoC7tdTwnw","IndianOil","Ground Floor, Dehu","18.67900329999999","73.7396119"
"ChIJCVZwmRm6wjsRhC4GTVCQZR0","BP Petrol CNG Pump","Mumbai- Pune Bypass Road, Punawale, Pimpri - Chinchwad, Pune","18.639327","73.73852769999999"
"ChIJ3zPuhFywwjsR1uDQYfXNYYc","Hindustan Petroleum Corporation Limited","Gat No 144 Shirgaon Somatane Road, Mawal, Shirgaon","18.683459","73.68811800000002"
"ChIJ419Agv-wwjsRaENCBdK4BLA","Shell","Mumbai - Pandharpur Road, Talegaon Dabhade R","18.697506","73.70119"
"ChIJfxhFzbywwjsRbeQ97gvGgtY","SHINDE SERVICE STATION","India","18.6681246","73.7277952"
"ChIJd-pjSwGxwjsRVqvUOKPC13k","Hindustan Petroleum Corporation Limited","S No 37, Haveli, 4B, Old Mumbai - Pune Highway, Kiwale, Pune","18.6682215","73.7279233"
"ChIJ21P28xW3wjsRJw3BUh7lyIs","Hindustan Petroleum Corporation Limited","No 151B/1/2 Nigdi, Ravet Road, Ravet, Pune","18.6642473","73.7354314"
"ChIJxSDxg--7wjsRW1sToSccSiA","SHELL RAVET","Taluka - Haveli, Aundh - Ravet BRTS Road, पिंपरी चिंचवड","18.65638","73.732509"
"ChIJtdKV_gi6wjsR2T_QGYoe4UU","हॉटेल शिव मल्हार","India","18.6541906","73.733893"
"ChIJdz-qJOi7wjsRs_5oqtyR7w4","Kunal PUC Centre","near Hp Petrol Pump, opp. Happy Stores, near Rohit Vadewale, opp. Katraj Highway Bypass Road, Kiwale, Pune","18.6539417","73.7335753"
"ChIJYZXUxpC7wjsRzpT3yJgUdiI","Hindustan Petroleum Corporation Limited","Survey No 61/P, opposite SENTOSA RESORTS, Bengaluru - Mumbai Highway, Ravet, Pune","18.653878","73.733543"
"ChIJpdP8qei7wjsRpsfTb-BiY10","Om Sairam PUC Center","near Hemraj Resto, Opp Sentosa Park, near Hemraj Resto, Kiwale, Pune","18.6528823","73.7328181"
"ChIJfTwbKQC7wjsRIjUu_GQqoy0","Shell Petrol Pump","Aundh - Ravet BRTS Road, Ravet, Pune","18.65001","73.73984"
"ChIJnRP9WQCxwjsRopnB_HvD45I","Petrol pump","14/100, Sai Nagar, Mamurdi, Pimpri-Chinchwad","18.6782009","73.71627629999999"
"ChIJnXxKVwC3wjsR_wrL9JAJxUo","HP Petrol Pump","MQ63+F6, Ganesh Nagar, Ravet, Pimpri-Chinchwad","18.6609193","73.75254140000001"
"ChIJg1HEVgC3wjsR30Pc7_mSxsY","Bhondve Patil Petroleum","MQ63+93V, Transport Nagar, Ravet, Pimpri-Chinchwad","18.6609946","73.7526621"
"ChIJnwCVA7C7wjsRyr60cJ7yqTM","Hindustan Petroleum Corporation Limited","Ground Floor, Road, Jambe Road, Punawale, Pune","18.6372022","73.72466229999999"
"ChIJSQVFCR26wjsR6WD_x6_qrSs","BHONDVE PATIL PETROLIUM","Survey No 123, Aundh Ravet B.R.T Road, Pimpari chinchwad","18.644362","73.745825"
"ChIJ98AJDzi7wjsRo9ARclpyujo","Shri Krishna Petroleum IOCL","Ravet, Pimpri-Chinchwad","18.643619","73.74701809999999"
"ChIJw1z7bgC7wjsRv_EI6tWMjVk","Shinde Sarkar petroleum","JPMR+GJ8, Punawale, Pimpri-Chinchwad","18.6337984","73.7415882"
"ChIJdzyIlya_wjsRKc8Kva9HyNM","Bharat Petroleum, Petrol Pump -Mauli Petroleum","BANER, Prathamesh Park Road, Aundh, Pune","18.55524489999999","73.79999529999999"
"ChIJuXH8DiW_wjsRbec4tm1DNhQ","Hindustan Petroleum Corporation Limited","Survey No, near Telephone Exchange Road, 137/138, Marutirao Gaikwad Nagar, Aundh, Pune","18.557858","73.8041953"
"ChIJDe_magC_wjsRVZuMdkgO09c","Proposed Petrol Pump","HQ2C+VX8, Baner Street, Baner Annex, Baner, Pune","18.5521516","73.772442"
"ChIJ2Qa3332_wjsRZ4ROCllL264","Shell Petrol Pump - Sus","Sus Lane, Pune","18.551943","73.76083"
"ChIJ84_eDAC_wjsRbK8HUIC3aow","Hindustan Petroleum Corporation Limited","Survey No 130, Baner - Pashan Link Road, Pashan Gaon, Pune","18.5428505","73.7902924"
"ChIJGUbx4qS-wjsRPbDQA6ZtUhk","Torrent SAS","HQ35+35G, Sus Lane, Sus, Pune","18.5526851","73.75795680000002"
"ChIJ_bNoIKW-wjsRjHm99nP8ClM","Hindustan Petroleum Corporation Limited","Shop No, near Chandere CNG Pump, 84 Mulshi, Pashan - Sus Road, Pune","18.5523069","73.75592259999999"
"ChIJ-_Dp3ZR7eDkRzomI5Dt9PEA","Jagbhan","Garkhuwan, Ggfsdgv","18.564238","73.77694"
"ChIJRVSq1Ka-wjsRAAAAsGhHpDU","ZARNAA OIL","GQX2+QC8, Vidya Villa Road, Gaon, Sus, Pune","18.5494032","73.7510848"
"ChIJHRzEPE6_wjsRTDcWyPo-IOM","Ak Enterprise","Shop Number 1, Green Park, Baner, Pune","18.5564527","73.80032489999999"
"ChIJseCzIAC_wjsREwl36CEZVCI","CNG Gas Pump MNGL","Pimple Nilakh, Pimpri-Chinchwad","18.5667709","73.79250329999999"
"ChIJmUhmUrS_wjsR7ru8Zz8D1uI","Mauli entarprases","01 dp road, Baner - Pashan Link Road, Pune","18.5556734","73.80230809999999"
"ChIJDbQvHwC5wjsRIOi_XffOVp0","Mngl Maharashtra Natural Gas CNG Pump Station","HQFC+MP7, Balewadi, Pune","18.5741618","73.77180729999999"
"ChIJz5HHZXW_wjsRHDssrYpUZ88","Maharashtra Natural Gas Ltd CNG Station","Pranjali Patil Nagar, Bavdhan, Pune","18.5113198","73.7709271"
"ChIJNfatT0W-wjsR6V4jclllEFI","Hindustan Petroleum Corporation Limited","Plot No 68 & 69, Survey No 14 & 16, Sus Pashan Road, Shinde Ngr, Kothrud, Bavdhan, Pune","18.5112897","73.7823665"
"ChIJsRGNnRq5wjsRGUdTaW17wgM","Bharat Petroleum","DP Rd, NILAKH","18.57766119999999","73.7874949"
"ChIJzWt0ZRS5wjsRzsG3dwp5eB8","Shell fuel pump","Akshaynagar Phase II, New DP Road, Vishal Nagar, Pimple Nilakh, Pimpri-Chinchwad","18.585773","73.781582"
"ChIJOxiAOYC5wjsREFUn8X0wT4s","Hindustan Petroleum Corporation Limited","Ground Floor, Wakad Road, Wakad, Pune","18.5892959","73.77484489999999"
"ChIJ0RAO8czqwjsRzMn_UOpSqfI","BELDARE PATIL PETROLEUM","Survey No 35 Ambegaon On Pune Dehuroad, Ambegaon Budruk, Pune","18.4517082","73.8442967"
"ChIJW_4FcDzrwjsRrqFNYFbTPTU","Bharat Petrol Pump - Western Transport Agency","Bhilarewadi, Katraj, Pune","18.4230654","73.8601994"
"ChIJGzFkJ7nqwjsRM1DnWik3h5I","Hindustan Petroleum Corporation Limited","Ground Floor, Dhankawadi, Pune","18.4639183","73.8584371"
"ChIJUeDXAl2VwjsRKsgw4lbnT_s","IndianOil","Ground Floor, Sinhgad Road, Manik Baug, Anand Nagar, Pune","18.4712327","73.82120789999999"
"ChIJcwCT8CrrwjsRdfziCR8AKB0","Avdhut Gas Enterprises","Shop No 04, Sadguru Hights, Jambulwadi Path Mudak Vasti Ambegaon, Katraj, Pune","18.4345305","73.8443534"
"ChIJdzxeozGVwjsRxoPMeRikhPg","Bharat Petroleum","India","18.4494914","73.834203"
"ChIJMaVXG1OVwjsRko2iIP5TAWs","VKD PETROLEUM","Sr no 4/4 ,Narhe Ambegaon road,Bhumkar Chowk ,Pune-4110141, Pune","18.449472","73.83414429999999"
"ChIJtz_GtTOVwjsR_sKBIz_toqM","Pushkar Gas Service","Shop No 04, Ambegaon Budruk, Pune","18.45066139999999","73.83773099999999"
"ChIJN0t0TzeVwjsRhs2FZlj3kRQ","Dinesh Abhiman Pawar","Dinesh Pawar, Narhe, Pune","18.4482405","73.829267"
"ChIJBSTyAvbrwjsRm-HpnYcWU60","Shell Petroleum Katraj","FR2W+HJH, Highway, Ambegaon Pune, Mumbai","18.4511344","73.8464697"
"ChIJwT0JPwCVwjsRjgl7UNP4JRo","Devi singh","CRPF+FP3, Shree Control Chowk, Narhe, handewadi, Pune","18.4361275","73.8242921"
"ChIJ8wW5BO3rwjsREfcFix7HAEY","Swara gas services Katraj","Santosh Nagar, Ambegaon Khurd, Pune","18.4486294","73.85449109999999"
"ChIJCS82GtnqwjsRTKLShWbkJa8","HP GAS","CVR5+F2Q, Anjani Nagar Road, Anjani Nagar, Santosh Nagar, Ambegaon Budruk, Pune","18.4412146","73.8576215"
"ChIJ6VlvihjrwjsRQESFjwmXsnw","IndianOil","Survey No 46/P, Jambhulwadi, NH 4, Pune - Satara Road, Dhankawadi, Pune","18.4226383","73.8457923"
"ChIJlzrDEzOVwjsRSVJr2F-WiFo","New Jyoti Gas Repair and Service","411041, Dhayari Narhe Road, Shree Control Chowk Road, Pune","18.4434188","73.8220542"
"ChIJdd0oHSTrwjsR3E_6Iq2kMz4","IndianOil","S No 89, Mangadewadi, Parvati, Katraj, Pune","18.431814","73.858623"
"ChIJE8QE8v_rwjsRPsopo_I9TMo","Katraj petroleum BPCL","53/2A, Sr no, 7, Katraj Ghat Road, Katraj Vasahat, Katraj, Pune","18.44301759999999","73.8597564"
"ChIJqyaQrd7qwjsRA1piQ2g1tJk","Bharat Petroleum","India","18.4430373","73.85978589999999"
"ChIJc_xaRwDrwjsRXMZb0YMSH_4","Jay malhar petroleum","Old, Pune - Satara Road, Santosh Nagar, Ambegaon Khurd, Pune","18.4350176","73.8598619"
"ChIJa6gNJj2VwjsRV2ztjHb3910","Amir","CRWC+Q95, Narhe Road, Dhayari Phata, Pune","18.4468937","73.8209906"
"ChIJS0XsPijtwjsRKx2YXU6R3Ok","Hindustan Petroleum Corporation Limited","Gat No 860, Pune Bangalore Road, NH 4, Haveli, Khed","18.3441242","73.85198199999999"
"ChIJ2ZqzmtDswjsR8Gbp1ndj4RI","Hindustan Petroleum Corporation Limited","SNo 41 Pune Bangalore Road, Khed Shivapur","18.35347","73.85310000000001"
"ChIJe3nJfUftwjsRhOZt3VJ0whg","Hindustan Petroleum Corporation Limited","Pune, Gat No 145, Pune Bangalore Road NH 4, Shivare Bhor","18.3225683","73.856901"
"ChIJWx0ZMlvtwjsRQ5s_H1q0GOM","Bharat Petroleum, Petrol Pump -Datta Automobiles","India","18.3365813","73.8533633"
"ChIJY2lZCdDswjsRTq9Vw5wDZQM","Hindustan Petroleum Corporation Limited","near Sonal Wines, S No 43/A, Pune - Satara Road, Khed Shivapur","18.3557154","73.8533726"
"ChIJf37rGVXtwjsR62OQT7ol11c","Veer Petroleum","8VF2+WWM, Pune","18.3248341","73.8522833"
"ChIJ9wDD8trtwjsR00a7KewTQr0","SHRIRAM PETROLEUMS","Velu, NH4, Pune Banglore Highway Pashan Exit, Khed Shivapur","18.3595119","73.853856"
"ChIJRRFYfsXswjsRArCG353e3XE","IndianOil","Ground Floor Khed Shivapur Baug,Alande, Pune","18.359533","73.853928"
"ChIJ5UWtcpPtwjsRTJXzjXFA04E","IndianOil","Gut No 323, 1, Bhor, Shivare","18.315741","73.8628851"
"ChIJuVUavqvtwjsRKLBJHQL2U7A","Swati Petroleum","National Highway 48, Shivare","18.3156186","73.8629655"
"ChIJRxWxYcDtwjsReujNIPRAncE","Aadishakti HP Gas Main Godown","9V93+7XC, Velu","18.3681937","73.854882"
"ChIJ0ZWWx2ftwjsRJ9RI0q3eJnY","Shell Petrol Pump","nr. Rasoi Magic, Mumbai - Satara Highway, nr. Rasoi Magic, Vil, T Bhor, Varve Bk","18.31037999999999","73.86766999999999"
"ChIJ6y-4N57twjsRp7mGUoosX8I","S S PETROLEUM","Pune - Bengaluru Highway, Bengaluru","18.380519","73.85493629999999"
"ChIJxUfufuzzwjsR5jVIxLABGFQ","Hindustan Petroleum Corporation Limited","NH 4, Kapurhol","18.2294","73.91572"
"ChIJ11qtmfnzwjsR3mXxKOpLr4c","IndianOil","Khedshivapur NH 4, Surur-Pune Road, Bhor, Sarola","18.2179875","73.9264701"
"ChIJcYXawCHzwjsRC6dxMqN_GqM","IndianOil","Harichandri, Harishchandri","18.2370801","73.90590739999999"
"ChIJGw_VOQDzwjsR-J8k7N_ocb4","Reliance Kamthadi","6VXV+9RF, Kamthadi","18.2489792","73.8941608"
"ChIJhWtXMwDzwjsR9QaBenMu0Mw","Jio bp","Gat No 587, near My Wings Honda Two Wheeler Showroom, Bhor, Kamthadi","18.2492412","73.894325"
"ChIJHX-LNizzwjsRFbUsRvIDJOQ","Bharat Petroleum Petrol Pump","7V2V+F3Q, Pune","18.2512134","73.8927411"
"ChIJESf-XRLzwjsRsxLsYsdBi-8","Bharat Petroleum, Petrol CNG Pump -Sahyadri Service Station","NIGDE ON BANGLORE HIGHWAY, PUNE","18.2246303","73.9205154"
"ChIJpb_a78TzwjsRLh8Lpw31Lo0","राजगड क्रिडा मंडळ","6WCF+M75, Hari Narayan Apte Road","18.2216428","73.92324719999999"
"ChIJ8zDXHdPzwjsRVheoCWkQvbE","Hindustan Petroleum Corporation Limited","Gat No 165, Saswad-Kapurhol-Bhor Road, Purandar, Ketkawale","18.2577008","73.9273097"
"ChIJdRfRHBnzwjsRPhHwEK5RcwE","Hindustan Petroleum Corporation Limited","Ground Floor SH 65, Nasrapur, Road, Bhor, Velhe","18.246592","73.8685816"
"ChIJ4YiTQwDzwjsRg8GZf1IfmFo","SHIV PARVATI PETROLEUM","7W6H+WCP, Ketkawale Gaon","18.2623252","73.9285647"
"ChIJu8o-XXjzwjsR0wAPf1j-SNI","Bharat Petroleum, Petrol Pump -Bp - Kelewade","Pune Banglore Highway Pashan Exit, Koliwada, Baner, Pune","18.2723564","73.8786933"
"ChIJWVMtBAD1wjsRCjNI6gG_gn8","Sai anand petroleum","6W33+C29, At kasurdi, dist, tel, bhor","18.202698","73.902453"
"ChIJFYTpHgDzwjsRUZqVH8RhiPk","Cng pump kelawade","7VF9+643, Kelawade","18.27302","73.86780879999999"
"ChIJ2eSTJ2L2wjsRZwtmdt22VpI","Indian Oil Petrol Pump","5X83+5J6, National Highway 4, Shindewadi","18.1654136","73.95402229999999"
"ChIJjcN7vCr2wjsRPyJeHrlmudI","Bharat Petroleum Pump","Shirwal","18.1269027","73.9820768"
"ChIJ_9VgpE73wjsRDWwVZvAlUq0","Shri Ganesh HP Gas Agency Nawlai Gas service","5X72+WX, Shindewadi","18.16487","73.9524117"
"ChIJleUSuUP2wjsR4KO6bkZ-qIE","Sadguru Petroleum","5X47+573, National Highway 4, Shirwal","18.1551987","73.9635048"
"ChIJ10-Rt0b3wjsR7S2SG1oq7CA","IndianOil","Gat No. 10131014 & 1015 Javale, Shirwal, Khandala","18.154883","73.96342709999999"
"ChIJlVqi95H2wjsRKKvLOMQu7gI","IndianOil","Lock No 13002 NH 4, Bhor, Sarola","18.18185009999999","73.9532346"
"ChIJYdUYRgj3wjsRTDfexQGRzj8","Bharat Petroleum Petrol Pump","VILL SHIRWALPUNE BANGLORE, राष्ट्रीय महामार्ग ४","18.1451515","73.9757829"
"ChIJiUUGio73wjsRPamjfx5wr-E","Baba CNG Station","Gat no. 289 Pune Satara Highway, NH-4 Taluka Bhor, Dist, Pune","18.1884053","73.9512525"
"ChIJM8DbWQD3wjsR-PIbt_NfAD4","Torrent CNG Station","5XQ2+7G7, Bhor, Sarola","18.1884382","73.95130689999999"
"ChIJ1XFCOc73wjsRUYPAt_3wI5s","IndianOil","Gat No 367, Bhor, Sarola","18.1891937","73.9520998"
"ChIJRfyGX-BZwjsRmfWFEVrMba8","Hindustan Petroleum Corporation Limited","Ground Floor, Khandala","18.0596641","74.0272184"
"ChIJoU86ZUZawjsRrO3XQse0TXQ","Indian Oil Petrol Pump","Pune Road, Khambatki Ghat","18.0072347","73.9969371"
"ChIJLXCVI-NZwjsRjl5hP9cX174","Reliance Petroleum","Ghat No 391, 3/A, Khandala - Lonand Road, Khandala","18.0588343","74.0289808"
"ChIJJUscmV5XwjsRSlSNNyPxjXM","Rahul Petroleum, CNG filling Station, Petrol Pump Bharat Petroleum","near Shree Ashtavinayak Glass, Khandala - Lonand Road, factorySATARA","18.0573706","74.0350993"
"ChIJwSCdbp9XwjsRIP9MmE0CgD4","Bharat Petroleum Petrol Pump , BALSIDDHNATH PETROLEUM","A/P, LONAND ROAD, Mhavashi","18.0605638","74.0454704"
"ChIJEQJEQ9FZwjsRw4H2WWJbrtg","IndianOil","Gat No 1010, Khandala","18.0701696","74.00755260000001"
"ChIJq0xVQJBbwjsRyK7JCw1tOfM","Hindustan Petroleum Corporation Limited","NH 4 Wai, Wele","18.003113","73.9957515"
"ChIJXdKiz_lEwjsROEJECEjcfsI","Hindustan Petroleum Corporation Limited","Gut No 587 Pune, Wai - Wathar Road, Bangalore","17.8985021","73.9722721"
"ChIJYxPfY9xEwjsRXlJhPS6e_Jk","Hindustan Petroleum Corporation Limited","near Pancharatna Hotel, Plot No 772/B/1 NH 4, Wai, Bopegaon","17.9229448","73.9745109"
"ChIJyQ2pq2BFwjsRo35zu4YhIWU","JB pump Bharat petrol CNG pump","WX8F+HXW, Pune - Satara Road, Anavadi","17.9164872","73.9749649"
"ChIJ1VKwtD5FwjsRAnZWYQTfGjM","JB PETROLEUM","WX8F+GW, Anavadi","17.91630199999999","73.9748066"
"ChIJc8-CspRFwjsRKiJOy1tjD1c","Hindustan Petroleum Corporation Limited","Wai Ozarde, Wai","17.90657","73.96582"
"ChIJyRDGb0ZbwjsRARbbHqQJwlU","Hindustan Petroleum Corporation Limited","nr. Padmavati Mangal Karyalaya, SH 63, S No 1041/B, nr. Padmavati Mangal Karyalaya, Wai-Surur Road, Kavathe","17.9538619","73.9541121"
"ChIJVfJpVABbwjsRtGSbqKEoMH8","CNG PUMP kenjal","XX68+3CF, Wai-Surur Road","17.9601849","73.96604119999999"
"ChIJz2elCQlHwjsRF9rP3Jfz9II","Hindustan Petroleum Corporation Limited","Gat No 170, Javali, Raigaon","17.7986123","73.97737359999999"
"ChIJw9iMhi1HwjsRNjbPdGTFyVI","IndianOil","Gat No 1004, opposite to Gauri Shankar College, 2, Pune - Bengaluru Highway, Limb","17.78786659999999","73.9816742"
"ChIJw4rd92tHwjsRa5ykrZuhOkQ","SAIRAJ Petroleum BPCL CNG","Kharshi t. kudal","17.8207648","73.96555289999999"
"ChIJYQiKdOxGwjsR026mrCFEcek","Bharat Petroleum","India","17.8213973","73.9656667"
"ChIJLdw1oJVGwjsRar0RZUD3Sh8","Bharat Petroleum","India","17.8281764","73.96104869999999"
"ChIJ4w3DO7pHwjsRJSrVzvwYRUY","SHREEJI PETROLEUM CNG, EV, ELECTRIC VEHICLE CHARGING STATION","781, Udtare","17.8282315","73.96110759999999"
"ChIJqdVdxXpHwjsRmjZUjlME5aE","CNG Pump, Satara","Satara","17.7666212","73.98902199999999"
"ChIJ8VQDM0w5wjsRjjGdWgVjZvA","IndianOil","Gat No 288, Nagewadi","17.7579749","73.99224219999999"
"ChIJ07ga27g5wjsRI-uItBi69aM","Hindustan Petroleum Corporation Limited","Ground Floor, SH 61 Vakilwadi, near Bhuvikas Bank, Satara","17.6971917","74.00408089999999"
"ChIJV7b-6ew3wjsRTKPE53HnXF4","Hindustan Petroleum Corporation Limited","Ground Floor, Patkhalmatha, Wadhe","17.7355797","74.03772479999999"
"ChIJDW2qI-s5wjsRxPKt6uvaXBE","IndianOil","Ground Floor, near Collector Office, Ajinkya Colony, Satara","17.6875784","74.0076431"
"ChIJr2VLd5U5wjsRDy2wLCC9AsY","Bharat Petroleum - Kisan Borewell Co","Sadar Bazar, Satara","17.6899813","74.0039304"
"ChIJGYKQC_s5wjsRJT5xrDyVld8","Hindustan Petroleum Corporation Limited","Ground Floor, Pune Bangalore Highway, MIDC, Satara","17.6781888","74.0224336"
"ChIJjzhhp5k5wjsRmiwvS0bir2A","Hindustan Petroleum Corporation Limited","Old Motor Stand, No 103, Sadashiv Peth, Satara","17.6858834","73.9917334"
"ChIJbWdzk9Y5wjsRGBAq1WBLLyY","Hindustan Petroleum Corporation Limited","Sushama Auto Agro Centre, Khed","17.70861","74.026"
"ChIJ7wZOlx85wjsRGtXO6uiQHbI","Vanaz Auto lpg pump","P2GC+5MQ, Wadhe","17.7245829","74.022457"
"ChIJM2qb5Ss4wjsRCZjMnfteK8c","Gaurav Petroleum","P2FC+VR5, Wadhe","17.7246289","74.022094"
"ChIJ_S4-PFE5wjsRjVX06PoE830","Auto Hub (Ad-Blue pump)","P2GF+53G, Wadhe","17.7258086","74.0222744"
"ChIJr73qgi84wjsRCX2kMvWgKr0","Shree Srushti Petroleum","Nh 4, pune bengaluru highway, towards pune, Wadhe, Satara","17.7257279","74.0209145"
"ChIJy-gCyR85wjsRveaFIwc8_Ps","Hindustan Petroleum Corporation Limited","Gat No 289/2, NH 4, Pune Bangalore Road, Wadhe","17.729129","74.01916100000001"
"ChIJzYwQ5sY5wjsRNnkZKTAX5O8","Trimurti petroleum","470 kadam baug camp sadarbzarcamp, Karanje Turf Satara, Satara","17.6988037","74.0101207"
"ChIJ0cDcFjs4wjsRjIVYLzea4A4","Hindustan Petroleum Corporation Limited","GAT No 123/2, NH 4, Mhasave","17.7300191","74.01681169999999"
"ChIJmcl840k3wjsRyAO6RZ-6Lp8","Bharat Petroleum, Petrol Pump -Nandkumar & Brothers","Bharat Petrol Pump, 23/10, Satara - Koregaon Road, Sangamnagar Colony, Sangamnagar, Satara","17.6882027","74.0372952"
"ChIJ6y7PCT05wjsRdVfzqtq_S0k","GO GAS LPG PUMP","Bombay Restaurant Chowk, Visawa Park, Sadar Bazar, Satara","17.6863596","74.02273799999999"
"ChIJWUo18OM5wjsR4X_LvUbIfEo","Hindustan Petroleum Corporation Limited","Plot No, 6, Satara - Koregaon Road, Krishnanagar, Satara","17.68585","74.02474"
"ChIJmy2-rCo5wjsRI2ZDFbpywTs","Mhavashe Auto Service - Bharat Petroleum","Bombay Restaurant, Chowk, Krishnanagar, Aditya Nagari, Satara","17.6852808","74.0240014"
"ChIJNwgZPpXF3jsRSrCP0t0XbE4","IndianOil","Gut no 326/1, matha, pathkal, Satara - Lonand Road, Patkhal","17.738163","74.0400708"
"ChIJJfJcNus5wjsRKo8ipqPxUnk","Badhiye Petrol Pump","Guruwar Peth, Satara","17.6869375","74.00693749999999"
"ChIJ0XDWZYM6wjsRMkkGJC9G_PI","BP Petrol Pump","National Highway 4, Valase","17.6138458","74.0247121"
"ChIJQzEqCP47wjsRJ-TepDDzMHA","IndianOil","Gat No 352, B/1234, Satara, Ambdas, Valase","17.609232","74.02905299999999"
"ChIJzwFLBkg7wjsRtGq9aCRzagQ","IndianOil","Gut No 128/1, Bharatgaon","17.6082973","74.0288036"
"ChIJ0TWwbm86wjsRTbaIXFU3pYU","Hindustan Petroleum Corporation Limited","Gat No 269/C & 269/15, NH 4, Shendre - Songaon Road, Satara","17.635232","74.01392899999999"
"ChIJMYlCXd87wjsRY2dp-lJkaMg","Hindustan Petroleum Corporation Limited","Ground Floor, Pune Bangalore Highway, Satara","17.6388547","74.0123121"
"ChIJYyUWBfo5wjsRw-G0trv50RY","Royal Petroleum Shendre","near Aamrai resort, Banglore, Pune - Bengaluru Highway, Shendre","17.6389168","74.01241639999999"
"ChIJN6snKYw7wjsR5JjbAyesFrs","IndianOil","Gat No 198, Shendre","17.6376035","74.005634"
"ChIJWc2vVNYxwjsRayCDFAeHowk","Hindustan Petroleum Corporation Limited","Gat No 623 /1 & 624 /2 Borgaon, Bharatgaonwadi","17.5914319","74.04332409999999"
"ChIJHdLNjBowwjsRKistAvn-NCQ","Hp","India","17.591408","74.0434825"
"ChIJMeSBLSExwjsRP626-frXjDY","Nayara petrol pump mahalakshmi petroleum","214, Nagthane, Borgaon","17.59055","74.04408169999999"
"ChIJtUcsRQAxwjsRVndOd4lMqLI","Hindustan Petroleum Corporation Limited","near Hotel Maharaja, Ground Floor Karad, near Hotel Maharaja, National Highway, Satara","17.589161","74.04401299999999"
"ChIJp7hcRZUvwjsRmbJoHd5C91s","Hindustan Petroleum Corporation Limited","Gat No 154, NH 4, Nagthane","17.556162","74.0525498"
"ChIJ5R9UUgAvwjsRIwGX5WdC90k","IndianOil","Gat No 803, Atit","17.54026799999999","74.06174"
"ChIJuzkWW_wvwjsRyYXkKySq3RU","DHRUV PETROLEUM, KHODAD , SATARA , CNG BPCL","National Highway 48 Nisarale, phata, Khodad","17.5064608","74.07916039999999"
"ChIJsWl5kIAvwjsRSRVCEgEsXo8","Hindustan Petroleum Corporation Limited","Gat No, 324 & 325, Nagthane","17.5472416","74.058272"
"ChIJZ6fqF9EuwjsR4duU5bRgvr8","ए आर टींबर्स","KRUSHANA NAGAR, PUNE BANGLOR HAIWYE RAM, Pune","17.4983723","74.0844402"
"ChIJ12VRLQAvwjsR4h1zuEoznwo","SHREESH ENERGY BHARAT PETROLEUM CNG PUMP","H342+VPP, Nagthane","17.5580753","74.0518751"
"ChIJWV8ePAAvwjsR43JX8FGGwC8","Shree Jay malhar petroleum","Pune bangalore highway, Kashil","17.4915487","74.0833535"
"ChIJPY1VVCspwjsRElTtkgfv8pQ","CNG Bharat Petroleum, Petrol Pump -Azad Petroleum","KASHIL (PUNE-BANGALORE HW), SATARA","17.4902013","74.0828983"
"ChIJr_PhX2IuwjsRUC8aE4Si9Tg","Hindustan Petroleum Corporation Limited","Gat No 465, Khojewadi","17.539793","74.1093118"
"ChIJH2d4KEkpwjsR7LuNkBKaz_0","IndianOil","Ground Floor, Karad, Pal, Karad","17.486722","74.051013"
"ChIJ5eI8OB0vwjsRt3c7XU4fKEI","IndianOil","Gat No 659/ 660 Khojewadi, Near, Deshmukh Nagar","17.5378937","74.1149768"
"ChIJC569GgkpwjsRnA7bNHNV4oA","IndianOil","Gat No 688, NH 4, Karad","17.4488902","74.09224309999999"
"ChIJsa_ayuApwjsRHfXlHfRgep8","IndianOil","Ground Floor, Belawade Haveli, Umbraj","17.4057808","74.1019934"
"ChIJv31u5PIpwjsRB_L6v0CzJZE","Shell Petrol Pump","Madras Bombay Trunk Road, Tal, Karad","17.424276","74.097218"
"ChIJ22zcW5aHwTsRrg6ToDuvRBk","Bharat Petroleum, Petrol Pump -Nitiraj Service Centre","UMBRAJ ON BANGLORE HIGHWAY, SATARA","17.3990886","74.1004038"
"ChIJ39f6GmOHwTsRxG1DzIs2Px4","HP PETROL PUMP - DIGVIJAY PETROLEUM","Hpcl Dealers, S. NO. 68/1, Umbraj Patan Road, Tehsil - Karad, Pune","17.395753","74.09082"
"ChIJI69Bs2OHwTsRZreWglZ9zC4","Hindustan Petroleum Corporation Limited","Survey No 68/1, SH 76, Umbraj - Patan Road, Karad, Umbraj","17.3956456","74.09104049999999"
"ChIJD45oOTiHwTsRnq6uw3lOc6c","IndianOil","Gat No 112, Karad, Banawadi Colony, Shiwade","17.3961403","74.1098737"
"ChIJE9XbUGOHwTsRwX6yfobXEZQ","IndianOil","Gat No 91, 4/2, Karad, Umbraj","17.393888","74.089328"
"ChIJKWxLfT2HwTsRdjR9LgGaCBk","SK Petroleum Bharat Petroleum CNG BPCL","National Highway 48, Umbraj","17.3884375","74.1069375"
"ChIJlZZoDIYrwjsRlWUQjmN1ayA","IndianOil","Gat No 186, Karad, Vadoli bhikeshwar","17.4041801","74.12819259999999"
"ChIJWwijDacpwjsRxNZHPFh-1js","Hindustan Petroleum Corporation Limited","NH 4, Indoli Fata, near Vithal Kamth, Sr No 615 & 616, Pune Bangalore Road, Perle, Karad","17.4435923","74.0924914"
"ChIJ08zQGgkpwjsR_0ihq14j7IA","Hindustan Petroleum Corporation Limited","689/1, S No 691/1, NH 4, Karad","17.4478661","74.0924671"
"ChIJtVRmwnCHwTsRWpFDS9UEgUk","CNG PUMP. BGRL","Varade","17.3824475","74.1091538"
"ChIJJyh8bQ8pwjsRfxoM08p6zq0","IndianOil","Survey No 634/1, Karad Belawade, Perle","17.4529218","74.0902407"
"ChIJ3VUyBwApwjsRI8fOQkCrS1A","Hindustan Petroleum Corporation Limited","Ground Floor, Karad, Pune Bangalore Highway, Perle","17.4537764","74.08984869999999"
"ChIJgUuJZlqCwTsRow1FeAM1-cU","Patel Service Station & CNG Karad","Market Yard Road, Shaniwar Peth, Karad","17.2770177","74.1838771"
"ChIJsRSsmhCCwTsRmFtY4V6sQXQ","Indian Oil Petrol Pump(Jadhav services)","rural, Gajanan Housing Society, Karad","17.304006","74.2022601"
"ChIJwc5Bx9GDwTsRcMONV-LxLa8","Hindustan Petroleum Corporation Limited","near Hotel Fern, Gat No 41/2 Khodshi, near Hotel Fern, Mundhe","17.303021","74.162851"
"ChIJx60umyaDwTsRvhGLu5M1SLw","Hindustan Petroleum Corporation Limited","near Hotel Fern, Gat No 41/2 Khodshi, near Hotel Fern, Mundhe","17.303021","74.162851"
"ChIJb0yDq7eDwTsRbykGUXdBaZE","Jadhav Petrol Pump(HP)","Karad - Chiplun Road, Karad","17.2875685","74.1619611"
"ChIJMz2QM42DwTsRVCwejI9DoOs","Hindustan Petroleum Corporation Limited","Ground Floor, Shivajinagar, Gote, near Vimantal, Varunji","17.2873129","74.1618855"
"ChIJi180u7SDwTsRAvpt4OcH_DM","IndianOil","Ground Floor, Mangalwar Peth Karad, Karad","17.285832","74.169945"
"ChIJKeNih-CDwTsREBc5Her_1D8","Bharat Petroleum, Petrol Pump -Kedarnath Petroleum","Karad","17.2845464","74.1803827"
"ChIJ_fA221pf3jsRZZ-G3ZaYqvw","IndianOil","Final Plot No 124, A Satara, Mangalwar Peth Karad, Karad","17.2908673","74.1862952"
"ChIJ2Sh6ZFGCwTsRlUL-JdDWflY","Kedarnath Petrol Pump - BP","75GG+CVH, opp. Pankaj Hotel, Karad","17.2760675","74.1772323"
"ChIJOdTvE1uDwTsRhu8WA_O0SPo","Go Gas LPG pump","75GH+MM6, Konyanpur, Karad","17.2766668","74.17914569999999"
"ChIJC8V85VCCwTsRrh5GCAaRWjA","संजय ऑटोमोबाईल","India","17.2752392","74.17835889999999"
"ChIJ8dKAHlGCwTsRVW9Nvzu6-lI","Hindustan Petroleum Corporation Limited","Station Road, Karad","17.2758","74.17951029999999"
"ChIJ9TMZT6WDwTsROxF-lqPnNIo","Hindustan Petroleum Corporation Limited","Ground Floor, opposite super market, Market Yard Road, Karad","17.27663399999999","74.18222899999999"
"ChIJhyMJGxaCwTsRJ-MqVuZWsO0","Bharat Petroleum Fuel Station","Raliway Station Road, Karad","17.2993973","74.1949439"
"ChIJfyhoM1qCwTsR66IHv9N0wYU","IndianOil","Ground Floor Karad, Gate, 4, Market Yard Road, Karad","17.275847","74.18561199999999"
"ChIJWT8ZXxaCwTsRdXwhfCrp4U0","Hindustan Petroleum Corporation Limited","Survey No 218/4, SH 78, Karad - Vita Road, Vidyanagar, Saidapur, Karad","17.3003134","74.19650589999999"
"ChIJcQiCHFeCwTsRtwXq-k6bscU","Hindustan Petroleum Corporation Limited","Ground Floor, NH 4, Pune Bangalore Road, Karad","17.272363","74.1802002"
"ChIJr6ESBwCBwTsRzu0_ITKyBVI","MEC HP PETROL PUMP","859P+XC6, Karad - Masur Road, Tal, Koparde Haveli","17.3199055","74.1860098"
"ChIJp_7NYK-BwTsRETD7sSjLq4w","MAPS Petroleum","Karad - Masur Road, Koparde Haveli","17.3199865","74.185993"
"ChIJi3NuhnOewTsRxkBFw7O9Ujg","Hindustan Petroleum Corporation Limited","Gat No 2835, NH 48, Pune Bangalore Rd, Walwa, Kasegaon","17.1256566","74.1908914"
"ChIJBTdU0Q6dwTsRbL--YmNzA28","Bharat Petroleum Petrol CNG Pump ,SAMIKHSA PETROLEUM","MALKHED, Karad","17.1556741","74.1837125"
"ChIJOQOpdwCdwTsRWyPPGP1ILIk","RENUKA PETROLEUM रेणुका पेट्रोलियम, BPCL Bharat Petroleum Corporation Limited","NH 4, Pune Bangalore Highway, Malkhed","17.1553337","74.1842735"
"ChIJe4YNNqCdwTsRuq9h90yyTJw","Hindustan Petroleum Corporation Limited","Gat No 880, 881, 879, Wathar","17.173551","74.182617"
"ChIJ4Ti8FfidwTsRVGWr-zhuvg4","Bharat Petroleum, Petrol Pump -Trimurti Petroleum","WATHAR ON BANGLORE HIGHWAY, Madras Bombay Trunk Road, SATARA","17.1834736","74.183281"
"ChIJcSbdInadwTsR5YlD1ZVDhUQ","IndianOil","Gat No 726 Rethare, Karad","17.1745184","74.210712"
"ChIJKdi_QmadwTsRdssnDLH-4nw","Hindustan Petroleum Corporation Limited","Gat No 1644/2, Wathar","17.1943169","74.1813909"
"ChIJ60t5C3KdwTsRz3GktEc_iI0","Aditya Petroleum Cng pump kasegaon","Pune - Bengaluru Highway, Kasegaon","17.13165889999999","74.18891599999999"
"ChIJBcgqvh2dwTsRhmTJLO5wnXg","Petro Plus","Satara, Gat No. 1609, At Post Wathar Pune Bangalore Highway, Karad (Tal","17.1975599","74.1812284"
"ChIJ_ZhiLACfwTsRcO2jmwD6iwk","Kasegaon","Bus Stand Kasegaon, Kasegaon, Sangli, NH-4, Madras Bombay Trunk Road, Peth, Peth, Kasegaon","17.1251909","74.1916696"
"ChIJDceYimN1wTsRhTwc2jdwjRw","Jio-bp","Madras Bombay Trunk Road","17.0727797","74.2237754"
"ChIJ91d9s051wTsRMq-N6Vs4Eds","Venkatashwara Petroleum Bharat Petroleum","Patilwada, Sangli, NH-4, Madras Bombay Trunk Road, Peth","17.0501851","74.235112"
"ChIJ_-hDz9cLwTsRRvQqd58QHrM","Bharat Petroleum Petrol Pump","27X3+R2C, Sangli","17.0495604","74.2525089"
"ChIJQ19IQc0KwTsRsXi5dfo6s7Y","Pratik Petrol Pump","415409, Kisannagar, Ishwarpur","17.0436845","74.2519657"
"ChIJXR5M_ix1wTsRo4E9ixEeXdo","Hindustan Petroleum Corporation Limited","near Kolhapur Road, CTS No 749/A, Sangli Peth Naka Road, near Kolhapur Road, National Highway 166H, Walwa, Corner, Ishwarpur","17.0478301","74.2563301"
"ChIJSQGR-yh1wTsRxIoEZG-lutg","Bharat Petroleum Petrol Pump , VENKATESHWARA PETROLEUM","GAT NO. 905/BAT PETH, TAL, Walwa","17.058902","74.232276"
"ChIJMVxtmMh1wTsRpZSdcF-duzs","Mahadik Brothers","Peth Naka, Tal, Walwa, Ishwarpur","17.0588656","74.2323925"
"ChIJEx1ak391wTsRnFSyrGGuP48","IndianOil","Ground Floor, Ankali, Nerla","17.0868776","74.2194548"
"ChIJF7OQ1lYLwTsRcZ9DqqQYZaA","Bharat Petroleum, Petrol Pump -Chougule Petroleum Services","Shop No 1, near Pratik Petrol Pump, Ishwarpur","17.0421721","74.2610325"
"ChIJY1eWbrULwTsR4t1SOWxA7kk","CNG Pump Harsh Petroleum & Filling station, Waghwadi","Madras Bombay Trunk Road, Ishwarpur","17.0287497","74.2463236"
"ChIJmz_2xCoLwTsRAAAA0PKfpH4","HINDUSTAN PETROLEUM","27W8+2Q2, Peth - Sangli Road, Ishwarpur","17.0450208","74.2669056"
"ChIJZSSF0CoLwTsRTd3jYYEF1Qc","Reliance Petroleum","Peth - Sangli Road, Walwa","17.0453247","74.2672819"
"ChIJIZ4k5W6hwTsRZRNLsBK6hzI","Bharat Petroleum Petrol Pump , HARSH PETROLINKS","RETHARE, Maharashtra State Highway 150, DHARANON","17.028575","74.202506"
"ChIJtwVZaysLwTsRRpcFfb8E0wA","S.P. Power Fuel (Aegis Autogas)","27V9+QP5, Sangli Road, Ashta Naka, Shivaji Chowk, Ishwarpur","17.0443908","74.26936409999999"
"ChIJiXWlKnsJwTsRCSpewnzQ2_o","Hindustan Petroleum Corporation Limited","Sangli, Gat No 1463 NH 48, Pune Bangalore Road, Yelur, Walwa","16.946091","74.277131"
"ChIJj31cz9cLwTsRQ-pcqqpenGs","Shree Sai Petroleum (Bharat Petroleum Corp. Ltd.) CNG pump","Pune Bangalore Highway (NH-4 Vasant Park, Phata, Yelur","16.9558","74.27438400000001"
"ChIJZTzxEWsJwTsR81UdUk6nWfM","Jadhav petroleum","Ap, Yelur","16.9410654","74.2795253"
"ChIJHYDRWXwJwTsR7VdoDxDFiEk","IndianOil","Ground Floor, Yelur","16.951242","74.273466"
"ChIJ_X8Ac5AJwTsRsifX2b5Zz8w","IndianOil","Ground Floor Walwa, Yelur","16.9393809","74.280706"
"ChIJR-xuZAAJwTsRnthNqsi4JQs","Om sai petroleum","W7R8+6RW, Yelur","16.9406012","74.26708339999999"
"ChIJDwSov_4LwTsRbzUhBIYIFQ0","Velvex AdBlue Filling Station","AH47, Itkare","16.9656541","74.26995699999999"
"ChIJq4QNP0UJwTsRqKmoroSC1GE","Nayara Petrol Pump Balaji Petrolium","Bahadurwadi, Tandulwadi","16.9241975","74.2992893"
"ChIJSbr4gZ0LwTsR2i7NYOdbR1U","P R Petroleum KSK","Shop No 1, Main Road, Vashi","16.9604683","74.23719439999999"
"ChIJK1-iofUGwTsRVo8vfL1kVZY","CNG pump","R78P+85, Unnamed Road, Peth Vadgaon","16.8165433","74.2851369"
"ChIJ7z8_RBoGwTsReQN8aMwmKo8","Hindustan Petroleum Corporation Limited","Gat No 38, Pune, National Highway 48, Hathkanangale, Bengaluru","16.85519","74.29614"
"ChIJ9xJfxMMGwTsRUHpKuFOJGe8","Hindustan Petroleum Corporation Limited","Gat No 355, Part 130, NH 48, Pune Bangalore Rd, Hatkanangale, Peth Vadgaon","16.825193","74.2864045"
"ChIJ5ejGKgEHwTsR1Lu10ynXZEU","Hpoil Gas Pvt Ltd CNG Station","Pune - Bengaluru Highway, Peth Vadgaon","16.8253691","74.28678359999999"
"ChIJ5V7Krl0GwTsRwStc7iipzYE","Bharat Petroleum, Petrol Pump -Om Sai Highway Service","VADGOAN NH 4, Kolhapur","16.8263727","74.285799"
"ChIJnYc5q18GwTsR7NX-LhLghpU","Jio-bp","Survey No 335/336, NH 4, Vadgaon Peth, Kolhapur","16.820846","74.28572559999999"
"ChIJsb6aFeIHwTsRiYAvZs7Lr-4","Hindustan Petroleum Corporation Limited","Gat No 299, NH 48, Pune Banglore Road, Hathkanangal, Peth Vadgaon","16.817059","74.28491269999999"
"ChIJW7ayQY0HwTsRvkYElnrKN68","Bharat Petroleum, Petrol Pump -Krishnai Automobiles","KINIWATHAR, Kolhapur","16.8335941","74.2893096"
"ChIJw09ZY60HwTsRJAuXBl_YST4","Bharat Petroleum, Petrol Pump -Kalyani Autolinks","Peth Vadgaon on NH 4, Kolhapur","16.8112581","74.2852295"
"ChIJY16EmG4HwTsRhfYtMn-BAAg","Bharat Petroleum Petrol Pump , KALYANI AUTOLINKS ADHOC","NH4,KASBA VADGAON, Kolhapur","16.8106315","74.2864072"
"ChIJSzJwM4wGwTsRuucQjK_PPaI","HP PETROL PUMP - DEVGIRI AUTOLINES","Hpcl Dealer A/P.- Sambhapur TAH.- Hathkanangale, Vasco","16.81021","74.293177"
"ChIJLURgLY8GwTsRMoQuAU_rIYI","Deogiri Petrol Pump","Peth Vadgaon","16.8131875","74.29781249999999"
"ChIJl3c5w2gHwTsRr1vGl5XQyog","Hindustan Petroleum Corporation Limited","Survey No 250, SH 151, Toap - Vadgaon Road, Peth Vadgaon","16.8130952","74.2981679"
"ChIJhUkumOsGwTsRHRPgZPY9ZfA","Hindustan Petroleum Corporation Limited","near Sanstha Ltd, Ground Floor, Pune Bangalore Road NH 48, Hathkan, Wadgaon, near Sanstha Ltd, Toap","16.799571","74.28463099999999"
"ChIJUeBjIBEGwTsRrsxEn3Pu3g4","IndianOil","Ground Floor, NH 4 toll booth, Madras Bombay Trunk Road, Nagasandra, Bengaluru","16.850597","74.29539500000001"
"ChIJ63pgzkcHwTsRJtduM7nky84","Shri Vasant Petroleum","Vathar Tarf Vadgaon","16.8489964","74.3005019"
"ChIJvRs9OlMHwTsR79TJJOcu01g","Bharat Petroleum, Petrol Pump -Shetkari Sahakari Sangh Ltd. (Vad)","R8Q8+929, Unnamed Road, Peth Vadgaon","16.8387791","74.31689089999999"
"ChIJNSa2P48FwTsRXcQ1L-p8T5Y","IndianOil","Ground Floor, Peth Vadgaon, Hatkanangale","16.8319277","74.3209512"
"ChIJxfdhGU4FwTsRXlxssujOVW8","IndianOil","Gat No 73, 134 & 76, Vadgaon - Latwade Road, Peth Vadgaon","16.842953","74.31992009999999"
"ChIJR85AfCQEwTsRhA8RyMrUBAk","Venkateshwara Gas Store Department","R83C+J49, Tasgaon Road, Tasgaon","16.8040357","74.3203458"
"ChIJVdC5vNwBwTsR9mnL8Pny8jg","Essar Petrol Pump","Gad Mudshingi","16.6906877","74.2833113"
"ChIJWx4QUc8BwTsR7MhkQANk4p0","Hindustan Petroleum Corporation Limited","Part 4/2, Survey No 350/A, Pune Bangalore Road, National Highway 48, Karvir, Uchgaon, Kolhapur","16.695691","74.27573100000001"
"ChIJQUIRFtEBwTsR2Rsyp5PhQSM","Aegis Autogas LPG Station","M7PF+X56, Madras Bombay Trunk Road, NH Service Road, Sarnobatwadi, Kolhapur","16.6874025","74.27289019999999"
"ChIJKcW4WqnY3DsR-kRnqB9e0rY","IndianOil","Gat No 222, Shahu Market Yard, Junnar","16.7052388","74.26515189999999"
"ChIJsyol_EcAwTsRShO81TB9z0Q","IndianOil","Ground Floor, Old, Mumbai Bangalore Road, Trimboli, Kolhapur","16.7013561","74.2528452"
"ChIJy5wopTgAwTsRBCHj8OIIRUk","Bharat Petroleum Petrol Pump","1148/E, Mahagaonkar Marg, Sykes Extension, Kolhapur","16.699823","74.24826399999999"
"ChIJ84ONZEEAwTsRztJnhepA6To","Hindustan Petroleum Corporation Limited","Survey No 204, Station Road, E Ward, Karveer, Kolhapur","16.7053885","74.24511919999999"
"ChIJqXVsBDP-wDsRHpAHcrEq6uM","IndianOil","Ground Floor, near Shivaji University, NH 4, Karveer, Ujalaiwadi, Kolhapur","16.6643942","74.2672005"
"ChIJ27R24wsBwTsRyyMgXMasO2U","Bharat Petroleum","NH-4, Madras Bombay Trunk Road, Kolhapur","16.7309311","74.2826882"
"ChIJS20N-jwBwTsRlPQJjdDq240","IndianOil","Ground Floor, Pune Bengaluru Highway NH 4, Uchgaon, Gur, Shahu Market Yard, Kolhapur","16.6964587","74.2758173"
"ChIJ9zZCYAABwTsR81K4W2ztl8M","Cng","M7XG+CWX, Pune-Bangalore Highway, Uchgaon, Kolhapur","16.6986006","74.2773699"
"ChIJA6NzjdYBwTsRtu5ZnE6otrg","Ishwarkala Vinayak Gadage","4, NH Service Road, Sarnobatwadi, Kolhapur","16.6883468","74.2724111"
"ChIJfUJa_twBwTsRAodsaqy9xdY","Om Sai BPCL Petrol Pump","305 K, Gad Mudshingi - Mudshingi Road, Uchgaon, Kolhapur","16.689308","74.2852499"
"ChIJv_ie8QJKwDsRzEdSmppZkiA","IndianOil","Yard, Gaganbawada, Gur Market, Ground Floor, Kolhapur","16.700912","74.2658342"
"ChIJrUOKXpUBwTsRnolUCyUZVGE","Bharat Petroleum Corporation Ltd","P74P+GQ6, Kolhapur-Rukadi-Sangli Highway, Kolhapur","16.7062847","74.286891"
"ChIJBXfeSAD_wDsRMd3ixd58lg4","Tulsi HP GAS Godaun","राई हॉल रोड, उजळाईवाडी जी नंबर 54, near तुळशी गॅस गोडाऊन रवी, प्लॉट नंबर 4, Ujalaiwadi, Kolhapur","16.6773533","74.28229499999999"
"ChIJfX9wQpMBwTsRn3DT5N2z2vw","SHREE GURUNANAK PETROLEUM","S No 190/5B/1, Gandhinagar, Karveer, Uchgaon, Chinchwad","16.7056021","74.29764999999999"
"ChIJXdOeaAABwTsRm2i1UHYbW5c","Kavalanaka hp petrol pump","P64X+97V, Old Pune-Bangalore Highway, Shahupuri, Kolhapur","16.705889","74.248144"
"ChIJy6SFr0YAwTsRggQkGEEdzVU","Hindustan Petroleum Corporation Limited","City Survey No 517, B Station Road, Kawala Naka, Karveer, Kolhapur","16.705721","74.247981"
"ChIJzYuhDwABwTsRS5oY6QVc6hk","Bharat pump","P64X+G7V, Kolhapur","16.706369","74.2481772"
"ChIJVYlbAJL-wDsROS7sPLmh_AE","Hindustan Petroleum Corporation Limited","Ground Floor, Karvir, NH 48, Pune Bangalore Road, Kaneriwadi","16.6328404","74.28964479999999"
"ChIJTQpkmeD7wDsRkpCfqER_6uo","Hindustan Petroleum Corporation Limited","Ground Floor, Pune Bangalore, Road NH 48, Vikaswadi","16.568991","74.315861"
"ChIJ2ZU9iKD-wDsRgPID8qCr6Vk","Shree Mahalakshmi Petroleum(BPCL)","Kagal 5 Star MIDC Industrial Area, Vikaswadi","16.6108866","74.31099100000002"
"ChIJTzSeY5j-wDsRaSDPHaKZQUY","Dhananjay Mahadik Petrol Pump","J873+J5W, Madras Bombay Trunk Road, Kagal","16.6141241","74.3029581"
"ChIJJT3s4ib_wDsRWYIZ4q12zfE","IndianOil","Ground Floor NH 4, Poona, Bengaluru - Mumbai Highway, Vikaswadi","16.61737399999999","74.3002577"
"ChIJOYjYR3H7wDsRI7x2PNqMKUA","IndianOil","Ground Floor, NH 4, Kagal","16.5978459","74.3065805"
"ChIJU3J7MK_-wDsRAcIuy6khzCs","JAJAL AUTOMOTIVE","225 NH 4 HIGHWAY P.B ROAD, VIKASWADI, Kolhapur","16.619044","74.29870199999999"
"ChIJge2AR3f_wDsRW9uDY-rRum0","Hindustan Petroleum Corporation Limited","Survey No 225 Pune Bangalore Rd, NH 48, kagal, Vikaswadi","16.6192549","74.29892699999999"
"ChIJMXbc9pD-wDsRh_SetHNq2sU","IndianOil","Ground Floor MIDC, Kaneriwadi, NH 4, Gokul Shirgaon","16.62116499999999","74.298092"
"ChIJPU9tIav-wDsREM3zKB1sEvI","Kagal Agar Petrol Pump","H8R5+QCH, Service Road, Kagal","16.5919273","74.3086106"
"ChIJoVy5boz-wDsR3ehRCWHHEB4","IndianOil","Ground Floor, NH 4, Are, Kaneriwadi","16.6285788","74.292116"
"ChIJ7fqUbFb5wDsROWvRv1e0JQo","Bharat Petroleum, Petrol Pump -Kagal Petrol Stores","Kaneri To NH4, Kagal","16.5841436","74.31015219999999"
"ChIJ41IjWmv8wDsRQIj47vVljns","Bharat Petroleum, Petrol Pump -Samarth Sai Petrolinks","Kagal 5 Star MIDC Industrial Area, Kagal","16.6102837","74.33606999999999"
"ChIJw4L5spMewTsRpbUNXGPB3ow","IndianOil","Ground Floor, Gur Market Yard, Kagal","16.580013","74.31316079999999"
"ChIJ5_mLSf37wDsRABBkgKAsYeA","Bhuyekar Petrol Pump","H8J7+273, Hanbar Galli, Kagal","16.5800026","74.313176"
"ChIJOyShYJT5wDsRvLo4sYSkevs","IndianOil","Ground Floor, Gorambe, Kagal","16.5805342","74.29592199999999"
"ChIJC8elfvX-wDsRCCg9vQ-cLzQ","Anand Petrol/Diesel Pump","J7MP+Q8J, Madras Bombay Trunk Road, Kolhapur","16.6344647","74.28575839999999"
"ChIJQY2LYAD_wDsRp1P-gBEuQDQ","Kolhapur Zilla Sahakari Dudh Utpadak Sangh Ltd. Gokul Petrol Pump","J7MP+MJQ, Kolhapur","16.6350746","74.2865139"
"ChIJBV2dfvX-wDsRluN1n4zAz4M","Charat Petroleum","India","16.6345435","74.2857844"
"ChIJrRUK4cH9wDsRuH_mWCD9dmc","SRUSHTI PETROLINK","Gur Market Yard, Gat No 18, Sangawadewadi, Karvir, Kolhapur","16.639476","74.3213324"
"ChIJI3u8BqDwwDsRRV-zTq4k_dw","Bharat Petroleum Corporation LTD COCO","NH Service Road","16.5008826","74.33457039999999"
"ChIJ6WJoLhr7wDsRH-CZwiYCHeA","Hindustan Petroleum Corporation Limited","Survey No 56, Dattawade","16.509576","74.33106099999999"
"ChIJn7W50gv7wDsR_o2RaosP0zk","Hindustan Petroleum Corporation Limited","Ground Floor, NH 48, Koganoli","16.5100427","74.3329231"
"ChIJUaTPQzv6wDsR_nXOJeptVGw","Hindustan Petroleum Corporation Limited","Survey No 685/2, B/1, National Highway 48, Nipani","16.529217","74.32212009999999"
"ChIJhyofozT7wDsRlosp99suFJA","Hindustan Petroleum Corporation Limited","Sy No 634/1, NH 48, Pune - Bengaluru Highway, Bengaluru","16.529445","74.320706"
"ChIJ119PIQD7wDsR4uoXe5DmpcQ","WSA KOGNOLI (HPCL PETROL PUMP)","G8JC+3P6, NH Service Road, Mangur","16.5299621","74.3210191"
"ChIJEasOaEH7wDsRP2bXzPNW3Rw","Indian Oil Petrol Pump - Indumati Petroleum","Indumati Petroleums, Check post, Indian Oil Petrol pump, near Kognoli, Nipani","16.503264","74.3335213"
"ChIJqUX7Dy_6wDsRZhHfg6ZkMEU","IndianOil","Ground Floor PB Road, NH 4, Chikkodi, Koganoli","16.5360898","74.31937119999999"
"ChIJ105lR6DwwDsRbSub9CYrd9Q","Digambar Petroleum Nayara Petrol Pump","Appachiwdi Corss, NH Service Road, Saundalga","16.4990991","74.3338685"
"ChIJT3RBnlz7wDsRXz9KwWYhp7I","M M ROADWAYS PUMP","Kognoli Toll Plaza, nh4 highway, gate","16.5366221","74.3199312"
"ChIJOymityPxwDsRAZOZtEIio7Q","IndianOil","Ground Floor NH 4, PB Road, Saundalga, Appachiwadi, Belagavi","16.4965064","74.33692110000001"
"ChIJUSP1NKD7wDsRNFnyzfnykg4","SHREE SIDDHIVINAYAK PETROLEUM","Shree Siddhivinayak PETROLEUM, Hanchinal","16.5333945","74.3517311"
"ChIJrSfILq_xwDsRESQ_beyyzqI","Hindustan Petroleum Corporation Limited","Survey No 331, 5 & 331/6 NH 48, Nipani, Saundalga","16.486987","74.340232"
"ChIJfTCdmNn7wDsRFo1pVdqs_uY","IndianOil","Gut No 29, NH 4, Kagal","16.5593689","74.3161645"
"ChIJW82PZi_ywDsRcC3vkuobzQs","Hindustan Petroleum Corporation Limited","Survey No 87, A/3 SH 18, Nipani","16.404196","74.374862"
"ChIJ31D0PY_xwDsR8qbmHyIonvU","IndianOil","Survey No 156/2, Nipani","16.4195897","74.37260189999999"
"ChIJeXtfTiXywDsR66eORSNoPkk","IndianOil","Ground Floor, Near byepass raod, NH 4, Nipani","16.4014344","74.37050119999999"
"ChIJgxDpQfDxwDsRoIX3UfnHSLg","VEERPRABHU PETROLEUM","C9P7+PHW, National Highway 48, Nipani","16.4130969","74.373299"
"ChIJ0aMLkAPzwDsRMeQGmblxSIk","Suryakiran Petroleums- Bharat Petroleum","Opposite JEEV ICU Multispeciality Hospital, Near Nipani Court, Complex, Old P.B. Road, Nipani","16.41195669999999","74.3758869"
"ChIJeyTJRwDzwDsRUzhN_ieUy-0","Sharavati Fuel Station HP Petrol Pump","115, Murgud Underpass, Nipani","16.4057161","74.36427979999999"
"ChIJRXfFTCLywDsRf1PtKHPgmeE","Ksrtc Diesel Filling Depot Nipani","C94H+4PP, Nipani","16.4053289","74.3793226"
"ChIJ5abYbPnzwDsRbhlV7NSRAdc","Lpg gas pump","g gas stations, l p, Nh 4, Nipani","16.3989264","74.37119849999999"
"ChIJ__559IrxwDsR27_HnFTq-w8","IndianOil","Ground Floor, Akol Road, Chikalwal, Belgaum","16.4147558","74.3727191"
"ChIJRY3VeADzwDsR2jUD-X871fo","Avadhut Petroleum","99WF+W4X, Nipani","16.397364","74.3728589"
"ChIJTRQ2xyLywDsRFnDSoVLGACU","SHRI GANESH OIL IND","India","16.402665","74.3806433"
"ChIJ049KyBnzwDsRe3nAkC643oM","Bharat Petroleum, Petrol Pump -T.M.Yerudkar","NH Service Road, Bangalore highway, Pune","16.3968821","74.3729551"
"ChIJj0Qm9gzzwDsR3uROlTlWjvo","Devaashish Petroleums BPCL","Chikkodi Phonda Road, Nipani","16.4042458","74.38309009999999"
"ChIJ_TAoPhHzwDsRwTQ8KVluWHc","IndianOil","Survey No 56/A Nippani, NH 4, Belgaum","16.395228","74.37348639999999"
"ChIJvzVRoz3ywDsRYBMyVlmTbVU","Yerudkar Petrol Pump","99XJ+65C, Old Pune Bangalore Road, Nipani","16.3980532","74.38039719999999"
"ChIJNcr0wD3ywDsRtm_PRgSVQBM","Hindustan Petroleum Corporation Limited","CTS No 3521, Old PB Road, Nipani","16.397231","74.380541"
"ChIJGW3yQQDzwDsRCN4MKJQIVOY","Bharat petroleum, petrol pump.","Bharat petroleum,(Ambika petroleum, Nipani - Chikodi Road, cross, Rampur","16.4035959","74.3944013"
"ChIJpwJtEhfzwDsRyLbOhT3LqA0","SHREE JYOTIRLING PETROLIUM","Shop No -201 Devgad, Road, Narsoba Nagar, Nipani","16.4080675","74.3398254"
"ChIJjd7NosNRwDsRLXuwC8mdhVc","IndianOil","Survey No 292, 4, Radhanagari Road, Kodni","16.408101","74.339801"
"ChIJaX_ovaHxwDsRoUtfMEUOzs4","MRPL PETROLEUM (Mangalore Refinery and Petrochemicals Limited)","C9P7+H6P, Nipani","16.4364505","74.3630648"
"ChIJe_wcVemSwDsRaXYYQnHm3i4","R B KITTURKAR PETROLEUM Honnihalli","Honnihalli, village, Sankeshwar","16.297213","74.4351051"
"ChIJfTR7aMeTwDsRGcY9KOulCWo","A B Parvatrao-Bharat Petroleum","NH 4 (AH 47 By Pass Road, Sankeshwar","16.2588871","74.4687567"
"ChIJ1RBPjzOTwDsRiKseecJfXxk","IndianOil","Survey No 399/3399, B398/3398/B398/4398/C, Ankle, Solapur","16.2920812","74.4396096"
"ChIJDZPC9vqTwDsRkUiQoKF4cDk","Bharat Petroleum, Petrol Pump -R.B.Kitturkar Petroleum","HONNIHALLI, BELGAUM TOWN,B, BELGAUM","16.2898253","74.4426797"
"ChIJD696LQCTwDsRIFJBjUx0ry8","Neppani Petroleum","7CWP+XCJ, Honnihalli","16.2972096","74.4358926"
"ChIJGV6rw_yTwDsRROsw62__Bts","GK Bharat Petroleum Sankeshwar","opposite Jain Mandir, NH 4, opposite Jain Mandir, Sankeshwar","16.2652893","74.4641224"
"ChIJn4nc1yiXwDsRhhcaQKUqInY","Balaji Petroleum","Toll, NH Service Road After Hattaragi, U. Khanapur","16.1802026","74.5184815"
"ChIJ6XN8tcyXwDsRITIoTnL77jg","IndianOil","No 545 to 540, NH 4, Arjunwad","16.1802113","74.5191129"
"ChIJVRksJyGXwDsR1YERXaxRj38","Jio-bp","near Belgaum Truck Stop, Survey No 305 & 314 Hukkeri, Nh 4, near Belgaum Truck Stop, NH Service Road, Chikkalagudda","16.1929584","74.5179095"
"ChIJ387jZVSXwDsRZp34k0T1uQ4","Dada Fuel Station","5GC8 5GH, U. Khanapur","16.1703748","74.5162765"
"ChIJXYco-M-XwDsROVMWyF1dl5M","Rahul Fuel Station","Rahul1123456, Khanapur","16.1769145","74.5030724"
"ChIJnW5bHb-XwDsRZU60szn7nCI","Ujwala fuel station","124, basti lane, U. Khanapur","16.1738896","74.50533209999999"
"ChIJKbQaFMeWwDsRNduJBegmAro","IndianOil","Sy No 118/6, Road, Hukkeri, Aralagundi","16.2153905","74.5150675"
"ChIJkezoqV6XwDsRwrD4xmXh1HA","Hindustan Petroleum Corporation Limited","VPC No 603 & 603A, NH 48, Hukkeri, Hanchinal","16.154521","74.51744099999999"
"ChIJI_Mwb1OXwDsR-jH_zVSlE3o","Bharath petroleum - Petrol Pump, Shri Mahalaxmi Petroleum","5G29+P79","16.152514","74.51825540000002"
"ChIJgVNqxjmXwDsRh2kw9ZWVehA","P.M.Karikazi, Bharat petroleum","HEBBAL SANKESHWAR, NH-4,BE, NH Service Road, Belgaum","16.2231923","74.5128433"
"ChIJ8ZA7dACZwDsRfG-n0JgzFI8","Neelco Enterprise","Hattargi Toll Plaza, NH4, Hattargi","16.1451722","74.5160472"
"ChIJCzvyWT-ZwDsRlrg6uDqerMg","Hindustan Petroleum Corporation Limited","Survey No 223/5, Pune Bangalore Highway NH 48, Managutti","16.097624","74.519378"
"ChIJeSZjDXSZwDsR-H1rQgbTOyU","COCO BP BELAGAVI","3GX9+68X, NH Service Road, Dadabanahatti","16.09810149999999","74.518363"
"ChIJ-QONkx-fwDsRZB3cI_zTvz4","RANVEER PETROLEUMS","3G37+M43, NH Service Road","16.0541383","74.5128091"
"ChIJL9ViRKdfxjsROoDXaa58SOE","IndianOil","Survey No 210/1/2 Hukkeri, Managutti","16.1003909","74.5176658"
"ChIJgyZyKwCZwDsRR4yZdj9BNL4","Shri Holemma Devi Petroleum","4G87+R8H, Daddi","16.1170645","74.5133613"
"ChIJg2cRaZyZwDsR6Qr-sYiK91o","BPCL Energy Station Bharat Petroleum JOSHI Petroleums","4G99+M58, NH Service Road, Hattargi","16.1191507","74.51795899999999"
"ChIJ98fU6Q-ewDsRfJPHnSxpHYs","Rameshwar Petroleum Bharat Petrol CNG Pump","XGH6+737, NH Service Road, Bhutaramanahatti","15.9781556","74.51016489999999"
"ChIJbyn29HmewDsR1nXvu2z0q_4","Hindustan Petroleum Corporation Limited","No 1, University Road, Belagavi","16.000541","74.505071"
"ChIJ75ESSgyewDsRvVb_xW3NV7E","IndianOil - SWAGAT","Ground Floor, PB Road, Honge, Bhutramhatti","15.9834922","74.50805179999999"
"ChIJEdql76NhvzsR3-SMifnLopI","Hindustan Petroleum Corporation Limited","Survey No 12/7, NH 4, Pune Bangalore Road, Kakati, Belagavi","15.935092","74.52652800000001"
"ChIJs_B7CqRmvzsRute8Jyj7Vp4","IndianOil","Ground Floor, Murlidhar Vyas Colony, Belagavi","15.856703","74.50651599999999"
"ChIJIUrk5s5mvzsRab39Di9ZTvU","Hindustan Petroleum Corporation Limited","CTS No 1231, Kanakadasa Circle, near Pai Resorts, Kanabargi Road, Belagavi","15.8683291","74.5291441"
"ChIJ99avb0KSyzsR_dFKhF2TG8U","IndianOil","Survey No 452/6, RHS Going Towards Pune, Khade Bazar, Shivaji Nagar, Belagavi","15.8648743","74.5217947"
"ChIJfzEDMsxmvzsR3YDA-fdvAjc","IndianOil","Survey No 1040, 1F, Gokak Road, Mahantesh Nagar, Belagavi","15.870489","74.531342"
"ChIJSUck575mvzsRDhvu4M4kVbM","Bharat Petroleum Altrade","1040, Fort Road, Belagavi","15.8565726","74.5178724"
"ChIJt9CUs05hvzsRAlsKRVnk000","Mujawar Petrol Pump","Nehru Nagar, Belagavi","15.8812048","74.5168583"
"ChIJbbfkPNpgvzsRzLZeSWJBP9A","IndianOil","Survey No 457/3, Kanbargi, Belagavi","15.889537","74.55259699999999"
"ChIJe9KuBgBnvzsRdqXeBW1Tpb0","MAHALAKSHMI PETROL PUMP","VG5P+55C, Sambra Road, Maruti Nagar, Gandhi Nagar, Belagavi","15.8579294","74.5353878"
"ChIJxZ3GLXFnvzsRCSe0nw6UORg","IndianOil","New, Sambra Road, Gandhi Nagar, Belagavi","15.8621597","74.5299879"
"ChIJ9V64rY1nvzsRK8sEGRoUehQ","IndianOil","near Aluminium Factory, Ground Floor Sambra Road, near Aluminium Factory, Road, Sambra","15.8575858","74.53625559999999"
"ChIJ9-yzasZmvzsRjUKHrMGOpOc","Jio-bp","SURVEY NO: 70/4B, GANDHI NAGAR, BELGAUM - PIN CODE 590006, Busstand Rd, Belagavi","15.8624573","74.5273813"
"ChIJ41q3YM9mvzsRXbi4isVrRyc","ALEXIS AUTOGAS","India","15.8644315","74.53022969999999"
"ChIJM81RMcZmvzsRRXsMbsCLuNE","Hindustan Petroleum Corporation Limited","Shop No 72, 3 to 5, Sambra Road, Gandhi Nagar, Belagavi","15.862761","74.52623100000001"
"ChIJx2qTn-1nvzsRaRS-xyOSnZI","Bharat Petroleum, Petrol Pump -Jai Hanuman Petroleum","SAMBRA,MUTGA VILLAGE,BELGA, Belagavi","15.8629936","74.52568169999999"
"ChIJc8_PQv5nvzsR64Oq5QnP6Hw","Bus Fuelling Station","VG6C+655, Raviwar Peth, Belagavi","15.8605013","74.5204846"
"ChIJuZwhsLdmvzsRbmqL58v9sAs","IndianOil","CTS No 10212/22, Shivaji Nagar, Belagavi","15.864815","74.521866"
"ChIJ34tOKrlmvzsRZPy7RdYGdD4","IndianOil","Ground Floor, Dharwad Road, Belagavi","15.857899","74.51973100000001"
"ChIJT-8N4L5mvzsRyRXIj85CgHE","Hindustan Petroleum Corporation Limited","Ground Floor, Fort Road, Belagavi","15.85616","74.51988999999999"
"ChIJuUN4YJVmvzsRjG98xPS8FQ4","Hindustan Petroleum Corporation Limited","Ground Floor, near Manickbag Auto, Mahadwar Road, Belagavi","15.85189","74.52141999999999"
"ChIJUXjXxL9mvzsR0-UGjHve4OY","Hindustan Petroleum Corporation Limited","Ground Floor, Mahadwar Road, Shahapur, Belagavi","15.852761","74.52080099999999"
"ChIJJ4LACtlCvzsREXV1qE4DXm4","Hindustan Petroleum Corporation Limited","10A/2, 10B, S No 220/2, Pune Bangalore Road, Hire Bagewadi","15.7774501","74.6357301"
"ChIJl57RVZpnvzsRG8V2JZV7NFU","TANDASHI PETROLEUMS","Shaganamatti","15.804928","74.577157"
"ChIJy9NHqR5nvzsRTIq4SHgjp4s","BPCL Energy Station Bharat Petroleum SHRI MAHALINGESHWAR PETROLEUMS","RH3G+XR, Shaganamatti","15.8057669","74.575375"
"ChIJ62QjWwBnvzsRAK8AWhThnE8","BPCL Energy Station Bharat Petroleum BALLOLLI PETROLEUMS","RH4C+QC, Bastawad","15.80696","74.5711"
"ChIJOxT3jk9FvzsR0hOTox6v2AA","IndianOil","Ground Floor, Bailhongal, M K Hubli","15.7292343","74.69364159999999"
"ChIJw2J6fwBFvzsRYrPxqdnsZck","BPCL Energy Station Bharat Petroleum MAHATI PETROLEUM'S ಬಿಪಿಸಿಎಲ್ ಎನರ್ಜಿ ಸ್ಟೇಷನ್ ಭಾರತ್ ಪೆಟ್ರೋಲಿಯಂ ಮಹಾತಿ ಪೆಟ್ರೋಲಿಯಂ","PM9R+VQ3, M K Hubli","15.7191577","74.69139129999999"
"ChIJ8d_UbYlDvzsRGK-vRrCH4mI","Highway Fuel Point, HPCL Dealer","M K Hubli","15.7335009","74.6830453"
"ChIJ6x2w6hpEvzsR0FaX1B_tzlM","IndianOil - SWAGAT","PB Road, Bailhongal","15.715035","74.700136"
"ChIJfc5TVgBDvzsR7zSO80-64w0","Jio Bp petroleum","PMQ8+F7, Virapankoppa","15.7386407","74.6657081"
"ChIJXXOCKtJDvzsRfe7nHalZ0SA","Bharat Petroleum Petrol Pump , SHARADAMBIKA PETROLEUMS","SY. NO.- 116/1K 4BCHIKBAGEWADI, Bailhongal","15.77044","74.682762"
"ChIJTW6mXPU3vzsRjR-NvjCwENQ","IndianOil","Survey No 98, Bailhongal, Kittur","15.5979645","74.7812387"
"ChIJt9Qqhx84vzsRDoZxzOVLgDE","BP Petrol Pump","State Highway 56, Kittur","15.5967865","74.77784729999999"
"ChIJ57IdXXw5vzsRsF59_Bm3P_4","Hindustan Petroleum Corporation Limited","Ground Floor, Guruwar Peth, Kittur","15.597488","74.780205"
"ChIJ9XZt70g3vzsR5RJ7OB6r5p8","Bharat petroleum","cross Bailahongal road, Bassapur KA","15.6034167","74.7886664"
"ChIJA9TzZSg3vzsR9SPBFxKYu4c","IndianOil","Ground Floor Channamma, Kittur","15.5888451","74.7827454"
"ChIJ77OzK9k3vzsR_TiFKVPliwg","Hindustan Petroleum Corporation Limited","Survey No 48, B NH 48, Kittur","15.587191","74.784971"
"ChIJW1wmfQBHvzsRFH4KmKdbzP8","Bharat petroleum durga petroleum ದುರ್ಗಾ ಪೆಟ್ರೋಲೆಯಂ","JQP2+Q5J, Hoolikatti K A","15.6369519","74.7503912"
"ChIJlwri5c82vzsRlCEABZuaJMM","IndianOil","Survey No 23/7, Belur Industrial Area, Tegur","15.5429616","74.8393375"
"ChIJ1wsmViI1vzsRISMebO6aTfo","Aditya Petroleum’s","opposite to Rajasthani dhaba, Singanahalli cross, opposite to Rajasthani dhaba, National Highway 48, Dharwad","15.5421054","74.8840042"
"ChIJ4ZwJl6k3vzsRLKyIgumhVUQ","IndianOil","Ground Floor, P B, Road, Tigadolli","15.561099","74.816394"
"ChIJWTxRabQ3vzsRXyojU_FREN0","Mulla Dhaba Petrol Pump (Mulla Dhaba Fuels)","N-H 48, beside Kittur Industrial Area, near tegur, near Old Mulla Dhaba, K.I.A.D.B, Tegur","15.5614107","74.8168942"
"ChIJcZhv8SUzvzsRdk9cmJ6WkyY","Swagat RO Indian Oil Petrol & CNG Pump","opp. Power Grid, Swagat JRO, NH 4, Pune- Bangalore Road, opp. Power Grid, Dharwad","15.501432","74.955536"
"ChIJOdFrLA0zvzsRoD5JP1pjE5M","Hindustan Petroleum Corporation Limited","Ground Floor, NH 4, Mammigatti","15.515631","74.930061"
"ChIJwxVH_SrNuDsRtEJk9BnCV1I","Jabbar BP Petrol Pump","Dharwad","15.4930625","74.9699375"
"ChIJBfoP9y7NuDsRjriCeZe24j8","IndianOil","Survey No 62/B Plot No 181, Dharwad-Belgaum Road, Dharwad","15.4879733","74.975117"
"ChIJo_qinNIzvzsRQo7O-lMN8M0","Bharat Petroleum Petrol Pump , PENTAGON PETROLEUM","PLOT NO. 3D1, ROAD NO. 4-B, TQ, Belur Industrial Area","15.5120592","74.9184889"
"ChIJu6eY1ZszvzsRNn8mW1r35Ao","IndianOil","Survey No 129, Belur Industrial Area","15.5202873","74.9143859"
"ChIJp5XaztszvzsREb4ROZNDLG8","Shell Petroleum","near, Belur Road, Belur Industrial Area, Belur","15.5280138","74.90623049999999"
"ChIJXzfq9Y4zvzsR_ACDcsqNCyk","BP KOTUR 2","","15.5287801","74.9048388"
"ChIJsecLUNszvzsRPRDKD8xLOI0","Bharat petroleum","BPCL COCO, next to Bank of Baroda, 1, NH Service Road, Kottur, Kotur","15.5294379","74.9046115"
"ChIJlUPuB4nSuDsRyAJEUofxfJY","Hp Gas Gowdown","C2Q6+6H9, State Highway 1, Rajatagiri, Gandhinagar, Dharwad","15.4380259","75.01147399999999"
"ChIJp9av3n3NuDsR-g2J__l_fyg","IndianOil","opposite Lekshmi Takies, NH 4, PB Road, Gandhinagar, Dharwad","15.454571","75.00851399999999"
"ChIJkcihYH3SuDsR6usMhED6K5o","Hindustan Petroleum Corporation Limited","Survey No 59, 1 & 59/2 NH 48, Shinganahalli, Vidyagiri, Dharwad","15.4432911","75.0146616"
"ChIJxV4b1PPSuDsRwT_KFnGaCnQ","HP PETROL PUMP - SRIKALMESHWAR PETRO STORES","Hpcl Dealers Kalghatgi Road, hattikolla, mailarling Nagar, Tejaswi Nagar","15.4254921","75.0067664"
"ChIJy4i2_qDSuDsRW8nCk06g9Vs","SRI GURUSIDDAPRABHUDEVARU Petroleum BPCL RO","LPG Territory, Haliyal Road, Tungabhadra HDS, Vijyanand Nagar, Saptapur, Dharwad","15.4492434","74.9877351"
"ChIJRWjzC4XNuDsReAEi0PD94-A","IndianOil","Survey No, near Hebballi Road, 434, Hebsur Road, Agafi, Dharwad","15.4628124","75.02432619999999"
"ChIJj_unHTjSuDsRNlLJDPz8r4A","Hindustan Petroleum Corporation Limited","Ground Floor, SH 73, PB Road, Navalur, Suthgatti Village","15.4209102","75.0387283"
"ChIJmepGz57NuDsRgqtlQIzLiSk","Hindustan Petroleum Corporation Limited","Ground Floor, Saundatti Road, Haveripeth, Dharwad","15.4725567","75.0195691"
"ChIJ9a7K1UHNuDsRwIJHDzmHx30","IndianOil","Survey No 52B, 1B/4/3, Doddanayakanakoppa, Dharwad","15.4708834","74.99090629999999"
"ChIJc6TOCUnTuDsRLRp1k6o8Rww","IndianOil","Kalghatagi Road, Saraswatpur, Dharwad","15.4400379","75.01209519999999"
"ChIJO_1KUH3SuDsRQjjmw8m137A","Jio-bp","Plot No 2 & 3, Old, PB Road, Vivekananda Nagar, Vidyagiri, Dharwad","15.442583","75.01488400000001"
"ChIJuffxSH3SuDsRUzd9Bw2v9N8","IndianOil","Hubli - Dharwad Road, Vidyagiri, Dharwad","15.4430201","75.0149801"
"ChIJY_WJZw3TuDsRcxGRvtlB6ig","Shell India Markets Private Limited","Hubli Toll Naka, CTS NO. 323/3, be survey no 25, near dharwad, behind domino's Pizza Hut, PB Road, Hosayellapur, Dharwad","15.4480922","75.01222469999999"
"ChIJaQcf-ObTuDsRkzBe4mtO1OI","Shell","PB Road, Hosayellapur, Dharwad","15.44816","75.01205"
"ChIJ2999L97TuDsR-sJbTfprCnQ","Hindustan Petroleum Corporation Limited","Ground Floor, Kalghatgi Road, Dharwad","15.425405","75.006706"
"ChIJ7bUUTp3TuDsRPDtJvQ8RWts","Bagalkot Petrol Pump","F226+689, Shivpuri Colony, Malmaddi, Dharwad","15.4505482","75.0108702"
"ChIJBfRuOq_TuDsRfoshbPOV9Q4","IndianOil","Cts No 121, 8/121/9121/10, Hosayellapur, Dharwad","15.4499971","75.0060396"
"ChIJqSkE0v_TuDsRxsZhVRANWsc","Vijaylaxmi Petrol Pump","SH1","15.4149525","75.0004053"
"ChIJ98OPWRzTuDsRjuvFnFVzZsQ","Bharat Petroleum - Shrimahalaxmi Petroleum","Khalgatgi road, Nuggikeri","15.4149375","75.00031249999999"
"ChIJ2cztumLNuDsRiMZSU_iZjm0","Go Gas auto LPG station","F263+MXV, State Highway 1, Alnavar, Dharwad","15.4614603","75.004858"
"ChIJNW9vWRzXuDsRvEvRIN9IGV0","Bharath Petroleum Sangmeshwar Petroleums 183949","33, 3rd Cross, Sangam Colony, Indra Prastha Nagar, Hubballi","15.3375713","75.1117263"
"ChIJTeDPenDXuDsRt78dZAC-TXo","Hindustan Petroleum Corporation Limited","Ground Floor, Bankapur Chowk, PB Road, Katnur","15.3342029","75.1421747"
"ChIJh1z9qXDXuDsR8yjE9zcR-YE","IndianOil","Ground Floor, Near Bankapur, Old, P B Road, Katnur","15.3313871","75.1428487"
"ChIJzQtqPiHXuDsRuIEEmq-UGVQ","Shell Gokul Road","Gokul Road, Hubballi","15.350916","75.116446"
"ChIJZ6NL7iPXuDsRtJ4mv9LpkKQ","IndianOil","9437+PMV, opposite to New Bus Stand, Gokul Road, KSSIDC, Industrial Estate, Hubballi","15.3510105","75.11455839999999"
"ChIJeX3o2SDXuDsR4i0kWQ0s1FM","Padmavathi Aegis LPG Pump","9426+74H, Gokul Road, Industrial Estate","15.3506912","75.1103621"
"ChIJdbWSEULXuDsRTozMMokotPk","SUPERGAS Auto LPG Station","near Gurusideshwar nagar, Ward No- 3, CTS no- 804/1, Tumkur ONI, near Gurusideshwar nagar, P.B Road, Hubballi","15.3469305","75.1370616"
"ChIJyzZSStnWuDsRtgf9Cfs4UgI","HP Petrol Pump","HPC Dealers, Basaveshwar nagar, Gokul Road, Hubballi","15.3512007","75.103227"
"ChIJR0MAdi_XuDsRAF85mUuStGI","Bharat Petroleum, Petrol Pump -B S Kallur Petroleum","UNKAL, PUMP HOUSE RD, Hubballi","15.3586698","75.1166657"
"ChIJrWdijkbXuDsR0KD7Ax5cYrs","IndianOil","Srinath Complex, New Cotton Market Road, New Cotton Market, Besides","15.3548412","75.1354152"
"ChIJ-dAS2kTWuDsRn9aInZKlNA4","Hindustan Petroleum Corporation Limited","Ground Floor, NH 63, Anchatgeri","15.3095558","75.0927033"
"ChIJD67D_ETWuDsR5Oj9ZjCOkUU","HP Sardar Narainsingh & Sons Petrol Pump","HPC Dealer Anchatageri Village NH 63","15.30812","75.09299299999999"
"ChIJUdYBt1zXuDsRDnUv_QxUJdw","HP PETROL PUMP - RM JOSHI","HPC Dealer Lamington Road Dist., Belgaum","15.352433","75.143411"
"ChIJhbgqtzPXuDsRFyhkoouTde8","Hindustan Petroleum Corporation Limited","Ground Floor, Old, PB Road, Prashant Colony, Vidya Nagar, Hubballi","15.3656434","75.1228884"
"ChIJv4_yQVrXuDsRCdaJhwLNXwE","Hindustan Petroleum Corporation Limited","Ground Floor, Keshwapur Road, Bhavani Nagar, Chandranath Nagar, Keshwapur, Hubballi","15.358251","75.14686379999999"
"ChIJ2wiz2_PXuDsRIjsns9BOAlo","BP Petrol Pump","","15.2973623","75.14670559999999"
"ChIJB4wYOgDXuDsRjEPbZhaJoZ4","Hubballi Fuels","Bharat Petroleum Corporation Ltd, 86/1, Hubli - Karwar Road, Hubballi","15.327796","75.1182511"
"ChIJjSeR8wDXuDsRxPoN55J7gqY","Shell","opp. to Electric Grid, Hubli-Misarikoti, opp. to Electric Grid, Road, Hubballi","15.3315","75.11994399999999"
"ChIJXWGRpw_XuDsRmQmXLR9qcYU","NAYARA","Hubli - Karwar Road, Ayodhya Nagar, Hubballi","15.332306","75.12158649999999"
"ChIJuUsJWgDXuDsRsmS4s9n0_x4","Shri Siddarudha Petroleum","10/47, 10/47, Hubli - Karwar Road, Siddaruda Nagar, Hubballi","15.333331","75.1226727"
"ChIJGQI6870ouTsRf2rQTeBtaR4","IndianOil","Ground Floor NH 4, PB Rd, Hubli, Varur","15.2104031","75.1382078"
"ChIJ9-bkQVgnuTsRGgD0nmF-jj0","Jio-bp","Survey No 79/1A, 99/1A & 137/7E/C/F Hubli, Chabbi, Nh 4, Agadi","15.184659","75.138341"
"ChIJBdogZ48vuTsRyei7uDrcwdw","Hindustan Petroleum Corporation Limited","Ground Floor, NH 48, Pune Bangalore Road, Dharwar","15.177191","75.139438"
"ChIJaxN8WmkvuTsR3qtVWSIgFTU","Bharat Petroleum - Namakkal Ganesh Fuels","near Tadas, NH-4, Tirumalakoppa, near Tadas, Cross, Hubballi","15.167562","75.1406119"
"ChIJVyC8SyQpuTsRTXbH-17qvT8","Hindustan Petroleum Corporation Limited","Ground Floor, NH 48, Dharwar","15.237807","75.142575"
"ChIJJUrvRVYpuTsRI69jyjaR09I","SHELL PALE","Bengaluru - Mumbai Highway Chabbi, Taluka, Hubballi","15.24041","75.14325"
"ChIJJSi2OwApuTsR9kw5MCusWQg","Bhavani renuka petrol pump","64RV+H5, Pale","15.2414531","75.1429653"
"ChIJR8slCKIvuTsRilDoSFBZPCM","Hindustan Petroleum Corporation Limited","Ground Floor Hubli Sirsi Road, SH 69, Shiggaon, Tadas","15.135348","75.131255"
"ChIJZS1pyWgvuTsRO3CCDb_fj7E","IndianOil","Ground Floor, PB Road, Tadas Cross, Ramankop","15.1521365","75.1450523"
"ChIJkaAsuJIvuTsR0pvRVEB_z-g","IndianOil","No 165/3A, Shiggaon, Tadas","15.1073387","75.1300179"
"ChIJh9C_HwA7uTsRAK4U_dE1C2c","Nayara Energy Petrol Pump || Shri Ranga Petroleums || Shyadambi","35C4+5X, Shyadambi","15.070385","75.157382"
"ChIJR9x5COcvuTsRt5TwWuF41fc","Bharat Petroleum, Petrol Pump -P.C.Kubihal & Bros.Fuelling Station","MUTHALLI, NR GAYATRI TEMPL, HAVERI","15.1524633","75.14207499999999"
"ChIJ3dPR8zw5uTsRrTZeKh5NOBo","IndianOil","Ground Floor Shiggaon, PB, Road, Bannur","14.9803889","75.22879499999999"
"ChIJ8RyzySU5uTsRjdJ69WaCKQE","Hindustan Petroleum Corporation Limited","Ground Floor, NH 4, Hubli Ranebennur Road, Shiggaon","14.9734059","75.2337822"
"ChIJsydMmJQ5uTsR8Iye56KQE6s","Bharat Petroleum, Petrol Pump -S.G.Patil & Co","P.B ROAD, Shiggaon","14.9928341","75.2150096"
"ChIJw_Dp-88xuTsR00wOB9r1Bm4","Hindustan Petroleum Corporation Limited","Survey No 112/1, Shiggaon","14.9914994","75.2214374"
"ChIJ4yOA12M5uTsRnFxSiyAliiM","Hindustan Petroleum Corporation Limited","Ground Floor, Shiggaon - Hulgur Road, Shiggaon","14.999006","75.22967"
"ChIJ0zplFuY5uTsRhGpoK1tggTE","SRI SAI SHAKTI PETROLEUM IOCL","SAVNUR ROAD, Shiggaon","14.98379","75.2340009"
"ChIJc-jX-qxAuTsRgHy1OwyLrBg","HP PETROL PUMP - SHREESHAIL MALLIKARJUN PETROLEUMS","Hpcl Dealer Road Shiggaon Taluk, Belgaum","14.914108","75.250134"
"ChIJRQHVLUo_uTsRMVbNaE0Rchg","IndianOil","Ground Floor NH 4, Munvalli, Shiggaon, Bannur","14.9424053","75.2529742"
"ChIJh6WG_WtBuTsRwJK5DxL3Uf0","Abhi Petroleum","Shambhuling Yaligar, Sunkadakeri Yaligar Lane, Bankapu, Bankapura","14.9226314","75.2646786"
"ChIJI4kmPQBBuTsRSpNwqhwHLzI","Bankapur toll plaza","Toll plaza Toll plaza, Bankapura","14.918839","75.26218209999999"
"ChIJwYOpYiU_uTsRGwloFwcKwck","Bharat Petroleum Petrol Pump , SRI VEERABHADRESHWAR PETROLEUMS","PLOT NO.599/10 & 11GADAG - HANGAL ROAD, TK, Shiggaon","14.9240588","75.25736619999999"
"ChIJEUUFTYFBuTsRbkXHjcFhKnI","R P GULMI PETROLEUM & CNG Station","W76G+JRH, Near Bankapur Toll Plaza New Darbar, Bankapura","14.9115708","75.2771075"
"ChIJ0-WiWalAuTsRpNO2IXyBaQE","IOC Fuel Station","W783+XHV, Bankapura","14.9174997","75.2539263"
"ChIJr9g14qtAuTsRxL_cfnT2hww","Hindustan Petroleum Corporation Limited","Ground Floor, Mundgod Haveri Road, Shiggaon, Bankapura","14.917615","75.25357799999999"
"ChIJ0_u242dBuTsRROxdbKiocRI","Husain Petrolium Indian oil","Bankapura","14.9177899","75.2512873"
"ChIJ6a7i5BlBuTsRcs10kByoesQ","IndianOil","Survey No 194/B, Plot No 1, Shiggaon, Bankapura","14.9022614","75.28684679999999"
"ChIJt9-swkTzqzsRVdto1Mdk2co","IndianOil","Survey No 293/B, Property No 621/B, Shiggaon, Bankapura","14.9170872","75.24191859999999"
"ChIJaeOhmrJBuTsRaNoj8GYXgdU","Hindustan Petroleum Corporation Limited","Ground Floor, NH 4, Baradur Cross, Tevaramellihalli","14.880977","75.310175"
"ChIJnTkoeABpuTsRztapnT4TQc8","Hindustan Petroleum Corporation Limited","Ground Floor, NH 48, Pune - Bengaluru Highway, Devagiri","14.833758","75.359758"
"ChIJVT-Mn3lBuTsRkH142NVNqvU","Hindustan Petroleum Corporation Limited","Ground Floor, Pune, National Highway 48, Savanur, Bengaluru","14.886854","75.302737"
"ChIJESPkte1ouTsRQX8Mkw6Nv8M","Veerabhadreshwar Petroleum Services","Sy111/1, NH-4, By-Pass, Haveri","14.7767673","75.3978932"
"ChIJHYHYmvxouTsRFQ_gSXZ7ggo","Hindustan Petroleum Corporation Limited","Ground Floor, PB Road, Haveri","14.7899701","75.39742009999999"
"ChIJS3j5nMJouTsRGixGYGhaBmU","Hindustan Petroleum Corporation Limited","Ground Floor, Old, PB Road, Haveri","14.782671","75.41138099999999"
"ChIJ0RtkB_touTsRUg62ZO0jpOg","IndianOil","Ground Floor, Hangal Road, Hedigonda, Haveri","14.7867352","75.3964815"
"ChIJ6z3YqlVouTsRgiWQY_M4KLI","Gas Bunk","Haveri","14.7854473","75.3855986"
"ChIJZXtileRpuTsRKFYxqJGw8C4","IndianOil","Survey No 31/A, Hedigonda","14.7844609","75.4024019"
"ChIJm8V1P0dpuTsRIaz-ZFwBbNw","Bharat Petroleum, Petrol CNG Pump -G.G. Magavi, Haveri","P B ROAD, Haveri","14.7877054","75.4005056"
"ChIJufiuIFBouTsR6DZgavjkFbE","Nimba city Petroleum","Q9MG+HGX, State Highway 2","14.7839927","75.3763499"
"ChIJXYrXijFpuTsRRbkecnba1zE","Nayara Petrol Bunk Best Petroleum","QCM6+89R, PB Road, Aladakatti, Haveri","14.7833629","75.4108875"
"ChIJpdFsPABpuTsR4F4txCKpomc","Jio petrol pump","Q9WX+2JG, Haveri","14.7950698","75.39906739999999"
"ChIJ3f5VNwJpuTsRXgDE8N7dGBQ","IndianOil","Rajendra Nagar, P B Road, National Highway 4, Haveri","14.7971073","75.3947062"
"ChIJxSYL0CBpuTsRuWjVTxweD0E","IndianOil","Ground Floor, Near Apmc, Guttal Road, Hedigonda","14.798408","75.416138"
"ChIJKVRJeABpuTsRSaPmKWZI6Zg","Hindustan Petroleum Corporation Limited","Ground Floor, near RTO Office, Old, PB Road, Haveri","14.8098287","75.385397"
"ChIJT2g81qNpuTsRHMVZaU4o99s","Bharat Petroleum","R97J+CQP, PB Road","14.8135777","75.38196359999999"
"ChIJaUhDzappuTsRCtj_tPAEVng","Jio-bp","1-1648-2786, PB Road, Ijarilakmapur, Haveri","14.8140558","75.3808471"
"ChIJVVhkUwAXrjsRJVAhEcLNHB4","Ashok AG&P CNG STATION","R97J+QG2, Haveri","14.814388","75.3812695"
"ChIJEzkcaQBpuTsRfo2u0WWcuLw","AG&P pratham CNG gas","Shri Bistanagoudar Godown, near BAMS College, Haveri","14.814392","75.381247"
"ChIJMbxTb31puTsRz2eP2OiU6w8","IndianOil","No 7980/1A80, 1B Ijarilakmapur, Hedigonda, Haveri","14.8150516","75.3805632"
"ChIJvYhHZ6ZluTsRjujGh9krAXk","Hindustan Petroleum Corporation Limited","Ground Floor, NH 4, Motebennur","14.725001","75.473091"
"ChIJfay2EgBluTsRLXMqUD1QOfo","Nayara Petrol Bunk C R Ballary Petroleum","Motebennur","14.7086371","75.48419919999999"
"ChIJu-VYZpEF0TsRaOwfMl6Gh08","IndianOil","Byadgi, Survey No 328/1A, Motebennur","14.71774799999999","75.49324"
"ChIJzfXgcwJluTsRqBNSpgXv5Qg","Bharat Petroleum, Petrol Pump -Netravathi Service Station","Byadagi","14.687593","75.4904043"
"ChIJFX3Vcp1luTsR5Vc_WFsRyXw","Hindustan Petroleum Corporation Limited","Ground Floor, Kammanahalli Cross, NH 48, Byadgi","14.747423","75.45306400000001"
"ChIJgR6cFA9luTsRpqSDaYSBCGI","Nayara Fuel Station SRB PETROLEUMS MOTEBENNUR","Mumbai Highway, Motebennur","14.7066388","75.5150768"
"ChIJAdGa1kVluTsRsKBr0xxnVbQ","Barki Petroleum","road, Mallur","14.6831414","75.47682379999999"
"ChIJF_wSKo5kuTsR4Xk5RfgpiQg","Hindustan Petroleum Corporation Limited","Ground Floor, Rd, Nehru Nagar, Byadagi","14.683194","75.49188099999999"
"ChIJ7xgo0vJkuTsRybCqecpNTsY","Nethravathi Service Station","MFJP+HQ6, Station Road, Byadagi","14.6814129","75.4869033"
"ChIJO448d2JkuTsR_za99yiaF00","NAYARA Petrol Bunk Sri Parvathi Petroleums","India","14.6790172","75.4807866"
"ChIJNX81_fdluTsRk8CaN6Q80f8","Hindustan Petroleum Corporation Limited","Ground Floor, near Kancor Ingredients, NH 48, Pune - Bengaluru Highway","14.704182","75.519746"
"ChIJkW2KFwBluTsR0wHc8SJa47E","Kakol","MFHV+FFX, Kakol Road, Nehru Nagar, Byadagi","14.6787361","75.493748"
"ChIJxSHgUJBkuTsRE57mmBWXOsk","IndianOil","Ground Floor, opposite Pwd IB, Kakol Road, Alalageri, Byadagi","14.6794145","75.4965021"
"ChIJ7X84DTVluTsRWHky4Dlgryc","Food Oil Shop","Bus Stop, Byadagi","14.6766917","75.4861851"
"ChIJ0dYDVJBkuTsReQw1Y4gxqcg","Indian Oil","MFHW+G43, Kakol Road, Byadagi","14.6787604","75.4953"
"ChIJ87oNOgB9uTsRn6Y7u9vy-ds","Cng pump","JHRG+JW5, Kunabev","14.6414756","75.5774386"
"ChIJ8318vlJ9uTsRDSx4lgoTnVg","BHARAT PETROLEUM COCO OUTLET BP1 RANEBENNUR","Nh 4 hulihalli, Ranebennur","14.6406974","75.5777067"
"ChIJJxeM5tR9uTsRGZW5ntqwNwU","Bharat Petroleum Pump COCO","JHQJ+HC6, Kunabev","14.6385967","75.5809283"
"ChIJ34qJVeB9uTsRmc1rGFljTb4","Hindustan Petroleum Corporation Limited","Ground Floor, NH 48, Pune - Bengaluru Highway, Ranebennur","14.6279943","75.5945256"
"ChIJoWKxGvljuTsRJmwV183dolI","IndianOil","Survey No 133, 2B, Byadgi Road, Kadaramandalagi","14.6439073","75.5227046"
"ChIJKfBBTB0rujsR1fjBhgQ2GDg","IndianOil","Survey No 120B, Bypass, Kumarapatnam, Karur","14.5441102","75.749507"
"ChIJJzXLIGjVuzsRk25idrr6uFQ","Jio-bp","Survey No 86/9 Ranebennur, Nh 4, Near Davangere Truck Stop, Kamdood","14.5725242","75.69021029999999"
"ChIJqftvNwArujsR989Xe7nzxdo","Heregowdar TATA DEF","HP5G+58, Chalageri","14.5579618","75.72581439999999"
"ChIJw6oBvd0rujsR-sFDwjq5NZk","Hindustan Petroleum Corporation Limited","Survey No 134, PB Road, Ranebennur, Karur","14.5475101","75.744916"
"ChIJgfUGsCXVuzsRfkXikB8O7GE","Hindustan Petroleum Corporation Limited","Ground Floor, Cross, Ranebennur, Taredahalli","14.543881","75.711052"
"ChIJozUwXIUrujsRQJylHbzT37Q","Sree Aditya Petroleums","NH4, Makanur cross, TQ, Kumarapatnam, Ranebennur","14.5381722","75.76097060000001"
"ChIJgfg1d3XVuzsRAp2G_jpCoxw","Nayara Petrol Pump Abhilash Petrol Bunk","HMFR+CH, Kamadod","14.5737419","75.69150789999999"
"ChIJHSx7ZtV_uTsRrHHMCamJFd4","IndianOil","Survey No 31/1B/1A2 Kamadod, Ranebennur","14.573127","75.690659"
"ChIJpxcAVQArujsR1IeMqHdzGmM","National Petroleums","HQG9+PMC, Khanderayanahalli","14.5768239","75.7691262"
"ChIJxZgpxRV_uTsRWmG7LGvxsAI","IndianOil","Sy No 23, 1 23/2 23/3 & 24, Ranebennur","14.5357053","75.7694253"
"ChIJRbLQEQDVuzsRiNUV8vSWQ-g","AD BLUE DEF युरिया पम्प LK GODARA","HMGQ+48W, Ranebennur","14.5753563","75.6883184"
"ChIJoeXi_f8rujsRIRj4yW9qpMA","IndianOil","Lock No 213, Harihara Fort, opposite LIC Office, Vidyanagara, Harihar","14.5028392","75.8065694"
"ChIJqb5kcI4tujsR5U0s5CBFkxs","IndianOil","Sy No 68/6, Mahajenahalli","14.4842268","75.80352239999999"
"ChIJQxdeyx0sujsRo-6-ND7bd1s","Hindustan Petroleum Corporation Limited","Sy No 69, 9 SH 25, Harihar","14.486322","75.802989"
"ChIJYypsxfwtujsRSBZHpGzpado","Bharat Petroleum Petrol Pump , IRANI SALES & SERVICES","State Highway 25, Harihar","14.476102","75.802315"
"ChIJjX-o2tovujsRXVUr_cEerkk","Mahadevi Fuels | Bharat Petroleums |CNG available| Mahajenahalli","FRH7+GGC, Mahajenahalli","14.4788096","75.81377239999999"
"ChIJQ_u-JT0tujsR_d6qN8yqTlk","L.P.G Go Gas || Vidya Nagar || Harihar","balaji oil mill a-block, Renuaka Nilaya, 25, State Highway, Opp:, Vidyanagara, Harihar","14.5000926","75.80713949999999"
"ChIJwyOHe0_YuzsRdOdKwMkrIv4","IndianOil","Survey No 50/4, Lock No 204, Shimoga Rd, Bellodi, Harihar","14.46392","75.79492859999999"
"ChIJdZfRK_4rujsRMPwNhLJz1EQ","Hindustan Petroleum Corporation Limited","Ground Floor, beside Irrigation Department Office, Shimoga Road, Harihar, Davanagere","14.505508","75.806743"
"ChIJ6QOZMVcpujsRmOaNMXAuxxE","Reliance Petroleum","S No 8/5, opposite SJVP College, Old, PB Road, Harihar, Davanagere","14.5120833","75.81244439999999"
"ChIJm59qyVEpujsRQoO3I4ysixY","IndianOil","No 183, Fort, Harihar","14.511057","75.817318"
"ChIJdWSGSf8pujsRGMXWkeNvrs8","GREEN AUTO GAS Propel Auto LPG","GR76+F62, Harihar","14.5136495","75.8105202"
"ChIJMbu0LBEpujsRge0DdJ-VsJQ","IndianOil","Lock No 199, PB Road, Harihar","14.5119539","75.8156657"
"ChIJJ0jd8oQrujsRIgQGJcwQ6EI","IndianOil","near CG Hospital, L No 255, Harihar","14.508994","75.767738"
"ChIJHeJhpkAlujsRD6ESdJ5bk9g","BP Petrol Pump","Door No:599, Hadadi Road, Opposite Vani Rice Mill, Shivakumar Swamy Nagar, Davanagere","14.4388585","75.9233899"
"ChIJeY_kpUAlujsRqQry7RNUbOE","Hindustan Petroleum Corporation Limited","CMC 596/C, opposite Vani Rice Mill, Channagiri Road, Davanagere","14.440386","75.92309399999999"
"ChIJm9Wxhj8lujsRiRawDLBJsZk","IndianOil","L No, 207, Hadadi Road, Nituvalli, Davanagere","14.441534","75.92231100000001"
"ChIJKwnA4WolujsRAGa1kHw85mk","Bharat Petroleum - CNG Station - M M Krishna and Associates","KST 805026846768, Hadadi Road, Davanagere","14.4439414","75.92131429999999"
"ChIJe7y7UGIlujsRw_yJJfxyVMQ","Bharat Petroleum Fuel Station","CWX2+7R5, Shamanur Road, Siddaveerappa Layout, Davanagere","14.4481487","75.9021173"
"ChIJa59KDmIlujsROVedhEsI50M","IndianOil","L No 210 Block A, 11th Cross, Road, Shamanur, Davanagere","14.446441","75.900429"
"ChIJWwVp0HslujsRGmGk22_NMLU","Hindustan Petroleum Corporation Limited","Door No 3714, near Laxmi Flour Mill, A5 & 6, Shamanur Road, Davanagere","14.456844","75.907901"
"ChIJia0JEHUlujsRfrPaSfFwG7I","Sri Jayadeva service station","Ambedkar Circle, Hadadi Road, Davanagere","14.461811","75.92089690000002"
"ChIJiaL1LA8lujsRN-Th2espYC4","Bharat Petroleum Vishwas CNG fuels station","State Highway 76, Neelammana Thota, Bhagat Singh Nagar, Nittuvalli, Davanagere","14.4586383","75.9321915"
"ChIJ8ZpwpqElujsRfSLiPfGuhxw","IndianOil","No 118, 1/P, L No 233, KR Road, Davanagere","14.4677713","75.92575330000001"
"ChIJiQacspEvujsR-_80yPyL9-g","Bharat Petroleum Fuel Station. BASAVESWARA HIGHWAY STATION.","Davanagere-Harihar Bypass, Davanagere","14.4474149","75.8860941"
"ChIJGzX1GoQlujsR1TDyj_tHUNU","Hindustan Petroleum Corporation Limited","823, PB Road, Davanagere","14.469247","75.906885"
"ChIJJVlHo5MlujsRM-quWybqOFk","Indian Oil Petrol Pump","near Davangeere, Survey No49 Honnuru, near Davangeere, National Highway 48, Gollarahatti","14.4354367","75.9125923"
"ChIJl7gWfFIlujsRDhkXRWJwrI0","IndianOil","Survey No, 24/3, Channagiri Rd, Vidyanagar, Shiramagondanahally Hosabadavne","14.4259669","75.9147536"
"ChIJS_Onb5UlujsRNvaioQfbaVQ","SP Auto LPG Davanagere","DOOR NO- 596,SURVEY NO-37/3B NITUVALLI VILLAGE NITUVALLI, VILLAGE, Davanagere","14.441007","75.922857"
"ChIJkUXuIgAlujsRgfY_LL6JlnI","Maganur Basappa Petrol Bunk","CWRF+M34, Hadadi Road, Shivkumar Swamy Nagar 1st Stage, Shivakumara Swamy Nagara, Davanagere","14.4416399","75.9227133"
"ChIJKbL3pjMlujsRWAhxNZ8JHb4","Hindustan Petroleum Corporation Limited","Ground Floor, Lokikeri Road, Industrial Area, Sar Nagar, Davanagere","14.422076","75.931106"
"ChIJGX0cHZElujsRtKgio30XPPA","Shree Durganjeneya fuel service -- bharat petroleum","Hi-tech hospital, Sai balaji enclave, road, Shakthi Nagar, Davanagere","14.4358027","75.9402989"
"ChIJjfMiMA0lujsRW3UY-Gt2c8Y","MARIYA SERVICE STATION","India","14.4547509","75.9237261"
"ChIJIW0aAHMlujsR63V3xMNhtNU","IndianOil","L No, 222, Hadadi Road, Shivakumara Swamy Nagara, Davanagere","14.455495","75.919991"
"ChIJpWX4f007ujsRPrZrBiU0kYY","Hindustan Petroleum Corporation Limited","Ground Floor NH 4, PB Road, Honnur, H Kalapanahally","14.419301","75.981027"
"ChIJmX9Olug8ujsRn0Z2q_fUs7c","Bharat Petroleum Basavashree Petroleum Centre","National Highway 4 On the left of NH4, Towards Bangalore, 2 kms before Anagodu village,, Davanagere","14.3976372","76.0289138"
"ChIJ68jk9xI9ujsRiCgDWQW28h0","Hindustan Petroleum Corporation Limited","S No 211/4, Anagodu","14.3966619","76.02869849999999"
"ChIJr4gtotc9ujsRJmRBR_fMW2E","SRI BASAVESHWARA PETROLEUMS HPCL BUNK","NH4, Anagodu","14.3954841","76.0343736"
"ChIJUY_jpwQ9ujsR_47QCsd9rPg","IndianOil","Survey No 234/6, Lock No 164, Holalkere Road, Basavanahal, Anagodu","14.390909","76.045116"
"ChIJD2tbPFI7ujsRnlDY2FmR4Qc","Siddheshwar Petroleum","S. No. 19 P, Honnur Golarhatti, Tal. & Dist","14.413452","75.98587"
"ChIJSS1DfhA7ujsRm3NgEmVjukQ","IndianOil - SWAGAT","Sy No 49, National Highway 48, Honnur","14.4133669","75.9855745"
"ChIJ55Z6wDkRujsRSSezfEnO0C8","HP Petrol Pump","Bharmasagara","14.3704375","76.19143749999999"
"ChIJ-fGkbQAXujsR1hI4h1FQNO4","DGFC diesel bunk","Hebbal toll, Near, PB road, Hunasekatte","14.3718622","76.1168312"
"ChIJ7ZtPhlkRujsR8PHJVxTcaqg","Hindustan Petroleum Corporation Limited","Survey No 33, 4 Bharamasagara, Chitradurga","14.371551","76.1871286"
"ChIJk6p6LDcRujsR_Qoa31IQWIw","Bharath Petrol Pump","95CQ+P2C, Bharmasagara","14.3718245","76.1875101"
"ChIJvTzVnDoRujsRFr3VmEcowPM","IndianOil","Bharmasagara","14.3754401","76.1899991"
"ChIJCxM2OgAXujsRRFge5eBQNio","DGFC diesel bunk","Hebbalu Toll Plaza, Madras Bombay Trunk Road","14.3755557","76.1066707"
"ChIJx6TjoGYSujsRcYf75sWTBhg","Venkateshwara Petrol Bunk Lakshmi Agencies","8753+CCV, Kalkunte","14.3086082","76.25353930000001"
"ChIJYQJwlvATujsReKUGmqBInTM","Hindustan Petroleum Corporation Limited","Ground Floor, Exit to Sirigere Cross, Kalkunte","14.307252","76.253759"
"ChIJ_y-Z2rQMujsRbl33ntSA-ng","Bharath Petrol Pump","786V+VHP, Iyyanahalli","14.2622195","76.3439636"
"ChIJxWvD8zVzujsRfcROXBktOpc","Bharat Petroleum, Petrol Pump -Maheswar Service Station","CHIKKAGONDANAHALLI, Chitradurga","14.2590564","76.3515524"
"ChIJqXYtx84MujsRrtqvFkEqjEo","Bharat Petroleum - Chandra Kiran Fuel Station","India","14.268326","76.334045"
"ChIJcVveMqF0ujsRPPUJXFcryaQ","IndianOil","Lock No 154 NH 4, PB Road, Govinahalu, Chitradurga","14.2521303","76.3637044"
"ChIJLXrsMWNzujsR72Bo591KdJc","Bharat Petroleum, Petrol Pump -Sri Ujjaini Siddeshwara Agencies","SIDDAPURA, Chitradurga","14.2191554","76.3495484"
"ChIJ7dI3Hwp1ujsRZIeXr1CAKxU","IndianOil","near Chitradurga, Sy No 61/3, Lock No 157 Chitradurga Challakere Rd, near Chitradurga, College Road, Madakaripura","14.2224036","76.4275001"
"ChIJa_9_Pap1ujsRZA3Gws6CHd4","HP Neeladri filling station","Maniyur, Chitradurga","14.2186361","76.4148246"
"ChIJ6b5xc7x1ujsRogZioNw2-vI","IndianOil","Lock No 175, NH 4, College Road, Chitradurga","14.2055031","76.4278971"
"ChIJk0nC9Pt0ujsRBFVPaL54XgA","IndianOil","L No 153, Khatha, No 2363, College Road, Venkateshpura, Chitradurga","14.2264645","76.40393259999999"
"ChIJYw6bwZB1ujsRfkDmmbUEJho","Bharat Petroleum Petrol Pump , SRI MARUTHI FILLING STATION","Madakaripura","14.2250568","76.4373481"
"ChIJs_bEGDB1ujsRgzpynEdIJsc","Sri Manjunatha Fuels and service Station","Essar Oil Ltd, Gonur","14.2540992","76.421737"
"ChIJVdl0xSx1ujsRwrhD5UUukPk","Hindustan Petroleum Corporation Limited","Ground Floor, near Challakere Road, Challakere - Chitradurga Road, Chitradurga","14.2214324","76.4254107"
"ChIJr23_4Xl1ujsRASjgTOVSa9U","Shell Petrol Pump","Taluk, Rd, Chitradurga","14.2207682","76.4235324"
"ChIJjeLy-ad1ujsR2peBPgsApFY","Hulekunteswara Agencies (Aegis Autogas)","State Highway 48, Chitradurga","14.2202364","76.4222395"
"ChIJk_o_Ap2fsDsRlDtKv9Bx5ro","DEF AD BLUE","DEF, AD, Uriya, Chitradurga","14.2227458","76.4593818"
"ChIJWZY0HwN1ujsRH1DhOOYqloA","BP Petrol Pump and CNG M.S.Narayana Setty and Sons","National Highway 4, Bypass Road, Bank Colony, Chitradurga","14.2298846","76.4133567"
"ChIJycKbYSl1ujsRKnbBgFuUntI","Nayara petrol bunk","nayara Energy Limited, Vaishnavi agencies, Challakere Road, Chitradurga","14.2179455","76.4175058"
"ChIJQXgX9al1ujsRF8Mg_pPh29M","IndianOil","Lock No 147, PB Road, NH 4, KP West, Chitradurga","14.2187261","76.4160472"
"ChIJLx3UOFN1ujsRzTlcuMB_sIA","ESSAY PETROLEUM AUTO LPG GAS BUNK","Challakere Road, Chitradurga","14.2185428","76.4161021"
"ChIJk5B1cFd1ujsRY5UMMIub31Q","Hindustan Petroleum Corporation Limited","Khata No 11759, Sy No 78/4C2, Hobli, Kelagote, Chitradurga","14.217701","76.4156479"
"ChIJnRpjn_90ujsRD60DZFcgI5A","M Vivekanandaiah & Sons - Bharath Petroleum Dealers","Opposite Government hospital, B D Road, Chitradurga","14.2210145","76.4077796"
"ChIJkbKjRk11ujsRY6zK7bAhp70","IndianOil","Lock No 152 VP Ext Main Road, Chitradurga, College Road, Chitradurga","14.2290625","76.4038382"
"ChIJP6PoXLd1ujsRzi7pFMk80E4","Bharat Petroleum, Petrol Pump -W Srinivas Rao & Sons","opp. District Government Hospital, CK Pura, Chitradurga","14.2211256","76.407422"
"ChIJadumXgB1ujsRAAsENz6xcco","USK Auto gas","6CH2+33F, Channabasaveshwara Temple Road, Vijayanagar, Chitradurga","14.2276935","76.40016059999999"
"ChIJ1RJ2egB1ujsRg7-B7Yk-ZqE","cng","69GX+26M, Chitradurga","14.2250932","76.3980464"
"ChIJvVFsQLicsDsRQXJsqk9980g","Hindustan Petroleum Corporation Limited","Ground Floor, PB Road, Hiriyur, Aimangala","14.102901","76.527271"
"ChIJsxhBJv6csDsRLiA_0C7v9ek","IndianOil","Survey No 20/4, Lock No 387, NH 4, Bangalore Poona Road, Burujanaroppa","14.128888","76.5048801"
"ChIJq2JadSiDsDsR81Y4Q9tUNbM","Hindustan Petroleum Corporation Limited","Ground Floor, NH 48, Aimangala","14.087138","76.538729"
"ChIJpW_QHPudsDsRGhQDlULAxrc","ROAD BOSS TRUCK STOP- IndianOil Petrol Pump (24 Hrs)","near Chitradurga, IndianOil Outlet, NH 48, 185KM LHS, Bangalore, near Chitradurga, Pune - Bengaluru Highway, Palavanahalli Village","14.1380581","76.4943539"
"ChIJudOKNwqFsDsRhcU99UvGxXk","Hindustan Petroleum Corporation Limited","Ground Floor, near Hotel Athithya, Hiriyur","14.021329","76.581521"
"ChIJacYiWj-HsDsRNoD6pvu0_dE","Shankar Fuels MRPL Hi-Q","1023, National Highway 48, Metikurke","14.0019259","76.5878383"
"ChIJm8CfcBKHsDsRZjGXfSCdn4M","Bharat petroleum Hiriyur (Veerabhadreshwara fuel)","NH 48, Hiriyur, to, Chitradurga road, Metikurke","13.9973361","76.5884322"
"ChIJtQL4DA-GsDsR_emIgz3dNBk","IndianOil","Lock No 166, Sy No 31/8P1, New No 31/9, Hiriyur - Challakere Road","13.9967822","76.6283289"
"ChIJT5NR4-mHsDsRo1Jgy7ByudY","Hindustan Petroleum Corporation Limited","Ground Floor, NH 4, Hiriyur","13.936197","76.62455299999999"
"ChIJnUF1ObZjsDsRZqqMVV7YSW0","NAGARAJA PETROL STATION AJAYKUMAR T.","No 1st Main Road Bengalore To Pune, Nh4, Hiriyur","13.9145967","76.657934"
"ChIJRS6adgBjsDsRmlkZn0HP4Ks","IndianOil","Survey No 15/6, Hiriyur Bangalore Road, Adivala","13.9154779","76.65739909999999"
"ChIJFwgRZ7uHsDsR74HCnw_taDo","IndianOil (Shri Mythri Agency)","opp. Balija Bhavana, NH48, Hiriyur","13.9245567","76.6377736"
"ChIJZ17saD-HsDsR2khMFxLw6CI","BPCL PETROL PUMP (TULAJA FUELS)","WJGM+V6F, National Highway 48, Hiriyur Rural","13.9271898","76.6330375"
"ChIJl59UcABjsDsRjNoVV5mp-eo","Sri gowri fuiling station","Gowri fuling station, Hiriyur","13.88001","76.69157140000002"
"ChIJI1wVO2JhsDsRStxg3-M50qA","Sri Vijaya Sarathi Petrol Pump","RPRM+JHM, Anesidri","13.84171","76.734016"
"ChIJfSou1tZhsDsR-0m_xKyorW4","Hindustan Petroleum Corporation Limited","Ground Floor, PB Road, Hiriyur, Javagondnahalli","13.8411033","76.73380829999999"
"ChIJIfO6EwBhsDsRg2BjhYYec6E","FOUR BROTHER FILLING STATION","RPQQ+RHH, Javagondnahalli","13.840371","76.739682"
"ChIJOYCeDQBhsDsRuuarLM0dJfM","NAYARA ENERGY","RPQQ+RHH, Javagondnahalli","13.840371","76.739682"
"ChIJgdXpJgBhsDsRYUAXxXFp1TY","PS FUELS STATION","RPPQ+Q2, Javagondnahalli","13.836921","76.73750849999999"
"ChIJjQNRKp9hsDsR5nQg_Hzh44Y","INDANE GAS DELIVERY MAN","RPQV+7R4, Chitradurga","13.8381375","76.74457810000001"
"ChIJIQboIgBjsDsRaGhcGDYhbMU","Petrol pump","VP93+XR4, Bagganadu","13.8696524","76.7045105"
"ChIJ8y8eTQ1jsDsRNCo0_0SY0Y8","Shree Surya Sutha BPCL bunk","Karnataka, Sy.No. 49/5 Bagganadu Village NH 4 K.R. Halli Gate J.G Halli, Hobli, Hiriyur Taluk Chitradurga Dt, Karnataka, Pin: 577511","13.8744815","76.6998345"
"ChIJpf3olCNdsDsRwP_BvAD8CdI","IndianOil","Ground Floor, near anjaniya swami temple, NH 4, Mangangi Thanda","13.7704701","76.8558604"
"ChIJr_xPOwBnsDsRriaH2JCmcdo","DEF Adblue Filling Station","QRQ7+953, Sira","13.7883815","76.812917"
"ChIJHe7NyJhnsDsRZWF-ouGifNY","Yashoda fuel station Nayara Energy","Tavarekere, Survey No. 162/*/3 (NH 48) Village, Tavarekere Village, Gowdagere Hobli,Sira Taluka of Tumkur District Sira","13.7896581","76.8100846"
"ChIJxyCNawBnsDsRoeNTcYK9CwY","Nayar energy Yashoda f","QRQ6+V49, Hosur","13.7897121","76.8095973"
"ChIJ1TRbAc9dsDsRjp0zIiAN3Pc","Shell Petrol Pump","NH Service Road, Mangangi Thanda","13.7750367","76.8384566"
"ChIJ__nyRABdsDsR5Wnho_kd_Us","Jio-bp","Survey No 109/3 & 109/4, NH 48, Sira Bypass, Sira, Panjiganahally","13.773718","76.841338"
"ChIJ--9s5QxnsDsRifx2Qav_mrY","IndianOil","Survey No 697, Hissa No, 657 Taverekere, Sira, Dyagerahally","13.7951649","76.8009299"
"ChIJrarGB0tDsDsRPuMKFZUrjM4","Hindustan Petroleum Corporation Limited","Ground Floor, Sira - Agali Road, Tumkur","13.7445228","76.8986935"
"ChIJOTBGA0tDsDsRjmQwyejeWcw","Bharath Petrol Bunk","NH4, Tumkur-Sira Road, Rangappanapalya, Sira","13.7569656","76.8998946"
"ChIJrcRdC4FDsDsR9YjygUy5Hh0","PRABHU ENTERPRISES Indane Gas Distributors","PW97+QM, Gummanahally","13.719428","76.9141976"
"ChIJv_ymu1tDsDsRXQXpjv-Neyc","NAYARA","India","13.7326208","76.9105026"
"ChIJk1npHQBDsDsR80RyqK9znUU","Hongirana fuel station","PW87+6GC, Gummanahally","13.716103","76.913726"
"ChIJedUahxNDsDsR0EV4ucKcxvs","Hindustan Petroleum Corporation Limited","Ground Floor, Tumkur-Sira Road, Sira","13.7334217","76.9101716"
"ChIJgSoG1BhDsDsRNVUAcwhWFas","Hindustan Petroleum Corporation Limited","Survey No 137/2, Muddigere","13.7252852","76.8878649"
"ChIJJ2MgABVDsDsRnbbx8rAdr4A","Reliance Petroleum","RELIANCE PETROL BUNK,SH-58 SIT NO 173/P NEAR AYYAPPA SWAMY TEMPLE,VILLAGE: MUDIGEREKAVAL,BUKKAAPATANA, Road, Sira","13.7373398","76.8937789"
"ChIJ1V4j5n5DsDsRTxEePpr-5dU","BP COCO bunk","India","13.7058195","76.9141238"
"ChIJIacfnBhDsDsRFsdHxjm3tUo","COCO Bharat Petroleum, BP SIRA MAFAH","SIRA II, TUMKUR","13.7061012","76.91495060000001"
"ChIJQ0yqaH9DsDsRrq0bZ2yqzls","Bhagawan Sri Balaji fuels- Indianoil","Ground Floor, NH 4, Tumkur-Sira Road, Yemmarahally, Bandakunte","13.7034435","76.9136761"
"ChIJ7bE2OABDsDsRpKI_za0OF0Y","Sira bharath company petrol pump","PVWX+354, Sira","13.7451493","76.89796620000001"
"ChIJ10x3NaBdsDsRHWH7VFnCSzM","Venkatadri fuels","survey number 510, near Benche, gate, Sira Rural","13.7509468","76.9153281"
"ChIJke76rXBdsDsRIAfEIB8Ov0w","Shree nidhi petroleum BPCL","Keshav Nagar, Sira","13.7509915","76.88668179999999"
"ChIJYesSR7dcsDsRayNb_CiaGKA","IndianOil","1097/983 1095/981/170 1096/982/171, Sira - Amarapuram Road, Kallu Kote","13.7573161","76.90004859999999"
"ChIJ4T_5SABdsDsR9Lwm16OYD1E","Hindustan Petroleum Corporation Limited","No 91/2 Kalukote, NH 4, Bangalore, Pune - Bengaluru Highway, Sira","13.754146","76.880586"
"ChIJ3brMYABHsDsRlNfpn5rO0HM","NAYARA - Sri MaradiRanganathaSwamy Fuel Station. Puna-Bangalore NH-4 Highway service Road.","JWMR+C6V, Maralappanahally","13.6327085","76.94076849999999"
"ChIJOaTVcABHsDsRmngg7RA_wcA","Indian oil petrol pump","JX35+9RM, Karejavanahally","13.6034564","76.9595329"
"ChIJi3ykAy5HsDsR3cbtdRnfqeQ","SLN fuel station, Bharat petroleum","JW69+38, Lakkanahally","13.6104375","76.9181107"
"ChIJDUBbVwBBsDsRNx8kurJuSSc","KRISHI FUEL STATION","Kallembella","13.5944012","76.9120609"
"ChIJd3KZXQA5sDsRBPRg6Qj-KQc","Adblue DEF Shop","GXQW+2X, Saluparahalli","13.537518","76.997391"
"ChIJFZ20_JM5sDsRjKhl3NYnukg","यूरिया पंप","GXQW+2X, Saluparahalli","13.5375625","76.99743749999999"
"ChIJqQDwNbo3sDsR2-YBTJVUHd8","IndianOil","Plot No 159, Vasanthanarasapura","13.5040002","77.026523"
"ChIJHQwgEkI3sDsRh3VB2M9KUCc","Straton","India","13.5037173","77.0265788"
"ChIJj2S0WAA3sDsRhz5ottY3Kh4","Honnaganga petroleum (IOCL)","F2V8+F7F, Devarahalli","13.4936758","77.0156639"
"ChIJ_VsUPMQwsDsRBaheD95IPYo","IndianOil","Ground Floor, NH 4, Nelahalu, Brahmasandra, Giriyanahalli","13.492157","77.01667900000001"
"ChIJs-1gECI3sDsR0vm6QcKdrbI","Deepthi Petroleum- Bharat petroleum","F2PG+HQ5, Service Road, Nagenahalli","13.4863771","77.0269915"
"ChIJe9XtKu8xsDsRLH_XGLAgCuc","Hindustan Petroleum Corporation Limited","Survey No 180/2, NH 4, Tumkur-Sira Road, Oorukere","13.4083434","77.0853293"
"ChIJg2iA_tAxsDsR_4_2JoDfSbI","Bharat Petroleum, Petrol Pump -Vinayaka Fuel Station","ANTHRASANA HALLI VILLAGE, Tumakuru","13.4216706","77.0732656"
"ChIJeytcM1oxsDsRjeoXxj_Z5ns","IndianOil","Survey No 1, Khatha No 16/16, Kora, Hobli, Vasanthanarasapura","13.4673754","77.0403303"
"ChIJV6-1RcQwsDsR8NGNa28eA74","Hindustan Petroleum Corporation Limited","Sy No 19/4 Kora, Hobli, Vasanthanarasapura","13.4681102","77.0403485"
"ChIJCQDC9OoxsDsRaQYDYHzxGoo","Bharat petroleum Padmashree fuel park petrol Bunk","Vasanthanarasapura,Pune-Sira highway sira NH4,Near VRL hotel,Vasanthanarasapura, industrial area, Tumakuru","13.4713268","77.0369051"
"ChIJ9Ztw8kwssDsRpfRLA7yGM-U","IndianOil","Ground Floor, Belagumba, Tumakuru","13.3489008","77.1340063"
"ChIJqbcQky4ssDsRZL-A5ypU37g","Bharat Petroleum, Petrol Pump -Sree Shiva Shankari Fuels","Kotitopu, Tumakuru","13.3433452","77.1101876"
"ChIJ4___70MssDsR6wAzr4RyUu4","BG SHIVAPRAKASH MIRJI PETROL BUNK BHARAT PETROLEUM","NH 206, Batawadi, Tumakuru","13.328381","77.1307186"
"ChIJJcIh-tUtsDsRFVdWIkvq6OI","IndianOil","near Venkateshwara Engineering Works, Ground Floor Sira Road,Arakere, near Venkateshwara Engineering Works, Tumakuru","13.354818","77.102852"
"ChIJIbvXDsMtsDsRO-aunvvP2WA","Bharat Petroleum CNG gas","9498+RH9, Satyamangala, Tumakuru","13.3695353","77.11647839999999"
"ChIJWWWu29ctsDsRDQfyTn8faXg","M/s. Shivaganesh Fuels","9453+R39, Sira Road, Tumakuru","13.3595317","77.10274299999999"
"ChIJOxOJfoYusDsRPMpGjNYqaa4","IndianOil","Ground Floor, opposite Maruthi Theatre, Bangalore - Honnavar Highway, Barline, Tumakuru","13.344106","77.093693"
"ChIJf5oq75susDsRDzvIMYa590Y","Bharat Petrol Bunk apoorva service station","83MW+96X, Tumkur Main Road, Sadashivanagar, Tumakuru","13.333492","77.09561169999999"
"ChIJuzPXW3wssDsRMz3a3V-AAjw","Hindustan Petroleum Corporation Limited","Ground Floor, Siddaganga Mata Road, Math, Kyathasandra","13.3150517","77.14487240000001"
"ChIJW7BRopEusDsRyVYgBCxHjU4","Bharat Petroleum - Rajnish Fuel Station","83PP+5PG, Bypass Rd, Ring Road, Veersagar, Near Dhanah Palace, Sadashivanagar, Tumakuru","13.3354346","77.0868131"
"ChIJB3eHoCktsDsRH9bOdwM4RqA","Hp petrol bunk","Survey No 266, 3 266/4 & 266/5, Belagumba Road, Tumakuru","13.346529","77.125619"
"ChIJB1uSZjUssDsRRRcpFTbeBuc","SreeRanga Gas Godown,Ganeshnagar","84XG+P2R, Belagumba, Tumakuru","13.3493603","77.1250187"
"ChIJbaIhXFkrsDsRaRLmcUMkTDc","TIWARI HIGHWAY FUELS","Survey No 66/1, Chikkahalli, NH 48, Tumakuru","13.3497842","77.124517"
"ChIJxXCh_DQtsDsRB4kExEuD-Yk","Hindustan Petroleum Corporation Limited","Ground Floor, Kasaba, Tumakuru","13.3286208","77.1220158"
"ChIJP5h3lpstsDsRYp6Iu_EvlUQ","SHIVDEV PETROLEUMS","SS Puram Main Road, Entrance, Tumakuru","13.3338142","77.10955659999999"
"ChIJNWPR5OQtsDsR4egjT_OXbBg","SIPANI_TotalEnergies - Tumkur","84Q4+9CG, Ward No. 18, Tumkur, Tumakuru","13.338444","77.10606539999999"
"ChIJkRFCn84tsDsRUnAged0EnJg","Go gas","84FM+MV8, Chandana Complex, Tumakuru","13.323877","77.13478409999999"
"ChIJS6_QJyYssDsRpcTkBfv3abQ","IndianOil","Ground Floor, Kariappa Road, KR Extn, Barline, Tumkur, Tumakuru","13.3387044","77.1037786"
"ChIJY0fQowktsDsR_a9czu8jN-I","Shell petrol bunk","near Kodi Basavanna Temple, State Highway 33, near Kodi Basavanna Temple, Sira Road, Tumakuru","13.3506494","77.1032098"
"ChIJ0_DuZNUtsDsRMfh1Xo_Jbh4","IndianOil","TUDA Layout, Tumakuru","13.351923","77.1029701"
"ChIJ91JWURLVsTsRn_MuW05V-B4","Hindustan Petroleum Corporation Limited","Sy No 14 Nelamangala, Sompura, Nijagal","13.2466009","77.2261631"
"ChIJFaTCBAArsDsROEzNKXQpSuk","𝗧𝗶𝘄𝗮𝗿𝗶 𝗛𝗶𝗴𝗵𝘄𝗮𝘆 𝗙𝘂𝗲𝗹𝘀 , indian oil","75GV+39X, Tumakuru","13.2752301","77.193499"
"ChIJDyk1jIvvzjsRhuBipwlk0jM","IndianOil","Survey No 128, 2 Gandhinagar, Railway Station, opposite Hirehalli, Tumakuru","13.2800209","77.1872144"
"ChIJjaPzR_TVsTsRIG5kkhVB4SA","AJITH FUELS","7674+7C9, Hale Nijagal","13.2631606","77.2060977"
"ChIJU-2omDMtmTkRniVw60p1vD8","IndianOil","Survey No 59/2A4 & 59/2A5 Nandihalli, hubli, Urdigere","13.2631097","77.2064572"
"ChIJLetPlx_VsTsRDkYyEkC-JJo","Bharat Petroleum S R S H Fuels Station","30/6,30/7,Halenijagal Dabbaspete NH4 Tumkur Road, Rural, Bengaluru","13.2620794","77.20738349999999"
"ChIJIweVKgDVsTsRyqLE3NG_exA","Good will fuel station Indian oil","7665+FF6, Hale Nijagal","13.2611589","77.2086485"
"ChIJ1dgWZwDVsTsRSbeMiIuxUpQ","SLN FUELS, Nelamangala","Hale Nijagal","13.2598125","77.2093125"
"ChIJm_v8dyPVsTsR9Bk53orkqUg","Indian Oil Petrol Bunk","Hale Nijagal","13.256471","77.2125276"
"ChIJGSjMa0vVsTsRiorPIFo8mgs","Bharat Petroleum, Petrol Pump -Sannidhi Service Station","Hale Nijagal","13.2564764","77.2138916"
"ChIJK9L7XwDVsTsRo70mlGZtTkQ","Reliance Petrol Pump Parking","66XF+JCW, Nijagal","13.2496249","77.2240162"
"ChIJo6jZdwzVsTsRFKk8QLbb-RE","IndianOil","Old NH 4 Bangalore Pune, Highway, Dobbaspet","13.2448857","77.2301545"
"ChIJt1FeOA3VsTsRZUjAKcWsZIM","IndianOil","Sy No 6, Nijagal, Tumkur Road, Bangalore","13.2441437","77.230367"
"ChIJr6XcZnIqrjsRl9sJnZOBigA","INDIAN OIL PETROL PUMP - COMCO NHAI YEDEHALLI","Yedehalli-villgae, Sompura Hobli Nelamangala BLR, Bengaluru","13.2108624","77.2581916"
"ChIJEXCBTAArrjsRmW5ziI1Kh18","Shri Radhakrishna Fuel Park (ಶ್ರೀ ರಾಧಾಕೃಷ್ಣ ಫ್ಯೂಲ್ ಪಾರ್ಕ್)","6765+7RJ, Nelamangala Town","13.2107133","77.2595243"
"ChIJvQHzwDsrrjsRm4fWhAbnb2s","Hindustan Petroleum Corporation Limited","near Bengaluru, Survey No 43/1 to 43/7 & 44/4 NH 48, Sompura, near Bengaluru, Tumkur Road, Yedehalli","13.2108086","77.25875099999999"
"ChIJoTnnKQArrjsRtxJwF4yYZCQ","IndianOil","No 44/1/3 41 & 43/1/7, Nelamangala Banglore Road, Yedahalli, Bengaluru","13.210918","77.2581372"
"ChIJAaeyA3IqrjsR2NG0ueNo1IM","IP","India","13.2111772","77.2579403"
"ChIJV1jw6hQqrjsRV8OPum7E3gs","IndianOil","Sy No 14/7, Old Sy No 14/4, Billinakote Sompura, Arebommanahalli","13.2043468","77.2648446"
"ChIJ6Vvb7BQqrjsRyX2USJNpV4Q","Nayara fuel station","Kengalkempohalli","13.2038783","77.2651254"
"ChIJc443VwArrjsR0psKVfSqFek","Nayara Petrol Bunk (ನಯಾರ ಪೆಟ್ರೋಲ್ ಬಂಕ್)","6793+W58, Nelamangala Town","13.219777","77.2529395"
"ChIJ_wLuWDsqrjsR_fzwivM8vAY","S. M. Petroleum","57VF+QQM, Billanakote","13.1944563","77.2744087"
"ChIJrY3aXQkrrjsRcfOHAHJSBo4","VRL Diesel pump stop","57VF+8M4","13.1932521","77.27420959999999"
"ChIJB7s6iHLVsTsR80pajKewm3s","Hindustan Petroleum Corporation Limited","Ground Floor, NH 48, Sompura","13.224372","77.243876"
"ChIJkQmMzd_VsTsR5t_LeN9WgKU","IndianOil","P No AM11, Sy No 182 & 183 1st Stage, Nelamangala, Area, Sompura","13.2345794","77.2682696"
"ChIJsanKUDorrjsRWqHutFktaiQ","BVG Fuelling Point, BPCL","25/8, Thyamagondlu Village & Hobli, Nelamangala, Taluk, INDUSTRIAL AREA, Dobbaspet","13.2222324","77.28590009999999"
"ChIJn-52mCHVsTsRKTSPFvOZdzY","Bharat Petroleum, Petrol Pump -S M Petroleum Company","DOBOSPET, Tumkur Road, BANGALORE","13.2289144","77.24109260000002"
"ChIJHQeTpf4prjsRlUrjMp-1w2w","AZEEZ FUELS","AZEEZ FUELS DABBASPET ROAD,, Thyamagondlu","13.2189917","77.2910516"
"ChIJ59Alu7wprjsRYdRbzLMSk6s","IndianOil","Survey No 35/3 Thymagondlu, Nelamangala, Doddabele","13.2192949","77.2911925"
"ChIJuVmSKrArrjsRctczKOhBbVE","IndianOil","Survey No 46 Bargenehalli, Nelamangala, Arebommanahalli","13.1887453","77.2354577"
"ChIJx2IiVPcqrjsRMCobcBrJnEk","Indian Oil Petrol Bunk","No.46, SH 3, Kudur - Shivagange Road, Bargenahalli","13.187182","77.2350934"
"ChIJ9WZLGTwprjsRTOwIXukJ-uY","G J FUEL STATION","Sy No 268/1 (1913), COLLEGE ROAD,THYAMAGONDLU NELAMANGALA TALUK,BANGALORE RURAL DIST, Bengaluru","13.2167058","77.3000526"
"ChIJdfWhCfsprjsRMy-YZDJ6Pno","Bharat Petroleum BP- Nelamangala COCO","57JQ+3PQ, NH-4, Kuluvanahalli","13.1802232","77.289351"
"ChIJr7_-zHQlrjsRKO0l91UhiC8","Hindustan Petroleum Corporation Limited","Survey No 166, NH 48, Nelamangala Road, Arasinakunte","13.089602","77.4010191"
"ChIJ8YFsP48vrjsRzjYOaEgsQC0","Hindustan Petroleum Corporation Limited","Gr Floor, Nelamangala, NH 75, Hassan Rd, Kasaba, Mallarabanavadi","13.0756445","77.36569500000002"
"ChIJa4DTxmklrjsRY1_ghmrc7lw","NAYARA FUEL STATION (SHREE SIDDAGANGA SERVICE STATION)","No 109/2, Mallapura, Kasaba, Hobli, Nelamangala Town","13.0711122","77.3938324"
"ChIJJ3CLzBUlrjsRgN-uSnB4xR0","Bharat Petroleum, Petrol Pump -Sushma Service Station","VISWESAPURA, BANGALORE RUR","13.1040065","77.3816264"
"ChIJiXBLTgAlrjsRHVbFtONqWlk","IndianOil","Survey No 4/3, Nelamangala Bypass, Mahadevapura, Vishweshwarapura","13.098492","77.383943"
"ChIJh99xxF0lrjsREB-JUPq7-Ns","Bharat Petroleum Petrol Pump , DELUXE ROADLINES PVT. LTD (Petrol Pump)","SURVEY NO. 28/2 VISHWESHWARAPURANATIONAL HIGHWAY 4, KASABA HOBLI, Bengaluru","13.1044257","77.3874806"
"ChIJD8RJeYQlrjsRZiBfeU6Uyq0","IndianOil","39XP+CMC, Jn of, Tumkur Road, Vishweshwarapura","13.0985833","77.38663439999999"
"ChIJDePIgYQlrjsR7_xmcSnmQQA","IOC - Deepa Service Station","4/3, Kunigal Bypass, Indiranagar, Vishveswarapura","13.098458","77.387204"
"ChIJjVmLJIMlrjsRhbkVDUvbVaw","GANESHA OIL MILL","Raghavendra Layout, near Kunigal Bypass, opp. Anjaneya Statue, Kuvempu Road, Nelamangala Town","13.0961904","77.3888703"
"ChIJFU-9mhQlrjsRvhUb2QKon1I","Bharat Petroleum, Petrol Pump -Vasanth Fuel Station","NEELAMANGALA TOWN, BANGALORE RUR","13.1130604","77.3885055"
"ChIJCwXcfJ0lrjsR0Lc9FgvTGUs","IndianOil","Survey No 269, Mahadevapura","13.0929887","77.3917948"
"ChIJu7qIDl4vrjsRY8lgnj57EIg","IndianOil","No 34/1, Nelamangala Kulumepalye, Tumkur Road, Mahadevapura, Bengaluru","13.115404","77.3730076"
"ChIJMd3WKR0VrjsR4QdTaYs03Vc","Hindustan Petroleum Corporation Limited","4790/10 4791/11, Nanjappa Layout, Vijayanagar, Nelamangala Town","13.0923418","77.3967303"
"ChIJ0_ODPMQvrjsR7hbUL5wB3H0","JAFFAR Pasha Panchar Shop","68, Nelamangala Town","13.0847567","77.3704537"
"ChIJ-5hBQwAlrjsRSa0MV0Ib2rE","S.B.R Fuel Station","49CV+76G, Nalamangala Station FOB, Annappacharya, Syadamipalya","13.12065","77.39298"
"ChIJqxmJZg4lrjsR4hy6BW-oprw","Trishika Fuel Station","49CV+845, Kasaba Hobli, Byrashettihalli","13.1207528","77.3928689"
"ChIJqd_BOpklrjsRnclnKUUrprI","SLS FUEL STATION","Mallapura, Cross, Bengaluru","13.0839904","77.392529"
"ChIJbz6LobwlrjsRbDcXjnj3zgw","MATHA FUEL STATION","Banawadi Village Soluru, No 30, Shivagange Main Road, Budihal","13.0954625","77.4033812"
"ChIJcbttKeMlrjsRjcfFJ3Pkev4","Bharat petroleum Hanuman Fuels","3CW3+2P7, B.H ROAD COLONY ,NEXT BHARATH PETROLEUM NELAMANGALA, Saraswathipura, Sadashiva Nagara, Bengaluru","13.095049","77.4042891"
"ChIJF0e_NG4lrjsRxjjwJ-W5w_Y","SREE NANDA ROADLINES","Nelamangala Road, Vijaya Vittala Nagar, Bengaluru","13.0805581","77.3928014"
"ChIJv9EWceQ8rjsRQIK9efAHo9w","IndianOil","Plot No 460B, 4th Phase, Peenya, Nelagadaranahalli","13.023345","77.51020330000001"
"ChIJc5SupbQ8rjsRGTtPAx8sMro","Hindustan Petroleum Corporation Limited","Ground Floor, NH 48, Jindal Nagar, Chikkabidarakallu, Bengaluru","13.0514894","77.48832279999999"
"ChIJ_YCEVPsjrjsR3UQhA74oiF0","IndianOil","39, Hesarghatta Road, Bagalakunte, Bengaluru","13.055399","77.50748399999999"
"ChIJAXYJYs48rjsR-XjyPnudh4Q","Shell","Tumkur Rd Dasarahalli, Vill, Nagasandra, Bengaluru","13.046599","77.502285"
"ChIJP4yt09E8rjsRtiIwx5MkfEU","IndianOil","8th, Mile Stone, Tumkur Road, Nagasandra, Bengaluru","13.0454629","77.5052278"
"ChIJUTRoptE8rjsRePae54ebBbg","IndianOil","Ground Floor, Hesarghatta Road, 8th Mile, T. Dasarahalli, Bengaluru","13.0456857","77.50751819999999"
"ChIJU-J9_SwjrjsRaBJhO24Q8gE","Hindustan Petroleum Corporation Limited","Survey No 73, Khata No 254, Hesarghatta Road, Mallasandra, Yeshwanthpur, Bengaluru","13.0556814","77.50748329999999"
"ChIJbeO0vSg9rjsRXBbP-2KROCY","IndianOil","No 1, Dasara, Yeshwanthpur Ayyappa, Maheshwaramma Temple Road, Hobli, Prashanth Nagar, Bengaluru","13.0438693","77.5208686"
"ChIJF5FoID09rjsRINrV5U55UBQ","IndianOil","Ground Floor, opposite Metro Station Peenya Industry, Tumkur Road, Peenya, Bengaluru","13.0362233","77.5235378"
"ChIJd3jSpj09rjsRrah_ZzzVF3I","Hindustan Petroleum Corporation Limited","Ground Floor, Bengaluru Tumkur Rd, NH 4, CA Site, Bda Indl, Peenya, Bengaluru","13.0335884","77.5309427"
"ChIJO5ZeYNwirjsREOZBX2XHyZg","Hindustan Petroleum Corporation Limited","Survey No, 21/4A, Abbigere Road, Chikkabanavara, Bengaluru","13.0725118","77.5245199"
"ChIJNXBKZ_k8rjsRF8w1iHYugR4","HP Petrol Bunk","Bus Stop, Rd, 2nd Stage, Peenya Industrial Area Phase IV, Peenya, Bengaluru","13.0135373","77.5088239"
"ChIJC6hGaBEjrjsRutBCdKmB4UI","IndianOil","Sy No 40/8, Hesarghatta Road, Chikkabanavara, Bengaluru","13.0828489","77.4998106"
"ChIJU3NyeKUkrjsRLKfvCSmwHxQ","IndianOil","Ground Floor, Madanayakanahalli, Tumkur Road, Bengaluru","13.0624509","77.4577546"
"ChIJMVoyelYjrjsRFXlb_I4fR7Y","IndianOil","18th KM, Tumkur Road, Madanayakanahalli, Nagasandra, Bengaluru","13.0478841","77.50075129999999"
"ChIJ-8BHqKc9rjsRbsLeCiT-l64","Travels","9A, Rukmini Nagar, Bengaluru","13.0458147","77.4965586"
"ChIJ70zFvKo9rjsRF8bjA1wY-MM","Propel Auto LPG Station","1st Floor, 16, Nelagadaranahalli Main Road, Vidya Nagar, Peenya, Bengaluru","13.0425951","77.5048753"
"ChIJ4zt9ptE8rjsRHJ4pnYsVWSg","IBP Petrol Bunk","2GW4+8V3, State Highway 39, Defence Colony, Bagalakunte, Bengaluru","13.0457501","77.5071638"
"ChIJjUUDQDE9rjsRiey7pFbfX5g","Ganga auto gas","2GX5+H5P, Maheswari Nagar, T. Dasarahalli, Bengaluru","13.0489681","77.50794909999999"
"ChIJEz0dXAA9rjsRDGk5GdFJ85M","no bunk","2GR4+XQQ, Bengaluru","13.0424507","77.5069767"
"ChIJ0wLeTvcVrjsRu-8tKDtwW-w","Shell","opp. Ramaka Mandir, 127 Bull Temple Rd, opp. Ramaka Mandir, Channi Rd, Bengaluru","12.953503","77.56741"
"ChIJsxM8vgkWrjsRz5F_o-Kaie8","MAHENDRA ASSOCIATES","54, Sadar Patrappa Road, Bengaluru","12.9648033","77.58095639999999"
"ChIJDemoQe89rjsRevDoAekb7Lg","Hindustan Petroleum Corporation Limited","Survey No 78/1, opposite Veeresh Theatre, Magadi Main Road, Bengaluru","12.9772832","77.5464879"
"ChIJ7_yVpv0VrjsRKywZCmCeCAQ","Bharat Petroleum Corporation ltd","No.24, opposite CCB Office, 1, Mysore Road, Briand Circle, Bengaluru","12.9640549","77.57043829999999"
"ChIJc2zhb-U9rjsRL3RomtGd2FA","IndianOil","No 93 WC Road, Junction, Magadi Main Road, Bengaluru","12.9755324","77.5483163"
"ChIJBRGQa8QQrjsR16GIvG6C9Hw","Bharat Petroleum Corporation ltd","93 5th Cross, near Central School, Dr, Doctor Rajkumar Road, SSI Industrial Area, Bengaluru","12.9805953","77.5571782"
"ChIJ-R5R65M9rjsRCulPensZcxY","Indian Oil Petrol Bunk","7th Main Road, Saneguruvanahalli, Basaveshwar Nagar, Bengaluru","12.9917664","77.5458601"
"ChIJ-Ug8qvE9rjsRmG7nP01mbnw","IndianOil","10, 3rd Cross, Doctor Rajkumar Road, S.S.I.Area, 6th Block, Rajajinagar, Bengaluru","12.981062","77.55828009999999"
"ChIJM7E6pSIWrjsRdC2tFGBqCXY","Hindustan Petroleum Corporation Limited","136, Subedar Chatram Road, Seshadripuram, Bengaluru","12.9896829","77.57260649999999"
"ChIJsasu5iIWrjsRfBw0Fp_v8kw","IndianOil","Sirur Park Road, Seshadripuram, Bengaluru","12.990829","77.571579"
"ChIJWTaEpt0VrjsRENUxu2byMSE","Gogas Auto LPG","5, Lal Bagh Main Road, Vinobha Nagar, Sudhama Nagar, Bengaluru","12.9586423","77.5868661"
"ChIJW0rxz-M9rjsRceAZ6nyZPjU","IndianOil","Sy No, Gowripalya, 369 & 370, Sri Krishnadevaraya Road, Telecom Layout, Bengaluru","12.9674207","77.5462556"
"ChIJ_7yYhOw9rjsRtrybphYFn8k","SUPERGAS Auto LPG station - PP Auto SUPERGAS","84, Chord Road, 3 Stage, 2nd Block, 3rd Stage, Basaveshwar Nagar, Bengaluru","12.9852491","77.5450893"
"ChIJ44s6Cd4VrjsRP1mBJiI7Ro4","TotalGaz LPG Station","9th Floor, G9, 1st Cross Road, Sampangi Rama Nagara, Sampangi Rama Nagar, Bengaluru","12.9615297","77.5856386"
"ChIJV9GcWDkWrjsRgRNxbJvMTEs","Total Gas","1st Main, DN Ramaiah Layout, 135, Seshadripuram Main Road, Seshadripuram, Bengaluru","12.9951274","77.5791017"
"ChIJ4SbroA8-rjsRom8h9ksXZKE","IndianOil","269/3, Mysore Road, Kasthuriba Nagar, Bengaluru","12.9557367","77.5489752"
"ChIJW7lxlA8-rjsRVeFMEK3h4Fc","Gopi Indane Gas Agency Godown","16/1, Pipeline Road, KB Nagar, Kasthuriba Nagar, Azad Nagar, Bengaluru","12.9553622","77.5493651"
"ChIJH9EiPcI9rjsRI3tzL6BSBpo","IndianOil","Plot No 8, Magadi Main Road, Gandhi Layout, Agrahara Dasarahalli, Bengaluru","12.9806252","77.5376197"
"ChIJQULpUesVrjsRM6CUe5BNwG4","Hindustan Petroleum Corporation Limited","45, Vanivilas Road, Basavanagudi, Bengaluru","12.9480351","77.5733845"
"ChIJVVqFEG8WrjsR_MNU-VrDwXI","Hindustan Petroleum Corporation Limited","5, Raj Bhavan Road, Bengaluru","12.982293","77.59411589999999"