place_id,name,address,latitude,longitude,open_now
"ChIJi8335QcZIDoRmBf1_dLPWVI","Bharat Petroleum, Petrol Pump -Rourkela Fuels","National Highway 23, Deogaon","22.214806","84.81605739999999","true"
"ChIJbbl2oegZIDoR-wxr0xXL-fo","Bharat Petrol Pump","State Highway 10, Vedvyas, Rourkela","22.2312225","84.7840409","true"
"ChIJ4VpjN1gXIDoR8DEO_h7p2Kg","Bharat Petroleum, Petrol Pump -D.B.Service Center","VEDVYAS CHOWK, SUNDERGARH, SUNDERGARH","22.2367144","84.77131539999999","true"
"ChIJ76CM1XQZIDoRrZdLoWl8nzc","Hindustan Petroleum Corporation Limited","Ground Floor, near Raghunathpali, Civil Township, Rourkela","22.2277887","84.8177159","true"
"ChIJBQvDVwsZIDoR_Qf_EgIjbZI","IndianOil","Civil Township, Panposh Road, Brahmani Tarang, Rourkela","22.2272933","84.82027049999999","true"
"ChIJfb90ujcXIDoRRRLtdELwgVc","IndianOil","Ground Floor, Beldehi, Balanda","22.2397667","84.75113499999999","true"
"ChIJG4R7UzAXIDoRxAks95WMnu8","Hindustan Petroleum Corporation Limited","Ground Floor, SH 10, Beldihi","22.24040099999999","84.7442501","true"
"ChIJo9K9kB4aIDoRAOvDs2cfQLg","IndianOil","Plot No 198/199, Kuarmunda","22.2547212","84.78990259999999","true"
"ChIJEQ89cwAZIDoRQC6evIbaETQ","Satyabadi fuels KSK","5RW6+8FW, Garjan Village Road, Raghunathpali, Rourkela","22.1958546","84.811216",""
"ChIJGd0TIkEZIDoRqMIPpzwB2gw","Star Fuels","Bus Stop, T.C.I, National Highway, Dandiapali, Rourkela","22.2273291","84.78991049999999","true"
"ChIJJQVTh6MZIDoRtUf_DwcCAuI","Hindustan Petroleum Corporation Limited","No 7/8, NH 23, Panposh, Rourkela","22.2211412","84.8072957","true"
"ChIJv1iDMqEZIDoRcPIwMOci9lw","IndianOil","Ground Floor, Civil Township, near Chamber Of Commerce, Road","22.221739","84.811859","true"
"ChIJ-yAfQYIiIDoRH4kxmaEL2mo","IndianOil","Brahmini Tarang, No 32, Lathikata, Khairbani","22.1527093","84.8079497","true"
"ChIJ2aCvdgAZIDoRYxnUk7RNHEw","Bharat Petroleum, Petrol Pump -Bhimsen Filling Station","VEDVYAS CHOWK, SUNDERGARH, SUNDERGARH","22.235013","84.777981","true"
"ChIJp7koRp4ZIDoRKO8bzQ5JtRU","IndianOil","Ground Floor, Bisra Raod,Deogaon Chowk, Kudarbahal","22.205665","84.8321083","true"
"ChIJMypEuVkXIDoR6gZsk6dHsA0","IndianOil","Ground Floor, Vedvyas, Rourkela","22.2363184","84.76960919999999","true"
"ChIJYXjO28EjIDoRJe5wRFIpyrI","IndianOil","Ground Floor Khairbani, Birkera","22.1478718","84.80781789999999","true"
"ChIJfRMm_voZIDoRC8TZjrEWdfY","Arjun Fuel","Krishna Filling Station, Civil Township, Rourkela","22.2279396","84.8179658",""
"ChIJDfIOmoYXIDoR41YA_4A5ZTY","IndianOil","Ground Floor, Sawmill Chowk, Vedvyas, Rourkela","22.2370409","84.7647408","true"
"ChIJvzP83z4XIDoRd4HVIibTx7U","Goibhanga Petrol Pump.","Kalunga, Goibhanga","22.2299321","84.74981319999999",""
"ChIJBYGc1-MZIDoRWkk48Uevgx8","IndianOil","Unit No 39, Chhend Colony, Rourkela","22.2352181","84.8088374","true"
"ChIJOS4UU3MZIDoRX2zbEjGy4yw","Bharat Petroleum, Petrol Pump -Hindustan Automobiles","PANPOSH,ROURKELA,SUNDERGAR, SUNDERGARH","22.2276094","84.820984","true"
"ChIJ8xXrY68ZIDoRUPPEAOfASe8","IndianOil","Ground Floor Rourkela, Fertilizer Township, Sundergarh","22.1909309","84.8480706","true"
"ChIJ07BGt88YIDoRcWxVZPU4LIQ","Fetcol Petrol Pump TO OHS 22 DISTANCE","near, Ranchi-Rourkela-Barkote Highway, A - Block, Jalda, Rourkela","22.1911515","84.8483871",""
"ChIJ7a-fSckYIDoRbmH4U3EJc60","Bharat Petroleum","Rangoli Chowk, Jalda, Rourkela","22.1866068","84.8504322","true"
"ChIJX74xaoQXIDoR1yfKP64o41Y","Bharat Petroleum Petrol Pump , MAA BHAWANI FILLING STATION","MALIKPALIKALUNGA, Sundergarh","22.2399626","84.7413576","true"
"ChIJPa9BNG8ZIDoR60kkY6wZx-g","Chhend Petrol Pump","Sector 9, Rourkela","22.2380877","84.8304287","true"
"ChIJhZbjTAAZIDoR2S93TbzDeBU","Cng station","6RQJ+H6X, Sector 9, Rourkela","22.2389926","84.83061579999999",""
"ChIJdaLmW24ZIDoRaikIXkiZE80","Gas repair and fillup shop","Parmar Building, Chandrapur, Udit Nagar, Rourkela","22.2266692","84.8478931",""
"ChIJG_6CeYMXIDoRlme_SdoJPJ0","IndianOil - SWAGAT","Ground Floor, San Nuagaon, Brahmani Tarang, SH 10, Beldihi","22.2348741","84.7241808","true"
"ChIJPyg7Z9oWIDoRTGL8VsODcgo","dianOil","India","22.2351695","84.7240977",""
"ChIJSzL-NZQbIDoRjUMZfNkkt9s","Bharat Petroleum, Petrol Pump -Mohan Lal Patel & Co./Sbp","GOLBAZAR, SAMBALPUR, SAMBALPUR","22.2620194","84.78144689999999","true"
"ChIJMzy6XP4bIDoRcY01usgfESw","Sector 17 Petrol Pump Satyam Service Center","Sector-17, Rourkela","22.2547617","84.8532218","true"
"ChIJR8AZmF8fIDoRFIw5XO_6CY0","Hindustan Petroleum Corporation Limited","Ground Floor, Suidhi, Hatibandha","22.159528","84.8757601","true"
"ChIJE-jBXb0eIDoR7QoOVh7s8KY","IndianOil","Ground Floor, Sector 2, Sundergarh","22.240248","84.877274","true"
"ChIJ7WB3zAIcIDoRm60Mfa2Rxn4","IndianOil","Ground Floor, Ambagan, Sector 19, Raurkela Industrialship","22.255061","84.866997","true"
"ChIJF_QuXR0fIDoRGAzrCMNoiXA","Hp Gas office (Utkal) Jalda","5VP8+9RG, OCL Industrial Township, Rourkela","22.1853604","84.866869","true"
"ChIJ_14EqcgeIDoRTrXulGJKBCs","IndianOil","Sahayog Petrol Pump, Bisra Chowk Road, Rourkela","22.2237604","84.867143","true"
"ChIJp3I5dLUfIDoR7uq2-yf_nkg","Hindustan Petroleum Corporation Limited","Ground Floor, opposite Railway Station, Station Road, Rourkela","22.225601","84.86092099999999","true"
"ChIJwcyWGjUZIDoRsSN8ATwBwsk","Hindustan Petroleum Corporation Limited","Ground Floor, Udit Nagar, Sundergarh","22.2262891","84.8547844","true"
"ChIJGW0UObkeIDoRGPBg_Sp9Fcc","Hindustan Petroleum Corporation Limited","PB No 50, Ring Road, Rourkela","22.2335201","84.87180750000002","true"
"ChIJe7zPAsweIDoRb8PJpzalz0E","Utkal Automotive Private Limited","HPCL PETROL PUMP CAMPUS, next to Konark Cinema Hall, Ring Road, Rourkela","22.2337311","84.8718866","true"
"ChIJE0LBXhsfIDoRq75KPT2Uv8w","Indane Gas Godown","6VQ6+V7H, Sector 6, Rourkela","22.2396921","84.8607497",""
"ChIJmys_GosfIDoR1Oqj-Icl2js","GAIL GAS COCO CNG STATION","6VQH+W23, Sector 2, Rourkela","22.2397658","84.8775393",""
"ChIJyRRZQWgfIDoRYx4IZayglAo","Bharat Petroleum, Petrol Pump -Dhanraj & Co","AMBAGAN,ROURKELA,SUNDERGAR, SUNDERGARH","22.2529914","84.8665439","true"
"ChIJ9aI8td4bIDoREEyOmDm1nt8","IndianOil","Township Rourkela, Sector-17, Sundergarh","22.254438","84.852745","true"
"ChIJW5AERRkfIDoRVgxRbIoAcos","Bharat Petroleum, Petrol Pump -Shri Shri Filling Point","Sector 2, Rourkela","22.2537099","84.8808773","true"
"ChIJkwpb7rshIDoRm_TCkZ1z0wc","IndianOil","Ground Floor, Lathikata","22.1277167","84.88348669999999","true"
"ChIJXcSGVKAQIDoRUes4mh_bCRU","Hindustan Petroleum Corporation Limited","Ground Floor, Kuarmunda","22.271517","84.771427","true"
"ChIJn5HhUYMQIDoRqpMRPPuGVWc","IndianOil","Ground Floor, Kuarmunda","22.2857301","84.7686621","true"
"ChIJH_mm_oQQIDoRPhn3G6OQPZw","IndianOil","Ground Floor, Kuarmunda","22.287828","84.76566299999999","true"
"ChIJqT5OIAARIDoRLTZbOJuoHZo","Baishnabi filling Station","7QQ8+496, Kuarmunda","22.2878431","84.7656564","true"
"ChIJoYR8s9MdIDoR5iOsaSzMvgk","IndianOil","Ground Floor, Jagda Road, Jhirpani, Rourkela","22.2628217","84.9019667","true"
"ChIJMf3HxtMdIDoRs8K3AqaP79c","Sachin Service Station","India","22.26200039999999","84.9026473",""
"ChIJCYMntCz0HzoRUVciX9ykZUA","Bharat Petroleum","Purunabisra","22.2493606","84.9820771",""
"ChIJT1rxPyz0HzoRA6BW4Q7H9Ys","IndianOil","Ground Floor, Bisra","22.2493905","84.9861383","true"
"ChIJBQDAshv1HzoRTykEqN_Y9QI","IndianOil","Ground Floor, Kapatmunda","22.2474196","84.97437900000001",""
"ChIJw4yucgD1HzoRUP6WllDIROI","AMIR COLONY BUS STOP","6XXJ+R4V, Bangurkela Chord Cabin, Bhumijtola","22.2496088","84.9802941",""
"ChIJa9NTeCj1HzoRx-2n658YyMw","IndianOil","Ground Floor, Ajaikela, Daraikela, Bisra","22.2556247","84.99935789999999","true"
"ChIJi-bhXAADIDoRpDhpxR-6lYg","श्री श्याम मोटर्स युरिया डी ई एफ भोजपुर सुन्दरगढ़","9VP9+PW8, Bhojpur","22.3867842","84.8698228",""
"ChIJgSHgTQD3HzoRNlJlCN0e6BE","AARAV FUELS KSK","Tangarpali","22.3439464","84.9911084","true"
"ChIJOUV5B2_5HzoRVhFmZxqvfTA","Bharat Petroleum, Petrol Pump -Maa Shakti Fuel Centre","NUAGAON, SUNDERGARH, SUNDERGARH","22.3930893","84.9514336","true"