place_id,name,address,latitude,longitude
"ChIJv_ax4uR2dDkR0NxOQ4fheJI","Modern Service Station","5X7P+6XQ, Saraikhwaja, Arjun Nagar, Agra","27.1630784","77.987471"
"ChIJq9NwfdB2dDkRebD8KcNEjS0","IndianOil","Mahatma Gandhi Road, Awantibai Crossing, Agra","27.1647817","78.0088576"
"ChIJiRO3k9d2dDkR6RZA5DG1xeQ","Bharat Petroleum","46, Mahatma Gandhi Road, Pratap Pura, Rakabganj, Agra","27.17179639999999","78.0092232"
"ChIJQYtortB2dDkRMFJ7M85NgL4","Hindustan Petroleum Corporation Limited","Ground Floor, opposite Lauries Hotel, Mahatma Gandhi Road, Pratap Pura, Agra","27.168364","78.00919200000001"
"ChIJgawtiEB3dDkRICJ0AnwqjTA","Bharat Petrol Pump","Delhi Gate, Professors Colony, Civil Lines, Agra","27.1968255","77.99959299999999"
"ChIJ2eqnj3hxdDkRGx0Jhia_vLc","Bharat Petroleum, Petrol Pump -Jainab Filling Station","Jeoni Mandi Post Office Street, Civil Lines, Agra","27.1983262","78.0255213"
"ChIJa9zcqz1xdDkRP9EPXLU5OI4","IndianOil","Ground Floor, beside Taj View Hotel, Fatehabad Road, Agra","27.161686","78.039811"
"ChIJN3hpNaZ3dDkRng88__lYGN4","Nayara Oil Shri Bankey Bihari Filling Station","5XMC+7C6, Maruti Estate Road, Manas Nagar, Badla Ki Sarai, Shahganj, Agra","27.1831602","77.9710243"
"ChIJS8Wr_6B3dDkRhTDSMxavN24","IndianOil","Bodla Road, Sulahkul Nagar, Lohamandi, Agra","27.1904183","77.97117399999999"
"ChIJP4EcRb5wdDkRFkeZaIUUMLg","IndianOil","Ground Floor, Rambagh Crossing, Agra","27.2029048","78.0410157"
"ChIJeUS8xnl3dDkRj8bOeNJLptk","CNG Filling Station","6X4H+H4W, Transport Colony, Agra","27.2064772","77.97782149999999"
"ChIJBWD9fEFxdDkRHNIxVLt6cek","IndianOil","Rajpur, Chungi, Agra Shamshabad Raja Kherah Marg, Agra","27.147229","78.0386697"
"ChIJ5WBQDjOEczkRGCCJtiTIGGU","Pratap Filling Station Bharat Petroleum","Keetham, Agra, NH-19, Delhi, Road, Kitham","27.2098228","77.980892"
"ChIJE5EWDL13dDkR7uSu3ETN3hs","Bharat Petroleum","5XR6+727, Sikandra-Bodla Road, Sector 1, Bodla, Lohamandi, Agra","27.1906539","77.9600432"
"ChIJ83o_EgB3dDkRu1hX3Klb5aE","Mahalxmi petrol pump","52G5+M68, Bikaner - Agra Road, dayarampura","27.1766701","78.00807449999999"
"ChIJQ406agB3dDkRjbEcY0n6YhU","BPCL- GAYATRI FILLING STATION","NH 19, agra delhi road, ajijpur kosikalan, mathura","27.1766701","78.00807449999999"
"ChIJKRJ5NgB3dDkRsK8bBhT0jhY","Mahi trader's","Bramon chipitola, muradnagor, cumilla, ramchandrapur","27.175984","78.01169"
"ChIJR4zAHd13dDkRSQF0HCh5ZSM","Vinod Filling Station","52F4+7RF, Agra","27.17318969999999","78.0070321"
"ChIJvdrL0SR3dDkR347tOgTMrug","Farid General Store","Nai ki Mandi, Mantola, Agra","27.1842631","78.0046292"
"ChIJ3eyns9B2dDkRgNXbT7JNyrI","Hindustan Petroleum Corporation Limited","Property No 33, 99, Mahatma Gandhi Road, Pratap Pura, Rakabganj, Agra","27.1670347","78.00856139999999"
"ChIJ42NzR9QKdDkR921ZOKa0xH4","IndianOil","Ground Floor Gwalior Road, NH 3, Bamrauli Katara","27.026825","77.970261"
"ChIJwyE8WVl0dDkRrfKUiin_PVY","Bharat Petrol Pump and CNG","Agra","27.0823412","77.9890921"
"ChIJ5a4zt9d0dDkRCr6BaPKcHNw","Jio-bp","Ground Floor Mubarakpur, Kakua, Nh 3, 44 Near Chainage 15/957, Agra","27.0409101","77.975363"
"ChIJTw_YzPp0dDkRey8ZNS2nE6s","IndianOil","Ground Floor Gwalior Road, 509, Command, Kakua","27.067078","77.98322999999999"
"ChIJUXbj0UR1dDkR0NuVKcoLi6Y","Maa Pitambara filling Station ( Bharat Petroleum Corporation Ltd)","2XPR+XC, Garhi Usara","27.03744589999999","77.9910616"
"ChIJcZXhh7R1dDkRrMVidAYt8fU","R G OILS","2XJC+PV, Gauharpur","27.031851","77.972143"
"ChIJy-sp0Qd1dDkRr5DlHfFrALw","Bharat Petroleum, Petrol Pump -Hukamchand Fakirchand(Kakua)","KAKUA, Agra","27.0723474","77.985421"
"ChIJwRnZMAB1dDkRSQ3rMBQi8yA","Pushpendra Singh jaat","3XFJ+FFW, Kakua","27.0737348","77.9811971"
"ChIJo4_ukrALdDkRxpDOu5TrBxk","Jio-bp","Khasra No 463, Sikandarpur, Khairagarh","27.025015","77.968491"
"ChIJY87vuMh1dDkRf6kzYAPjyh4","Shri Ram","Mundhera","27.0798955","77.946725"
"ChIJJe5QNQB1dDkRbJ-UPmo5v5s","Pradushan janch Kendra","Rampura","27.0871484","77.9981155"
"ChIJW6uLoFx0dDkRn0sF8CIkE58","सोनी ऑटो गैस","India","27.0896782","77.99107169999999"
"ChIJ95VenHELdDkRMqE98KireGE","Hindustan Petroleum Corporation Limited","Ground Floor, Gwalior Road, Tehra","27.010608","77.963864"
"ChIJb9GEtFx0dDkRM0ylNkrz6s0","IndianOil","Ground Floor Agra Gwalior Rd, NH 3, 509 Command, Rohta","27.091125","77.992081"
"ChIJL80w0NF1dDkRsnxaXZIompY","IndianOil","Gata No 1048, 1049/1 1054 & 1055/2, Gwalior Road, Agra","27.0091678","77.9630763"
"ChIJaxfuNJILdDkRf4ru5dEm9dk","YashR Fssr","944 Nagla Chhahari, Gwalior Road, Tehra","27.0129457","77.95319549999999"
"ChIJC8TFcgALdDkR4T454t2JP44","Rajput filling station and meterial stall","XW3W+F4F, Saiyan","26.9536939","77.9453091"
"ChIJJd2biw8KdDkR0vCC_InwoN0","IndianOil","Ground Floor, Saiyan NH 3, Road, Gwalior","26.9476193","77.9379903"
"ChIJxZ4ZaMp1dDkR583SMMezRgU","IndianOil","Ground Floor, Gwalior Rd, Agra","26.9601354","77.95091780000001"
"ChIJi6-4K4gLdDkRJQ_8RaCW7no","IndianOil","Ground Floor Rajpura, Saiyan","26.950039","77.9656107"
"ChIJN1xbMGz1czkRxrTUdk4Di48","IndianOil","Ground Floor Jajau, Kheragarh, Road, Saiyan","26.9435933","77.91681679999999"
"ChIJN1ucsb4LdDkRH3LiZ2ML5S4","Saithiya Filling Station BPCL","XWHX+JRX, Chennai - Delhi Highway, Birai","26.9791142","77.94962249999999"
"ChIJTY7bVwALdDkR65PyDRWryys","IndianOil","Shop No 12, Birai Choraya, Birai","26.98291649999999","77.95212459999999"
"ChIJhc2OJGt1dDkR4i9Ta3Wf07c","Bharat Petroleum, Petrol Pump -Prakash Automobiles (Kk Bagh)","NH-3, K.K.Bagh, Beerai, Saiyan Agra, Gwalior Road, Agra","26.98333389999999","77.9523825"
"ChIJId_8ZVcJdDkRBOneH_yjjjY","IndianOil","Khasra No 24432445 NH 3, Jajau, Kheragarh","26.9193148","77.9314218"
"ChIJxSfE4bkJdDkRfmhYE56A0TA","Hindustan Petroleum Corporation Limited","Ground Floor, Gwalior Road, Jajau","26.9171948","77.9312425"
"ChIJw0jAmpYJdDkRSxiIoHS19uc","Hindustan Petroleum Corporation Limited","Ground Floor, NH 44, Gwalior Road, Jajau","26.9171948","77.9312425"
"ChIJ_X9XK6MJdDkR0NDN2dV2Rtg","IndianOil","Gata No 2345 Betn Km 27 to Rajasthan, Border, Jajau","26.9144742","77.9299753"
"ChIJvwdgCcULdDkRt_se6lBLggc","Hindustan Petroleum Corporation Limited","Ground Floor, Iradat Ngr Rd, Kheragarh, Saiyan","26.9541211","77.9870723"
"ChIJaVHEp9QJdDkR0NphdPA0QEU","IndianOil","Ladukhera Kheragarh, Saiyan","26.9222306","77.97415099999999"
"ChIJSQNhsF_3czkRHVaHheCC9p8","J.S.BAGHEL FILLING STATION","Bagcholi Khar","26.8194406","77.918174"
"ChIJUauqWm74czkRmC_hrxsIYjk","Hindustan Petroleum Corporation Limited","Plot No 784/1, NH 3, Mania","26.8095852","77.91475319999999"
"ChIJHbWdq9H5czkRWEYSnCPxQ4Y","Shree Narayan fuel station","RW97+P3, Mania","26.8202763","77.9119229"
"ChIJlZNlshz5czkRFWbN52JqPLg","IndianOil","Ground Floor, Mangrol Road, Mania","26.8225276","77.9261227"
"ChIJ_x5GYtj5czkRNgRyHbl3cwA","Hindustan Petroleum Corporation Limited","Plot No 457/201 & 459/202, NH 3, Mania","26.83346239999999","77.9184154"
"ChIJe6EnfYn4czkRafyrtY8EI6k","IndianOil","near Dandoli, NH 3, Mania, near Dandoli","26.790111","77.91110200000001"
"ChIJ9dGM7Yv4czkR_XE5Y2LHXic","Hindustan Petroleum Corporation Limited","Plot No 150 & 151, NH 3, Birodha","26.78903099999999","77.909871"
"ChIJj_r_fyX3czkRqNySnTOmIRI","Bharat Petroleum Petrol Pump , PARSHWANATH FUEL STATION","MANIANH-3, Dholpur","26.847085","77.922096"
"ChIJW5_2wuP3czkRvQow12mkmaM","Hindustan Petroleum Corporation Limited","Plot No 552, NH 3, Siypura","26.858201","77.92400099999999"
"ChIJMwO5F6n_czkRANZNmPgSa8E","Hindustan Petroleum Corporation Limited","Plot No 243 & 244 NH 3, Gulab Bagh, Dholpur","26.695501","77.89020099999999"
"ChIJsSqipbD_czkRMUpGY6Wr2Ic","Hindustan Petroleum Corporation Limited","480, Plot No 479, NH 3, Sagarpada, Dholpur","26.68319099999999","77.893351"
"ChIJ9c9iYAX_czkRK6GPKjwrr4k","IndianOil","Ground Floor Giroli Gate, Agra, Road, Gwalior","26.7096017","77.8935568"
"ChIJS5HfbhD_czkRGVT8KTjEtfI","Gogna Petrol Pump","Agra - Mumbai Highway, Jiroly, Dholpur","26.713553","77.894879"
"ChIJsTQnLgD_czkR4hDhP3xcTvc","HPCL roshan service station Dholpur","HPCL rishabh, service station, GT Road, Dholpur","26.7092848","77.8963242"
"ChIJp5Bsowf_czkR4kaelDhUYno","Bharat Petroleum, Petrol Pump -Rattanchand & Sons","G.T. ROAD DHOLPUR","26.7014562","77.89166829999999"
"ChIJLbCqr6n_czkRG44KF_p5_uk","IndianOil","Ground Floor, Agra - Mumbai Highway, Basai Neem","26.6974001","77.89060099999999"
"ChIJ6e_OOgD_czkR8-SSx_OpmDE","Petrol pump","470, Station Rd, Nihal Ganj, Dholpur","26.6968324","77.8915671"
"ChIJGWncG_b_czkRpPd1YEZ3_yc","Gaurav Bohra Filling Station","PVMR+C6M, Ladampur","26.733576","77.89053439999999"
"ChIJjxbuCaD_czkRtjwxr8_Vv2E","A.S.Filling Station Dholpur","NH-44, Water Works Circle, Dholpur (Raj","26.6879043","77.8911005"
"ChIJXWpxUYf_czkRixoM-9DS0MU","Hindustan Petroleum Corporation Limited","Ground Floor, Gwalior Road, Kotla, Dholpur","26.687379","77.891271"
"ChIJIWnIE7D_czkRvG_j6nc1vNQ","IndianOil","Rico Industrial, Sadar Thana, Ground Floor NH 3, near RT Office, Dholpur","26.7352549","77.89913179999999"
"ChIJBTGqyR3_czkRTKP5Mc-BKLc","Hindustan Petroleum Corporation Limited","opposite Sadar Police Station, Plot No 377/2, NH 3, Dariyapur","26.7354801","77.900301"
"ChIJMwmMyFn-czkRM4qStXTmq8M","IndianOil","Ground Floor, NH 11B, Bari Road, Jhor, Dholpur","26.6942578","77.8698296"
"ChIJPQuVffL-czkRawxTZYCahbc","Hindustan Petroleum Corporation Limited","K No 3865/3611, Rundh, Nahila, Mahamadpur","26.7080901","77.86231800000002"
"ChIJizr_alP_czkR6b8oxt7PoDQ","Hindustan Petroleum Corporation Limited","K No 3865/3611, Rundh Nahila, Mahamadpur, Dholpur","26.7080901","77.86231800000002"
"ChIJb2wBQAD_czkRdj4JEquhl-g","Rinku crockery House dhaulpur","Rinku crockery House, Dholpur","26.6819744","77.8963673"
"ChIJhfaNZbf_czkRTFvYTbIUv20","Reliance Petrol Pump Dholpur Rjf110","Sagarpada, Dholpur","26.6806047","77.8938579"
"ChIJ6Vi-y7n_czkRcKlTJ-qs-Fg","Bharat Petroleum, Petrol Pump -Jai Baba Devpuri Filling Station","DEVPURI NH 3 DHOLPUR, Dholpur","26.6798731","77.89489879999999"
"ChIJLUC6NzT_czkRv5_VLIT8ia8","IndianOil","Ground Floor, Ab Road NH 3, Bhagwatgarh, Maharajpura, Basai Neem","26.7425001","77.90177"
"ChIJdZ3mVgCrdjkRhnWf-EM3EL0","Rajesh diesel Morena","HWGW+74X, Chennai - Delhi Highway, Jarah","26.5757311","77.9453497"
"ChIJR8P0PwCrdjkRsitIHIAF-Q0","Manish Diesel ⛽ Morena","HWGW+92Q, Chennai - Delhi Highway, Jarah","26.5759581","77.9451244"
"ChIJp0_dEQCrdjkR9-dqjfsWze0","Chhotu Diesel murena","HWHV+9W, Jarah","26.5784682","77.94485"
"ChIJ90nXVIKtdjkRIrzp7EFZuco","Rahul sharma","HW7X+P7FSrinagar, Srinagar - Kanyakumari Highway, Sikrauda","26.5642666","77.94810729999999"
"ChIJQfZw0L-rdjkRaxlsgl85xyA","Amit disel morena","Morena Madhya Pradesh NH3 AB road, NH-3, M.P, Sikrauda, Morena","26.5640603","77.9486826"
"ChIJYTSexYSrdjkRRymX8CGa07Q","NEBPL J.S. GURJAR FILLING STATION","HWPV+7P, Jarah","26.5857106","77.9443134"
"ChIJGXHlekKrdjkRCQ8QJ76xEzs","IndianOil","Shop No 437/1, Bandha","26.5910591","77.9427806"
"ChIJh9IbAhKrdjkRlNdQjeIqf7M","Shree balaji filling station","balaji work shop ke samne, near hetampur, Thana sharaychhola, Morena","26.6047874","77.93753600000001"
"ChIJ3ZMSeZytdjkRys130ikd6WE","Hindustan Petroleum Corporation Limited","Ground Floor, Agra - Mumbai Highway, Galetha, Morena","26.4899844","77.9793358"
"ChIJcYQp7hOtdjkR2bWUYpv3a90","R B FILLING center","near k.s oil mill, naiagarh road, Housing Board Colony, Morena","26.4931076","77.979224"
"ChIJvZdx7PqtdjkRItdh35ywYdg","MR DHEERAJ SHARMA","Chinnoni Chambal, Morena","26.4920967","77.9868884"
"ChIJebpyWr6tdjkRIIa7KdRAqhI","Hindustan Petroleum Corporation Limited","Ground Floor, Amba Road, Galetha, Morena","26.486218","77.9726471"
"ChIJI8vUIpGtdjkRAAGIb4IDFB8","Solanki Petrol Pump","Major District Road 2, Keshav Colony, Gopal Pura, Morena","26.48613659999999","77.9726221"
"ChIJpQ8nPZGtdjkRmijgVr2SV20","Bhagwan auto sales","Keshav Colony, Gopal Pura, Morena","26.4919005","77.9889118"
"ChIJvzFHKwCtdjkRBPx5jAs6PWc","Solanki petrol pump ke piche","FXQC+3MG, Kushwah Colony, Galetha, Morena","26.487527","77.971696"
"ChIJo3Z1S4qtdjkRWAbrsEASMx0","IndianOil","Lock No 1182, Near Comm 5th Division SAF Rtd 60 Kms, 219, Ambah Road, Bagachini, Morena","26.478703","77.992671"
"ChIJ7ZalBwCtdjkRacxrOz1q6l4","IndianOil","Shop No 1200, Joura Khurd","26.4770438","77.9935301"
"ChIJn_46BgCtdjkRa5Tg0tobKSc","Gangapur mandir","FXVV+VJJ, Morena","26.4947172","77.9940222"
"ChIJDSXVA1GtdjkRBo4ltHS5bK4","Hindustan Petroleum Corporation Limited","Ground Floor, Nainagarh Road, Jiwaji Ganj, Morena","26.496811","77.99223099999999"
"ChIJrxHNyJStdjkR7BgkSvUJbhM","IndianOil","Lock No 1238/219 Station Road, Road, Ambah","26.4955102","77.9961108"
"ChIJVyK3LOutdjkREZY-z1Xljsg","Modern Motors Petrol Pump IOCL Morena","near Nehru Park, 29/30, Morena-Sheopur Road, Jiwaji Ganj, Morena","26.4963267","77.99662479999999"
"ChIJLeE-7AKtdjkRC0SvTyaZVnU","Modicare","1, Anto Bai Road, Ganeshpura, Morena","26.4948969","78.0016742"
"ChIJEQqdSqWtdjkRE3VgyhdlYrw","Hindustan Petroleum Corporation Limited","Ground Floor, Ambha Bypass Road, Lalori Kalan, Morena","26.509387","77.985315"
"ChIJCay2msGtdjkRIU9h8RvyVqs","Dwarika Prasad","Station Road, Morena","26.5024067","78.00175890000001"
"ChIJNUphq2etdjkRE7nv9HAExpw","Hindustan Petroleum Corporation Limited","Ground Floor, Morena-Sheopur Road, Morenagaon","26.4818087","77.95392079999999"
"ChIJaTSX3w6ydjkRMBMCxw5SzGU","IndianOil","Lock No 1207/219, NH 3, Ambah Road, Joura Khurd","26.47008499999999","78.00519899999999"
"ChIJ66I22H6tdjkR_LYrzGX1pMo","Brajesh Singh","00, Jain Mandir Road, Morena","26.5037497","78.00371729999999"
"ChIJNawuLwCtdjkRHFbPcoahj94","siddhsthan","GX8M+3G3, Jauri","26.5151309","77.9838106"
"ChIJPVqAaAC3djkRcuqC8Uc9rco","SHRI BALAJI INDIAN OIL PUMP","Nh44, Seva","26.3789784","78.08069449999999"
"ChIJxdECbtOwdjkRhFXDEV-6XNU","Vishal Pure Oils","AB Road, Tighara","26.387033","78.0748934"
"ChIJewyPTGe3djkRb2lFe-xA2ks","BPCL M/s Mohar Singh Filling Center","Banmore","26.3586912","78.0967237"
"ChIJtZXZom-3djkROfoU_bc5cts","RAJAT OIL MIL","India","26.3593127","78.0978342"
"ChIJu6Qa9SCxdjkRzApPK4UsYhk","SS Mavai Highway fuels","AB Road, Nurabad","26.4117368","78.0622178"
"ChIJG8yr1yGxdjkRGAypLluimOI","Bharat Petroleum","India","26.4120136","78.061787"
"ChIJtXpAwPy3djkRVO5erSmbXp8","IndianOil","Ground Floor, Agra - Mumbai Highway, Banmore","26.3453651","78.1013693"
"ChIJL81qYxW3djkRZ9PkBCv6C0s","Hindustan Petroleum Corporation Limited","Ground Floor, near Shri Ram Group of Colleges, NH 3, Agra - Mumbai Highway, Banmore","26.343477","78.1026701"
"ChIJZbf1SkXGdjkR_LoWsEHSxBw","Bharat Petroleum","Sancheti Petrol Pump, Transport Nagar, Moti Jheel, Gwalior","26.2433477","78.1448715"
"ChIJI2Hsoge4djkR0rimuuUxoIc","Bharat Petroleum","Farm Asian Highway 47, Rairu","26.302342","78.119979"
"ChIJqRS9YQa4djkReE23-JjY9VU","Hindustan Petroleum Corporation Limited","Ground Floor, Agra - Mumbai Highway, Baraua Nurabad","26.3053749","78.1195096"
"ChIJp6MVxFzGdjkR7OI9hkZ5Y7c","IndianOil","Lock No, 1177/219, Transport Nagar, Gwalior","26.234481","78.14059329999999"
"ChIJoWgWEl3GdjkRqGkEiv32NCo","Bharat Petroleum Petrol Pump","64MW+RMH, Double Road, Transport Nagar, Anand Nagar, Gwalior","26.2345646","78.1467373"
"ChIJSSmwkAe4djkRYuyZO3tlpqs","IndianOil","Indar Nagar, Agra - Mumbai Highway, Rairu, Gwalior","26.2321545","78.1246809"
"ChIJfWjBSl3HdjkRW8zu5sYsFHI","IndianOil","S No 598, Gangapur","26.2705376","78.1364449"
"ChIJlRRazlDHdjkRn4VHT3-lvFM","IndianOil","S No 598, Gangapur","26.2705376","78.1364449"
"ChIJrQDghs_HdjkRvmkJdzz94eI","Shreejee Petrochem And Lubes","Purani Chhawani, Gwalior","26.2617699","78.1352752"
"ChIJI6ZYWUvGdjkRv0WB33U46nk","Jio-bp","Ground Floor, near Fruit Mandi, Ab Road, Moti Jheel, Gwalior","26.2547685","78.13920519999999"
"ChIJx5D0OgDHdjkR35sXfpIYzBQ","Motijheel Auto Service","742R+WJV, Moti Jheel, Gwalior","26.252364","78.1415576"
"ChIJtULKT0zGdjkRTsHnEgcLIrs","Hindustan Petroleum Corporation Limited","Ground Floor, Moti Jheel, Gwalior","26.252371","78.141731"
"ChIJfyd-gInHdjkReWzXbKwtGX0","IndianOil","No 143146/1/147 Munjapta, Defence Colony, Akbarpur","26.2482492","78.1351007"
"ChIJQ2wXHRbHdjkRERw_qJwFw4s","Indian Oil","64XP+776, Motijheel, Moti Jheel, Gwalior","26.2481543","78.1356278"
"ChIJg6EZdJfHdjkRNE1W-a9y_9I","Bharat Petroleum, Petrol Pump -Sonika Automobiles","JALALPUR CHOURAHA GWALIOR, National Highway 92, Gwalior","26.2594524","78.1591301"
"ChIJHSIopv3GdjkR5cN9HA2QHuI","IndianOil","Survey No 312, Manpur, Gird, near Gwalior Residency, Gwalior","26.25587849999999","78.16478359999999"
"ChIJM9iaMAC5djkRt50kxmoEkf8","Surindra Automobiles BPCL","842C+X2G, Inder Nager (rairoo, Agra - Mumbai Highway, Milawali","26.3024272","78.1200728"
"ChIJJZjNeKDHdjkRGkXW4bcSTeY","IndianOil","Khasra No 558559560, Min1560/Min, Manpur, Badagaon, Gwalior","26.249426","78.1629792"
"ChIJn6tzBdYtcTkR2nWqtUFlUHU","IndianOil","Khasra No 558559560, Min1560/Min, Manpur, Badagaon, Gwalior","26.249426","78.1629792"
"ChIJn38XfOPHdjkR4dX21NNSM2Y","Bharat petroleum- Urja filling Station","64PF+W9, Gwalior West","26.23727","78.1234316"
"ChIJGTwVGEC4djkRgPr5VSNJGJQ","NAYARA PETROL PUMP","54RP+3Q2, Baraua Nurabad","26.1901434","78.1368956"
"ChIJf5ZevYzPdjkRFoN3hxbcpEc","Reliance Petroleum","Ground Floor, Ki, Bawadi, Bela","26.13780019999999","78.1050058"
"ChIJtZ-zOV_EdjkRRgVZ5HauS84","Maa Pitambra Trading Company","Vicky factory tiraha, Saroj fuel Petrol pump","26.1749104","78.144994"
"ChIJn9xghmDPdjkRgycjzBIUtUQ","Hindustan Petroleum Corporation Limited","Ground Floor, Agra - Mumbai Highway, Girvai, Gwalior","26.17248099999999","78.108083"
"ChIJgwxOBtLFdjkRdEJg5DsyMg4","IndianOil","Ground Floor, Infront Mudgal Krishi Farms, Old, Agra - Mumbai Highway, Girwai, Ajaypur","26.1749373","78.1090157"
"ChIJBc4s-JLFdjkRHKVYGliAJgM","IndianOil","Ground Floor, near Aganbadi Kendra, Ajaypur Road, Veerpur, Gwalior","26.1818946","78.1243224"
"ChIJTcWjFnLFdjkRXURwbkRtR60","Petrol pump","54JG+VRH, Sikandar Kampoo Road, Sikandar Kampoo, Gwalior","26.1821877","78.1271026"
"ChIJ-ZX9mpXFdjkRBvuFfK_4RZ4","Hindustan Petroleum Corporation Limited","Ground Floor Saikandar Kampoo Road, Ke Pass, IMLI Naka, Gwalior","26.1819505","78.1327678"
"ChIJjaOODADFdjkRwtNPQI-ex6o","Bharat petroleum","AH 47, Main Road, Agra - Mumbai Highway, Girwai, Gwalior","26.1910845","78.1250396"
"ChIJsWXK1InFdjkR-aTCUK8q-1I","Kushwah ji ka Petrol pump","Sikandar Kampoo, Gwalior","26.18181599999999","78.1329782"
"ChIJASEhrunPdjkRALcGZy4D5S8","Bharat Petrol Pump","44W6+J33, Gwalior","26.1465248","78.11017420000002"
"ChIJKetKOwDFdjkRINC1FiiwMBk","Hindustan Petroleum Corporation Limited","near Gwalior, Ground Floor NH 44, Neem chandoha, Shivpuri Link Road, near Gwalior, Jhansi Highway, Gwalior","26.140903","78.12312299999999"
"ChIJK3IGR-_FdjkRDl3ZqpNa7B4","Shri Ram Fule","Seetla Mata Rd, Shri Ram Colony, Gwalior","26.198932","78.1299789"
"ChIJE1kK67jPdjkReWxwR0oAUP8","IndianOil","S No 113 Min 1, 1/2 & 13, Min 1/1, Bela","26.1374409","78.1032792"
"ChIJdVNfbv7FdjkR1XpNGxjm6fQ","Gupteshwar Petro Services","Survey No-902,905, Village Bara, SADA, Pragati Vihar, Gwalior","26.2054228","78.1156415"
"ChIJv_Z_-uPFdjkRypXoaMdrLp8","IndianOil","S No 166, 1165158/1, Neem Chandouha, Ajaypur","26.141473","78.126873"
"ChIJ45459Z7FdjkRqtNFUNeZu_Y","IndianOil","S No 592593, Gudha, Achalpura","26.1811574","78.1464682"
"ChIJb4PVZ67FdjkRsrI2OV0cf2g","IndianOil","Ground Floor Gudi, Darpan Colony, Gwalior","26.1729311","78.1495125"
"ChIJmWLXBDDHdjkRzGy6CHyFq3M","IndianOil","Lock No 1144/219, Bara Ph No 65, No 899902903904905, Baraua","26.21027100000001","78.11709119999999"
"ChIJA4Mfo53FdjkRlXg6hrC18VE","IndianOil","Khasra No 255, Gudi, Ajaypur, near 14th Battalion, Gwalior","26.181013","78.1511575"
"ChIJq1hwyR7OdjkRGjfPiqyzi54","Hindustan Petroleum","Panihar, Gwalior, NH-3, Mumbai Agra Highway, AB Road, Gwalior, Gwalior","26.1132","78.03829999999999"
"ChIJ951K0RzOdjkRQeD4fC1xIy8","IndianOil","Lock No 1035, near JA Hospital, 219, NH 3, Panihar","26.1104165","78.03141029999999"
"ChIJOV01Kx_OdjkRtA2pa9MUoZQ","HP PETROL PUMP - KARMA HIGHWAY SALES & SERVICE","Agra-mumbai Road Panihar Nayagaon Dist Gwalior, Bhopal","26.1137349","78.0397799"
"ChIJoZrtVkPPdjkRC_3XimHFYL4","Essar PETROL PUMP","428V+RXX, Agra - Mumbai Highway, Gwalior","26.117106","78.044983"
"ChIJK6VHQDrPdjkR8q_gf25bRWw","Manohar Singh Solanki Filling Station","428V+RXX, Agra - Mumbai Highway, Gwalior","26.1171175","78.045005"
"ChIJk6EIOJvPdjkRgQyoAndLwIY","Shivdev Fuels (BPCL)","Shivdev Fuels, opposite CRPF camps, Panihar","26.1173743","78.0466933"
"ChIJw7xdtXnPdjkRpLK2-scO_7s","Bharat Petroleum, Petrol Pump -Tikait Fuels & Highway Service","VILL PANIHAR, DIST GWALIOR, Gwalior","26.11731899999999","78.05222169999999"
"ChIJWzhFb0fPdjkRuvNNHH0hvdo","Laxmi Mukund Fuel station","National Highway 46, Nayagaon","26.1172672","78.06365319999999"
"ChIJBaOxCJDPdjkRmu_X4RpLoOQ","Jio-bp","Patwari Halka No 23, Ghatigaon","26.11701189999999","78.06475170000002"
"ChIJ604yt6XTdjkROXwG7lSMz0k","Hindustan Petroleum Corporation Limited","Ground Floor, NH 46, Agra - Mumbai Highway, Ghatigaon","26.052841","77.941001"
"ChIJCYJESXbTdjkRVT2EYyw-94M","Bharat Petroleum Petrol Pump , MARUTI FUELS","GHATIGAONNH3, M.P","26.0508907","77.9321281"
"ChIJoa9Rj6fTdjkRgQMz5CmhzZs","IndianOil","Lock No 1243/219, NH3, AB Road, Ghatigaon","26.053736","77.94323899999999"
"ChIJr9nCU33TdjkR-rzt5LQV9WA","raj filling centre","3X33+MVF, Agra - Mumbai Highway, Ghatigaon","26.0541919","77.95466549999999"
"ChIJZzxTiXMpcTkRK64oCtGHtoY","Bharat petroleum petrol pump- Om Shri Mahakal Enterprises","116,117, Mahakal Enterprises, Om Shri, Nh46, Charai, Rehnt, Gwalior","25.9686646","77.8243093"
"ChIJtTPj-h8rcTkR_BOcbeitVK8","CNG Shri Siddhi Jai Dauji Filling","National Highway 46, Renhat","25.98619699999999","77.845505"
"ChIJl4eVQAArcTkRInqSpyFO7VU","Cng pump mohna","XRPW+G6, Renhat","25.986321","77.845523"
"ChIJicf01eQrcTkRGN4iJtiPZ0I","Hindustan Petroleum Corporation Limited","Ground Floor, Ghatigaon","25.986961","77.845466"
"ChIJ_yaKTTLXcDkRoCircSXg1FE","Ashoka Filling Station Bharat Petroleum pump","VQRC+G4G, Rd, Mohana","25.8903047","77.76976859999999"
"ChIJjXEHlCYocTkRC33WEgQO7io","IndianOil","S Lock 1004 & 1058, 219, NH 3, Mohana","25.9040854","77.7755803"
"ChIJ52QvPCUocTkRlVPXZv4n62s","Hindustan Petroleum Corporation Limited","Ground Floor, Ghatigaon, Mohana","25.9099939","77.7777199"
"ChIJ6QNZDtTbcDkRrsHJbibIoCw","Nayara Energy Petrol Pump - Sadhana Filling Station","Churelkhera","25.7207203","77.7338931"
"ChIJxSuN4tHHcDkRba4M69ETpb4","Think Gas (CNG Gas Filling Station)","India","25.5629915","77.733936"
"ChIJd7U4_uPHcDkRQ6I7rwgjG_A","Hindustan Petroleum Corporation Limited","Ground Floor, NH 46, Shivpuri - Gwalior Road, Kankar, Shivpuri","25.562988","77.733932"
"ChIJqWKGw6vHcDkRAGU-UnZVoJo","H. P. Mahaveer Filling Station Satanwada AB road","A B, Road, Kankar","25.5618761","77.7335202"
"ChIJbSKZMXK4cDkRVHNKck72NQU","IndianOil","Lock No 1181/219 AB Road, Satanwada, NH 3, Sadak, Barodi","25.512478","77.71768999999999"
"ChIJ2aJ7Zd24cDkRUBTOcxkVwUQ","IndianOil","Lock No 1225/219 NH 3, Agra - Mumbai Highway, Chandanpur, Barodi","25.4813697","77.6756116"
"ChIJw0stWr-8cDkRDqKe3CjGQqc","IndianOil","Lock No 1168/219, NH 3, Ab Road, Bans Khedi","25.3465679","77.6312808"
"ChIJby76jMe8cDkRo41BLMrIcXw","Todarmal petrol pump Bharat Petroleum","Khedi, Bans khedi, NH-3, Mumbai Agra Highway, AB Road, Shivpuri","25.3412","77.6302"
"ChIJH-VPGHC8cDkR2Z83ZOdpEIU","IndianOil","Lock No 1073/219 Ab Road, NH E, Barodi, Sadak, Shivpuri","25.3884476","77.6428103"
"ChIJfe2bBLG8cDkRh1zr7RHf2lc","Bpshivpuri","nh3","25.3370021","77.6386948"
"ChIJwTEdOrW8cDkRsbdAZouKfRU","Jio-bp","near Sharda Solvent, Ground Floor Nh 3, Ab Road, near Sharda Solvent, Plant, Mudheni","25.3288969","77.63258859999999"
"ChIJG4ADsB-9cDkR-cnKs5gSHEY","IndianOil","Ground Floor Kakarwaya, NH 3, Sadak, Kakarwaya","25.3775673","77.6223157"
"ChIJnbTIYxGjcDkR14oClIkKrKo","IndianOil","Khasra No 1622/1 Barodi Sadak, Bujurg, Sesai Sadak","25.3085301","77.6316701"
"ChIJiRoMcSu9cDkRcuBpDJvN-Ps","Bharat Petroleum, Petrol Pump -Prem Automobiles","Barodi Industrial Area, National Highway 3, Shivpuri","25.3900742","77.64370699999999"
"ChIJywsFeQCjcDkRtBaPOkDkIUA","JioBP pump Laxmi Mukund fuel station Kolaras","6JX8+M9F, Asian Highway 47, Kumraua","25.2503527","77.61632480000002"
"ChIJR98dVyKjcDkRRn3B3v5AXbI","Hindustan Petroleum Corporation Limited","Survey No 1295, NH 46, Shivpuri Guna Rd, Kolaras, Kumraua","25.248874","77.616286"
"ChIJNwJXaqWjcDkR_Z2nnjlROh0","Bharat Petroleum, Petrol Pump -Bhartiya Petroleum Shivpuri","VILL PADORA, ON NH, Ramnagar","25.2666697","77.61935509999999"
"ChIJD39WtaNpDjkR-gOLoWEvHJs","IndianOil","Ground Floor, NH 3, AB Road, Kolaras","25.229347","77.6108333"
"ChIJpwDCKg-jcDkRt8caeCFCoLM","Shivhare Energy","Kolaras, Padora Sadak","25.2870579","77.6282872"
"ChIJgz5numgKejkRalRMbnbQo3Q","Hindustan Petroleum Corporation Limited","Ground Floor SH 10, Kolaras, Ashok Nagar, Lukwasa","25.1222308","77.62029"
"ChIJQ2xQcIeZcDkRZw2rLHJtYn0","IndianOil","Ground Floor, Shivpuri, Dehrada, Jagatpur","25.1524964","77.6069198"
"ChIJ9ZiT6lmhcDkRvlxCosemTMc","Gurudev Filling Station","AH47, Deharda Sadak","25.1546318","77.606071"
"ChIJ-76yO4kKejkRCQRiw5ZwmYo","Raghuwanshi Highway Service Petrol Pump","4JF3+C54, Deharda Sadak","25.12352030000001","77.602957"
"ChIJUQ2IDFG9cDkRM0g4mfz0D4M","Bhagawati Energy Station Indian Oil Petrol Pump","S No 138, 4, Attair Road, Shivpuri, Purankhedi, Ejwara","25.1744982","77.6051329"
"ChIJvasHP4kKejkR9r_px7F1NMo","IndianOil","Lock No 1190/219, AB Road, NH 3, Ashok Ngr, Deharda Crossing, Raosar Jagir, Ashok Nagar","25.1232808","77.6033011"
"ChIJYRzg4h4LejkRW20c5eTvyrA","Bharat Petroleum Petrol pump- Shiv Filling Station","4J64+6V, Lukwasa","25.1105625","77.6071875"
"ChIJuZ9r3aEMejkRtHBReJFjB_o","Nayara Energy Petrol Pump VPS Petroleum","2HQM+WPR, Agra - Mumbai Highway, Buda Dongar","25.039871","77.584257"
"ChIJx-tDYvQNejkR5DS-w0Nr95I","Hindustan Petroleum Corporation Limited","Survey No 1095/1/2, NH 46, Guna Shivpuri Road, Kolaras, Deegod","25.026155","77.578491"
"ChIJfYd4Vj8LejkRUD_vgeLLN5U","Hindustan Petroleum Corporation Limited","Survey No 1826/2, NH 46, Shivpuri Guna Road, Ashok Nagar, Kolaras","25.088331","77.596693"
"ChIJI2-43mcLejkRpsHD5_r5fT0","IndianOil","Ground Floor, NH 3, Agra - Mumbai Highway, Kolaras","25.0887691","77.5956672"
"ChIJ-wQAH00NejkRm7uqcFyy2fY","Hindustan Petroleum Corporation Limited","Ground Floor, Agra - Mumbai Highway, Badarwas","24.9632485","77.5633509"
"ChIJfy7vohVtejkR2vWkOXAc7PI","IndianOil","Ground Floor, AB Road NH 3, Ishwari, Barodi Sadak, Badarwas","24.9198138","77.5377369"
"ChIJqYUJaqtyejkRzeAg9gBOJE4","Raj Parsedia Fuel Center Bharat Petroleum","Sumela, Shivpuri NH-3, Mumbai Agra Highway, Agra - Mumbai Highway, Shivpuri","24.9535","77.56049999999999"
"ChIJeZMw3URzejkREatbw0mzr2Y","Bharat Petroleum, Petrol Pump -Parsediya Automobiles","BADARWAS 1","24.9574639","77.5608905"
"ChIJWyzcl0wNejkRokawScNUv4w","IndianOil","Lock No 1133/219, Badarwas AB Road, NH 3, Main Road, Raosar Jagir","24.9657927","77.5633007"
"ChIJcdgtXgBtejkR2FNOHOL7dSY","M/S DIVYANSH ENERGY CENTER ATALPUR pump ⛽ पेट्रोल पंप","गोलू बृजवासी रेस्टोरेंट के सामने, Atalpur","24.9038125","77.5175625"
"ChIJQ7ljfGZoejkRNrTnhlwHxD8","IndianOil","Lock No 1043/219, NH 3, Shivpuri Guna Rd, Barkheda Gird, Bhadaura","24.7859622","77.3959251"
"ChIJG7NkA-BpejkRmNkXyshnBm0","IndianOil","Shop No 113, min 3113, min 1, min 1, Dungasara","24.8226307","77.4273533"
"ChIJkRp3WUppejkRvP8It7C_uzk","IOCL PETROL PUMP HR ENERGY STATION","On, National Highway 46, Dungasara","24.8226542","77.4273384"
"ChIJd_cXJD9dejkRNeknSf7NGkQ","Hindustan Petroleum Corporation Limited","Ground Floor, NH 46, Shivpuri Guna Road, Bilabawadi","24.7189201","77.36049009999999"
"ChIJyajoXbRdejkRUAFchEjQffs","Jio BP reliance mobility","P974+P7P, Bilabawadi","24.7143423","77.35571130000001"
"ChIJe6bCZU5cejkR_m0DWPdfIfs","IndianOil","Lock No 1086/219 Piproda Khurd, Barkheda Gird","24.6879028","77.3188296"
"ChIJYzlkxEZdejkRLeJpbm8ipvk","BP GUNA","P9G6+8VM, Bilabawadi","24.7258382","77.3621684"
"ChIJwfutMbFdejkR61ze2Q_KCu4","Hindustan Petroleum Corporation Limited","Khasra No 55/3, Umri Road, Guna","24.683139","77.318955"
"ChIJhwwFDJddejkRRHBcA__LEzM","IndianOil","Ground Floor, Nana Khedi, Barkheda Gird","24.664854","77.32887629999999"
"ChIJYRyvXsBdejkRw4jxrvn500c","Hindustan Petroleum Corporation Limited","Ground Floor, AB Road, Nana Khedi, Guna","24.662615","77.327377"
"ChIJPyzLbKldejkRPgQNNJlg9-w","Reliance Petroleum","Ground Floor Ab Road, Nanakhedi, Guna Chwni, Umri","24.6615898","77.3261124"
"ChIJ74VB_uRZejkRMQcT3ilx-BY","IndianOil","Ground Floor, NH 3, Gader, Barkheda Gird","24.5949213","77.2379183"
"ChIJ_YYF1ShZejkR6SCx0eVVp9c","Bhagwati energies, prashant pal","NH43, Panj","24.5720735","77.23115510000001"
"ChIJ5XIy_adZejkRZaKDNJK7CSU","Jio Bp petrol pump","J732+3RG, Asian Highway 47, Bamoribugurj","24.602693","77.2520862"
"ChIJb9Ps3LZdejkRTYlxdM1sAXk","IndianOil","Ground Floor, AB Road, Guna","24.6221799","77.2636831"
"ChIJBX2r4tlZejkRYaDSUPErAMk","Bharat Petroleum, Petrol Pump -Pratapchand Prakashchand Jain","GUNA BUS STAND, Guna","24.6218857","77.26422529999999"
"ChIJO3_CUYlZejkRQgVwlRCrmPY","NAYARA","H7JJ+JF8, Madhya Pradesh State Highway 23, Hirapur","24.5815426","77.2811917"
"ChIJR56I2I74ejkRvzOoRrgVSnU","IndianOil","Lock 1157, 219, AB Road, Dharnawada","24.489774","77.18011899999999"
"ChIJRTPzPAD5ejkRvcI3wOrjMWs","GAIL LNG STN VIJAIPUR","F56C+X6, Raghogarh -Vijaypur","24.46240899999999","77.170549"
"ChIJUftug8D5ejkR5PuSDAmpVPM","IndianOil","main gate, Lock No 1173/219, AB Road, Gail Vijaipur, Kheria, Raghogarh -Vijaypur","24.4633358","77.1697705"
"ChIJmahgX1_5ejkRybpBVw_C054","Hindustan Petroleum Corporation Limited","Ground Floor, Infront of Gail, NH 46, Guna Biaora Road, Raghogarh","24.4641743","77.1721737"
"ChIJ1842Iw75ejkRBEN_EbbhkNk","Bharat Petroleum, Petrol Pump -S S Sales And Service","VIJAYPUR NEAR NFL, DIST GU, Guna","24.46880329999999","77.1710267"
"ChIJy-Ntv1P5ejkR-hHo8ae1DSk","Dudh Supply","Barkhedi Mewati F52H, VHP, Raghogarh -Vijaypur","24.4575583","77.18039739999999"
"ChIJp3rOOgD5ejkRsXcHaG_xFXk","Amar bhagwati filling station","F52J+J46, Raghogarh -Vijaypur","24.4515101","77.1804813"
"ChIJEzpi8qj_ejkRhqtfXxzCgaM","Hindustan Petroleum Corporation Limited","No 26, Rampura, Raghogarh -Vijaypur","24.443491","77.16098099999999"
"ChIJ720GxWz5ejkRQE-HTVMti1w","Govind Surya 360","Govind Surya 360, Guna","24.45374","77.1482066"
"ChIJowGTLEL5ejkRxBXw8H25IIs","IndianOil","Ground Floor Dongar Road, Raghogarh, Chainpura, Awan","24.465581","77.14534700000002"
"ChIJZZImGdX5ejkReThlUwpdcd4","Nayak Filling And Kisan Sewa Kendra","F48W+32J, Vijaipur","24.4654463","77.1448583"
"ChIJoaqqqvlVejkR4YTehdKxw00","Jyotirmaya Petrol Pump","Jyotirmaya Petrol Pump Near Rest House Barbat Pura Aron Road Raghogarh, Raghogarh","24.4524096","77.1904909"
"ChIJZbZ0gDb_ejkR_jDZrFFRBy4","JYOTIRMAYA PETROL PUMP","Barbat Pura Road, Raghogarh -Vijaypur","24.4481321","77.1926335"
"ChIJP27i1SL5ejkRrblJQ7LktDo","Shree Sai Fuels","F5WM+C6C, Pagara, Raghogarh -Vijaypur, Guna","24.4960657","77.183025"
"ChIJKToFJyL_ejkRnt00uqEQl2o","SHAHEED RAMBEER SINGH TOMAR FILLING STATION","front of sugar factory, Village:Sorampura , Near Janjali NH 46, AB ROAD, Raghogarh -Vijaypur","24.3764059","77.1250383"
"ChIJ1bQyiuv_ejkR8H9n9IiVzb4","Hindustan Petroleum Corporation Limited","Ground Floor, NH 46, Tiraha, Sorampura, Janjali","24.377646","77.12521009999999"
"ChIJW9QFgbkDezkRVvHAf4uiPgo","IndianOil","Ground Floor, Barod, Binaganj, Khatkiya, Barkheda","24.323214","77.092064"
"ChIJGTct3UP-ejkRcteT7hYu1Wc","Mahakal Petrol Pump","94JH+PX4, Bishanpura","24.3817742","77.1299665"
"ChIJbRTMF_b_ejkRDfCJSNxMqoo","Hindustan Petroleum Corporation Limited","Ground Floor, NH 46, Guna Biaora Road, Hazratpur, Guna","24.381905","77.12983009999999"
"ChIJL4QqYjX_ejkR8no0US5LqfY","Bharat petrolium corporation limited","94QM+RWG, Awan","24.3895536","77.1348426"
"ChIJ0xeX9k8FezkRr3B8e0R_mGA","Jamnalal Petroleum Essar Dealer","63J2+W6C, Khanpura","24.2323181","77.0505191"
"ChIJGZDKSpoFezkRw4jNIaTyf-4","Bhagwan Das Petro Point (BP binaganj) कम्पनी का पम्प","Nh 46, bypass, Binaganj","24.2061872","77.0420032"
"ChIJERWN6h4FezkR21K7mILvyDU","Hindustan Petroleum Corporation Limited","Ground Floor, Old, Agra - Mumbai Highway, Binaganj","24.202816","77.038975"
"ChIJEWHKYY8FezkR-dHI9uN9oB8","Bharat Petroleum, Petrol Pump -Bhagwan Das Petroleum","Agra - Mumbai Highway, Chachaura-Binaganj","24.1947288","77.03489929999999"
"ChIJMRoQ-4JsezkR0qFl-tZFpl0","Bharat Petroleum","Byoara, Rajgarh, SH-14, Maksudangarh Road, Rajgarh, Rajgarh","23.9231","76.9206"
"ChIJJZJu9OhsezkRNyNM9cpbe7U","IndianOil","Survey No 435, 1/1 & 435/1/2/1, Aamliyahat, Biaora","23.936365","76.95103600000002"
"ChIJn3TQXnlrezkRoaQk2RT0w4E","Reliance Petroleum","vill, mohnipura, bypass road, Biaora","23.9085475","76.8899704"
"ChIJq3ZhDflrezkReWwFnw1jEIU","Hindustan Petroleum Corporation Limited","Khasra No 180/1, National Highway 46, Binaganj, Aranya","23.9378601","76.9165801"
"ChIJextCeABrezkRavK3sEksELc","Think Gas CNG gas station","WWH7+GM5, Biaora Road, Biaora","23.9287502","76.9142354"
"ChIJZfy4dgBrezkRcJaNyX83o24","Cng pump","WWG7+PCC, krishna Puram Colony, Biaora","23.9268127","76.9135079"
"ChIJecbHmfFrezkRtpppj52g1is","Maa Bhawani Fuel Station","near Nihaldevi Cold Storage, Nh 46, Guna Road, Biaora","23.9289554","76.90407429999999"
"ChIJv_HaRuJrezkRs8449bLtcFw","Hindustan Petroleum Corporation Limited","Infront Of Bus Stand, Plot No 255/1/11 & 255/1, Apna Nagar, Biaora","23.9252949","76.9129366"
"ChIJixSud3trezkRlchmm6hVLsc","Hindustan Petroleum Corporation Limited","Plot No 264/1 & 267, Old AB Road, Biaora","23.9219801","76.9115101"
"ChIJ73iNg3prezkR-OAkKeKkZSo","IndianOil","Survey No 107/11294/106/1, 1294/106/9, Biaora","23.921716","76.906926"
"ChIJnQlF0XZrezkRFBoFr0xKpd4","Nayara petrol pump-Aakash fuels","NH-52 khasra no-93 katariyakhedi, Biaora","23.924735","76.8971589"
"ChIJUTbni3htezkRqfsKmCc3Eyw","IndianOil","Shop No 652, 1/2, Khasr, Biaora","23.91689899999999","76.9204944"
"ChIJX3B2mVoTezkRnOr_6rITZp0","IndianOil","Ground Floor, AB Road, Bioara, Chatha","23.9729842","76.9274159"
"ChIJvW0L0aBrezkRV4bWXlUjttY","Jio-bp","Ground Floor, near Nh 3, Bypass Rd, Mohanpura, Mohinipura","23.9086557","76.89030269999999"
"ChIJZwXBDUITezkREm9FnQWzU3M","Bharat Petroleum, Petrol Pump -Priyanka Automobiles","KASORKALA, BIAORA, RAJGARH","23.9844489","76.93389719999999"
"ChIJ_85E57hrezkRGIyGXpFV2Mc","Hindustan Petroleum Corporation Limited","Plot No 42 & 43, Shajapur Guna Highway, Rajgarh, Biaora","23.890261","76.887817"
"ChIJ26QlBQhrezkR1MRzf82jSdY","Bharat Petroleum,Patel Fuel","NH52, Parsuliya, Biaora","23.8634035","76.85965259999999"
"ChIJh6v3fAZrezkRmPDAGyGbyD0","HAKIMI PETROLEUM AND CNG STATION","NH 52, pachore road, GRAM, Parsuliya","23.8653061","76.8615628"
"ChIJdX05DwVrezkRXM_z8WUMhzA","IndianOil","Ground Floor, NH 52, Agra - Mumbai Highway, Biaora","23.8861952","76.8851897"
"ChIJjSzyrH9bezkRs4kD42_dnTg","Petrol Pump","PP7J+8GR, Old Bridge Road, Pachore","23.7133677","76.7312623"
"ChIJK2fg4QldezkR2Au_spoXxXQ","Bharat Petroleum, Petrol Pump -Jagdish Filling Center","BHOJPURIA PACHORE, RAJGARH","23.71931440000001","76.736639"
"ChIJjbO7El9FezkR6hRUMHS0UPQ","Hindustan Petroleum Corporation Limited","Ground Floor, Dhatoori","23.767234","76.714192"
"ChIJIZAGVgBbezkRIE32K-sv96g","VISHNU FUELS RELAINCE JIO BP","MMP3+PGF, National Highway 52, Pachore","23.6868169","76.6537896"
"ChIJhY5ah15VezkRUMIUM5mXRBM","Lodi energy station","NH 52, SARANGPUR, TEHSIL, Dhanora","23.6051749","76.5271863"
"ChIJ86UUmY1WezkRgPLp3t7F14U","IndianOil","Ground Floor, Padana Road, Mau","23.6134737","76.5684809"
"ChIJHfS-TXFVezkR4woU0VV5tRU","IndianOil","Ground Floor, National Highway 52, Biloda Purbia","23.59338049999999","76.5103024"
"ChIJXUB7SURVezkRPW-OCn6JsRY","Shriram petroleum","Ward 8, nagar","23.5919902","76.50962779999999"
"ChIJw8iWDjhVezkRv2lZP4hW6yY","Bharat Petroleum","NH-3, Mumbai–Agra Highway, Rajgarh, Sarangpur","23.5714","76.46889999999999"
"ChIJcWlNDACrZDkRp5oACZKbmzM","malviya fuels & energy station","Bypass road, Gopalpura","23.55423489999999","76.455744"
"ChIJhY0CsvdVYzkRzkTHEysclZI","IndianOil","Ground Floor Ukawata, Moman Badodia","23.5420342","76.4402739"
"ChIJEa-hu0lVezkRPBVraPhqxGY","Reliance Petroleum","Ground Floor, Bus Stand, near Radha Roadways, Sagar","23.5687101","76.46404009999999"
"ChIJE7VQi1VVezkRPi2xtZsl8OE","Manglaj","HF8C+MR9, Sarangpur","23.5666697","76.4720968"
"ChIJd_xwI19VezkRB-NJooPzQFk","S B AGROTECH","Shoukat bhai ki dukan, Anil petrol pump, Padhliya Raod, Sarangpur","23.5728914","76.47367009999999"
"ChIJJ6mCmD9VezkROFmTqFQkHIs","IndianOil","Ground Floor, AB road, Sarangpur","23.572408","76.47419699999999"
"ChIJn0yAEwBVezkRfuFxCgvTRr4","Petrol tank","HFFG+8M6, Sarangpur","23.5731051","76.4766362"
"ChIJPzseIw5VezkRDFCUPBYRmKQ","IndianOil","S No 509/1/1/1510/3/1513/3/1, Sarangpur","23.5680136","76.4839159"
"ChIJ2RU7-pZVezkRgHKRM3UPBaI","NAKSHATRA HOME DESIGN","Shope No 02 Krishimandi, Akodia Road, Shajapur","23.5706054","76.4824582"
"ChIJI5wHkgFVezkRkWG9yPihkJ4","Anil Transport Co.","Plot no.434/1 Sandawta Road, Tehsil, Balodi","23.5879954","76.4719784"
"ChIJF4zRvfpVezkR5hD-pLNQJqs","Hindustan Petroleum Corporation Limited","Plot No 434/1, Sarangpur Road, Balodi","23.589268","76.471693"
"ChIJa39R3hNVezkR7zubn95X6no","Bharat Petroleum, Petrol Pump -Gopal Krishna Petroleum Palace","TALENI, National Highway 3, RAJGARH","23.5781099","76.48677169999999"
"ChIJJYWnD4FXYzkRvn6um1DCGOE","IndianOil","Ground Floor, AB Road, Sunera","23.4708825","76.35279990000001"
"ChIJkwgzQzlXYzkRbzacgRSO8RA","Police Welfare Petrol Pump Sig","Panwadi","23.4709171","76.3532699"
"ChIJpZfA1OFXYzkRRqyQc2HaAWs","Bharat Petroleum, Petrol Pump -Sarju Petroleum","SHAJAPUR UPTO 10 KM, Shajapur","23.4529334","76.33017889999999"
"ChIJ0zTQiNZWYzkRh7lg4Kvez58","Hindustan Petroleum Corporation Limited","Plot No 53 & 54, Agra - Mumbai Highway, Majhaniya","23.4478476","76.3206379"
"ChIJxZs9TQBXYzkRNhanlAJGW8c","Malviya Fuel stationery","NH52, Agra - Mumbai Highway, goaplpurs, Sarangpur","23.4450726","76.3170547"
"ChIJNc6kT21bYzkRHNf8V5YsGEk","GiriKisan Seva Kendra","near Ranthbore, Ranthbhore Road, Near, Bhilsami","23.4151308","76.270252"
"ChIJp9JOIQBRYzkRtQ_u9Meq_Zs","HP petroleum","C79F+7CP, Agra - Mumbai Highway, Shajapur","23.4182229","76.2735926"
"ChIJ5xpQ56BQYzkRJgpaMWtvMCQ","IndianOil","Ground Floor Magariya, Agra - Mumbai Highway, Abhypur","23.41794","76.27369399999999"
"ChIJK8-8cwBRYzkRmYDL3_P2T4k","Vishal Parmar","C7HG+C6V, Shajapur","23.4286632","76.27561419999999"
"ChIJA5oSn7xQYzkRPFu4-6u1rGM","Radha Petrol Pump And CNG","plot no. 41, Agra - Mumbai Highway, Shajapur","23.4203521","76.28454339999999"
"ChIJheljfp1RYzkRWgWfuUORg2I","Reliance Petroleum","Tanki Chouraha, No 149, Ab Road, Mahapura, Shajapur","23.421565","76.28655499999999"
"ChIJk0qrvrtQYzkRF-ic3x44orQ","Bharat Petroleum, Petrol Pump -Navinchandra & Co","near COOPERATIVE BANK, NH3,, near COOPERATIVE BANK, Shajapur","23.4225144","76.2866985"
"ChIJ2YoVtVhaYzkRoFMzyVgLZOo","Bharat Petroleum, Petrol Pump -Garg Petroleum","SUWARKOTA, UJJAIN","23.38934","76.2416877"
"ChIJD3dw3qBRYzkR0ebNhW5OIRQ","Hindustan Petroleum Corporation Limited","S No 98/1 99/1 & 100/1, Irrigation Colony, Shajapur","23.41730799999999","76.28947699999999"
"ChIJo3TsYVVDYzkR5hgDeTbLO_Q","Hindustan Petroleum Corporation Limited","Ground Floor, NH 3, Agra - Mumbai Highway, Tarana, Rojwas","23.333817","76.17764199999999"
"ChIJI9AGcplDYzkR1KJoGkp6fFY","IndianOil","Survey No 182/2, Ph No 78 Kanasiya, Rojawas, Tarana","23.3275201","76.1730101"
"ChIJRXR-peBbYzkRP28UhcNeOQM","IndianOil","Ground Floor Kanasia, NH 3, Agra - Mumbai Highway, Tarana, Banjari","23.348499","76.19533700000001"
"ChIJE6x0oxF1YzkRLGq1NwM3HiM","IndianOil","near Km Stone 295, NH 52 A B Road, Kanasiya, Tarana, near Km Stone 295, Chopra, Maksi","23.30460889999999","76.1598831"
"ChIJFyLxNkFDYzkRnPsw1sagOF0","Jiobp petrol pump","8525+25, Maksi","23.299988","76.15793049999999"
"ChIJfYdlwdtDYzkRTqb5jAGILVg","Bharat Petroleum","Bhekhakhedi, Shajapur, NH-3, Mumbai–Agra Highway, Dewas","23.246145","76.1480776"
"ChIJ4-vNXaBDYzkR6hiM9-CHpkQ","IndianOil","Ground Floor, Agra - Mumbai Highway, Kanasiya","23.2845941","76.1525975"
"ChIJh0K21C9DYzkRUclFnwmYy-E","Hindustan Petroleum Corporation Limited","PH 62, Khasra 1228, 4/6/2, Maksi - Jhonker Road, Jhonkar","23.2438201","76.17522009999999"
"ChIJAVJBvcZDYzkRnLzKOv8NC3Y","Highway Point Petrol Pump BPCL Dealer","744X+X5G, NH 3, Maksi","23.2574277","76.1479559"
"ChIJFxAcYABDYzkRITLuNbbMTLw","Shree Balaji filling station","745W+QHH, Maksi","23.2594292","76.14649030000001"
"ChIJd4UxIaZBYzkRp57fYU7JFtI","Hindustan Petroleum Corporation Limited","Ground Floor, NH 3, Agra - Mumbai Highway, Alari","23.221361","76.150138"
"ChIJI5O4p7xDYzkR5w3UeBtlvCw","Hindustan Petroleum Corporation Limited","Plot No 555 & 556, Shajapur Road, Old, Maksi","23.27345010000001","76.1495101"
"ChIJwSdnVbtDYzkRqPS8hDiAPvU","Jio-bp","Survey No 541, 5 & 541/6, Ab Road, Gadroli","23.2757851","76.1500658"
"ChIJAefqKgBBYzkRdCDsLWVZAGc","Shree Bhagya Shree Fuel Station","6532+QCH, Pipalyasadak","23.20444649999999","76.1511232"
"ChIJ8bXI6mw_YzkR4bPUWQiUCYk","Hindustan Petroleum Corporation Limited","Ground Floor, Agra - Mumbai Highway, Bairwakhedi, Tonkkalan","23.12424440000001","76.14778679999999"
"ChIJl9cgx_xBYzkRTv4_CP1W828","Bharat Petroleum (B.P.C.L.)","5532+334, Dewas to Maksi on NH A.B. road, in front of swami vivekanand education academy Padliya","23.1526261","76.1501881"
"ChIJo2TRbiVBYzkRzx74B6EQZNQ","Aditya Bharat Gas","5572+4WG, Agra - Mumbai Highway, Padlya","23.16282499999999","76.152323"
"ChIJ_36LKzs9YzkRT2b8vjKkqTQ","Hindustan Petroleum","National Highway 86, Khatamba","22.9716972","76.120137"
"ChIJ24SaN6M9YzkRmwviK63Ssmo","Shiv Leela Fuels..Bilawli","बिलावली","23.0109696","76.1018091"
"ChIJC0qsVIM9YzkRHmHzS1Liw2s","Hindustan Petroleum Corporation Limited","Ground Floor, Bilawali, Dewas","23.0071083","76.097168"
"ChIJI2L73r09YzkRdb7udD5Lfbw","Ameer Brothers Hindustan Petroleum","234W+QV6, Agra - Mumbai Highway, Durgapura","23.00691729999999","76.0971555"
"ChIJQxdd0X09YzkRSqzdCwF3V-4","IndianOil - SWAGAT","Ground Floor Bilawali, AB Road, Agrod","22.9942148","76.08821089999999"
"ChIJ6c-c0w89YzkRt0YWM2aP_yc","Shekhar Patel Pump","Shop No. 5 NH 3, Bilawali N H 3, Maksi Road, Bilawali, Dewas","22.9942789","76.088105"
"ChIJP4xWj9o9YzkRECmxxSoS1nM","Hindustan Petroleum Corporation Limited","Ground Floor, NH 3, Dewas Maksi Road, Sia","23.0407531","76.1193062"
"ChIJ32dLlGI9YzkRH4hvDBw2VmI","Hindustan Petroleum Corporation Limited","Ground Floor, Dewas Bypass Road, Bilawali, Dewas","22.98712","76.08693"
"ChIJKY0bTKQXYzkRvzhKetc6Vf8","Hindustan Petroleum Corporation Limited","Ground Floor, Dewas Vijayganj, Mandi Road, Amlawati, Borkhedidhakad","23.013661","76.070121"
"ChIJWwdLk6MXYzkR3MSzrFLUIfQ","IndianOil","Ground Floor, Nipania Vijayaganj Mandi to, 16, Dewas Road, Agrod","23.030116","76.06874100000002"
"ChIJRZne6nYXYzkRGqdp79AxjfU","Nayara Petrol Pump- Ekadanta Fuel Station","Mudka","23.037411","76.06967709999999"
"ChIJXVEYMAA9YzkRfqjLZihIEC4","Rudraksh petrol pump","X4C5+7QR, Dewas","22.9707313","76.1094021"
"ChIJHzBDcy49YzkRtNjqsRhscK4","Jio Bp Petrol Pump","X4C5+C6, Khatamba","22.9703022","76.1079634"
"ChIJu9VsA5I9YzkRSFFzsVTe2uU","IndianOil","Ground Floor, SH 18, Jetpura, Agrod","22.9700972","76.1093621"
"ChIJHeDbMTo9YzkRGDxpP8zIreI","Jain Petroleum","Indore - Bhopal Road, Indore","22.9703921","76.1151095"
"ChIJbU7aTNcZYzkR9hRkumJvwSc","IndianOil","Ground Floor, Industrial Area, near Police Station, Agra - Mumbai Highway, Dewas","22.9423765","76.028658"
"ChIJjUWza9YZYzkR3Eq_4zlmATE","Shriram and Sons, Bharat Petroleum","W2WJ+VRX, AB Road, Vikas Nagar, Ganga Nagar, Dewas","22.9472351","76.0321222"
"ChIJJ9z9JH4XYzkRvV4wNqzfeVU","Hindustan Petroleum Corporation Limited","No 3 Stadium Road, AB Road, Dewas","22.949871","76.03544099999999"
"ChIJvUpYTYwZYzkReYX70VXlCt8","Hindustan Petroleum Corporation Limited","Ground Floor, Agra - Mumbai Highway, Lohar Pipalya","22.9192201","76.00142009999999"
"ChIJ9WwZMAoZYzkRxQv0Hfr0bhE","Hindustan Petroleum Corporation Limited","Ground Floor, NH 3, Dewas Bypass Road, Palnagar","22.923143","76.035079"
"ChIJ5-tZY2MZYzkRTJBtTAOLlzQ","Katare Filling Station","65/2/1 Bhopal bye pass road, Industrial Area No.2, Dewas","22.9233865","76.0351458"
"ChIJ30MOCAAZYzkRR0SNg4U10YY","G D Gautam Energy Station","W3J2+RM6, Indore - Bhopal Road, Dewas","22.9320457","76.051653"
"ChIJx6KLhY0ZYzkRL4wDjUSZxxQ","Jio-bp","Ground Floor, opposite Gulmohar Dhaba, Nh 3, AB Road, Lohar Pipalya","22.9194689","76.00378359999999"
"ChIJL6HaRDwYYzkRDMweeD0Os-Q","IndianOil","Survey No 417, Ph No 57 1/1/2 & 445/1/2, Shankargarh, Agrod","22.9359342","76.05892779999999"
"ChIJLdHNSX8XYzkRv3pGFxlLtjw","IndianOil","Survey No 640, 641 645/3, Dewas Junior, Agrod","22.955357","76.039563"
"ChIJ1XeI_l0ZYzkRyKcgKb7ZVyg","Nayara petroleum - Lucky fuel station","Dewas byy pass Village sankar gard","22.9432854","76.063847"
"ChIJMxQ_4ocZYzkRu4umzbjL-oI","IndianOil","Ground Floor, Agra - Mumbai Highway, Kshipra","22.9105201","75.9938301"
"ChIJ7UWyehkYYzkRdVBVkbP-Hzs","BPCL Petrol Pump","Dewas","22.9440643","76.0675275"
"ChIJdZQFgicXYzkRH5PrZQVbugw","IndianOil","Ground Floor Mendki, Chak, Agrod","22.963618","76.02741999999999"
"ChIJXXcb5JIcYzkRozT7-a07cnM","IndianOil","Lock No 29/2, Agra - Mumbai Highway, Manglaya Sadak, Ratlam","22.8252836","75.93208709999999"
"ChIJfWkFkukdYzkReR4C8B_zU_A","Jio-bp","opposite Hpc Bottling Plant, Ground Floor Nh 3, Ab Road, Sanwer, Lasudia Parmar, opposite Hpc Bottling Plant, Indore","22.8417857","75.9435397"
"ChIJXzp2wJYbYzkRLBesEKZZDGA","IndianOil","CGO Complex Bypass Road, NH 3, Mayakhedi, Indore","22.77674","75.93634709999999"
"ChIJMdOViHIdYzkRbH9ksBCyJ44","Essar-Nayara Petrol Pump","QWFP+Q47, Bypass Rd, Omaxe City 1, Nipania, Indore","22.7744181","75.93528169999999"
"ChIJTS3lITIdYzkRaKWCsDy0Xr4","Nayara Petrol Pump","QWM4+R45, AB Road, Sda Compound, Lasudia Mori, Indore","22.7845221","75.9053577"
"ChIJ11z9i0odYzkRY489KAbjbq8","IndianOil","Ground Floor, AB Road, Lasudia Mori, Barlai Jagir","22.7820778","75.9053392"
"ChIJ30cIbM8DYzkRQsnn0dJV1HQ","IndianOil","Ground Floor, near Regenta Hotel, NH 3, Manglaya Sadak, sanwer","22.8129164","75.93711739999999"
"ChIJawDm1wUdYzkRa4l8-ma5pQ8","Sharanya Mobilities","282/4, Indore","22.8200172","75.9383757"
"ChIJSW52Wk0dYzkRqa27yDYb9Po","Reva Kishan sewa kendra","Sula Khedi Road, Manglaya Sadak, Indore","22.8182455","75.9437674"
"ChIJl9e3qUkdYzkRqlZmX6hJPBw","IndianOil","Survey No 12/3, Ph, No 60, Sanwer, Sullakhedi, Barlai Jagir","22.8185001","75.94380009999999"
"ChIJbc1_ecIcYzkRIMk0sBX7vCs","BPCL Manglia Depot","Manglaya Sadak, Indore","22.8143491","75.9227378"
"ChIJHYgGSwAdYzkRgTNBd-8UDr0","HPCL T.T driver room","RW9C+FVX, Manglaya Sadak, Indore","22.8187495","75.92223419999999"
"ChIJOdc3HAAdYzkRre_RGx_8tLc","S R KUMAWAT FUELS (BPCL)","QWRQ+J3W, Manglaya Sadak, Indore","22.79178","75.937046"
"ChIJwYuiA4YcYzkRu5qaBkqs8Wg","IndianOil","KM Stone, Ground Floor NH 3, Raukhedi,Badayala Mata, near No 591/2, Ratlam","22.836144","75.940902"
"ChIJP_ykAvsdYzkRELCO0GgG8Ac","IndianOil","Ground Floor Sanwer, Gari Pipliya, Barlai Jagir","22.8270845","75.9164632"
"ChIJqYvy6-YdYzkRG7DjoLXDcw8","IndianOil","11 AB Road, Talawali Chanda Lane, Manglaya Sadak, Indore","22.8017902","75.91411880000001"
"ChIJq8RhMgAdYzkRvnyrFavxKcE","HP petrol and CNG pump","RWJ7+6QC, Gari Pipalya","22.8305516","75.9143867"
"ChIJlfnK4DgdYzkRfmF7ux4qXgM","Bharat Petroleum Petrol Pump , SHREE SAI FILLING CENTER","AB Road, ROADMANGALIYA, Indore","22.7980169","75.9124435"
"ChIJISxrKgAdYzkRi9dEBU0sYIU","Office DLS INFRAMAKER","Singapore British Park, near Dewas Naka, 157-B, Indore","22.813066","75.906305"
"ChIJK6iqwjEdYzkRh4nu_0qJtSI","Aavantika Gas Limited CNG Station","India","22.8420203","75.9437829"
"ChIJX6NupTjjYjkRLiuI6mYbrW0","IndianOil","HSD Site No 376, Nemawar Road, Musakhedi, Datoda","22.6838604","75.9144657"
"ChIJvbmMLy3jYjkRFBVH4oAY1aE","IndianOil","CGO Complex, 37, Nemawar Road, Udhyog Nagar, Musakhedi, Indore","22.6872796","75.9014641"
"ChIJ7TINFjfjYjkRmZufJdC8-Xs","Bharat Petroleum - Kumudini Enterprises","MWP5+8P4, Nemawar Road, Udhyog Nagar, Palda, Indore","22.6857564","75.90933729999999"
"ChIJ34zFynHjYjkRUp04ie3yyvQ","Bharat Petroleum","Near Punjab Dhaba, Crescent Road,AB Road, Dudhia, Indore","22.675118","75.93607209999999"
"ChIJu21bis_8YjkRy0yVv3APKqg","Maharaja Agrasen Petroleum","Babulal Nagar, Dev Nagar, 180, Eastern Ring Road, Babulal Nagar, Khati Mohalla, Musakhedi, Indore","22.6895623","75.888369"
"ChIJrTHVYMX8YjkRIRP75vY7UwQ","Hindustan Petroleum Corporation Limited","Scheme No 94H, No 22A & 23B, Ring Road, Vijay Udyog Nagar, Udhyog Nagar, Indore","22.6896485","75.8879963"
"ChIJO-f1B8D8YjkRf85XGeNgJH8","Bharat Petroleum, Petrol Pump -H.S. Road Carriers","PALDA VILLAGE,NEAR GURUDRA, Indore","22.6785507","75.8781407"
"ChIJe-exWE_7YjkRzJUfaVLyfmw","IndianOil","Ground Floor, Khandwa Road Kelod Kartal, Datoda, Kasturba Nagar, Indore","22.64004300000001","75.88798299999999"
"ChIJw3qjx6fjYjkRp8tEdwEMj7s","IndianOil","Ground Floor, Dev Guradia Road, Dosdar, Nayta Mundla, Datoda","22.6710891","75.917621"
"ChIJBTKWtuPjYjkRXGJct6XI0zE","BIO CNG PLANT INDORE","MWGG+GWF, Nemawar Road, Indore","22.6763184","75.9273079"
"ChIJc-7gV0fjYjkRANkmfXoWG4E","Hindustan Petroleum Corporation Limited","Ground Floor, Patthar Mundla, Nemawar Road, Palda, Indore","22.6821811","75.9167764"
"ChIJ91PyOiXjYjkRFmbYWYTL60c","Hindustan Petroleum Corporation Limited","Ground Floor, Palda, Rto Road, Udhyog Nagar, Pathar Mundla, Indore","22.675091","75.90357399999999"
"ChIJUfrcEATjYjkR3GEim--_oVM","RK FUELS","MWG3+2C3, Dev Guradia Road, Udhyog Nagar, Nayta Mundla, Indore","22.6750161","75.9035335"
"ChIJK0NJgjfjYjkRLjaLwrW_A5w","Bharat Petroleum, Petrol Pump -Patel Malhar Fuels","PALDA NEMAWAR ROAD,INDORE, Indore","22.6842771","75.911016"
"ChIJY8XAN-bjYjkR4qBMU7Cn_5I","IndianOil","Ground Floor, Nemawar Road, Musakhedi, Indore","22.685101","75.911537"
"ChIJM6QpRkv9YjkRDUOcqHd8ZV8","Gaurav Petrol Pump","Sanjay Gandhi Nager, 6, New RTO Road, Dinesh Nagar, Palda, Indore","22.6810238","75.8969109"
"ChIJc7UZgjTjYjkR2D_MlRbDKX8","Reliance Petrol Pump","Dinesh Nagar, Palda, Indore","22.6867721","75.9016077"
"ChIJgZBGldn9YjkRuTrSmD8w0cM","IndianOil","Khasra No 326/1, Palda, Indore","22.6872858","75.8988984"
"ChIJ1dX8b8LjYjkRjdb59qZJr1M","Hindustan Petroleum Corporation Limited","Gut No 148/2/3, NH 52, AB Road, Bicholi Mardana, Indore","22.6940005","75.9250425"
"ChIJKe9PLhjjYjkRo1eDdh0SORI","Sampat Fuels","Sampat Hills, Bicholi Mardana, Indore","22.6952393","75.92554919999999"
"ChIJQcqI1vf7YjkRV4igN8Q_5bQ","IndianOil","Emerald school, Ground Floor Ab Road, Rau, Pigdamber Infront of, Indore","22.6500876","75.8209072"
"ChIJjdornF_5YjkRz1sFuwQA6tw","IndianOil","CGO Complex, Rau Square, AB Road, Indore","22.628418","75.80560299999999"
"ChIJ8TzRaJP7YjkRAbIwR6c5NOo","IndianOil","Ground Floor, Indore Bypass Road, Pigdamber, Indore","22.6346429","75.8318331"
"ChIJvYG-WPf7YjkRvVrjtptkKyo","Bharat Petroleum","Shramik Colony, Rau, Raumhow, Rdindor, NH-3, Agra Bombay Road, Ab Road, Indore","22.6452","75.8186"
"ChIJZzedYV_5YjkRj2Bi1HRky8Y","HP Petrol Pump","Mega City Circle, Rau, Indore","22.6296914","75.80673329999999"
"ChIJ18PaGgn8YjkR6mXkgUJlWhc","Bharat Petroleum, Petrol Pump -Nimar Auto Centre","HUKUMAKHEDI,RAJENDRA NGR P, Indore","22.6541723","75.821929"
"ChIJbZ7ibWT5YjkRMW8BpE6W-FM","Bharat Petroleum - Granth Petro/CNG Filling Station","Pigdambar","22.6155355","75.7990192"
"ChIJ-d0UaQD7YjkR5PDeKh2odko","Hindustan Petroleum Corporation Limited","1244/2, 1244/1/2, Survey No 950/2, AB Road, Rau, Indore","22.630991","75.818147"
"ChIJuxdHLwD7YjkRN3qvF1s1PXQ","A one petroleum","Ashok Vatika, 553/2/1, Rau, Indore","22.630871","75.8181464"
"ChIJa345NPf7YjkRCYhLv2HCtOQ","IndianOil","Ground Floor, AB Road, Rau, Indore","22.6381003","75.813851"
"ChIJFabWfcH7YjkRIugtCGA64Ro","TRIVENDRA KA GHAR","JRM6+55V, Rau, Indore","22.6329859","75.8104335"
"ChIJW9N9HAz5YjkRhwAB0BYKatI","Hindustan Petroleum Corporation Limited","Ground Floor, AB Road, Rau, Indore","22.6303307","75.80697599999999"
"ChIJu4xZHe77YjkRYuhT_nyJkw0","Bharat Petroleum, Petrol Pump -Ramsingh & Sons","NIHALPURMUNDI,NH-3 BY-PASS, Indore","22.63938","75.84980270000001"
"ChIJg5idOOL7YjkRA7SwNwLstaY","Shell Printpack Pvt Ltd","No 475, AB Road, Rajendra Nagar, Indore","22.653026","75.8211002"
"ChIJ95GC8lf5YjkRZCcg1J9W7PA","Nayara petrol pump","JRQ4+67V, CAT Road, Rau, Indore","22.6381193","75.8056845"
"ChIJJcCejuv9YjkRo4UEpOcchqA","Motiram fuels","near pani ki tanki, Silicon City road, near pani ki tanki, Main Road Bijalpur, Bijalpur, Indore","22.6644369","75.8338356"
"ChIJu6YVyIv5YjkRYqXwKvFRiWQ","IndianOil","Ground Floor Pigdamber, near Iim Indore Gate, to, Cat Sq Road, Indore","22.6322139","75.7939359"
"ChIJFxn3BlL5YjkRY6ifu5orS90","IndianOil","Survey No. 640/2 Village Rangwasa, Rangwasa Road, Rau, Indore","22.6426406","75.7954977"
"ChIJOX5oOwD5YjkR_5R_AQL7h0I","Jirati Fuel Station","JQ8X+GCP, Pigdambar, Indore","22.616329","75.7985807"
"ChIJ3X9--5n9YjkRPnl7qTNV3cA","Bharat Petroleum, Petrol Pump -Ratankamal Automobiles","INDORE RD, RAU, MHOW","22.6657039","75.827803"
"ChIJP1IBzsxXYjkRJpr_PwrcZ6M","Bharat Petroleum Petrol Pump","HMRX+WHW, Indrapuri Colony Main Rd, Pithampur Industrial Area, Indore","22.5923731","75.6989435"
"ChIJAQVvGpX4YjkRJKUYNAG41qQ","IndianOil","Ground Floor, Amjhera","22.6168749","75.7353964"
"ChIJcRcbEgRXYjkRzJiZc0jDXqU","MEHMOOD SETH","HMWW+5HM, Pithampur Chopati, Pithampur Industrial Area, Bhatkhedi","22.5954555","75.6964227"
"ChIJtefVAB5XYjkR3E2i08cHu70","Bharat Petroleum, Petrol Pump -Jeerapur Golden Transport Co.","BHATKHEDI,MHOW NEEMUCH RD,, Indore","22.5943572","75.695805"
"ChIJ90uCmFlXYjkR_XrfIccobUs","MM FILLING STATION PERTOL PUMP","Mhow - Neemuch Road, Pithampur Industrial Area, Bhatkhedi","22.5891942","75.70295349999999"
"ChIJw3wUnTZWYjkRChvAM2j-1_c","Bharat Petroleum, Petrol Pump -Tamim Filling Station","PITHAMPUR, DHAR","22.5981699","75.69420269999999"
"ChIJecTJKixXYjkRLsq4ZMh7V8c","Jio-bp pulse","No 37/1, Viswas Nagar, Banjari","22.5900418","75.6921888"
"ChIJYeKfXShXYjkRdElVRHJ9vlE","Hindustan Petroleum Corporation Limited","Ground Floor, NH 3, Agra - Mumbai Highway, Banjari","22.590318","75.690038"
"ChIJj5SNJwBXYjkRscIOB1axR7g","Booster CNG","HMRQ+8Q6, Pithampur Industrial Area, Banjari","22.5902991","75.6896206"
"ChIJhzpx0xZXYjkRsUyvnVWvwzA","Bharat Petroleum Petrol pump United Highways BPCL","Tehsil : Mhow, near Sunrise Town, NH-52, Agra - Mumbai Highway, Banjari","22.5917851","75.6869935"
"ChIJf-TmGgBXYjkR9T5uPHNc_eY","DEF यूरिया फिलिंग स्टेशन","JP26+8F, Bhatkhedi","22.6007975","75.711204"
"ChIJu3GqqJhXYjkROmzcJIXwJp0","Hindustan Petroleum Corporation Limited","Ground Floor Mhow, Pithampur Road, Bhatkhedi","22.5847709","75.7097702"
"ChIJKZJUHihXYjkRbD3Db6Jxq54","Krishna Filling Station Petrol Pump","krishna filling petrol pump, near chinar park Mhow pithampur, road, Mhow Gaon","22.5843699","75.70999789999999"
"ChIJBwlMDgD5YjkR7E5c-8G03KE","Durga fueling station","1-c, Industrial Area, Sagour Kuti, Pithampur","22.5929079","75.7153598"
"ChIJbZe7imBXYjkRmjgqA9Le6eQ","DURGA FUELING STATION","1-c, Sagour Kuti, Pithampur","22.6059742","75.6866132"
"ChIJf1ZNaQD5YjkRQwKU5p9qfnU","Hindustan Petroleum Corporation Limited","Survey No 234, 2/1, Bhatkhedi","22.605535","75.716123"
"ChIJx240IAD5YjkRfwM10cKnLjQ","Shalu petrol pump","in front of NH-3, 230/1/2 and 230/2/1, Dr. Ambedkar Nagar","22.6056046","75.71620399999999"
"ChIJiamltm35YjkRhQ1Dq-hd-s4","Jio-bp pulse","Survey No 235/1/2 NH 52, Pitampur, Road, Mhow, Bhatkhedi","22.606504","75.717492"
"ChIJz_18nexXYjkRWlROg1cMFHo","Řãvî Jãrmâñ","JM8V+R5R, Rau - Pithampur Road, Pithampur Industrial Area, Pithampur","22.6171127","75.6928755"
"ChIJcXxWTAv9YjkRUz2_iGhtT9U","IndianOil","Survey No 68, Ph No 37, Sagour Kuti, Kalibillod","22.6113442","75.6815986"
"ChIJGyrYlRxZYjkRIbHze_9WXVY","IndianOil","Ph No 8, Sur No 78, 3, Mhow, Kuwali","22.4825506","75.6629979"
"ChIJAUXIR-VZYjkRoNmDC-hw8ns","IndianOil","Sur No 227, 6 307/1/1, Sitapat","22.529801","75.633301"
"ChIJpSwgFQBZYjkR9Ffyn_H1xCM","JIO PUMP MANPUR JANAPAV","FMP8+39W, Kuwali","22.4852466","75.66595880000001"
"ChIJ6at3TQBZYjkRxi5QvvK7Fzw","Jio Petrol Pump","FMJ6+JV, Kuwali","22.4816037","75.6622447"
"ChIJf3gjXJxZYjkRG8Ou1VYhWvk","Hindustan Petroleum Corporation Limited","Ground Floor, Hasalpur, Dr. Ambedkar Nagar","22.498055","75.6356632"
"ChIJHxl9GgBZYjkRP5qPTkga-7E","Shree mithiya balaji Krashi Seva Kendra","GJ2M+2W2, Khudalpura","22.5000121","75.6347607"
"ChIJlyXDe5tZYjkRdnIqThmwy30","IndianOil","Khudalpura","22.5000042","75.634754"
"ChIJNcKGkj5YYjkRPDaaZUk02Eg","Hindustan Petroleum Corporation Limited","Ground Floor, Mhow, Jamli","22.5263115","75.680641"
"ChIJq8r_hOJZYjkRx1rIwKoGWfk","Bharat Petroleum, Petrol Pump -Shivram Auto Service","MANPUR,NH3,INDORE, INDORE","22.4681064","75.6531019"
"ChIJWRxmuTpZYjkR1lZHx5lMjBI","IndianOil","Ph No 16, Sur No 30/2/2, Yashwantnagar","22.4662629","75.65092260000002"
"ChIJMQMfZgBZYjkRkEynh2kqnxk","Shree Ganesh Filing Station","GMFV+QPJ, Jamli","22.5244643","75.69425939999999"
"ChIJu4yAyOhZYjkRo-t54LcFjrA","Hindustan Petroleum Corporation Limited","Ground Floor, NH 3, Mhow, Yashwantnagar","22.4613059","75.6490021"
"ChIJI9CpMXZZYjkRPQOibVb5LJI","Essar petrol pump","FJ6X+9C4, Agra - Mumbai Highway","22.4608908","75.6485738"
"ChIJZTgtRctZYjkRbOnDadBQOnc","IndianOil","Survey No 358, 6/2 & 359/2/2, Mhow, Jamli","22.52931","75.700294"
"ChIJY_sEWjeDYTkRi6seia6oKyE","IndianOil","Foot Talab, near Km Stone No 54, Agra - Mumbai Highway, Mhow","22.4113379","75.5863591"
"ChIJ27DIPPdoYjkRvTAuBMkYG3o","Reliance Petrol Pump Dhamnod","7FQV+XW9, Sirsodiya","22.28992329999999","75.49487049999999"
"ChIJJ9QSvxBpYjkRvkXXJiVTlRQ","IndianOil","Ground Floor Sirsodiya, Dharmapuri, Balwari","22.3124252","75.4956995"
"ChIJJbzCciJpYjkRojS5uqzd2as","Reliance Petroleum","NH-3, VILL - CHIKTIYABAD, A.B. ROAD, THESIL -DHARAMPURI , DIST - DHAR Dhani","22.2859696","75.48881659999999"
"ChIJnVk403hpYjkRBgIM3feozIo","IndianOil","Ground Floor NH 3, Chiktiyabad, Dhamnod, Balwari","22.281522","75.49310009999999"
"ChIJk80YkOVoYjkRWgOubLocACU","Hindustan Petroleum Corporation Limited","Ground Floor, Agra - Mumbai Highway, Chikatyawad, Dhar","22.281101","75.492631"
"ChIJkQxgh-9oYjkRSMvsFcph4Pc","BP DHAMNOD, BPCL COMPANY OUTLET PUMP","Madhya Pradesh State Highway 31, Sirsodiya","22.2803388","75.49228750000002"
"ChIJn-ybsmRbDjkRheNhkvXv1KY","IndianOil","Ground Floor Bhodal, NH 3, Ahu","22.27388879999999","75.4897843"
"ChIJv7QhvaRpYjkR-6_tJAc2wHI","Hindustan Petroleum Corporation Limited","Ground Floor, near Cube Stop, NH 52, Agra - Mumbai Highway, Bhodal","22.272908","75.48914599999999"
"ChIJVZrDFiNoYjkR4MMoD24V7Ow","Hindustan Petroleum Corporation Limited","Ground Floor, NH 3, Agra - Mumbai Highway, Maheshwar, Kakadda","22.331096","75.500898"
"ChIJQ-HghIVpYjkRyAleKdWjsF4","Jio-bp pulse","Ground Floor Bypass Lodhipura, Dudhi","22.262466","75.4851309"
"ChIJAdH-NgBvYjkRDmxukR_-lMU","DEF, यूरिया फिलिंग स्टेशन","in front of Ratan Mahal Restaurant, 16, Old AB Road, Dhamnod","22.1940115","75.463785"
"ChIJ60bBoFxuYjkRwRLKQEWqxpc","Jio-bp","Survey No 60, Nh 3, Agra - Mumbai Highway, Khal Buzurg","22.1875882","75.4640199"
"ChIJmyqyjnpvYjkRDybfYcej6cY","Maa Bhagwati Sales bio diesel","Bikhroan, old, NH3, Bikhroan","22.1992571","75.46194349999999"
"ChIJi60nBENuYjkR_u_aRM6wo80","IndianOil","near Dhamnod, Survey No 31/2/2 & 34/2 NH 3, Balwari, Khalbhujurg, near Dhamnod, Dharampuri","22.1841194","75.46101139999999"
"ChIJ_WZA3fluYjkRP5tJA0gvdFk","Hindustan Petroleum Corporation Limited","Ground Floor, Dhamnod","22.20340749999999","75.4700751"
"ChIJNbqnoh1vYjkR54102yLMmp0","Bharat Petrol Pump","6F8F+578, Unnamed Road, Dhamnod","22.2154216","75.4731922"
"ChIJa-h9G-ZuYjkRRPJuTSFc7HI","IndianOil","Survey No 15/2 Dhamnod, Dhrampuri, Balwari","22.2174743","75.4697304"
"ChIJ2eClLgBvYjkRXpuP7-Po0M8","Denmark Fuel Station","near Dhamnod, 153, Dharampuri Road, Patlawad","22.2055313","75.4400558"
"ChIJxXFJBEdvYjkRpE2Dgi2TSck","Mandi Rod Dhamnod","6F9C+3PF, Kali Babdi Road, Dhamnod","22.2176911","75.4717867"
"ChIJM1BulBpuYjkR7hDXSRN_qPw","Hindustan Petroleum Corporation Limited","Ground Floor, Agra - Mumbai Highway, Khalghat","22.1620601","75.449201"
"ChIJS7x-6mVvYjkRjQprWzvSI04","BPCL Petrol Pump - Anand Fuel Centre","6F8R+C85, Dhamnod","22.21601649999999","75.49086249999999"
"ChIJK9bX7rtvYjkRs1t_7923I4k","Aashirwad Fuels","near Ram Mandir, near Sameti, Old Road, Khalghat","22.1577659","75.4539088"
"ChIJ7QAJ079zYjkR2zrmEFvm5r8","Bharat Petroleum, Petrol Pump -Bhaskar Fuel","NH-3, KHA, LENDIPURA VILLAGE","22.0774886","75.40868809999999"
"ChIJIww9NBxzYjkRA6SwsoYZBLg","Bharat Petroleum, Petrol Pump -Golden Fuels","TIKHRI BARWANI ROAD, BARWANI","22.070583","75.3940957"
"ChIJl-O6_x5zYjkRltMvu8TrG_I","IndianOil","No 21, Patwari H, Survey No 27/3, Near Thikri Police Thana, Brahmangaon","22.0653666","75.3937364"
"ChIJgUsZ7m5zYjkR-C85M8j9k6M","IndianOil","Survey No 61, 1 & 6/3, Brahmangaon","22.0717805","75.3833581"
"ChIJMaR1NQBzYjkRdYyjuT42uAU","Adani CNG pump","3CQ8+3W, Makundpura","22.0877258","75.4172688"
"ChIJqVRB5v1zYjkRDsOSads4Rlw","Bharat Petroleum, Petrol Pump -Pancheshwar Petrol Pump","GRAM MUKUNDPURA,NH-3KHARGO, KHARGONE","22.087492","75.41759259999999"
"ChIJC0igbptzYjkRtKOtEIs1sw0","IndianOil","Survey No 12/1, Lendipura, Kasrawad, Amlatha, Lendipura","22.0875874","75.4191953"
"ChIJJZDufexzYjkR7kvwOqvkFBY","IndianOil","393H+HQ, Nh3, Near Jaiswal Dhaba, Anantpura","22.0565124","75.38143819999999"
"ChIJX2rEc_tzYjkRVPHtSaW1ttE","IndianOil","Ground Floor Umarda, Barwani Road, Thikri","22.0749819","75.3680186"
"ChIJzfvGtipyYjkRGkWP0Ghwqmk","Hindustan Petroleum Corporation Limited","Ground Floor, Satrati","22.1033339","75.4331049"
"ChIJoZvj8nVxYjkRJpJY6LqHvYE","Yamuna Filling Station Petrol Pump","4C5J+R2X, Nimrani","22.10962040000001","75.43010269999999"
"ChIJ57dUnSxxYjkRuPs9R6xmVbw","petrol pump","4C4P+7M, Aurangapura","22.105718","75.43665949999999"
"ChIJQ_FtZrdxYjkRwW87YB-AJpo","IndianOil","Ground Floor, NH 3, AB Road, Satrati","22.105466","75.437251"
"ChIJydNYNf9zYjkRVOeOGlb5xpU","HP AUTO CENTER.","Hp Auto Center, Satrati","22.10912459999999","75.4333158"
"ChIJtw3-yed1YjkRLhl1P57YtiM","IndianOil","Survey No 54/2, Phase, No 27, Thikri, Khurampura","22.0248057","75.3488063"
"ChIJhRrDF8Om2DsR9QD7gBynVsk","Bharat Petroleum, Petrol Pump -Danish Fuels","NIHALI,NH3,BARWANI, BARWANI","21.88439099999999","75.2283617"
"ChIJ_czSDjyn2DsRFJDHnSEarBE","Nihali Cng pump","V6MH+G5G, Nihali","21.8842081","75.22847879999999"
"ChIJlV3vPSyn2DsR4wp65ljRKxE","IndianOil","Survey No 168, 6168/7170/8, Basavi, Rajur","21.9064001","75.24300099999999"
"ChIJzcHTuben2DsRXLVB4CIZ9H8","SiyaRam DEF/Adblue Pump","New Ab Road,By pass, Julwania","21.8722678","75.2159978"
"ChIJWwO_g4Wn2DsRSxT9QSeY4wE","IndianOil","near Bus Stand, Survey No 161/1Kh Rajpur, Julwania near, near Bus Stand, Barwani","21.8697737","75.2142106"
"ChIJa9_DpX-n2DsR0mPlSyz0jQA","Bharat Petroleum, Petrol Pump -Talib Hussain & Sons","JULWANIA,MUMBAI-AGRA RD,BA, BARWANI","21.8634525","75.2089946"
"ChIJ1_NtMYmm2DsRzWWoLjXmtcs","IndianOil","Ground Floor, NH 3, Julwania","21.859135","75.207481"
"ChIJVXKRCQCl2DsRluPUIzDRWxw","Reliance jio bp petrol pump","Salikalan","21.778975","75.1679139"
"ChIJHVYJF0-l2DsRZqOpiAvw9vM","Hindustan Petroleum Corporation Limited","Ground Floor, NH 3, Agra - Mumbai Highway, Rajpur, Salikalan","21.784945","75.16977399999999"
"ChIJN4gdKACl2DsR2ioJobnx3Uk","Sendwa cng","Q5J6+C52, Salikalan","21.7810026","75.16037519999999"
"ChIJ-Y7JcACl2DsRBIvSUZGD3xA","Jio bp petrol pump salikala","Q5J6+P47, Salikalan","21.7817883","75.1603008"
"ChIJFysjTL-l2DsRjOwsyVrN8bc","Hindustan Petroleum Corporation Limited","Ground Floor, Agra - Mumbai Highway, Julwania","21.8197316","75.1818483"
"ChIJAWD3aASx2DsRjhOlWAjfVWc","Hindustan Petroleum Corporation Limited","Ground Floor, Agra - Mumbai Highway, Sendhwa","21.6920701","75.1006701"
"ChIJhzXgK0ex2DsRdAw5vrydiWI","Bharat Petroleum, Petrol Pump -Jaydeep Cargo Movers","KHADKIYA (SENDHWA),NH3,BAR, BARWANI","21.6681145","75.0828101"
"ChIJC09xLQ2x2DsRAn_rAk_XLAk","JAISWAL PETROLEUM","Reliance Pump, Mechanic Nagar, Sendhwa","21.66567","75.0817063"
"ChIJFR_YKL2x2DsR-tUMNZrYbo4","Jio-bp","opposite Maa Choti Bijasani Mandir, Old A, B. Road, Sendhwa","21.6657096","75.0811987"
"ChIJ4043x3Gx2DsRSVjmIrRoHs4","IndianOil","Ground Floor, Palsud, Sendhwa","21.6817395","75.0941792"
"ChIJo7_VbQCx2DsR8CR4dLew2L4","TATA DEF","M3JV+QP2, Sendhwa","21.6818986","75.0942651"
"ChIJdampG2ax2DsRyKnyCMWlaZY","Rudraksha Hindustan Biodiesel Sendhwa Location","M4H4+2C6, Julwaniya","21.6775255","75.10601489999999"
"ChIJv9viVTmx2DsRL0qb_DMyXWg","Rudraksh Fuel Nayara Energy Limited","M4H5+Q6V, Balwadi - Sendhwa Road, Julwaniya","21.67917809999999","75.1077524"
"ChIJO0wGwM2x2DsRHyBVB9Kk88w","IndianOil","Ground Floor, Wml, Sendhwa","21.684242","75.087397"
"ChIJUdPecwCx2DsR-emMTL_PDY4","Hindustan Petroleum Corporation Limited","Ground Floor, Balwadi - Sendhwa Road, Barwani","21.68368899999999","75.104987"
"ChIJbZY8HLG22DsRuKUuhjgqdOw","Bharat Petroleum","J3VG+4P2, Gawadi","21.6427532","75.076759"
"ChIJO4ApxGOx2DsRj1EgZRMpE50","Bharat Petroleum, Petrol Pump -V.M. Modi & Sons, Sendhwa","SENDHWA, Mumbai - Agra National Highway, BAR","21.6916876","75.1012677"
"ChIJ5eise3G32DsRvSnN33-smI0","IndianOil","Indian oil NH 3, Khadkiya Sendhwa Near, Khadkiya","21.641278","75.0768394"
"ChIJxXFGmeSw2DsR-4x9j_qcsQI","IndianOil","Sur No 39/1/3 Banihar, Goi, Sendhwa","21.687701","75.11410099999999"
"ChIJD3h6Qsmx2DsR6DpFh-snq7k","SHREE BALAJI FUEL STATION, NAYARA ENERGY","M3WQ+J6, Sendhwa","21.6976534","75.08840719999999"
"ChIJ0fq1Cge32DsRptMeMvab2JA","IndianOil","Ground Floor, near Sendhwa, Goi, Gawadi","21.630551","75.076089"
"ChIJ8ztPkL222DsRNFrHCmvhajg","Hindustan Petroleum Corporation Limited","Ground Floor, Agra - Mumbai Highway, Newali, Gawadi","21.6287901","75.07659009999999"
"ChIJ0-6oxNKx2DsR875y374Y10s","Bharat petrol pump","P434+8R4, Old A.B. Road, Purana, Sendhwa","21.7029631","75.10677260000001"
"ChIJmyrVc7qx2DsR3UrY8cvG7IE","IndianOil","Ground Floor, Bakee, Sendhwa, Goi, Sendhwa","21.707201","75.108801"
"ChIJhYyt6RfK2DsRDW8yUiQLD-Y","Indian Oil Petrol Pump","Palasner, Dhule, NH-3, Mumbai Agra Road, Dhule, Dhule","21.533231","75.04811099999999"
"ChIJS3x7_vTL2DsRbA0EJYZZ_S0","Hindustan Petroleum Corporation Limited","Gat No 50/1, B/P, NH 52, Agra - Mumbai Highway, Palasner","21.5248486","75.0432871"
"ChIJ856j-BbN2DsRZJ4_kNmqHIA","Hindustan Petroleum Corporation Limited","Ground Floor, NH 52, Sule","21.406066","74.9695124"
"ChIJRV7cPyvN2DsRuP-EmiIs-z4","Hindustan Petroleum Corporation Limited","Gut No 21/4, A/P, NH 3, Agra - Mumbai Highway, Shirpur, Sule","21.4048548","74.9687423"
"ChIJtRDXz8ky3zsR9tagmTQc9c0","NAYARA ENERGY - MISHRA & CO. PETROLEUM","9XP5+5QG, Natwade","21.3854343","74.95945549999999"
"ChIJC0b5WAAz3zsR1DOUQ9UiVq8","TATA MOTORS AUTHORISED DEF POINT","9XM5+X53, Natwade","21.3848966","74.9579177"
"ChIJxR1IH9wz3zsRll9lD68XVLc","Bharat Petroleum, Petrol Pump -Vaibhav Petroleum","Natwade","21.3839111","74.9580934"
"ChIJ03hOer8t3zsRbus_U6ItFac","Hindustan Petroleum Corporation Limited","Survey No 86B, NhH 3, Agra - Mumbai Highway, Shirpur","21.3295023","74.8981671"
"ChIJN5ZIh78t3zsRDp6n69VF50o","Bharat Petroleum","Amode, Dhule, NH-3, Agra Mumbai Road, Dhule, Dhule","21.330043","74.897567"
"ChIJG4gEFvYt3zsRNQIl62ysWf0","Hindustan Petroleum Corporation Limited","Survey No 51/2 Shirpur Chopda Road, SH 4, Varvade, Dhule","21.3541946","74.8903074"
"ChIJj0maZXMu3zsRwnpjqQ9vfTc","IndianOil","Gut No 125, 2/1B, Kharde, Shirpur","21.3278724","74.8675307"
"ChIJ6-nbnMAt3zsRYkJIUMQuPRI","HP PETROL PUMP - PATEL BROTHERS","Patel Brothers HPC Dealer Mumbai -agra Road Shirpur, Aurangabad","21.328823","74.897283"
"ChIJhaqk88At3zsRHOsrV0oitpU","IndianOil","Ground Floor, Shirpur","21.3289793","74.89580350000001"
"ChIJU15fYAAt3zsRJ980iHCKSg8","RAKESH PETROLEUM JIO BO","8VGW+V8G, Amode","21.3271938","74.89581419999999"
"ChIJs8h9gsYt3zsRNEcM5GM2VT0","Essar Petroleum","Adhe, Dhule, NH-3, Agra - Mumbai Highway, Dhule","21.323824","74.891673"
"ChIJG2QKK8Qt3zsRODSyWKh7BjM","Mangalaa Auto Gas Services (Aegis Autogas)","8VFR+CHQ, Shirpur, National Highway 3, Amode","21.3235901","74.8914705"
"ChIJhbR1PRYt3zsRV4zej3AOEjg","Nayara Petroleum","8VRJ+MQJ, Ramsingh Nagar, Varvade, Shirpur","21.341747","74.881928"
"ChIJ--EgCQAz3zsRNgMIZ6WFRxM","IndianOil","Gut No 47, 1/A2, Natwade, NH 3, Shirpur Road, Shirpur","21.3443317","74.8816219"
"ChIJM9qhbMAt3zsR7VwuoOnlhq8","Bharat petrol pump","8VXP+86H, Valmik Nagar, Shirpur","21.3479757","74.8856285"
"ChIJcz4S5Jst3zsRS_BV1j3FLqg","TIRANGA CORPORATION - Managed by Ex-Army Soldier","Village Kalamsare, Shirpur","21.34601809999999","74.9148183"
"ChIJ_TjQFvct3zsRjBoIBbutnsw","IndianOil","Survey No 8, Plot No1/10, 1 & 8, 2 Ambe, Shirpur","21.35047","74.88777999999999"
"ChIJo9UyXDUt3zsR4r6_oXAKzfg","Bharat Petroleum, Petrol Pump -C.R.Contractor & Co","Mumbai - Agra National Highway","21.3434608","74.87730290000002"
"ChIJm_LF304t3zsR04zFSp3aFPg","Hindustan Petroleum Corporation Limited","Gat No 7, A/5 & 7/A/6, Shirpur","21.3435558","74.877026"
"ChIJPwHvkxIt3zsR5Qdk-TKC5cM","Hindustan Petroleum Corporation Limited","CTS No 232, P, Market Yard, APMC, Shirpur","21.351022","74.88422419999999"
"ChIJx6jIrfgt3zsRlXKw5IAm6xk","Rakesh Petroleum Jio BP","NH-3, Shirpur Phata, Shirpur","21.3495981","74.8797127"
"ChIJHQIBHMot3zsR23UVBUsFtlQ","IndianOil","Ground Floor Shirpur, Ambe, Dahivad","21.336686","74.926704"
"ChIJ4wFYzAwz3zsR9zBPv4j-Rt0","IndianOil","Gut No 64, 1A Ambe, Karwand","21.3663185","74.9040267"
"ChIJPU6Uvawp3zsRx8vE9FRD1h8","IndianOil","Ground Floor NH 3, Pimprad, Ajande Khurd","21.2032864","74.82860730000002"
"ChIJ28GvkpPP3jsRaEuEjLfuWf4","IndianOil - SWAGAT","Gut No 295, 2 & 290/1, Shindkheda Road, Varshi, Ajande Khurd","21.198296","74.8241761"
"ChIJWxfUfQAp3zsRq7p1HPkqZfc","Bharat petroleum ,(BPCL), Shiv petroleum","near MD college, Betavad road, Nardana","21.1946244","74.8367597"
"ChIJQ1o4mAYp3zsR6Ey5nqFza3Y","IndianOil","Gut No 80/3, Sindkheda","21.224135","74.83538399999999"
"ChIJg99Dxrkp3zsRqd4EZynqE2g","IndianOil","Survey No 300, Hissa No 2, Babhulwadi","21.233352","74.836893"
"ChIJOZWjpcgp3zsRX6DpDk5bVa0","Bharat Petroleum, Petrol Pump -Raghuwanshi Petroleum","VARSHI, DHULE","21.23489439999999","74.8384897"
"ChIJ-2KCTQDX3jsRm-Lj8XRQ1iU","J D Petroleum (Nayara Energy)","5R47+M3R, Fata, Gorane","21.1567433","74.81264589999999"
"ChIJl0Oyd1TX3jsRAF5Euorje4s","AHMY SONGIR Bharat Petroleum Corporation","Songir","21.0703161","74.7862131"
"ChIJfXJpFQDX3jsRzIZPdKqAy3Y","Nayan petroleum","4QGV+WPH, Agra - Mumbai Highway, Babhalde","21.1270335","74.7939244"
"ChIJc4052MHZ3jsRqObC5-rAv-E","IndianOil","Gut No 53/2, Gorane","21.087713","74.76097899999999"
"ChIJe2xwmlPX3jsRmGnM6ClqlpM","Ambika Petroleum BPCL","4QMX+FJ, Sarwe","21.133656","74.79911"
"ChIJ79lyVkLX3jsRT1-J6zx3KYs","IOCL proposed RO","NH-52, Pimparkheda","21.1418364","74.8031812"
"ChIJJfymRXTQ3jsRGdmmc06A7mM","Hindustan Petroleum Corporation Limited","Gat No 302, 1 & 2, Agra - Mumbai Highway, Deobhane","21.0006926","74.7840776"
"ChIJN8UNiP7P3jsRePD_8GYj2NE","HP Petrol Pump","Nagaon Hpcl Outlet NH-3, Aurangabad","20.9683894","74.7848374"
"ChIJD__36wbQ3jsRWtXZUt25NRU","Bharat Petroleum & Rohit Automobile and CNG Pump","420/1A, NH3, Mumbai agra national highway,, Nagaon, Dhule","20.9812048","74.78441939999999"
"ChIJS0gfjgbQ3jsRS9eiU6joqLo","Hindustan Petroleum Corporation Limited","Gat No 8, 1/2 Old NH 3, Agra - Mumbai Highway, Nagaon","20.9815389","74.7853294"
"ChIJsSzcsVjF3jsRYDJ5WJVVNdQ","IndianOil","Gut No 312/B Dhule, Chaini Road, Nagaon","20.956352","74.779736"
"ChIJVQb7ZY7F3jsR6YdooR61euk","Ashish Petroleum","NH 03, Nagaon","20.9561183","74.779918"
"ChIJx5iLo1nR3jsRRIgVGESWuIs","Hindustan Petroleum Corporation Limited","Gat No 191/1/A, NH 3, Agra - Mumbai Highway, Deobhane","21.0129819","74.7840025"
"ChIJYRVlJrXP3jsRJMNq5tyLtrM","Hindustan Petroleum Corporation Limited","Ground Floor, Drivershan Road, Deopur, Dhule","20.9308285","74.7852869"
"ChIJfW2UMvHF3jsRzTzix0tL-qA","Hindustan Petroleum Corporation Limited","Survey No 3288/A, Sabir Nagar, near Shivaji Statue, 635, 1st Lane, Dhule","20.8951305","74.7745322"
"ChIJveVKS4nF3jsRkNUPHHUuDSM","IndianOil","Ground Floor, Deopur, Dhule","20.910058","74.7746576"
"ChIJB_ew5TrP3jsRUNhKOhWsamY","Bharat Petroleum","BALAPUR, 3KM FROM NH3 ON, Dhule","20.897453","74.8140209"
"ChIJm7lkYq3H3jsRmyTWNwlDaZU","Deepaarti, Bharat Petroleum","Mohadi Road, Agrawal Nagar, Dhule","20.87723189999999","74.7735953"
"ChIJwRVENirJ3jsRXDGDgsw0s7I","Hindustan Petroleum Corporation Limited","Plot No 21 & 22, No 24/1, 26 to 28 & 39, NH 52, Agra - Mumbai Highway, Mohadi Upnagar, Dhule","20.8754524","74.78173749999999"
"ChIJU1G0V5TJ3jsR6WjUj2qLk7U","IndianOil","Gut No 35, Plot No, 13 & 14, Mohadi Road, Arvi","20.876893","74.782394"
"ChIJE5UKaf3F3jsRYkx8Q3aQ7ig","Hindustan Petroleum Corporation Limited","Ground Floor, Chalisgaon Road, Dhule","20.8891301","74.77833199999999"
"ChIJbX04bSrJ3jsRRzr75Y5hyHs","Bharat Petroleum","29/2/2, Dhule - Chalisgaon Road, Highway, Pimpri","20.8596852","74.78751"
"ChIJN5nColLP3jsRjn6YLI_zTwE","IndianOil","Ground Floor, NH no, 3, Vadjai Rd Crossing, Parola Road, Dhule","20.8826912","74.7914472"
"ChIJvYz5sBfG3jsRsll0ApErhE0","Hindustan Petroleum Corporation Limited","Ground Floor, NH 3, Agra - Mumbai Highway, MIDC Avdhan, Dhule","20.857861","74.766481"
"ChIJ2bCFiPXF3jsRP1mhBBhZN2E","Hindustan Petroleum Corporation Limited","Survey No 371, Plot No 82/1 & 2, 80 Feet Road, Ansar Nagar, Dhule","20.8921247","74.7772471"
"ChIJnaIlnT3G3jsRITFwD8jANOg","Bharat Petroleum, Petrol Pump -Bp-Avdhan (Dhule)","AWDHAN COCO, NH3, Dhule","20.85506329999999","74.7658529"
"ChIJnR-BpD3G3jsRZ4awJFrvUTs","IndianOil","Ground Floor, Agra - Mumbai Highway, Borvihir, Awadhan","20.853765","74.765434"
"ChIJsxPnjm3P3jsRF79tvtANysU","Dhruv Auto Services","NH 3, Agra - Mumbai Highway, MIDC Avdhan, Dhule","20.8529151","74.7641696"
"ChIJe7KEB1vF3jsRvTyOVhGiNdw","Bharat Petroleum","SHIVTIRTH, NR SHIVAJI CHO, Dhule","20.8966527","74.7744161"
"ChIJdRW-k6TF3jsReJ1bNxjTwpk","IndianOil","Survey No 35, 3/A, Chaini Road, Chitod, Dhule","20.883994","74.753385"
"ChIJB9DwNWrP3jsR_6ezkyRecDw","CBS Energy","VQQW+953, opp of DDRC Hotel, National Highway-3, Dhule","20.8883924","74.7954348"
"ChIJ4VjnWADF3jsRETVBcIPldtE","Indian Oil Jai Balaji Petroleum","VQV6+F39, Sambhappa Colony, Dhule","20.8935232","74.7604029"
"ChIJccYhmu3F3jsR8oZn3d7xrzI","Bharat Petroleum","VQX9+G49, Navnath Nager, Dhule","20.8987935","74.7678526"
"ChIJCWhdH0vP3jsR42jwfExjwzo","B P petrol pump","VQXP+JCQ, Pawan Nagar, Dhule","20.8990927","74.78611579999999"
"ChIJS5iUQkm53jsRstbfJmUUius","Jio-bp","near Hotel Poonam, Gut No 174/2 & 175/2 NH 3, Purmepada, near Hotel Poonam, Dhule","20.7064631","74.692825"
"ChIJsQyIT8G53jsRMQSq8WFwQI0","Bharat Petroleum, Arvi","near Krushnakamal Hotel, S No.229/1/1, National Highway No.3, near Krushnakamal Hotel, Dist, Arvi","20.7425414","74.7099207"
"ChIJN7E2hN243jsR4HhdioJfMIc","Bharat Petroleum","India","20.7428318","74.7098596"
"ChIJ0WYSme243jsRQr-H0-j4wuU","Hindustan Petroleum Corporation Limited","Ground Floor, Old NH 3, NH 60, Agra - Mumbai Highway, Arvi","20.7546178","74.720685"
"ChIJd3ucrfm53jsRMm_D-OgEpSU","Suyash Petroleum, Arvi","QP4C+477, Dhule","20.7552925","74.720681"
"ChIJQwLHpgy53jsRKW6AZGubf6A","Sidheshwar Uria Pump","near Shivray Hotel, Purmepada","20.712516","74.6958451"
"ChIJ89SMNQC53jsRhIpsECEYH2Q","Khinvasara Auto BPCL Petrol pump","PM4V+H85, Arvi","20.7063862","74.693356"
"ChIJF4v2Vw683jsR1SI8FYuh9xE","Hindustan Petroleum Corporation Limited","Ground Floor, NH 3, Zodge","20.66999019999999","74.6779348"
"ChIJ3_LNPw683jsRrq1jSnAsXK4","BP Petrol Pump - Krishna Auto, Zodge","LHS NH3, to, Agra - Mumbai Highway, Mumbai","20.6694891","74.6765382"
"ChIJiyOUXV683jsRmg7dquxmMJU","Hindustan Petroleum Corporation Limited","GAT No 560/2 NH 3, Mumbai Agra Highway, Dhule - Malegaon Road, Zodge","20.6417201","74.658744"
"ChIJN5Gvu1i83jsRNjFLvtQ2Rds","BP - ZODGE","BP ZODGE, NASIK","20.638447","74.6564851"
"ChIJVz1OBXS93jsRLLmZFTA7OVU","Jammu punjab himachal dhaba","Devarpada, Near, NH3 Road, Malegaon","20.6324623","74.6481711"
"ChIJeawwBVO53jsREW5oijiC1B8","IndianOil","near Shani Temple, Ground Floor Mumbai Agra Rd, near Shani Temple, NH 3, Purmepada","20.69462069999999","74.68909699999999"
"ChIJsR6VxzW93jsRLGRz2bpErKg","Bhalerao & Sons Petroleum","Malegaon Dhule road Malegaon, Devarpada","20.6262073","74.6408412"
"ChIJn_PG5FC93jsRaRGWwqH3yrg","IndianOil Petrol Pump (Sayane)","Gat No 103/2 Malegaon, Kausar, Sayane Bk","20.594688","74.6008464"
"ChIJT3bSbP-X3jsR-Oaq3VMZfbQ","Hindustan Petroleum Corporation Limited","Gut No 82/2/1A/1 Mumbai Agra Road, NH 3, Lonwade Road, Malegaon","20.5858769","74.58930389999999"
"ChIJGU-YiEeZ3jsRW5vzdMWYrwU","Coco Malegaon Adhoc Shrivandan Service Station","Shop No 01 Malegaon Dhule Highway Near Hotel Sadapurna Sayne, Malegaon","20.5839917","74.5879425"
"ChIJrdEBSHCZ3jsRol99DdTEsKU","IndianOil","Ground Floor, Mumbai Agra Hwy Sayne, Malegaon, NH 3, Chinchagavhan","20.5834669","74.58800540000001"
"ChIJa2e8EgeY3jsRZYRgwR2EnLs","Indian Oil Petrol Pump","HHGR+JMV, Sayane Bk","20.5766227","74.5916684"
"ChIJZeu87xyY3jsRhwQgBkyQ628","Hindustan Petroleum Corporation Limited","Gut No, 438/2, Sayane Bk","20.579437","74.580409"
"ChIJi5q5uCiZ3jsR8Bxc4dx8_BE","RAGHAV PETROLEUM","Chalisgaon Fata, malega, Sayane Bk","20.579393","74.5803152"
"ChIJ6S_qQQCZ3jsRmhECe6Naklk","My Eco Energy Indizel Pump","HP Pump, near Malegaon - Chalisagaon Road, Sayane Bk","20.5773597","74.58081349999999"
"ChIJ4Qb1WRyY3jsRqXcFDvhMpK4","LPG Auto Gas","HHHH+V7W, Nashik","20.5797264","74.578192"
"ChIJOzVO0nuZ3jsR9UpotlswwkQ","IndianOil Petrol Pump (Sayane Budrak)","Gut No 7/2, Chinchgavan Chalisgaon Patha Road, Budrak, Sayane Bk","20.5784956","74.5727445"
"ChIJiZdOPACZ3jsRZRAs9D0iYTc","Malegaon By Pass","HHF7+7CX, Agra - Mumbai Highway, Daregaon","20.5732447","74.5636071"
"ChIJw1HWiiSY3jsR7tp4rlfCzzY","Bharat Petroleum","DAREGAON, TAL: MALEGAON, NASIK","20.5731521","74.5625233"
"ChIJgRIwsWqZ3jsR6izxedK5F2k","Nayara - A R Petroleum","Gut No 248 , Daregaon National Highway No 03 Near Star Hotel, Malegaon","20.5674353","74.56313109999999"
"ChIJY797BduZ3jsR_UNOm243tB8","Nayara - Quraish Petroleum","Gut No 159/1,2, opp. Zariwala Fuel Station, NH03, Shahi Golden Hotel Road, Daregaon","20.561924","74.5647582"
"ChIJuXMmWQCZ3jsRULhY9I-sGPo","Hindustan Petroleum Corporation Limited","Ground Floor, Daregaon","20.562267","74.564139"
"ChIJ-RYjFtC93jsR4wDM0stRE7c","Jio-bp","Survey No 43/1 & 43/2, NH 3, Chikalhol, Malegaon","20.607747","74.6159378"
"ChIJV4bV5TOY3jsRcGayQ9Aqg08","Hindustan Petroleum Corporation Limited","S No 188/2/2 Malegaon Dhulia Road, Old Agra Road, Malegaon","20.566119","74.553328"
"ChIJGXW3kwyZ3jsRGp2tauM17oc","Hindustan Petroleum Corporation Limited","Ground Floor, NH 3, Daregaon","20.552181","74.566102"
"ChIJifYz-JiZ3jsRqMPAISgd3ks","Bharat Petroleum, Petrol Pump -Malegaon Police","TAL:, Malegaon","20.5717175","74.547737"
"ChIJ03GhECGa3jsRE_duh1Vc0Hk","Hindustan Petroleum Corporation Limited","Survey No 91, 4A, Malegaon - Satana Road, Square, Soygaon, Malegaon","20.548862","74.495731"
"ChIJLwJgnr-Z3jsRRdoBmDS03s0","IndianOil Petrol Pump (Maloji nagar)","Ground Floor, Malegaon","20.5532293","74.52537509999999"
"ChIJyR3x7OuZ3jsRZ-99TmOkFuU","BHARAT PETROLEUM","Soygaon, Malegaon","20.5593018","74.51803149999999"
"ChIJvdof64KZ3jsR8EFMl1Kda78","M/S Dwarkadas V Shah Petrol Pump","Chandanpuri National Highway No. 3, NH3, Malegaon","20.5326272","74.5095467"
"ChIJQ3feMnKZ3jsRkhUOM28JZH8","Hindustan Petroleum Corporation Limited","No 620/2, NH 3, Shiwar, Chandanpuri","20.5324068","74.50959019999999"
"ChIJa7V9pyqa3jsRvYFUJr1fjDc","BPCL RENUKA PETROLEUM","NH 3 Tehre, Malegaon","20.531232","74.4990909"
"ChIJNwdXFreZ3jsRXpJuAD_CxzY","Hindustan Petroleum Corporation Limited","Ground Floor, near Manmad Chaufuli, Agra - Mumbai Highway, Shiwar, Chandanpuri","20.530663","74.51641699999999"
"ChIJZZfEdj6b3jsRBVqwJUgRDQU","Nayara Sai Prem Petroleum","GFHR+447, tehere, Malegaon","20.5277924","74.490295"
"ChIJj59oWBSZ3jsRgWjSpmE5Rko","Hindustan Petroleum Corporation Limited","Gat No 30/6, SH 19, Malegaon - Satana Road, Choufully, Soygaon, Malegaon","20.546277","74.50600399999999"
"ChIJ63ET31OZ3jsR9b5EdJ1JrvI","IndianOil Petrol Pump (Chandanpuri)","Ground Floor, near Jeevan Hospital, SH 10, Shivar, Malegaon","20.5268456","74.51872879999999"
"ChIJ_TL854mZ3jsR1cbKZvufXw8","Shri Balaji Petroleum","Maharashtra State Highway 33, Malegaon","20.5459205","74.499732"
"ChIJZYmwZUaZ3jsROYrEXZmmxbE","Shijak Petroleum","GGC8+RW7","20.5220256","74.5172864"
"ChIJGceX6Y6Z3jsRlW5eDfrQBng","Bharat Petrolium Shyamji Petrol Pump","GGX6+G8X, Soyagaon - Tehare Road, Valmik Nagar, Shahunagar, Malegaon","20.5488607","74.51114989999999"
"ChIJu1vq_Pyb3jsRKCfVxkkiVXI","Gajanan Bharat Petroleum (BPCL)","PATNE","20.5218639","74.4831528"
"ChIJvTCjar2Z3jsRBmQvoRNB7rc","JC Nanavati Petrol Pump","Collector Patta, near Motibagh Naka, near Nanavati petrol pumpGWF+V95, 197, Old Agra Road, Jyoti Nagar, Osiya Nagar, Maloji nagar, Malegaon","20.5467045","74.5239678"
"ChIJvWOeME6Z3jsRcJ7YSlYtqbc","Mh online Centre","Juna, Agra Road, Daregaon","20.52788529999999","74.53192709999999"
"ChIJH3SK09OZ3jsRWINGhhVq_NY","Nayara - Savkar Petroleum","Gut No.680, Chandan Puri Road, Shivar, Malegaon","20.5248655","74.53428740000001"
"ChIJI2rOvH-Z3jsRO6rocA3gAf8","UDAYRAJ PETROLEUM HPCL MALEGAON","HG4F+74Q, Satana Road, Malegaon","20.5557012","74.5228453"
"ChIJG5-kYESZ3jsRQIOlZakP31Y","UTKARSH KOYALA DEPO","HG2G+WR7, near Sujan Theater/ Maratha Beer Bar, Sangameshwar, Malegaon","20.5522841","74.52704419999999"
"ChIJ2ZXFTYeZ3jsRy5d1rRmPcPQ","Devdatta Petroleum.","Osiya Nagar, Maloji nagar, Malegaon","20.5542655","74.52568409999999"
"ChIJIe5ydUiD3jsRk6TW4TSQD1A","Hindustan Petroleum Corporation Limited","Gat No 1021, 1023/1, Agra - Mumbai Highway, Saundana","20.452241","74.39401099999999"
"ChIJZb7K6bad3jsR6Q2U4y7Zt6Y","BPCL's Karmaa Petroleum","NH3, Agra - Mumbai Highway, Saundana","20.4748056","74.4168634"
"ChIJoak4Iz-D3jsR4ct9WrrbpT0","IndianOil Petrol Pump (Aghar Kh)","Ground Floor, Saudhane, NH 3, Malegaon, Aghar Kh","20.4478014","74.3868615"
"ChIJR_KfSwCD3jsRDyxpJ_oQ4oE","Sundar Petrol pump (Apna Petrol... ⛽","98HC+MWJ, Chinchave","20.3794547","74.3221937"
"ChIJ06OhBaB93jsR3Io2MRebaI4","IndianOil Petrol Pump (Bhaur)","Gat No 56/5/1, P Chinchve, Agra - Mumbai Highway, Deola","20.3921681","74.3309434"
"ChIJqXijwU3U3TsR-aEwDALtlTI","Hindustan Petroleum Corporation Limited","Survey No 113/P/A NH 3, Mumbai Agra Hwy, Chandwad, Shirsane","20.3086689","74.1576393"
"ChIJzYZXVojV3TsRVC7H9s62558","Bharat Petroleum, Petrol Pump -Mharana Petroleum","Nashik Road, Vadalibhoi","20.3116902","74.1648144"
"ChIJk1BXvCTV3TsRcIv52ryVhB8","Hindustan Petroleum Corporation Limited","Ground Floor, Chandwad, Adgaon","20.314395","74.1748401"
"ChIJCYX7FP7U3TsRgqK16uQYrkY","IndianOil Petrol Pump (Chandwa)","Gat No 328, 2, NH 3, Adgaon","20.3135504","74.1755757"
"ChIJc_frR13V3TsR7CzzCa_aw8g","Hindustan Petroleum Corporation Limited","Gut No 54, Mumbai Agra Road Devgaon, Chandwad, Deogaon","20.317875","74.190941"
"ChIJgYFSQJrV3TsRmoGt7HjWTh4","Hindustan Petroleum Corporation Limited","Ground Floor Chandwad, Sogras Phata, Shelu","20.3322937","74.14232009999999"
"ChIJswEWki_U3TsRKE6O4TO9yGY","Bharat Petroleum, Petrol Pump -Samruddha Tara Petroleum","Malsane","20.2998713","74.1337913"
"ChIJg96CDgDV3TsRu7sWbKCF31Q","Jio BP Petrol Pump","85CX+H73, Chandwad","20.3207223","74.1982246"
"ChIJ21I9tszV3TsRtlIEPDM0l9I","SAIPRASAD PETROLEUM BPCL","NH3 Mumbai Agra highway Near soma toll plaza and gurudwara At post Mangrul , tal, dist, Chandwad","20.32029959999999","74.19857089999999"
"ChIJh4j0Zy_U3TsRVDDHW7ycM-Q","IndianOil Petrol Pump (Adgaon)","Chandwad, Ground Floor Malsane, Agra - Mumbai Highway, Adgaon","20.300048","74.131399"
"ChIJU-YskufQ3TsRv00xzAg1-eE","Petrol Pump","360, National Highway, Nashik","20.2343299","74.0670652"
"ChIJpVfSR4_Q3TsRlgzGAtKKB2I","Hindustan Petroleum Corporation Limited","Gut No 718, opposite TATA Work Shop, NH 3, Agra - Mumbai Highway, Shirwade Wani","20.216401","74.043061"
"ChIJQaN3bsbW3TsRZRWiWxi0_dI","Bharat Petroleum Pump with CNG and Electric Vehicle Charging Station","Nashik Road, Vadalibhoi","20.2748202","74.09605189999999"
"ChIJaYkXX8bW3TsRloE2HAER1mQ","Super Gas Auto LPG Station","NH 3, Chandwad Taluka, Nashik District, National Highway 360, Vadalibhoi","20.2754018","74.0964908"
"ChIJG80ACyLR3TsRUB-MPc4u6GQ","Hindustan Petroleum Corporation Limited","Gut No 543/2, Chandwad, Khadakjamb","20.2340128","74.06647679999999"
"ChIJPVzVZdLW3TsRmsrmkHaWviQ","Hindustan Petroleum Corporation Limited","Gut No 1472/2, P NH 3, Nashik Indore Road, Vadalibhoi","20.263578","74.087504"
"ChIJj6CB5c3W3TsRS01aVgVlI3k","IndianOil Petrol Pump (Bhayale)","Gut No 1191 Chandwad, Vadalibhoi","20.2654133","74.0897044"
"ChIJ3UjeMKbQ3TsRot7PJiZVsUg","IndianOil Petrol Pump (Chandwad)","Ground Floor, Chandwad, Vadner Bhairao","20.242751","74.033461"
"ChIJ9dKrVQDX3TsRezbVE8RfQ-Q","CNG PUMP AT BHARAT PETROLEUM","73FW+R9F, Asian Highway 47, Vadalibhoi","20.27455969999999","74.09590899999999"
"ChIJUReKjtTa3TsRO3Alu18bazc","Bharat Petroleum","5X6Q+849, Pimpalgaon Baswant, MUMBAI-AGRARD","20.1607956","73.9878497"
"ChIJ7xUyZSrF3TsRi45Zijmi4wY","Bharat Petroleum, Petrol Pump And CNG -Maharashtra Petroleum & cng pump","Agra - Mumbai Highway, Pimpalgaon Baswant","20.1545736","73.9836864"
"ChIJAVykAtbE3TsRtJot6ayY7RQ","Deshmane Petroleum now CNG PUMP 24 hours available AND PETROL DIESEL","OPP OLD MARKET YARD, NH3, Agra - Mumbai Highway, Pimpalgaon Baswant","20.1516618","73.9829656"
"ChIJPbTnJwDb3TsRHtOCF2TzBXA","Shree Datt Petrolium","5XMW+625, NH360, Pimpalgaon Baswant","20.1830733","73.994255"
"ChIJd3yy0GPb3TsR5a6QK5c4POo","Vitthalpant Petroleum","Gut no.672 (P Wani Road, Pimpalgaon Baswant","20.1893782","73.98386649999999"
"ChIJISbsW5fb3TsRgh4AJKfG-Hk","Hindustan Petroleum Corporation Limited","Ground Floor, Niphad, Ahergaon","20.18770559999999","74.0038886"
"ChIJQenLu9ja3TsRYqKYOT1_ZI0","Hindustan Petroleum Corporation Limited","Ground Floor, near New APMC Road, Pimpalgaon Road, Jopul, Niphad, Pimpalgaon Baswant","20.174451","73.98384399999999"
"ChIJw9ozSqXb3TsRHmKJC6KVRgs","Hindustan Petroleum Corporation Limited","Gat No 713, 1 Niphad, near Hotel Chetan Paradise, Pimpalgaon Baswant","20.189141","74.004836"
"ChIJ0TgX29na3TsRUAXjewloWHE","Shivkrupa Petrol Pump","5XCP+6P2, National Highway 3, Pimpalgaon Baswant","20.170509","73.9867579"
"ChIJGenEISjb3TsR34keuT_NBxs","BHARAT PETROLEUM -SHRI BABU DADA PETROLEUM","Pachore vani, Agra - Mumbai Highway, Pimpalgaon Baswant","20.1905756","74.0068993"
"ChIJWTKuYMna3TsR6U8_0zjTTK4","IndianOil Petrol Pump (Jopul)","Ground Floor, Niphad, Pimpalgaon Baswant","20.1658768","74.002206"
"ChIJkVZFdQDb3TsRwT_yb6Cn65A","Sathe Petroleum BPCL","52V6+GH4, Pachore Wani","20.1921982","74.0110255"
"ChIJZaSWtXzb3TsRUnwxZSbShDU","IndianOil Petrol Pump (Baswant)","Ground Floor, Pimpalgaon Baswant","20.1630068","73.98742539999999"
"ChIJjYqLHwDb3TsRgS4zltYUrWw","Gaikhe Brothers","5X6Q+849, MUMBAI-AGRARD, Pimpalgaon Baswant","20.1608287","73.9877671"
"ChIJpQyx_CrF3TsRPS16iL_H2L4","Thakker Reliance Petroleum","Nashik, NH-3, Mumbai Agra Highway, Nashik, Nashik","20.15607379999999","73.9856449"
"ChIJd1KAIL3b3TsREmMqkzTxB6M","Sangram petroleum","Niphad, Pimpalgaon Road, Pimpalgaon Baswant","20.1655999","74.0187741"
"ChIJ13xtGADb3TsRyyn_QLhAw64","Hindustan Petroleum Corporation Limited","Ground Floor, Niphad Road, Ahergaon","20.16524979999999","74.0207116"
"ChIJh-6GQNjF3TsRTGllfDvsi3A","Hindustan Petroleum Corporation Limited","S No 449/6, opposite Market Yard, NH 3, Agra - Mumbai Highway, Niphad, Pimpalgaon Baswant","20.1515401","73.9829701"
"ChIJ6QweUwDF3TsRISmn41E4oMA","NASIK KE AAGE CNG PUMP","5X2M+H4Q, Nasik","20.1514588","73.9828556"
"ChIJmSWl6jvb3TsR-JldMbIEI4M","Sudarshan Petroleum","0, Road, Jaulke, Vani","20.2006383","73.9607978"
"ChIJz2nJLuvD3TsRHuTYCUNIGzk","Jio-bp","opposite Panchwad Nagar, Gat No 2436/2 Mumbai Agra Road, NH 3, Ozhar, opposite Panchwad Nagar, Mig, Nashik","20.0822805","73.9155952"
"ChIJZY1lJcLD3TsRyuEBuZrzA3I","Hindustan Petroleum Corporation Limited","Gat No 23/2/1 NH 3, Niphad, Agra - Mumbai Highway, Ojhar","20.0754367","73.9103063"
"ChIJe4mZiMPD3TsRi6ic11IBRMM","Bharat Petroleum","National Highway 3, Vijay Nagar","20.073587","73.9068418"
"ChIJB7fpeZPD3TsRI_O99kfOiyI","IndianOil Petrol Pump (Shivaji Nagar)","Ground Floor, Agra - Mumbai Highway, Korapgaon, Ojhar","20.085268","73.918961"
"ChIJaR7iLq_D3TsRUvYY4-KOfUY","Bharat Petroleum, Petrol Pump -R.B.Gaikhe & Sons Nh3","OZAR ( NH3 ), Nashik","20.088017","73.9223885"
"ChIJF-40ZP_D3TsRpFOhMVRUw2w","Hindustan Petroleum Corporation Limited","near Nashik International Airport, Gat No 577 Airport Road, Dindori, near Nashik International Airport, Janori","20.091108","73.893492"
"ChIJlfPCotPD3TsRKj5hcp1m2-w","IndianOil Petrol Pump (Dindori)","Survey No 172, Hissa No 172, Agra - Mumbai Highway, Jaulke","20.0645022","73.8927313"
"ChIJ26RjjdTD3TsRwd5SQVCsT1k","Hindustan Petroleum Corporation Limited","Survey No 150, NH 13, Agra - Mumbai Highway, Jaulakedindori","20.061371","73.891171"
"ChIJkWW8qMfD3TsRn6hkrK8qWg4","BPCL - Adgaon ( Smartfleet -OTP - Petrol - Diesel - EV Charging)","Survey No.1866, near Garware Point, Agra - Mumbai Highway, NH3, Adgaon, Nashik","20.0586716","73.8881899"
"ChIJ8Tn_GF7q3TsRiQmqOIsr1Q4","Essar pragati Petrol Pump","2R58+CX2, Aurangabad Road, Swaminarayan nagar, Nashik","20.0085165","73.8173864"
"ChIJeW2aTi_q3TsRCkOn45lbhRc","Nayara Petrol Pump","Maharashtra State Highway 17, Vaiduwadi, Mhasrul Gaon, Manora","20.0427484","73.8056347"
"ChIJZ-T5_Kzr3TsR6WCnbyRgeR0","Palija HP Petrol Pump","Malegaon Motor Stand, Panchavati, Nashik","20.0098801","73.792481"
"ChIJkTcwWKzr3TsRYraVe40DuR0","Shweta HP gas Agency","Peth Phata, Opp. State Bank, Panchavati, Nashik","20.01307989999999","73.79191019999999"
"ChIJbVBZ853r3TsR1laxKLBAwt4","Nayara Suvarna Krishna Petroleum","2R9G+5WH, Audumbar Nagar, Near Bali Mandir, Munbai, Agra - Mumbai Highway, Nashik","20.0179255","73.8273557"
"ChIJ2xfV_5rr3TsRAG8pXw252Hk","MNGL CNG PUMP next to KK Wagh College","2R8F+6PX, Service Road, Pachwati, Sri Ram Nagar, Konark Nagar, Nashik","20.0156132","73.8243518"
"ChIJFZA2HjHq3TsRTAE1d_tm7co","Hindustan Petroleum Corporation Limited","Gut No 233/1/A, Plot No 22, Dindori Rd NH 3, Rasbihari, Meri Link Road, Mhaske Nagar, Nashik","20.0267701","73.82765599999999"
"ChIJCQzAJRXr3TsRaC79KHBrh7U","Shell","Aurangabad - Nashik Highway, Nashik","20.005965","73.823725"
"ChIJk9Mrw2fr3TsR8ypEXvaOoVs","BPCL kimaya Petroleum","Aurangabad Road, Kailash Nagar, Nashik","20.0049272","73.8265831"
"ChIJKfiNEtjB3TsRAF-xv1PiuDk","Hindustan Petroleum Corporation Limited","Ground Floor, Jatra Link Road, Nandur, Dasak, Nashik","20.009871","73.843514"
"ChIJu8t_LADr3TsRwDix73C7vWk","Nyra Petrol Pump Aurangabad Road","2R58+GX3, Aurangabad Road, Madsangavi, Nashik","20.0087726","73.81740789999999"
"ChIJx3LAAazr3TsR0w6AGH_8dAw","Rajvin Petroleum","Siddhivinayak Chowk, near NilgIri bag Road, Chhatrapati Sambhaji Nagar Road, Nashik","20.001664","73.8313996"
"ChIJsZlNcd7B3TsRtjCGKbid-ZE","Hindustan Petroleum Corporation Limited","Ground Floor NH 3, Konark Ngr, Agra - Mumbai Highway, Adgaon, Nashik","20.028041","73.84740099999999"
"ChIJhQY7PWzr3TsRm0_iKLcXR-U","IndianOil Petrol Pump (Om Nagar)","Lock No 11019, Agra - Mumbai Highway, Adgaon Naka, Panchavati, Nashik","20.01028999999999","73.807671"
"ChIJ07D_TVrq3TsRjF6hnXu2MPk","IndianOil Petrol Pump (Om Nagar)","near Haldi Lonws, Adgaon Naka, Om Nagar, Nashik","20.0109019","73.8057523"
"ChIJKVC2VADB3TsRPKqbWcpEwog","Sai Pandhari CNG Station","800m from, Sambhajinagar Highway, Nandur Naka, Nashik","19.9983932","73.8509754"
"ChIJGQkiszHq3TsRdBqmVz7O1Bc","Jio-bp","Plot No 6, Survey No 207, 7/A, Dindori Road, Mhasrul Shivar, Nashik","20.0357314","73.80323419999999"
"ChIJ2cQZWU_r3TsRknU30NEeDfM","Bharat Petroleum, Petrol Pump -Ichamani Construction & Co","NASHIK-DINDORI RD- ICHAMA, Nashik","20.03730599999999","73.8038935"
"ChIJ4UvIvi_q3TsRTqJl2FECoT4","Hindustan Petroleum Corporation Limited","S No 234 Plot, 3, Dindori Road, Mhasrul Gaon, Nashik","20.03900459999999","73.8048144"
"ChIJ6Wr5Sznr3TsRxBte2-2T0MA","Sahadev Petroleum","Tapovan Road, Nashik","19.9927848","73.80942"
"ChIJW6IqlwKT3TsRjab5LDUJELE","IndianOil Petrol Pump (Akrale)","Gut, No 64/1/ P, Akrale, Rajur Bahula","19.9029937","73.70032479999999"
"ChIJz46YbjyT3TsRc8HOAPtjQkg","Bharat Petroleum, Petrol Pump -N.L.Gandhi & Co.","RAJUR ( NH3 ), Nashik","19.9061572","73.7008602"
"ChIJWY3owlyT3TsRVn540DT1Kcw","Hindustan Petroleum Corporation Limited","Gut No 42, NH 3, Agra - Mumbai Highway, Rajur Bahula","19.9099045","73.7046369"
"ChIJU2D_vBCT3TsR6WpXo_MXuJw","HP Petrol Pump","S NO, 89/1, Agra - Mumbai Highway, MIDC Ambad, Vilholi","19.9178277","73.7132522"
"ChIJN97QJJWT3TsRI47h_wWvOak","Hindustan Petroleum Corporation Limited","No 17/2, opposite Sanjivani Resort, NH 3, Agra - Mumbai Highway, Vilholi","19.9338981","73.7285469"
"ChIJrbhqEw6T3TsRrOiHTULEVUM","Shivneri Petroleum Services BPCL","SURVEY NO. 19/2A National Highway NH3 MUMBAI - AGRA VILHOLI, SHIVAR, Nashik","19.934059","73.73097729999999"
"ChIJ11VJIcCR3TsRFBbokO3JF6M","Hindustan Petroleum Corporation Limited","Ground Floor, NH 3, Igatpuri, Gondedumala","19.8285839","73.6752661"
"ChIJfyMu8OqR3TsRnGcW89B9JbI","IndianOil Petrol Pump (Igatpuri)","Gat No 553, Gondedumala","19.8306817","73.6749799"
"ChIJH6Ps4bCR3TsRk5RU8igIvN8","IndianOil Petrol Pump (Padaali Deshmukh)","Gat No 366, Padli Deshmukh","19.8041354","73.67155439999999"
"ChIJd2jvMdqF3TsR3VYfJ0hojwg","IndianOil Petrol Pump (Bortembhe)","Lock No 12019, NH 3, Agra - Mumbai Highway, Igatpuri","19.6956413","73.5955293"
"ChIJKVxjIiqE3TsRDw4ijEiV3cg","Parvati filling station","Bajrang Wada, Igatpuri","19.6861089","73.566299"
"ChIJi93Skf-F3TsR4rUsL0Z4FqA","Hindustan Petroleum Corporation Limited","Gut No 38 & 39, P NH3, Mumbai - Nashik Expressway, Talegaon, Igatpuri","19.686223","73.565161"
"ChIJy7JMjVaE3TsRulDQFFb_pbc","M R Rathi & Co. BPCL, CNG Station","Take-Ghoti NH -3 , Mumbai Nashik Highway, Dist, Igatpuri","19.6993474","73.6028386"
"ChIJr9FEZgCF3TsRH5nYJSAzpNQ","Cng","MHW6+GCQ, Igatpuri","19.6963259","73.5611065"
"ChIJs_3rZgCH3TsRr5Ef1GWaiNE","Jio-bp","Gat No, 78 & 789, Budruk, Talegaon, Igatpuri","19.687838","73.55884200000001"
"ChIJS97plWOH3TsRStLU3Svg72c","Indian Oil petrol pump","near Ashwin Hotel, Service Road, Igatpuri","19.692735","73.5456347"
"ChIJm8wPkh6F3TsRieG-0gvqgeQ","Vicky Parmar","Shop No 1 Near Ghoti Tole Plaza Mumbai, Highway, Kasara","19.7083282","73.6145548"
"ChIJmeZcB8aH3TsRKcVYB8uZBec","Vinayak Abgul","Igatpuri City Road, Mahindra and Mahindra Engine Plant, Igatpuri","19.6928808","73.5440284"
"ChIJb_i3Vd5-5zsROT2jkiF2A2k","Hindustan Petroleum Corporation Limited","Ground Floor, Pimpalpada","19.5976585","73.3914248"
"ChIJBZ2pJxd-5zsRTv-3_yzB6do","IndianOil Petrol Pump (Mokhawane)","Survey No 170/2, Shahapur, Mokhawane, Shirol","19.6277524","73.4505551"
"ChIJPcK3VOZ-5zsRor1bOyN2Gds","Zeco Aircon Limited","J93W+GXM, Mumbai - Nashik Expressway","19.6038283","73.39743349999999"
"ChIJb0Z6485_5zsRvE45hFl5lVQ","SAI DHAM","N.H-3 KHARDI, TAL, Shahapur","19.5975465","73.391632"
"ChIJWW2kF8B55zsRwyCMkR_8Rrs","Kartik autocare","H939+59, Lahe","19.5526901","73.3685282"
"ChIJn5IUFK145zsR_VmDp_PBzQk","Hindustan Petroleum Corporation Limited","Ground Floor, Mumbai - Nashik Expressway, Lahe","19.5527699","73.3688138"
"ChIJZUXJwtmD5zsROS7oF_9Ebug","IndianOil Petrol Pump (Kasara)","Kalamgaon, Shahpur, NH 3, Mumbai - Nashik Expressway, कसारा","19.538722","73.346898"
"ChIJY5tFenx55zsRkWEnl9mXNjs","Hindustan Petroleum Corporation Limited","Ground Floor, Mumbai - Nashik Expressway, Lahe","19.5546483","73.3694616"
"ChIJS2we1oOE5zsRjfBB04XCfHo","IndianOil Petrol Pump (assam gao)","Thane, Lock No 11024 NH 3, Shahapur, assam gao","19.4457695","73.3177286"
"ChIJgZBHqiyF5zsRjww8qLc1twc","Hindustan Petroleum Corporation Limited","Gut No 531/3, near Visva Hotel, Shahpur, Dolkhamb Road, Shapgaon, Thane","19.446192","73.3523147"
"ChIJbeXWCAyE5zsRi6hyOrk65tQ","HP PETROL PUMP - SHIVRATAN FILLING STATION","Sapgaon Taluka Shahapur, Vashi","19.44630099999999","73.3523738"
"ChIJl1UKIgCF5zsRmfPyrmF_-Bo","Ekdant petroleum shahapur","F82V+CGR, Maharashtra State Highway 79, Bamane","19.4512583","73.3437983"
"ChIJSdvOPACD5zsRYYy7lLN8jMA","NK Petrol pump","F82V+RH5, Shahapur","19.4520239","73.3439799"
"ChIJm9XnGQCD5zsRJFPkBKX9XYI","Hindustan Petroleum Corporation Limited","CTS No 394, Old Agra Road, Shahapur","19.452647","73.328141"
"ChIJUe3xC-2D5zsR3lUuythVoMI","ASHWINI SHIVSAGAR INFRASTRUCTURE","Raigad, Sawant Nagar, Pandit Naka, Cherpoli","19.4577745","73.33133099999999"
"ChIJT4E5VoSD5zsRpqrezlb6rvE","IndianOil Petrol Pump (Shahpur)","Cherpoli","19.4589672","73.33205509999999"
"ChIJP4b0IdSD5zsRb3Ov9Qn-Tqk","SAFETECH INNOVATIONS","Gala no.17, B wing, Siddhivinayak complex, Sahkari gruhanirman Sanstha(Akash Heights, At- Cherpoli, post, Aware","19.4601325","73.3333908"
"ChIJoVR-4ICD5zsR560LkAafpBo","Hindustan Petroleum Corporation Limited","CTS No 39, NH 3, Mumbai - Nashik Expressway, Shahapur","19.4456742","73.3189708"
"ChIJkaJArMOZ5zsR4NCxhyQYo8A","IndianOil Petrol Pump (Dandekarwadi)","Lock No 21007, Padga, Bhiwadi NH 3, Mumbai - Nashik Expressway, Dandekarwadi, Thane","19.3563182","73.1555415"
"ChIJvV3vPQCX5zsReGS157Pxjuc","IndianOil Petrol Pump (Aamane)","Ground Floor SH 46, Bhiwandi, Kalyan-Sape Road, Aamane, Padgha","19.3194645","73.15969679999999"
"ChIJnzy4UV2X5zsRS-YYQ86Q5PE","Hindustan Petroleum Corporation Limited","S No 58/16, Road Sape Padgha Road, Padgha","19.3308659","73.15917689999999"
"ChIJq2APvQWX5zsR2b2qC6bkGMg","Tci Company","Bashir - 7038678800, *Adress* - TCI company behind stelar company, near antariksh office, opp. HP petrol pump, vashere. Kalyan, Padgha","19.3334997","73.1615127"
"ChIJjZUmWwCZ5zsRCQjaAHm8eQs","Bharat Petroleum","2/13/A, Taloli - Padgha Road, Borivali Tarf Rahur","19.3484249","73.15888199999999"
"ChIJeYJGDQCX5zsRtH9w5poZlHg","Hindustan Petroleum Corporation Limited","near Haware Properties, Survey No 31 & 32 Kalyan Sape Rd, Savad, Muthaval, near Haware Properties, Bhiwandi","19.2923012","73.15082799999999"
"ChIJEYcYtbuZ5zsRBB4f4amAC8o","Hindustan Petroleum Corporation Limited","Ground Floor, NH 3, Agra - Mumbai Highway, Bhoirpada, Thane","19.3490962","73.1439674"
"ChIJCzxkZ7qZ5zsRbr49IT3GJ1k","Shell Petrol Pump Padgha","Mumbai - Agra National Highway Vahuli, Bhiwandi","19.35471","73.152687"
"ChIJTVShYXGZ5zsRGOtwkLXCAbM","Bharat Petroleum, Petrol Pump -Montgomery Automobiles","REHNALDI, Thane","19.3503146","73.1447234"
"ChIJMR_SLYaZ5zsRsznqShRcDIk","Jaimalsingh Automobilies Corporation","plot 57/11,stop bhoirpada,village vahuli,mumbai nashik highway,padgha, Bhiwandi","19.351574","73.146208"
"ChIJZTHUrMOZ5zsRGw9G7QUyzy4","Bharat petrol pump","Agra - Mumbai Highway, Talavali Tarf Sonale","19.3569054","73.1565297"
"ChIJoTuYmNGZ5zsRUyGhpAK741I","Hindustan Petroleum Corporation Limited","Ground Floor, NH 3, Mumbai - Nashik Expressway, Bhoirgaon","19.349329","73.141967"
"ChIJV7y2W-mZ5zsRlsSgo_yTda0","Maruti Automobiles Indian Oil Petrol Pump","Arjunali","19.3590632","73.16355089999999"
"ChIJ0YPkxFOZ5zsRguYEN6dVodA","Bharat Petroleum, Petrol Pump -Dasmesh Enterprise","BORIVALI(KUKSE) ON NH3, NH3, THANA","19.3453516","73.1365666"
"ChIJRaOmIUOZ5zsR92eJrGj8v0U","Hindustan Petroleum Corporation Limited","Survey No 15, Mumbai - Nashik Expressway, Bhoirgaon","19.344946","73.13288899999999"
"ChIJxd2UqsaZ5zsRlRXccHEcuQs","Varshman Auto Service","Arjunali","19.3628125","73.1670625"
"ChIJCbRVG3uZ5zsR-vikaINC2mE","Hindustan Petroleum Corporation Limited","Ground Floor, NH 3, Bhiwandi, Padgha","19.362833","73.16703199999999"
"ChIJicgnMx6W5zsR9KVRoVUTkVo","Hindustan Petroleum Corporation Limited","Ground Floor, NH 22, near Nisharg Hotel, Ranjnoli","19.2632786","73.0886803"
"ChIJbQnxOzSW5zsREH9hxno2N0s","Hindustan Petroleum Corporation Limited","9 & 10, S No 7, H No 2, 3, 5 to 7, Bhiwandi Bypass Rd, Sonale, Bhiwandi","19.2853676","73.10761900000001"
"ChIJVbY4Zmu95zsRC31e4l4y9ZI","IndianOil Petrol Pump (Babu Ganj Groups)","St Depot, near Bhiwandi, Old, Agra Road, Nizampur, Thane","19.3047011","73.06580749999999"
"ChIJPz_PO2u95zsRruihQGFNXpw","Hindustan Petroleum Corporation Limited","opposite Bhiwandi Scan Centre, S No 66 & 82/P, Old Mumbai-Agra Road, Nizampur, Thane","19.305351","73.065191"
"ChIJX4rlUoC95zsRcAbOFqYIh9c","Mahanagar Gas CNG Station","CNG pump, Mumbai - Nashik Expressway","19.2682593","73.0838302"
"ChIJyUsoBou95zsRLRdYcXuQHao","IndianOil Petrol Pump (Saravali)","Ranjnoli Kalyan Road, Dandekarwadi, Bhiwandi","19.268331","73.083985"
"ChIJSTgEhh6W5zsRJrJdE-JQ3Ak","MNGL CNG Pump","736R+GCF, Sapna Industrial Estate, Saravali, Gove","19.2613195","73.0910406"
"ChIJr_nAdhyW5zsRBSo0mpnhIdg","Bharat Petroleum","India","19.2588479","73.0933975"
"ChIJgcFf1wSW5zsRulvoXV5mjV8","Mahanagar Gas CNG Station Kanhaiya","124/4, NEAR RITU HYUNDAI,GOVE, VILLAGE, Bhiwandi","19.2546685","73.09634299999999"
"ChIJK3bf8jCX5zsRChJ8fgHhVR8","IndianOil Petrol Pump (Saravali)","Lock 11031, Kalyan - Bhiwandi Road, Saravali, Kalyan","19.253204","73.098078"
"ChIJe6t67Nq95zsR8VF5YXJbJN8","Hindustan Petroleum Corporation Limited","Ground Floor, NH 3, Mumbai - Nashik Expressway, Ovali, Bhiwandi","19.2495307","73.054091"
"ChIJj6ZZXyWW5zsR74DmB_ry0rM","Reliance Petroleum","Survey No 79, 86/171 Bypass, NH 3, Sonale, Bhiwandi","19.2783569","73.0981372"
"ChIJg1KNCgCX5zsRR-YdTilZzMc","CNG JIO PUMP","79, Saravali, Bhiwandi","19.2781613","73.0983372"
"ChIJpSE3SNq95zsRzWup3MFGuLk","Hp Gas","India","19.2471886","73.05469649999999"
"ChIJVfi1ntq95zsRa8QLNdNtXgs","Shivai Petroleum","3, Mumbai - Nashik Expressway, Thane West, Bhiwandi","19.2495319","73.05268199999999"
"ChIJGyjmrFOX5zsRWy5l0Jx-dts","Jayshree Enterprise","7442+3W8, Thane","19.2551699","73.10233579999999"
"ChIJ17FhB0y95zsRJZRAsaFmRtg","Zishan Enterprises","Ground Floor, Ahbab Hotel, HN.1777, Bhiwandi","19.2923683","73.07086869999999"
"ChIJk9yjmGO95zsRPj_lgMPTn9Y","Satyam Automobiles","Shop No.14, Gaibi Nagar Bhiwandi, Bhiwandi","19.2925078","73.0705921"
"ChIJRzhy1QiW5zsRfCm1hCVlcCw","Reliance Petrol Pump","7422+2XX, NH 222, Kongaon","19.25","73.102475"
"ChIJrfokkCyW5zsRBOWyTdBta0M","Sai Krupa Mini Bharat Gas Services","Shop No 1, Silent Complex Lonavale, Bhadwad Gaon, Mumbai","19.28761579999999","73.0945127"
"ChIJS7IssB255zsR5nNKyNTtl74","Bharat Petroleum","Nandanvan Industrial Estate, D/11, Lal Bahadur Shastri Marg, Louis Wadi, Thane West, Thane","19.1875579","72.9616995"
"ChIJt-dPxwW55zsR3OYlDioCwZY","AIKI AUTO Cng Pump","B-27, SG Barve Road, Neheru Nagar, Wagle Industrial Estate, Thane West, Thane","19.1939447","72.95338989999999"
"ChIJt8asOiu_5zsRQzJ4FHt1nIQ","Hindustan Petroleum Corporation Limited","opposite Green Word, Plot No 130, Digha Naka, TTC MIDC, Vitawa, Navi Mumbai","19.184651","72.99402100000002"
"ChIJC2yhzD255zsRM3py_dGmMQI","Mahanagar Gas CNG Station","Khopat Road, Khopat, Thane West, Thane","19.2023766","72.9726207"
"ChIJpY05mUa55zsRhTP4x0YiUSg","BPCL Fuel Pump and CNG Pump Majiwada","Old, Agra - Mumbai Highway, Majiwada, Thane","19.2149174","72.97727850000001"
"ChIJP41bb0-55zsRWR4psp-xgDM","Hindustan Petroleum Corporation Limited","Ground Floor, Fire Station, next to Balkum, Agra - Mumbai Highway, Majiwada, Thane","19.217651","72.98239099999999"
"ChIJjyc740S55zsRtVhHXfzXDE4","Hindustan Petroleum Corporation Limited","Ground Floor, opposite Kapurbawdi, Ghodbunder Road, Juntion, Thane West, Thane","19.219771","72.978141"
"ChIJo8EogAG55zsRRKe8Zziupxs","Bharat Petroleum Corporation ltd","Bpcl PETROL pump, opposite manorpada, Lal Bahadur Shastri Marg, Uthalsar, Thane West, Thane","19.2028694","72.97594099999999"
"ChIJjV-FGVu55zsR__d24YX3uNs","BLUE STAR","India","19.2228836","72.9779358"
"ChIJgcApdVu55zsRgncSE7XqDIk","IndianOil Petrol Pump (Thane West)","Lock No 21008, Chitalsarmanpada, Ghodbunder Road, Kasarvadavali, Thane","19.2234297","72.9768862"
"ChIJ2SFGaNOZ5zsRDz6vEiHC3KU","IndianOil Petrol Pump (Dandekarwadi)","Kuksa, Borivali, NH 3, Bhiwandi Road, Dandekarwadi, Thane","19.2209371","72.98806710000001"
"ChIJw4f4oOa55zsR3UzvHIHqX3s","Namdev Nipurt","Shop 04, Teen Perto Pump 26, Thane","19.1939618","72.9704826"
"ChIJed5KkCG55zsRMaLYhxviwLw","BEST TYRE SERVICE","oppojit teen petrol pump, Tulasi Chambers, B/H, Lal Bahadur Shastri Marg, Thane West, Thane","19.1933681","72.97023229999999"
"ChIJxQKJciK55zsRLcN42xzBjn8","Hindustan Petroleum Corporation Limited","No 356, Agra - Mumbai Highway, Naupada, Thane","19.193261","72.970421"
"ChIJEV-YDiK55zsRrZZDlaq7G18","Radhakishan Lalchand HP Petrol Pump","Teen Petrol Pump, Naupada, Thane","19.1928872","72.9702849"
"ChIJbTiVQce55zsRcEqLQfSEEYk","Shell","Service Road, Thane","19.195491","72.963081"
"ChIJYwHKntq95zsRG2DAFBmGJAM","Anjur Service Centre","3, Agra - Mumbai Highway, Thane West, Bhiwandi","19.1957353","72.96187189999999"
"ChIJRzX4UAC_5zsRmN2-v_tqIKY","Nayara petrol pump","6252+FFQ, Kharegaon Bypass Road, Kharegaon, Kalwa, Thane","19.20872379999999","73.0012251"
"ChIJ02tuJQC_5zsRrCqap8hxhbk","Nayra Petrol Pump","008, Kalwa, Mumbai","19.2088479","73.0012593"
"ChIJXy4S3k275zsRBy7Vs1g8zwc","Laxmi automobile","ODEDRA BLDG, Amin Sheth Chal, behind Petrol Pump, Manpada, Thane West, Thane","19.235159","72.977176"
"ChIJ87tx1M3H5zsR875hVRXztSU","Hindustan Petroleum Corporation Limited","No B, 6, Lal Bahadur Shastri Marg, Ghatkopar West, Mumbai","19.0939579","72.9132956"
"ChIJ2yfwv87H5zsRYwyBVuoXL6I","Bharat Petroleum Corporation ltd","Lal Bahadur Shastri Marg, Ghatkopar East, Mumbai","19.09568","72.9151"
"ChIJI1CjtMfH5zsReHZV7RXOn_E","IndianOil Petrol Pump (Vikhroli West)","opposite Godrej & Company, LBS Marg, opposite Godrej & Company, Agra - Mumbai Highway, Vikhroli West, Mumbai","19.1023956","72.9195445"
"ChIJ_VMh3ybG5zsR-iq03PVixVA","IndianOil Petrol Pump (Ghatkopar East)","near Shoppers Stop, Ghatkopar - Mahul Road, Tilak Nagar, Kurla, Mumbai","19.0713319","72.901777"
"ChIJBdfkmoDI5zsRs3ygbA7QgMs","Hindustan Petroleum Corporation Limited","Ground Floor, Kerawala Estate Agra Road, Lal Bahadur Shastri Marg, Ghatkopar West, Mumbai","19.0860454","72.8950107"
"ChIJCzC38iDG5zsRewr1lUi0Fq0","Hindustan Petroleum Corporation Limited","near Amar Mahal, Plot No 76/77, Ghatkopar - Mahul Road, Tilak Nagar, Kurla, Mumbai","19.0677663","72.90025229999999"
"ChIJSaNtPIjI5zsR_ZXbe4pqqS4","Hindustan Petroleum Corporation Limited","Ground Floor, near Phoenix Market City, Agra - Mumbai Highway, Kurla West, Mumbai","19.0848371","72.8851948"
"ChIJY2zQgQnG5zsR7-Ud7YRdmQA","Hindustan Petroleum Corporation Limited","Ground Floor, near Telecom Factory Road, Sion - Trombay Road, Deonar, Mumbai","19.0453907","72.9163617"
"ChIJ2-RriAnG5zsRbb1I5Ai3Zw0","IndianOil Petrol Pump (Chembur)","opposite Telecom Factory Road, Sion - Trombay Road, Deonar, Mumbai","19.0448012","72.91640389999999"
"ChIJQx3jPAPG5zsRE5AlxiIc51c","Bharat Petroleum Corporation ltd","near Fire Brigade, Sion - Trombay Road, Chembur, Mumbai","19.0538876","72.8934072"
"ChIJsS_826XI5zsRSs057BEhaB8","Hindustan Petroleum Corporation Limited","Ground Floor, near Akbarallys Showroom, Chembur, Mumbai","19.05385489999999","72.8924725"
"ChIJhfTfXRnH5zsRSkujU9Ys1GA","Police Fuel Station Bharat Petroleum","opposite Ramabai Nagar, Eastern Express Highway, Pant Nagar, Railway Police Colony, Ghatkopar East, Mumbai","19.0795448","72.9164627"
"ChIJlftsR4TH5zsRamLYnHk8LDE","Samyak Hp Gas Services","Shop no 1, Vasant Rao Naik Road, Ghatkopar, Ramabai Ambedkar Nagar, Mumbai","19.0783926","72.9164375"
"ChIJZToCfpbH5zsRVhgCTaRu15g","Bharat gas","3WH6+C3J, Ghatkopar East, Mumbai","19.0785988","72.91014559999999"
"ChIJ3SA6scfH5zsRE5P7q8XE7sA","IndianOil","TALUKA-KURLA, Vikhroli West, Mumbai","19.1024466","72.9199649"
"ChIJq6x05FTH5zsRvE00sSZwaO0","Jio-bp pulse","Ground Floor, Bus Depot, near Shivaji Nagar, Nirankar Nagar, Mumbai","19.0662069","72.9285609"
"ChIJiRVQsqXH5zsRQfYU2aoo0B8","H P Gas","Saibaba Mandir, Govandi Slums, Gajanand Colony, Lotus Colony, Shivaji Nagar, Mumbai","19.0652146","72.9197009"
"ChIJ7RXZNQvH5zsRcFdW38KNnZg","IndianOil","AB Road, Ghatkopar, Chirag Nagar, Ghatkopar West, Mumbai","19.0871001","72.89971109999999"
"ChIJ4dBORKrH5zsRtvEMRAd4bEU","Petrol Pump","No D, Shop No 5 Line, 8, Govandi Road, Mumbai","19.0636738","72.92625199999999"
"ChIJDydlgdXH5zsRxVpIdqbA3qE","Sagar Oil Center","3VRX+3MJ, Chirag Nagar, Ghatkopar West, Mumbai","19.090224","72.89914100000001"
"ChIJYbVzG8_O5zsROs0OKLehEh4","Hindustan Petroleum Corporation Limited","opposite Axis Bank, Ground Floor, Shivaji Park Veer Savarkar Marg, opposite Axis Bank, Old Cadel Road, Mumbai","19.026271","72.836011"
"ChIJ57IDKsfO5zsRPdpbgIaRzPs","Hindustan Petroleum Corporation Limited","opposite Shree Siddhivinayak Temple, 386, Swatantryaveer Savarkar Road, Prabhadevi, Mumbai","19.0175931","72.83055399999999"
"ChIJDz9Q6RvP5zsRYjNBBo2VpMo","Petrol Pump","Eastern Freeway, Pratiksha Nagar, BPCL Terminal, Wadala, Mumbai","19.00739279999999","72.85866539999999"
"ChIJwS8hgC7P5zsRDSGKp2jWt18","Bharat Petroleum Corporation ltd","opposite Kings Circle, Plot No 362, Matunga East, Mumbai","19.0262752","72.85447440000002"
"ChIJOQAP7-XO5zsR6hWMTMXOY0U","Hindustan Petroleum Corporation Limited","Ground Floor, Saint Xavier Street, Parel, Mumbai","19.006042","72.8406546"
"ChIJ0S0PTdjO5zsRb0oc78ZfJS4","IndianOil Petrol Pump (Dadar)","Hindu Colony, L N Road, near Ruia College, Dadar East, Mumbai","19.0227588","72.848716"
"ChIJWcTgKO2p5zsRVgOt7HXq1fg","IndianOil Petrol Pump (Prabhadevi)","17 Veer Savarkar Marg, Old Cadel Road, Mumbai","19.0190297","72.83117469999999"
"ChIJ4Uj281bO5zsR29Sa8BdvCPk","Bharat Petroleum Corporation ltd","near Fire Brigade, 1st Avenue Boundary Rd, near Fire Brigade, West, Cotton Green East, Sewri, Mumbai","18.9867526","72.8438681"
"ChIJM6y9k73P5zsRDbNuSGTbYYU","Bharat Petroleum Corporation ltd","Ground Floor, near Shiv Sena Bhavan, Ash Lane, Dadar, Mumbai","19.0252863","72.8403988"
"ChIJx6Jbt1LO5zsR12uQb4lkikM","LAXMI ENTERPRISES (BPCL)","XVJ2+5C8, Signal Hill Avenue, Brick Bunder Tank Road, Reay Road, Mumbai","18.980417","72.8510861"
"ChIJw6XdfF_O5zsRP1An_zs3U-I","Hindustan Petroleum Corporation Limited","next to Creative Industrial Estate, Ground Floor, Sitaram Mill Compound NM Joshi Marg, next to Creative Industrial Estate, Delisle Road, Mumbai","18.988625","72.831255"
"ChIJAZkSV2fO5zsRWAx-0exCgZ8","IndianOil Petrol Pump (Jacob Circle)","next to Kasturba Hospital, Sane Guruji Marg, next to Kasturba Hospital, Arthur Road, Agripada, Mumbai","18.98524129999999","72.8308533"
"ChIJqVhnnc3O5zsRFHWzIn1m2BQ","Bharat Petroleum, Petrol Pump -Park Garage","opp. HINDUJA HOSPITA, MAHIM, opp. HINDUJA HOSPITA","19.0324821","72.83887399999999"
"ChIJbRjQBy3J5zsRC6WJMqst0Co","Bharat Petroleum Corporation ltd","Sitladevi Temple Road, Junction, Mahim, Mumbai","19.0352871","72.842677"
"ChIJJW1OAy3J5zsRFPOZkwt89-M","Hindustan Petroleum Corporation Limited","Ground Floor, near Bank of Maharashtra, Lady Jamshedji Road, Mahim, Mumbai","19.0384825","72.8421461"
"ChIJIckziUrP5zsR0P5SXRoctwE","IndianOil Petrol Pump (Sion)","near Wadala RTO, Anik Wadala Link Road, near Wadala RTO, Salt Pan Road, Phase 1, Wadala Truck Terminal, Mumbai","19.0362606","72.8762429"
"ChIJYRp_u2HO5zsR-SIPi-PtDbU","Hindustan Petroleum Corporation Limited","Ground Floor, near Kishav Ravkhadhi Road, Doctor Elijah Moses Road, Mahalakshmi, Mumbai","18.9878659","72.82337369999999"
"ChIJ946WC87I5zsRqTWk_N7DbwE","HP Petrol Pump & CNG Filling Station","Sion Circle, 90-91, Sion - Trombay Road, Next to, Mumbai","19.0437794","72.8646323"
"ChIJ946WC87I5zsRjr08UupDoik","Bharat Petroleum Corporation ltd","next to SBI, No 30, Sion Circle, Sion, Mumbai","19.0433863","72.8639346"
"ChIJif4T6Y_O5zsRlE88gIFJPlg","Bharat Petroleum Corporation ltd","near Acharya Atre Chowk, Plot No 87, Doctor Annie Besant Road, Worli Naka, Mumbai","18.9979375","72.8173077"