place_id,name,address,latitude,longitude,open_now
"ChIJgdaWXD6QXjkRWS6xFYMyKuA","IndianOil","Block No 53, A/2, Daskroi, Bakrol Badrabad","22.9367761","72.5010942","true"
"ChIJE19wBpGaXjkR-4Onz8UrN9g","Bharat Petroleum Petrol Pump And Online CNG Pump","Sarkhej-Bavla Road, Sarkhej, Ahmedabad","22.9759905","72.4882324","true"
"ChIJQYw2yoaQXjkRSCPlcFRewpc","Bharat Petrol Pump Navkar","XF39+5FC, S.G.Highway,, Ellisbridge, Ahmedabad","22.9529495","72.468633","true"
"ChIJgxF9u8eaXjkR9i_O5jKLU4M","Hindustan Petroleum Corporation Limited","Ground Floor, National Highway 8A, Sarkhej, Ahmedabad","22.9875701","72.5065801","true"
"ChIJOeDdzsuaXjkRH7s-zRAEfOU","NAYARA Petrol Pump","near Makarba Road, 4 rasta, Sarkhej Road, Quresh Nagar Society, Juhapura, Ahmedabad","22.99042709999999","72.5156236","true"
"ChIJO9K2u8uaXjkRt1JomxQDda0","Hindustan Petroleum Corporation Limited","Survey No, 103/P & 221/P, Sarkhej Vasna Road, Juhapura, Gyaspur, Ahmedabad","22.9909901","72.5165301","true"
"ChIJNbtm2zuFXjkRuDNo1SDcmQc","Adani Gas CNG Station","opp. APMC, Vasna Rd, opp. APMC, 132 Feet Ring Road, Vishala, Ahmedabad","22.9957517","72.53636310000002","true"
"ChIJDe40a7OPXjkRII4GFLFAgq8","Bharat Petroleum","Sardar Patel Ring Road, Ahmedabad","22.923446","72.5510298","true"
"ChIJuenavLKRXjkRxEnVDhJ5PLE","IndianOil","Sarkhej-Bavla Road, Changodar","22.9277502","72.4459076","true"
"ChIJg-4UOTuFXjkR2tgk_Vtovts","Shell","opp. Karishma Complex, nr. Shell Petrolpump, 132, 132 Feet Ring Road, APMC Market, Gupta Nagar, Vasna, Ahmedabad","22.99998099999999","72.53648","true"
"ChIJD6i5r36FXjkRDVhTEXCvcUA","IndianOil","Ground Floor, Opposite Pirana Octroi Naka, Piplaj - Pirana Road, Shahwadi, Ahmedabad","22.9744078","72.5624161","true"
"ChIJ2yuupSmbXjkRUoXfjVibbVs","Shell","100, 100 Feet Anand Nagar Road, Prahlad Nagar, Ahmedabad","23.01214","72.5125","true"
"ChIJGVGc2CWFXjkRe4TPAukZVlA","Hindustan Petroleum Corporation Limited","near Jivraj Park, Plot No 543/551, Vejalpur Road, Ahmedabad","23.006546","72.534263","true"
"ChIJVVWV8DuaXjkR2wIrxezH58o","BPCL Petrol Pump","XCPV+4CQ, near bacha motors, sarkhej, Sarkhej - Sanand Road, Telav","22.9853346","72.4436046","true"
"ChIJoQOCCs-EXjkRZzXvC4gq6FE","IndianOil","Ground Floor, Satellite Road, Ahmedabad","23.0194842","72.52982039999999","true"
"ChIJ-SQGSC-DXjkRUm7z3nm7lzQ","Adani Gas CNG Station","XFVX+J2R, Sarkhej, nr. Divya Bhasker, SG Highway Service Road, Makarba, Ahmedabad","22.9941239","72.4975079","true"
"ChIJGeoqgumbXjkRUY8cmjBtts4","SHREE Ramdev PETROLEUM","Survey no 156, A/2 160/B/2, New Vanzar Road, Ahmedabad","22.9489694","72.5033158","true"
"ChIJkV70IwCRXjkRseZiUfiLSbk","Shree Ramdev PETROLEUM","WGX3+G77, Patiya, Vanzar","22.9487959","72.5031667","true"
"ChIJtepjTe6RXjkRv6RzeKnTRPY","Jio Petroleum","Ahmedabad","22.9478276","72.5029954",""
"ChIJkajRFwCRXjkRSSl-swnemKA","Nayara Unique Petroleum","WFQX+RCF, Vanzar","22.9395688","72.4985402","true"
"ChIJ0dq4hGqQXjkRYxc6j8mcH2k","Hindustan Petroleum Corporation Limited","Survey No 197, 200, Sardar Patel Ring Road, Daskroi, Visalpur","22.9390066","72.4945505","true"
"ChIJKWD01tSRXjkRqLu97xeKDaY","Seema CNG Station","Bakrol to Sanathal, Sardar Patel Ring Road, Ahmedabad","22.9422391","72.4875282","true"
"ChIJ5_W4CT-QXjkR33gkFs1jnkM","Hindustan Petroleum Corporation Limited","Survey No 197, 200 Feet, Sardar Patel Ring Road, Daskroi, Visalpur","22.9361673","72.4987925","true"
"ChIJHeQGCT-QXjkRbcNyyi3RBPQ","Hindustan Petroleum Corporation Limited","Survey No 197, 200 Feet, Sardar Patel Ring Road, Daskroi, Visalpur","22.9361673","72.4987925","true"
"ChIJMfoGU3qQXjkRWPgOowXYe_0","Nayara petrol pump","XF2J+VV4, Sardar Patel Ring Road, Badrabad","22.95212769999999","72.4821989","true"
"ChIJbcsHlfmRXjkRpcwp4GD6RXQ","Adani Gas CNG Station","XF2J+MVR, Badrabad","22.9517451","72.48215119999999","true"
"ChIJU89d2MebXjkRr3uNrQJ3UuA","Hindustan Petroleum Corporation Limited","Survey No 271, B2, Sarkhej-Bavla Road, Chowkdi, Sanathal, Ahmedabad","22.9616801","72.476231","true"
"ChIJOxsfen-RXjkRcKj0GRsQZhA","IndianOil","near Toll Plaza, 200 Feet, Sardar Patel Ring Road, Bakrol, Ahmedabad","22.9351699","72.5210216","true"
"ChIJm28FAt6bXjkRgIYfkU-kXE0","Gujarat Gas CNG Station Sanathal","XF6G+RGC, Circle, Sanathal, Ahmedabad","22.9620587","72.4762628",""
"ChIJj-uPBNmPXjkRpcYYd5CGsFE","Hindustan Petroleum Corporation Limited","Block No 324B, 200 Feet, S, Sardar Patel Ring Road, Bakrol Badrabad","22.9339282","72.5239031","true"
"ChIJT-UdF4GQXjkR2gkN-9nOrTE","Om Gas Agency","XF39+VPJ, near Ujala Chokdi, Sarkhej - Gandhinagar Highway, Ahmedabad","22.9547174","72.469273","true"
"ChIJA6Rc1JSaXjkRJOOQclGdEXI","Nirmal Diesel Service","XFMV+PCX, National Highway 8C, Sarkhej, Ahmedabad","22.984361","72.493605","true"
"ChIJ16Uwz3uRXjkRqWMXDfa0I8E","Hindustan Petroleum Corporation Limited","Survey No 193/Paiki, Sanand, Navapura","22.948478","72.463618","true"
"ChIJuwfnWQCbXjkRRQw842LRs4k","M&H Energy Stop","XFGC+4P, Ahmedabad","22.9752619","72.4718251",""
"ChIJrzsjcMabXjkRqGYWh_B9APo","IndianOil","Ground Floor, near Bhavani Tractors, NH 8A, Road, Sarkhej, Bavla","22.9862817","72.4876274","true"
"ChIJOQu8sMeaXjkRDzKBLqAkG2w","L J THAKKER IOC PETROL PUMP","NH 8, Sarkhej, Ahmedabad","22.9882947","72.5066904","true"
"ChIJB6W-QC6bXjkRQHR3RP91P-s","TA Gas Technology Co.authorised CNG Kit Technical Centre of India","opp. Mamta Complex, F-5 Shanti Complex ,besides Jigar Motors, opp. Mamta Complex, Sarkhej - Sanand Road, Sarkhej-Okaf","22.98687379999999","72.4868068","true"
"ChIJVdF3RrWaXjkR5lL3talNmww","Rumman Gas Service","Shop no 2, near Bahta School, near Hamza Masjid, Fatehwadi, Juhapura, Ahmedabad","22.9864477","72.51961469999999","true"
"ChIJh0kuJwCbXjkRx1Y6CdqVL4Q","CNG SG highway","22, Sarkhej - Gandhinagar Highway, Makarba, Ahmedabad","22.994062","72.4975393",""
"ChIJM_NNXgCbXjkRUB4xh2Si5XY","ROYAL PETROLEUM NAYARA","1, Shantipura Circle, Sardar Patel Ring Road, Ahmedabad","22.9861387","72.4717339",""
"ChIJJ2S3Is2PXjkRZIVe_dS0vZs","IndianOil","Ground Floor, Daskroi Paldi, Dholka - Ahmedabad Highway, Paldi Kankaj","22.9243901","72.53840679999999","true"
"ChIJQSwtj5OQXjkRtGB33TQycQ4","IndianOil","Ground Floor, NH 8A, Sarkhej-Bavla Road, Sarkhej, Changodar","22.93802539999999","72.4557715","true"
"ChIJd02pjZOQXjkRtrzjoguEfyc","GUJARAT GAS STATION","WFQ4+679, National Highway 8A, Changodar","22.93803","72.455732","true"
"ChIJdXF_3yWRXjkRdoElbZG69S4","Nayara Petrol Pump -Fill N Chill Energy Stop -","Changodar","22.9373125","72.4549375","true"
"ChIJgTR3zGSPXjkRAYdLaLsl5C0","Bharat Petroleum Petrol Pump , SHIVGANGA PETROLEUM","KAMOD-PIPLAJ ROADNR, Gaay Circle, SPRR, Ahmedabad","22.9320718","72.54630569999999","true"
"ChIJTzmtccqPXjkRLE4EC6Kr0V8","IndianOil","No 148/B, Mouje Kamod Pirana Circle 200 Feet Ring Road, NH 47, Ahmedabad","22.924721","72.543587","true"
"ChIJnzEgoo-PXjkRksF_XZ5EWRg","IndianOil","Pirana, Aslali Bypass Road, Ahmedabad","22.959534","72.55433699999999","true"
"ChIJ5dSMTpWFXjkRtzcZ8x3pQSA","IndianOil","Survey No 582, Hotel, near Vishala, 3, Shahwadi Road, Vishala, Ahmedabad","22.992001","72.536001","true"
"ChIJU1LYs9OaXjkR1PywevSf5j4","Vijay gas services","4, Shiv Complex, opp. Makarba Road, Shrinand Nagar Part-2, Vejalpur, Ahmedabad","23.0019686","72.5166041","true"
"ChIJQwNuLs6FXjkRkvbLde6fplw","Bharat Petroleum, Petrol Pump -Deepak Automobiles","PALDI, AHMEDABAD, Ahmedabad","22.9959971","72.5373546",""
"ChIJPQANOACbXjkRwH6eDtQQLvc","Bharat Petroleum - Shridhar Petroleum","2F5W+2PH, Karnavati Club Road, Makarba, Ahmedabad","23.00757149999999","72.496856","true"
"ChIJnRNRz82RXjkRau7SbusghME","Shree krishna petroleum","Kasindra","22.8994899","72.4831061","true"
"ChIJrR5FnCKRXjkRN8pa-r-R61c","Essar Petrol Pump","VFXM+P9R, Kasindra","22.8993665","72.4833962","true"
"ChIJsXLdWgCPXjkR196Pk-hqrV4","ADANI CNG STATION","WHF3+RGM, Ahmedabad","22.92457629999999","72.5538031",""
"ChIJ8yyHLrqPXjkR3iGOfXnbfjI","Nayara Petrol Pump - Shree Shesh Petroleum","near centre point hotel, Survey no.420/341 old paldi kankaj, near centre point hotel, Ahmedabad","22.8970924","72.5197984","true"
"ChIJ36Zwvb2RXjkRV3uAlbVcSvo","Reliance Gas","India","22.8933966","72.48884170000001",""
"ChIJkRf2iziaXjkRR9QBTbhHIG8","Ashirvad Petroleum nayara telav","XCPW+QCJ, Survey No. 478, Sarkhej - Sanand Road, Telav","22.9873773","72.4476239","true"
"ChIJ72E6iiqbXjkRPlt1tCBxD_Q","Shree Giriraj Auto Gas Agency","1, Abhilasha Complex, Vejalpur, Railway Station Road, Satellite, Ahmedabad","23.0114775","72.517659","true"
"ChIJQb7YgNWRXjkRdBlMP7Y3hbE","Jio-bp pulse","opposite Divya Dham Ashram, Survey No 12A & 17B Sarkhej Bavla Hwy Road, Changodar, opposite Divya Dham Ashram, Moraiya","22.9243901","72.442484","true"
"ChIJMwbKkMSQXjkRteTfXRrJSqM","Hindustan Petroleum Corporation Limited","Survey No 18, NH 8A, Rajkot - Ahmedabad Highway, Changodar","22.9231801","72.4428401","true"
"ChIJ____v72FXjkR1YhAljlLHMw","Unity Petroleum Co","Opp. P. W. D. Estate, Chandola Talav , Opp. Octroi Naka, Narol Road, Chhipakuva, Ahmedabad","22.9846577","72.5830603","true"
"ChIJ6y6Rw5GFXjkRmDPlVDTjr8w","Rajasthan Petroleum","XHMM+MGF, Shri Hari Saw Mill Comp, Narol Road, Narol Road, opposite Bombay Hotel, Ahmedabad","22.9841832","72.5837901",""
"ChIJGeBkTGCPXjkR7Vt7qwoOJ9k","IndianOil","opposite Transport Nagar, NH 8, Narol Circle, Narolgam, Ahmedabad","22.9703794","72.58908989999999","true"
"ChIJpdWjn_WFXjkR6z_PGc8douU","Jio-bp","Survey No 368, FP No 97 NH 8, Isanpur, Ahmedabad","22.9744878","72.594945","true"
"ChIJsatx1o2FXjkRUf7D_hPvZaI","IndianOil","Ahmedabad Bombay Road, NH 8, Danilimda, Ahmedabad","22.9809923","72.5856124","true"
"ChIJFdZE1paFXjkR4MibL3mu5jg","Bharat Petroleum Petrol Pump","near Chandola, XHRM+25C Narol Road, near Chandola, Lake, Chhipakuva, Ahmedabad","22.9900509","72.58289119999999",""
"ChIJhxjaLaKFXjkRcu1uavt4_XA","Shell","BRTS Corridor, Behrampura, Ahmedabad","22.996258","72.57433","true"
"ChIJE9xIG-aFXjkRyrsux0TAtUM","Shell","Sarjak Avanue, Uttamnagar, Maninagar, Ahmedabad","22.99202499999999","72.60373","true"
"ChIJl6qJ1qSFXjkRZqq40lijWtk","IndianOil","Ground Floor, opposite St Workshop, Behrampura, Ahmedabad","23.0027069","72.5792048","true"
"ChIJySNY6sKFXjkRTC4cD6i2jXI","IndianOil","near, Fire Station, Maninaga, Rambaug, Maninagar, Ahmedabad","22.998413","72.601677","true"
"ChIJS0d9IMSFXjkRXQkmv6931E0","IndianOil","Ground Floor, Besides Apsara Cinema, Kankaria, Ahmedabad","23.0036125","72.5973374","true"
"ChIJ-VbgbASFXjkRYdOBdfq-tjs","IndianOil","Ground Floor, opposite Jain Merchant, Paldi, Ahmedabad","23.0085067","72.560295","true"
"ChIJ182ofVeEXjkR9y48JI9JoVk","Hindustan Petroleum Corporation Limited","Ground Floor, Char Rasta, Paldi, Ahmedabad","23.0121991","72.5637832","true"
"ChIJSZf6uraFXjkRHSimL0iXiZQ","Adani Gas CNG Station","Near, Jamalpur St Road, Jamalpur, Ahmedabad","23.0115436","72.5863791","true"
"ChIJUValAsOFXjkRyHfBurfmaQc","Hindustan Petroleum Corporation Limited","GROUND FLOOR, Maninagar, Ahmedabad","23.0118334","72.60116909999999","true"
"ChIJ6SCv_9iFXjkRId7QyZ-eNlE","Shell","near V-Mart, Anupam Cinema Road, Maninagar, Ahmedabad","23.006492","72.61232","true"
"ChIJtUU2jcqFXjkRh0SLHEnZgac","Hindustan Petroleum Corporation Limited","Ground Floor, near Astodia Gate Circle, Jamalpur St Road, Ahmedabad","23.0167633","72.5927942","true"
"ChIJ8SOr2HeGXjkRQfPrIBXGUkQ","Bharat Petroleum Pump","Opp IBP Petrol Pump, Khokhra Road, Shri Khandubhai Desai Marg, Amraiwadi, Ahmedabad","23.0080351","72.6152316","true"
"ChIJxY3ovk2EXjkRE72SmfEGsN0","Hindustan Petroleum Corporation Limited","Ground Floor, near Victoria Garden, Raikhad, Ahmedabad","23.021638","72.5814101","true"
"ChIJ9yWa0qWPXjkR48JTCLwlniE","Ahmedabad to khatu shyamji","XH3Q+8CM, Khatu","22.9533445","72.58855199999999",""
"ChIJUVWSjDuPXjkRZ1dsi4OMWqs","IndianOil","A Bad, NH-8, Narolgam, Ahmedabad","22.963206","72.590469","true"
"ChIJXRuhom2PXjkRan2hhlQb1-U","Rudrashi a vaghela","XH6R+RJ7, Service Road, Narolgam, Ahmedabad","22.9620389","72.5915593",""
"ChIJHWdz1FyPXjkRDCX4geoaW6U","Bharat Petroleum, Petrol Pump -Krishna Petroleum","Isanpur, Ahmedabad","22.9659461","72.58948029999999","true"
"ChIJkxyOGO6PXjkR1P5G2qsMrXM","Patel Durgeshbhai Auto Fuel","Shoplamba, Lamba Reg Road, Lamba, Lambha, Ahmedabad","22.9351427","72.5872771",""
"ChIJGflFbIiPXjkR2hnY5hawvLw","Yadav Vikash Akhilesh Fuel Pump","Krish Homes 3, Shop, Lamnba, Ahmedabad","22.9351417","72.5872996",""
"ChIJEUpZS2CPXjkRz-1zGLb4BtY","umiya petroleum","Indian Oil Petrol Pump, NH228, 382405, Narolgam, Ahmedabad","22.9704973","72.58857259999999",""
"ChIJfYi5J0ePXjkRFG8gSrPscMw","ર્નસ પેટ્રોલ વોસ","India","22.9530798","72.59822969999999",""
"ChIJMTJCIxqPXjkR_3fYVG-8g8o","IndianOil","200, 132 Feet Ring Road, Dascroi, Lambha, Ahmedabad","22.928434","72.579544","true"
"ChIJL6l5z4iFXjkRbtmJcbBdLcs","M.S. Service Station","India","22.9765755","72.5816526",""
"ChIJJ-slUPaFXjkRZyW174Cq150","IndianOil","near Tax Office, NH 8, Cross Road, Isanpur, Ahmedabad","22.9643655","72.5983112","true"
"ChIJg_vvY_WFXjkRtN05gom05F8","Hindustan Petroleum Corporation Limited","Survey No 385/1, TPS, Kavery Society, Isanpur, Ahmedabad","22.9727701","72.5934201","true"
"ChIJpRa8Y_WFXjkRRXdvsjoEB1E","fuel station","XHFV+69M, Narol - Naroda Road, Isanpur, Ahmedabad","22.9730795","72.5934295",""
"ChIJIUtm33OPXjkRKNw9c_JiAKE","RJ AND SONS BPCL PETROLPUMP","opposite SHREENATH ESTATE, NH 48, NR SP RINGROAD CIRCLE, ON SERVICE ROAD, opposite SHREENATH ESTATE, ROAD, NAROL, Aslali, Ahmedabad","22.9340726","72.5957006","true"
"ChIJRXpWiI-FXjkR_A7Pl9t6UyY","Pinto Petroleum","XHJH+7W5, Chhipakuva, Ahmedabad","22.9806488","72.579846",""
"ChIJH7XxjI-FXjkRErsqYHnSbBY","Power Petroleum","XHJJ+G32, Chhipakuva, Ahmedabad","22.9812674","72.58012939999999",""
"ChIJlQ_g9OyPXjkRN5JRAd4NHWo","Ambica Petroleum","Survey no 771/A/2/3 & 771/A/2/4 Opposite Mamlatdar Office Aslali-Kamod, Sardar Patel Ring Road, Lambha, Ahmedabad","22.9242116","72.5609595","true"
"ChIJuW9KcgCFXjkRHp7rA0gF6n0","JIO PETROL PUMP","XHFV+PXG, Maheccha Society, Rajeswari Society, Isanpur, Ahmedabad","22.9741639","72.5946881",""
"ChIJN9T5rCGPXjkRxeD1YBqs-Pk","Nayara Tirupati Petroleum","WHJV+2G, Lambha, Ahmedabad","22.9298683","72.5939349","true"
"ChIJVXIrHyGPXjkROb0kzP5VtQ0","IBP Petrol Pump","WHJW+37X, Lambha, Ahmedabad","22.930234","72.5957304",""
"ChIJ9XMpapSPXjkRuPbDAiDhi_Q","Ks","WHHW+R64, Lambha, Ahmedabad","22.9295078","72.5955822",""
"ChIJ57YnOrCPXjkRi2xnubchb9s","Huma Petrol Center","Kutbe Alam Society, nr. Vatva, Kenal, Vatva, Ahmedabad","22.9597424","72.6055748",""
"ChIJ7WJmKCGPXjkRGXt-cHv0tjE","Hindustan Petroleum Corporation Limited","survey No 133/B, TP4 & FP15/2, near Aslali Junction, Sardar Patel Ring Road, Ahmedabad","22.9300181","72.5970662","true"
"ChIJ4YhC3JuFXjkRPyOsZ8q21lY","Bharat Petroleum, Petrol Pump -Dharmatar Motor Service","CHANDOLA LAKE, AHMEDABAD, Ahmedabad","22.9826953","72.585318","true"
"ChIJm-WVagCFXjkRFKw04cz4QMA","Ather point","XJG2+CPC, Isanpur, Ahmedabad","22.976056","72.60176249999999",""
"ChIJ--R3L_GFXjkRO1kzbk_4IuI","Ruchi Gases Agency","Bus Stand, Shop No. 9, Anand Shopping Center, opposite Isanpur, Isanpur, Ahmedabad","22.979975","72.5997802","true"
"ChIJnSkK2ZaFXjkRropuULt-rpE","Adani Gas CNG Station","Golden Trader Siniyar Complex, Narol Road, Danilimda, Ahmedabad","22.9899579","72.5830251","true"
"ChIJHb44UEGPXjkR4vSh7gFhDHk","ABC PETROLEUM","SURVEY NO 268 GAMDI JETALPUR CANAL ROAD S P RING ROAD, TO, ASLALI CIRCLE ROAD, ASLALI, Gamdi","22.9306013","72.6085913","true"
"ChIJVVVVFXGGXjkROYTItOOSf-g","Shradha HP Filling Station","41/2/2-1, ARVIND ESTATE PART-2, OPP. Ambica Hotel, B/h. Saraswati Vidhalay, C.T.M, Amraiwadi, Ahmedabad","22.9953537","72.63482619999999",""
"ChIJ8Ro26X-IXjkRoFYf8VCYep8","IndianOil","Toll Naka, Dascroi, near Ramol, Sardar Patel Ring Road, Ahmedabad","22.979502","72.663437","true"
"ChIJSf-n4RSGXjkRs2N2H5utOhk","Hindustan Petroleum Corporation Limited","TP Scheme No 50, Mouje Baug E Firdos, near Naroda Highway, Plot No 58/B, Narol - Naroda Road, Ahmedabad","22.9989542","72.6356299","true"
"ChIJZcgy0HmGXjkRSNubXyS-D2k","IndianOil","Ground Floor Rakhiyal, Amraiwadi, Ahmedabad","23.0108942","72.6186288","true"
"ChIJdUAjAV6GXjkRsAHz5LgX9gE","IndianOil","near Geeta Gauri Cinema, Main Road, Odhav, Ahmedabad","23.01847799999999","72.639038","true"
"ChIJCelNIW6JXjkRGNa28_G63V8","Bapa sitaram bio diesel","WJWW+GXG, Vinoba Bhave Nagar, Vinzol, Ahmedabad","22.9463145","72.64745479999999",""
"ChIJK3ZxG_OIXjkRdfFQtl3osrM","Bharat Petroleum","India","22.9545767","72.6539872",""
"ChIJNdyankyJXjkRHi_RPObRRFY","SHIVAM FUEL CENTER","XM33+XM3, Hathijan Circle, Vinzol, Ahmedabad","22.9548958","72.654162","true"
"ChIJC__WAwCJXjkRhcZnOjQV9Nk","SHREE KHODIYAR PETROLEUM","503, Lal Gebi Circle, Vinzol, Ahmedabad","22.95492849999999","72.6553787","true"
"ChIJ37keb_OIXjkRF6LCVgaQafA","Nayara Petrol Pump - Shree Khodiyar Petroleum","near Viva farm, Lal Gebi Circle, Vinzol, Hathijan","22.9548865","72.6553878","true"
"ChIJ5Zx6niuJXjkRs6H8OkWjt-0","Adani Gas CNG Station","XM44+36P, Ahmedabad","22.9552107","72.65558089999999","true"
"ChIJORrunwiJXjkRCebk05vTK7c","IndianOil","No 504, AGIDC, Phase IV, Ahmedabad","22.971001","72.641001","true"
"ChIJIX6vzdmJXjkR9NoYNexu-ww","PC PETROLEUM-NAYARA PETROLPUMP","Ropda, Sardar Patel Ring Rd, Vatva, Ahmedabad","22.9367422","72.6270914","true"
"ChIJNUROe5-IXjkRjTzObPJW4Mc","Adani Gas CNG Station","XJFQ+RJ4, Vatva GIDC, Ahmedabad","22.9745141","72.6390759","true"
"ChIJ6bn-XUSCXjkRV_7iS9hJA70","IndianOil","Plot No 635/B, Gidc, Phase 4, Vatva, Ahmedabad","22.97458079999999","72.6389978","true"
"ChIJC658BQCJXjkRwzGyMIIhKPM","Unique Petrol Pump","XJFQ+WQF, Phase IV, Vatva GIDC, Ahmedabad","22.9746757","72.63923419999999",""
"ChIJ44nW7yyJXjkRXvTCTQigxac","IndianOil","Ground Floor, Vatva, Ahmedabad","22.936068","72.6245254","true"
"ChIJ85y1uHKHXjkR42ON8rXhv4M","Parth Petro Station","Near Nirmal sarovar, Sardar Patel Ring Road, Vatva, Ahmedabad","22.93561009999999","72.6239164","true"
"ChIJzeyNXgCJXjkRWnovbT2qpHs","Rakesh Kumar Kayastha","Chitrakoot society, opp. Hariraj society, 16/A, pandiya road, p d, Vatva, Ahmedabad","22.9664196","72.6159612",""
"ChIJt-JxBCePXjkRMVZoDcZkiu8","Rakesh Kayastha","Chitrakut society vibhag 2, opp. Hariraj society P d, PD Pandya College Road, Vatva, Ahmedabad","22.9690504","72.6148256","true"
"ChIJJZOPKteIXjkRfRM53uWDp5w","IndianOil","Survey No 183, FP No 105, 200 Ft, Sardar Patel Ring Road, Daskroi, Vatva, Ahmedabad","22.9324158","72.6155077","true"
"ChIJfwQXdHuIXjkRIUEQGISfzLQ","Adani Gas Limited - CGS","XMC9+XQQ","22.972452","72.6694981",""
"ChIJKz57riqHXjkRYHmzbNZvZpE","Hindustan Petroleum Corporation Limited","Survey No 624/3, Ramol, Ahmedabad","22.9842601","72.6518201","true"
"ChIJDctyspiJXjkR4JEGQubmrrw","રામોલ ટુલ બુથ પાસે, સર્વે નંબર ૮૨/૫.","XMJ7+425, Ramol, Ahmedabad","22.9802735","72.6625979",""
"ChIJxVpWWxaHXjkRhBxdpTy5sQ4","K.G.N NAGAR OPPOSITE PAPER MILL JANTANAGAR RAMOL","opposite paper mill, K.g, Ramol - Janta Nagar Road, n nagar, Ahmedabad","22.9851633","72.65178399999999",""
"ChIJfUY5SiqPXjkRlk1AGmcg7jc","Bharat Petroleum","India","22.9312891","72.6108007",""
"ChIJRe6JDwCHXjkRWLkxJnFXtwY","Petrol Pump","opp. Hanuman Temple, New Maninagar Cross Road, CTM - Ramol Road, Ahmedabad","22.9879091","72.64444809999999",""
"ChIJY__QF7-PXjkRomOuAz5fc5U","MK Petrolium (BPCL Pump)","Ashlali-vatva ring road vatva gam Ashlali, ring road, Vatva, Ahmedabad","22.931233","72.6103754","true"
"ChIJ14seeYqHXjkRqVszJsAmp-g","Nayara Petrol pump","800, Janta Nagar, Ahmedabad","22.9883743","72.6453181",""
"ChIJx5a-3faHXjkRy13PGdFifPY","Shell Petrol Pump","Narol - Naroda Road, Ahmedabad","22.987129","72.626876","true"
"ChIJL2P1QACJXjkRyFmJJJBRbtQ","Jai Ambe gash Goadawn","XM3P+7PP, Daskroi, Ahmedabad","22.953204","72.6868293",""
"ChIJMVVgfleGXjkRAJtkU6zdf2k","IndianOil","NH 8, Cross Road, Isanpur, Ahmedabad","22.9796942","72.6056594","true"
"ChIJpwlavkiJXjkRIj3Q0rlJhzc","Parmeshwar Petroleum","Memdabad, Dakor Road, Vanch","22.9291551","72.6854803","true"
"ChIJkTpvIcyEXjkRgi4WumZjeAE","Be Queen Boatique","2GGG+QCX, GROUND FLOOR, opposite Bharat Petroleum Petrol Pump , GANESH PETROLEUM, Jodhpur Char Rasta, Ahmedabad","23.026976","72.52609799999999",""
"ChIJK5A36UybXjkR1CGTixgYpBc","IndianOil","Ground Floor, near Judges Bunglow Road, Bodakdev, Ahmedabad","23.04119949999999","72.5186922","true"
"ChIJeXQRnxKbXjkRuRoXRbEMNwc","Shell","Taluka Dascroi, Ambli Road, Ahmedabad","23.028103","72.48526","true"
"ChIJt8ru_EmbXjkRgvNqqlPMSm0","Hindustan Petroleum Corporation Limited","near Satyagrah Chhavni, Plot No 31, Bodakdev, Ahmedabad","23.0331629","72.5139068","true"
"ChIJA_c2SkmbXjkRcg7F2ayvoSM","Bharat Petroleum - Shraddha Petroleum","near Judges Bungalow Road, Premchandnagar Road, near Judges Bungalow Road, Bodakdev, Ahmedabad","23.0382953","72.5133816","true"
"ChIJPf0-0M-EXjkRvobYTllauDo","Hindustan Petroleum Corporation Limited","Ground Floor, 132 Feet Ring Road, Satellite, Jodhpur","23.0237242","72.5299447","true"
"ChIJa1lhZXWbXjkRdDQp4f9Cs7g","Hindustan Petroleum Corporation Limited","Survey No 61, near Sardar Patel Ring Road, 67/60, Bopal, Ahmedabad","23.0304051","72.4738759","true"
"ChIJsSeNWbaEXjkRidQm2JtIV8Q","Bharat petroleum","लेक, opposite Vastrapur Road, Sargam Marg, Mahavir Nagar society, Vastrapur, Ahmedabad","23.0371599","72.52852090000002","true"
"ChIJg7ion72EXjkRJwFUZ2Ow0O4","Adani Gas CNG Station","2GVV+V4M, near Helmet Cross Road, Drive In Road, University Area, Ahmedabad","23.0447022","72.5428101","true"
"ChIJX9zpcVObXjkRaHO0MdLfFtw","132KV Torrent Power substation","A-206, Drive In Road, Patel Society, Jai Ambe Nagar, Thaltej, Ahmedabad","23.0497193","72.5182018",""
"ChIJ3x9sQqicXjkRf8L0sYkwkXs","Shell","opp. to Narayanan Palace, 4, Zydus Hospital Road, Ahmedabad","23.057472","72.51019","true"
"ChIJJ7a1XbuEXjkRSB4bCYz4dso","IndianOil","Survey No 107, near TVS showroom, 1/2, IOC Petrolium, Memnagar, Ahmedabad","23.0461317","72.53884029999999","true"
"ChIJg8BObeaEXjkRhux8b9HuCLg","IndianOil","Ground Floor, near Old Goverment Polytechnic College, Ambawadi, Ahmedabad","23.0239975","72.5490092","true"
"ChIJF5sasE2DXjkRpji8JReSeEo","Bharat Petroleum, Petrol Pump -Mody Service Centre","GHATLODIA, AHMEDABAD, Ahmedabad","23.0623216","72.5308633","true"
"ChIJBeW-tKGEXjkR1EpMdk78MOA","IndianOil","Ground Floor, Sola Road, Memnagar, Ahmedabad","23.056253","72.542389","true"
"ChIJtSPeUVeDXjkRINRcfcgECKY","HP MS/HSD HP COMCO SOLA ROAD","B-1, Sola Rd, Tulsi Bunglows, Thaltej, Ahmedabad","23.0631194","72.53171979999999","true"
"ChIJ74fXt6uIXjkRpGle8DRzq5M","Taiyo Solar","501 Vrundavan Enclave Near Reliance Petrol Pump, Ahmedabad","23.03846829999999","72.5540506","true"
"ChIJw0OwxZ6EXjkR3ihd2rbKpig","Shell","132 Feet Ring Road, Ahmedabad","23.05496","72.54808","true"
"ChIJt4YzPJCEXjkRrf8_rMdurbw","IndianOil","near Darpan Circle, 6th, Vijay Cross Road, Ahmedabad","23.0474666","72.5550901","true"
"ChIJh2BKpI6EXjkRWIoSQM_53QM","IndianOil","Ground Floor, near SARDAR PATEL STADIUM, Saint Xavier's School Road, Navrangpura, Ahmedabad","23.0445025","72.5609958","true"
"ChIJ58y7GhuDXjkRtn4A6fbjrAU","Bharat Petrol Pump","Gaurav Path, Shastrinagar, Nirnay Nagar, Ahmedabad","23.06440449999999","72.5485655","true"
"ChIJq3sp8ViEXjkR_OPxshKVw-I","Bharat Petroleum","behind Karaka Building, Ashram Road, Muslim Society, Navrangpura, Ahmedabad","23.03102720000001","72.56982359999999","true"
"ChIJdbrNMmOEXjkRTIJL9RxXJoQ","Bharat Petroleum, Petrol Pump -Sir Arvind Petroleum","USMANPURA, AHMEDABAD, Ahmedabad","23.050957","72.5716441","true"
"ChIJqarYxG-DXjkRg_8LTPJ4cbg","Hindustan Petroleum Corporation Limited","near Deshwali Society, FP No 247, KK Nagar Road, Ghatlodiya, Ahmedabad","23.074187","72.554932","true"
"ChIJs52SbZiEXjkRvfdjjez2Hi0","IndianOil","near Pujya Ravi Shankar Maharaj Fly Overbridge, Survey No 192/2, 132 Feet Ring Road Sola, near Pujya Ravi Shankar Maharaj Fly Overbridge, Cross Road, Memnagar, Ahmedabad","23.0496884","72.54503009999999","true"
"ChIJKS0IOnWbXjkRftYZXfYDg30","IndianOil","Block No 303, Ambli - Bopal Road, Ahmedabad","23.0293065","72.4749805","true"
"ChIJv1VO9wubXjkRf8nA3MEyO4w","Vasuki Group-Logistics Company/Petroleum/Cement/Best Coal Supplier in Ahmedabad","20th, Privilon, nr. Iskcon Cross Road, A - 2007, Ambli - Bopal Road, Ahmedabad","23.027857","72.5055187","true"
"ChIJa_1lKrmbXjkRpPFMOrjhe_A","ZS Motors","Surya Nagar, Satellite, Ahmedabad","23.0317977","72.5117344",""
"ChIJpWn4tOubXjkRNmOp7B1P1iI","Nayara Petrol Pump - Yashkalgi Petroleum","opp. Shilp Epitome, behind Rajpath Rangoli Road, Ahmedabad","23.0359446","72.5036908","true"
"ChIJvc1wb4abXjkR27Iw1ft1yO8","JP ENERGY","Plot No 46, 5, Billionaire Street, Bodakdev, Ahmedabad","23.0370964","72.4947801","true"
"ChIJbXUujmmbXjkRKvnwqpBw6og","NAYARA","2FPV+VWM, Chhanalal Joshi Marg, PRL Colony, Thaltej, Ahmedabad","23.0372203","72.4948086",""
"ChIJ7U4ilrqbXjkRpWecCI01kgw","Hindustan Petroleum Corporation Limited","Scheme 4, Town Planning, Plot No 192, Jodhpur Village, Ahmedabad","23.0177947","72.51875629999999","true"
"ChIJCxHFVgCbXjkR9S1MQrJZOvQ","Bharat Petroleum - Shree Jahu Petroleum","2FVX+26M, Taste temple Hebatpur, Sindhu Bhavan Marg, PRL Colony, Thaltej, Ahmedabad","23.0425509","72.4980507","true"
"ChIJx_zLOoObXjkRY630zwYGn1k","IndianOil","Ground Floor, Sarkhej - Gandhinagar Highway, Bodakdev, Ahmedabad","23.04129069999999","72.5125992","true"
"ChIJpSwEYQCbXjkRpFQ8xvOg3-M","Hindustan Petroleum Corporation Limited","TP No 204, FP No 367, Vejalpur, Ahmedabad","23.0149893","72.4792334","true"
"ChIJze9ONgCbXjkRqjKN_PI5mms","SHREE VISAT PETROLEUM","2F7H+WJ3, SOBO Center Road, South Bopal, Bopal, Ahmedabad","23.0147514","72.479055",""
"ChIJrd2W97WFXjkRJNH5519h_iE","IndianOil","Ground Floor, near Sachin Tower, 100 Feet Anand Nagar Road, Vejalpur, Ahmedabad","23.01302699999999","72.523872","true"
"ChIJM-olFwubXjkRExo3wOZFPE4","Avani Group-Committed to Quality , Service & Solutions","Amrapali Axiom Office no 34, 2nd Floor Bopal, Junction, Sardar Patel Ring Road, Ambli, Ahmedabad","23.0270008","72.4770748","true"
"ChIJXbYlMQubXjkRDV1yCw2I4NA","Eptech Petroleum Pvt Ltd","160/2, Sardar Patel Ring Road, Naroda, Ahmedabad","23.0282663","72.4771631",""
"ChIJlwQCd3SbXjkRsrr-g27Wr6k","IndianOil","near Bopal, SP Ring Road, near Bopal, Junction, Ambli, Ahmedabad","23.032814","72.479004","true"
"ChIJtwP7b_GFXjkRfDE3SXSikmc","Bharat Petroleum Petrol Pump , GANESH PETROLEUM","NEAR, Jodhpur Char Rasta, TEKRA, Ahmedabad","23.0266496","72.526073","true"
"ChIJheppT8qEXjkRm-v6Kzm-WUI","Hindustan Petroleum Corporation Limited","TPS No 1, Plot No 42/3, Vastrapur, Ahmedabad","23.0320082","72.5244362",""
"ChIJteKCO7ubXjkRK2-XtJpnCIA","UMA FUEL SPOT","Near, Vakil Saheb Bridge, Ahmedabad","23.0327242","72.47868919999999","true"
"ChIJvzX3HQCbXjkRg5---x8cnxI","Bharat nagar Bhavnagar","9, Axiom-2, near ISCON PLATINUM, Sardar Patel Ring Road, Bopal","23.031368","72.47755200000002",""
"ChIJXdgqNUSEXjkRg95o1zj2pHM","Adani Gas CNG Station","2HJM+WM5, Mirzapur Road, Mirzapur, Bhadra, Ahmedabad","23.0322562","72.58422709999999",""
"ChIJ53aK4DaEXjkRd4zlUZnONug","Hindustan Petroleum Corporation Limited","Ground Floor, nr. Zakariya Street, near Masjid Road, Ahmedabad","23.02745699999999","72.595914","true"
"ChIJM2vaX12EXjkRmin18sV0jvM","Bharat Petroleum Petrol Pump , VATSAL PETROLEUM","Shahpur, Ahmedabad","23.0401564","72.5781921","true"
"ChIJkdfFXySEXjkREYguK0wqckc","Bharat Petrol Pump","2JP4+CGX, Nutan Mill Road, Asarwa, Saraspur, Ahmedabad","23.0361194","72.606369",""
"ChIJnZw73k6EXjkRRB7me99SNvQ","HP PETROL PUMP NEW RELIEF SERVICE STATION","H P, Petrol Pump, Relief Road, Patthar Kuva, Ahmedabad","23.026258","72.5841453","true"
"ChIJMZjrykWEXjkRPyz65NrAZSY","Bharat Petroleum - Auto Services","2HJM+WM5, nr rani rupmati masque nr, Mirzapur Road, Mirzapur, Bhadra, Ahmedabad","23.0322277","72.5842059","true"
"ChIJky1TkkKEXjkRtoMmVLtYg1g","J Rasiklal And Company","2HQJ+QM6, Outside Shapur Gate, Ahmedabad","23.03940660000001","72.58164169999999","true"
"ChIJvQbSQEKEXjkRrS8YOdtBQAk","Hindustan Petroleum Corporation Limited","FP No 109 to 112, opposite Halimkhadki, Plot No 3, Shahpur, Ahmedabad","23.036466","72.586816","true"
"ChIJM-jSTECEXjkRpwtaxEjD5sc","Bharat Petroleum","near Delhi Gate, Shahibaug Road, Hatisingwadi, Bardolpura, Madhupura, Ahmedabad","23.039451","72.5885105","true"
"ChIJCyM2gGqEXjkRuqVaNjosASg","Hindustan Petroleum Corporation Limited","Ground Floor, Shahibaug Road, Ahmedabad","23.0414769","72.5887274","true"
"ChIJ_7TpkS-EXjkRdJmN2USRgXw","IndianOil","FP No 81, Tps No 16 Shaherkotda, Saraspur, Ahmedabad","23.031097","72.605255","true"
"ChIJFUsKXG2EXjkRmrASBwKAncg","Bharat Petroleum","Near Shahibuag Underbridge, Doctor Ambedkar Road, Dudheshwar, Ahmedabad","23.0526861","72.5903415","true"
"ChIJVfCJMCiEXjkRBOTjh4bpYo4","IndianOil","Near, Milan Everest Cinema Road, Krishna Nagar, Saraspur, Ahmedabad","23.0305456","72.61418929999999","true"
"ChIJDeM6CiGEXjkRYDtxNb9fWdA","Hindustan Petroleum Corporation Limited","Ground Floor, Naroda Road, Ahmedabad","23.0409101","72.6109101","true"
"ChIJ9YGxSIKGXjkRIlA379xD4ME","IndianOil","Ground Floor, near Hindihigh School, Bapunagar, Ahmedabad","23.0290243","72.61710649999999","true"
"ChIJZ1Hlg4CGXjkRA-KL9oc5jB4","IndianOil","Ground Floor, Rakhial Road, Gomtipur, Ahmedabad","23.022032","72.618484","true"
"ChIJq6qq6o-GXjkRK_MMgxZOBw0","Ambica Pumps","42/43, Kamdar Industrial Estate, Bapu Nagar, Opposite Stadium;nr Panna Estate, Bapu Nagar, Ahmedabad","23.0329223","72.6284105",""
"ChIJRytTzaOGXjkR76FamKcBIdI","Shell","Naroda Road, D Colony, Ahmedabad","23.04803099999999","72.6218","true"
"ChIJ3_Y525CGXjkRKR3T52wun8o","Omkar Motors Vipulbhai","Swaminarayan Temple India colony, Bapunagar, Ahmedabad","23.0392792","72.6292074",""
"ChIJZxIXPsaGXjkRftnRsK26_wA","Adani Gas CNG Station","11, Sardar Road, Krishnanagar, Ahmedabad","23.0579494","72.64321919999999","true"
"ChIJgVpWgOqGXjkRL-WNviZwulw","Har Siddhi Service Station","2JWR+VMJ, Thakkarbapanagar, Ahmedabad","23.0472085","72.64162639999999",""
"ChIJS3xbtbuGXjkRWSSiNDxP1QE","IndianOil","Ground Floor, near Anand sugical hospitalc, Naroda Road, Memco, Ahmedabad","23.0545781","72.6313323","true"
"ChIJMYzMmKOGXjkRacjod2EXmHQ","Hindustan Petroleum Corporation Limited","Ground Floor, opposite Vijay Mills, Naroda, Ahmedabad","23.049978","72.6235927","true"
"ChIJO2Kij8yGXjkRWrgQvf2Ihsc","IndianOil","Ground Floor, Naroda - Dehgam Road, Saijpur Bogha, Bilasiya","23.0686123","72.6455063","true"
"ChIJyRPR5cyGXjkRWpH3mZGcWHI","Hindustan Petroleum Corporation Limited","Ground Floor, Naroda Road, Saijpur Bogha, Ahmedabad","23.0691901","72.64702009999999","true"
"ChIJ9YMjrtaAXjkRc5EbqyG6hoM","Hindustan Petroleum Corporation Limited","P, FP No 75/1, Survey No, 516/2, Naroda - Dehgam Road, Naroda, Ahmedabad","23.0798301","72.6678501","true"
"ChIJG0FrXD6EXjkRL-pHSOVPu6o","IndianOil","opposite Dariyapur Gate, Idgah Chowk, Bardolpura, Dariyapur, Ahmedabad","23.0396929","72.5956001","true"
"ChIJGeYSW86FXjkRvrakFcWpIp0","Bharat Petroleum","2J62+RCJ, Sher Kotda Road, Kankaria, Sherkotda, Ahmedabad","23.0120972","72.6010072","true"
"ChIJD1aP5YqGXjkR40jAHtOpdF8","Maruti Automobile & Service Station","India","23.0259793","72.6367838",""
"ChIJjTKnpQWHXjkR2Qs1PS4lCNY","Distv","C2, Virat Nagar, Odhav, Ahmedabad","23.0269321","72.645422",""
"ChIJR_numHaHXjkRCXl-n4elAOM","Indian Gas","Viratnagar Road, Virat Nagar, Odhav, Ahmedabad","23.0261696","72.636389",""
"ChIJbxvc9FmGXjkRIRrnE1XoxQ8","Radhe Gas Agency","2J9X+VM4, Rabari Vasahat, Rabari Colony, Odhav, Ahmedabad","23.0196335","72.64919019999999","true"
"ChIJDWMEY-SHXjkR6Td_IMkm4HQ","Bharat Petroleum, Petrol Pump - Neelu Motors","VIRATNAGAR, AHMEDABAD","23.0303204","72.639459","true"
"ChIJAV2Ekv6GXjkR907uS_gm1yc","Patel Auto Gas","8, Virat Nagar Road, Virat Nagar, Ahmedabad","23.0305049","72.63939230000001","true"
"ChIJ____vwCHXjkRNQUwtNzhR5A","Auto Pump Mfg. Co.","L-448, G I D C Industrial Estate, Near State Bank Of India, Odhav, G I D C Industrial Estate, Ahmedabad","23.0214285","72.65083539999999",""
"ChIJ69OLSPOGXjkR_bQXF-CbaUM","Yogiraj Petroleum","Jay Shree Estate, Near Narayan Nagar,National Highway.8,Odhav, Rehmat Nagar, Ahmedabad","23.0311025","72.639438","true"
"ChIJLQqE3SSDXjkRyLUc-V5Lb9A","IndianOil","Ground Floor, Gota, Ahmedabad","23.094398","72.535843","true"
"ChIJwelBibOCXjkRN6X6pPvIiig","Hindustan Petroleum Corporation Limited","Survey No 185, opposite green wood, 2/200, Sardar Patel Ring Road, Ahmedabad","23.1323101","72.524475","true"
"ChIJ1Uo3jAWDXjkRcZv4IjK69RA","Adani Gas CNG Station","a 302, Chenpur Road, New Ranip, Ranip","23.0961429","72.56011649999999","true"
"ChIJmTOWOOuDXjkRyhPCrH8FHZQ","Hindustan Petroleum Corporation Limited","Ground Floor, near Octroi Naka, Sabarmati, Ahmedabad","23.0802532","72.57647949999999","true"
"ChIJTyrRDeecXjkRI5xFZZYF_6M","Bharat Petroleum","India","23.0918306","72.4949941",""
"ChIJIWSCTNGdXjkR7I0y2zpg7pE","Radhey Petroleum","opp. babyloan club, near bhadaj, circal, Ahmedabad","23.0918216","72.49473669999999","true"
"ChIJj_sH1-ecXjkRbU9cPrP7HtU","Hindustan Petroleum Corporation Limited","Circle, near Science City, FP No 398 200 Ft, Sardar Patel Ring Road, Bhadaj","23.088501","72.4944601","true"
"ChIJ75pLYtKdXjkRaguHNGlXN0s","M-Keshav Projects llp( Nayara Petrol Pump)","opposite Sahjanand Crystal, Sub Plot- 122/1/2 , TP-41(sola-Hebatpur, opposite Sahjanand Crystal, Science City, Sola, Ahmedabad","23.0815288","72.5032137",""
"ChIJSRSkDn2dXjkRCk69nxo1oYc","Shell Petrol Pump","Science City Rd, Situated A, Taluka, Ghatlodia, Ahmedabad","23.0794568","72.50059329999999","true"
"ChIJHReLPLKdXjkRn2JmV1s0Rbg","IndianOil","Ghatlodia, Bhadaj","23.0876984","72.48732079999999","true"
"ChIJMY9R3pKdXjkRcQZxgX_PIAU","NAYARA PETROL PUMP - SADHI PETROLEUM","Survey No.:1266, F.P No.:567, near Gopi Farm, Sardar Patel Ring Road, Circle, Ognaj, Bhadaj","23.1113811","72.5026133","true"
"ChIJOdfe8wKdXjkRPd3ufBty46Y","IndianOil","Rakanpur Char rasta Ta kalol Dist","23.1003707","72.4822648","true"
"ChIJ7X8yW8GdXjkRsUDok22LopA","Adani Gas CNG Station","4G73+GPH, NH147, Ognaj, Ahmedabad","23.1138029","72.504346","true"
"ChIJjWnZodmdXjkRs9iqAGaQlZE","Bharat Petroleum Petrol Pump , ALKA AUTOMOBILES (OGNAJ)","4G73+GPH, nr. Bharat Petroleum Pump, NH147, Ognaj, Ahmedabad","23.1138476","72.5042101","true"
"ChIJd-X45ICdXjkR-PBgJVWmCX0","Maruti Petroleum (Nayara Petrol Pump)","SB No- 01, FP-273, TP-151, Super City Road, Rakanpur","23.0937865","72.4756012",""
"ChIJjX32HOqDXjkR-NwoaH_-9fI","IndianOil","Survery No 1451/1 SP Ring Road, Ognaj, Gota, Near, Ognaj Circle, Ahmedabad","23.1167894","72.5054511","true"
"ChIJOSoISxODXjkRDiTV1_emUlM","Hindustan Petroleum Corporation Limited","RS No 698/2, opposite Vasantnagar, Ognaj - Vadsar Road, Gota, Ahmedabad","23.107045","72.523493","true"
"ChIJye77GtaCXjkRddv2o86bcaA","SHREE AMBICA FABRICATION ASD AUTOMATION","India","23.1041334","72.5272956",""
"ChIJq6qqqt2CXjkRZdjqzSCD224","IndianOil","SG Highway, Daskori, Ognaj - Gota Road, Ahmedabad","23.095","72.53009999999999","true"
"ChIJVSNGc9aCXjkRcewuu05b8aw","ગાયત્રી ઓટોસેન્ટર","4G4G+2P5, Gota Housing Road, Vasant Nagar, Ognaj, Ahmedabad","23.105003","72.52684459999999",""
"ChIJydWhLQCDXjkRGHgSFUKqmqE","Shri Ram PUC center","3GGF+PR3, Sola, Ahmedabad","23.0766742","72.5246338",""
"ChIJP-pqtkuDXjkRvE5SlOd8rcA","Kargil Petrol Pump SG Highway","Sarkhej - Gandhinagar Highway, Sola, Ahmedabad","23.0768656","72.5248666","true"
"ChIJ85E9hTuDXjkRqWf9982GtMc","Shell Petrol Pump","Taluka- Ghatlodia, Ognaj - Gota Road, Ahmedabad","23.101682","72.528817","true"
"ChIJWYFtOC-DXjkR8cgtAKCLbQ0","Adani Gas CNG Station","3GXJ+293, Sarkhej - Gandhinagar Highway, Vasant Nagar, Ognaj, Ahmedabad","23.0975221","72.5309101","true"
"ChIJQ-ok0SSDXjkRfXP0_anxL5E","GP Petroleum","opposite Satyamev Vista, Gota, Ahmedabad","23.1011079","72.53416250000001","true"
"ChIJkdzpEyKdXjkRzv7f5pOuvkw","KHODIYAR PETROLEUM","OGNAJ CIRCLE, Sardar Patel Ring Road, Ognaj, Ahmedabad","23.1229351","72.50983219999999","true"
"ChIJEezYPwCDXjkRG_S1bhvuv-E","Nayara Petrol Pump","near Western Glory Lane, Opp Satyamev Vista, Gota Main Road, near Western Glory Lane, opp. Satyamev Vista, Sarkhej - Gandhinagar Highway, Gota, Ahmedabad","23.1000744","72.53478799999999","true"
"ChIJQfPUXaidXjkRRnpJtFI67b4","Gayatrikrupa Petro BPCL","devam industrial estate, Santej","23.1070344","72.4704752","true"
"ChIJiYQZfDiDXjkRTI_6mBe-SpM","IndianOil","Ground Floor, Chandlodiya Road, Chanakyapuri, Ahmedabad","23.0818","72.5349","true"
"ChIJrdY2KDYjWjkRzD_s6c7wUBI","Reliance Petroleum","SURVEY NO.186/1, CHO, GHANSHYAM PETROLEUM, SH- 03, Santej - Khatraj Road, KHATREJ, AHMEDABAD","23.108868","72.4693972","true"
"ChIJY6crEQCDXjkRkN6kzPjlhng","Bharat Petroleum - Samrudh Petroleum","3GXQ+MG4, Water Tank Road, Gota, Ahmedabad","23.09913569999999","72.5388261","true"
"ChIJ_34aS9qCXjkR-bXHyLcs1rQ","Shell Petrol Pump","Jagatpur Road, Ahmedabad","23.111855","72.53522","true"
"ChIJrwnT2qyDXjkRmUwLU0l-rDE","HP Petrol Pump - Millennium Gota","Devnagar Gam Road, Gota, Ahmedabad","23.1037897","72.53994999999999","true"
"ChIJ4V5uF_uDXjkRb_7AlUzvaQg","Hindustan Petroleum Corporation Limited","S No 32, FP No 165, Ghatlodiya, Gota, Ahmedabad","23.103911","72.539991","true"
"ChIJURD_oX6DXjkR6ajw4Gb9sEk","Shell","Jagatpur Road, Jagatpur Village, Gota, Ahmedabad","23.114502","72.537683","true"
"ChIJywnQVH-DXjkRL9wFUXgErtw","AMI PETROLEUM","near D MART, NAYARA PETROL PUMP, near D MART, opposite Kotak Bank, NR Vandematram Cross Road, Ahmedabad","23.0924302","72.5452985","true"
"ChIJEemeuxGDXjkRBFriY-nm2-c","Hindustan Petroleum Corporation Limited","Ground Floor, near Sattadhar Cross Road, Sola Road, Char Rasta, Ghatlodiya, Ahmedabad","23.0631194","72.53171979999999","true"
"ChIJgxVE1rGcXjkRSJsUFRNmR5U","Modi Service Petroleum","Bpcl Petrol Pump, Thaltej, Near Manthan Apatment Opposite Sun N Step Club, Ahmedabad","23.06901","72.539261",""
"ChIJz_oTwxuDXjkRviRNBaXN4yE","Nayara Petrol pump","Momay Nagar, Gayatri Nagar, Chandlodiya, Ahmedabad","23.0858054","72.5481276","true"
"ChIJP9G4jHKdXjkREI2iFCR_ofU","Hindustan Petroleum Corporation Limited","opposite Umiya Mataji Mandir, Survey No 581/A, FP No 2, TP 405 Shilaj Rancharda, opposite Umiya Mataji Mandir, Road, Shilaj","23.0537342","72.4774249","true"
"ChIJs4fT8BODXjkRaFJGomvjZRs","શ્રી ઓઇલ ડેન","India","23.0880573","72.5504938",""
"ChIJfbvrvVyDXjkRo_vZfuio5rk","Navin Gas Service","Shivam Complex, G-12, Bhuyangdev Cross Road, Char Rasta, Ghatlodiya, Ahmedabad","23.0599731","72.53651599999999","true"
"ChIJv_FPkr-DXjkRXRy8LbcDs_4","Agarwal Automobiles Bharat Petroleum","Opposite, Sona Cross Road, Ram Nagar, Sabarmati, Ahmedabad","23.0893556","72.5904515","true"
"ChIJU2JpSbiDXjkRBbAr42baAZ4","Gujarat Gas CNG Station","3HWQ+WJR, Parvati Nagar, Acher, Ahmedabad","23.0973565","72.5890096",""
"ChIJT0QA8L-DXjkR7k154m1BzMc","Hindustan Petroleum Corporation Limited","Ground Floor, State Highway, Sabarmati, Ahmedabad","23.0884501","72.5907301","true"
"ChIJg79O3dGDXjkRpW10OFbZlSM","Hindustan Petroleum Corporation Limited","Ground Floor, Sabarmati, near Kiran Motors, Motera, Ahmedabad","23.1088511","72.6051401","true"
"ChIJ9752N26BXjkR4cNidBF0iKE","IndianOil","near Raj Farm, Ground Floor Bhat, Gandhinagar, Chandkheda near, near Raj Farm, Bhat, Ahmedabad","23.1024969","72.6305627","true"
"ChIJe4gsv3GBXjkRxo285iJLfQA","Hindustan Petroleum Corporation Limited","Survey No 53/B, Airport Road, Bhat, Gandhinagar","23.105391","72.63102099999999","true"
"ChIJlS8kxHyDXjkReErTRG7VORM","Adani Gas CNG Station","Pragati Nagar garden Naranpura, 132 Feet Ring Road, वासना टेलीफोन एक्सचेंज, Pragatinagar, Naranpura, Ahmedabad","23.0648085","72.5570293","true"
"ChIJ9V21NlaDXjkRfhy81jBBcRE","IndianOil","Chenpur Road, Chainpur, Ahmedabad","23.0962","72.56009999999999","true"
"ChIJe1arnMODXjkR3sj13m0FwqE","Hindustan Petroleum Corporation Limited","Final Plot No 100, Town Planning Scheme 19, Kali Road, Chandkheda, Ahmedabad","23.1040198","72.57597659999999","true"
"ChIJm67PG_uDXjkRCY7uTxxuLQ8","HP Petrol Pump","3 4, ONGC Colony, Chandkheda, Ahmedabad","23.104056","72.5761198",""
"ChIJkYBmtw2DXjkRUSvQ4_BgUa4","Shiv Gas Service","ARYA VILLA, 56, Society, New Ranip, Ahmedabad","23.088211","72.55834","true"
"ChIJU2JpSbiDXjkRPngf4Dz6OYk","IndianOil","Ground Floor, Parvati Nagar, Motera, Ahmedabad","23.097347","72.589058","true"
"ChIJR4STL5WDXjkRZ5I5ZyhXVYw","Sabarmati Tubewell Station","3HPR+692, Ambica Nagar, Sabarmati, Ahmedabad","23.0855125","72.590884",""
"ChIJzSsjn9SDXjkRflV2hhAXGVw","IndianOil","Survey No 113/1, Chenpur Road, Jagatpur, Ahmedabad","23.1049484","72.5545513","true"
"ChIJ8SoF3cCDXjkRXrUwcbF1wrw","CNG Station","3HVV+2G8, visat petrol pump, Ahmedabad","23.0925373","72.5938185",""
"ChIJmbogLZqDXjkR4ycqT3Eb-C4","Tyre repair shop","Chintamani society, Abu Street Society, Sabarmati, Ahmedabad","23.083893","72.5923729",""
"ChIJixvOcACDXjkRj0MaAvRuueU","Alka Petrol Pump","22, Nirnay Nagar Road, Nirnay Nagar Sector I, Nava Vadaj, Ahmedabad","23.07268","72.558874",""
"ChIJFS_rfXqDXjkR29ZthxUecwE","Alka Automobiles Nirnay Nagar","62, Nirnay Nagar Sector I, Nirnay Nagar, Ahmedabad","23.072166","72.559011","true"
"ChIJx7JgKeGAXjkRA7Pxqcc7CZA","IndianOil","Ground Floor Naroda, NH 8, GIDC, Nana Chiloda, Ahmedabad","23.0995128","72.66799139999999","true"
"ChIJHc7dvtyAXjkRTSWx2tpOFGY","Reliance Petrol Pump","Naroda GIDC Road, GIDC Naroda, Ahmedabad","23.0924587","72.6730984",""
"ChIJe_0uooWBXjkR478N_1kz8i8","BPCL Ravi Petroleum (CNG)","Airport Road, Hansol, Ahmedabad","23.0861965","72.63464929999999","true"
"ChIJAQAAACyHXjkRn7NAdz11XSY","IndianOil","Ground Floor, Naroda, Ahmedabad","23.08288","72.65673799999999","true"
"ChIJO1C3MUiBXjkRB0vLeT7HtoM","Div Cross Road","3MH3+8CF, Narol - Naroda Road, GIDC Naroda, Ahmedabad","23.0783182","72.6535364",""
"ChIJSUgKbbCBXjkR4khAyuKF1yE","Hindustan Petroleum Corporation Limited","1/P, Plot No CM, Naroda GIDC Road, Naroda, Ahmedabad","23.081951","72.657761","true"
"ChIJf5b4ki2BXjkR_R-Eh4Uc3vk","IndianOil","8, Plot, No 41, Tps No 1 NH, Naroda, Ahmedabad","23.0755013","72.6519922","true"
"ChIJvcU463aBXjkRGvUcSmWX2as","Sabarmati Gas CNG Station","Bhat, Ahmedabad","23.1112461","72.6312583","true"
"ChIJEbRj63aBXjkR4mL1M2MVh9U","NAYARA ENERGY","Ahmedabad - Gandhinagar Road, Bhat, Ahmedabad","23.1113701","72.6312561",""
"ChIJIaYgaU6BXjkR0puxm2zrz1Y","NA & Sons petrol pump","3JCX+VMX, Makarpura, GIDC Naroda, Ahmedabad","23.0722383","72.6492425",""
"ChIJYVkK49eAXjkRz-Y8hwp0ByQ","Ishwar Oil and Company","3MM7+93F, GIDC Naroda, Ahmedabad","23.0834293","72.66268509999999",""
"ChIJL6coEQCBXjkRvxWBdDV-O9o","Jio","3MP8+RGG, GIDC Naroda, Ahmedabad","23.0870509","72.6663346",""
"ChIJj9X7pNmAXjkRHyDF-hoDnfs","Naroda Rjil Ag3","3MP8+RGG, GIDC Naroda, Ahmedabad","23.0870509","72.6663346",""
"ChIJ27olAwGHXjkRN01j5vaffmI","Ashapuri PUC Centre","near Naroda Patiya, 1 Opp. National Handloom Chiloda, near Naroda Patiya, Road, Ahmedabad","23.06926439999999","72.6470756",""
"ChIJZ7apng6HXjkR-P1z6XktMMc","Wadiya Petroleum (NAYARA)","nr. National Handloom Street, Naroda Patiya Circle, Naroda, Ahmedabad","23.0688084","72.6458533","true"
"ChIJGYRSawN_XjkRL5zasSXYn-g","IndianOil","near Honest Weigh Bridge, Ground Floor, Zak Vahelal Road, near Honest Weigh Bridge, Naroda - Dehgam Road, Gandhinagar, Bilasiya","23.0721581","72.6556885","true"
"ChIJy1qxUneBXjkRUYWz8TXL2WI","Nayara Petrol Pump - nageshwar petroleum","Koteshwar, Ahmedabad","23.1048365","72.6168577","true"
"ChIJM6E6qq-HXjkRZjZizhIk_G8","Somnath Petroleum","Naroda Patiya, Ahmedabad","23.0669365","72.6450399","true"
"ChIJOx46gLSGXjkRBO3AVg4vbf4","Khodal Gas Service","17, Saijpur Bogha, Ahmedabad","23.066697","72.632926","true"
"ChIJFRvXqtaAXjkRSwY6d49f70I","HP Petrol Pump Opposite Amardeep Enclave","25, Naroda - Dehgam Road, Vasant Vihar 2, GIDC Naroda, Ahmedabad","23.0797292","72.6679288",""
"ChIJU-HzQQCBXjkRQ0LIIOtOrk8","Jai Khodiyar","3MJC+665, Dehgam Road, GIDC Naroda, Ahmedabad","23.0805248","72.67060359999999",""
"ChIJmdwDysmGXjkRN0XS3oaVXoU","Avani Gas Agency","B R T S, Janta Chambers, Bus Stand, Saijpur Bogha, Ahmedabad","23.0619764","72.6401601","true"
"ChIJ41L6LvyAXjkRh3OPFJ92Hw8","IndianOil","opposite Hyundai Godown, Ground Floor, Ring Road Ranasan, Koba, opposite Hyundai Godown, Nana Chiloda, Bilasiya","23.1132268","72.6657457","true"
"ChIJM751TqKBXjkRKy7LJNWdYuk","Hindustan Petroleum Corporation Limited","Survey No 124/1, near Sardar Patel Ring Road, NH 8, Nana Chiloda, Ahmedabad","23.1081932","72.6712235","true"
"ChIJQ1HA1OSAXjkR47uwdlVO-3M","HPCL CNG Mother Station 1","3, GIDC Naroda, Ahmedabad","23.1081984","72.67122719999999","true"
"ChIJH2gALquGXjkRXhzc8NsPQ8Q","IOC, Aviation Fuel Station","3J89+XGV, Ahmedabad Cantonment, Ahmedabad","23.0674886","72.6188045",""
"ChIJy3fcEACBXjkR53myb6Hlq-k","Hindustan Petroleum Corporation Limited","Ground Floor, Sardar Patel Ring Road, Valad","23.1125767","72.6705741","true"
"ChIJAWRbjgCBXjkRI7PqQKNtnvk","SIDDHESHWARI PETROLEUM","Sardar Patel Ring Road, Ahmedabad","23.11236049999999","72.6716158","true"
"ChIJR8QW0y2BXjkRj09_W0cV0C4","Mahalaxmi Gas Agency","No 8, near Galaxy Cinema, National Highway, Naroda, Ahmedabad","23.058265","72.6427096",""
"ChIJ6domZQCDXjkRfqLobG_ufhc","PUC centre","4J53+FXH, Motera Stadium Road, Motera, Ahmedabad","23.1086888","72.6049747","true"
"ChIJX53fNwCDXjkROG5_0oscLYk","Hindustan petrol pump","FP87/2, Nigam Nagar, Chandkheda, Ahmedabad","23.1195721","72.6124681",""
"ChIJC6atkOWDXjkRIwFj6qFuYXE","Sadhi petroleum Bharat petroleum pump station","4J96+RXG, Tapovan Circle, GIDC Bhat, Bhat, Ahmedabad","23.1195735","72.6124662","true"
"ChIJvSJhU0yDXjkRypXCYu92wnI","Indian oil Narnarayan fuel point","near dwarkesh business hub, Ahmedabad","23.1098651","72.6039566","true"
"ChIJm8OpIACDXjkRQBmhV3PD-5s","Hindustan Petroleum Corporation Limited","Ground Floor, Sabarmati, Motera, Ahmedabad","23.103139","72.600056","true"
"ChIJA7hz68eAXjkRWNKvoh0ylrA","Indian Oil","India","23.0881116","72.6848859",""
"ChIJyaL-jxqBXjkRGaaOBznHVl0","BHARAT PETROLEUM ( SHIV YOGINI PETROLEUM)","4M2P+532, Ahmedabad","23.1003935","72.6851278","true"