place_id,name,address,latitude,longitude,open_now
"ChIJOclGOwAl4DsRTQyIpN0sxKE","Nayara Energy Ltd","JWCC+M55, GJ SH 6, Sarthan","21.62128","72.91967","true"
"ChIJ5UhdQwAl4DsRw0vEkce1MvM","NAYARA-Matangi Petroleum","Survey No. 902/1, Paikee 2, Ankleshwar - Hansot Road, At:, Sajod","21.6211879","72.91980269999999","true"
"ChIJmbuxfuAl4DsRpsV1qkBnGNk","Gujarat Gas CNG Pump","JWCC+VRX, Bharuch","21.6222346","72.9221177","true"
"ChIJWQ8BpYsl4DsRyR-TjqkeTTc","GGS 3","HWRQ+8G6, Unnamed Road, Adol","21.59079599999999","72.93877789999999",""
"ChIJLV9oGyAn4DsRJlE4rT0RLL0","Hindustan Petroleum Corporation Limited","Survey No 298/2, opposite Kadakia Vidhya Gram, NH 64, Ankleshwar - Hansot Road, Ankleshwar","21.632513","72.96315799999999","true"
"ChIJeX0FkE4l4DsRLiS7mXZrbUQ","CISF Unit ONGC","Amboli Road, Boidara, Ankleshwar","21.6217622","72.9713395",""
"ChIJSawhjYkl4DsRM-ZO00BmdPY","Ankelshwar GGS4","HXWC+MJ5, Unnamed Road, Piraman","21.5966316","72.9716038",""
"ChIJIybtBwAn4DsR_Xa8UvA6O9k","Goonj petrolium","38/1/25, NH64, Modinagar Society, Bhangvad, Ankleshwar","21.63505899999999","72.9843415",""
"ChIJ7RtlbwAn4DsRZm6HXnQug9Y","URIYA PUMP(युरिया पम्प)DEF","MWX5+J5H, Dashan","21.6990745","72.9079751",""
"ChIJk5ecCuop4DsRA-sCdGkNf1U","IndianOil","Ground Floor Block No 379, Hinglot","21.6995192","72.90694180000001","true"
"ChIJWzlyF4Ep4DsRZz7iyP5Ow9c","AMAFHH ENTERPRISE ( bio diesel)","MVXX+WPX, Hinglot","21.6998535","72.89936999999999","true"
"ChIJ4QMy8O0j4DsRlDQME77VBIk","Bharat Petroleum","near CNG Petrol Pump & Shalimar Hotel, Ankleshwar - Valia Road, GIDC, Ankleshwar","21.6154018","73.00579739999999","true"
"ChIJ9-VY_Vch4DsRx4xnS4iOzlQ","Indian Oil","beside Bus Depot, Plot No. C/5/12, Ankleshwar - Valia Road, Chokdi, Ankleshwar","21.6197052","73.00295059999999","true"
"ChIJE73FXP4j4DsRFGp6TsB7zeA","IndianOil","S No 557/83, Ankleshwar","21.63060699999999","72.99747099999999","true"
"ChIJMxlN6Kom4DsRn_YxqPMaiio","IndianOil","Survey No 2691, Ankleshwar","21.634103","72.991702","true"
"ChIJ7YFImHwh4DsRzE_fGR4CNRM","IndianOil","Survey No 21/3, P NH 8, Pipaldahad, Gadkhol Patiya, Ankleshwar","21.643489","73.0150864","true"
"ChIJfzT1M4Yj4DsRdUW27KAijos","IndianOil","No 245, NH 8, Bhadkodra, Ankleshwar","21.5969","72.9966","true"
"ChIJRVeqXnsh4DsRjhlnqYILs7c","Essar Petrol Pump","National Highway 48, Nr, Rajpipla Road, Hifazat Nagar, Ankleshwar","21.6422159","73.0298406",""
"ChIJrfLQiTUn4DsRNXrFsTACzsU","Supreme Gas Service","Navdeep Complex, opp. Dr. Yusuf Plot, 4, Panchbatti St. Rd, Moti Doongri, Bharuch","21.6996012","72.98557699999999","true"
"ChIJLZ6QbQIj4DsRlAO0Ke8JLmw","IndianOil","GJ SH 13, Near silver park society, Kosamdi","21.5835009","73.03972720000002","true"
"ChIJ02lX6e0j4DsR6ZJmETFBPQA","Gujarat Gas CNG Station","J284+2FR, Ankleshwar - Valia Road, Near Hotel Shalimar, Opp.Jayaben Modi Hospital, GIDC, Ankleshwar GIDC, Ankleshwar","21.6151128","73.0061506","true"
"ChIJJXna10Qh4DsRE7CP_OjRfKI","Gujarat Gas CNG Station","Bharuch Road, Gadkhol Patiya, Ankleshwar","21.645955","73.00807689999999","true"
"ChIJebsQ1P8j4DsRdTqNinLujcs","Dev Service Station","GEB, Piraman Naka Navi Nagri, Rod, Ankleshwar","21.6314597","72.99357909999999",""
"ChIJ54BIn-Mj4DsRaCNgX7RaFMs","Hindustan Petroleum Corporation Limited","Plot No 2/73, Happy Nagar, Ankleshwar","21.6314664","72.9943382","true"
"ChIJgXLeV_0j4DsRFFpR-KwK6z4","IndianOil","Ground Floor, NH 8, Ankleshwar","21.633474","73.00443","true"
"ChIJZXtSVvAj4DsRX7pNIxu9UVg","પહેલ મોર્ટસ","India","21.6193061","73.0022942",""
"ChIJUQtOyS4h4DsRh0Y-wTfJsOI","IndianOil","228, National Highway, Old, Ramnagar, Ankleshwar","21.6365395","73.0048984","true"
"ChIJt0YrlZYh4DsRWsMCwIOPKOc","Nayara Petrol Pump - Maa Petroleum","ONGC Entrance Road, Gadkhol Part, ONGC Township, Ankleshwar","21.6348136","73.01319339999999","true"
"ChIJvZA36Tgh4DsRp70VT442ewA","Bharat Petroleum, Petrol Pump -Mahima Petroleum","GADHKOL, ANKLESHWAR, Bharuch","21.6462214","73.0081472","true"
"ChIJvRWLpt8j4DsRoT5TIkkAszA","Bharat Petroleum, Petrol Pump -G.M Desai & Co","J2G7+WMJ, Gadkhol Part, Ankleshwar","21.62751789999999","73.0138315","true"
"ChIJQ--TYd8j4DsRHcv45cdITq8","Hindustan Petroleum Corporation Limited","Ground Floor, NH 48, Station Road, Ankleshwar","21.6350801","73.0209701","true"
"ChIJpenubwAj4DsRQU5EweALc_0","Petrol pump Bpcl Amit Ind Petroleum","navsarjan bank, near Miranda tools, Ankleshwar GIDC, Ankleshwar","21.611494","73.0179962","true"
"ChIJUSqhrJIj4DsRtS8Ez0REBBs","IndianOil","Ground Floor, NH 48, Bharuch, Kapodra, Ankleshwar","21.5950725","72.9971917","true"
"ChIJRxRrCtgj4DsRbfZfQf6XwsM","IndianOil","Ground Floor, near Rajpipla Chokdi, Rajpipla Road, Ankleshwar","21.635767","73.027519","true"
"ChIJA8gROuEh4DsRue4seVqUs4k","OMKRUPA GAS CENTER","Ankleshwar Road, Gadkhol Part, Parshwanath Society, Andada","21.65389889999999","73.0207281","true"
"ChIJ8x7l5WIj4DsRZ-LK6h16o08","Reliance Petroleum","212, VILL.KAPODARA, RELIANCE RETAIL OUTLET, NR.CHAINAGE, opp. PANOLI, PLOT NO 204/205, ON NH #8, INDUSTRIAL AREA, Ankleshwar","21.5867187","72.99685819999999","true"
"ChIJSSBknHwh4DsRvkkG5vExXuI","Nayara Energy Ltd. - Rutain Petroleum","GIDC, Ankleshwar","21.6443077","73.03527009999999","true"
"ChIJy8psfRgj4DsRmi4F8YJZO9U","Hindustan Petroleum Corporation Limited","Ground Floor, Ankleshwar","21.5956431","73.0248601","true"
"ChIJbZuHX3gh4DsRqYw5JKZSGPo","IndianOil","Ground Floor Sarangpur, NH 8, Motali, Ankleshwar","21.645493","73.039022","true"
"ChIJ64Dqj3wj4DsRlFcJqt3JHL8","Hindustan Petroleum Corporation Limited","Ground Floor, near Panoli, NH 8, Bakrol","21.5773901","72.9987301","true"
"ChIJ13jvg4Ih4DsRjm0Ph3qq9rk","Bharat Petroleum Pump Giriraj petroleum","NH 48, Motali","21.646804","73.0403594","true"
"ChIJe8kfAaoh4DsR7nVxDI8ILUc","Shree Shakti Petroleum","Bharuch surat road, National Highway 48, Motali","21.6462161","73.0408812","true"
"ChIJ6_ouIgAj4DsRD1m0fT3MQxk","Garden City Petrol Pump","H2XR+6QR, Garden City","21.598103","73.04187630000001","true"
"ChIJExDupjcn4DsR4p5_brflWIs","IndianOil","Ground Floor, Mahatma Gandhi Road, Bharuch","21.697805","72.983493","true"
"ChIJnwxmnQ0n4DsRAD9WM8n4ZLg","Nayara Petrol Pump - Aquib Petroleum","Bharuch - Dahej Road, Bharuch","21.6946734","72.95720779999999",""
"ChIJ31YYHdIn4DsRBgnfeNE1ppg","Bharat Petroleum Petrol Pump , DYNAMIC FUELS","SURVEY NO 305 2 3BHARUCH DAHEJ ROAD DEHGAM, Bharuch","21.6948113","72.9561549","true"
"ChIJCWRg7sYn4DsRAJrQNm4ig4U","Bharat Petroleum, Petrol & CNG Pump -Intwala Petroleum","BHARUCH CITY, VEJALPUR, Bharuch","21.6983773","72.96951469999999","true"
"ChIJXZLlpBIn4DsR0ZTXn_V6T2k","ESSAR","India","21.697396","72.9585726",""
"ChIJDVvYfzUn4DsR9jyarDokt9w","IndianOil","Ground Floor, Railway Station Road, Bharuch","21.701178","72.990479","true"
"ChIJZTN1TAAn4DsR-QEYBNvBS2U","Cng station","Shivam Chambers, beside Indian Oil Petrol Pump, nr. Big Bazar, 4, Old Town, Bharuch","21.7012704","72.9904798",""
"ChIJaxn_rGAh4DsR5TjY8DgxAlE","Bharat Petroleum Petrol Pump , SAI SERVICES","VILLAGE UCHHALI (SUREVY NO. 21/P)SH-64","21.6405552","73.0717131","true"
"ChIJi5M2KYIj4DsR6WjjJZKiQw8","Nayara Petrol Pump - Madhav Petroleum","Survey no. 271, Village: Kararvel, Ankleshwar","21.6340891","73.0748121","true"
"ChIJlfGckTwh4DsRmMfLN0xC0Q4","GUMANDEV PETROLEUM","SURVEY NO. 247, STATE HIGHWAY 64, Uchhali","21.6436942","73.07191820000001","true"
"ChIJ1W_bowUh4DsR7sUGK4zGoJI","Bharat Petroleum, Petrol Pump -Lakshmi Fuel Station","AMRITPURA, National Highway 48, Bharuch","21.6589955","73.06016509999999","true"
"ChIJBenV7BMh4DsRdpk9GcAtEjM","Adarsh Fire Safety & PUC","At Hotel Highway Compound, near Bharuch Toll plaza, NH-8, Po, Mandvabuzarg","21.6702272","73.0650126","true"
"ChIJDdL2UOUi4DsRrfTkT0kaHio","CNG Gas Online pump","H3J2+2PF, Bharuch","21.5800558","73.0518025","true"
"ChIJlVzLfkoj4DsR-l_SEiW-Xa8","BPCL Petrolpump - Shree Vindeshwari Petroleum","Ankleshwar - Burhanpur Highway, Kondh","21.58003339999999","73.0630204","true"
"ChIJk3OKioQh4DsRm8NT5Krayc4","Hindustan Petroleum Corporation Limited","Survey No 145, B/2 SH 165, Jhagadia, Mulad","21.68459199999999","73.072831","true"
"ChIJJSXveNAZ4DsR6JQloiWfy00","IndianOil","Survey No 70, Old Survey No 175/A Dadheda, Jhagadia, Ambos","21.6410981","73.1179559","true"
"ChIJ3StNvv4Z4DsRdqAlpc1O_0s","IndianOil","Survey No 132, Avadhar, Ankleshwar","21.624991","73.120541","true"
"ChIJC3J89_Mp4DsRUIPCnNR8C0o","Petrol Pump","556, Bharuch - Dahej Road, Hinglot","21.7027942","72.8914892",""
"ChIJNTEEuRso4DsR_wGynowhRs0","Hindustan Petroleum Corporation Limited","RS No 82, SH 6, Vesdada","21.705228","72.882781","true"
"ChIJ4wA3RfAp4DsRCWS3LHqjqzI","Hindustan Petroleum Corporation Limited","S No 160, SH 6, Bharuch - Dahej Road, Vesadara, Bharuch","21.707915","72.864312","true"
"ChIJk2X3NSYo4DsR-d1y9DwSjEE","HP Petrol Pump - Coco VesaDada","Hpcl Petrol Pump Village Vesadara SH6","21.7080335","72.8643084","true"
"ChIJt2CklUsp4DsRo-YCLU_VK2g","AK FUELS BPCL","Ak Fuel, near Hotel indian Bhuva, Bharuch - Dahej Road, Bharuch","21.7074835","72.857895","true"
"ChIJgRQSiiko4DsRGMCnmJr-UEg","IndianOil","Survey No 88, Argama, Bhuva","21.7084485","72.85759019999999","true"
"ChIJI-oNRl0n4DsRi5J4TH4DIDU","IndianOil","PX6C+H8X, Survey No 136/1136/2 & 136/3, Plot No 34 to 36, Dahej Bypass Road, Sherpura, Bharuch","21.711451","72.97093199999999","true"
"ChIJy0Q661qIXzkRVhvrtfupKZ4","IndianOil","Jambusar - Bharuch Road, at post, Derol","21.7542993","72.9329664","true"
"ChIJ1S9GtN8n4DsRFBwPwwef_cw","Hindustan Petroleum Corporation Limited","Survey No 415, SH 6, Dahej Highway, Bharuch","21.719013","72.977539","true"
"ChIJH9ejYvSIXzkRaX1y_RPK6Og","IndianOil","B No 313, Derol","21.76926409999999","72.9253592","true"
"ChIJKdTno10n4DsRiQMVAH9uJLg","Petrol pump","Shravan Chowkdi, Bharuch","21.7219701","72.9857846",""
"ChIJR3s92lUn4DsRV1hGqELlSn0","Hindustan Petroleum Corporation Limited","Survey No 49, 1 & 50, Dahej Bypass Road, Nandelav, Bharuch","21.722058","72.98780599999999","true"
"ChIJwZt2yLkg4DsRKWdhkPY47QA","IndianOil","Survey No 9/1, Maktampur, Bharuch","21.706435","73.006502","true"
"ChIJyaGfc1Un4DsRbXvQSgNgdXM","IOC Petrol Pump","Bharuch Bypass Road (NH-228), Sherpura, Bharuch","21.7230762","72.9907889","true"
"ChIJh8KeyZog4DsRZHNcLrj8tIA","Hindustan Petroleum Corporation Limited","Ground Floor, opposite Ramvatika Society, Zadeshwar Road, Bharuch","21.7182201","73.02829009999999","true"
"ChIJ-f975Ycn4DsRdIPrMBYjh8A","Hindustan Petroleum Corporation Limited","Ground Floor, Railway Station Road, Bharuch","21.701995","72.992369","true"
"ChIJgb0Ew0kn4DsR0KHM3rcKfHw","F.M.Amin & Co.","Railway Station Road, Bharuch","21.7020381","72.9924497","true"
"ChIJh691UgAh4DsRdJ9EBlHgS04","CNG Pump, Bharuch","PX6V+HV6, Bharuch","21.7114093","72.9946393",""
"ChIJcad8bLEg4DsRrvWE2FBAwCU","Hindustan Petroleum Corporation Limited","Ground Floor, Old NH 8, opposite JP College, Bholav, Bharuch","21.7099901","73.000501","true"
"ChIJK-9ZcLYh4DsRXRBj99kaWfg","Bharat Petroleum","near State Transport Workshop, Old NH 8, near State Transport Workshop, Maitri Nagar Society, Bholav, Bharuch","21.7182166","73.0032203","true"
"ChIJQYQMeK8g4DsR4oaW-32rd0U","Shiv Shakti Petroleum","P283+VQ8, Near Narmada Society, Avdhoot Nagar, Bholav, Bharuch","21.7171535","73.0044501","true"
"ChIJ2cOaOwCJXzkR8zSZTfmfIZo","INDIAN OIL","PXMR+54Q, Rahadpor","21.732962","72.9903447",""
"ChIJQRHHGRiLXzkRlLy7Ui78tCo","IndianOil","Survey/No 50P, 2 Rahadp, Aragama","21.736303","72.9958857","true"
"ChIJxw_GTREh4DsRPIIN4hZrM7s","Super Gas Service","Vishwanath Township, near Tulshidham, S-11, GNFC Bypass Road, Vishvanath Township, Aalekh Society, Bholav, Bharuch","21.7193858","73.0203475","true"
"ChIJTSvAYjMh4DsRtKhrEu4-UfA","Shell petrol pump","Zadeshwar Road, Bharuch","21.719732","73.03147299999999","true"
"ChIJN3rvfgCLXzkR096UrbJUFFM","Gujarat Gas CNG pump","99/3, Golden Quadrilateral, Vadadla, Bharuch","21.7319892","73.02784729999999",""
"ChIJEYxH0UaLXzkRv9mZ4Sat-lc","Hindustan Petroleum Corporation Limited","Sur No 19/2, National Highway 48, Vadadla, Bharuch","21.749365","73.019791","true"
"ChIJfQHbOGSLXzkRdPIaxKDc-7Q","IndianOil","Survey No 36A/B/C NH 8, Vagusana, Bharthana","21.750806","73.018905","true"
"ChIJCUDqSX8g4DsRmzC3zEapqs8","IndianOil","P2HW+G98, Survey No 1683/P Tavra, Jhadeshwar Road, Bharuch","21.728801","73.04596699999999","true"
"ChIJSz-F5qkh4DsRqiDo2vD_AnQ","OM SAI PETROLEUM","P2HW+9RM, opposite 7X Rivera, Tavra Road, Bharuch","21.7284559","73.047033",""
"ChIJH1THCgAh4DsRx7CeIqYjd48","Gujarat Gas","1, Tavra Road, Zanor, Bharuch","21.7294488","73.0483063",""
"ChIJb0ixBEeKXzkR7iYvgBKAezI","Jio-bp","Besides Hotel Basera, Plot No 56/A/P Nh 8, Bharuch","21.758405","73.0193184","true"
"ChIJ____P4cf4DsR1cavAbHIa0c","Shiv Petroleum","Govali","21.6944338","73.0910281","true"
"ChIJkY4rTCwf4DsR5wVg1ch1eTE","IndianOil","Survey No 208 Govali, Ambos","21.699799","73.099588","true"
"ChIJXZbl3171XzkRCtYRzabj_oA","Hindustan Petroleum Corporation Limited","Sy No 540, Shuklatirth","21.7479901","73.0939801","true"
"ChIJi4tLHqwf4DsRxm5GcevMbxs","IndianOil","Ground Floor, Jhagadia, Ambos","21.699837","73.129134","true"
"ChIJc5MbM0-KXzkRoV04ncM3_yM","Hindustan Petroleum Corporation Limited","Ground Floor, NH 48, Vagusana","21.764891","73.02322099999999","true"
"ChIJaUv8Nt6LXzkRDlMdTOhCtt8","IndianOil","Ground Floor Vagusana, NH 8, Haldarva","21.7654754","73.0221837","true"
"ChIJJZR7gQCGXzkR1DVcjPNnp7g","Essar Petrol Station","RV4W+H66, Saladara","21.8064078","72.8955122",""
"ChIJu1qlaQCJXzkR_Uf-LCYKwmg","NAYARA ENERGY CM PETROLEUM","RW3V+JM, Dayadara","21.803526","72.9443379",""
"ChIJMykRJZqJXzkR8qNID3lhX6o","Hindustan Petroleum Corporation Limited","Survey No 285/1, Survey No 855, Old, Nabipur Road, Tralsa","21.803668","72.944355","true"
"ChIJK8I8BEOGXzkR24uX1k8ThHg","Petrol Pump Bhersam","Bhersam","21.7771473","72.86581079999999",""
"ChIJ6RNELxSPXzkRxMsWA_LuTXI","VIP PETROLEUM","Survey No 410, Samni, Road, Dayadara","21.8366345","72.9278322","true"
"ChIJGSTy-7KLXzkRIgfZgD4ooU0","Bharat Petroleum BP Luvara Ghar","opposite Gurudwara, Bharuch to Vadodara, NH 48, Luwara","21.7767012","73.026243","true"
"ChIJCYSbH7OLXzkR5qkDqiOafg0","IndianOil","Survey No 56/P Luvara, NH 8, Bharthana, Bharuch","21.775691","73.025751","true"
"ChIJfxozaJ2LXzkRJrLaYmhHgrI","IndianOil","Ground Floor, Near Hotel Prince, NH 8, Nabipur","21.8090148","73.0397521","true"
"ChIJOyq0oVCJXzkRjW3vfXxVoeA","IndianOil","Kuvadar","21.804857","72.98602129999999","true"
"ChIJN_vkVUOLXzkRSKbTr87vd0k","Shell Petrol Pump","Golden Quadrilateral Nh 48, Taluka & District","21.772871","73.02477999999999","true"
"ChIJF2aYAQCLXzkRVNnlwEOJ2RQ","BPCL SHIVKRUPA PETROLEUM","BPCL SHIVKRUPA PETROLEUM, Nabipur","21.790447","73.032909",""
"ChIJi-XWHgCLXzkRQ6wMZ_hxvjc","Rang petroleum","R269+PR, Bori","21.8118076","73.01954959999999",""
"ChIJWTRbGACLXzkRY_cqhskXPdk","Jio-bp","Survey No 612, near Khodiyar Kathiyawadi dhaba, National Highway 48, Nabipur","21.795723","73.0347901","true"
"ChIJ09bTQgCLXzkRPKSgSpggBIg","JIO BP Petroleum","near SAHIL HOTEL, NH-8, NABIPUR BRIDGE, Nabipur","21.8017796","73.037624",""
"ChIJ227LGACLXzkRy4x_tRoAP3U","Reliance jio petrol pump nabipur","R26P+HC7, Nabipur","21.8114016","73.0360542",""
"ChIJB7lmBoKMXzkROYnvH_-A6m4","BS Petroleum","R2FW+4R7, Kargat","21.8227799","73.0470342","true"
"ChIJN-stcoWLXzkRk5DcLJMUKXk","Roshni Petroleum","Roshni Petroleum, Samlod","21.8222319","73.0869048",""
"ChIJf41Kjcb1XzkRrxWzkVPS55g","IndianOil","SB No 447 Samlod, Bharthana","21.822988","73.091092","true"
"ChIJW40dVB31XzkRM-d_raI2GXY","IndianOil","Block No 51, Survey No 330, P/6/7, Argama, Nikora","21.78396","73.12272399999999","true"
"ChIJv9GvdjH1XzkRP4g6dOJSMQ4","bapupetroleum","Bapu Petrolem, Samlod","21.8245247","73.09392489999999","true"
"ChIJKbhr0JGMXzkR52PVXt2Ckvs","IndianOil","Survey No 572 & 573 Zangar, Bharthana","21.838513","73.05285099999999","true"
"ChIJM18fSQCNXzkR_GXVT4VHRKI","KABIR PETROLEUM & CNG STATION","R3Q3+F45, Bharuch","21.8386365","73.05287469999999","true"
"ChIJO9p3uv6NXzkR-V0fnCPLy4s","IndianOil","Nh8, Jhanghar","21.8386785","73.05388669999999","true"