place_id,name,address,latitude,longitude,open_now
"ChIJRzCQgGlRXzkRuIxUiSYqMkY","IndianOil","Ground Floor Vartej, Gujarat State Highway 25, Bhikhda, Bhavnagar","21.741899","72.06454","true"
"ChIJY21E42pRXzkRp2uNkwuTBCg","Hindustan Petroleum Corporation Limited","S No 111, Plot No 34, Bhavnagar Rajkot Highway, Vartej","21.742291","72.068271","true"
"ChIJNYjsm2ZRXzkR99B97lSWomQ","Jio-bp","Survey No 18 Sh 25, Bhavnagar, Highway, Rajkot","21.7434967","72.05467180000001","true"
"ChIJ2WkER_tQXzkRPB7JDV4yxM4","Bharat Petroleum CNG Gas Station","Q442+9JR, Bhavnagar - Rajkot Road, Chitra, Bhavnagar","21.7559845","72.10151379999999","true"
"ChIJuWQOE51XXzkR84gfGlc5Zps","Ambika petro company","Sidsar to, Road, Sidsar, Valukad","21.7025929","72.1119514","true"
"ChIJN4SqZj9RXzkRfy6VUXZECSU","IndianOil","Survey No 191/Paiki 2, Bhikhda,Sidsar, Shampara","21.7253107","72.1021513","true"
"ChIJr3VP3zpXXzkRKIqGNIeYXck","Shivshakti petroleum","Road, Sidsar, Valukad","21.6852407","72.1136867","true"
"ChIJt79rtTZXXzkRD-TblibprUI","Hindustan Petroleum Corporation Limited","Survey No 164 & 165P1 SH 36, Vartej, Bhavnagar - Sidsar Road, Budhel","21.7144638","72.1123159","true"
"ChIJ0aiduEFRXzkRhLYoO2-1REE","Bharat Petroleum, Petrol Pump - Shah Petroleum (Vartej)","Vartej","21.7405438","72.0630984",""
"ChIJz_vDEABXXzkRn30uQiSl5vU","H. V. S. Farm","M4C4+GWM, Valukad","21.6713419","72.107295",""
"ChIJU4E1bQBRXzkRubfrdw3n2vo","CNG gas","P3R9+VPC, opp. INDIANOIL, NR SIDSAR ROAD, CHOWKDI, Vartej","21.7421831","72.06926709999999",""
"ChIJT68PrgZRXzkRX_pkajwmCTw","IndianOil","Ground Floor, SH 25, Vartej","21.7422838","72.0694097","true"
"ChIJ-ROprGtRXzkRCUz65CFtVqc","R.K.Petroleum","P3R8+XW8, Vartej","21.74241469999999","72.0673216",""
"ChIJDUKMZcRlujsRSuTsTrofUSo","IndianOil","Survey No 404 Paiki 1, Chavdigate, Vartej","21.7406071","72.0449308","true"
"ChIJPaxOYxBRXzkRiI1ANNIJk4c","IndianOil","Lock No 21016/2 A Site, Vartej, Bhavnagar Chavdigate, Bhavnagar","21.750097","72.0817048","true"
"ChIJo2Rh0TNRXzkR4CJNdy5BTW4","Shell Petrol Pump","Marutinadan Township, Chitra, Bhavnagar","21.749339","72.08717899999999","true"
"ChIJla45Vu1TXzkR1d7dfAelUFk","IndianOil","Aawadkrupa"" survey no-131-A, Bhavnagar - Rajkot Road, highway, Navagam","21.7319459","72.0232686","true"
"ChIJeezQYgBXXzkR9C0NgBErlzI","Bharat Petroleum - Shree Gurukrupa Petroleum","opposite Naimisharanya School, Bhavnagar - Sidsar Road, Bhavnagar","21.7208546","72.1265864",""
"ChIJASo5kg9RXzkRsfhdWFO06Mw","BPCL Shiv Petroleum & CNG","Survey no. 183/3,plot no.2,bhavnagar-dholera road,near nari chowkdi,vartej, National Highway 751, Chitra Gujarat Industrial Development Corporation, Bhavnagar","21.7543265","72.0815836","true"
"ChIJ6UDnU6ZRXzkRv9MHMK5zh8o","Patanjali Petroleum Patnjali Diesel","Q34J+CXP, Chitra Gujarat Industrial Development Corporation, Bhavnagar","21.7560769","72.0824505",""
"ChIJcX8rQ9BTXzkRAo-YCIuqY_U","IndianOil","Ground Floor Transportnagar, Monpar, near Old Ahmedabad, Road, Kardej","21.749449","72.03716700000001","true"
"ChIJaXjgTABRXzkRIFIhJRfDNZM","Shree ramdsv automobiles","Q442+9JJ, near Mastrambapa Temple, Chitra, Bhavnagar","21.7560392","72.1014902",""
"ChIJ5__3fqdRXzkRNE4WcC7e5CY","Reliance Petroleum","Survey No 185, near Milestone No 167, Paiki, Gujarat State Highway 6, Nari","21.7640973","72.0793123","true"
"ChIJkfIALehTXzkRmMXw-ZnVa0o","Hindustan Petroleum Corporation Limited","Ground Floor, Kardej","21.754142","72.024141","true"
"ChIJgTv_cQBZXzkRBXu91PB_RlM","Hanumant Petroleum","HANUMANT CHOWKDI, Budhel","21.6944674","72.1464457","true"
"ChIJS-hCIwBZXzkR2bS8yrqFwKY","Petrol pump IOCL","M4VW+PJ8, Budhel","21.6942852","72.1465885",""
"ChIJx530TS1YXzkRAnJeqQ4u280","IndianOil","S No 135, Lakadiya, near Budhel, Bhavnagar","21.679767","72.15268999999999","true"
"ChIJo6WLgw5aXzkRVL59koVaJkg","Swastik Auto Service and CNG Station","P5R2+V3Q, Dukhi Shyam Bapa Circle, Kaminiyanagar, Bhavnagar","21.742345","72.1499855","true"
"ChIJj4ljQgxaXzkRF9_4t8tuFbM","Hindustan Petroleum Corporation Limited","opposite Ram Mantra Mandir, Plot No 2557, Talaja Road, Bhavnagar","21.7449701","72.14903699999999","true"
"ChIJ70Rg5_1YXzkRa7yFjVBLeL8","Hindustan Petroleum Corporation Limited","Survey No 46, P1/p2 SH 36, Ghogha Rd, Ghogha, Budhel","21.683292","72.1953442","true"
"ChIJXRzdWTpaXzkRCTpKrMBqkjM","Hindustan Petroleum Corporation Limited","PN 5, Sy No 90/1P, FP No 2, TPS No 12 Shivaji Circle, Ghogha Road, Tarsimiya Part","21.75374399999999","72.16284519999999","true"
"ChIJ9_410YdQXzkRywT_qHn-WRg","Jio-bp","Survey No 5684/P, Plot No 7 & 8, Nilambaug, Bhavnagar","21.767189","72.130347","true"
"ChIJqz-N2odQXzkRBC9oQiPP10I","IndianOil","Ground Floor, Nilambaug Circle Road, Bhavnagar","21.767546","72.130341","true"
"ChIJp0Y2LNpZXzkRuD5OXadGpSA","Chandarana Petrol Pump","Gujarat State Highway 36, Budhel","21.6936329","72.1480692",""
"ChIJ96aAaChYXzkRQI7kJFLBA5Y","Gujarat Gas CNG Station","M49V+FFC, Nesvad","21.6686806","72.14362899999999","true"
"ChIJLTp9aChYXzkR34wC31gl6xE","IndianOil","S No 167/172/P, Mamsa, Neswad Bhavnagar Talaja Road, National Highway 8E, Lakadiya","21.668674","72.143885","true"
"ChIJuYJAkWBZXzkRu6eB67vcK38","RAJ CHAMUNDA ESSAR OIL PETROLEUM","Avani Impax, Survey Number 74, Tagadi, Budhel, 3, Gujarat State Highway 36, Tagdi","21.68240279999999","72.17880339999999",""
"ChIJbyC7RE9bXzkRq3_jsA-t0O0","Sainath Petroleum","Leela Circle, Bhavnagar","21.7379575","72.147916","true"
"ChIJaW3m0GRbXzkRZNmqjewOLnM","ANJANI PETROLEUM NAYARA","150 Ft, Ring Road, Bhavnagar","21.7378402","72.1606413",""
"ChIJ1wTO2dhbXzkRMbt1Y1nLCZ0","Gujarat Gas CNG Station","P5R2+V3Q, Kaminiyanagar, Bhavnagar","21.7422789","72.1500865","true"
"ChIJQ6vWu55RXzkRqwIL4NhwjaA","Shell","Victoria Park Road, Vidhyanagar, Bhavnagar","21.748448","72.137891","true"
"ChIJMbRkBJlQXzkRCDIDw9h25Ik","Planet Petroleum","ISCON Mega City, Vidhyanagar, isconmega","21.7502142","72.13325460000001","true"
"ChIJpQv0V0xbXzkR5bwbUf1Wx3Q","Hindustan Petroleum Corporation Limited","Survey No 116P, Plot No 4 & 5, SH 37, Ghogha Road, Bhavnagar","21.743017","72.175141","true"
"ChIJ_4GOWDpaXzkRo07_fGxkh0Y","SB Petroleum","Gujarat State Highway37, HadaNagar, Bhavnagar","21.7431931","72.1753763",""
"ChIJoyfCYL9bXzkR1n256yS60wc","KRISHIV PETROLEUM","ESSAR patrol pump, Akwada","21.7364588","72.1882542","true"
"ChIJfcIZHMpbXzkRgXfhNETxDM8","Bharat Petroleum,Petrol Pump -Bhavnagar ભારત પેટ્રોલીયમ, પેટ્રોલ પંપ -ભાવનગર સહકારી પેટ્રોલ પંપ","Nirma Circle, near Bahucharaji Temple, Old, Shivaji Circle, Ghogha Jakatnaka Lakhawad, Bhavnagar","21.7546427","72.16080269999999","true"
"ChIJmSTSUNRbXzkR-a5oJk00Yp0","ESSAR Petrol Pump","P5MR+HW9, Akwada","21.7339167","72.1923523",""
"ChIJ6fLaF3ZbXzkR5ebX_hz0Kxk","Shell Petrol Pump","Shifa Tower, near Mokhadaji Circle, Ghogha Road, Bhavnagar","21.75785399999999","72.158536","true"
"ChIJK2nMAblbXzkRjXvEp6DAFYY","AARADHANA FUELS","150 feet, Ring Road, Bhavnagar","21.7546904","72.1720476","true"
"ChIJB5Bj1ntaXzkR5gN8eE2_UYY","Jio-bp","near Vihar Complex, Plot No 2107/B, Hill Drive, Bhavnagar","21.7633093","72.14765799999999","true"
"ChIJLQAvcnlaXzkR4gA027zvImw","Krishna Gas Agency","Shree Gijubhai Badheka Road near maltiben na saval gana pase Tirth raj complex, Takhteshwar, Vidhyanagar, Bhavnagar","21.765072","72.1448087",""
"ChIJmdriFXtaXzkRpUKcefV_Ukg","Kamdar K H Sales","Kantawalo Delo ; Bhavnagar, Undi Vakhar, Undi Vakhar, Bhavnagar","21.7644725","72.15193040000001",""
"ChIJe29HC2VRXzkRmWzCnzu5khE","IndianOil","Ground Floor, Desai Nagar, Bhavnagar Para, Bhavnagar","21.760414","72.11192299999999","true"
"ChIJax-fzu1bXzkRgORXnV4_C40","GUJARAT PETROLUEM","opp. Kabrastan, Plot No.1144-A, Ghogha Circle, Bhavnagar","21.76479029999999","72.1532493","true"
"ChIJ84zA98VRXzkR-OBjvPdMwIM","JK PETROLEUM","Navagam Dhal Kanpar","21.7678032","72.1304983",""
"ChIJhe6dNvVZXzkRNBPDTkb5NgQ","Matoshri Petroleum","Survey . No. 122, Pipaliya pool, 4/1, to, Bhuteshwar","21.6861609","72.2229148","true"
"ChIJyVivPtNYXzkRzR07zD7xSyg","IndianOil","Ground Floor, near Piplya Bridge, SH 37, Hathab Road, Bhumbhli","21.6816799","72.2356052","true"
"ChIJXckNJdpfXzkRxKwuILYhOn4","Bharat Petroleum Petrol Pump , YOGESHWARI TRADING SERVICES","SURVEY NO. 34 / 2BHAVNAGAR - KOLIYAK, ROAD, Bhavnagar","21.676993","72.23960699999999",""
"ChIJC0qGu4BaXzkRkI6egD4dp38","IndianOil","Ground Floor, Shilpi Nagar, Bhavnagar","21.773958","72.14563799999999","true"
"ChIJe-CHL_pRXzkRIjxn9E-cx0c","Bharat Petroleum, Petrol Pump - Kathiawar Motor Sales & Service","RO OPP-ST BUS STAND, BHAVNAGAR, Bhavnagar","21.7703585","72.1363023","true"
"ChIJgagtvYJaXzkR-ta-7C3n0vA","Honest Petroleum","Q4JR+FW9, Opposite Satkaar Guest House, Railway Station Road, Bhavnagar","21.7811715","72.142359",""
"ChIJ008mcJ1aXzkRtAEu4SbR--4","IndianOil","Ward No 1, Moti Talav Road, Bhavnagar","21.784453","72.14255519999999","true"
"ChIJjQot4IJaXzkRxEXwwRl7ifM","Bhavanagar Sahkari Petrol Pump Li.","near Railway Station, Sakar Bazar Road, Sutarwad, Bhavnagar","21.7810921","72.14453519999999",""
"ChIJfdsTs0dbXzkR4OS4nJLDlhA","IndianOil","Ground Floor, opposite Municipal Corporation, Kalanala, Panwadi, Bhavnagar","21.771601","72.146301","true"
"ChIJOZjDpIBaXzkRfXXC0N3Vxeg","Hindustan Petroleum Corporation Limited","Survey No, 21, Mangal Sinhji Road, Kalanala, Bhavnagar","21.772075","72.14641499999999","true"
"ChIJiwoh3fpbXzkRb4GhyqIrPGk","Bharat Petroleum, Petrol Pump - Natwarlal & Sons","COLLECTOR OFFICE, BHAVNAGA, Bhavnagar","21.7725418","72.14648199999999",""
"ChIJ6VWUH6NaXzkRclQf1lIIrQY","Bharat Petroleum","Q5X2+5QR, Juna Bandar, Bhavnagar","21.7979999","72.1519",""
"ChIJXQx0nPdbXzkR7qLusHIHTBY","IndianOil","Ground Floor, Old Port Road, Bhavnagar","21.788685","72.147903","true"
"ChIJ056kUQdbXzkRSLTTvzgesc4","Shree pitru ashish petroleum","New essar pump,beside kal bhairavnath mandir,lakadiya, pool, Juna Bandar, Bhavnagar","21.7977525","72.1461126","true"
"ChIJ8RKjixlPXzkR6hZGkXeXtOQ","RAJ SHAKTI PETROLEUM","RAJ SHAKTI PETROLEUM, AHEMDABAD HIGHWAY, Nava Madhiya","21.8785966","72.0666589","true"
"ChIJGzbzHbVOXzkRQj7Kk3oHokg","Hindustan Petroleum Corporation Limited","Survey No 125, SH 6, Bhavnagar Dholera Road, Sanes","21.898921","72.068341","true"
"ChIJn9jUfEpJXzkRCNk9hKG_5EY","IndianOil","Ground Floor, Nirma Chowkdi, Sanesh, Monpur","21.9039245","72.0699475","true"