place_id,name,address,latitude,longitude,open_now
"ChIJ4Yq5ISATVzkRSF5W3OUtUsc","Goraniya Petroleum","chaga patiya, Changa","22.3447428","70.0267341",""
"ChIJJ1HVQ7MVVzkRE3mImQzUAAY","Bharat Oman Gas Line Pumping Station","CXJP+598","22.4304019","69.98595019999999",""
"ChIJa-KPfqcVVzkRlT2Bv12f7xc","Shahid Ramesh Petroleum","opp. Laher Lake Khabhaliya, Road, Jamnagar","22.4439302","69.999442","true"
"ChIJaxmrrw4VVzkRBAYcq8EptVw","Nayara Petrol Pump - Aastha Petroleum","near Sarmat, Khambhaliya Road, Patiya, Jamnagar","22.4391244","69.9715404","true"
"ChIJ0-Ejd8UVVzkRoVYdMNfHHA4","IndianOil","Ground Floor, Vasai","22.43972759999999","69.9687483","true"
"ChIJKwG2LNoVVzkR8uKywoCmi8A","ASGAR GAS AGENCY","SHOP NO 12, ALFA SCHOOL, Masitiya Road, Dared, Jamnagar","22.4062409","70.050009",""
"ChIJCYL_4xoVVzkR3LHPugenqWQ","New Murlidhar Petroleum","C2GR+JQM, Champa Beraja","22.42764689999999","70.04260169999999",""
"ChIJ4RwHZdcVVzkRu6TGCyXRQPs","Bharat Petroleum, Petrol Pump -Harsiddhhi Petroleum","JAMNAGAR-MOTIKHAVDI ROAD, Jamnagar","22.436341","69.95906409999999","true"
"ChIJTaQlEZ8VVzkROXL6tqH4Ly4","Hindustan Petroleum Corporation Limited","Survey No 62, near Khambhaliya, P/4/P/1 SH 25, Jamnagar Bypass Road, Kansumara, Jamnagar","22.429844","70.0416303","true"
"ChIJjR9D23oTVzkRnLh3xYhkeOw","VRUNDAVAN PETROLEUM. ESSAR PETROL PUMP","Chela","22.3766833","70.0499878","true"
"ChIJl80lDFJrVzkRmfydX3_jkeY","IndianOil","Ground Floor, Lalpur, Bankodi, near Km Stone, 8 to 9, Jamnagar","22.4033205","70.054913","true"
"ChIJPUYdzAEVVzkRnWFoEF0R3aA","IndianOil","Ground Floor, Jamnagar","22.44209","70.03542","true"
"ChIJO2tjOXoWVzkRxHxeO23k1eM","Hindustan Petroleum Corporation Limited","Survey No 125/1, Palki No 3 SH 25, Khambhaliya Road, Jamnagar","22.4338194","69.9479985","true"
"ChIJ4ZLWDSATVzkRIaie_fL8ghk","Hindustan Petroleum Corporation Limited","Survey No 281, Paiki 1, SH 27, Jamnagar - Lalpur Road, Changa","22.343735","70.0271022","true"
"ChIJxQDnRvFrVzkRu8VLoTHa9ws","Essar Petrol Pump","C366+962, Jamnagar - Lalpur Road, Jamnagar","22.41088239999999","70.0605281",""
"ChIJE8IY1GkTVzkRM4wSr7SqVyc","IndianOil","Survey No 657, Changa","22.3423763","70.02618819999999","true"
"ChIJicBC9y4VVzkRgH2duXDPCMU","Nayara petroleum","C2VP+XW7, Indira Gandhi Road, Satyam Colony, Jamnagar","22.4449008","70.0373111",""
"ChIJn2YGuFMSVzkRqFCXKxIEV0g","K M PETROLEUM","Changa Patiya, At, Sir PN Road, Ta, Khoja Beraja","22.3351371","69.9945037","true"
"ChIJGy1jytoTVzkRdK_k4TrnQcE","DJ FUEL STATION","near KM PETROLEUM, Sir PN Road, Chandragadh","22.3347621","69.99518119999999","true"
"ChIJ90LK0TZrVzkRgG9t8DTy4iw","Hindustan Petroleum Corporation Limited","Survey No 1193/2, P/1, Plot No 1 SH 25, Jamnagar Bypass Road, Jamnagar","22.4209913","70.0584573","true"
"ChIJi7KBj_ETVzkR1Z3-7LZc2ME","Hindustan Petroleum Corporation Limited","Jamnagar, Survey No 307/P1 New Reliance Road, Khoja Beraja Near Changa Patiya","22.3371324","70.0166976","true"
"ChIJ-YS4Wm4VVzkR7JQs1jbwUOg","Chandramauli petroleum Bharat Petroleum","F23F+HFV, National Highway 151A, Jamnagar","22.453998","70.023667","true"
"ChIJs6zWD9gTVzkRys7wucIpgi4","Hindustan Petroleum Corporation Limited","RSA No 271, P Paiki 7 Lalpur, New Reliance Road, Pipli","22.3464142","69.9556589","true"
"ChIJcXlXJgAVVzkRhORWGle7WgM","Indian Oil","Shop No 7Near Gordhan Hotel Baju MaGordhan, The park Road, Champa Beraja","22.4562645","70.0198503",""
"ChIJJ4kB_nQTVzkRB0uAKGFW8Ng","KARTIKSWAMI PETROLEUM","Changa, Jamnagar - Lalpur Road, Patiya, Jamnagar","22.3387692","70.0246219","true"
"ChIJs_xnMmQWVzkR8osR0MBGU-k","Subham Petroleum Bharat Petroleum","Jamnagar, SH-6, Jamnagar Road, Vasai, Vasai","22.431078","69.9380023","true"
"ChIJy9TNSQAVVzkRg31pZ9aLJP8","Hindustan Petroleum Corporation Limited","Ground Floor, near Shri Swami Narayan Mandir, Khambhaliya Highway, Khodiyar Colony, Jamnagar","22.455389","70.030031","true"
"ChIJeSsIfB4VVzkROxLpYMGW1LI","Essar petrol pump","F24J+F44, 50 feet Road, Jamnagar","22.4561427","70.0303383","true"
"ChIJo9fsvusVVzkRG0HA876G_gc","Nayara Petrol Pump","opp. Nayara Petrol Pump Haria Collage, Road, Gokul Nagar, Jamnagar","22.4508258","70.0410172",""
"ChIJhcZF_TAVVzkRPX5kG9CaMyg","PRAGATI AUTO GAS","F22R+FH2, Indira Gandhi Road, Pavan Chakki, Jamnagar","22.4511372","70.0413773","true"
"ChIJ456marlqVzkRt-c8Mg4ICbo","Indian Oil Corporation Ltd","Aviation Fuel Station IV, Air Force, Jamnagar","22.4609265","69.9669447",""
"ChIJ8QrERzEVVzkRv7gqTEy4w-o","Gayatri Petroleum","Gokul Nagar, Main Road, Dattara Circle, Gokul Nagar Main Road, Dattara Circle, Jamnagar","22.4528326","70.0429861",""
"ChIJI_N42z5rVzkRoGoHILYJ38g","Kirti Petroleum","Jamnagar - Lalpur Road, Chowkdi, Jamnagar","22.4211281","70.0690881","true"
"ChIJ4QZXtz5rVzkRiLBWeet4Ocw","NAYARA","India","22.4216046","70.0689095",""
"ChIJd7KRlRVrVzkRHw-0TOyyFns","Nayara Petrol Pump - K.N.Petroleum","near Lalpur Chockdi, Road, Jamnagar","22.4221412","70.0760546","true"
"ChIJ3ZxRf6ZrVzkRQ7BCth5qWwo","Nayara Petrol Pump","C4J3+7PG, Khimliya","22.4306793","70.1043243","true"
"ChIJE9UpurxqVzkR5AT-sZoQxBQ","IndianOil","Ground Floor, Lakhota Talav, Jamnagar","22.46229199999999","70.07041199999999","true"
"ChIJOWlOIPJqVzkRCn7yVxv59Wg","IndianOil","Ground Floor, Grain Market, Kalawad Road, Jamnagar","22.459441","70.08767","true"
"ChIJj3dVtkoVVzkRIrm7nyDBPKU","Rozy Petroleum","F26X+HW6, Hirji Mistry Road, Ranjit Nagar, Summair Club Road, Jamnagar","22.4614154","70.0497669","true"
"ChIJ-6aJuzFsVzkR5OY9bDuE390","IndianOil","Survey No 199/1/P/1 Harshadpur, Digvijay Plot, Jamnagar","22.364072","70.131113","true"
"ChIJO-9Q5xdrVzkRi6y4yfo6VVA","IndianOil","near Medical Campus, Survey No 149/P1, Dariya, near Medical Campus, Jamnagar","22.398294","70.086066","true"
"ChIJNQO3qw9tVzkRorX_CYT-IKk","Parth Fuels","Ranjitsagar Road At Parth Petroleum, Dadiya","22.39013050000001","70.087341","true"
"ChIJdT0F56NrVzkR6EDdt_QnHkQ","VM Petroleum","Survey No. 801/p4, Aradhana Park 3, Plot No. 1, Jamnagar Bypass Road, Jamnagar","22.4233529","70.0837687",""
"ChIJfyKDAwxrVzkRyh3kJ3ETgCY","Uno Petroleum Bharat Petroleum","Jamnagar Rd, Jamnagar","22.4252767","70.0918105","true"
"ChIJmffeaABrVzkR5RkJVYSbYmw","Bharat petroleum","C3M8+PH3, Green City, Jamnagar","22.4342576","70.0664077",""
"ChIJvV2fbsNrVzkRu0DqJqLRvVs","New Bhanu Petroleum & Online cng Station","Ranjit Sagar Road, Opposite, Green City, Jamnagar","22.434386","70.06628309999999","true"
"ChIJpwYv_iZrVzkRoWj8cYkqU1w","Shell-Soham Enterprise","near Pump House, Jamnagar - Samana Road, Jamnagar","22.436427","70.065401","true"
"ChIJL_gkB8RqVzkR7dyju1yIH_Y","IndianOil","Ground Floor, Ranjit Sagar Road Pavan Chakki, Digvijay Plot, Jamnagar","22.456408","70.067956","true"
"ChIJw-cMAMRqVzkR9ES7hG4Qn-c","Nayara Petrol Pump - Bhanu Petrol Service","Sumair Club Road, Kishan Park Society, Jamnagar","22.4567745","70.06838619999999","true"
"ChIJHfLJFg9rVzkRCVyHyHkyZI4","ASHAPURA PROVISION","Digvijay Plot, Jamnagar","22.4607814","70.0586876",""
"ChIJT-lQl_lrVzkR9f92yKlWXn8","Bharat Petroleum, Petrol Pump -D. Girdharlal & Co.","Teen Batti, Jamnagar","22.462159","70.0650513",""
"ChIJ456marlqVzkRSANhmz_jP_A","Sanjay Gas Service","Digvijay Plot, Jamnagar","22.4628056","70.0660505",""
"ChIJjQzatPZqVzkR0aCpO3UQX7c","NAYARA","F35R+FR7, Jamnagar","22.4586559","70.0920431",""
"ChIJPUwtFwBrVzkRnW9Sj1lsEyY","Atul petroleum","near maha pravhuji bethak, o/s, Kalavad Road, Kaushal Nagar, Jamnagar","22.458681","70.0920395",""
"ChIJmxiDWTUVVzkRj4WcQ2KR4so","Nirav Enterprises","opp. Coin, Main Road, Ranjit Nagar, Jamnagar","22.4610101","70.04938369999999",""
"ChIJLchTCwBrVzkRDG9P_sNSOhc","HP AUTO CENTER","Gujarat State Highway 26, Mahaprabhuji Bethakji, Jamnagar, Kaushal Nagar, Jamnagar","22.4583083","70.0958093",""
"ChIJkxtqEnnLWTkRakcm6M8gmvs","Jio-bp","Survey No 49/1, near Victoria Bridge, 50 Rajkot Road, Hapa Road, Gulab Nagar, Jamnagar","22.4621947","70.0833288","true"
"ChIJc0WsEQBrVzkR8PCMJ5anyK8","GOKUL Petroleum (NAYARA)","opp. Sentoza Greenz, Mahaprabhuji Bethak Road, Dhunvav","22.450756","70.11005399999999","true"
"ChIJVaqtC8lrVzkR94fdSDi13QI","IndianOil","Ground Floor, Theba Kalawad Jamnagar Hwy Road, Moti, Moti Banugar","22.4457861","70.1183081","true"
"ChIJk7DxxTprVzkRzqMfY0NvL8A","Hindustan Petroleum Corporation Limited","Mahaprabhuji Baithak Road, Plot No 58/2, TP Scheme 2, Noori Chowk, Maharja Society, Jamnagar","22.460405","70.093864","true"
"ChIJw7DZOktqVzkRFSGT13bkBxM","Baradi Petroleum","Kalawad Baypass Chokdi , Mahaprabhuji Bethak Road","22.4466794","70.1179982","true"
"ChIJhfmIFexrVzkR3HZehHKxGJA","Bharat Petroleum, Petrol Pump -Manek Petroleum","JAMNAGAR CITY GULABNAGAR, Jamnagar","22.4665176","70.07711259999999","true"
"ChIJqSpU7fhrVzkRBFG3HOqVOiQ","petro pump","F37R+P96, Kaushal Nagar, Jamnagar","22.46432399999999","70.091574",""
"ChIJl7W29NBrVzkRwJTQ9KfWu6E","Hindustan Petroleum Corporation Limited","Survey No 169 NH 927 D, Kalavad Road, Jamnagar, Theba","22.438322","70.136839","true"
"ChIJ2QS3IUxpVzkRMbHKDxrU0ZA","Giriraj Petroleum (Nayara)","Jamnagar - Kalawad highway At, Vijarkhi","22.4146886","70.17807680000001","true"
"ChIJ6bhpaYJpVzkR1KQQeSQ5C2Y","GOKUL Petroleum (NAYARA)","opp. Sentoza Greenz, Mahaprabhuji Bethak Road, Limili","22.4427425","70.1813018",""
"ChIJVWZoBzpqVzkRRi4vSPQQThw","Faldu Petroleum","F45H+952","22.4583913","70.1278933","true"
"ChIJYcvAx9kVVzkRL8HQr52YnHU","Nayara Petrol Pump - Rameshwar Petroleum","Dhichda Road, Defence Colony, Jamnagar","22.4788041","70.03387350000001","true"
"ChIJO70qm-g_VzkRIBNwB5LKqHk","Hindustan Petroleum Corporation Limited","Survey No 20, Paiki 2, Samarpan Circle, Dhichda Road, Dhinchda","22.492361","70.030052","true"
"ChIJby5pkFEVVzkR-Al2vZaVW_s","IndianOil","Suvey No 99, Plot No 1, Airport Road, Bedeswer, Jamnagar","22.4684947","70.0414976","true"
"ChIJTwMr1jU_VzkRmwzUtRyyeG0","CITY SKAY STAR PETROLEUM","CITY SKAY STAR PETROLEUM, Highway Road, Pipaniya, Jamnagar","22.4962195","70.0284705",""
"ChIJ70mDJE4VVzkRF_WILHeAF9w","Hindustan Petroleum Corporation Limited","TPS, near Digjam Circle, Plot No 40 & 41, Street Number 2, Jamnagar","22.4696743","70.0423449","true"
"ChIJi5qMnuk_VzkRxIqwHCJyNic","Essar Petrol Pump","F2WH+MPC, Bedeswer, Jamnagar","22.4966897","70.0292691",""
"ChIJv1oGlrJqVzkRR8mXVwcahAY","Reliance Petrol - Diesel - Gas Station","F3C2+7M9, SH 6, Kamdar Colony, Jamnagar","22.4706526","70.05174640000001","true"
"ChIJ-2Q19tNrVzkRuxmoaIkJGKQ","AMARNATH GAS AGENCIES","GROUND FLOOR OFFICE NO.05, Vijay Complex, Bh Icic Bank, nr. KHODIYAR TEMPLE, Kamdar Colony, Jamnagar","22.4707688","70.0506386",""
"ChIJ7U0ky3hrVzkRxZp90DuJKEw","Shell Petrol Pump","Aerodrome Road, Jamnagar","22.471332","70.050889","true"
"ChIJlXboQ5M_VzkRrqOwYZXqgJo","HP PETROL PUMP - SHREENATH PETROLEUM","HP Petrol Pump Survey NO. 20 Paiki 2 Dhichda, 2","22.504835","70.033519","true"
"ChIJt6nPVwBAVzkRoCzZYtg6muM","IndianOil","S No 1, TP Scheme 1, Saru Section Road, Digvijay Plot, Jamnagar","22.474847","70.05156","true"
"ChIJt38_Nvg_VzkRV6IeK7dQIBg","IndianOil","Ground Floor, Bedi Road, Bunder, Amra","22.492621","70.047989","true"
"ChIJRahgkLFqVzkRgVjqzRxpbOA","IndianOil","Ground Floor, Grain Market, PC Road, Jamnagar","22.4704966","70.0569","true"
"ChIJ1RrvjAFAVzkRsEhCcDqkC6Q","Shree Sai Gas Agency","F3P4 32J, Mahavir Society, Park Colony, Jamnagar","22.4854055","70.0555347","true"
"ChIJS-L1XrhrVzkRXQbE4-NCOwA","Momai Gas Agency","Shop No. 12, Gayatri Complex, Pandit Nehru Marg, Padana","22.4756308","70.0664704",""
"ChIJE9UpurxqVzkRQMcvL2YbZqc","IndianOil","Manmohan Building, Maheswari Nagar, Kadiawad, Jamnagar","22.473103","70.069252","true"
"ChIJS8hvw7xqVzkREFnBcfRVVHY","Bharat Petroleum BP Petrol Pump","F3FC+63H, Maheswari Nagar, Kadiawad, Jamnagar","22.4730556","70.0702477","true"
"ChIJGe6D1mJqVzkREFkfD70EGo4","IndianOil","Ground Floor, Bharatiya Bhavan, Kisan Chowk, Gulabnagar, Jamnagar","22.477715","70.1007876","true"
"ChIJv5ajJ49qVzkR5vha4KIrhgA","BPCL - Manek Petroleum","F3FR+PFH, Jamnagar Road, Gulabnagar, Jamnagar","22.474302","70.0912188","true"
"ChIJJ3nUNWNrVzkRaAIbmaNYR7M","HET PETROLEUM","Het Petroleum, near Patel Samaj Vadi, Verad, Jamnagar","22.4707499","70.0759083",""
"ChIJfd6TgN1rVzkR-AKfYpF7sXA","Bharat Petroleum, Petrol Pump -Karan Petroleum","JAMNAGAR CITY INDIRA MARG, Jamnagar","22.4733564","70.075452","true"
"ChIJD3P6LpFqVzkRibNeLpFdMck","HP PETROL PUMP - H P AUTO CENTRE","Ground Floor, near Nagnath - Victoria Bridge, Kadiawad, Jamnagar","22.4720691","70.080795","true"
"ChIJhZC2bABrVzkRyg5syLgSu5Q","Bharat Petroleum (BPCL)","F3CJ+VFJ, near Subhash Bridge, Jamnagar - Rajkot Highway, Kadiawad, Jamnagar","22.4722157","70.081141","true"
"ChIJ7dixr65rVzkRXWEnS-nt6G4","SENTOZA FUEL STATION","Annpurna chok, char rasta, Jamnagar","22.47127339999999","70.0919949",""
"ChIJ___YOABrVzkR7BOh4trQnp0","jio bp- victoria bridge","49/1, Jamnagar - Rajkot Highway, Raj Park, Jamnagar","22.4746155","70.0917759",""
"ChIJ1-ULqKhRXzkRP60VgmvqhaI","IndianOil","Ground Floor, Gulabnagar, Jamnagar","22.47619389999999","70.0960005","true"
"ChIJCx_27gBrVzkRgtJrpBuuMok","Jio-bp","F4H2+59X, Jamnagar - Rajkot Highway, Mohan Nagar, Gulabnagar, Jamnagar","22.4779786","70.10098370000001",""
"ChIJue5QXmprVzkRrOhYpzPrSL8","Nayara Petrol Pump - Shreeji Fuel Station","Market Yard, R.S.NO. 457, behind Fruits Market, Road, Hapa","22.4691709","70.1039773","true"
"ChIJg_9FNuJpVzkRQ3bMRmrFbds","Hindustan Petroleum Corporation Limited","Survey No 9/2 Paiki SH 25, Khimrana","22.4948907","70.1621451","true"
"ChIJtcPFH9ZpVzkRLNtmC70sev8","KOTAK CORPORATION","near MANSI HOTEL, JAMNAGAR TO RAJKOT HIGHWAY JAMBUDA, near MANSI HOTEL, Jamnagar","22.5003083","70.1860342","true"
"ChIJQTWKCg1qVzkR76FCwYvQGgA","BASAR","India","22.4827448","70.1246669",""
"ChIJP-_VGABrVzkRQ1w5vppNLxk","Shree yamuna associates","104/1, Hapa Industrial Area, Jamnagar","22.4829854","70.1250495",""
"ChIJh55MO1trVzkRIGdko1amaYE","IndianOil","near Industrial Estate, Ground Floor SH 25,Moti Banugar, near Industrial Estate, Hapa","22.47939","70.11765799999999","true"
"ChIJ4bh07W9qVzkRxbPtJnsF4y0","Priya Petroleum","SH 6, Indira Gandhi Road, Hapa Industrial Area, Jamnagar","22.4790454","70.114327","true"
"ChIJbSnjF25qVzkR-ZMRowv7pZY","Essar Petrol & CNG","F4H7+JP8, Hapa Industrial Area, Jamnagar","22.4790394","70.1143189","true"
"ChIJeb9hAUZpVzkRdBfCXyXm-Ls","IndianOil","Ground Floor, Khimrana","22.4937071","70.1599883","true"
"ChIJmWnfkuFpVzkRuOycxPnYjE4","IndianOil","S No 101/P State Highway 25,Khijadiya,Banugar, Moti, Jamnagar","22.496387","70.164806","true"
"ChIJm4V_Y1dpVzkRdDKbyDEalDg","IndianOil","Survey No 441, Khijadiya","22.496213","70.165832","true"
"ChIJV4QXQABpVzkRtuU3Iqiq3Go","Shree ram petroleum","F5W8+H7, Dhunvav","22.4964586","70.1657778",""
"ChIJYUeUC65rVzkRCei0L3Y3dDM","Jio-bp","opposite Dsp Bunglow, SN 213, Sy No 96 Paorama Mkt, Khijadiya, opposite Dsp Bunglow, Jamnagar","22.49720499999999","70.16848259999999","true"
"ChIJETwVqphpVzkRY1Rhd0dCMtY","BPCL PETROL PUMP","F5WF+Q5, Sachana","22.4969545","70.1729148",""
"ChIJzwRsEK5pVzkRU8VPyhDldTE","SHRI KRISHNA FILLING STATION","Near, Bypass, Jamnagar - Rajkot Highway, Khijadiya","22.4970375","70.1729256",""
"ChIJN3G8ynRpVzkRKsGEtRyApyU","Shell Petrol Pump","National Highway 151A, Sachana","22.50010779999999","70.18469979999999","true"
"ChIJob573NdpVzkRZmuWQquyB-w","BPCL - Petrol Diesel Station","JAMNAGAR EXIT JAMUNDA, Jamnagar","22.5004162","70.1918097","true"
"ChIJVVVVJe5oVzkRlkNKyWYnvuM","Rk Petrolpump","Alia Bada","22.4455282","70.20883549999999",""
"ChIJo85sHABpVzkR3J52DomXqCk","IndianOil","Ground Floor Alia Bada, Jamnagar,Banugar, Moti, Jamnagar","22.446243","70.209153","true"
"ChIJ4cRmUQBDVzkRereMyTfnlm4","GFCC DIESEL PUMP","H59J+F4J, near B.H.H Office, Jamnagar","22.5689584","70.1800052",""
"ChIJVR2QkA1DVzkRRXQrTNPzHTs","Hindustan Petroleum Corporation Limited","Revenue Survey No 94 SH 6, Road, Khiri","22.5650073","70.2043158","true"
"ChIJPzazEY1DVzkRH4tz-2eIce8","Jay Shree Dwarkadhish Petroleum","Gujarat State Highway 6, Sachana","22.5661156","70.205439","true"