place_id,name,address,latitude,longitude,open_now
"ChIJ_43VhBMqXjkRCu5Jtrawn64","Bharat Petroleum coco","Barola","22.5846877","73.4482062","true"
"ChIJU8Cam8IpXjkRpVe3asBBJog","Hindustan Petroleum Corporation Limited","Survey No 366, 3/1 SH 175, Kalol, Derol","22.6282521","73.4513923","true"
"ChIJ69plPcUoXjkR3pN_wJ0e1HE","Nayara Neelkantheshwar petro","M94M+QW9, Limdi","22.6569242","73.3848579","true"
"ChIJk-d5_UcpXjkRKknQnAgEiQg","IndianOil","Gam, No 1213 Derol, Kalol, Bhadroli Khurd","22.6280048","73.4533507","true"
"ChIJI1VyrVYrXjkRQIuR4WO7SVQ","Nayra petrolpump â€” Vispo Alternate Energy Private Limited","HFW2+87, Barola","22.5958025","73.4507493",""
"ChIJDRfG-BoqXjkR0UtGD5FYJOA","GUJARAT GAS","India","22.5955467","73.45054189999999",""
"ChIJofF24f4pXjkRNvoSwckeHuI","IndianOil","Ground Floor Kalol, SH 5, Boru","22.608793","73.460945","true"
"ChIJI2OQ-f4pXjkRiTRq7_ZykbU","CNG Station Online + Petrol Pump","Jantral, Kalol","22.6092202","73.4619002","true"
"ChIJw_6eNwAvXjkR-VHP_e-6lUY","Nilkanth Petroleum","Survey no./Block no. 205/B/2, Village - Sandhasal, Taluka, Sandhasal","22.6297277","73.355059","true"
"ChIJLwdiSL8rXjkRgDAV5SCzuaA","GUJARAT CNC GAS","Gujarat State Highway 87, Alindra","22.5848629","73.4479229","true"
"ChIJveENZAAvXjkRmEW6dPq-Zww","Nayara petrol pump","J9X2+H39, Sandhasal","22.6489161","73.3502377","true"
"ChIJeYwTBgArXjkR6k6dyNaEedg","Jio Petrol Pump","HFG3+5GF, Halol - Vadodara Road, Halol, Paldi","22.57542860000001","73.4537902",""
"ChIJjUgflVYrXjkRrlKFEdSb1Zo","Avantica Energy petrol pump","Madhwas, road, chokdi, Halol","22.5737961","73.4545321","true"
"ChIJkwVXk3oqXjkRCfg172hhA7s","Jay Narayan Filling Station","Halol Kalol High Way, Madhvas","22.5733429","73.45412780000001","true"
"ChIJSf6ZFfyDYDkR5WJ0uPelOfU","Hindustan Petroleum Corporation Limited","Ground Floor, SH 5, Halol Godhra Highway, Kalol, Delol","22.6218736","73.4869259","true"
"ChIJTY5ttxgsXjkRAAAAMNjJazk","Atmos AJS Fuels Private Limited CNG Station","Survey No. 647, Dhantej","22.5875624","73.3481705","true"
"ChIJsVFGOTaCYDkRCTb245w9deQ","HP PETROL PUMP - PRANAMI PETROLEUM","Survey NO. 37/1 Paiki Delol Halol Godhra Road Godhra, Baroda","22.632275","73.50450599999999","true"
"ChIJ0wfXWLODYDkRbYLdsZEOuUk","Pranami Petroleum Hindustan Petroleum","SH-87, Panchmahal Road, Khadki","22.640318","73.51335999999999","true"
"ChIJ5ct-YQCDYDkRcmFKQRbxVn4","CHUNIMA PETROLEUM","JFFW+XFV, Delol","22.624987","73.4961701",""
"ChIJCeWGyHGDYDkReQyj8HJtPW4","Bharat Petroleum Petrol Pump , CHAMUNDA PETROLEUM","Delol","22.627927","73.49962599999999","true"
"ChIJyaERnFyDYDkR0r4evw6YvvE","Nayara Petrol Pump - Ramsnehi Petroleum","Khadki , toll plaza ,Kalol, Kalol","22.6506889","73.5211456","true"
"ChIJw3RSSwCDYDkRJtWda9iXmjE","Pranami Petroleum HPCL","Toll plaza, Kalol Panchmahal, Near, highway road, vadodra","22.6287757","73.5368901","true"
"ChIJT5ucCXgqXjkReiuFKG8_WS8","Hero","India","22.5704698","73.46494489999999","true"
"ChIJKXGnOlCBYDkRt8ifW2y41Qo","SHUBH PADMA PETROLEUM (ESSAR PETROL PUMP)","JG3X+P45, Malav","22.6042604","73.5478546","true"
"ChIJkzkfbW-DYDkROzIMGs22qaY","Hindustan Petroleum Corporation Limited","RS No 841/7 SH 5, Kalol, Bedhiya","22.676998","73.545734","true"
"ChIJ5QLrE3WDYDkRMF7iEEY1hRo","N.M Patel petrol pump(nayara)","MHJ5+VP, Vejalpur","22.67888379999999","73.5599857",""
"ChIJz16wA16DYDkRpE14tDOKsL4","Hindustan Petroleum Corporation Limited","Plot No 578/P SH 5, Kalol, Vejalpur","22.6854501","73.5537901","true"
"ChIJVSKaIyaDYDkRmLS2WJcOllA","CNG PUMP","Gujarat State Highway 87, Vejalpur","22.6896732","73.55709379999999","true"
"ChIJhfrr6xuDYDkRWwKfh42fUGI","IndianOil","Survey No 606606, P1 & 604 P1, Vejalpur, Bhalaniya","22.68978","73.55684","true"
"ChIJy49pPN2BYDkR2b8mRC43aEY","IndianOil","No 30, 14 Versada, Arad Road, Halol","22.557477","73.5357172","true"
"ChIJgwwDOwAnXjkRN90uRH3LI08","Anthem Petroleum","Q92P+W7, Tulsigam","22.7522763","73.38564769999999","true"
"ChIJT5ageQCdYDkRj86pvAen4u8","Hindustan Petroleum Corporation Limited","Ground Floor Tuva, SH 153, Isrodia, Vejalpur","22.736635","73.508186","true"
"ChIJJ9zh5D2dYDkRUMhUFSEGT0o","IndianOil","Survey No 676 Mehalol, Godhra","22.730294","73.517253","true"
"ChIJxZkl2x6bYDkRlUenJ_TB_iM","Hindustan Petroleum Corporation Limited","RS No 32/5P SH 5, Vanakpur","22.739555","73.6015501","true"
"ChIJDfgrWP-FYDkRwQ1AiZCXN5o","Mansuri Petroleum BPCL","CHIMNAPURA, KALOL, Nandarkha","22.7075754","73.57394959999999","true"
"ChIJB9a6iviFYDkRWITo8ojBu7s","Hindustan Petroleum Corporation Limited","State Highway 5, Plot No 17, Kalol, Nandarkha","22.710027","73.57641199999999","true"
"ChIJoSRr3pKbYDkRll9xQGpKMd4","IndianOil","113/1, Popatpura","22.7219847","73.5829081","true"
"ChIJ0eBzCjmbYDkRnzXX3JHc34o","Jio-bp","Jyoti Kamal Hotel, Ground Floor Sh 05, Vadodara Highway, Besides Hotel, Popatpura Road, Godhra","22.726017","73.587234","true"
"ChIJK7Pa35mbYDkRp72-oB6S1ek","VIDHAYA PETROLEUM","Vanakpur","22.72974370000001","73.5964888",""
"ChIJOSC3Dq2bYDkRKPnRbQFuiTo","ARSH MINERALS DEF","opp. Supreme Hotel Baroda, Godhra Highway, Popatpura, Godhra","22.7373743","73.59369690000001",""
"ChIJfTXY30ubYDkRWvzsI06ktfA","IndianOil","S No 41P2 Vanakpur, Godhra, Vejalpur","22.73671079999999","73.5950187","true"
"ChIJEU0pmF6bYDkRamJseMo2aAY","Daulti Petroleum (BPCL)","Gujarat State Highway 5, Vanakpur","22.7373025","73.5961602","true"
"ChIJrYIdXACbYDkRihTWqMhyA4E","Indian Oil Petrol Pump","QJ22+J84, Chikhodra","22.7515083","73.60083019999999",""
"ChIJ5xrjR_mbYDkRoM2gkoOPKxg","Gujarat Gas Station","Unnamed Road, Chikhodra","22.7517386","73.6011345","true"
"ChIJmW0FEbcmXjkR7rm7SgWlae4","Hindustan Petroleum Corporation Limited","Sy No 83, Desar, Tulsigam","22.773695","73.39045399999999","true"
"ChIJgb0KH0shXjkRsxVEDDs7WSU","Essar Petrol Pump","Q9MR+VMP, rajnagar, Udalpur Savli Road","22.7847059","73.3916927","true"
"ChIJt4JDniMhXjkRRoqYEWuZUTw","ESSAR","India","22.8037529","73.4093073",""
"ChIJRXE6WZQhXjkRD_4nrdbKijA","Shri Sai Enterprises","RC47+9R3, Indore - Ahmedabad Highway","22.8058984","73.4145513",""
"ChIJpacrXQAhXjkRqUouc4SXXgI","Petrol pump","RC3P+7Q, Moti Kantdi","22.8036028","73.43725839999999",""
"ChIJF2iLeWohXjkR2BOCUvD8f44","Hindustan Petroleum Corporation Limited","SR No 1, Pandyapura to, Savali, Timba Road","22.8067151","73.390861","true"
"ChIJg8dueAAhXjkR1DoHlSxi_DE","KRISHNA AGRO ENERGY","R96W+6W8, Timba Road","22.8114984","73.3964033",""
"ChIJtU2RHO4hXjkRCu_seUpn4eE","Hindustan Petroleum Corporation Limited","S No 397, Paiki 2, NH 47, Tuwa","22.803872","73.4498801","true"
"ChIJk3pJwA8hXjkRRhY8iK77xGk","IndianOil","S No 559/P Timba, Godhra, Juni Dhari","22.820705","73.404631","true"
"ChIJ6bpBMDeeYDkRvjWlgRNdSXs","IndianOil","No 190, C S No 341 & 667, Godhra, Kakanpur","22.8301998","73.4833391","true"
"ChIJjyUuKwCfYDkREl1QIzOkbBE","Mahadev petroleum","RFPJ+JHC, Kakanpur","22.8365689","73.4813824","true"
"ChIJ69uuQDWaYDkRzuir-F_-p6k","Radha Rani Petroleum Hindustan Petroleum","Panchmahal SH-12, Ahmedabad Highway, Udalpur","22.7847281","73.6078776","true"
"ChIJaRMouDWbYDkRTvf6encH_Dw","EKTA BIODIESEL PUMP BHAMAIYA CHOWKDI","QHJR+3Q5, Old NH-59","22.7801448","73.59198669999999","true"
"ChIJ1aGDuzSbYDkR9UHSthycHu4","NAYARA PETROL PUMP - SIMLA PETROLEUM","GODHRA- AHMEDABAD HIGH WAY NEAR BHAMAIYA, JAKAT NAKA, Godhra","22.7804415","73.59538599999999","true"
"ChIJtQxmMIGbYDkRh-p3YW8wK8k","Al Safa Petroleum","Ahmedabad highway, Simla, Market, Godhra","22.7807296","73.5962704","true"
"ChIJnbegoHubYDkRcJhF19UD-cg","Master petroleum","Chikhodra","22.7613518","73.5996437","true"
"ChIJAwWWndObYDkRcbir1ohrBcE","IndianOil","RS No 344 Chikhodra, Godhra","22.7613455","73.5999803","true"
"ChIJZXHSagCbYDkR5Q38KdTMGsU","ROYAL PETROLEUM NAYARA","QJ62+84G, Godhra","22.7608084","73.600329",""
"ChIJZckqnACbYDkR699lnsllAoM","F S PETROLEUM","R.S.No. 380/A, Vadodara Highway, Chikhodra","22.7580583","73.6036309","true"
"ChIJUX0zNACbYDkRwDJ1TfsqobA","Hindustan Petroleum Corporation Limited","Ground Floor, Halol - Godhra Road, Chikhodra","22.7578608","73.6037901","true"
"ChIJzVdFwrKbYDkR9lz8BTkRwtk","Hindustan Petroleum Corporation Limited","Plot No 477, Vejalpur Road, Godhra","22.7731101","73.6053701","true"
"ChIJb-kV9CSbYDkR2XI_JE2-zaw","Bharat Petroleum, Petrol Pump -Hakimia Automobiles","RLY STN ROAD, Godhra","22.7754003","73.6067371",""
"ChIJB1DbpM-bYDkRwdwvJ8KiavA","Hindustan Petroleum Corporation Limited","RS No 919 Paiki, opposite Catholic Church, RS No 902/3, Ahmedabad Highway, Godhra","22.784464","73.607616","true"
"ChIJHWpRYpCbYDkRopPPA9Id2vI","Maahi Enterprises","44, Godhra","22.7746946","73.6104208",""
"ChIJA4VzYMqbYDkRjkwt5oLxn1w","Shakil petrol wala","Shakil Huri, Gondra, Godhra","22.7686796","73.61498999999999",""
"ChIJI1PoPUmaYDkRLXyRuBdTzpQ","Hindustan Petroleum Corporation Limited","B & C1 Shahera, Plot No 15/194A, Bhagol, Godhra","22.7789501","73.6140501","true"
"ChIJ_VbbfQCbYDkR5S1bpCWi1_0","Veganpur","Gaytri Complex, Lunawada Road, Bhaibhav Nagar, Godhra","22.7876681","73.61628379999999",""
"ChIJGT2bVv6bYDkRrmava8bI02I","HARSH PETROLEUM | NAYARA","nr. FCI 977Godown, Lunawada Road, Bhaibhav Nagar, Godhra","22.7874655","73.616496","true"
"ChIJDbmT9v-bYDkRrJPGWpYW0QQ","IndianOil","opp. SRP GROUP 5, NEAR GIDC, opp. SRP GROUP 5, Lunawada Road, Godhra","22.7971032","73.61698120000001","true"
"ChIJj38BMUOaYDkRUL2AdqLfJRE","IndianOil","Ground Floor, Prabha Naka, Indore Road, Chhalor, Dahod","22.773963","73.626181","true"