place_id,name,address,latitude,longitude,open_now
"ChIJXy7mHcvLWTkRTSOrmkhii0s","Bharat Petroleum","Kalawad Road, Vrindavan Society, Nana Mava, Rajkot","22.2782735","70.762579","true"
"ChIJb0QJMcvLWTkRvf_rP_G61Oo","Shell","Kalawad Road, Vrindavan Society, Rajkot","22.2793346","70.763922","true"
"ChIJSXShczPKWTkRhS0gAuHCciA","IndianOil","Ground Floor, Kalawad Road, Rajkot","22.282818","70.766853","true"
"ChIJlRNKhdLLWTkRZ9STGOtge9M","HP Petrol Pump","University Road, Panchayat Nagar, Rajkot","22.2875813","70.7621502",""
"ChIJX_Jko2nKWTkRuIH-AIqwhXA","Suryavandana transport Bharat Petrol pump","Street No.1, Mavdi Main Road, Mavadi Industrial Area, Chandreshnagar, Rajkot","22.2713284","70.79057019999999","true"
"ChIJh1dZPorLWTkRzXH_2IwAigo","BPCL Fuel Station","Rajkot","22.2384126","70.7596664","true"
"ChIJbeoe4CbLWTkR3cGj-pYE8bs","Hindustan Petroleum Corporation Limited","Ground Floor, Lodhika Road, Pal","22.222151","70.761641","true"
"ChIJNwt1UZbLWTkREzuZnljpbPA","TILALA CNG ONLINE","Pal","22.228282","70.7647405","true"
"ChIJG4EcLwDLWTkR6oQ244JylbE","TILALA PETROLEUM","2nd Ring Road, Pal","22.2263592","70.7658902","true"
"ChIJozmNb9LLWTkRWbinrGaiDV4","I KHODAL PETROLEUM","Village Pal Mavdi Ravki, Road, Rajkot","22.2098496","70.7557601","true"
"ChIJyXVp80jLWTkRXBZbrXxBWaw","Balaji Petro Club","2, near Balaji Petro Club, C/O, Mavdi Main Road, Rajkot","22.2369425","70.7672679","true"
"ChIJWRLwZqVJxzsR6ll6LJcA9rM","IndianOil","Survey No 138, Mota Mava, Rajkot","22.2604638","70.7535497","true"
"ChIJ8Q1rtpw1WDkRU1JsyIsCGtg","Shree radhe petroleum","6P2M+4R5, Mavdi Main Road, Ravki","22.2003125","70.7338125","true"
"ChIJ5St2j_jLWTkRmcZk8vPlDy4","Bharat Petroleum, Petrol Pump -BP-Rajkot","KALAWAD ROAD RAJKOT NR RAN, Rajkot","22.2671562","70.7240518","true"
"ChIJE30fEADLWTkRH7amH5Mf9M8","Bharat Petrolium","7Q37+H65, Rajkot","22.2538769","70.7631099",""
"ChIJ2ciYSHDMWTkRJXD62J1iA1Y","IndianOil","Ground Floor, Vajdi Virda, SH 23, Kalawad Road, Kankot, Rajkot","22.2588356","70.7043115","true"
"ChIJN2QqwTvLWTkRGTKbyrAzmt4","Centria Fuels","near Saraza, Kalawad Road, Rajkot","22.2699434","70.741686","true"
"ChIJ-UIvhoXLWTkRfQeycvDjtc4","Nayara Petrol Pump - L and D Energy","S. No. 27, Survey No. 343/1 Paiki, Plot No. 85 to 90, T.P, F.P. No. 16 O.P. No. 16, Mavdi, Rajkot","22.2470264","70.7704778","true"
"ChIJrcTGfQDLWTkRZiBdvmVAToM","Gujarat Gas CNG Station","Mavdi Plaza, near Sarvodaya School, 203, 80 Feet Road, Mavdi, Rajkot","22.2459052","70.7720176",""
"ChIJx2wHiv_LWTkRy3YMwNLJg2A","Hindustan Petroleum Corporation Limited","Plot No 52, Pal Road, Mavdi, Rajkot","22.2464498","70.7724662","true"
"ChIJ-zV2qZbLWTkRt1FjMiTq7jY","JK Energy","near Jay Khodiyar Farm, 2nd Ring Road, Lodhika, Pal","22.2152666","70.7700029","true"
"ChIJcU2Nm_7LWTkRd3lp8RzckH8","B & H FUELS AND LOGISTICS","Oppo Kathiyavadi Jalsa, Kalawad Road, Nana Mava, Rajkot","22.2736457","70.75185119999999","true"
"ChIJ56HfVqVA_xMRrnG0PDnlr4s","Hindustan Petroleum Corporation Limited","Ground Floor, SH 23, Rajkot Jamnagar Highway, Vajdi","22.2497201","70.6835901","true"
"ChIJb_CfhI3LWTkRQMA030CEAjU","MAA petrochem","202, Nana Mava Road, Satyam Park, Shastri Nagar, Rajkot","22.2708211","70.766424","true"
"ChIJIcwDw1DMWTkRe5GLWGEjs0I","Gohil Raj Petroleum","VAJDI, NR GIDC, Metoda, Rajkot","22.24926409999999","70.67909259999999","true"
"ChIJhZ0Pw1vKWTkR-dqoz5fi7hk","EAGLE MOTORS","India","22.261282","70.7805408",""
"ChIJj-RdDUHLWTkROVqIS7XFDF0","Nayara Petrol Pump - Narendra Petroleum","Nana Mava Road, Rajkot","22.2719228","70.77126799999999","true"
"ChIJWXY_5NfLWTkRCcy4BORlr1w","Vavdi Fuels","opposite Tapan Hights, 80 Feet Road, Rajkot","22.2414043","70.7893251","true"
"ChIJa-XF4gbLWTkR8BnODxfgHrk","IndianOil","Ground Floor, near Rani Tower, Kalawad Road, Rajkot","22.2790185","70.76364319999999","true"
"ChIJwwJeXU3LWTkReIXiS-A4nhM","Hindustan Petroleum Corporation Limited","No 54/P/2, Survey, Vavdi, Rajkot","22.2405316","70.78982959999999","true"
"ChIJP3xi-Do1WDkRfPe_tM4NuMA","Hindustan Petroleum Corporation Limited","Rs No 13 Kansiyali, Road, Dholra","22.1996238","70.7776232","true"
"ChIJ5w8gR0XNWTkRFxxIYYHSXTQ","Reliance Gas (Prabhu Gas Agency)","opp. Sahyog complex, 20, Kalawad Road, GIDC, Lodhika, Metoda, Rajkot","22.2443218","70.6743295",""
"ChIJjZJjlkTKWTkRHSz3ugL1ZsE","GS Caltex","India","22.267813","70.7812118",""
"ChIJNZtccQDLWTkRH_hwNTA-MJU","Pumping","7PRJ+7Q7, Rajkot","22.2906717","70.7319117",""
"ChIJDS0t-yjLWTkRH6GMqfewH1s","Nayara Petrol Pump- Amrut Petroleum","150 Feet Road, Umiya Chowk, Shastri Nagar, Dharam Nagar, Rajkot","22.261785","70.7862908","true"
"ChIJld5Ox6HLWTkRYtx_fXxAPFY","Shell Petrol Station","opp. Hotel Fortune Park, 150 Feet Ring Road, Mavdi, Rajkot","22.2578647","70.78885249999999","true"
"ChIJISxM_MTLWTkRyY0TEWEycRw","Siyansh Petrolium","B 1, Corner, Sadhu Vasvani Road, Rajkot","22.2838185","70.7639014",""
"ChIJy68C0I7LWTkR4ms1imfIxZs","IndianOil","150 Feet Ring Road, Nana Mava, Rajkot","22.2723","70.78009999999999","true"
"ChIJnUxvt_PLWTkRT4RDs5fbzU4","MSHSD HP Auto Centre RMC2 Petrol Pump - HP Petrol Pump","Circle, 150 Feet Ring Road, Nana Mava, Rajkot","22.2771703","70.7778206","true"
"ChIJfUImzdjLWTkRnoISamst8Mw","Hindustan Petroleum Corporation Limited","Plot No 4, 150 Feet Ring Road, Rajkot","22.277249","70.7778817","true"
"ChIJw5O60fzLWTkRw2XoVzEDn4c","Radhe fuel (nayra petrol pump)","6Q7V+CVW, near RADHE FUEL (NYARA PETROL PUMP, Punit Nagar Road, Punit Nagar, Mavdi, Rajkot","22.2136182","70.7947025","true"
"ChIJXaBt1j7LWTkRIE3HlqD7Ks4","Shiv Petrochem","On 150 FT Ring Road, Opp. BRTS bus stand, Gondal Chowkdi, Rajkot","22.2434639","70.7990037","true"
"ChIJZUTk8v7JWTkRKJmjTlhxtUk","SATADHAR PETROLEUM-BPCL. CNG PUMP ONLINE","new 150ft ring road","22.2964576","70.7282602","true"
"ChIJTealXIQ1WDkRCtLBoX3zC5k","POOJA PETROLEUM","nr. Pooja Pan, Virva Dholra, nr. Pooja Pan, opp. Khodal Hotel, Main Road, Virva","22.17213839999999","70.7439216","true"
"ChIJw1ukFlg1WDkR7ecTXDkgBQg","Ram petroleum","2nd Ring Road, Dholra","22.1937227","70.78422069999999","true"
"ChIJUfhpR3HLWTkRQ6rajtU8bmY","Bharat Petroleum, Petrol Pump -Suryavandana Transport","MAVDI ROAD,RAJKOT NEAR FIR, Rajkot","22.247475","70.79969109999999","true"
"ChIJB437iY_KWTkRxpKAmr2z0yw","IndianOil","Gondal Road, Kotharia","22.2471791","70.7998033","true"
"ChIJzwZbn5rKWTkR9hBLSpIDB5Q","Pride","India","22.2442248","70.8004148",""
"ChIJpbm7IKXKWTkRzf1UfGUWBDw","Amin","6RG2+7GJ, Maruti Steel Road, Vavdi, Rajkot","22.22571360000001","70.80127929999999",""
"ChIJs8DLUKVA_xMRwpVqEUWPhT8","Amco Diesel Service","6RX2+V5F, Outside Octroi Naka, Gondal Road, Rajkot","22.249688","70.800414",""
"ChIJFeExxEHKWTkRrG9y43wPpRY","Ravi Mandap Service","India","22.2746075","70.7871426",""
"ChIJVySRK-TLWTkRLKCMi5x5WYY","Tripada petroleum & CNG Pump","Gondal Road, Rajkot","22.2537451","70.7998872","true"
"ChIJ9VifsUXLWTkRh2fHs1kaFWs","Guru Nanak fuel station","Laxmi Co Operative Housing Society, Chandreshnagar, Rajkot","22.2775974","70.7855819","true"
"ChIJlQo-YNrLWTkRiz2pyyYpjBg","Khodal Petroleum","Ganga Hall Chowk, Surya Park, opp. Chandan Super Market, Amin Marg, Rajkot","22.2848692","70.7775049","true"
"ChIJL6b4rKjKWTkRUIFwIbovD6Q","Aerodyne pump industries","PLOT NO 1 B , VARDHMAN INDUSTRIAL AREA , B/H KOTHARIYA SOLVANT, Chandreshnagar, Rajkot","22.2724594","70.7904126","true"
"ChIJu7nYM4TKWTkRlS8ImbbHOVI","FI STAR SUBMERSIBLE PUMP","India","22.2493864","70.8025637",""
"ChIJE0PmKBs1WDkRDHxzmviT09k","IndianOil","S No 36, Paiki 1, Survey No 167, Old, Kangsiyali Road, Lodhika, Khokhdadad","22.2106603","70.800697","true"
"ChIJ7wT71jE1WDkR2VeU4FyRD0k","YUVRAJ FUELS (BPCL RO)","ON NH-27, Rajkot - Gondal Highway, Rajkot","22.2103493","70.80057339999999",""
"ChIJN3c6k6jLWTkRkl9fgXZQwZQ","RMC 5 HP Petrol Pump & Gas Station","Plot No 515, Gopal Chowk, Rajkot","22.2960146","70.7618914","true"
"ChIJYfeiTVzLWTkRU8ryLzNCiI4","AMUL PETROLEUM","Gondal Road, Panchsheel Park, Samrat Industrial Area, Rajkot","22.260075","70.7999652","true"
"ChIJLYkjq87FXzkR96453TZKffw","IndianOil","Ground Floor, opposite Murlidhar Way, Gondal Ahmdedabad Bypass, Kothariya","22.26632","70.82401469999999","true"
"ChIJqQ4uhg3KWTkRuvHN42agfM8","Gujarat Gas CNG PUMP","Dhebar Road, Bhaktinagar Station Plot, Bhakti Nagar, Rajkot","22.2835892","70.8002233","true"
"ChIJQfNlpBLKWTkRk5JQYX1J7_Q","Shell","Gondal Road, Rajkot","22.2803176","70.79957259999999","true"
"ChIJ8_K85A3KWTkR3FhRt_tyLho","IndianOil","Ground Floor, Dhebar Road, Rajkot","22.285366","70.8010547","true"
"ChIJCc_3NA7KWTkRrz02dzqxhV4","""Bhadlawala"" Bharat Petrol Pump","Dhebar Road, Millpara, Bhakti Nagar, Rajkot","22.2888565","70.80149229999999","true"
"ChIJrwaI0tXLWTkRb1Gu7mmclRc","Bharat Petroleum, Petrol Pump -Malviya Brothers & Co","Malaviya Chowk, Rajkot","22.2914163","70.7991144","true"
"ChIJkYB-EAXKWTkRgJJS-1Ncegc","STERLING AGENCIES","Street Number 3, Rajputpara, Rajkot","22.29286279999999","70.8021004","true"
"ChIJpfK4OgXKWTkRd7tarJNsqCI","Shell","Doctor Yagnik Road, Trikon Baug, Rajkot","22.29359999999999","70.80093","true"
"ChIJOeGWBHE1WDkR7t8080ro1Vg","Hindustan Petroleum Corporation Limited","Ground Floor, National Highway 27, Pardi, Rajkot","22.1730588","70.7966793","true"
"ChIJk88E6Z41WDkR4xDXjabt60Y","Hindustan Petroleum Corporation Limited","Ground Floor, NH 27, behind Maruti Petroleum, Porbandar Highway, Rajkot","22.163301","70.792701","true"
"ChIJbbS63qHKWTkRa1N48GNtGwM","Shivam fuel, Bharat Petroleum","India","22.2348352","70.80782479999999","true"
"ChIJew0_e485zzsRJ_GR1IoSUkU","IndianOil","Survey No 285/1 Paiki 1, Paiki 123, Kotharia","22.22981559999999","70.8173011","true"
"ChIJ-VhrzNtLWDkRJ3bD8WQVnDQ","DHANLAXMI PETROCLUB","6RJ9+845, NR.TELEPHONE EXE. KOTHARIYA, KHOKHADAD ROAD, Rajkot","22.2302186","70.8174538","true"
"ChIJq9fD7K-1WTkR5R3LagKiA8g","Nayara Petrol Pump - Nandanvan Petroleum","opp. Kothariya Main Road, sutha hanuman sorathiya circle, opp. Kothariya Main Road, Swati Park, Rajkot","22.2401709","70.8168257","true"
"ChIJA91gGK61WTkREhiHmpv1zAA","Gujarat CNG Gas Online","6RJ9+F4, Rajkot","22.23125469999999","70.8181511","true"
"ChIJB57S6-DLWTkRM4fT4lGrpJg","KRISHNARAJ PETROLEUM","Kothariya Ring Road, GIDC, Rajkot","22.2493475","70.8059531","true"
"ChIJV9wC8rXLWTkRgXqO_mTRbOI","Ved Industries","Virani Agat, Madhav Nut Bolt Street, Dharti Industries,1st Floor,Pragati Society, 2, Bolbala Main Road, Rajkot","22.2505962","70.80400510000001",""
"ChIJswt22Z7LWTkREoiPeFWkUAg","Dharti Die Repairing","First Floor, Pragati Society, Street -2, Bolbala Main Road, Rajkot","22.2506388","70.80423809999999",""
"ChIJZ2O9MFbLWTkRvBrVvTTyKBE","DHARTI INDUSTRIES","PRAGATI SOCIETY, Virani Aghat, STREET -2, Bolbala Main Road, Rajkot","22.2507151","70.804345","true"
"ChIJBcX952DLWTkR9tSqSvPI9oQ","Hindustan Petroleum Corporation Limited","Ground Floor, Kotharia","22.250756","70.811403","true"
"ChIJFY_HSmPKWTkRvMpZ1AZdKHo","IndianOil","near Toyota And Skoda car show room, Post T. B. Hospital N. H. 8-B, Rajkot - Gondal Highway, Rajkot","22.2080706","70.8011649","true"
"ChIJqx5RUI3LWTkRg-hRahWaOQ0","V V BHARAT ENERGY STATION","opp. TRUE VALUE, Gondal Road, Rajkot","22.2656932","70.7999486","true"
"ChIJOx7HQJi1WTkRTfviVYTyaC4","Nayara Petrol Pump - Raghuvir Petroleum","Raghuvir Petroleum, opp. Manav Uthhan Seva Samiti, Kothariya Main Road, Shri Ram Park, Rajkot","22.2648284","70.8139798","true"
"ChIJf3LiCYO1WTkRVwZSble_aow","Speed Industries","7R7C+C93, Street Number 5, Africa Colony-6, Madhuram Society, GIDC, Rajkot","22.2635032","70.82091729999999",""
"ChIJEarSY3DKWTkRVVBTQVhuDTo","Jalaram Petroleum","7R93+X56, Near Debar Colony Phatak, Narayan Nagar Main Road, Bhakti Nagar, Rajkot","22.2699","70.8028889","true"
"ChIJEfeXCIq1WTkRJpYqvsR0Mqk","SUN Petroleum","near nilkanth cinema, Kothariya Main Road, Rajkot","22.27139219999999","70.8130243","true"
"ChIJz8fvi27KWTkRpugyN71IjEA","Balaji Pump","No 2, Gondal Road, Trikon Baug, Panchnath Plot, Sardar Nagar, Rajkot","22.2727242","70.7968097",""
"ChIJYdjr8TY1WDkR-9GND-OazY0","Sadguru Energy, Nayara Petrol Pump","Survey no.361,plot no.2/c,at.paradi, ta, lodhika","22.1945812","70.7942915",""
"ChIJ4VuBFJW0WTkRTFCFE25-BJA","IndianOil","S No 73/P Bhandaria, Kalipat","22.24636","70.88541599999999","true"
"ChIJecbrg0G1WTkRcd-g_bs2EVo","Gujarat Gas CNG Station","6VWP+C3M, Gujarat State Highway 25, Rajkot","22.2460993","70.8851796","true"
"ChIJ5RnvHgC1WTkRXM3BUS-FgXY","કાળીપાટ ચોકડી","6VWP+4CC, Gujarat State Highway 25, Rajkot","22.2453215","70.8860002",""
"ChIJoWwtiFW1WTkRNOMIsn1Agvc","Bharat Petroleum Petrol Pump , PATEL PETROLEUM","MAHIKA THORALA, SH-25, Rajkot","22.275572","70.8599048","true"
"ChIJI8mzOLJMWDkRoytGX1xNxB4","IndianOil","Ground Floor, Tramba","22.221675","70.92094999999999","true"
"ChIJa68RI7K1WTkRmg4oVqse_VA","Hindustan Petroleum Corporation Limited","Ground Floor, Aji vasahat, opposite Octroi Naka, Rajkot","22.276901","70.83930099999999","true"
"ChIJR3ZcsjZNWDkRp6LXQF6_lGw","Bharat Petroleum Petrol Pump, Bhavdeep Petroleum","VILLAGE ANIYARA, Bhavnagar - Rajkot Road, SH","22.2119586","70.9279444","true"
"ChIJ92sKLgdLWDkRa-Mj8UIJlHM","Shreeji Petroleum BPCL","5RVH+P2X, Khokhaddad - Kotdasangani Road, Rajkot","22.194367","70.8276166","true"
"ChIJSSeyludLWDkRRnmONc_hxw8","Hindustan Petroleum Corporation Limited","Ground Floor, Khokhaddad - Kotdasangani Road, Rajkot","22.183971","70.838571","true"
"ChIJidwUEce1WTkRXKqfAeu9ZMQ","Hindustan Petroleum Corporation Limited","Survey No 163, Ahmedabad Porbandar Highway, Rajkot","22.2847318","70.8370348","true"
"ChIJqyrplQJNWDkRN4t8CTmz5Eo","Gel Maa Petroleum","6W4M+G34, Aniyala","22.2062608","70.9327095",""
"ChIJMVqSiXa1WTkR7nuURploUhQ","RMC Petrol Pump","7RMJ+MF2, Bharat Nagar, GIDC, Rajkot","22.2841448","70.8311306","true"
"ChIJcQMXHN61WTkRs-mZd7moiys","Jio-bp petrol pump","Aaji dem, Ambedkar Nagar, GIDC, Rajkot","22.28449729999999","70.828147","false"
"ChIJf-nBxom1WTkRceMjeX02DDw","PREMIUM PETROLEUM COMPANY","India","22.27403989999999","70.8132711",""
"ChIJx8iNtvO1WTkRIPL-pXaTATs","Hindustan Petroleum Corporation Limited","Ground Floor Rajkot porbandar Hwy, NH 27, Dudhsagar Road, Rajkot","22.2927337","70.8344077","true"
"ChIJTWz3HGS1WTkRC_iNCgTNZdU","Mahadev Petroleum Nayara Petrol Pump","om enterprise, opp. Saral Stove, 80 Feet Road, Sarvodya Society, Aji Industrial Estate, Rajkot","22.2837975","70.8215798","true"
"ChIJiyMsxO21WTkRNt4nCgNdG58","Hindustan Petroleum Corporation Limited","Ground Floor, Bhavnagar Road, Rajkot","22.287733","70.8260817","true"
"ChIJqcnKABS1WTkRBgkhDLprUIg","Jio-bp","Cts Kacheri, opposite Field Marshal, 12, 80 Feet Road, Aji Industrial Estate, Rajkot","22.2829636","70.8197101","true"
"ChIJtZ3Xove1WTkRr9K4dUOho5M","Mahadev petroleum","7RM9+6CQ, near hyundai showroom aji, 80 Feet Road, GIDC, Rajkot","22.2830986","70.8186157","true"
"ChIJEX7k0PS1WTkRE3yF1GHPDXM","IndianOil","Sorathiawadi, 80 Feet Road, Rajkot","22.2827825","70.8154917","true"
"ChIJlbxi1JzJWTkRBoHn8jIS-lk","Hindustan Petroleum Corporation Limited","Ground Floor, near Ramapir Chowk, 150 Feet Ring Road, Rajkot","22.3104801","70.7673401","true"
"ChIJ1cd67YDJWTkRc-P70Kp77b0","IndianOil","150 Feet Ring Road, Chokdi, Near, Raiya Road, Rajkot","22.300681","70.768089","true"
"ChIJ72Isx9_IWTkRPfPMFLkrXqg","Gujarat Gas CNG Station","8PVQ+6Q2, Rajkot","22.3430131","70.7393826","true"
"ChIJ-Yqd6abJWTkREu28lq4DH6w","Gujarat Gas CNG Station","8QH9+M9W, Jamnagar Road, Manharpura 1, Madhapar, Rajkot","22.3292254","70.76846309999999",""
"ChIJPdZAm6PJWTkR0Cpp7ASYUr0","Hindustan Petroleum Corporation Limited","Plot No 13A, Jamnagar Road, Madhapar, Rajkot","22.327308","70.7729324","true"
"ChIJMxi3iMfJWTkRcMlcVmvsdn8","Vivek Fuel - BPCL Petrol Pump","Vivek Avenue, Main Road, 80 Feet Road, Railnagar, Rajkot","22.3336671","70.7884845","true"
"ChIJ31dd0L3JWTkR7PBL5aRbHtM","Nayara Petrol Pump - Vikram Petroleum","Vikram Petroleum, opp. Shriji complex Nr. Aalap green city, Raiya Road, Rajkot","22.3015188","70.7598123","true"
"ChIJ70z-8dLJWTkRIUEx_Ctn5b4","Hindustan Petroleum Corporation Limited","Scheme No 4, near Raiya Shopping Centre, Plot No 654, Raiya Road, Rajkot","22.301083","70.76158459999999","true"
"ChIJC_svWgDJWTkRuRhj0PgvOqQ","ZALAWAD PETROLEUM","Rajkot","22.3349225","70.7355551","true"
"ChIJ2bEMFFrJWTkR5L5E0oHhSrg","Shell petrol pump","STERLING HOSPITAL, 150 Feet Ring Road, Rajkot","22.306656","70.768525","true"
"ChIJz8mcFBXKWTkRGDU5muWSrRs","REEVA ARCHITECTURE PLUS DESIGN","310 - VISION 2020, NEAR LIJJAT PAPAD, Ring Road Circle, 150 Feet Ring Road, Rajkot","22.3141732","70.767395","true"
"ChIJE5Tf0-PJWTkRyNKkhjKXkJg","BODA RAKEAH RAJUBHAI","Gandhigarm, Main Road, SK Chowk, Gandhigram","22.307097","70.76931309999999",""
"ChIJb6PcQADJWTkRSYfQElfkMjg","Vikrant Petroleum","8Q79+M5H, 150 Feet Ring Road, Rajkot","22.3141796","70.7679994",""
"ChIJS3O3khjJWTkRVVJC-KPiQro","Vijay Arjun","403, The Spire, Nr Shital Park BRTS Stop, 150 Feet Ring Rd, Sheetal Park, Manharpura 1, Raya Chowk, re Bapa Stram, Dharam Nagar, Rajkot","22.3188799","70.7670168",""
"ChIJM9mQa-PJWTkRUQOyoFCgnuI","DIPAK SOMESHWAR","opp. Gayatri Dairy Form, Gandhigram Main Road, SK Chowk, Satyanarayan Park, Gandhigram, Rajkot","22.305716","70.7706934",""
"ChIJzWQ2fQDLWTkR4H8oHP1t7jU","Teja Engineering Industries Ltd","7QWC+R2H, Raval Nagar, Rajkot","22.2970609","70.7701043",""
"ChIJs68lZrbJWTkRD2HwHZ84VtI","YASH BODI REPERING","Kanya chowk main road, Raiya Road, Shivpara, Rajkot","22.3025964","70.7708365",""
"ChIJrVu5cinJWTkRIxFR2vF-y4c","AFSANA AMINBHAI BALAPARIYA","Street no 9, Main Road, Gandhigram, Rajkot","22.3056611","70.7712",""
"ChIJ8XORwQfJWTkRwfZ8xquLHIw","IndianOil","Ground Floor, Jamnagar Road, Hadmatiya, Madhapar, Rajkot","22.3336018","70.76279029999999","true"
"ChIJOXKpLKTJWTkRD7Aoa0ByGrw","IndianOil","Madhapar Chokdi, Jamnagar - Rajkot Highway, Rajkot","22.3294","70.7684","true"
"ChIJb8KScADJWTkR9nFE-OVFX30","Nayara Petrol Pump Nandanvan Fuel","Jamnagar - Rajkot Highway, Para Pipaliya","22.3469401","70.72739659999999","true"
"ChIJcbgXZNTLWTkRBNCsYGd9OPE","IndianOil","Kalawad Road, Kotecha Nagar, Rajkot","22.291471","70.780807","true"
"ChIJ9bcFGgDJWTkRGXO-rJ1Qx5Y","Radhe Petroleum IOCL","8PXV+WMV, AIIMS Hospital Road","22.349869","70.744173",""
"ChIJKz8JhgPLWTkRjmLCrkpnFqM","IndianOil","Ground Floor, Kalawad Road, Rajkot","22.291911","70.781711","true"
"ChIJ2wOgCEPLWTkRVpDSThJjMkA","Raj Rajeshwari Petroleum","Raj Rajeshwari Petroleum, near Bamanbore Toll Gate, National Highway 8A, Race Course, Rajkot","22.30025010000001","70.78648220000001","true"
"ChIJl15I1XdnsDsRQOofFp9vJ2k","IndianOil","Ground Floor, Sadar, Rajkot","22.3007358","70.7865514","true"
"ChIJmzVAXbfJWTkR4bNpEwnUp2k","VADECHA SANJAY GANDABHAI","nr. Bas Stop, Jamnagar - Rajkot Highway, Rajkot","22.3174856","70.78646909999999",""
"ChIJRcSxlGnJWTkR4bJmibBNMs0","Hindustan Petroleum Corporation Limited","Ground Floor, 150 Feet Ring Road, Ronki","22.3404561","70.77822499999999","true"
"ChIJNdJmp5LJWTkR4u4_EVneRsw","Bharat Petroleum Petrol Pump , RCT POLICE WELFARE PETROL STATION","RAJKOT CITY, C-3-28, Jamnagar - Rajkot Highway, Police Head Quarter, Rajkot","22.3119231","70.7934023",""
"ChIJgaOHpB7KWTkRQQIs2vVtSEo","IndianOil","Kanya Chhatralaya Road, Bheelwas, Sadar, Rajkot","22.297316","70.793641","true"
"ChIJP--WRQC2WTkRBsmRoJsRRfc","Bharat Petroleum","8R47+PJR, Near Deluxe Cineam, Kuvadava Road, Sadguru Nagar, Rajkot","22.3068623","70.8140085",""
"ChIJ55CtVwC2WTkRd9VsflC4pUk","Shell","Kuvadava Road, Rajkot","22.306961","70.81483","true"
"ChIJq6paAgq2WTkR7JEiqs0GBKs","Gspc","8R4H+QXX, Shakti Society, Arya Nagar, Rajkot","22.3069932","70.8299727",""
"ChIJE--xAwq2WTkRAq9ObCqxZGk","Gujarat Gas CNG Station","8R4J+Q2V, Service Road, Shakti Society, Arya Nagar, Rajkot","22.30699899999999","70.83004629999999","true"
"ChIJKQcZpdTJWTkRGyMAwQYY31E","IndianOil","Ground Floor, SH 24, Rajkot - Morbi Highway, Bedi, Rajkot","22.348649","70.80679099999999","true"
"ChIJk2ib5g5G_xMRl9WcyOWR1O0","IndianOil","Ground Floor, NH 8B, Tpt Nagar, Navagam, Anandpar","22.3259888","70.8530917","true"
"ChIJj3v1CmS2WTkRMtRZxp7yxmU","IndianOil","Ground Floor, opposite Saat Hanuman Temple, NH 8B, Kuvadava Road, Navagam, Anandpar","22.325261","70.853595","true"
"ChIJC1gVSom2WTkRksmD9O9TbSs","Yatayat Sangam Bharat Petrol Station","Rajkot - Ahmedabad Highway, Rajkot","22.3268665","70.86453999999999","true"
"ChIJwdOVrCPJWTkR4JN4VFWunYc","XTRA CARE SERVICES","near Malod Chokdi, By Pass Road, Rajkot","22.3038946","70.8021601",""
"ChIJkU6IERXLWTkR1BlZmueGBFM","Cng Petrol","Lohanpara, Jawahar Road, Javahar Road, Rajkot","22.3024708","70.8018355",""
"ChIJC4L0eBLKWTkRXeLI1IWtu9Q","Parekh Estate Consultant","Harihar Chowk, Doctor Rajendra Prasad Road, Panchnath Plot, Sadar, Rajkot","22.298469","70.799168","true"
"ChIJI3AbDnTJWTkRRsndLbr2jqY","MITHAPARA SAGAR TALSI","15, Junction Plot Main Road, Junction Plot, Rajkot","22.3104393","70.7988345",""
"ChIJG__9RwC2WTkRk0EYnjut06s","Hindustan Petroleum Corporation Limited","Ground Floor, Old Rajkot, Ahmedabad Highway, Bedipara, Rajkot","22.306801","70.813441","true"
"ChIJfwfUfcW3WTkRNJgHMAe6JgM","National Petro Chem Authorize Dealer BPCL","Kuvadava Road, Sadguru Nagar, Rajkot","22.3068505","70.8140947","true"
"ChIJc2a86XW1WTkRYNTIOJttGGQ","Dc Enterprises","2, Street Number 1, Rajkot","22.3013485","70.816249","true"
"ChIJw-k-QwC3WTkRObKQGYddDv0","Reliance petrol pump","42, Kuvadava Road, Bhagvati Park, Ranchod Nagar Society, GIDC, Rajkot","22.3073368","70.8164019",""
"ChIJPV_m65O2WTkRHFEWHbJUFLI","Jio-bp","No 2953/54, next to Patel Parotha House, Paiki, Kuvadava Road, Rajkot","22.3074128","70.81647","true"
"ChIJNS046A_KWTkRQxOSxz7O58g","OM PETROLEUM","Shop no.16, Sanjay Complex, Rajputpara - 8, Rajkot","22.2901679","70.800983",""
"ChIJCe3TWSXLWTkRO0Y-_AIJ0DA","Shiv Shakti Petroleum","Madhapar Chowkdi Main Road, Main Road, Jamnagar","22.2900863","70.8026927",""
"ChIJf8zctg_KWTkRDq2NQR7-nG4","Hindustan Petroleum Corporation Limited","Ground Floor, Canal Road, Rajkot","22.289271","70.801911","true"
"ChIJGZAMd13LWTkR-qMLg6jRkBc","Janvi Motors","Gondal Road, Gunatit Nagar, Atika South, Panchsheel Park, Panchsil Society, Rajkot","22.2862417","70.7991013",""
"ChIJLQlxdBHKWTkRBgLU3iBHMyU","Navinchandra And Co","India","22.2864791","70.7967914",""
"ChIJ17thIAC1WTkRozzyPQujlq4","Hp petrol pump","Kailash Pan Wali Sheri, near Osho Print, Sant Kabir Main Road, Mayur Nagar, Shakti Industrial Zone, Rajkot","22.2969965","70.82112339999999",""
"ChIJjf9r6Q3KWTkRveCt5phS8Oo","ભારત સ્ટીલ & મેટલ","7RM2+WGP, Kanta Stri Vikas Grah Road, Lakshmiwadi, Bhakti Nagar, Rajkot","22.2848373","70.8013337",""
"ChIJL0Tp-561WTkR7CRcnoYSiY4","IndianOil","Bhavnagar Road, Chunarawad Chowk, Rajkot","22.294422","70.82041699999999","true"
"ChIJi_dsTRLKWTkRt2WsRIgQHfY","Eagle Pump","opp. Bank of Baroda, 12, Bhakti Nagar Station Plot, Bhaktinagar Station Plot, Bhakti Nagar, Rajkot","22.2844538","70.79812299999999",""
"ChIJO1Nm-HfLWTkRoIvZBTKy234","Bpcl bombay garage petrol pump","Swaminarayan Circle, near shyam complex, Gondal Road, Bhaktinagar Station Plot, Bhakti Nagar, Rajkot","22.2835634","70.8000331",""
"ChIJ2R2BqPy1WTkRZUMkgmtm7Xo","Raj Auto Garage","opposite Gokul Pan, St Kabir Rd 2-Gathiya Nagar Corner, opposite Gokul Pan, Arya Nagar, Rajkot","22.3000121","70.82520149999999","true"
"ChIJOe8RIADJWTkRg8jhdPtIubk","Hindustan Petroleum Corporation Limited","RS No 16P4, Main Road, TPS 31, Bhagvati Para, Rajkot","22.325616","70.807266","true"
"ChIJVQhzupu1WTkRpgTzlGRlkHU","Shivay Fuels -Dealer Indian Oil Corporation Ltd.","near Rajmoti Oil Mill, Bhavnagar Road, Rajkot","22.29165949999999","70.8229276","true"
"ChIJAYNue7zLWTkRyTi7m-2GcIc","Gautam Traders","Quarter No 289, 80 Feet Road, Garbi Chowk, Kothariya Colony, Rajkot","22.28154349999999","70.8085172",""
"ChIJRbQNzQzKWTkRBgCoArPjq90","Ashis Patroleum","Near Bhakti Nagar Circle,, Street No. 9, 80 Feet Road, Bhaktinagar Society, Bhakti Nagar, Rajkot","22.2805836","70.80392859999999","true"
"ChIJ6c51RfW1WTkRodGZDNY1s0g","IndianOil","80 Feet Road, Sorathiawadi Circle, Rajkot","22.282328","70.81294299999999","true"
"ChIJ40cyTnPKWTkRxo7X1JvoxmQ","Sunflower Oil","India","22.280081","70.8052506",""
"ChIJLaUX5p63WTkRH0oJJQ1T_7w","BPCL Lubes (MAK Lubricants) Depot Rajkot","Kherdi Road, Maliyasan Village, Rajkot - Ahmedabad Highway, Rajkot","22.31645129999999","70.8809255","true"
"ChIJye6_VAC3WTkRcd0Gtkq2jnk","Jio-bp Petrol pump","8VJG+6F2, Maliyasan","22.3305052","70.876127","true"
"ChIJFYTet2a2WTkRWlB7xel9KUs","ARABIAN PETROLEUM LTD","India","22.3278823","70.8529795",""
"ChIJW2nrAwC3WTkRsSV0asmtAt8","Landmark petroleum","8VJQ+2C, Maliyasan","22.3300946","70.88856109999999","true"
"ChIJ0V_yG7-2WTkR0acIZqAG_mM","Hindustan Petroleum Corporation Limited","Ground Floor, NH 27, Rajkot - Ahmedabad Highway, Maliyasan","22.3339201","70.88735009999999","true"
"ChIJYf0lNQC3WTkRx3gBKcIUuGg","Shukla Ashar & Co.","8VP4+FC, near Chowdi, behind BP petrol pump, Sokhada","22.3353805","70.8562579","true"
"ChIJJa-PxaG3WTkR4K7foQhhSAc","Nayara Petrol Pump - Balaji Filling Station","Navagam - Anandpar Main Road, Rajkot - Ahmedabad Highway, Navagam","22.3148315","70.8364516","true"
"ChIJHaQre4K1WTkRm8JE5hfAGyI","IndianOil","Ground Floor, near Marketing Yard, Anandpar, Navagam, Rajkot","22.2990972","70.83359089999999","true"
"ChIJafcJxpy3WTkRktE7lAIUZ6g","Dhanlaxmi Petrol Pump","Rajkot","22.3369144","70.8942114",""
"ChIJc9QStvu1WTkRA4eCcm_hDjU","Hindustan Petroleum Corporation Limited","No 8, Plot No 152/P, Rajkot - Ahmedabad Highway, TP Scheme, Arya Nagar, Rajkot","22.3066922","70.8300403","true"
"ChIJSXXeaQC3WTkRakrROoSmGX8","JoYa CNG Pump","CNG Fuel Station, Service Road, Shakti Society, Arya Nagar, Rajkot","22.3069932","70.8299727",""
"ChIJ9_6-tH63WTkR2OJwLjdzc-8","Nayara Petrol Pump - Sagar Petroleum","Sagar Petroleum, near Blackstone Hotel, Sokhada","22.3361002","70.8466466","true"
"ChIJJ_f3tQO3WTkRaQHHRIYUMKw","Jai Babari Fuels","Ground Floor 150 Ft Bypass, Road, Sokhada","22.3368362","70.84538450000001","true"
"ChIJSXCrSl63WTkRSINJpJ4Nqkc","HP PETROL PUMP RMC 6","near Greenland Chokdi, Plot No 94, TP Scheme 12, Rohidaspra, Rajkot","22.3163511","70.8265504","true"
"ChIJQYHUXwC3WTkRDtspVCOejSE","SUDARSHAN PETROLEUM","Rajkot","22.3372065","70.8363746",""
"ChIJaxYh_8q2WTkR-4qGrgnwsB0","Essar","India","22.3410276","70.90432129999999",""
"ChIJv0LKMDWxWTkRt6DcePNutbU","Hindustan Petroleum Corporation Limited","Ground Floor, NH 27, Rajkot - Ahmedabad Highway, Rajkot","22.340725","70.9078849","true"
"ChIJO8IOy8q3WTkRDHX_F2oqbX4","Hindustan Petroleum Corporation Limited","Survey No 163, P5/P1/P2, Anandpar, Rajkot","22.338427","70.831491","true"
"ChIJozfjkSq3WTkRKIob9b1xG4k","Zaisha Petroleum","Indraprasth Society, Jai Nandan Nagar, Rajkot","22.326975","70.819672","true"
"ChIJL2PNa3XKWTkRQR9J4I3aLWw","IndianOil","near Sorathiawadi Circle, Kothariya Main Road, Bhakti Nagar, Rajkot","22.279688","70.81092799999999","true"
"ChIJHSrEbhrIWTkRCZiO8h_UVHM","IndianOil","Ground Floor, SH 24, Rajkot - Morbi Highway, Gavridad","22.3792193","70.8012802","true"
"ChIJN_GsNsDHWTkRqXAipdG-yn0","Hindustan Petroleum Corporation Limited","RSA No 176, SH 24, Rajkot - Morbi Highway, Ratanpar","22.4132804","70.7874084","true"
"ChIJ24AKaynHWTkRwnyDukqHhls","Shree Gajanan KSK Petrol Pump","Unnamed Road, Anandpar","22.4033604","70.7309156","true"
"ChIJP235C0TPWTkRyJYo-EKKXf4","IndianOil","Ground Floor SH 25, Padadhari, Hadmatiya","22.365746","70.699243","true"
"ChIJV22wxkPJWTkRY-7DaNlARiU","Nayara Petrol Pump - BMF Fuels","near Opera Hardware, Between Madhapar Chokdi to Bedi Chokdi At Ronki, On Right Side After Flyover, near Opera Hardware, Rajkot","22.3420776","70.7797946","true"
"ChIJoWrwKw_JWTkRDcwrqEGF42w","Hindustan Petroleum Corporation Limited","Ground Floor, 150 Feet Ring Road, Ronki","22.344421","70.789538","true"
"ChIJR3IiIpbJWTkRdTU51jc9iIk","Dhanveer Petroleum","near Hotel ADB ""Atithi Devo Bhava, 150 Feet Ring Road, Ronki","22.3446346","70.79123469999999",""
"ChIJqQQZH-fJWTkR2ZZiW2ai4UE","SATYNARAYAN PETROLEUM NAYARA","near MARWADI COLLEGE, Rajkot - Morbi Highway, Rajkot","22.3712685","70.7993178","true"
"ChIJ_Wq5WuHHWTkR3Co7og57ULI","Bharat Petroleum Petrol Pump , JAYSON PETROLEUM","ON RAJKOT MORBI, SH, Rajkot","22.4040981","70.7912616","true"
"ChIJJZjyLT3IWTkRnoZr5c63B8U","Hindustan Petroleum Corporation Limited","Ground Floor, H 24, Rajkot - Morbi Highway, Gavridad","22.3732373","70.7996891","true"
"ChIJMbU9yZrHWTkRW9SVv8sNvIA","IndianOil","S No 361/p1, Motadadva","22.415791","70.78821099999999","true"
"ChIJt5fK3c_JWTkRPjlkLNzPbmk","IndianOil","Survey No 67/1/2P 1/P 1 Ronki, Navagam, Anandpar","22.3396622","70.7993776","true"
"ChIJRWNqFaTHWTkR7VU7txL7Occ","Rajlaksha Petroleum","Sy No 89/P, Rajkot- Morbi Highway, 24, Village, Vijaynagar","22.4307513","70.78113259999999","true"
"ChIJ_6wQDt_JWTkRpkoBlV5PZLg","Hindustan Petroleum Corporation Limited","Ground Floor, Rajkot - Morbi Highway, Chaukri, Bedi, Rajkot","22.343105","70.806876","true"
"ChIJ85vKDgDJWTkR9ipMwHzC5Pc","Bedi chokdi","8RQ5+WM6, Bedi Chokdi, Velnath Para, Rajkot","22.3397979","70.8091462",""
"ChIJ-_2Pkyq3WTkR57iMZP9kjpg","Nayara Petrol Pump - Khodaldham Petroleum","near ganesh park, Surway no. 26, near ganesh park, Rajkot - Morbi Highway, Rajkot","22.3342372","70.81230049999999","true"
"ChIJWdNA4KnHWTkRe3PU6wZ3wQY","શ્રીવલ્લભ સીતી ઓઇલ ઇન્ડસ્ટ્રીઝ","India","22.4365446","70.77174099999999",""
"ChIJzc3jROy5WTkRIQxKe_8tVoM","Nitanjali Petroleum","Sanosara","22.4230773","70.8885454","true"
"ChIJcaFwaxyxWTkRqq-gNNz0uME","Nayara Petrol Pump - Shri Ram Petroleum Co.","At Ranpur Village Kuvadva-Wankaner Highway","22.3787738","70.9281881","true"
"ChIJ4ZEcGnqxWTkRHSvD-FByAMQ","Bombay Petroleum","Wankaner Road, Ranpur, Kuvadva","22.3736925","70.929778",""
"ChIJ_Rgn2kqxWTkRp37_fw_aWd4","Bhagirath Petroleum","nr. Krishna Water Park, Bhagirath Petroleum, BPCL-RO, Rajkot-Ahmedabad NH-8B, nr. Krishna Water Park, Rajkot - Ahmedabad Highway, Kuvadva","22.3533926","70.9314653",""
"ChIJnYOU-RexWTkRaQoPmugCLOI","GSPC CNG Pump","Bhagirath Petroleum, BPCL-RO, Rajkot-Ahmedabad NH-8B, Nr. Krishna Water Park, Village Kuvadva, Dist. Rajkot, Rajkot - Ahmedabad Highway","22.3529674","70.931624","true"
"ChIJo-nZm5uxWTkRB5qzlBHIOKY","IndianOil","Survey No 520, near Krishna Water, P/1, NH 8B, Kuvadva","22.3545908","70.9327873","true"
"ChIJZ17TxRmxWTkRW5aU0O0S76c","IndianOil","Ground Floor NH 8B, Kuvadva","22.3553116","70.9346039","true"
"ChIJX-jbIQCxWTkRFV5-UEetqxU","Hindustan Petroleum Corporation Limited","RS No 554, P1 NH 27, Kuvadva","22.3560589","70.93534079999999","true"