place_id,name,address,latitude,longitude,open_now
"ChIJA1OpOWhS4DsRiIk4y4QxOhY","Hindustan Petroleum Corporation Limited","Survey No 386/P NH 53, Hazira, Palsana Rd, Magdalla, Abhva","21.125551","72.771321","true"
"ChIJp2n2o2VN4DsRjynD6_EoyoM","IndianOil","Survey No 405/23, No 434, Bhatpore Choryasi, Hazira, Magdalla Road, Ongc Nagar, Surat","21.154208","72.74181999999999","true"
"ChIJmROeUXxT4DsRWqI1pcqWgsI","Daruwala Diesel Pump","4QGC+79J, Vesu, Surat","21.12570909999999","72.770884","true"
"ChIJr-SFJ1pP4DsRRoR4TXxFYi4","IndianOil","Ground Floor, behind City Plus Cinema, Magdalla, Surat","21.1358907","72.7530894","true"
"ChIJFYer3zxT4DsRnIBDZpbOxZg","Indian Oil petrol pump","4QRF+4G8, VIP Road, Vesu, Surat","21.1402912","72.7738157","true"
"ChIJeaJK_9NT4DsRqdszI3Ap9xE","Shree Ganesh Petroleum (B.P.C.L)","4QR4+W4F, Magdalla,opp magdalla gam BRTS BUS STOP,near vr mall, Dumas Road, Surat","21.1423115","72.7553116","true"
"ChIJw4_OfwBT4DsRLTgbLjriVJI","MANIPAL PETROLEUM","4QJW+QC2, Surat","21.131885","72.7960066","true"
"ChIJJ7g0Y9JN4DsRY7T98OjUEFs","Shell Select Petrol Pump","Udhana - Magdalla Road, Rundh","21.148028","72.766706","true"
"ChIJn-xR2whT4DsRNN8YoJ3WLxQ","Nayara Petrol Pump - Somiba Fuel","Althan - Sarsana Road, Surat","21.1343142","72.7977792","true"
"ChIJsfz_cwBT4DsRMPpsnqgKo4o","Bharat petroleum Prithvi Pal","SMC Garden, Govindaji Sport Complex, Surat","21.1368113","72.79875419999999",""
"ChIJxVx7LlJT4DsRhper7fTfoS0","IndianOil","R S No 88, Bhimrad Majura, Jeevkar Nagar, Althan, Surat","21.1368699","72.7993501","true"
"ChIJ6bhLBm5T4DsRvtD62S25KvQ","IndianOil","Block No 217, B BHARTHANA, Tp No 13, Vesu, Surat","21.142987","72.7926914","true"
"ChIJEfHA1gVS4DsRJef0CE5KHHo","Nayara Petrol Pump - Sai Sanskriti Autofuel","opp. E Space, VIP Road, Vesu, Surat","21.1440757","72.7946738","true"
"ChIJy2AG4u3xrzsR6dG5z_NPThc","IndianOil","Survey No 149 Block, 195, Althan - Sarsana Road, Surat","21.1408056","72.8010008","true"
"ChIJtRPfgqFN4DsRLZAvPqe5LYM","IndianOil","Survey No 33 UM Road, Paiki, Vesu, Piplod, Surat","21.153679","72.778046","true"
"ChIJ-xBrM-JT4DsRyCEPt4x1SLU","Shell Petrol Pump","beside Metro Cash & Carry, VIP Road, Surat","21.144716","72.80188799999999","true"
"ChIJz_3UBgBR4DsRdy5Z2yJ_Ps8","petrol Pump","4R8C+GP5, Dundi, Surat","21.1162677","72.8218581",""
"ChIJm4hYL4pN4DsRbeoVe9hwRl0","IndianOil","Khata No 23 Survey No 191, Bavla","21.1601","72.7713","true"
"ChIJv52jftdN4DsRxEhXdoaCNBM","Shell Petrol Pump","Dumas Road, Piplod, Surat","21.16073","72.77423","true"
"ChIJk1ax7jZN4DsRxxSwGGsSOao","Surat aviation fuel station","5P5Q+HVF, Bhatpore, Limla","21.1589383","72.7396624",""
"ChIJD8-0gWZR4DsRrr51UUMo6U8","J D PETROLEUM","Sarvay No 85, 1 VILLAGE TANKOLI, Old, JALAPUR, Surat","21.1261332","72.826366","true"
"ChIJPy2tQsdN4DsRnGnSigXlnKw","Shell Petrol Pump","New City Light Road, Althan, Surat","21.157833","72.797417","true"
"ChIJ4yL3gJ1R4DsRXcUAcTz6xJQ","Nayara Fuel","Block No. 169, R S No. 170+171, Jiav Budia Chokdi Nr Ramji Ni Wadi, Opp Rudarax Apartment, At: Jiav Taluka:, Dist:, Majura, Surat","21.1110401","72.8327473","true"
"ChIJVXpcPwBR4DsRQ5m2iNj14Gg","NARAYAN FUEL","4R6M+F4W, near Ramji wadi, Sachin Magdalla highway, Jiav, Surat","21.1112337","72.8328233",""
"ChIJ4YNrHbWBXjkRA9oFj8kRcXo","IndianOil","Survey No 134, T P No 63, Vadod, Udhana, Surat","21.1269164","72.828983","true"
"ChIJz_DbQ_tN4DsRhE0lNfwQCsg","IndianOil","TPS No 4, FP No 116 Umra South, City Light Area, Athwa, Surat","21.16058","72.79725599999999","true"
"ChIJIy8SscFN4DsRWdcNMeahzOk","Umang Petroleum,Nayara Petrol Pump","near tirupati circle, Essar petrol pump, near tirupati circle, Vadod, Surat","21.1318325","72.82752529999999","true"
"ChIJk1MZ7s1R4DsRokB0OEDP9LM","Hindustan Petroleum Corporation Limited","FP No 66/A, Vadod, Majura, Surat","21.131978","72.82760499999999","true"
"ChIJp13zteVR4DsRZ3B3qZ882rQ","Dipak Oil Mill","228,mani nagar, New Bamroli Road, Pandesara, Surat","21.143752","72.820504","true"
"ChIJ23Q6eOpR4DsRTyqWLXumbIM","Vishat Cng Pump","G-2, New Bamroli Road, Milan Point, Opposite Slok Residency, Bamroli Char Rasta, Jay Ambey Society, Pandesara, Udhana, Surat","21.1337033","72.82797099999999","true"
"ChIJOR7q2qdR4DsRh-a_a8ToseY","IndianOil","Ground Floor Sonari, Bonandh, Surat","21.110613","72.838146","true"
"ChIJ06ZsyVZQ4DsRm_u2OzPp-dE","Bharat Petroleum","GIDC Main Road, Udhana, Surat","21.1184925","72.8591074","true"
"ChIJ39uCWDVQ4DsRCjFZpEBRV34","IndianOil","Ground Floor, near Safari Complex, Bhestan, Surat","21.13210819999999","72.852898","true"
"ChIJdZclNDVQ4DsRxrVgQELLOdg","Nayara Petrol Pump - Shree Krishna Petroleum","Madhav Nagar, Bhestan, Surat","21.1350032","72.8516578","true"
"ChIJrY0LqcxR4DsR_J1wbxj70ks","Gujarat Gas CNG Station","6, Udhana Main Road, Pandesara, Udhana, Surat","21.1387536","72.8510699","true"
"ChIJaQF78NZR4DsRXNQHW-oBNcs","Bharat Petroleum, Petrol Pump -Tejas Petroleum","PANDESARA, SURAT, Surat","21.1516585","72.8434721","true"
"ChIJRz2-0SJO4DsRCCmff8A9O2o","Hindustan Petroleum Corporation Limited","Survey No 245, near National Bank, 120 Feet Bamroli Road, Karmayogi Society 1, TP Scheme, Udhana, Surat","21.1562415","72.8326275","true"
"ChIJGbwhBhBO4DsRXMz95nXfmW4","Hindustan Petroleum Corporation Limited","Survey No, opposite Meghna Complex, 158 & 159, Udhana - Magdalla Road, Bhatar, Udhana, Surat","21.164091","72.81682099999999","true"
"ChIJq5WMUOVP4DsRM4kH7ZeduTo","MARUTI AUTO CENTRE DEALER OF BHARAT PETROLEUM CORPORATION LTD.","Near gandhi kutir soc, next to Surya Plaza, complex, Udhana - Magdalla Road, Surat","21.1648265","72.8165933","true"
"ChIJ_5mRUqtQ4DsRiQ9uLGtCc3o","Nayara Petrol Pump","Lajpore, Old Surat Mumbai Highway, Adarsh Nagar, Kanakpur, Sachin, Surat","21.0681019","72.8935736","true"
"ChIJOzgVrzBO4DsRlV1q1tduYaY","IndianOil","Plot No 4 & 5, Udhana, Surat","21.171227","72.8400511","true"
"ChIJxWF4NQBR4DsRiKvhhcjwvxA","Bharat Petroleum, Petrol Pump -Lalit Motors","GABHENI, SURAT, Surat","21.1072064","72.8500023","true"
"ChIJY_O_j_9Q4DsRIIFFQDQVyZs","bpn","India","21.1093573","72.8536658",""
"ChIJ71z6dK1R4DsRHKIyhp2gNUY","Surat BRTS Depot","4R9X+VGW, Bhestan, Sonari","21.119725","72.848818","true"
"ChIJvfitEABR4DsRYCqJQV5yO-Q","Piyush point petrol pump","4RHQ+M2J, Ganesh Nagar, Pandesara GIDC, Udhana, Surat","21.1292163","72.8375161",""
"ChIJH5vVzVdQ4DsRHFV-9nwgW54","IndianOil","Unn Char Rasta, Unn Patiya, Udhana, Surat","21.111639","72.860748","true"
"ChIJ-d_aUNtb4DsRE8TiCOjFT2U","Shree Ram Petrol Pump","No 8, Surat - Palsana, Sachin, Surat","21.1106024","72.8614625",""
"ChIJMRk6tLRR4DsRgA4XWSKXinw","Boon Gasoline","Unn Char Rasta, Unn Patiya, Udhana, Un","21.1130858","72.8609635",""
"ChIJ6XkrUlRR4DsR3-VouLw-zKE","Babu Bhai house","4RJM+CGM, Surat","21.1310869","72.8337892","true"
"ChIJb5rJFzlR4DsRNUYMfqWPp4I","Hindustan Petroleum Corporation Limited","Survey No 133, 137, 139, Block No 180, opposite Ashish Hotel, Un","21.103501","72.864431","true"
"ChIJ_eD1v4VR4DsREKFvUcdhwvU","Astha Automobiles - Bharat Petroleum","2, GIDC naka, Sachin, Surat","21.10245309999999","72.86498259999999",""
"ChIJ3xDkRjFR4DsRKesclgQmfW4","Nayara Petrol Pump - Swastik Petroleum","umiya estate, Plot no 1, Surat - Navsari Road, Bhestan, Surat","21.1219631","72.8576765","true"
"ChIJGXiibwBR4DsRmwjf-UQngt0","BPCL","4V68+G8V, Un","21.1113547","72.8658006",""
"ChIJs4oMse1Q4DsR0b4bAzpbBQ8","Sai Petroleum","Old Surat Mumbai Highway, GIDC, Sachin, Sachin INA","21.0974492","72.8713757",""
"ChIJv0BWXMVQ4DsRpfBoHzVZ3lM","IndianOil","Ground Floor Block No 241/A, Bonand","21.0769817","72.8645306","true"
"ChIJYb_Sps9R4DsRopm3VRdWyGE","Nema Bhana Petroleum - Bharat Petroleum-BPCL","Block no 292, opp. Shlok Arcade, Bamroli Char Rasta, Surat","21.1389133","72.826555","true"
"ChIJJ9BtpqlR4DsRqKjRubMcTfc","Nayara Petrol Pump - Shree Krishna Petroleum","opp. Navin Fluorine Ind ., Udhna, F.P NO 63, T.P. SCH NO.21, opp. Navin Fluorine Ind ., Udhna, Sachin Bypass Road, Bhestan, Surat","21.1350179","72.8516379","true"
"ChIJaZmSMctR4DsRZAl0TnOUmr4","Sai Petroleum","No 6, Surat - Navsari Road, Pandesara, Sachin, Surat","21.1364936","72.8511307",""
"ChIJNfdLU4lR4DsR9bdDxgnKtEI","Divine Fuel Services Pvt Ltd","Plot No 1 To 4 Saikripa mill, Bhestan, Surat","21.1455356","72.8274709",""
"ChIJy5rfg81R4DsRc15VweeFZ-c","Hindustan Petroleum Corporation Limited","No 198 & 199, Sachin Main Road, Pandesara GIDC, Udhana, Surat","21.14367009999999","72.8483801","true"
"ChIJ2ZgKN1NR4DsR3FOUJRP5mGo","Hindustan Petroleum Corporation Limited","Survey No 60, Sachin Road, Choryasi, Eklera, Surat","21.124768","72.877055","true"
"ChIJF8teG9RR4DsRI8--C0qNQtc","Shakti Petroleum","Maruti Industrial Estate, 1, Udhana Main Road, Bhedwad, Pandesara GIDC, Udhana, Surat","21.1504474","72.84598199999999","true"
"ChIJ23u5lsNR4DsR0GbglIug-4c","Pradeep Service","Shop No 1suda Sectar, Sachin, Surat","21.0799261","72.88533149999999",""
"ChIJ23oZNe9P4DsRxNZiPzhjkRY","RAHUL KOLATE","497, 2, Sonal Society, Udhana, Surat","21.155681","72.83633",""
"ChIJeSLAxilO4DsRFMG-wKigt-Y","Jio-bp","Tps No 02, Fp No 19, opposite Brc Gate, P Choryasi, Udhna Navsari Road, Udhana, Surat","21.156279","72.84365799999999","true"
"ChIJdSrMJbxR4DsRj0_URDjzG0Q","IndianOil","No 243/2/P, Surat - Navsari Road, Lajpore, Kacholi","21.075295","72.888384","true"
"ChIJl83ewtdR4DsRYHFvdPv2Vs4","Krishna Gas Station","Shop No 43, Shivnagar Society, Dindoli, Surat","21.1518467","72.8628097",""
"ChIJi2vMlxhO4DsRXaTjOz0uiDI","Reliance Gas","India","21.1606256","72.82700799999999",""
"ChIJk53ZxI9R4DsRC33A-AMB5uQ","Nayara Petrol Pump - Raj Petroleum","4VQJ+JG6, 64, canal road, Karadva Gam, Karadva","21.1384102","72.88175319999999","true"
"ChIJwy3AZOVR4DsRSLAfniZ5nB4","HP Petrol Pump - COMCO","mark point, Karadva - Dindoli Road, Sai Shiv Shakti Society, Dindoli, Surat","21.147929","72.872883","true"
"ChIJySuLKuZR4DsR9Nq6EH1BoR8","Jay Samrpan Auto Service","2, Krishna Park, Sachin, Surat","21.0894502","72.8975517",""
"ChIJW7QP79BZ4DsR9sXIIdAeAMU","IndianOil","Ground Floor, Maroli, Parujan","21.032673","72.90666","true"
"ChIJ408ZeeZb4DsR5FKbVHNnuEo","M/S KESHARINANDAN PETROLEUM PALSANA","Palsana","21.0856048","72.97579309999999","true"
"ChIJVbCGKgBb4DsR4k9U9cBOS2I","Ansh gas agency","C-17/16, Center Rd, Hoziwala Industrial Estate, Sachin Apparel Park SEZ., Sachin, Surat","21.0818507","72.91502190000001",""
"ChIJNQSwRgBb4DsRHztqwfYb3n0","Ansh gas agency","C-17/16, Center Rd, Hoziwala Industrial Estate, Sachin Apparel Park SEZ., Sachin, Surat","21.0819083","72.9151876",""
"ChIJh-SapnNQ4DsRVAaiYHq5Ew8","Bharat Petroleum","4VMR+F9M, Surat","21.1337074","72.8909236",""
"ChIJjZzI4SVZ4DsRBFXyg4BiAcM","BHARAT PETROLEUM SIDDHI VINAYAK AUTOMOBILES","to, Surat - Navsari Road, NH228, Surat","21.0649439","72.9006911","true"
"ChIJnw0VR_5Z4DsR9GfgzyTGDjM","Bharath Petroleum","India","21.0648092","72.90038489999999",""
"ChIJq5lF1U9R4DsRKdgctAtvd7w","IndianOil","B No 48A Choriyasi, Saniya Khande, Limbayat, Surat","21.134521","72.889366","true"
"ChIJV-Tb3DFa4DsR24KUyD2Dd84","IndianOil","Survey No 6, Block No 9, Palansa Road, Sachin, Surat","21.0846528","72.9383659","true"
"ChIJcVIHGc5b4DsR1vtxu-LVJiE","Hindustan Petroleum Corporation Limited","Survey No 2 NH 53, Hazira Palsana Rd, Palsana, Lingad","21.085493","72.93900359999999","true"
"ChIJJWHP-Btb4DsRPIEihCP2MEo","GM Petroleum (BPCL)","4VQX+QJ, Surat","21.139394","72.8990376","true"
"ChIJkdrnxVFZ4DsRIRRC7Nqh_TM","Hindustan Petroleum Corporation Limited","Survey No 551/2, Choryasi, Lajpur","21.061203","72.90682199999999","true"
"ChIJaS0sUxlR4DsRHDBkLdeYDKg","IndianOil","Survey No 341, P Choryasi, Deladva Gam, Surat","21.1398125","72.8911875","true"
"ChIJu-Za9iRR4DsRHtDM1G8xK7c","Hindustan Petroleum Corporation Limited","Survey No 183, Sachin Road, Choryasi, Dindoli, Surat","21.1421188","72.8816081","true"
"ChIJN_3Cw5xR4DsREdMdCEoFeMc","Puc Centre Dindoli","HP PETROL PUMP (SHAKTI PETROLEUM, Karadva Gam, Surat","21.1422244","72.8817827",""
"ChIJzdOYTWpb4DsRslcIIIBzxUY","Nayara suryajyot","near PALSANA, NH ,53, near PALSANA, Taraj","21.0866621","72.9616473",""
"ChIJfbJfoEBb4DsR0WkXZiWUhOA","Shreeji Acetelein compny Unit-2","3XP8+X47, Surat","21.0874181","72.9652912",""
"ChIJzxbvSqRb4DsR2XhSFJYl2dc","Italva Petroleum","Survey no.14, AA, Sachin - Palsana Road, Sachin, Surat","21.0853111","72.9648543","true"
"ChIJg18mCgBb4DsRfmQmvk9jdho","Nikhil Kumar","3XM7+MRH, Palsana","21.0841966","72.9646166",""
"ChIJmc8dz9xb4DsRlBZ2tTM5Om0","Maniar Petroleum BP","N.H. No. 6, Block No.19, Sachin Palsana Road, Palsana, Chokdi, Patia, Italva","21.0863477","72.96575419999999","true"
"ChIJH2DM5wRb4DsRrQ1Bqq0RNnE","BHARAT PETROLEUM","3XP8+5C2, Palsana","21.0854892","72.96565",""
"ChIJMaCpboVb4DsRDngLtJbg0Xw","IndianOil","No 85/B, Rs No 92 & 93P Kharbhasi, Limbayat, Palsana","21.1504615","72.9423113","true"
"ChIJt0Vhshdb4DsRsyJv8YjWeiQ","Hindustan Petroleum Corporation Limited","Survey No 85A, Palsana, Kharbhasi","21.151349","72.94240099999999","true"
"ChIJ7fOlevRb4DsRUTkCYHR6go0","IndianOil","Survey No 20, Palsana, Karala","21.148618","72.950721","true"
"ChIJGzWIGQBb4DsR8dqKajc1QNg","BPCL Petrol Pump | Good Luck Fuel Station","Number_48, Mu.Post, National Highway, Ta, Baleshwar","21.1058658","72.9756072","true"
"ChIJxVZaa-1Z4DsRSUr8ZRJgvdI","Hindustan Petroleum Corporation Limited","Ground Floor, Surat - Navsari Road, Sachin, Maroli","21.0304901","72.9088201","true"
"ChIJ8bRi8olP4DsRUbHtCiwPqjw","Dwarkesh Petroleum","City.S.62, Devadh-Kumbhariya Road, Ta, Choryasi, Devadh Gam, Surat","21.170253","72.895776",""
"ChIJOe1xFTVb4DsRfSD959rE8d4","Nayara Parekh Pump Store","National Highway 48, Surat","21.10866219999999","72.9758379","true"
"ChIJAQ6arTVM4DsRAUWfRhMwDQw","IndianOil","FP No 58/P, RS No 109, 1/2, TPS No 32, Adajan, Surat","21.1985033","72.78323379999999","true"
"ChIJZUtdaM5N4DsRFlHcfnRT-Kw","Shell","Sneh Sankul Wadi, LP Savani Road, Adajan Gam, Surat","21.188592","72.79034","true"
"ChIJmVsc08hN4DsRnUeGSbZQGIg","Gujarat Gas CNG Station","87-88, Adajan Gam, Surat","21.19041199999999","72.7951731","true"
"ChIJfZ9P_9xM4DsR33l6YUfnK-0","Hindustan Petroleum Corporation Limited","SUR No 935 & 937, SH 168, Hazira-Sayan Road, Choryasi, Ichchhapor, Surat","21.197874","72.7302701","true"
"ChIJw1xDktdM4DsRNg0mTRjjRIk","IndianOil","Ground Floor, SH 12 Hajira Rd, Icchapore, Charrasta, Bhatha, Surat","21.190002","72.720753","true"
"ChIJHwDh4MxN4DsRvYOXJ-UkpGI","Bharat Petroleum, Petrol Pump -Anavil Petroleum","Adajan, Surat","21.2042964","72.7890455","true"
"ChIJ_3K1Z3dO4DsRmPi2WviFb2g","B.P.C.L Athwa automobiles","opposite Mission Hospital, Surat - Dumas Road, Athwalines, Athwa Gate, Surat","21.18497319999999","72.8081486","true"
"ChIJkbDyfNVM4DsRZTq8PfGmFnk","IndianOil","opp. HAEP Township, nr. Kawas, RS No 672/2 686 & 687, Hazira Road, Patia, Ichchhapor, Surat","21.187741","72.71207319999999","true"
"ChIJi67iOYBO4DsRuywgmv_DlzE","IndianOil","near Sugam Society, No 463, Bunder Road, Adajan Patiya, Surat","21.1994869","72.8054903","true"
"ChIJL0yB9xZM4DsR_T1SueFvKvI","Gujarat State Petronet Ltd","6QCQ+JFX, Dattatrey Society, Morabhagal, Surat","21.2216037","72.7887485",""
"ChIJ_zPYpBdM4DsRJH5anPLKe7s","Hpcl Petrol Pump","Hp petro pump, Surat","21.2209375","72.7904375",""
"ChIJr3qQTmJO4DsRhkvioqwRz5g","Gujarat Gas CNG Station","5RW9+GXG, Swamy Dayananad Sagar Marg, Chowk Bazar, Surat","21.1963124","72.8199685","true"
"ChIJEbhGY2JO4DsRWtmoICRG2xU","Bharat Petrol Pump","CHOWK BAZAR, SURAT, Surat","21.1979142","72.8193864",""
"ChIJIcc7KEFO4DsRVyna_Q0wlT8","IndianOil","Ground Floor, Udhana, Surat","21.17963","72.833443","true"
"ChIJU5HdbERO4DsRYlGPHNkIqj0","Hindustan Petroleum Corporation Limited","Ground Floor, opposite Fire Brigade, Ring Road, Surat","21.18448009999999","72.8347201","true"
"ChIJLytAwn9gUjoR-vm_8ylLkgU","IndianOil","Survey No 1/2/A, 1/2, B Block, Jahangir Pura, Choryasi, Surat","21.2361946","72.7900006","true"
"ChIJwyDmXq9N4DsRcK258_wmgB8","B.P.C.L petrol pump","Hazira Road, Bhatha, Surat","21.1816729","72.76368970000001","true"
"ChIJtT_GGgBN4DsRuFFxc2EaznA","Reliance Jio Petrol Pump","50, Hazira - Adajan Road, Bhatha, Surat","21.1819833","72.7646254","true"
"ChIJ846Yy6hN4DsRAljH19ERL64","Vinod Petroleum Centre","5QM7+53P, Hazira - Adajan Road, Bhatha, Surat","21.1829596","72.76269529999999",""
"ChIJf6AM2shN4DsRgwE7fdy4HgA","Nayara Petrol Pump - Jalaram Petroleum","BLOCK.NO.478, near CHIKUWADI, Hazira Road, Bhatha, Surat","21.1877424","72.7585356","true"
"ChIJu7FY3xRN4DsRlSjrDndcpMo","Indian Oil Petrol Pump - Hariom Fuels","nr. Baghban Kratos Club, Pragati Marg, Pal Gam, Surat","21.1885548","72.77228769999999","true"
"ChIJlVymEmlN4DsRfeB3SJBaJcc","J D Petroleum","opposite Silicon Luxuria, Pal Gam, Surat","21.1840747","72.7793713","true"
"ChIJlejZ58FN4DsRCGcfbLNkXeA","IndianOil","No 193/2 Block, No 447, Choryasi, Bhatha, Surat","21.19151829999999","72.7526123","true"
"ChIJHeTd1utN4DsRpeKX4Vvy0aM","IndianOil","FP No 150, Parle Point, Umra North, Surat","21.168941","72.786369","true"
"ChIJjfsDCuNN4DsRPtOYwaN7SgU","IndianOil","T P No 33, T P No 16, Adajan, Surat","21.190155","72.77613","true"
"ChIJsxTzExVN4DsRUZK1VxBJiSg","Bharat Auto Fuels","next to Nanavati Toyota, NH 6, Bypass, Bhatpore, Hazira","21.1686977","72.7349742","true"
"ChIJwYSo2uOy4TsRvstmUZaQ-k8","Reliance Petroleum","RELIANCE RETAIL OUTLET OPP GATE NO 3 SURVEY NO 195/A/1 RELIANCE HAZIRA, COMPLEX, SURAT HAZIRA ROAD, VILL-MORA, POST, Hazira Road, Bhatha, Surat","21.1688044","72.7341687","true"
"ChIJzxXzrUZN4DsR8OHH4uJgnbs","Gangaparivar Petro","152, Moti Fali, Pal Gam, Surat","21.1945095","72.7758405",""
"ChIJGz7fjoNN4DsR9RZlF4WCvKI","Hindustan Petroleum Corporation Limited","4 Plot, No 41, opposite Maheshwari Bhavan, TP No, City Light Road, Surat","21.1690995","72.79494609999999","true"
"ChIJ8R-AXOZN4DsRZvo_krfJpIo","Hindustan Petroleum Corporation Limited","4 Plot, No 41, opposite Maheshwari Bhavan, TP No, City Light Road, Surat","21.1690995","72.79494609999999","true"
"ChIJ-YEQjSNN4DsRankOiJSlue0","Hindustan Petroleum Corporation Limited","Plot No A/8/A, Hazira Palsana Road, NH 53, Hazira - Adajan Road, GIDC, Ichchhapor, Surat","21.181821","72.728051","true"
"ChIJl2qz1nFN4DsR5np1r4Mmpf4","Nayara Petrol Pump - RD Ahir Petroleum","Ahir Petroleum, R D, Gaurav Path Road, Surat","21.203986","72.7670253","true"
"ChIJe3J-t1VN4DsRtlEeKMAeXnw","Hindustan Petroleum Corporation Limited","Survey No 221, TP 10th Road, Adajan, Pal Gam, Surat","21.2009582","72.77735799999999","true"
"ChIJx7B3BOFN4DsRihH7ZpmMUEY","Nayara Petrol Pump - Harihar Petroleum","School, near LP Sawani, New Pal Road, Adajan, Surat","21.2010686","72.7797647","true"
"ChIJaa6DLABN4DsRP31ohh-E-4c","V . V and brother s cng station","Row House, 121, near Ajanta, Pankaj Nagar, Surat","21.2011259","72.7797484",""
"ChIJs00jROVN4DsRUmLcrwtyQjk","IndianOil","FP No 158, Block No 123, Palanpur, Surat","21.205544","72.767335","true"
"ChIJO1WsWQBN4DsRDlKJ9oLdfN8","BSNL office ayodhya Nagari Road","Ganga Nagar, nr. BSNL offers, ayodhya Nagari Road, palan pur patiya, Surat","21.1923102","72.7937683",""
"ChIJd93Wp0NN4DsRoJZESzmjOOQ","ARTI PETROLEUM","Swagat Business Hub, near Cng Pump, 302, Hazira Road, Surat","21.1912939","72.72359399999999",""
"ChIJN1VVxShN4DsRFR3o9eyl9uk","HPCL Terminal","5PM9+7PG, Kavas, Hazira","21.18319","72.71932199999999",""
"ChIJ9UWbJDJM4DsRoDCHmowt1Vs","Gujarat Gas CNG Station","10, Chatrapati Shivaji Marg, Adajan Gam, Adajan, Surat","21.2008015","72.7905996","true"
"ChIJT6--RNNN4DsRKCu2L-GZGBk","IndianOil","Gondal Road, Anand Mahal Road, Adajan, Surat","21.1953861","72.7973244","true"
"ChIJibyqzSpM4DsRDe_KfT5cNOE","Gasolina","2, Muktanand Nagar Road, Muktanand Nagar, Narotam Nagar, Surat","21.20236","72.79442999999999",""
"ChIJb18uA65P4DsR1S0wHjjYTV0","Gujarat Gas CNG Station","near Bhara Petrol Pump, Puna Kumbhariya, near Bhara Petrol Pump, Road, Intercity Township Society, Parvat Patiya, Surat","21.1914413","72.8581761","true"
"ChIJR45EYfdO4DsRLTzK-OERGyw","Hindustan Petroleum Corporation Limited","Ground Floor, opposite Railway Station, Railway Station Road, Sufi Baug, Railway Station Area, Varachha, Surat","21.204941","72.839381","true"
"ChIJm3953UlO4DsRQACUiKZnc70","Petrol Pump","11, 80 Feet Road, New Ramdev Nagar, Aanjada Nagar, Bhatena, Surat","21.1787413","72.84415609999999","true"
"ChIJ8cz5-5NO4DsRuT61rWMbXIg","SHRI SIDDHI VINAYAK PETROLEUM","Plot No. 3-A, Ved Road, Opp Pran Nath Hospital, Singanpor, Surat","21.2158869","72.8223685","true"
"ChIJlxUS8FZO4DsRnu7gOIy30jc","Bpcl Petrol Pump","Sahara Darwaja, Umarwada, Surat","21.1962987","72.8438968","true"
"ChIJTTUg_LFP4DsReFtJXQhO4Jk","Bharat Petroleum Petrol Pump","Krushi Bhavan Kelayard Puna Kumbharia Road Intercity Township Society, Dumbhal, Surat","21.1915034","72.8582097","true"
"ChIJbYoWg_dO4DsRvr-QdDs-QIA","IndianOil","Ground Floor, Unapani Road, Surat","21.2033962","72.8391067","true"
"ChIJkebpJvlO4DsRu1_X5cEXVLY","CNG Pump Online","B-19, Lambe Hanuman Road, Saify Society, Varachha, Surat","21.2034019","72.8391235",""
"ChIJX-ie5rxP4DsRS6wzecadsr0","IndianOil","Block No 55, Surat - Kadodara Road, Magob, Surat","21.190849","72.871719","true"
"ChIJMbKXbpFP4DsRg3FnJU4k2ZY","Hindustan Petroleum Corporation Limited","Ground Floor, NH 6, Puna Kumbharia Road, Choryasi, Saroli, Surat","21.189121","72.88340099999999","true"
"ChIJfx2dhZFP4DsRs3rweq2mz2E","Bharat Petroleum","Swastik Automobiles, Station Road, Saroli, Surat","21.1887165","72.8847237","true"
"ChIJvxWspBFP4DsRRBQrpZO4Y04","IndianOil","Ground Floor, Varachha Main Road, Kapodra Patiya, Surat","21.217327","72.86743899999999","true"
"ChIJiziUKsLwAjoRO5THAjtyMxY","IndianOil","Coop Bank, near Varachha, Varachha Main Road, Kapodra Patiya, Surat","21.220299","72.87297099999999","true"
"ChIJ8VF9Aq1P4DsRovHVlnO674E","IndianOil","Survey No 58, P & 66/P, Umarwada, Surat","21.219283","72.877832","true"
"ChIJJxUWsm5P4DsRozV8g2f8xQc","Shell","89, Nana Varachha, PAIKEE","21.222206","72.88190999999999","true"
"ChIJdazGaD1O4DsRPEqGePoBbAM","Ramdev Textile","ramdev Textile ,11 murgiwala compaund., Bamroli Road, Surat","21.1668059","72.82876739999999",""
"ChIJV1lR4BVO4DsRVAde1MfwzGs","Hindustan Petroleum Corporation Limited","S No 12, C/1/P, Bamroli Road, Surat","21.17049099999999","72.826701","true"
"ChIJo9xLYj1O4DsR6euMeaDr16o","Bharat Petroleum Petrol Pump","5R8H+Q68, new civil Near sosyo-komal circle, Bamroli Road, Surat","21.1669066","72.8280791","true"
"ChIJ3QXCnRZO4DsR6OLW0dbhtdY","Krishna Petroleum","No 160/P, Udhana - Magdalla Road, Athwalines, Khatodra Wadi, Surat","21.16679019999999","72.8280231",""
"ChIJ0xDMnBVO4DsRKELYYqiCiM0","Shree Sarvodaya Petroleum","near Sosyo Circle, Udhana - Magdalla Road, Swaminagar Society, Bhatar, Athwa, Surat","21.1733048","72.82715329999999","true"
"ChIJY1YBX4VP4DsRIPG9P9opwYI","Prakash","ashirvad sqare, L 12, Udhana - Magdalla Road, Sosyo Circle, Udhana, Surat","21.1727603","72.82644619999999","true"
"ChIJ_VHjdwBP4DsR92v_UqBVG5g","Sukhlal kori","5RGH+7G2, Surat","21.1756466","72.828754",""
"ChIJWWDKhB9P4DsRjL5cSc031e4","Bharat Petroleum -Prabhat Petroleum","PANDESARA ROAD, SURAT, Surat","21.164323","72.8329771",""
"ChIJfzHiJtpP4DsRka_V_Oo0bKs","KGN DIESEL","2 Swastik Trasporr Service, Sachin, Surat","21.16884","72.83989729999999",""
"ChIJpxSKuW1P4DsR4kOsAk1QTMg","Shell","Bamroli Road, Surat","21.177186","72.825799","true"
"ChIJgRPqGTBO4DsRuOe4ts0mtXw","Bharat Petroleum, Petrol Pump -Udhna Petroleum Co.","Udhana, Surat","21.1670118","72.8409176","true"
"ChIJWeRfT45P4DsRAY72UXnOd14","Nayra Energy Royal Petro","S. No. 1, T.P, Survey No. 207/2/Paiki 1, F.P. No. 51 O.P. No. 43/C, Taluka, Udhana","21.1650547","72.8405645",""
"ChIJCZBQ0G1O4DsRWVS0JVcMTO4","Shell","5RJ9+79W, TALUKA, PUNA","21.1807255","72.8184548",""
"ChIJxcdL3hFP4DsRi8FsweaB6L0","Sainath Petroleum - Bharat Petroleum","Road Number 2, Udhana GIDC, Hari Ichchha Industrial Society, Udhna Udhyog Nagar, Udhana, Surat","21.1692867","72.8494731","true"
"ChIJp47NcSxO4DsRgyptLXz6xF8","સ્પીડ પાવર લુબીકાન્ટ","5R6X+Q3C, Road Number 6G, Citi Industrial Estate, Udhna Udhyog Nagar, Udhana, Surat","21.1619413","72.847655",""
"ChIJ1xOGES1O4DsRWvsI71AKE4o","Dharat Petroleum","5R8X+5Q9, Road No 3, Udhana GIDC, Hari Ichchha Industrial Society, Udhna Udhyog Nagar, Udhana, Surat","21.1654023","72.8494752",""
"ChIJU9-79ExP4DsR--nFjlxzPDA","Ananta Petroleum - Bharat Petroleum","5R7X+XRP, Udhana GIDC, Hari Ichchha Industrial Society, Udhna Udhyog Nagar, Udhana, Surat","21.1653755","72.8494875","true"
"ChIJN8dBQ3xP4DsRN1Vk9yQgolc","Gujarat Gas CNG Station","Althan Tenament, Althan Road, Surat","21.1607318","72.81137","true"
"ChIJ2-nE73BO4DsRzJcQehkXTmw","PUC Center","5RM6+QW5, Athwa Gate, Surat","21.1843852","72.8123525",""
"ChIJP88Q9zpb4DsRcAH9ku21ce0","Hindustan Petroleum Corporation Limited","Block No 10, B Station Road, Palsana, Chalthan","21.1562621","72.95641239999999","true"
"ChIJ8a-7zYpF4DsRlHpOYoBCyPQ","BPCL Petrol Pump","Shakti Vijay Society, Bajrang Nagar Society, Nana Varachha, Surat","21.2273297","72.8939904","true"
"ChIJzWrzeqxP4DsRlN4U5IJC8No","Reliance Petroleum","DEVADH BARIA STATE HIGHWAY NO 62, SURVEY NO:176/P, SH-62, OPP: SPORTS COMPLEX BARIA-PIPLOD ROAD, TAL: DEVGAD BARIA, DIST:, Devgad, Devgadh Baria","21.17044139999999","72.8943768","true"
"ChIJHTZNYQBP4DsR_hmtG_tip2w","Indian Oil Petrol Pump","B,248, babaliyu fadiyu, Devadh Gam, Devadh","21.1745361","72.891802",""
"ChIJZSwBeE5P4DsR2jAAiLPBshk","Nayara Petrol Pump Shiv Anaya Petroleum","Block No.137 survey no. 166, Devadh","21.178445","72.8899565","true"
"ChIJFT3xZABF4DsRSwhIlU7twu4","Sanidhya Petroleum - NAYARA","Surat - Bardoli Road, Vedchha","21.1861015","72.90610629999999","true"
"ChIJ_WL8tmFF4DsRQWb3s7ovsEA","IndianOil","S N 0 44, Choryasi, Kumbharia Gam, Surat","21.187443","72.90049","true"
"ChIJm5wXzo1F4DsR-jYaLETwSlM","Bharat Petroleum, Petrol Pump -Vinayak Service Centre","VEDCHA, NR BHATWARI HOTEL, Surat","21.18434899999999","72.9134428","true"
"ChIJFZKUBY1P4DsRKI6cjK6xOec","Hindustan Express","Godown no 19, Ambika Transport nagar Market Hub B, opp. Shyam Sangini Textile, Saroli, Surat","21.1902881","72.8990113",""
"ChIJaYX_VgBP4DsRSmWYQbsW8Bo","ANTHEM FUEL STATION","2007 - 2008, Saroli, Surat","21.184831","72.8809941",""
"ChIJJ_HMpp9P4DsRguLZ2xwmODA","Shell","Surat - Kadodara Road, Surat","21.189247","72.884236",""
"ChIJQ30jD4xP4DsRqTu1iJDHl2k","Aastik Petroleum","near Gujarat gas CNG, Godadara - Dindoli Road, Surat","21.1697192","72.87187109999999","true"
"ChIJ5V671sJP4DsRg5pMLrOe6Nk","Gujarat Gas CNG Station","Chamunda Residency, 382, chetan nagar Near Aaspas pas, Teen Rasta Circle, Navagam Dindoli, Godadara, Surat","21.1689513","72.8718547","true"
"ChIJN0GinTRP4DsRI6NpkCxejhE","Shell Petrol Pump","Surat - Kadodara Road, Taluka, Puna","21.189446","72.878671",""
"ChIJD_LBZvdP4DsR5RCvKl_yQwQ","Shell Petrol","5VGC+XM5, Sanjay Nagar, Dhruv Park Society, Godadara, Surat","21.1773653","72.871515","true"
"ChIJ7yejPzNP4DsRvGFa-7gxAus","Dhruv Petroleum (Bharat Petroleum)","132, Shakti Nagar, Surat","21.1803077","72.87112069999999","true"
"ChIJq-UlQCtP4DsRi5H-kVx3ZzA","Nayara Petrol Pump","Magob Parvat Khadi Bridge BRTS, Shakti Nagar, Surat","21.1855384","72.87067600000002","true"
"ChIJmagQLwBF4DsRDIM74pkcpbo","CHALTHAN","5W8P+8RV, Chalthan - Niyol Road, Swastik Nagar, Khadki Faliya, Chalthan","21.1658508","72.9370461",""
"ChIJxZ0jCplP4DsRWF9WOpb381w","Shell Petrol Pump","Puna Plaza, near पराठा दरबार, Vesu Canal Road, Magob, Surat","21.2023978","72.8856473","true"
"ChIJp46sC6NP4DsRx8_Lue-aeDA","Hindustan Petroleum Corporation Limited","Block No 127, Parvat Patia Valthan, Vesu Canal Road, Punagam, Surat","21.2041075","72.8886814","true"
"ChIJywrepWNO4DsRAqEnZGPdVsI","Gujarat Gas CNG Station","opposite N J Complex, Surat - Kadodara Road, Magob, Surat","21.1906156","72.8679217","true"
"ChIJ83D6WiJP4DsRsFcte_4Kx0Y","Govindji Petroleum","Puna Plaza, near Vanmali Junction, Vesu Canal Road, Puna, Punagam, Surat","21.2056875","72.8893125","true"
"ChIJS-jSXwBP4DsRXre-cywWP34","Anjani Fuel Station (Nayara)","6V5W+Q26, Shiv Darshan Society, Yoginagar Society, Surat","21.2091744","72.8945895","true"
"ChIJ0Q1p3GlP4DsRjTYP0HzHdME","Shell Petrol Pump","Nr Majestica, Brts Can, Vesu Canal Road Puna Kumbharia Road, Puna-Simada Road, Surat","21.209352","72.894651","true"
"ChIJ0S--0GFP4DsR9-0jgsxqQVc","Doorstep Fuels India Pvt Ltd","16 VINOBA NAGAR SOCIETY NR SIDDHANATH MAHADEV NAVANAGAR, Nilgiri Circle, Udhana, Limbayat, Surat","21.167707","72.85711959999999","true"
"ChIJCUqKaHdP4DsRyHbQ06_6jw4","આસ્થા લેસર","6V5P+WF7, Pramukhchhaya Road, Pramukhchhaya, Vrundavan Society, Varachha, Surat","21.2097786","72.88617959999999",""
"ChIJC9oF_idF4DsRe41-2vFSN4I","Bharat Petroleum","India","21.1772329","72.94571239999999",""
"ChIJ5ezHsQlM4DsRodHFiADqrxg","Nayara Petrol Pump","Vrajpari Corporation, Jahangir Pura, Surat","21.2394031","72.788716","true"
"ChIJUUBTVfVK4DsRq6NAbmITnHQ","IndianOil","Survey No 13/2, No 540, Olpad, Masma","21.3091134","72.7568944","true"
"ChIJU-KTUABL4DsROA6BAYPbQKA","Vista Petroleum (Indian Oil Pump)","6QR8+XMC, Hazira-Sayan Road, Vanakala","21.2413662","72.76647419999999","true"
"ChIJVSHGpn5M4DsR5lVqG3tnIo0","Hindustan Petroleum Corporation Limited","Block No 73/A & 74 SH 168, Hazira Sayan Hwy, Choryasi, Okha","21.233312","72.76154009999999","true"
"ChIJvStjj3xN4DsRvn825H1ML_s","Bharat petroleum Pump Rupan Petroleum","Near Bhesan chokdi, Hazira-Sayan Road, Hazira, Surat","21.2284148","72.75850299999999","true"
"ChIJcxSJRABL4DsRq7DmClfSPlA","L K Petroleum- Nayra","6QWF+VW, Vihel","21.24722389999999","72.77480539999999","true"
"ChIJ8RoMdABN4DsROe-Tp7uAeBI","Nayara petrol pump","6QJG+QHW, Vanakala","21.23198159999999","72.776456",""
"ChIJQ8b4EwBN4DsRYhxqE06E5R8","Nayara Petrol Pump - Nijanand Petroleum","Jahangir Pura, Surat","21.2357032","72.78256019999999","true"
"ChIJmcOpNUhN4DsRABjC38kD4hI","Nayara Petrol Pump","Dahin Nagar, Surat","21.2287082","72.7805906","true"
"ChIJ3y8G7rhN4DsRKqbC8akS5jI","RAJVI Petroleum","Block number 113/2, near podar international school, Dandi Road, Jahangirabad, Surat","21.2304025","72.78308009999999","true"
"ChIJc3e3TgBN4DsRugo3CfMwG08","Nayara petrol Pump","6QCF+HXP, Ugat Canal Road, Ugat, Palanpur, Surat","21.2214671","72.7749429",""
"ChIJnX3_lKpN4DsRklJfkB7Hhk4","Prajay Petroleum","7, Bhesan Road, Near Canal, Ugat, Palanpur, Surat","21.2212443","72.7749882",""
"ChIJPQKAWABN4DsRZacRbUoo4so","Abhi Petroleum ( BPCL Petrolpump)","Block no. 228, opp. Lake garden, Bhesan Road, ugat, Bhesan, Surat","21.2165317","72.7598877","true"
"ChIJI5sDOQBN4DsRrzuQ2L9eLeo","Shree dwarkadhish weighbridge","6Q85+CMX, Bhesan Road, Bhesan Gam, Dahin Nagar, Surat","21.2161126","72.7592473",""
"ChIJbcii0whM4DsRNs_jibuUxy4","Gujarat Gas CNG Station","6QPQ+FXC, Jahangir Pura, Rander, Surat","21.2362109","72.78997439999999",""
"ChIJ5_akj85N4DsRkyZRBsxfSDs","IndianOil","Block No 58/3/2, No FP 41, near Vivekananda Colleage, Jahangir Pura, Surat","21.2511021","72.7879566","true"
"ChIJyW-weidN4DsRHYRwzKxJUUA","Shell Petrol Pump","Olpad Road, Moje, Rander, Surat","21.23361599999999","72.78971299999999","true"
"ChIJKd-H6PdL4DsR1W14dbfp9pw","HP GAS","India","21.2426453","72.7911756",""
"ChIJLXAwqlpN4DsRAPb_MGgciZM","Nayara petroleum (Yash Petroleum)","6QJR+Q5F, Gujarat State Highway 6, Dahin Nagar, Surat","21.2318963","72.7904326","true"
"ChIJv_6cDQBN4DsRQjiEMGjxOOc","Vinayak petroleum Nayara Petrol Pump","6QCP+V82, Devashish Nagar, Morabhagal, Surat","21.2221347","72.785781",""
"ChIJt7ESdQBL4DsR4WO05otQhQE","Akshat Petroleum","7Q9F+RX9, Olpad Road, Jahangir Pura, Surat","21.269548","72.7749831","true"
"ChIJ1a_iioxN4DsRb2WatxLg4T0","Hindustan Petroleum Corporation Limited","No 30, RS No 122, OP No 103, FP No 6, Rander Road, TP Scheme, Morabhagal, Surat","21.220951","72.790441","true"
"ChIJIST6NMBN4DsRF2ZptN6qSY4","Hindustan Petroleum Corporation Limited","Ground Floor, next to Gujarat Glass Circle, Kosamba Sahol Road, Rander, Kosamba","21.220901","72.790517","true"
"ChIJtctWeAzbwDsRSujDe00jLyA","IndianOil","RS No 377/1, Olpad, Ambheta","21.2649558","72.7295398","true"
"ChIJfTMCcrJL4DsRtuIG9beIiHU","Hindustan Petroleum Corporation Limited","Block No 150 SH 6, Surat Olpad Main Rd, Talad, Olpad","21.2817301","72.7695701","true"
"ChIJYXXup9JP4DsRpYC9BMWRZMg","Nayara Petrol Pump","Opp Sahaj Residency Haridarshan Khado, Dabholi Road, Surat","21.22902689999999","72.806405","true"
"ChIJNaGvO2ZP4DsRJ6osClhQPXc","Hindustan Petroleum Corporation Limited","Ground Floor, Dabholi, Surat","21.2343266","72.81076589999999","true"
"ChIJm7FjDABP4DsR9sE90u5t8UM","Nayara petrol","6RM6+P85, Yojna Park Society, Dabholi, Surat","21.2342598","72.8108563","true"
"ChIJ11muOwBP4DsRF91b-PJX1Ls","Petrol pump","A-303, bramhlok, resiDabholiSurat","21.2328379","72.8122454",""
"ChIJr3tV9FhP4DsRXFTiR88JlkY","Nayara Petrol Pump - Parshottam Petroleum","near Shraddhadeep Society, Navo Mahollo Char Rasta, Singanpore, Causeway main road, Singanpore, near Shraddhadeep Society, Kantheriya Hanuman temple lane","21.2248284","72.8114643","true"
"ChIJAUQlJuFP4DsRv1f3N-YA7F4","RK Petroleum","SUB PLOT- 3/B, FP- 78, TP- 25, R.S.No. 77,80,81, BHARIMATA BHARIMATA-CAUSEWAY ROAD, NR. CAUSEWAY CIRCLE, SINGANPORE","21.2193937","72.8094249","true"
"ChIJhTX0269O4DsRdHW6sVLEyA4","DIVINE AUTO GAS","India","21.2347191","72.8156535",""
"ChIJxU8oQMpP4DsRcvXr4F92Rlo","B R Petroleum","Survey no 80/4, opp. Laxminarayn Temple, 80/5, Nani Ved Road, Surat","21.2411541","72.8199351","true"
"ChIJ7YqcbnBO4DsRV4s_SoVM6AY","Jalaram Petroleum","nr. MANSAROVAR CIRCLE, SUR. NO 19, Sayan Road, Amroli, Surat","21.2397274","72.8509513","true"
"ChIJaYbBcDtJ4DsRpIn3Wacv0R0","Hindustan Petroleum Corporation Limited","Block No 1231/A, Amroli Road, Chorasi, Variav, Hazira","21.2639416","72.8426807","true"
"ChIJ8e9mxn1P4DsR1AZma7gSBqk","Nayara Petrol Pump (CNP Petroleum)","6RQF+4JC, Sahyog Society, Vishal Nagar, Surat","21.2376113","72.82549300000001","true"
"ChIJvb17NsRO4DsRXMo4a9ZRM5M","Shree Jai Ambe Oil Depot","6RJP+M33, Dabholi Road, Rajanand Society, Ram Nagar Society, Vishal Nagar, Surat","21.2316392","72.83516759999999",""
"ChIJD1hyCWtP4DsRLgwUTx_9ae0","Shree Sainath Enterprise","Shop No.5, Patel Industries, opposite Maruti Impex, Katargam, Surat","21.2316819","72.82659939999999","true"
"ChIJH0kOZQBP4DsRYMTXjDkyJX4","Patrol Chor Indian Oil Patrol Pump","6RHQ+CFH, Smruti Society, Patel Nagar, Surat","21.2285363","72.83876339999999",""
"ChIJNac0RMNO4DsRkKwxrVhTmn8","IndianOil","Ground Floor, Katargam, Surat","21.228518","72.8387601","true"
"ChIJ4d9NYs5J4DsR_T3FJnoFEUM","Nayara Petrol Pump, CD Petroleum","B/501, Chhaprabhatha Road, Chhaprabhatha Gam, Amroli, Surat","21.2498118","72.843008","true"
"ChIJp9y2OMBO4DsRkOur3bBlDUY","Sadguru Krupa Auto Garage & Service Station","6RFH+MWM, Opposite Narayan Nagar, Singanpor Road, Snehsagar Society, Katargam, Surat","21.2242162","72.82979329999999",""
"ChIJEWq9fCFP4DsRcaDhO8EIGSM","Shell Petrol Pump","Swami Parmanand Marg, Katargam, Surat","21.224813","72.838253","true"
"ChIJBTAVTpVO4DsR3yNQy6BqaxA","Khodal Oil","Rang Darshan Society 2, Chikuwadi Road, Dan Gigev Society, Vishal Nagar, Surat","21.2218694","72.8274325",""
"ChIJUV-ho8pP4DsRIwLtN6iBUYg","Nayara Petrol Pump - Gajanan Petroleum","Brts Bus Stop, beside BOI Bank, near Katargam, Road, Kasa Nagar, Katargam, Surat","21.2216929","72.8362981","true"
"ChIJP5-Rz0JP4DsRFjEVkeLteIw","Bharat Petroleum, Petrol Pump -S N Patel Petroleum","AMROLI TO SAYAN, Surat","21.242185","72.8519361","true"
"ChIJLe09PO5O4DsRhwiOSnYM3Ko","Hindustan Petroleum Corporation Limited","Plot No 138, Vasta Devdi Road, Khursed Wadi, Katargam, Surat","21.2207701","72.83561010000001","true"
"ChIJ3WfzketO4DsRkLPwbVg67-Q","IndianOil","Survey No 4574, TPS, no..3, FP No 144, Katargam, Surat","21.2180466","72.8318858","true"
"ChIJ62abs9ZP4DsRMciCuKaNOic","Shree Ram Auto Consultant","Asaram Road Nilam Petrol Pump","21.2177897","72.83142320000002","true"
"ChIJVeAZeQBP4DsRBjvGZCFqNs4","Riva petroleum Indian Oil","77, New Kosad Road, Sai Ashish Society, Amroli, Surat","21.2440548","72.85572259999999","true"
"ChIJd5fI8YFJ4DsRO8evZ7ilJm4","Jodhal Petrol Pump","Hazira-Sayan Road, Variav, Surat","21.2633297","72.83575069999999","true"
"ChIJK5QPEwBP4DsRrVjqWbQPOf0","GUJARAT GAS CNG PUMP","6R8C+9X6, Industrial Area, Singanpor, Surat","21.21592069999999","72.8223781",""
"ChIJCx3tBO1O4DsRy0pxciYgKJA","Sai Sri Khodiyar Auto Garage Service Station","C-1-24, Katargam Road, Gotalawadi, Katargam, Surat","21.21378589999999","72.830258","true"
"ChIJ6xXaXsBP4DsRzXBk4bze_Fo","RADHE","GROUND FLOOR, Katargam Darwaja Road, Kubernagar 1, Katargam, Surat","21.2129474","72.82520819999999",""
"ChIJd3Jm27RP4DsR4Yvla2GA-q8","Serdi Ras","Ved Road, Pandol, Surat","21.2136878","72.82182689999999",""
"ChIJf2NLKwOPXjkRuhBGSiIgC_U","IndianOil","Su/B No 169, Kamrej, Laskana, Abrama","21.249392","72.9247759","true"
"ChIJ0-tKeRdG4DsRzzVX8g934Ck","IndianOil","Chamunda Nagar, Surat","21.274283","72.9109959","true"
"ChIJh5ro_flG4DsR66Q9IOfropI","NAYARA Petrol Pump (Kathor Petroleum)","7XV2+4GQ, SH 602, Amboli","21.2933055","72.95154959999999","true"
"ChIJL0OqnblF4DsRs46KM01iAyw","Abhishek Infotech Pvt. Ltd.","Sarthana Jakat Naka, Nana Varachha, Khadsad","21.2330416","72.90745009999999","true"
"ChIJXSMGxlpP4DsR4OeJ2VUIIDc","Sagar Motors & Service Station","42/43, Lajamani Chowk To Krishna Township Road, Satellite Road, Gopinath Society, Mota Varachha, Surat","21.2386596","72.8881359","true"
"ChIJFTywE79P4DsRrDlT_OyDe9I","G M Patel - HPCL Fuel Station","Gujarat State Highway 602, near Nature Park and Zoo, Sarthana Jakat Naka, Nana Varachha, Surat","21.2294377","72.89462979999999","true"
"ChIJfYeXXWBP4DsRb7TnTVrY0VM","Shree Nyalkaran Motor & Gas Point","opp. ashadeep sciencen bhavan school, plot nu. 50 akar soc. near angel hospital, opp. ashadeep sciencen bhavan school, Simada Naka, Surat","21.2265301","72.89701149999999","true"
"ChIJLco4IuZF4DsRLaTSZfujDMo","Shell","India","21.2440147","72.9181199",""
"ChIJeXPn9sBJ4DsR904o0r_TJu4","Nayara Petrol Pump- Anthem Petroleum","Dukhiyana Darbar Road, Upli Colony, Mota Varachha, Surat","21.2498018","72.88570469999999","true"
"ChIJezQV2ARF4DsRBdB2VYj8nuo","Nandini Petroleum","opp. TFC Business hub, 91-C, Pasodara Road, Sarthana Jakat Naka, Surat","21.2345208","72.9187257","true"
"ChIJgVIFegFG4DsRT4kkLyHKm4A","Hindustan Petroleum Corporation Limited","Block No 138, Nani Varachha Road, Abrama","21.2584343","72.9023471","true"
"ChIJHZYHyQpP4DsRR8VOh6H3NdA","HARIKRUSHN AUTO GAS","SHOP NO.8, opp. CHOPATI, Varachha Main Road, Nana Varachha, Surat","21.2232005","72.88380699999999","true"
"ChIJQ00XNQBP4DsR3kOkOVovfkQ","Bharat Petroleum","opposite Platinum point, Mota Varachha Main Road, Surat","21.2369215","72.8750895",""
"ChIJ5WqlcDhP4DsRwTQLHUiHxNU","Gujarat Gas","India","21.2369404","72.87475789999999",""
"ChIJFbTPVhtG4DsRS6upzV0tS30","Abrama CNG Pump","7W84+832, Abrama Road, Mota Varachha, Surat","21.2657589","72.90514390000001","true"
"ChIJc26NRABF4DsRCOO1PGB0S-8","J.V Petroleum","6WJG+8R, Khadsad","21.2307656","72.9271113","true"
"ChIJI0nq4ThP4DsReRg95O_FqUE","Shell","Mouje Utra Taluka Adajan, Mota Varachha Main Rd, Satellite Road, Surat","21.234705","72.872309","true"
"ChIJbX1LIwlF4DsRi-T_dp8mEL8","Nayara Petrol Pump - Anthems Energy","Valthan-Punagam Road, Surat","21.2135756","72.909634","true"
"ChIJmYA0InpP4DsRZRHrRarmPpo","Yash Auto electric& Service steshan","below Hare Krishna School, near Water Tank, 6, Puna-Simada Road, Yogichowk, Mansarovar Society, Yoginagar Society, Surat","21.2143744","72.8883543","true"
"ChIJ70ZnNABF4DsRu1otfGLq_g4","Rohan","7W2H+VQ3, Laskana, Surat","21.2521408","72.9294293",""
"ChIJ6WCoJL9J4DsRprkjbmR0qtE","Jio-BP Petrol Pump(Naksh Petroleum)","Block No.224, Dukhiyana Darbar Road, Surat","21.2650624","72.8847337","true"
"ChIJ95ZzC4lF4DsRj-uu7_uUhlo","Maa Kripa Petroleum","near anthem-circle, Plot no-77-6, Vesu Canal Road, near anthem-circle, Valthan-Punagam Road, Kosmada","21.2135497","72.9139309","true"
"ChIJNU9Yt2xP4DsRnehSJpZiBZA","Uma Petroleum (Reliance Petroleum)","Tp No 16, Co-Operative, near Shivani, Fp No 12, Varachha Main Road, Spinning Mill, Compound, Kapodra Patiya, Surat","21.2207463","72.8759079",""
"ChIJPybyvpKHWTkRq79qnusNbTU","Jio-bp","151, 152, Plot No 149/B, 150, near Shivani, 17, Varachha Main Road, Kapodra Patiya, Surat","21.2207172","72.8759123","true"
"ChIJdz5H6k5F4DsRJ1pcqy2LG-o","Bhakti petrol","H-104, Khadsad","21.22795379999999","72.9314924",""
"ChIJedVY4nlP4DsROMt-XuuZpTc","Sri Vallabha Auto Garage & Service Station","Tank Jhank Park Society, Unnamed Rd, Punjan Chowk, Yogi Chowk, Nakalank Park, Yoginagar Society, Surat","21.210595","72.8871091","true"
"ChIJgbHSZgBP4DsR9N8dXTSONBQ","Mota varachha","6V9F+GR4, Kapodra Patiya, Surat","21.2187655","72.8745776",""
"ChIJcRfxGahF4DsR6_D01GHL_JA","hare krishna ind","7W4M+F36, Diamond Nagar-3, Laskana, Surat","21.2561732","72.9326313",""
"ChIJk_ccTiJF4DsRHpVXE2CB1dg","IndianOil","Survey No 385, Kamrej Varachha Road, Kosmada","21.2133913","72.923114","true"
"ChIJq4LNZnZP4DsRWV_-E1BY7Ro","Nayara Petrol Pump","B-210, Kargil Chowk To Yogichowk Rd, Bhagwati Krupa Society, Punagam, Varachha, Surat","21.2127089","72.88004889999999","true"
"ChIJI8iaaD9F4DsRU-s36L0sbNc","Shiv Petroleum","6W7F+582, Valthan-Punagam Road","21.2128877","72.9232632","true"
"ChIJjwmknTxP4DsRC-jR_sSK9dE","dianOil","India","21.2324305","72.8651404",""
"ChIJofyYYTtP4DsRyvfOSMxz7kw","Anand Petroleum","Uttran, Surat","21.2324435","72.8651275","true"
"ChIJSchIxtVF4DsRWqxjLwUeLhc","Swastik Online CNG Station","7W4P+329, Surat - Kamrej Highway, Diamond Nagar, Laskana, Surat","21.255152","72.9351154","true"
"ChIJjc46bgBF4DsRo2ebnYFeGrQ","Nayara Laskana Petroleum","7W4P+45V, Surat - Kamrej Highway, Diamond Nagar, Laskana, Kamrej","21.2553661","72.9354067","true"
"ChIJg4ED1CBP4DsRY_HpvK3MR1I","Om Petroleum Nayara Petrol Pump","oppo. jalaram furniture, brts, Kapodra Patiya, bustande","21.2187358","72.8707615","true"
"ChIJa_K3AP5F4DsRMpDhTF9H3ew","Jio-bp","SUB PLOT NO-3, RS-160,BL NO-143 PAIKY 16, SANSKRUT INDUSTRIAL ESTATE, SURAT TO KAMREJ ROAD NR DAIMOND NAGAR AT AND POST-LASKANA, TAL, KAMREI, Surat","21.2554145","72.9356737","true"
"ChIJk3xCH3tP4DsR0lqd5jgHaI8","Nayara Petrol Pump - Krishna Petroleum","Block No. 354, Nr.Heaven Party Plot, Puna valthan, Canal Rd, Kosmada, Surat","21.21371","72.9271291","true"
"ChIJaepUTTtP4DsRv2aV_t8IfOo","Patel Petroleum,Nayara Energy Ltd","Silver Business Point, Uttran, Surat","21.2328088","72.863326","true"
"ChIJabhBr69F4DsRFxoZ4S8HbVo","Nayara Krishna Petroleum","6W7G+FR, Kosmada","21.2131877","72.9272313",""