place_id,name,address,latitude,longitude,open_now
"ChIJ_6gQNEjGXzkRY_jwXxbG8CU","Essar Petrol Pump","74FW+788, Atladara, Vadodara","22.2731676","73.1458284","true"
"ChIJu_BkvyrGXzkR7NhCSNBn6RA","OM PETROLEUM (NAYARA RO)","BRIGHT CBSE SCHOOL, Vasna - Bhayli Main Road, OPPOSITE, Vadodara","22.2906482","73.1315731","true"
"ChIJbw0USyTBXzkRBMF2SPn2RFs","Bhagwati Petroleum","Block No. 1406/B, Bill-Chansad-Itola Road, Village Chansad, Ta. Padra, Vadodara","22.184067","73.1432915","true"
"ChIJT1eYtBXGXzkRAKfMDVduu-E","IndianOil","RS No 632, near Kalali, Phatak, Atladara, Vadodara","22.277617","73.161369","true"
"ChIJT0W8_8LIXzkRFB27jHoJVn8","Shell","Old Padra Road, Vadodara","22.283883","73.164582","true"
"ChIJcSgAV2HHXzkR_rx96QSaW1M","Shell Petrol Pump VP Road","Bageshree Enterprise, Padra Road, Vadodara","22.2592811","73.11392169999999","true"
"ChIJCZCDi4XHXzkR8jKL8HKcH2Q","Hindustan Petroleum Corporation Limited","733W+W97, Survey No 432 SH 6, Radra Road, Padra, Vadodara","22.25460799999999","73.095467","true"
"ChIJB3gLfn_HXzkRrj6ZKNjQbV4","Milestone petroleum","Sangma, Padra","22.2544046","73.0946852","true"
"ChIJYbCHIM65XzkRLISaPpbsuGk","Harekrishna Petroleum","Survey No. 186, Padra, karjan, road, Padra","22.2284333","73.0857297","true"
"ChIJpVeoiBa5XzkRdsvMRFxpbcU","Khodiyar Petroleum(BPCL)With CNG Station & PUC CENTER","beside MAMA party plot, opposite Western India Ceramics Ltd, Padra","22.2487721","73.0867712","true"
"ChIJR0qbWX64XzkRbNLoHtHMGRM","Hindustan Petroleum Corporation Limited","Ground Floor, Padra","22.2448301","73.0840501","true"
"ChIJf-bv6X64XzkRGg3dzSYaY1E","M/s. F. Patel & Co. Petrol Pump with CNG Station","Voda Colony, Padra","22.2464958","73.0837493","true"
"ChIJ09XfwAC5XzkRoPE_HSR_iGg","Bharat Petroleum, Petrol Pump -Nandi Petroleum","Jambusar - Padra Road, Laxmi Nagar, Vadodara","22.2416098","73.08036799999999","true"
"ChIJa1-YdADHXzkRk95qih6zIwo","SHIVAM ENERGY","B-73, Bill Road, Atladara, Vadodara","22.258039","73.134005",""
"ChIJ57_4OBzHXzkRZIb5rqdWBbE","maa petroleum nayara petrol pump gokalpura western by pass road","7495+5R, Vadodara","22.267964","73.1094585","true"
"ChIJR08pOQDHXzkR_s2mX_O0W0E","BP- GORIYAD","6442+QV, Sareja","22.2066721","73.1025033","true"
"ChIJkb4UzBW5XzkRAkmO6EHK-ak","Bharat Petroleum Petrol Pump , MAA PETROLEUM","PADRA JAMBUSAR HIGHWAYAT & PO PADRA, Vadodara","22.239984","73.0707359","true"
"ChIJh_QZM9nHXzkReuz1xlaDNro","Nayara Petrol Pump - Akshar Petroleum","opp. Pramukh Swami Sabha Gruh, Survey Num-1872,Bhimpura-Samiyala, opp. Pramukh Swami Sabha Gruh, State Highway, Chansad","22.20432680000001","73.1336839","true"
"ChIJtQfAk7jHXzkRb-B9t1W4QRg","BHARAT PETROLEUM PARSHWA ENTERPRISE","Opp. Broadway commercial hub, IIRA International School Road, Vadodara","22.2745916","73.13060229999999","true"
"ChIJ1yd7rzjHXzkRRfWJUam0wI8","SHRIHARI PHARMACHEM, ANALYTICAL CONSULTANT","Broadway business hub, opp. to bharat petroleum, 27, Sun Pharma Road, Bhayli, Vadodara","22.27434559999999","73.1313394","true"
"ChIJZ_khewDHXzkRt5iwSQQiSZw","Pramukh Swami petroleum","74CV+6MJ, Atladara, Vadodara","22.2704721","73.14418420000001",""
"ChIJf4I0CQDHXzkRIE78IjDHI38","Hindustan Petroleum Corporation Limited","Survey No 254, A1 Vadoda, Yogi Road, Kalali, Vadodara","22.2665993","73.14915549999999","true"
"ChIJr0XNXADHXzkRq7cNKTVj3DM","BHARAT PETROLEUM (SHASTRIJI PETROLEUM)","748X+VF8, opp. Dip's Party Plot, Akshar Char Rasta, Jalaram Nagar, Atladara, Vadodara","22.2671711","73.1487178","true"
"ChIJbe_SGQDBXzkRTwqa_otEx1w","BP-SARASWANI","53VX+23, Vadodara","22.1925625","73.09768749999999","true"
"ChIJ5bXEg_W4XzkReLD0OqM883E","H P Petrolpump","63Q6+P9W, Gujarat State Highway 160, Suvarnapuri, Padra","22.2393731","73.0609401",""
"ChIJF8BRLwDBXzkRZJw89-kOJlk","Bharat Petrol Pump - Petrol - Diesel","53RX+R7, Madapur","22.192106","73.09817","true"
"ChIJOYxRGW7HXzkRGpbkh7ZhjoI","Vadodara Gas Limited CNG Station","near LG Petroleum, Raypura Road, Moti Bhagol, Bhayli, Vadodara","22.2843148","73.118222","true"
"ChIJR39gvdvHXzkRcJCyIz4IH14","Hindustan Petroleum Corporation Limited","Block No 1171, Road, Bhayli, Raipura","22.28442699999999","73.11817599999999","true"
"ChIJE_7Alnm5XzkRMbWRB6ZZ23o","Hindustan Petroleum Corporation Limited","Survey No 503, P1, Jambusar - Padra Road, Vadodara","22.2407783","73.0590617","true"
"ChIJ____r2jGXzkRU2_kTnZQ58w","Alfa Petroleum","623, Nt Kalali Fatak, Atladara, Vadodara","22.2629871","73.1637253",""
"ChIJE8GhtW_PXzkRWNlfgaS-QBM","FAITH PETROLEUM","above Saffron Galaxy Appartment, Kismat Chokdi, Vadodara","22.2852815","73.1426871","true"
"ChIJ__wqKgDHXzkR2WbjXs7rSns","Hindustan Petroleum Corporation Limited","Survey No 189, Vasna - Bhayli Main Road, Vadodara","22.2856837","73.1423429","true"
"ChIJOZ3CdDnHXzkR47DFMmVira8","Bharat Petroleum, Petrol Pump -Premshanti Petroleum","CITY SURVEY NO. 1125 AND 1126, Atladara, Vadodara","22.2802975","73.1530904","true"
"ChIJA0yZMgDHXzkRYZ_4taR_aUY","Hindustan Petroleum Corporation Limited","Survey No 428, Susen - Tarsali Ring Road, Kalali, Vadodara","22.26657380000001","73.1668315","true"
"ChIJ9_UyAlvHXzkRPiv3BY1lsyQ","NAYARA ENERGY Petrol Station","Survey No. 428, Nayara Petrol Pump, near DPS School, Ring Rd, Vadsar, Kalali, Vadodara","22.2661727","73.1672099","true"
"ChIJj5SkFgDHXzkRcFV53-Fh9Pk","Bharat Petroleum BPCL Fuel Station","7598+CCG, opposite Delhi Public School, Ring Rd, Vadsar, Muj Mahuda, Khalali","22.268563","73.166074","true"
"ChIJgy6WNQDHXzkRJ2K6ZzZsBTQ","Vadodara gas ltd cng station","Mayfair Atrium, opposite Delhi Public School, Ring Rd, Kalali, Vadodara","22.2684218","73.1662343","true"
"ChIJQ9jYKubHXzkRuoDpBAI8MSI","Shell Petrol Pump","Taluka And District, 63, Susen - Tarsali Ring Road, Manjalpur, Vadodara","22.267326","73.167209","true"
"ChIJqepZI53JXzkROqum1wSezOE","Shell Select","near Priya Cinema, Opposite Anand Kiran Residency, near Priya Cinema, Sevasi - Canal Road, Bhayli, Vadodara","22.29775","73.127056","true"
"ChIJZ8gLJbnHXzkRyeZljNjuX58","Madhavmani petroleum","61, Sun Pharma Road, Atladara, Vadodara","22.2805699","73.1597537","true"
"ChIJ244pUXrGXzkRhlOB1756XtI","Ameesh Enterprises, BPCL Petrol Pump","Susen - Tarsali Ring Road, Vadsar, Kalali, Vadodara","22.2610248","73.1737275","true"
"ChIJ238PEFrHXzkR_KpfulL9BTc","Jamil Ahmed Iqbal Sindhi","Nh8 VGL Station Satkar Hotel Valan, Vadodara","22.2865594","73.15283629999999",""
"ChIJlT0zv_DBXzkRQAnBI29quLo","IndianOil","Survey No 1302, Husepur, Padra, Sarar","22.1763914","73.0905835","true"
"ChIJVZUeW-DHXzkRA0yfuBRhsus","IndianOil","T P No 22, near Patrakar Chauraha, F P No107, Tandalja Road, Ahmed Nagar, Vadodara","22.289929","73.152458","true"
"ChIJZ8z0n27HXzkRa0I5Z2s37FM","petrolium","75, Santoshnagar, Vadodara","22.285016","73.159896",""
"ChIJ2aWLruG5XzkRRPWyZoD12C8","ESSAR PETROL PUMP","62VR+Q2G, Vadodara","22.2444364","73.0400782",""
"ChIJGZNuHqTJXzkRoO6UERI2bWw","Hindustan Petroleum Corporation Limited","Survey No 1575/2, near Nilamber Circle, Plot No 140, Vasna Road, TP 16, Vadodara","22.29907499999999","73.139353","true"
"ChIJt6GMkSPJXzkRCI-im2S7XlQ","TATA DEF STATION यूरिया पंप","TATA DEF STATION, near BHARAT PETROLEUM, Vadodara","22.3036567","73.12644329999999","true"
"ChIJVSJUlNTHXzkRNDT7g3I6UGc","Hindustan Petroleum Corporation Limited","near D Mart, Plot No 166, Vasna Road, Vasna, Vadodara","22.2950577","73.1525512","true"
"ChIJU_iI-7DHXzkR2IrfUK2t0A4","HP Petrol pump","75M8+HX4, Vadodara","22.2838814","73.1674597","true"
"ChIJ02-_yIHFXzkR25PJ4aKwjlM","Hindustan Petroleum Corporation Limited","S No 436/437, Pune Laxmi Road, Nana Peth, Nanapeth, Pune","22.2592334","73.18332079999999","true"
"ChIJq6qqarHIXzkRl4N4MxY9fxM","Perfect Gas","36, Shiv darshan Complex, Near Ruturaj Complex, Vasna Road, Kalyan Nagar, Tandalja, Vadodara","22.2948497","73.15536660000001","true"
"ChIJN8m8ZBDGXzkR2tYN8d5qR3k","N M Shamsuddin BPCL Petrol Pump, Mujmahuda","22, Akota - Mujmahuda Road, Muj Mahuda, Vadodara","22.2850064","73.1678295","true"
"ChIJTy-_GwDHXzkR1dpAgO1UHks","Bharat Petrol pump","75M9+X6M, Bhayli, Vadodara","22.28495239999999","73.16805320000002",""
"ChIJoSgpiGTFXzkRz2HqhUzvhQE","Reliance gas agency","117, Makarpura Road, Maneja Crossing, Makarpura GIDC, Makarpura, Vadodara","22.2385737","73.1885764","true"
"ChIJkx_VlkvFXzkRmrsELJtS-U4","Bharat petroleum Petroleum (Adani Gas)","Shree Ram Nagar, Himmat Nagar, Makarpura, Vadodara","22.2344363","73.1886324","true"
"ChIJVbDOjjHEXzkRI5BjI3kS5zs","IndianOil","NH No 8, Makarpura, Vadodara","22.2451785","73.19238310000001","true"
"ChIJsTGNLRnEXzkRSGc1wLMMLnk","IndianOil","Ground Floor, Nh8, Jambuva","22.2264859","73.1882834","true"
"ChIJRRhd3-nFXzkR02sF9EazcBM","IndianOil","TP No 19, Fp No 312, Atithi Gruh, near Manjalpur, Manjalpur, Vadodara","22.271898","73.19085299999999","true"
"ChIJhVaFarXFXzkRO-UthomC2Jg","Nayara Gas Station","RS No, 237/A, Susen - Tarsali Ring Road, Vadodara","22.2567812","73.2071319","true"
"ChIJUwgCn8jFXzkRezb24Pq_9c8","Shell","Makarpura Road, Tarsali, Vadodara","22.266064","73.20152","true"
"ChIJRf2xtunFXzkRN_faSqE113w","IndianOil","near Dawat Restaurant, Lalbagh Road, Manjalpur, Vadodara","22.2792","73.1972","true"
"ChIJQdBeSavFXzkR0DjPPBru_Vs","Hindustan Petroleum Corporation Limited","RS No 563, NH 48, Surat NH, Tarsali, Vadodara","22.257656","73.224622","true"
"ChIJDfCcnJPFXzkRZeH_gu1Vv5s","Nayara Petrol Pump, Shreeji Associates","opp. Apsara Cinema, Pratapnagar, opp. Apsara Cinema, Pratap Nagar Road, Pratapnagar, Vadodara","22.2875329","73.2096809","true"
"ChIJLa0Y9Y3FXzkRzkZvoZ1Q1lU","IndianOil","near Geeta Mandir, Pratap Nagar, Wadi, Vadodara","22.291251","73.210481","true"
"ChIJxaBoFiDGXzkRw4li5_zalJI","IndianOil","Survey No113/P, Block, 109, Gotri - Vasna Road, saiyad Road, Vadodara","22.2950671","73.15755270000001","true"
"ChIJg5LtD6zFXzkRAK-VRIFE6aM","SUBH PETROL PUMP","Royal Garden, E8, Makarpura, Vadodara","22.237392","73.199732",""
"ChIJ93Otk1XFXzkR_erVtEWWgIw","Bharat Petroleum, Petrol Pump -Paras Service Station","Opposite Panasonic Batteries (Novino Battery, Makarpura Road, Priydarsini Nagar, Anand Baug Society, Vadodara","22.2528225","73.1978075","true"
"ChIJM4PlpILFXzkRPXWDP8roCRM","DEF PUMP UREA PUMP","66P5+RJR, Susen - Tarsali Ring Road, Vijay Nagar, Tarsali, Vadodara","22.2371151","73.2090262",""
"ChIJ8xzbPADFXzkRC9xgn29sL6c","Bharat pump","66R6+9VH, Vadodara","22.2406777","73.2122593",""
"ChIJM5pkFXDFXzkR3m6iGWG9vG4","IndianOil","Ground Floor, opposite SRP Group 9, Makarpura Road, Vadodara","22.2604982","73.1998062","true"
"ChIJl1_znlPEXzkR5jar3GHUiBM","Balaji Petroleum","NH-8, By-pass, Tarsali, Vadodara","22.2406823","73.2122948","true"
"ChIJ2S7MMgzFXzkRTOWFsntBlv0","Shell Petrol Pump","Ahmedabad - Mumbai Highway Village Jambua, Nh 48, Vadodara","22.207486","73.19203399999999","true"
"ChIJ9T2DtinFXzkRtdMoLbfZa_0","Hindustan Petroleum Corporation Limited","Shop No 1504, K/2, Tarsali, Vadodara","22.2549681","73.21147040000001","true"
"ChIJN9q39m_FXzkRr8b9pZ_1woQ","Gas office","8, Manjalpur, Vadodara","22.2711503","73.188397",""
"ChIJze2NwPnDXzkRhVyLNeKUPfQ","Hindustan Petroleum Corporation Limited","Ground Floor NH 8, Jambuva, Alamgir","22.2034501","73.1925601","true"
"ChIJo4bhkHLDXzkR3g3pupK4NEs","Vadodara Gas Limited CNG Station","653R+8WP, National Highway 48, Alamgir","22.203326","73.1923351",""
"ChIJn_llH6fFXzkRbCXAH-94lzQ","Hassan Dairy Circle","Abhishek House, Kubereshwar Mahadev Marg, Pranav Society, Krupal Society, Manjalpur, Vadodara","22.270334","73.19717059999999",""
"ChIJD-fp3lXFXzkRwkmfdoRoJj4","Nayara Petrol pump","opp. Eva Mall, Manjalpur, Vadodara","22.2730154","73.1875503","true"
"ChIJV9BB4_jDXzkRnCDn9deRbFo","IndianOil","Ground Floor, Damor, Nh No 8, Sundepur, Alamgir","22.1986814","73.1918124","true"
"ChIJpyt2c-7DXzkRgQh1KklMNaw","IndianOil","Ground Floor, NH 8, Alamgir, Sunderpura, Danteshwar, Vadodara","22.197197","73.19196","true"
"ChIJV43u0NjDXzkRK8jrEXVJB-U","Jio-bp","55VR+MR, Survey No 204A, 205 & 215A, Varnama, Alamgir","22.19504719999999","73.1913074","true"
"ChIJ4Q1zpZjFXzkRlRBnzYdg34E","INDIAN OIL PETROL PUMP","Tarsali, Vadodara","22.26383389999999","73.2210182","true"
"ChIJ6_O40onEXzkRw0wAqROKA-4","IndianOil","Ground Floor, Chikhodara","22.226017","73.23001","true"
"ChIJR0h1Qg_GXzkRHLPZYnPSmNY","Vaidehi Petroleum, BPCL Petrol Pump","Vishwamitry Township Wing A, Vishwamitri, Vadodara","22.285589","73.17474159999999",""
"ChIJs6wR2t_FXzkRochI2G8PuxU","Garage for 4 Wheeler by Sherubhai","17, shantipark society, Lalbaug, Manjalpur, Vadodara","22.2809245","73.2060946",""
"ChIJ8RyhpxrGXzkRm8wzVCg-EhE","Shree vasudev Transport Bharat Petroleum","75P9+CQP, Vishwamitri Road, Pratham Avenue, Muj Mahuda, Vadodara","22.2860802","73.1694533","true"
"ChIJ2VHQcwDFXzkRuQmTq9UREEE","Sonu enterprises","66HM+4VP, Tarsali - Vadadla Road, Adarsh Nagar, Tarsali, Vadodara","22.2278465","73.2347131",""
"ChIJpxXz23fFXzkR7IrDaMbPkTE","Bharat Petroleum Petrol Pump, PRISIONER WELFARE FUND PETROL STN.","SURVEY NO.96DANTESHWAR WADI CENTRAL JAIL","22.2713802","73.2251376","true"
"ChIJ9-zn0C3FXzkRRS1oGauvUUo","Bharat Petroleum Petrol Pump - Balaji Petroleum","Bakrawadi, Navapura, Vadodara","22.2844337","73.2080556","true"
"ChIJO92hY3rFXzkRx4cr83mziW0","Nayara petrol pump (AMIT CORPORATION)","A-13, Ring Rd Pangat Park, Waghodia Vadodara, Gujarat 390019, A-13, Ring Road, Pangat Park, Waghodia, Vadodara","22.29418459999999","73.2380098","true"
"ChIJ5VV0YYDFXzkRnChPagmyhzU","IndianOil","FP No 5, TP No 4, Ajwa Road, Satyam Park Society, Vadodara","22.302443","73.22657099999999","true"
"ChIJ_UU2qyPFXzkR1T7Ke3i542A","SACHIN PETROLEUM","Gujarat State Highway 11, Waghodia","22.24880919999999","73.2630791",""
"ChIJC9y1-RTFXzkRpoh5wYXZOTI","Essar petrol pump","67X6+XWC, Gujarat State Highway 11, Ratanpur","22.24992809999999","73.2622703",""
"ChIJvz1_mgzFXzkRXQXaseK1R-0","Nayara petrol pump","67X7+GG6, Navapura","22.2487936","73.263751",""
"ChIJK_5T2ADFXzkR6fBVmXFqvVg","Bharat Petroleum and CNG Pump","7735+M28, Gujarat State Highway 11, Ratanpur","22.2541699","73.2575668",""
"ChIJ9cl6HgDFXzkRxg7W099Qp7s","TATA DEF STATION","Kelanpur","22.2547888","73.2573104","true"
"ChIJT1ffRADFXzkRIBGOU4qb2aQ","Alakh Petroleum (IOCL)","Ratanpur","22.2597634","73.2531348","true"
"ChIJrYrM4E3bXzkR_gNaz_eSzIE","IndianOil","Ground Floor Kelanpur, D Cabin, Hetampura","22.229865","73.28203599999999","true"
"ChIJTTOyVQjDXzkRpuaxPw54I1Y","IndianOil","TARSHALI TO KAYAVAROHAN ROAD, Vadodara","22.2013958","73.23813679999999","true"
"ChIJLcpO7UTFXzkRayjcVHSmEXE","Bharat petroleum ભારત પેટ્રોલિયમ","Kanha Icon, Chokadi, Dabhoi Road, Kapurai Village, Vadodara","22.2770461","73.2411876","true"
"ChIJ30wePnnFXzkRa5fKhNpos1I","Radha petroleum With CNG Gas Station","Kanha Icon, Chokadi, Dabhoi Road, Kapurai Village, Vadodara","22.2774206","73.2410216","true"
"ChIJnRdf1kTFXzkR7UibDR4ZoXA","IndianOil","Ground Floor Danteshwar, Kapurai Village, Vadodara","22.279417","73.24397499999999","true"
"ChIJ8RPGT4PFXzkRSKw0VGgO1Q4","Indian gas agency","76GH+PQ, Vadodara","22.2767745","73.2294168",""
"ChIJv4pxPgrFXzkRnfinj0k6Ys8","Nayara petrol pump with cng","76JJ+74J, Mahesh Nagar, Suryanagar, Vadodara","22.2806508","73.2302692",""
"ChIJaw4qPXXFXzkResT31dX5GKk","Bharat Petroleum","Ring Road, Waghodia, Vadodara","22.2819424","73.2316708","true"
"ChIJizsgpefFXzkRL4cm2RnYMEw","Hemant Puc Center","beside Bharat Petrol Pump, Soma Talav, Vadodara","22.2831496","73.23243049999999",""
"ChIJKU4iQwDFXzkRyXUr1t6Osvg","Mahesh nagar","76JF+4WF, Dabhoi Road, Vadodara","22.2803019","73.22479609999999",""
"ChIJMyOiopjFXzkRTKnS0Jb8FjI","Hindustan Petroleum Corporation Limited","Ground Floor, near Old Octori Naka, Dabhoi Road, Vadodara","22.2806308","73.22200699999999","true"
"ChIJ6cM9S4DFXzkRNylDnfGILmg","Bharat Petroleum","77V9+924, Gujarat State Highway 158, Khatamba","22.2933756","73.26756809999999","true"
"ChIJOQCMg-LFXzkReYOm-5o7wNE","Raja Ranchhod Petroleum","Waghodia Road, Ratilalpark Society, Vadodara","22.2939849","73.22861739999999","true"
"ChIJa0iMBpHFXzkRfL4SCy8d7u8","VMC Gas Station","C-14/20/63, Yamuna Mill Road, Bhatia Chawl, Moghul Wada, Vadodara","22.2875041","73.21410089999999","true"
"ChIJxXMFVZDFXzkRKbADydwBvA8","WADODARA GAS LIMITED","India","22.2880292","73.21475560000002",""
"ChIJJ47zTs3bXzkRlGKHjn8Gbr4","Hindustan Petroleum Corporation Limited","Survey No 170, 2/2 SH 158, Waghodia Road, Waghodia, Amodar","22.2918108","73.2826307","true"
"ChIJoacDP0zdXzkRBq4S3wQch14","Hindustan Petroleum Corporation Limited","Survey No 853, SH 11, Dabhoi Road, Palaswada, Dabhoi","22.204603","73.308983","true"
"ChIJV_BuTUDFXzkR0OwJca09xjo","VENU PETROLEUM","Ghutanvad Dungarvat Road, Vadodara","22.2985831","73.23098379999999",""
"ChIJcU0DvFfFXzkRarwLkWFDwKM","Bharat Petroleum Petrol Pump","175, Ring Road, Vrundavan, Waghodia, Vadodara","22.3022693","73.2386346",""
"ChIJ9fAE7X7FXzkR9ieBt4MX7Mc","Mega Petroleum","near Old Bapod, L/20, Waghodia Road, Jakat Naka, Sapan Nagar Society, Vadodara","22.3007419","73.22959929999999",""
"ChIJY1EFOADFXzkRzep6GwdHbwQ","Petrol pump","Near, Ayurvedic 3 Rasta, Relief Colony, Satyam Park Society, Vadodara","22.2981008","73.22198279999999",""
"ChIJ37kgxgPJXzkRtjXvI_LIe9o","IndianOil","Ground Floor, opposite IPCL Corporate Office, Gorwa Road, Vadodara","22.344536","73.14210500000002","true"
"ChIJ81sWxo3IXzkR26l8EtO7VSI","Shell","Gotri Road, Vadodara","22.313375","73.14461","true"
"ChIJX0CQtZvIXzkRkBujhHb04rA","J.P. Petroleum (Nayara Petrol Pump)","FP 138, Shakti Nagar Society, Saiyed Vasna, Vadodara","22.3037423","73.150533","true"
"ChIJfZzPwZPIXzkRfnDLpa_Zepg","Hindustan Petroleum Corporation Limited","65 Plot No 28, RS No, TP Scheme 2, Gotri, Vadodara","22.314123","73.151223","true"
"ChIJN3P8w8PIXzkRJ8WNxYed7Kw","Hindustan Petroleum Corporation Limited","Revenue Survey No, Plot No 1, near Bhailal Hospital, 1060/1, Gorwa, Vadodara","22.3268311","73.1626309","true"
"ChIJF8caBevIXzkRm1ofhxKbXo8","IndianOil","City, High Tension Road, Subhanpura, Vadodara","22.3212259","73.15472849999999","true"
"ChIJud17SrDIXzkRdl2saiiVGoU","Bharat Petroleum, Petrol Pump -Alkapuri Automobiles","opp. BOB, RC Dutt Road, Sampatrao Colony, Alkapuri, Vadodara","22.3107277","73.1714951","true"
"ChIJ90e3C8fIXzkRl5Ar5S9Mr1U","Bharat Petroleum-J.C.Chokshi Co.Ltd","85C8+RWV, Opposite Alembic Vidhyalay School, Gorwa-Refinery Rd, Gorwa, Vadodara","22.322111","73.16729339999999","true"
"ChIJmS8FhxvJXzkRfjnk1RfyZmY","Harsidhhi petrolium","SR NO 232 Gorwa, To, Karodiya Road, Karodiya, Vadodara","22.3476428","73.15009839999999","true"
"ChIJ2WzcVrjJXzkRJ3wG_M1YXHw","Bharat Petroleum, Petrol Pump -Swagat Fuels","wadi vadi, beside Vadodara Central Mall, Near, Genda Circle, Alkapuri, Vadodara","22.3167941","73.1689636","true"
"ChIJN90X2bLIXzkRV3iz36PZtRA","Hindustan Petroleum Corporation Limited","Ground Floor, near ST Depot, Chhani Road, Vadodara","22.313047","73.181139","true"
"ChIJQ7LNJ83IXzkR0BhqHv5CMHU","IndianOil","opposite Tapovan Society, NH 8, Nizampura Road, Vadodara","22.33060679999999","73.1813956","true"
"ChIJOwwvtzTPXzkRk-L7_7LxpQY","IndianOil","Ground Floor, Nizampura, Vadodara","22.3266474","73.1828369","true"
"ChIJvTDaT9TIXzkRuRx1J93heWM","Hindustan Petroleum Corporation Limited","Plot No 79, Guru Gobindsinhji Marg, TP/12, Nizampura, Vadodara","22.340676","73.178221","true"
"ChIJhRCvLiXJXzkRK-jBf9Y4u0w","Shell","opp. Ramaka Mandir, Guru Gobindsinhji Marg, opp. Ramaka Mandir, Rd, Chhani, Vadodara","22.35472","73.16744","true"
"ChIJETpGSNTIXzkRyriMdQkAx9s","Vadodara Gas Limited CNG Station","85RH+C6J, Rukshmani Nagar, New Sama, Vadodara","22.3410904","73.17802089999999","true"
"ChIJ1f2fTrnIXzkRxK1Xrl1irjU","Vadodara Gas Limited CNG Station","Green Field Station, near Adani CNG, Plot No. 128/1/2/3 & 129, Race Course Road, Subhanpura, Vadodara","22.31534389999999","73.16485589999999","true"
"ChIJg2y8AefJXzkREvLw0BlQ9bE","PATEL FUELS Nayara Petrol Station नायरा पेट्रोल पंप","848G+XG7, Besides Shaishav, Gotri - Sevasi Road, Gotri, Vadodara","22.3173647","73.1263317","true"
"ChIJjbk1UADJXzkRqHGS5a3UNz4","Bharat petroleum, Maa Petroleum Gotri","848J+J45, opp. OSIA MALL, nr. SATYANARAYAN PARTY PLOT, Gotri - Sevasi Road, Laxmipura, Khanpur","22.3165685","73.1303346","true"
"ChIJVdGdfCbIXzkRcEt2LshHZng","Hindustan Petroleum Corporation Limited","RS No 513/2/P/1, Sevasi - Sindhrot Road, Gotri, Sherkhi","22.321501","73.0930301","true"
"ChIJr_i7F2zGXzkR7FW4KmJEuhg","Hindustan Petroleum Corporation Limited","Survey No 640, 1 & 640/2, Atladra, Vadodara","22.3123985","73.14106869999999","true"
"ChIJ79VoabjJXzkRBnxbqI0lFW0","N P Petroleum - IndianOil","Prajapati School, opp. Sona Party Plot, C.K, Laxmipura Road, Gorwa, Vadodara","22.3320893","73.1415475","true"
"ChIJTwRHHNbJXzkRKJp_pDh6lEY","IndianOil","No 313/315/2, Survey, Akota, Sherkhi","22.341949","73.087721","true"
"ChIJWaEyyvG3XzkRjCZGE_2iEU8","Varshaa Petroleum","313/Paiki/1, near Suncity Club & Resort, 315/2/B, Sherkhi","22.3419788","73.0876269","true"
"ChIJa6HEMADJXzkR6V_8XDkTnnk","PUNITA PUC","85C4+H2C, Subhanpura, Vadodara","22.3214268","73.1550025","true"
"ChIJiY2UAuvIXzkRf6IKxcrUO24","Reliance Petrol Pump","near atithigruh, 23, sanmilan Soc reliance/ioc petrol pump, near atithigruh, Subhanpura, Vadodara","22.3215367","73.1554445","true"
"ChIJsapvFiDGXzkROQZGOHY613E","Kayval Krupa Petrol Pump","B/6, Vasna Road, Janta Nagar, Vadodara","22.2961095","73.1570615",""
"ChIJo3flo9zJXzkRWiD2O5c3nN0","Bharat Petroleum, Petrol Pump -Sarthak Petroleum","Natubhai Circle, Vadodara","22.3105095","73.158823","true"
"ChIJc89C6WbJXzkRD3TNCGwKaMw","Bharat Petroleum, Petrol Pump -J.C Chokshi & Co","Genda Circle, Subhanpura, Vadodara","22.3220922","73.156545","true"
"ChIJlyNmRcvJXzkRtJhq7Q-1_Lc","IndianOil","Block No 284, RS No 123/7 Baranpura, Sherkhi","22.3497638","73.0961276","true"
"ChIJA67Xo4TJXzkR98mGiBSDgG8","Nayara Petrol Pump","10, New IPCL Road, Gorwa, Vadodara","22.3292254","73.1543293","true"
"ChIJqwBNMV_JXzkR6PYoybHPPzY","Nayara Petrol Pump - Nand Petroleum","opp. SAI PARTY PLOT, R.S.NO:611, opp. SAI PARTY PLOT, Undera- Koyali Road, Undera, Vadodara","22.3520944","73.12442519999999","true"
"ChIJjRD03TnJXzkR6y0ZCSe9-_g","SHREE GAYATRIKRUPA PETROLEUM","Jivabhai Park 2, G67, Eshanya Marg, Jalaram Nagar, Undera, Vadodara","22.3445834","73.1421326",""
"ChIJ6aCUuwPJXzkRWW1IaeaHcpI","Jio-bp","Survey No 306/P, 311, P & 312/P, Gujarat Refinery Road, Gorwa, Vadodara","22.3448196","73.1427994","true"
"ChIJ____z-fIXzkR33iTnTYy2f0","IndianOil","S No 624/625P Alembik Refi, Road, Gorwa, Vadodara","22.335613","73.153244","true"
"ChIJvVU8HBTJXzkRFDoh-OLGK9I","Baroda Puc Mubin Shaikh","Trident Shopping Complex, Ner, opp, reskors, Vadodara","22.3145435","73.1644166",""
"ChIJob4TsbDJXzkR08ntbsYwNL4","Shell petroleum","Gorwa Rd, Gujarat Refinery Road, Vadodara","22.328539","73.16139","true"
"ChIJD2tEt0HPXzkRfT9va_L-K-k","HP COMCO","Tp Scheme 9, Plt.226, Karelibaug, Vadodara","22.3207029","73.203923","true"
"ChIJdXxyh17PXzkRlnXhKSKUZ4M","IndianOil","Juni Rangshala Ni Chali, Bhutdi Zampa, Karelibagh, Vadodara","22.30938099999999","73.204926","true"
"ChIJe65_qGjPXzkRUi8HKxTNL8A","Shell","Harni Rd Plot No 5, Tp No 7, Mouje, Vadodara","22.31365","73.21092999999999","true"
"ChIJb_DRqmjPXzkRgkzqAiXlu6Q","IndianOil","Plot No 13, Tps 7, Harni Road, Tulsiwadi, Vadodara","22.31370099999999","73.211801","true"
"ChIJ94ZUltTPXzkR5mwYfsd14M0","Bharat Petroleum, Petrol Pump -Parul Transport Company","opp. sama, talav","22.3434222","73.2030435","true"
"ChIJOQRjSQLPXzkRHLXCQfJOfNQ","IndianOil","Ground Floor, opposite Saw Mills, Chokdi Road, Golden, Harni, Vadodara","22.3467503","73.2216138","true"
"ChIJsTbhcdvOXzkRjqB1DZmoS20","IndianOil","SAMA -SAVLI ROAD, ROAD, New Sama, Vadodara","22.3562307","73.1987961","true"
"ChIJTeGuy4XPXzkRmqeDjP2CLgU","BPCL CNG Pump","866Q+MC9, Sardar Estate, opp. Din dayal upadhyay town hall, Ajwa Road, Sayaji Park Society, Vadodara","22.3117692","73.2384534","true"
"ChIJVVVVVTrJXzkRBUDzZbCeU7g","Hindustan Petroleum Corporation Limited","Ground Floor, Chhani, Vadodara","22.3598208","73.1663243","true"
"ChIJ9ZbqaAjPXzkRjWXRht8-15U","IndianOil","Harni Golden Chokdi Air-road, Harni Road, Harni, Vadodara","22.34683099999999","73.221592",""
"ChIJYzjCoMXOXzkRBhtzDz21Ios","Essar Petrol Pump","333, Sama-Savli Road, Vemali, Vadodara","22.3610808","73.1957205",""
"ChIJOZvyaDnJXzkRzWqwgJx0p_Q","Chhani Petrol Pump, BPCL","Chhani, Vadodara","22.3616","73.1663739","true"
"ChIJFapUJsrOXzkR7p2z_iagPGY","IndianOil","Ground Floor, NH 8, Dumad Road, Tejgadh, Vadodara","22.3667981","73.1876994","true"
"ChIJJVZmxXfPXzkRAaz5iU04EQ4","IndianOil","Ground Floor, VIP Road, Vadodara","22.317446","73.22849300000001","true"
"ChIJ3UF8VADJXzkRXDXbp7LWa_Y","NAKUL’S PRTROLEUM","854J+VF8, Vadodara","22.3071588","73.1812187","true"
"ChIJWam-OxrPXzkRPgZIaMhTWTc","Bharat Petroleum, Petrol Pump -National Service Station","Vadodara","22.3079032","73.1896888","true"
"ChIJ48_iSVfPXzkR3GN60k2KcKU","Hindustan Petroleum Corporation Limited","Ground Floor, Phulbari Naka, opposite SSG Hospitalo, Phulbari, Anandpura, Vadodara","22.305339","73.192495","true"
"ChIJdYd4g0PJXzkRSjRN163MAXk","IndianOil","401, RC Dutt Road, Aradhana Society, Vishwas Colony, Alkapuri, Vadodara","22.3101995","73.16870329999999","true"
"ChIJW2QZ8FnPXzkR_O_-eEXv39I","hele પ્રોવિઝન સ્ટોર","854V+4W6, Kothi Salatwada Road, Kasar falia, Jambubet, Vadodara","22.3052971","73.1947696",""
"ChIJvzZH-f7HXzkRzExW_hifAkw","Shell Petrol Pump","Padra Road City Survey No.68/a, Tp Scheme No. 1","22.293838","73.17512599999999","true"
"ChIJHSK1LijPXzkRSozjZK2bTd4","Bharat Petroleum, Petrol Pump -Shree Maruti Petroleum","Bahucharaji Road, Laxmi Estate, Vadodara","22.3103576","73.1979625","true"
"ChIJyzr1aeXHXzkRxURBU-oGNEY","Nayara petrol station","NEAR RC PATEL ESTATE, Mujmahuda Road, Vadodara","22.2917584","73.1729509","true"
"ChIJL38-DDbPXzkRo7z5gnt2N7w","IndianOil","Ground Floor, Fatehgunj, Ahmedabad","22.323841","73.188553","true"
"ChIJ05M2nTjPXzkRi2-EECNExIo","IndianOil","Ground Floor, Karelibagh, Vadodara","22.323821","73.197617","true"
"ChIJkRvjNgDJXzkRG6AaFD6qtIY","Puc center","85JH+4MP, Nizampura, Vadodara","22.3303291","73.17921249999999",""
"ChIJpQfKeI_PXzkRfJB92S-ksTg","Hindustan Petroleum Corporation Limited","SR No 238, Huma Duplex, Ajwa Road, Bapod, Vadodara","22.3137401","73.2415401","true"
"ChIJ6QV2fkXPXzkR-WinJ5yFQhg","Nayara Petrol Pump - Manuraj Petroleum","Opp Sayajipura Village, Ajwa-Nimeta, Road, Vadodara","22.3272463","73.26108049999999","true"
"ChIJxx09QVLPXzkRJhlfPxf3vcI","Shell Petrol Pump","868H+WG4, near Khodiyar Nagar, beside Indian Oil Petrol Pump, Kishanwadi, Vadodara","22.3172656","73.2288315","true"
"ChIJmx8_ROjPXzkRmVdQGmtOeTo","Hindustan Petroleum Corporation Limited","Sai Shraddha Duplex, Survey, Sayaji Park Society, Vadodara","22.3282766","73.2626959","true"
"ChIJAYec8ujPXzkRHBli0fZerqQ","Vadodara Gas Limited CNG Station","Sai Shraddha Duplex, 42, Sayaji Park Society, Vadodara","22.3282633","73.26290039999999",""
"ChIJKUEJoXDPXzkR7TTpRMndyOM","Nayara Petrol Pump, shree sai shakti petroleum","opp. Essar Petrol Pump, L-3, Kamlaba Appartment, opp. Essar Petrol Pump, Harni - Warasiya Ring Road, Vadodara","22.3144249","73.2219712","true"
"ChIJ8Y8GpjDPXzkRZP_vQETU-sc","Nayra Petrol Pump - A D Birade Petroleum","Nayra Petrol Pump, Thekarnath Mahadev, Navnath Mandir Road, Kidwai Nagar, Yakutpura, Vadodara","22.3056831","73.219242","true"
"ChIJqd9_98fFXzkR7Kj7XAie_Lc","IndianOil","Ground Floor, Panigate, Vadodara","22.2995784","73.2195939","true"
"ChIJATTFTNHPXzkRSpGs6ASg_mU","Jio-bp","Khata No 299, Plot No 195 & 196 Block No 385, 2 & 386, Tp No 45, Sayaji Park Society, Vadodara","22.323716","73.221769","true"
"ChIJ2_9yU2_PXzkRi3LVm71zn5Y","Ankit Automobiles CNG","GF-32, Chandragupt Complex, Opp Rupam Cinema, Harni Rd, Karelibaug, Vadodara","22.3141869","73.21184269999999","true"
"ChIJGbvKiWzPXzkRZs6jKCjLM7U","Bhatia Service Station","Harni Road, Vadodara","22.3128273","73.2114088","true"
"ChIJh1PKLEvPXzkRp1qNuPhIKv8","Nayara","86WR+7CG, behind RTO, near Comfort Inn Hotel, Harni, Vadodara","22.3446875","73.2414024","true"
"ChIJ_XsqZQDPXzkRINd8nC3tct8","Shital Petroleum","Kamlesh Patel compound, opp. Darjipura Air Force station, behind RTO, near Comfort Inn Hotel, Harni, Vadodara","22.3456319","73.2411336",""
"ChIJ640d-4zFXzkRW7nOuXmxCnU","Hindustan Petroleum Corporation Limited","Ground Floor, Goya Gate, behind Vegetable Market, Baranpura, Vadodara","22.2930901","73.20870099999999","true"
"ChIJaTgdfQDFXzkRIU5GNOghcc0","Tarsali","8624+2H9, Vadodara","22.3000395","73.2064994",""
"ChIJN5Ofg2jFXzkRnlFQXy4TUi8","IndianOil","Ground Floor, opposite Krishna Talkies, Guru Nanak Marg, Vadodara","22.293801","73.203301","true"
"ChIJMQbxuh3PXzkRHQdKUQK57MA","Nayara Petrol Pump -Vaishakhi Petroleum","Nr.Gada circle, Harni Road, Vadodara","22.3423931","73.2184556","true"
"ChIJm6OB0tbLXzkRuPdEaRmfPwo","Bharat Petroleum, Petrol Pump -Jay Petroleum Products","near RANOLI GIDC, Dashrath, Vadodara","22.3926972","73.1431151","true"
"ChIJnVP8pTTKXzkRonB4daoL9vk","Hindustan Petroleum Corporation Limited","Survey No 1401, near L & T, National Highway 48, Ranoli GIDC, Ranoli, Vadodara","22.4038701","73.1341901","true"
"ChIJ5fDkC2jJXzkRuPqPk4zz5i8","Nayara Petrol Pump","95G4+PWH, Dashrath, Vadodara","22.3768247","73.1573641","true"
"ChIJNfYsbn3JXzkRgc3aU9znU04","Vadodara Gas Limited CNG Station","Sursi, Vadodara","22.3863959","73.144635","true"
"ChIJl7G7d5XJXzkRLcIIXZpk9Cs","Bharat Petroleum, Petrol Pump -Nirmal Shanti Petroleum","opp. GUJARAT REFIN, Koyali, Vadodara","22.36174859999999","73.1142115","true"
"ChIJhzTCjFLJXzkRU2i25IQfqqE","Bharat petroleum koyli","94JH+2P, Vadodara","22.380102","73.129301","true"
"ChIJMVnoPyPKXzkR5U6_lbpoWHQ","Reliance Petroleum","Ground Floor, opposite Gacl, Gidc Industrial Area, Ranoli, Dhanora","22.3943219","73.1156841","true"
"ChIJxblPSC7KXzkR6AJStN6tAIc","Minal Service Station","94WG+4MW, Ranoli, Vadodara","22.39535","73.1267",""
"ChIJgRWK_izKXzkRTh70Qc2GPbw","IndianOil","Survey No 50, Padmala, Ranoli, Vadodara","22.3935074","73.1320923","true"
"ChIJBQSrkT_JXzkRfIxOcdvxNRc","IndianOil","Ground Floor, Refinery Teen Rasta, Gujarat Refinery Township, Bajwa, Chansad","22.365425","73.135729","true"
"ChIJOSErpkfLXzkRPqSCHpcb0m4","Jay Bhavani petrol pump","94VJ+QWP, IPCL Road, Ranoli, Vadodara","22.3944554","73.1323136",""
"ChIJ6RQ1GNPLXzkRl7pefhUlkxQ","Om Shree Ganesh Petroleum","IPCL Road, Ranoli, Vadodara","22.39431739999999","73.1366027","true"
"ChIJ4ZQZIWPLXzkR4szUjNETt4Y","Ranoli rly stn","C447+H4V, Ranoli, Vadodara","22.4064864","73.1128043",""
"ChIJrd9EdtLLXzkRUSSuEwwBsCI","IndianOil","Industrial Estate, No 101, NH 8, Padamla, Ranoli, Vadodara","22.39815","73.139156","true"
"ChIJk13uzILLXzkRG7QGzY50MAY","IndianOil","Ground Floor NH 8, Padmala, Ranoli, Vadodara","22.400083","73.138063","true"
"ChIJS6KB6XTKXzkRPBf-Whiws20","Hindustan Petroleum Corporation Limited","Plot No 48/1 & 49, GIDC Road, Nandesari, Vadodara","22.4063501","73.0917901","true"
"ChIJzwi1vzTKXzkR7i5i84zFRKU","Essar Petrol Pump","C43M+VCP, Ranoli GIDC, Ranoli, Vadodara","22.4047057","73.1335857",""
"ChIJeVH42N7JXzkRiGeTFZ9Kl28","Hindustan Petroleum Corporation Limited","RS No 566/1 NH 48, Dashrath, Vadodara","22.386018","73.147762","true"
"ChIJ4-p8l7nJXzkRnUC_NF_KgtE","Jio BP - DRC PETROLEUM","CS:749, Block No: 484 Opp G.S.F.C nagar gate, NH-8,P.O. Fertilizer, Dashrath, Vadodara","22.38126879999999","73.1532023","true"
"ChIJZ6WVAADPXzkRsjByYFIy0g8","Adani cng","9653+WMM, near HP Petrol Pump, Vemali, Vadodara","22.3796934","73.1552208",""
"ChIJJ8rIVWbJXzkRj9cPASzrvVw","Adani Gas CNG Station","Survey No-477/P & 487/P Opp.GSFC Nagar, Village, Dashrath, Vadodara","22.379617","73.15523200000001","true"
"ChIJnY-dcAjJXzkR2U8IHXJQ61k","मुनसिग","95G5+789, Dashrath, Vadodara","22.3756568","73.1583576",""
"ChIJLb02NLnJXzkRsg2AgVTcYc0","Hindustan Petroleum Corporation Limited","Survey No 232 Gorwa, to, Karodiya Road, Karodiya, Vadodara","22.347614","73.15005099999999","true"
"ChIJd05QAz_JXzkR4JKraxlKKA4","Maruti Petroleum","Chhani Rd, Chhani, Vadodara","22.3627196","73.16570999999999","true"
"ChIJs9YRhEDLXzkR6a527FIS5Oc","BPCL PETROL PUMP ( HRM GAS STATION)","NH 48, Sankarda","22.4301339","73.1078133","true"
"ChIJo_3llorKXzkRt_MbG6yVKoM","NAYARA Petroleum Pump - Kissan Petroleum","C4J5+7VC, Service Road, Rayaka","22.4306865","73.1096274","true"
"ChIJVdeKbwDLXzkRZop-bjuQX7c","Kissan Petroleum","Sankarda","22.4310628","73.1093933","true"
"ChIJoU3eJQDLXzkRtIzO7BcGrgY","BPCL PUMP (HRM GAS STATION)","C4HF+XV6, Sankarda","22.429904","73.1246338",""
"ChIJsUCw-LvJXzkRHFhz2DgpHKY","Nayara Petrol Pump","Survey No. 510/Paiki 1, Village-Chhani, Taluka, North, Vadodara","22.3582802","73.1669213",""
"ChIJF0iQUbfLXzkRwtng6my1IIU","GSPL Sokhada Terminal","C4GQ+FGM","22.4262151","73.13879159999999",""
"ChIJe4UGYobKXzkRNFAj9mH8u6I","IndianOil","Ground Floor, NH 8, D Cabin, Fajalpur","22.433188","73.09669900000002","true"
"ChIJ_y7cb-jLXzkR8_MB8DLUxxs","Pramukhraj petroleum","C4MC+CWH, Sankarda - Bhadarva Road, Sankarda","22.4344264","73.1235262","true"
"ChIJKciA7pTJXzkRt6co_O1A1Ms","Shree Ambe Bharat petrol","95CF+JVQ, National Highway 8 Dumad Service Road, Vadodara","22.3715817","73.17473269999999",""
"ChIJW2LOpj3LXzkRkwJNvbtdG0E","JAY SHREE AMBE PETROLEUM (INDIAN OIL)","opp. Chowk talav, Sankarda","22.43941","73.128006","true"
"ChIJ6QU7vFq3XzkRRDhpUeCz_10","Hindustan Petroleum Corporation Limited","Survey No 609, SH 11, Anklav, Umeta, Anand","22.341001","73.047547","true"
"ChIJNcSEs6_OXzkR9Z7mmdYp7Qs","IndianOil","No 617, P State Highway, Dumad","22.382526","73.191092","true"
"ChIJKWrA05fPXzkRuKzvAp8fQsg","MAA VAGHESHVARI PETROLEUM","Sama-Savli Road, Dumad","22.3776456","73.1913866","true"
"ChIJ9e0yAQDPXzkRdn0LF9ZL7-g","Maa Vagheshvari Petroleum","391740, Sama-Savli Road, Manjusar","22.3776754","73.1916153",""
"ChIJ9b-b4UzJXzkRyZRFZcak-EQ","Hindustan Petroleum Corporation Limited","Sy No 1000/3, Block No 731, Savli - Vadodara Road, Dumad","22.3795982","73.1914469","true"
"ChIJAUA_rErJXzkR_z-pwSOIg9Y","Yogeshwar Petroleum","NH 48 VADODARA BYPASS, Dumad Road, Dumad","22.3669576","73.18762559999999","true"
"ChIJOYAKFADPXzkRDsjey6ray5Y","IOCL SHREE BALAJI PETROLEUM","95QV+C7, Sisva","22.3882014","73.192767","true"
"ChIJiZQft8LOXzkRYd36cL6nsR0","Hindustan Petroleum Corporation Limited","Ground Floor, NH 48, Vemali, Vadodara","22.359602","73.20455799999999","true"
"ChIJuUbP2KzIXzkRJMYZeIVqj9E","IndianOil","Ground Floor, Halol Crossing, D Cabin, Vemali, Ahmedabad","22.3594496","73.2097129","true"
"ChIJWy1pJ-bOXzkR405d9osQSRY","IndianOil","Ground Floor, Halol Crossing, D Cabin, Vemali, Ahmedabad","22.3594332","73.20971469999999","true"
"ChIJkR8JO53PXzkRWibb7ytu2WU","Shell Petrol Pump","Sama-Savli Road, Vadodara","22.348249","73.20107999999999","true"
"ChIJacVIMADPXzkRJA8rM6cKycc","IndianOil","near Avsar, FP No 65, Sama-Savli Road, New Sama, Vadodara","22.3455595","73.2018544","true"
"ChIJu4TJf2LPXzkRN4UDa73r5DM","Coco sama IOCL","Nutan Vidhyalaya, B1002, Raghuvir Nagar, Kasturba Nagar, New Sama, Vadodara","22.3451521","73.2017269","true"
"ChIJW54YvtHPXzkRM2_bHhbefA4","HP pump","behind BP Pump, A4,102, Aadhar Bldg.,Aashka Resi.Complex, Sama Savli Road, Opp Sama Lake,, behind BP Pump, Vadodara","22.3429962","73.2035243",""
"ChIJkQ-CNG3MXzkRR86SDIj7-uo","Hindustan Petroleum Corporation Limited","Ground Floor, Sama-Savli Road, Asoj","22.416035","73.195852","true"
"ChIJ88JQeQDPXzkR3RK8lsecSqw","Hindustan Petroleum Corporation Limited","Survey No 175/Paiki, Motnath Mahadev Mandir Road, Harni, Vadodara","22.351859","73.217332","true"
"ChIJszH_dPzOXzkR4riFp-xEsD4","IndianOil","near Dena, Ground Floor, Golden Crossing Dena, NH 8 Vadodara Bypass, Karelibaug, near Dena, Crossing, Vadodara","22.354803","73.221801","true"
"ChIJFccPGOLPXzkRsVsMOnO_EBE","Online Vadodara Gas","Rajeshwar Residency 2, Harni Road, Harni, Vadodara","22.3433734","73.213352","true"
"ChIJMStv8P3RXzkRNsEaGq-STis","IndianOil","Ground Floor Bhaniyara, Waghodia, Dena","22.39475999999999","73.277081","true"
"ChIJVwsJ-QLOXzkRiAehR2Yl6oo","Gujarat Gas CNG Station","97RF+VM2, Ganeshpura","22.3921357","73.27413039999999","true"
"ChIJV43HL3XPXzkR7VKVsQ6aubc","NEELKANTH PETROLEUM ONLINE CNG STATION","Amaliyara","22.3631289","73.2479226","true"
"ChIJ1WOBTwDPXzkRbzL9yAxZ3lg","Vadodara Gas Limited CNG Station","967W+4X4, Gujarat State Highway 87, Vadodara","22.3629954","73.2480054","true"
"ChIJGbU9gpjPXzkRurNS8Muz3Zo","Hindustan Petroleum Corporation Limited","Survey No 382, Halol Road, SH 87, Golden Chokdi, Waghodiya, Kumetha","22.372711","73.269363","true"
"ChIJkXMfY-bPXzkRaoVfsaAHZ8w","Indian Oil Petrol Pump (Shivansh Petroleum)","Vadodara-Halol Highway, near Waywait Hotel, Gujarat State Highway 87, Waghodia","22.3529633","73.2373638","true"
"ChIJPeU_agDPXzkR7-HtcpXoWow","Bharat Petroleum","962H+48, Harni, Vadodara","22.3503967","73.22850679999999","true"
"ChIJeUR9M-LPXzkR-EpJrbjtR2Y","SHREE GAJANAND PETROLEUM","The Status Road, Harni, Vadodara","22.3430896","73.2149254",""
"ChIJ4bk0pODNXzkR1za5pZaczqU","Hindustan Petroleum Corporate Limited","C6GC+W4Q, Savli GIDC Road, Manjusar","22.427334","73.22035699999999","true"
"ChIJGbTz1iTSXzkRgj7CFXw5Yg4","IndianOil","RS No 769/B, Champaner Road, P/1, Waghodia, Kotambi","22.4156347","73.3088696","true"
"ChIJGddg1iTSXzkRBjgDeYcXD40","Gopidarshan petroleum","C885+7H, Halol - Vadodara Road, Kotambi","22.4156877","73.3088532","true"