place_id,name,address,latitude,longitude,open_now
"ChIJXcOgmfGfVDoReXnjGAucbFI","IndianOil","Ground Floor, Karikalampakkam, Nettapakkam","11.8687799","79.7489203","true"
"ChIJab6aUWugVDoRWNCuwE8jgU8","IndianOil","RS No 213, 14, Madukarai - Thavalakuppam Main Road, Bahour, Embalam","11.8660058","79.7173679","true"
"ChIJK2djwhFgUzoRSCPrMZA9eRc","BPCL Petrol Pump","Bahour Road, Villianur","11.9003282","79.75240869999999",""
"ChIJKzgdXidgUzoRyr4cHX-mBnw","IndianOil","Tin No 34810014907, Keezha Agraharam Abhishekapakkam Main Road, Arumbarthapuram, Puducherry","11.885674","79.76946099999999","true"
"ChIJ7e86t2OgVDoR7G2zr32WPRg","IndianOil","Ground Floor, Madukkarai Main Road, Manakuppam","11.86752","79.698494","true"
"ChIJww3HT0meVDoR50C3pdO75t0","HP PETROL PUMP -MS HSD ARUN AGENCY","No 309 PONDY, Cuddalore Main Road, Thavalakuppam","11.8586752","79.79137","true"
"ChIJAYT8fh6fVDoR97kWhlcXKfA","ANANDA AGENCIES Adhoc Bharat Petroleum","National Highway 32, Pudicherry","11.8237569","79.7822489",""
"ChIJLT8W-TpeUzoRyVj0NA-Bboo","IndianOil","Lock No 05398, Villupuram Road, Pathukannu","11.9423502","79.7262264","true"
"ChIJibW3JgCfVDoRVzGWHVvSh7M","Bharat Petroleum - PONDY COOP CON.FED,LTD(CONFEDII)","VP8R+545, Chellancheri","11.86531","79.74036799999999",""
"ChIJw4GWDe2fVDoR5Rn8Bt375so","Hindustan Petroleum Corporation Limited","RS No 52, 15, Madukkarai Main Road, Karikalampakkam","11.8644695","79.7528171","true"
"ChIJO9LIMQBfUzoRiuq9tWE8qHo","Arimaa Agency IOCL Petrol pump","VPRM+9X4, Embalam - Mangalam Road, Mangalam","11.8908847","79.7349457",""
"ChIJfeuzmBSgVDoRQRipy117vaM","Hindustan Petroleum Corporation Limited","RS No 214/1 Madukarai Thavalakuppam, Main Road, Embalam","11.866309","79.719075","true"
"ChIJs2Pv8uZfUzoRMszTNwdszJY","Jayalakshmi Lubricants, IOC Servo Stockists","Pondu 605102, 12, Villianur Main Road, Puducherry","11.9024538","79.7321451",""
"ChIJD6DvVgCfVDoRT2i2qXbmg60","Indian oil petrol hunk","RQXC+G8W, Thimmanayakan Palayam","11.8488623","79.7708275",""
"ChIJjzkQTvBhUzoRtUcIglWUyfY","IndianOil","Ground Floor, Villianur","11.9097001","79.74839539999999","true"
"ChIJ55_I4JafVDoR6_RVCGby8yc","Essar petrol bunk","99/3, village, Aranganoor","11.8320571","79.7500096","true"
"ChIJOYcxFW5gUzoRUvtlqKHTHG8","Hindustan Petroleum Corporation Limited","Villupuram Rd, 66/9 B Pondy, Villianur Bypass Road, Puducherry","11.9142574","79.7526388","true"
"ChIJuVOWNgBfUzoRxuOvHtxvBXw","HP Petroleum bunk","WP35+R2C, Pangur","11.9048326","79.7071667",""
"ChIJK2no6vtfUzoRe38EKICBp9o","Hindustan Petroleum Corporation Limited","Ground Floor, Villianur, Ariyur","11.904766","79.707021","true"
"ChIJ-WgDYwBfUzoRZa6jlwqjh9s","IOCL COCO Ariyur","No 8, Main Road opposite to Mahindra Showroom, Thamarai Nagar Ariyur, Puducherry","11.9052643","79.70653",""
"ChIJF4_GlpefVDoRNm8WH7Zk3P0","ANBAGADEVAN AGENCY","97, Bahour Road, Puducherry","11.8263032","79.7548832",""
"ChIJKQYeccNhUzoRQpbhDSexN9I","Bharat Petroleum, Petrol Pump -Sonas Agency","ODIYAMPET,PONDY, Puducherry","11.9093049","79.7690684","true"
"ChIJA2xbkkmeVDoR6NGPJe7W8hY","BPCL - Sri Rajarajeswari Agency","VQ6R+R9V, East Coast Road, Abhishekapakkam","11.8621155","79.7909335","true"
"ChIJp_2DyYSfVDoRErRTf6uVxvU","Hindustan Petroleum Corporation Limited","Ground Floor, Pondy, Cuddalore Road, Thavalakuppam","11.8586294","79.7912298","true"
"ChIJ0fwDO9ifVDoRrTJbFDqv2bE","BPCL - Gayatri Agency","East Coast Road, 227, Cuddalore Road, Thavalakuppam","11.8612519","79.792226","true"
"ChIJdViXCLphUzoR0WqLku8aZqU","IndianOil","145/5, Villianur Main Road, Puducherry","11.9202043","79.76373029999999","true"
"ChIJtdih4VNgUzoRibu_Euf3Uuc","IndianOil","Ground Floor, Sulthanpet, Puducherry","11.9202168","79.76375689999999","true"
"ChIJ1Ta2i8phUzoR_PNLuCZT1tk","Petrol Pump","Villianur Road, Kombakkam","11.9073905","79.78742749999999","true"
"ChIJFWGs5-6fVDoRGKLBhVgbF-s","IndianOil","Lock No 1153/122, Cst No 34200007725, near Boat House, East Coast Road, Abhishekapakkam","11.8856261","79.80055039999999","true"
"ChIJabjKw4ShVDoRXuxBkHniS5A","Essar Petrol Bunk","VMJF+HXM, Kizhur","11.8813901","79.6751646",""
"ChIJE7TSDQBhUzoRYOq4mvquufM","Indian oil","55, Cuddalore Road, Ariyankuppam","11.8899249","79.8013971","true"
"ChIJ_RecFqNhUzoRKKVeDPPq7bw","Adhoc sivaprakasam agencies","Villianur Main Road, Arumparthapuram, Puducherry","11.9240452","79.7794146","true"
"ChIJaZMVobhhUzoRI5AWWgm9YaU","IndianOil","RS No 32/5, Utchimedu Pondy Cudd Road, Kannikoil, Puducherry","11.926725","79.7820291","true"
"ChIJLYYOo0mfVDoR4ozlMNCj76w","Hindustan Petroleum Corporation Limited","RS No 170/5, Road, Kanniyakoil","11.8035465","79.7546641","true"
"ChIJd_-z1bJhUzoRegkiMmmKHTU","IndianOil","Ground Floor Pitchaveeranpet, Marie Oulgaret, Ozhugarai","11.931131","79.776335","true"
"ChIJl96D8t6fVDoRongaGtHlYvM","Bharat Petroleum, Petrol Pump -Krishnaa Agency","VILLAGE, Pillayarkuppam","11.8138477","79.78061939999999","true"
"ChIJjXt3BcSfVDoRM-2LqSYJ0Yw","IndianOil","No 105/3A, Pillayarkuppam","11.814036","79.78089299999999","true"
"ChIJJfr4JJRhUzoReJug86TE3cc","IndianOil","No 1, Cst 34460015148, Marapalam Jn, East Coast Road, Mudaliarpet, Puducherry","11.9151811","79.81091420000001","true"
"ChIJgflkKXKuBhERDJgMfJrVFAs","Bharat Petroleum","WR97+22F, Opp. To Bharathi Mill, Cuddalore Road, Mudaliarpet, Puducherry","11.917575","79.812534","true"
"ChIJ7yMiBplhUzoRzov-yVqkC2c","IndianOil","Lock1040/121 Bhuvankaro St, Commune, Pondicherry - Cuddalore Road, Mudaliarpet, Puducherry","11.923813","79.810867","true"
"ChIJw_6-FiliUzoRBYkl6cKOkkI","Hindustan Petroleum Corporation Limited","41 Ward E, Block, TS No, RS No 431/PT, 1, Beach Road, Puducherry","11.9254499","79.833975","true"
"ChIJWStuhYFhUzoRLkcbaLxtDtY","Hindustan Petroleum Corporation Limited","254, Bussy Street, MG Road Area, Puducherry","11.9301925","79.8247256","true"
"ChIJXT0-jnlhUzoRRej9IrvM_Mk","Hindustan Petroleum Corporation Limited","107, Kamaraj Salai, Puducherry","11.9372199","79.821271","true"
"ChIJizRFOHJhUzoRz1xMDdNT87w","IndianOil","Kamaraj Salai, Ilango Nagar, Puducherry","11.9413058","79.8114317","true"
"ChIJB7xg6w9hUzoRozBtyPKLI_s","Bharat Petroleum","Near Hospital, Kathirkamam, Puducherry","11.9415725","79.7971025","true"
"ChIJPTWBO_euBhER_TBxdo9TiSI","IndianOil","Lock No 1182/122, Rs.No: 192, 1st Main Road, Mettupalayam, Vazhudavur","11.9393712","79.78773149999999","true"
"ChIJTQmB63phUzoRO6tLJKyqrIg","Bharat Petrol Pump","30, 8th Cross Street, Brindavanam, Puducherry","11.9419129","79.8201083","true"
"ChIJR6tiWQBhUzoRSPSTJ7MUOdE","Indian Oil Petrol Pump","VRWG+WF9, Veerampattinam","11.8975193","79.8267963","true"
"ChIJFzSbv5NhUzoRClYGNOPpEvQ","Paradise stores","WR77+FQV, Aadiprasakthi Nagar, Vasantha Nagar, Nainar Mandapam, Thengaithittu, Puducherry","11.9137345","79.8144125",""
"ChIJEWjXONphUzoRr9fPHXYi9fQ","Soussilla Agencies HP Petrol","WRC9+G23, Vanarapet, Puducherry","11.9212705","79.8175564",""
"ChIJQatpTydhUzoR3UlQA6zRf0A","Hindustan Petroleum Corporation Limited","RS No 329/1, Uppalam Road, Mudaliarpet, Puducherry","11.9213117","79.8175644","true"
"ChIJM2EC3UJhUzoRfjgoIwV0DNQ","Soussila Agency","WRF9+6MV, Doctor Ambedkar Road, Uppalam, Avvai Nagar, Puducherry","11.9231012","79.8191684","true"
"ChIJbySuNhSfVDoR2St0S9OzhmI","Bharat Petroleum, Petrol Pump -Confed 1 (Adhoc)","PONDY (KIRUMAMBAKKAM), Puducherry","11.8193937","79.7941015","true"
"ChIJ83HfqkNhUzoRjH22iGhUhD4","IndianOil","RS No 11/2, Cst No 34530025828, Villianur Main Road, Nellithope, Anna Nagar, Puducherry","11.932086","79.806955","true"
"ChIJDx2lAwFjUzoRpMtra8IXhIo","Bharat Petroleum, Petrol Pump -Sri Meenakshi Agencies","Bussy Street, MG Road Area, Puducherry","11.9305048","79.82404869999999","true"
"ChIJMelr5nBhUzoRf2kd5AEzEDM","IndianOil","CST No 34780025836, PB No 4, MM, Maraimalai Adigal Salai, Puducherry","11.9310896","79.8217069","true"
"ChIJa6XE7WJnUjoRPJvHYaJmJaE","IndianOil","Loc No I, 1177/122, Bypass Road, Anna Nagar, Puducherry","11.933966","79.807709","true"
"ChIJjWRLaHFhUzoRlqolvOhsnIs","Petrol Bunk","Dtheavanam Patenam Cuddalore, 33 D, Perumal Koil Street, Puducherry","11.9343591","79.8068132",""
"ChIJXQ_jCHhhUzoRO3S6x9j66uo","Hindustan Petroleum Corporation Limited","Rs.No:, near Gundu Salai, 161/1/A/1B & 161/2/A/1B/9, Pasumpon Nagar, Mothilal Nagar, Marie Oulgaret, Puducherry","11.9324934","79.7861717","true"
"ChIJv6LWul9hUzoRJZDWFxmMt5E","Bharat Petroleum, Petrol Pump -Sri Poiyamozhi Vinayagar Agency","OULGARET, PUDUCHERRY, Puducherry","11.9307431","79.7815342","true"
"ChIJcQdhJtVjUzoRrqxEJMMAtWs","Ashram Petrol Pump","60, H.M.Kassim Salai, MG Road Area, Puducherry","11.9336","79.8322","true"
"ChIJe8AZliZjUzoRnQJgE6pkhYI","SIVAGAMI FUEL STATION","No 170/6, East Coast Road, Kalapet","11.9357756","79.8336621",""
"ChIJ47bTSwBhUzoRjKv-HmiKnlw","IndianOil Petrol Pump- Appasamy Energy Point","WRR3+M8X, Kavundanpalayam, Puducherry","11.9417256","79.8033588",""
"ChIJgfGUBPxhUzoRiOguOTuy6E0","IndianOil","No C894084, Cst 34530002645/21 No 1178, 122, Thattanchavady, Puducherry","11.942347","79.80635","true"
"ChIJT88qMg5hUzoRdA7FvfQPSRs","Hindustan Petroleum Corporation Limited","Ground Floor, Vazhudavoor Road, Koundanpalayam, Marie Oulgaret, Puducherry","11.9419207","79.7991983","true"
"ChIJGakjrh9hUzoRhID2PAMwbh0","IndianOil","Pt & 94/2, Cst No 34790001920, Lk 1120/122, RS No 94/1B, Mettupalayam, Puducherry","11.951246","79.787224","true"
"ChIJ_YjSnfBgUzoRaaU67Vs4LFo","IndianOil","Lock No 1186, 1/4, Tin 34060017599, 3 & 1/4, Gopalan Kadai Road, Mettupalayam, Puducherry","11.9380295","79.7732942","true"
"ChIJy0ukR3peUzoR_USC6ATvE8s","Bharat Petroleum","XP83+9M9, Koonimudaku Main Rd, Koonimudaku, Puducherry","11.9659002","79.70423749999999",""
"ChIJgQWfTvBdUzoRRS6CVjLPbxs","Hindustan Petroleum Corporation Limited","Survey No 45/4, Tin 34890017676, near HP Gas Filling Station, Pathukannu Road, Sedarapet","11.9876035","79.7316744","true"
"ChIJ16WaBWxnUzoRtn9fzSfmNhg","IndianOil","Lock No 05479, No 50/3A 50/3D, Sedarapet","12.001133","79.759636","true"
"ChIJS-yvDspdUzoR-S3sl2oTUaA","Hindustan Petroleum Corporation Limited","Ground Floor, Vazhudavur Road, Katterikuppam","11.9949589","79.69972349999999","true"
"ChIJ9yFzQWxhUzoR3pFP9yHSmVE","Bharat Petroleum NS Agencies","R.S No. 144, 100 Feet Road, Pakkamudayanpet, Puducherry","11.946826","79.81117900000001","true"
"ChIJQ_GMGRdeUzoREfXYob6GCZk","Hindustan Petroleum Corporation Limited","No 49/12, 49/13, Main Road, Sedarapet","11.9553096","79.72657009999999","true"
"ChIJN5KXZtdhUzoRO0aZjSFO-m4","Hindustan Petroleum Corporation Limited","Survey No 21/1, Main Road, Kurumbapet, Vazhudavur","11.9403732","79.7608614","true"
"ChIJO65kcAleUzoRg6_kVmUCz1E","Hindustan Petroleum Corporation Limited","RS No 10/2, Sethapet Road, Thuthipet","11.9704734","79.7239085","true"
"ChIJ23zivmBeUzoRKpIL42NEGp4","IndianOil","L No 05471, RS No 41/3, TV Malai Main Road, Sellipet","11.9516249","79.69947549999999","true"
"ChIJwYsiC0ddUzoRj5PTZqSFbq0","Bharat Petroleum Petrol Pump , P.R.AGENCIES","R.S.NO.47/9SEDARAPET, East Coast Road","11.9796385","79.723728","true"
"ChIJu758v3FfUzoR_2h61ES-fDs","SVS Agencies - BHARAT PETROL PUMP IN SELLIPET","No. 29/11, Thiurvannamalai Main Road Backside to BSNL TOWERS, Sellipet","11.9528407","79.6973343","true"
"ChIJnUURKGFdUzoRGFVyJ3K38Dc","IndianOil","No L/04754, Rs No 65, 1 & 2, Main Road, Karasur","11.986001","79.736115","true"
"ChIJK7YfTgBhUzoR4cS49gVzYNQ","Kasiyammal agency","11, Poothurai Road, JIMPER, Puducherry","11.9540215","79.78767789999999",""
"ChIJOSX0jVxhUzoRHQ0lLdpYNm8","IndianOil","Ground Floor, Thattanchavady, Marie Oulgaret, Puducherry","11.9536924","79.7878217","true"
"ChIJ1y8vmRFhUzoRu57e02NjmCw","IOCL Kohinoor Petrol Pump","National Highway 32, Dhanvantari Nagar, Puducherry","11.9451685","79.80059949999999","true"
"ChIJLx44SCNfUzoRzXQoDUjr-_M","Hindustan Petroleum Corporation Limited","near vinayagampattu, No 5, Pondy Main Road, Vinayagampattu","11.9566885","79.675173","true"
"ChIJk7VunTlnUzoRlB7L9Q_Nt6o","Hp, Petrol Pump -Yogash Service Station","2Q25+XVJ, PONDY (MAILAM ROAD, Pattanur","12.0024744","79.7596508","true"
"ChIJ9ZXWgmtnUzoRKC4xNPMyfck","Hindustan Petroleum Corporation Limited","RS No 28, 3PT & 4PT, Pipdic Industrial Estate, near Mailam Main Road, Sedarapet","12.0025898","79.7594529","true"
"ChIJt_9VDQBnUzoRiDJOH8DIJ8g","Indian Oil Santhosh Agencies","2Q24+WRV, Mailam Main Road, Sedarapet","12.003342","79.75725330000002","true"
"ChIJ5UKA_E5nUzoRUB2zQEpxC2w","Bharat Petroleum","2P4X+M98, State Highway 136, Sedarapet","12.0066645","79.74846670000001",""
"ChIJV0xDeQBhUzoRKZEAsVdKFwg","Bharat Petroleum Bunk (Government)","Industrial Estate, Thattanchavady, Puducherry","11.9456933","79.8076064",""
"ChIJF5Lg6rthUzoRCmacTgGM7kk","PETROL BUNK (GOVERNMENT) THE PONDICHERRY CENTRAL COOPERATIVE M","R.S.NO 242/1A, Thattanchavady, OULGARET TALUK","11.945713","79.8076104","true"
"ChIJBQsZjDZhUzoRJNTFC4rq-X8","Bharath petrol pump - Badmavathy agencies","18, ECR Double road, Pakkamudayanpet, Lawspet, Puducherry","11.9458767","79.8102534","true"
"ChIJU3bSft9jUzoR-sFCUvbsfic","Hindustan Petroleum Corporation Limited","135/7, East Coast Road, Lawspet, Puducherry","11.9541264","79.8207383","true"
"ChIJfdiP0GdhUzoR0aqtxKMe6XA","Bharat Petroleum","Papsco Oil, ECR, State Highway 49, Near, Near, Krishna Nagar, Puducherry","11.9524931","79.8190901","true"
"ChIJLwFb0WRhUzoRXmMS4VJplm8","IndianOil","Cst No 34090002402, Lock No 1167, 122, East Coast Road, Lawspet, Puducherry","11.949826","79.814323","true"
"ChIJAUXPSQFhUzoRVa4LWKH36qk","Bharat Petroleum, Petrol Pump -Ranjith Agencies","PONDY (LAWSPET,PONDY BYPAS, Puducherry","11.9527745","79.8161204","true"
"ChIJGdUgOQBjUzoRT_fc34HBgYE","Mani hous","1, Kathirvel street, Chinnapuram, Puducherry","11.9431764","79.8306137",""
"ChIJb-r1OQBjUzoRAXbrj6vdx90","J A Agencies","511, Mahatma Gandhi Road, Muthialpet, Puducherry","11.9434077","79.8307683","true"
"ChIJF7cnRS9jUzoR4p9eieVW7I0","IndianOil","Ground Floor, Mahatma Gandhi Road, Muthialpet, Puducherry","11.94422","79.830899","true"
"ChIJH85KoThjUzoReIXwx1meqCM","Shell Petrol Pump","Velayutham, Velayudham Pillai Street, Puducherry","11.94669","79.83140999999999","true"
"ChIJAY5thBthUzoRSbBlRV16-es","IndianOil","Lk 1174/121 Saram, Lawspet, Karuvadikuppam, Puducherry","11.952801","79.829301","true"
"ChIJJ1-Cet9jUzoRqeI-GVdxdFI","Hindustan Petroleum Corporation Limited","No 106 & 108, Karuvadikuppam Main Road, Muthialpet, Puducherry","11.951939","79.83035339999999","true"
"ChIJ28ZzKtplUzoRRiBEy5CtO1U","SB TRAVELS AND TRANSPORT SERVICE","Auroville Health Center, opp. aspirations Road. 605101, Main Entrance, Kuilapalayam","11.9873892","79.834099","true"
"ChIJiYGvTwBdUzoRB7GDUXOdBG8","IndianOil","Cst No 34980002252 L No 5533, Pudukuppam Rd, Kattery, Suthukeny","12.020695","79.70237","true"
"ChIJPawkaH1dUzoRf0m3Mvknx28","Bharat petroleum - VETRISELVAN AGENCIES","2PJ3+6H3, Sugar Mill Road, Lingareddypalayam","12.0305067","79.7039216","true"
"ChIJJRovw_lcUzoRw8ajGIn47KM","IndianOil","India","12.0214916","79.68462400000001",""
"ChIJ29Quw_lcUzoRLES8lENKol8","IanOil","India","12.0214982","79.6846209",""
"ChIJTU-AeZddUzoR7OZTsWPS_SA","IndianOil","No ,81/3 valudhavur, to, mailan road, Sandhai Pudukuppam","12.0214758","79.6844654","true"
"ChIJpxz4JHddUzoRNbYVXlXkCaE","Hindustan Petroleum Corporation Limited","1/PT, Rs No 81/2A, Mailam Road, Valudavur","12.0226617","79.6845913","true"
"ChIJ1-uXAfdmUzoR4eiSifsw3Ig","IndianOil","Lock No 1131/122, Cst No 34400001892 Alankuppam Main Road, Irumbai, Lawspet, Puducherry","12.018678","79.798666","true"
"ChIJm5SCCDtcUzoR1WabnIRpwRg","Hindustan Petroleum Corporation Limited","RS No 54, 4C, Vazhudavur Road, Kumarapalayam","11.9861081","79.68037559999999","true"
"ChIJt8LPN09kUzoRqhMuZ2CtMqU","IndianOil","State Highway 49, Chinna Kalapet, Puducherry","12.014069","79.858289","true"
"ChIJReN58rJlUzoRTx3PnIwAjN8","Bharath Petroleum","opposite to Hotel Asoka ( Beach Resort, East Coast Road, Chinna Kalapet, Pappireddipatti","12.0260571","79.8617652","true"
"ChIJpxflOaRlUzoRnRpT6Rpv9bo","IndianOil","ECR Cst 34530001675, No 1107/122, No 170/2A 170/5, 170/3, Kalapet","12.0391001","79.867701","true"
"ChIJodUQMExkUzoR4RJ5T0ybb2U","Hindustan Petroleum Corporation Limited","No 21, RS No 152/3B/2, near East Coast Road, 152/4 & 152/5, Chinna Kalapet, Pillaichavady","12.0190732","79.85985149999999","true"
"ChIJkY8M8ZZnUzoRFzsw_uRrziQ","Bike Stop","3R6H+9HX, Olunthiyapatu-Nesal-Puthuppattu Road, Koluveri","12.0609969","79.8289779",""
"ChIJ2VHDc2llUzoRJC9-pETywSU","OM MURUGA GAS AGENCY","09, Amman Nagar, Kalapet","12.0366152","79.8573976",""
"ChIJV1O26MplUzoRx347xHJUEPk","Bharat Petroleum, Petrol Pump -Sri Venu Corporation","KALAPET, Puducherry","12.0260855","79.8618152","true"
"ChIJLQNlPuplUzoRLX3ntI8uoU8","Bharat Petroleum Petrol Pump , SRI SIVAGAMI FUEL STATION","R S NO 170 6A 1A 8 ECR, VILLAGE, ROADPERIYA, Kalapet","12.0374718","79.86702509999999","true"
"ChIJuY8GeS9lUzoRIXrfLyvQKxc","Retail Outlet","170, State Highway 49, Periyakalapet, Puducherry","12.0378535","79.8675045",""
"ChIJ94EpGOBlUzoRxI48Fy7aR3w","Hindustan Petroleum Corporation Limited","RS No 170/1A, 170/2 & 170/3, East Coast Road, Periyakalapet, Puducherry","12.0393907","79.86795479999999","true"
"ChIJu3EtOKRlUzoR-yZt--68JIc","IndianOil","Lock No 1133/122/7, 150/8 &150/1, East Coast Road, Kanagachettikulam, Kalapet","12.0436071","79.8690915","true"