place_id,name,address,latitude,longitude,open_now
"ChIJnXcOFvab2zsRzPooRvCM_3M","IndianOil - SWAGAT","Ground Floor, near garwale polyester, Waluj, Naigaon","19.8057466","75.2319722","true"
"ChIJO8I59vqb2zsRebFxMCCRSs8","Hindustan Petroleum Corporation Limited","Ground Floor, Pune Road, Waluj, Chhatrapati Sambhajinagar","19.816351","75.240191","true"
"ChIJsVn5GGCZ2zsRA5aBd77Kxnw","IndianOil","behind Court, Amladi Cottage, Samadhan Colony Asegaon, behind Court, Chhatrapati Sambhajinagar","19.830633","75.248431","true"
"ChIJ74Hm32SZ2zsRzqkeMYI9BXU","Hindustan Petroleum Corporation Limited","beside Bhuvan Hundai, Gut No 123 Part, Nagar Pune Road, beside Bhuvan Hundai, Pandharpur Main Road, Waluj, Tisgaon","19.8402127","75.2565778","true"
"ChIJB8J-lHOZ2zsR9KP3523Gx2k","Arihant CNG Petroleum","SH-60, Ahemadnagar Newasa Highway, Walunj, Chhatrapati Sambhajinagar","19.847205","75.26706399999999","true"
"ChIJ951YH_SY2zsRIQC64xP7Tz4","IndianOil","Ground Floor, Beed Bypass Road, Chhatrapati Sambhajinagar","19.853647","75.31240799999999","true"
"ChIJU66CWiOa2zsRRgN2xU_R95o","Bharat Petroleum, Petrol Pump -Shantai Petroleum","SAHAJAPUR, Chhatrapati Sambhajinagar","19.8699037","75.236902","true"
"ChIJx_tyxAWb2zsR05SjpVwvQI4","Samruddhi Petroleum","Bajaj Company, Main Gate, Pandharpur","19.8231241","75.2446542","true"
"ChIJnyw6WJa12TsRaDDC8I2UxCo","IndianOil","Gut No 7, 137, CIDCO, Mahanagar, Wadgaon, Waluj, Pandharpur","19.8211866","75.24324109999999","true"
"ChIJqRDWkrOZ2zsRUA-HBEdKIKA","Prashant Petrol","Waluj, Pandharpur","19.8304033","75.2482491",""
"ChIJV2o-nQWZ2zsRYZLI0lAgD5I","Anand Petrol Pump","Nakshtra Wadi MBR, Chhatrapati Sambhajinagar","19.8152397","75.2887045","true"
"ChIJt2Ho1Kub2zsRtXPzzqzr_bo","Hindustan Petroleum Corporation Limited","Gut No 18 Part, Nagar Road, Waluj, Naigaon","19.8139206","75.2375599","true"
"ChIJ____D2GZ2zsREnFS-Gd47Mg","IndianOil","near Pandharpur, G No 128 Tisgaon, near Pandharpur, Pune Road, Chhatrapati Sambhajinagar","19.8367112","75.25350089999999","true"
"ChIJ08cYVGyf2zsRCVB7n4BZ3hg","Parason Petroleum CNG","opposite Maruti Fertilizer Company, Gut No 58, Georai Tanda, opposite Maruti Fertilizer Company, Paithan Road, Chhatrapati Sambhajinagar","19.7971434","75.2900287","true"
"ChIJoyzvdQCb2zsRBJixgZ4A8Zs","Petrol pump","R6RW+6MR, More Chowk, Waluj, Wadgaon Kolhati","19.8406027","75.2466299",""
"ChIJhZssXR-b2zsR_Wimy_Ji83E","Bajaj Auto Petrol Pump","R66H+39P, Bajaj Auto Road, Waluj, Chhatrapati Sambhajinagar","19.8102193","75.228444",""
"ChIJeXDqcR-Z2zsRTRNm4mXjMLQ","PAVAL GAS SERVICE","India","19.8338919","75.29100079999999",""
"ChIJRYV1QQCZ2zsRQUg4CLHIziw","Hindustan Petroleum Corporation Limited","Ground Floor, Kanchanwadi, Chhatrapati Sambhajinagar","19.8364368","75.2918148","true"
"ChIJN2HVqx-Z2zsRLapdixf5waE","Jai Balaji Petrol & CNG","A-8, Paithan Road, Kanchanwadi, Chhatrapati Sambhajinagar","19.836291","75.2919754","true"
"ChIJt9FMUR6Z2zsR0lM8OZUA7Dc","Bharat Petroleum","India","19.8363033","75.2920195",""
"ChIJk4FUxaqZ2zsRvVlkEkGim_0","Savera Motor","opp. chirdiya petrol pump, opp. A.S.Club.Hotel, Ahmednagar - Aurangabad Road, Chhatrapati Sambhajinagar","19.8486275","75.2695849",""
"ChIJ8yN02UqZ2zsRMwbD7v195ho","Bharat Petroleum, Petrol Pump -P.M.Chordia","PUNE R, Tisgaon","19.849389","75.268682","true"
"ChIJLZ54kaKZ2zsRliBBgY_cCCQ","AUTO LPG","R7XC+W75, CIDCO Waluj Mahanagar 2, Waluj, Chhatrapati Sambhajinagar","19.84976229999999","75.2707397","true"
"ChIJATdyvX-d2zsRMTdOIsRn7sA","Sabne Petroleum","Gangapur Vaijapur Roads, Gangapur, Chhatrapati Sambhajinagar","19.7967825","75.22595960000001",""
"ChIJb-N2KJKb2zsRCHNnLFi8PmI","Hindustan Petroleum Corporation Limited","Gut No, 92 Gangapur, Kamlapur Road, Jogeshwari","19.823162","75.221651","true"
"ChIJhUy5UO-b2zsRL157Hb6p6is","Nayara Energy","Jay Bhawani Chowk, Jay Bhavani Chowk, Bajaj Nagar, Ranjangaon Shenpunji, Waluj, Chhatrapati Sambhajinagar","19.8432463","75.233734",""
"ChIJ54H_Odib2zsRlmC037F9u2U","Dhanlaxmi Nayara Petroleum","Jai Bhavani Chowk, X385/A, Bajaj Nagar, MIDC, Waluj, Chhatrapati Sambhajinagar","19.8430618","75.2333317","true"
"ChIJs9aeAtWb2zsRkuBeLoKBTHM","Nayara petrol pump","V64W+7W2, Waluj, Chhatrapati Sambhajinagar","19.8556313","75.24725099999999","true"
"ChIJmQGJWwCd2zsRL1gsMePWTYU","BHUMI PETROLEUM INDIAN OIL","Q6MF+F9F, Waluj Bk.","19.7843563","75.22303029999999",""
"ChIJCejlDmeX2zsR_HOyZndxBFQ","IndianOil","gut No, 72 Ranipet, Chhatrapati Sambhajinagar","19.8580509","75.24186569999999","true"
"ChIJcW68agCd2zsRaRToKuJKyic","JAT petroleum waluj जाट पेट्रोलियम वाळूज","Q6Q9+W4R, Waluj Bk.","19.7895535","75.2171462","true"
"ChIJawgQsRid2zsRGhRwEVZ2aQs","IndianOil","Gut No 261, part Gangapur, Waluj Bk.","19.7893455","75.2171888","true"
"ChIJqWU6iLab2zsReaL1BIVQQgY","Shan Petroleum","India","19.8436265","75.2215927",""
"ChIJDbFBcEid2zsR_rAlKVbcJ04","Gajanan Enterprises Diesel Pump Station","Aurangabad - Ahmednagar - Pune Highway, Waluj Bk.","19.787032","75.21258","true"
"ChIJ8wYuW5yZ2zsRIxqALDpPHaY","Deolai road","V825+434, Satara Parisar, Chhatrapati Sambhajinagar","19.8502643","75.3076904",""
"ChIJhZf0o3eb2zsRsqQkxnXRBCo","Sheikh","Rajan Rao Simpu Ji, Chhatrapati Sambhajinagar","19.8435679","75.211884",""
"ChIJUSj0R6Wb2zsRfowKMdhPQ9g","Rahul Dhakne","Jay Bhagwan Datnagar, Fhata, Chhatrapati Sambhajinagar","19.848492","75.214953",""
"ChIJE7VX3qab2zsRpI534rlMht4","Swami Petroleum","R6X7+QX6, Datta Nagar, Ranjangaon Shenpunji, Waluj, Chhatrapati Sambhajinagar","19.8494192","75.21488169999999",""
"ChIJQyK3Esyb2zsRY0Xa0Z5R3p4","IndianOil","Gut No 40, Ranjangaon Shenpunji, Gangapur, Waladgaon","19.8499601","75.2149501","true"
"ChIJFw6VhK6b2zsRdq4789owbqo","IndianOil","Gut No 149 Gangapur, Ranjangaon, Waladgaon","19.843044","75.20939299999999","true"
"ChIJuYJwoB2Z2zsRDpz9lWDaeJo","Go Gas Auto LPG Filling Station","V837+87F, National Highway 52, Satara Parisar, Chhatrapati Sambhajinagar","19.8533157","75.3131756","true"
"ChIJC2o7cu2u2zsROfaTb2TIx80","IndianOil","Gut No 291 Gadejalgaon, near Railway Station, Chhatrapati Sambhajinagar","19.860726","75.31112399999999","true"
"ChIJh51peuuj2zsRuvfSgeYsTLg","Shivdatt Petrol Pump","NH 211, Beed Bypass Road, Zalta, Chhatrapati Sambhajinagar","19.8520744","75.31976399999999","true"
"ChIJ0Yn1almY2zsRhA4Q49dwOCA","Taranga Sales And Services (Petrol Pumps-Indian Oil)","V866+W5H, Bhanudas Sabhahgrah Railway Station Road, Chhatrapati Sambhajinagar","19.86229999999999","75.31049999999999",""
"ChIJQSgU-bKZ2zsRUkXjjs3dWig","Hindustan Petroleum Corporation Limited","Gut No 303, SRPF Camp Road, Satara, Chhatrapati Sambhajinagar","19.828675","75.331997","true"
"ChIJYSFDlE2e2zsRCvjrx3YzRNQ","Hindustan Petroleum Corporation Limited","Gut No 123, opposite Videocon Factory, 123, Shiwanai - Bokud Jalgoan Road, Chittegaon","19.7503868","75.29036359999999","true"
"ChIJq3TLiJid2zsRSJXv54m7Ye4","BP Waluj OSTS Waluj Bharat Petroleum Petrol Pump","Aurangabad - Ahmednagar - Pune Highway, Shivrai","19.7812172","75.1994855","true"
"ChIJ-c1LNz6a2zsRh91JA2My2Dc","Girija Petroleum","SH-30, Nagpur - Aurangabad - Mumbai Highway, MIDC, Waluj, Chhatrapati Sambhajinagar","19.872967","75.2281374","true"
"ChIJ7c77Oj6a2zsRtr3xX4nsoIw","IndianOil","Survey No 15, Railway Station, near Aurangabad, Express Highway, Waluj, Chhatrapati Sambhajinagar","19.8731947","75.2283786","true"
"ChIJvU08ByCZ2zsREwIOT9pKeO0","SOMNATH MALKARI","near Osmnpura, Shop, Gopal T, Chhatrapati Sambhajinagar","19.8656033","75.3104141",""
"ChIJYRZIH2Cd2zsRNQVYh1o43H8","Hindustan Petroleum Corporation Limited","gut No, 53 & 69 SH 60, Gangapur, Limbe, Jalgaon","19.781377","75.19774009999999","true"
"ChIJu2ZdwJWZ2zsRpYPmKC2oERQ","IndianOil","Cts No 19312, Railway Station, Deogiri College Road, Chhatrapati Sambhajinagar","19.8630944","75.3150244","true"
"ChIJHTGREIuc2zsR_5GEg7gCwms","IndianOil","Gut No 64, Gangapur, Adgaon Sarak, Chhatrapati Sambhajinagar","19.7806367","75.1976234","true"
"ChIJ2SJbyH2i2zsRbS1ynEzQySY","IndianOil","Gut No 57/4, Plot No 11 & 12, Garkheda, Chhatrapati Sambhajinagar","19.8027269","75.3419694","true"
"ChIJ54kdgn-Y2zsR0sjuptcqvuI","IndianOil","Khivansara Park, Garkheda, Chhatrapati Sambhajinagar","19.8644946","75.34187829999999","true"
"ChIJfbZ7QmSY2zsRy5t0ukC2WUQ","Sakla Uniforms","5/2/24, 5, New Usmanpura, Chhatrapati Sambhajinagar","19.8663675","75.3257564","true"
"ChIJxRbc-YWi2zsRS6yFtSO844k","Nayara Petrol pump","V993+436, Pundlik Nagar Road, Near Advanced ENT Hospital, Gajanan Temple, Vishalnagar, Nyay Nagar, Chhatrapati Sambhajinagar","19.8677779","75.35265009999999","true"
"ChIJ_cY393SY2zsReyg9saqIy4M","IndianOil","Datta Nagar, Jaffer Gate, Chhatrapati Sambhajinagar","19.880657","75.337486","true"
"ChIJS7NxC_Ki2zsRcK4fSlqTTyg","Hindustan Petroleum Corporation Limited","Ground Floor, Jalna - Aurangabad Road, Cidco, Chhatrapati Sambhajinagar","19.8739913","75.3690883","true"
"ChIJSUPtyGiY2zsR0cGBEgPgiko","IndianOil","Plot No 10, Jalna Road, N2 CIDCO, Mukundwadi, Chhatrapati Sambhajinagar","19.872334","75.3733962","true"
"ChIJ1UQ1b0KY2zsRFxe_8MKnyP0","Bharat Petroleum Mahavir Stambh Baba Petrol Pump","Nashta Corner Baba Petrol Pump, Bhagyanagar, Chhatrapati Sambhajinagar","19.8740819","75.31588459999999","true"
"ChIJKb8zOgCj2zsR5IicSVic-_w","Yogeshwari petrolium","R8VX+34J, Naik Nagar, Deolai, Chhatrapati Sambhajinagar","19.8427227","75.3477767",""
"ChIJGXD4Z4OY2zsRFfT48ZS8XcI","Hindustan Petroleum Corporation Limited","Gut No 22, near Hotel MH20, Beed Bypass Road, Shahnoorwadi, Chhatrapati Sambhajinagar","19.84976529999999","75.3361295","true"
"ChIJrzoqANWj2zsRIYoLiDZi-9Y","Hindustan Petroleum Corporation Limited","Gut No 136 Plot No 1, 2 & 4, Deolai, Satara","19.8443739","75.35437739999999","true"
"ChIJ5W2DBQCj2zsRdlwMQD_da3c","Yogeshwari Petroleum","Old, Beed Bypass Road, Chhatrapati Sambhajinagar","19.8496799","75.3423722",""
"ChIJB_JVaT-j2zsR7gUgpPbv1zU","Shiv Sai Petroleum (Nayara Energy Limited)","16-6, Samrudhi Co-operative Housing Society, Chhatrapati Sambhajinagar","19.8493971","75.3443899","true"
"ChIJf1ct8tSZ2zsR4IhebmbqWXA","Sarjeet Singh Jabinda Petroleum","32, PWD Colony, Disha Nagari, Chhatrapati Sambhajinagar","19.8511503","75.3310281",""
"ChIJ0xdzm4WY2zsRbAYKVE4mnMQ","Essay Petroleum LPG","India","19.8511634","75.3304374",""
"ChIJ0WDdWQCj2zsRv8D9PsfCYl8","Hpcl pump","V926+44M, Naik Nagar, Satara Deolai Parisar, Chhatrapati Sambhajinagar","19.8503312","75.3602993",""
"ChIJq6qqRnyi2zsRMolxkSwYC_c","Balaji Servo Services","Plot No 11/12, Laxmi Nagar Grk, Garkheda, Chhatrapati Sambhajinagar","19.8569763","75.3488698",""
"ChIJfenaJgCj2zsRzMp31X9ML8k","Raj Electrical","161, Sara Raaj Nagar, Garkheda, Chhatrapati Sambhajinagar","19.8561202","75.3546564",""
"ChIJhzu0Y0Si2zsRaGAc_mQtabQ","IndianOil","Gut No 141, NH 211, Beed Bypass Road, Balapur, Chhatrapati Sambhajinagar","19.8480083","75.3713405","true"
"ChIJUfAd-WWZ2zsRXG6bv1VrUig","Imran auto Garage","4-13-693, Shrikrishna Nagar, Ulkanagari, Chhatrapati Sambhajinagar","19.8628183","75.33969189999999",""
"ChIJlyUGhGWY2zsRDemhH3l2Wbs","Bharat Petrol Pump","GOAPL T, 01, Bhanudas Sabhahgrah Railway Station Road, Snehnagar, Konkanwadi, Chhatrapati Sambhajinagar","19.8702153","75.3264143","true"
"ChIJhxIlrhWZ2zsRmRFlirbwyaw","BANTI AUTO SERVICES","Gopal Tea, 01, Railway Station Road, Konkanwadi, Chhatrapati Sambhajinagar","19.8702626","75.3263681",""
"ChIJP2V-vCGZ2zsR_1asI8M_iqo","Unique Auto 2","Gopal T, Near, New Usmanpura, Chhatrapati Sambhajinagar","19.8702885","75.3263655",""
"ChIJFX05TEuZ2zsRJN50yZMlXJU","Hindustan Petroleum Corporation Limited","CTS No 14814/A, Bag Sher Jung, Ramanagar, Chhatrapati Sambhajinagar","19.8722833","75.3351849","true"
"ChIJ9SEHyW-Y2zsR_hfRhqEoPB0","IndianOil","Ground Floor, Adalat Road, Chhatrapati Sambhajinagar","19.871986","75.325531","true"
"ChIJr5j0T0OY2zsRZdCQVgK4kvw","एसे पेट्रोलियम","India","19.87028489999999","75.3128782","true"
"ChIJR0yAzHOY2zsRPA25J3RToP0","Indian Auto Gas","Cts No-13791, Kranti Chowk, Ajabnagar, Chhatrapati Sambhajinagar","19.8740352","75.3304249",""
"ChIJM8rK1G-Y2zsR8MTDULXW5Zg","Hindustan Petroleum Corporation Limited","CTS No 14453, NH 752, Jalna - Aurangabad Road, Kranti Chowk, Chhatrapati Sambhajinagar","19.8740017","75.329329","true"
"ChIJ0Wv0iUSZ2zsRLSETQFg8J_k","Ashok and Sons AUTO LPG PUMP","V8FJ+M25, Kranti Chowk, Ajabnagar, Chhatrapati Sambhajinagar","19.8741346","75.33010399999999","true"
"ChIJTd-r_Xij2zsRhuKnHsjlnnE","Bharat Petroleum, Petrol Pump -Jagruth Petroleum","Seven Hill fly over, Gajanan Maharaj Mandir Road, Vidya Nagar, Garkheda, Chhatrapati Sambhajinagar","19.8737581","75.3525444","true"
"ChIJf345qwSj2zsRBlPKXwjxdsU","Zyada Gas Auto LPG Pump","Essy petroleum, Zyada Gas, near by BPCL Pump, Sevan hill, Chhatrapati Sambhajinagar","19.8737976","75.352449","true"
"ChIJNevVMMGj2zsRzRo2DbqzoZU","Shoheb Khan","Shop No 01, Chhatrapati Sambhajinagar","19.8738511","75.3524566",""
"ChIJU3BJfEWj2zsRDfxTW9BLurc","Totalenergies Auto LPG station","TotalEnergies AutoLPG, gas station Sevenhills, near dulhadulhan showroom, to, Garkheda Road, Chh, Chhatrapati Sambhajinagar","19.8743603","75.35250900000001","true"
"ChIJSUPtyGiY2zsRuXs5_GC9T_M","Atuls Lubricant Oil","V8GW+H47, Jalna Road, Jaffer Gate, Chhatrapati Sambhajinagar","19.8764059","75.3453019",""
"ChIJOWnKdvOi2zsRQ2xjuMER0kE","Bhaishree Petroleum LLP","near Zambad Bunglow, Bhaishree Chamber, Plot No 29/45, Survey No 70/P, near Zambad Bunglow, Kamgar Chowk, N 2, Cidco, Chhatrapati Sambhajinagar","19.8692979","75.3671025",""
"ChIJx30BUQCZ2zsRvBUD0T9RY0M","Reliance petrol pump","1, Central Bus Stand Road, Pushpa Nagari, Chhatrapati Sambhajinagar","19.8758839","75.3166799",""
"ChIJuzcF18SZ2zsRnelLRYzTZ20","Bharat Petroleum, Petrol Pump -N.A. Printer","CROSS ROAD AURANGABAD, Chhatrapati Sambhajinagar","19.878147","75.3346572","true"
"ChIJz6w7gpCi2zsRbXRDTTOd_c0","Hindustan Petroleum Corporation Limited","near MGM Hospital, CTS No 12373/14 & 15, Hospital Road, M G M, Chhatrapati Sambhajinagar","19.87621619999999","75.3530036","true"
"ChIJm0lGupGi2zsRK5s00DbDxpA","IndianOil","Ground Floor, Jalna Road, Chhatrapati Sambhajinagar","19.875171","75.356819","true"
"ChIJY7xpoxWY2zsRmsT9AgFQCGE","New Era Traders (Reliance Gas Distributor)","Pratap Commercial Complex, Mondha Road, Near Jafar Gate,Opposite Central Bank, Jaffer Gate, Chhatrapati Sambhajinagar","19.880243","75.336963","true"
"ChIJ6SIE-AeZ2zsRD5fuRb8TpJc","Nitin Sarvices","Bas Stand, 2-15-851, Chhatrapati Sambhajinagar","19.8803022","75.3174712",""
"ChIJ9YGARFej2zsRYAdmtgdZqN4","Bharat Petroleum, Petrol Pump -Sai Krishna & Sons","V9FC+42X, API Corner, MIDC Industrial Area, Chhatrapati Sambhajinagar","19.8731051","75.3698527","true"
"ChIJj1Ofu3SY2zsR3gE25TgqQpo","IndianOil","Ground Floor, Old Mondha, Chhatrapati Sambhajinagar","19.882219","75.33672299999999","true"
"ChIJ88kLEjmj2zsRE2XxQB6bUzg","Manoj Gopaldas Vaishnav","Ambika Nagar Road, Maya Nagar, Cidco, Chhatrapati Sambhajinagar","19.873177","75.36995999999999",""
"ChIJ4_kXMH-k2zsRraerrq-438Y","Hindustan Petroleum Corporation Limited","Gut No 41/1, Jalna - Aurangabad Road, Sundarwadi","19.8631054","75.4366111","true"
"ChIJxwViT3uk2zsRt_n--6Iswaw","Nava Bharat Petroleum CNG Station, sundarwadi","30, Nagpur - Aurangabad - Mumbai Highway, Mahesh Nagar, Sindhi Colony, Chhatrapati Sambhajinagar","19.8623131","75.44538469999999","true"
"ChIJj-vNuAM9xzsRi7MwfpTp2Mo","IndianOil","Gut no, 125 Cambridge, Cidco Colony, Zalta","19.8399163","75.41826619999999","true"
"ChIJF-CqdIil2zsRk2lKiLxVgeo","BHARAT PETROLEUM BPCL SR PETROLEUM CNG AVAILABLE","Beed road zalta, Chhatrapati Sambhajinagar","19.8351754","75.43591169999999",""
"ChIJrSX-DACl2zsRXjz7HIknmSg","RK_CNG_pump_bidbaypas","RCPP+459, Zalta","19.8352717","75.435935",""
"ChIJ6_rfYw-k2zsRlWNiDizKQes","Hindustan Petroleum Corporation Limited","Gut No 252 & 34, Aurangabad, NH 52, Beed Hwy, Fata, Zalta","19.83406759999999","75.4420993","true"
"ChIJn-d98wKj2zsRbNZtlX6icHY","Bharat Petroleum, Petrol Pump -Saraswati Fuel Home","ZALTA , DIST AURANGABAD, Chhatrapati Sambhajinagar","19.8502472","75.4289254","true"
"ChIJtdlRXNaj2zsRSysSOWT2eng","Go Gas Lpg gas station","VC89+27W, Aurangabad - Nagpur Road, Shri Krishna Colony, Chilkalthana, Chhatrapati Sambhajinagar","19.8651099","75.4182058",""
"ChIJ_Rj16Yyj2zsRmGk5FKnIAWs","Hindustan Petroleum Corporation Limited","Ground Floor, Jalna Road, Chilkalthana, Chhatrapati Sambhajinagar","19.8659005","75.4165426","true"
"ChIJcyBY40-j2zsRNNXbQQzhANM","TRANSWELL AUTOMALL PRIVATE LIMITED, Essay Petroleum Autogas station","beside Gayatri Lawns, Gut No 407, beside Gayatri Lawns, Chilkalthana, Chhatrapati Sambhajinagar","19.8660669","75.4158285","true"
"ChIJ5xbTsjyj2zsR5y51a9LBR78","Bharat Petroleum CNG & Petrol Pump , VINOD PETROLEUM (ADHOC)","Jalna Road, Chilkalthana, Chhatrapati Sambhajinagar","19.8653624","75.4210981","true"
"ChIJl7j1FCij2zsRhpBnp9SdeYA","Petrol Pump Police Community","V99X+MRP, Aurangabad - Nagpur Road, MIDC Industrial Area, Chilkalthana, Chhatrapati Sambhajinagar","19.8692169","75.3995722","true"
"ChIJCdKJnQij2zsR4dAud0KMZRg","IndianOil","Gut No 703, P & 704/P, Chilkalthana, Adgaon Bk","19.8695595","75.40020609999999","true"
"ChIJJWpReXaj2zsRb_1-VRXcREM","APEX ENTERPRISES","Main Road, Hina Nagar Road, Chhatrapati Sambhajinagar","19.8692173","75.4173238","true"
"ChIJO4st7Tqn2zsRJRfUqTGlPss","Nayara Energy _ Ganapati Petroleum","NH52, vill, Bhalgaon","19.8138515","75.4645283",""
"ChIJo76SZwCn2zsRhFk_zi4GR9g","Ganpati petroleum nayara energy bhalgaon","Bhalgaon","19.8139398","75.4646044","true"
"ChIJ4U3vBACj2zsR4ASCA6JkLlQ","HINA NAGAR CHIKALTHANA AURANGABAD","VC9C+F7M, Hina Nagar Road, Chilkalthana, Chhatrapati Sambhajinagar","19.8687117","75.42067530000001",""
"ChIJgaQA7Xuk2zsRG0Drwr5Am_E","Bhadra Servo Services","Gut No.5, Sundarwadi, Jalna Road, (Near Cambridge School)), Chhatrapati Sambhajinagar","19.861989","75.441576","true"
"ChIJp3Wf7Xuk2zsRsjlhfkWzFE0","IndianOil","Ground Floor, Jalna - Aurangabad Road, Sundarwadi","19.8622934","75.4413021","true"
"ChIJbYEIRKej2zsRtssZN4uguwY","Zyada Gas Auto LPG Pump","near Lifline Hospital, near Ramnagar, Jalna Road, Kaman, Mukundwadi, Chhatrapati Sambhajinagar","19.871781","75.38337829999999","true"
"ChIJGTf5G_Ki2zsREurRuyDHtgs","API Corner","V9FC+F2M, N 2, Cidco, Chhatrapati Sambhajinagar","19.873703","75.3700525",""
"ChIJyff16nmi2zsR23P1eTwn3qA","IndianOil","Ground Floor, Satara, Chhatrapati Sambhajinagar","19.8778054","75.371878","true"
"ChIJDZ6RLK6Q2zsR6X6w_QiVtpQ","Bharat Petroleum Corporation Ltd","W65Q+QPC, National HIghway 211, Shernapur","19.9094391","75.2392808","true"
"ChIJCQwsFgCZ2zsRVbqymfq3swY","Bhaskara HP Gas Agency","Aurangabad trade centre, opposite tarangan, below Moti medical mitmia, Aurangabad - Nashik Highway, Padegaon, Chhatrapati Sambhajinagar","19.8939256","75.27484009999999",""
"ChIJQ-TCu4OX2zsRNRbaeFrYL8w","Hindustan Petroleum Corporation Limited","Gat No 131, Mitmita, Chhatrapati Sambhajinagar","19.9000392","75.2643805","true"
"ChIJJZPkjVeX2zsRgPtEwFiXr7U","PURTI GAS","India","19.9016888","75.2588973",""
"ChIJFVemBD2Z2zsRRJouGk-NDdw","IndianOil","Ground Floor, Aurangabad Cantonment, Padegaon, Chhatrapati Sambhajinagar","19.886396","75.285697","true"
"ChIJyWEMSwCZ2zsRMA5cmYf_wlM","Bharat Petroleum","V7MR+H63, Padegaon, Chhatrapati Sambhajinagar","19.8837752","75.2910467","true"
"ChIJa8mCsGqR2zsRYOrTTG8eiTU","IndianOil","Gut No 29, Part Mitmita, Padegaon, Chhatrapati Sambhajinagar","19.908083","75.245768","true"
"ChIJU6BmLLCQ2zsR6weeNlr-ypI","IndianOil","Ground Floor, NH 211, Shernapur","19.909986","75.23885299999999","true"
"ChIJe3sspfGR2zsRImEZdVFR5LU","IndianOil","gut No, 56/part, Shernapur","19.8981261","75.2292738","true"
"ChIJQcVaObCQ2zsRheVYjQ6c1Wo","Hindustan Petroleum Corporation Limited","Gat No 97/1, NH 52, near T Point, Road, Daulatabad Road, Shernapur","19.9109428","75.2381946","true"
"ChIJDbcYchib2zsRnhl6XvR9cR4","Hindustan Petroleum Corporation Limited","Gut No 38, near Sai Food Bar, Solapur Dhule Highway, Karodi","19.878108","75.215908","true"
"ChIJUUbbV2ia2zsR9ZnCVB2noDs","M/s. Gp Petroleums Ltd.","India","19.8758472","75.2152066",""
"ChIJgyZQlsiZ2zsRAbwNWdhN1Qk","Pradeep Suvarnakar Lpg","Plg Pump, Shop No1 Near Milk Corner Raod, Chhatrapati Sambhaji Nagar Road, Mill Corner, Chhatrapati Sambhajinagar","19.883993","75.3163416","true"
"ChIJXZpayUGR2zsRNi9Q-IUbgPw","Renukamata Petroleum","Gut no 96, opp. jain internationalschool, Aurangabad - Nashik Highway, Maliwada","19.9195226","75.2198023","true"
"ChIJpfUY20qR2zsRvuUqvBA8c3Y","IndianOil","Gut No 96 Maliwada, Shernapur","19.91972","75.21989400000001","true"
"ChIJpa2dXQCZ2zsRJhWJ24Utrxc","Bharat Petroleum, Petrol Pump - Chacha Petrol Pump","V8RF+HH2, near by MCA, Town Hall, Buddi lane, Naralibag, Chhatrapati Sambhajinagar","19.8913842","75.3239011",""
"ChIJH8_eV32a2zsR4dfvoTquApw","Bharat Petroleum, Tulja Mata Petroleum CNG PUMP","Karodi Road, Waluj, Chhatrapati Sambhajinagar","19.8841348","75.20141009999999","true"
"ChIJc5_2bQmR2zsRUcKt5jzlOI4","IndianOil","Gut No 96, Sharnapur, Maliwada","19.9285456","75.22165199999999","true"
"ChIJA0poZMei2zsRnzwy8badybQ","Reliance Petroleum","Plot No 1A, N7, Sector P, Cidco, Chhatrapati Sambhajinagar","19.8933603","75.3650277","true"
"ChIJW9G9Zsei2zsRj31wagnEsmk","BPCL Rajyog Petrol Pump","Sector P1, N 7, Cidco, Chhatrapati Sambhajinagar","19.8929675","75.3649677","true"
"ChIJsd2CAlK92zsRWQY-8rYXO2s","Hindustan Petroleum Corporation Limited","near Harsul T.point, Plot No 12/13N/11/P1, Survey No 187 CIDCO, near Harsul T.point, Sector, N 11, Harsul, Chhatrapati Sambhajinagar","19.913542","75.35222499999999","true"
"ChIJAzYQ5na92zsRdQ08jqijEzQ","IndianOil","Ground Floor, Ajanta Jalgaon, Bypass Road, Sawangi","19.95044099999999","75.35679499999999","true"
"ChIJwwmtcgyY2zsRIrVdLdhNgVY","Hindustan Petroleum Corporation Limited","Ground Floor, Shahganj Road, Shahgunj, Chhatrapati Sambhajinagar","19.887281","75.33473099999999","true"
"ChIJjy4wODGZ2zsRMM3mbCStIfA","Reliance Petroleum","Plot No 1, Pushp Nagari, next to Employement Office, Sy No 2071, Central Bus Stand Road, Chhatrapati Sambhajinagar","19.8939403","75.3333791","true"
"ChIJl0LZSAaY2zsRUG3sx9EjivQ","Bharat Petroleum, Petrol Pump -N.A. Printer","Delhi Gate Road, Chhatrapati Sambhajinagar","19.8966255","75.337779","true"
"ChIJ16nTVfqj2zsRIFKFwLiLpf8","IndianOil","Survey No 35, Jaswantpura, Chhatrapati Sambhajinagar","19.8847912","75.3519366","true"
"ChIJL1cVSweY2zsR1K-bja3qO-I","BATCO ENERGY","India","19.9008125","75.34003129999999",""
"ChIJi5rH29Cj2zsRz8yntEerbcM","IndianOil","6, Cidco, Central Naka Road, M G M, Chhatrapati Sambhajinagar","19.88130899999999","75.35355","true"
"ChIJdR2mzTKj2zsRVPvKlMah7VQ","Nayara petrol pump main Aurangabad","Kiradpura Road, Kirti Housing Society, Rahemania Colony, Kiradpura, Chhatrapati Sambhajinagar","19.8881063","75.353341",""
"ChIJH1ixaqWi2zsRAqSQSvCfy4g","Hindustan Petroleum Corporation Limited","Gut No 4, 12 Hattesingpura, near Kat Kat Gate, Chhatrapati Sambhajinagar","19.894824","75.351485","true"
"ChIJE017LdCj2zsRt3taS_92LiQ","Bharat Petroleum, Petrol Pump -Police Ro -Cidco","CIDCO, AURANGABAD, TV CENT, Chhatrapati Sambhajinagar","19.8983725","75.3535787","true"
"ChIJNaBauJmj2zsRpMFkCjjDBuQ","MistarAnkush Narayan Tonde","Shop No 1, Shani Madir Panvadat, Bajar, Pata, Sillod","19.8999515","75.3562834",""
"ChIJ3_LtWQC92zsRiH-C_wU1iF0","Indian oul petrol pump","W85W+QMM, TV Centre Road, Hudco, Yadav Nagar, N 11, Cidco, Chhatrapati Sambhajinagar","19.9094871","75.3466536","true"
"ChIJ0VatBAC92zsRuygnOuUWgf8","Pathrikar petroleum iocl pump","Plot no 1, Hudco, Pathrikar Nagar, N 11, Cidco, Chhatrapati Sambhajinagar","19.9104763","75.34710489999999","true"
"ChIJjyhRXQCj2zsRFwNXT2SBMOg","Jio petrolium","1A, Service Road, Sector P1, N 7, Cidco, Chhatrapati Sambhajinagar","19.8933524","75.36496939999999",""
"ChIJr3npCLii2zsR6ggNxa_M6c8","आरोग्यम क्लिनिक","आंबेडकर नगर, एन.७, सिडको, औरंगाबाद.","19.8962798","75.3642759",""
"ChIJw1TMOE292zsRHLwIbOopdF0","IndianOil","Gut No 194/4, Harsul, Chhatrapati Sambhajinagar","19.9089508","75.3544288","true"
"ChIJD_jyqZij2zsRFZf6STJ5AHg","IndianOil","Gut No 23, Naregaon, Chhatrapati Sambhajinagar","19.8949986","75.3953691","true"
"ChIJY97YFwCj2zsROD8VfAW92N8","Sani kata","V9WV+4P2, Naregaon - Malharpur - Warud Road, Naregaon, Chilkalthana, Chhatrapati Sambhajinagar","19.8948533","75.3943967",""
"ChIJ_09e2Iuj2zsRKr0IVrTbx68","Shrikant Petroleum HP","Shop No1, near Hp Petrol Pump, Naregaon, Chhatrapati Sambhajinagar","19.8916692","75.3844141","true"
"ChIJszGNI5uj2zsRKG6BrTp33DI","Hindustan Petroleum Corporation Limited","Gut No 27P, near HP Gas Plant, Naregaon Main Road, Chhatrapati Sambhajinagar","19.89287299999999","75.38352900000001","true"
"ChIJr3oVPgCj2zsRTa_731R7Y4c","Hindustan Petroleum Corporation Limited","Ground Floor, Naregaon Main Road, Chilkalthana, Chhatrapati Sambhajinagar","19.892411","75.379934","true"
"ChIJVWTsE9O82zsRCYF_lYm_seA","Hindustan Petroleum Corporation Limited","Gut No 64 Sundarwadi Sawangi, Bypass Road, Gopalpur","19.913113","75.39504099999999","true"
"ChIJVQpCUAC92zsRqnfjkil4ipE","Shree Ram Petroleum","W99Q+FVJ, Pisadevi","19.9187113","75.38962699999999","true"
"ChIJ_9TFfQCj2zsR-55CagpIpcE","Azad Market HP petrol pump Aurangabad.","W928+93M, आज़ाद मार्केट जाधववाड़ी, Azad Market, हर्सुल, छत्रपती संभाजीनगर","19.9009625","75.36517189999999","false"
"ChIJC8A3ujij2zsRML1kaM4DN3w","Hindustan Petroleum Corporation Limited","Ground Floor, Pisadevi Road, Jadhavwadi, Chhatrapati Sambhajinagar","19.901065","75.365135","true"
"ChIJs8lBJYG92zsR6rC6CVFWODg","Rajureshwar Bharat Petroleum& CNG","W9FQ+GW2, Rajureshwar Petrol Pump, opposite Janki lawns, Pokhri Fata, Cambridge-Sawangi bypass, Jalgaon Bypass Road, Chhatrapati Sambhajinagar","19.9237585","75.389752",""
"ChIJw_Q6SQC92zsR0JrClB1WKeg","Shiv petroleum pro, Vinayakrao Bhise","WCG4+CQ8, Palshi Road","19.9260384","75.4069612",""
"ChIJH6lCXWW92zsR_C_o6UXchLw","Prem Intarprises","Sarangi Bypass Aanjani Park, Chhatrapati Sambhajinagar","19.9245342","75.3888028",""
"ChIJ_VAvc3S92zsRHrR2nndZFeU","Siddhi Petroleum - Nayara Energy Limited","W996+RCF, Harsul, Chhatrapati Sambhajinagar","19.9194255","75.3610819",""
"ChIJ1Ur8WyG92zsRXJ6E7QlBBi0","Abhijit Ghode home","W996+VCF, Harsul, Chhatrapati Sambhajinagar","19.9196979","75.3610326",""
"ChIJLV_VrveQ2zsRgr6VfBTAIWE","Bharat Petroleum, CNG Petrol Pump -Harsh Petroleum","MALIWADA, Chhatrapati Sambhajinagar","19.9277067","75.2039185","true"
"ChIJwcqinVeQ2zsRyMBB9osZOBA","Hindustan Petroleum Corporation Limited","Survey No 12, P NH 52, beside Trishul Hotel, Dhule - Solapur Highway, Aurangabad","19.930503","75.198301","true"
"ChIJ75OONgC92zsR3Q4x2eX-MTY","Nikumbh petrol pump","X944+9PP, Ashrafpur","19.9559661","75.3568269",""
"ChIJK0zwcGq92zsRfxqQTgGNne0","NAYARA PETROL PUMP (GURUKRUPA PETROLEUM)","Harsul Toll Naka, Harsul, Chhatrapati Sambhajinagar","19.9349576","75.3533495","true"
"ChIJrySlkHO92zsR_mZc09JT7so","Hindustan Petroleum Corporation Limited","Gut No, 185, Bypass Road, Sawangi, Chhatrapati Sambhajinagar","19.948603","75.361031","true"
"ChIJI4mRon6X2zsRrzUmigx1vV0","CNG Harne Bharat Petroleum Pump","SHOP NO 1, opp. HARNE PETROL PUMP, Ekta Nagar - Jatwada Road, Harsul, Chhatrapati Sambhajinagar","19.9215107","75.3368247","true"
"ChIJOe7f1cS92zsRQKcTPdFkMz0","United Solutions","Z1, Plot no- 77, Bhagatsingh Nagar Road, Beri Bagh, Harsul, Chhatrapati Sambhajinagar","19.9170473","75.354923","true"
"ChIJpVIrBgC92zsRwjrwjluh_xY","अहिल्यादेवी होळकर प्रवेश","t-point, Mhasoba Nagar, Harsul, Chhatrapati Sambhajinagar","19.9150414","75.3550298",""
"ChIJY2iusVW92zsRUVGEvWc7emc","IndianOil","Gut No 5 & 6, Pokhari","19.944382","75.3985861","true"
"ChIJz7rjkoa-2zsRBavXyi-fJmk","Wankhede Petrol Pump","Chhatrapati Sambhajinagar","20.0119085","75.392346","true"