place_id,name,address,latitude,longitude,open_now
"ChIJld_TrbHH3jsR20ODAPDE1qI","Bharat Petroleum","Dhule - Malegaon Road, Dhule","20.8226207","74.7479219","true"
"ChIJR_x24DLH3jsRSDoQyWYFmT8","IndianOil","Laling","20.8227394","74.7487075","true"
"ChIJN9ZQOp3H3jsRqAZIQpaCUVs","IndianOil","Gut No 131/1 NH 3, Dhule Chaini, Road, Laling","20.8226801","74.749276","true"
"ChIJeVwTCwDH3jsR4FIr0BUKoiA","petrol pump hp","RQG2+98P, Dhule","20.8259588","74.75083409999999",""
"ChIJcY8umOLH3jsReTUFALL68Ns","RR petrolium sarwad","RQM4+V4R, Agra - Mumbai Highway, MIDC Avdhan, Dhule","20.83486","74.75494669999999",""
"ChIJgc0wVM3H3jsR6bpuWFVHlEM","SHRI BALAJI TRUCK TERMENUS PVT.LTD","MIDC Avdhan, Tikhi","20.8481648","74.7525299",""
"ChIJQ9czOwDH3jsRmyzyQ2KBonA","Hindustan Petroleum Corporation Limited","Gat No, MIDC, TT/01, Laling","20.8482622","74.752816","true"
"ChIJIwFJOBjH3jsRFyohIqSR4yI","IndianOil","Ground Floor, Mumbai Agra Highway NH 3, MIDC Avdhan, Borvihir","20.838271","74.756497","true"
"ChIJZybnfNzH3jsRUyA493tpV3A","Hindustan Petroleum Corporation Limited","Ground Floor, NH 3, Agra - Mumbai Highway, Laling","20.8423624","74.7598546","true"
"ChIJsxPnjm3P3jsRF79tvtANysU","Dhruv Auto Services","NH 3, Agra - Mumbai Highway, MIDC Avdhan, Dhule","20.8529151","74.7641696",""
"ChIJnR-BpD3G3jsRZ4awJFrvUTs","IndianOil","Ground Floor, Agra - Mumbai Highway, Borvihir, Awadhan","20.853765","74.765434","true"
"ChIJnaIlnT3G3jsRITFwD8jANOg","Bharat Petroleum, Petrol Pump -Bp-Avdhan (Dhule)","AWDHAN COCO, NH3, Dhule","20.85506329999999","74.7658529","true"
"ChIJvYz5sBfG3jsRsll0ApErhE0","Hindustan Petroleum Corporation Limited","Ground Floor, NH 3, Agra - Mumbai Highway, MIDC Avdhan, Dhule","20.857861","74.766481","true"
"ChIJ6Z2c8YbH3jsRz7geyoWnOwc","IndianOil","Gut No 26, Tikhi","20.814513","74.7779905","true"
"ChIJdRW-k6TF3jsReJ1bNxjTwpk","IndianOil","Survey No 35, 3/A, Chaini Road, Chitod, Dhule","20.883994","74.753385","true"
"ChIJNT56OTPF3jsRJj49WF8-6Jk","Hindustan Petroleum Corporation Limited","Gat No 75/2A/1 NH 53, Surat - Kolkata Highway, Dhule","20.896404","74.7418216","true"
"ChIJfW2UMvHF3jsRzTzix0tL-qA","Hindustan Petroleum Corporation Limited","Survey No 3288/A, Sabir Nagar, near Shivaji Statue, 635, 1st Lane, Dhule","20.8951305","74.7745322","true"
"ChIJAznLmo7I3jsR6VyXcJWZ0SI","IndianOil & Aditya Auto Service","Gad-Utar, Dhule, NH-211, Solapur Dhule Road, Dhule, Dhule","20.84344","74.79744699999999","true"
"ChIJbX04bSrJ3jsRRzr75Y5hyHs","Bharat Petroleum","29/2/2, Dhule - Chalisgaon Road, Highway, Pimpri","20.8596852","74.78751","true"
"ChIJwRVENirJ3jsRXDGDgsw0s7I","Hindustan Petroleum Corporation Limited","Plot No 21 & 22, No 24/1, 26 to 28 & 39, NH 52, Agra - Mumbai Highway, Mohadi Upnagar, Dhule","20.8754524","74.78173749999999","true"
"ChIJU1G0V5TJ3jsR6WjUj2qLk7U","IndianOil","Gut No 35, Plot No, 13 & 14, Mohadi Road, Arvi","20.876893","74.782394","true"
"ChIJ3QGnIyvJ3jsRDGUwPheL9dc","IndianOil","Gut No 51, 1 Saindane, Saunda, Dhule","20.8628924","74.82026119999999","true"
"ChIJm7lkYq3H3jsRmyTWNwlDaZU","Deepaarti, Bharat Petroleum","Mohadi Road, Agrawal Nagar, Dhule","20.87723189999999","74.7735953","true"
"ChIJN5nColLP3jsRjn6YLI_zTwE","IndianOil","Ground Floor, NH no, 3, Vadjai Rd Crossing, Parola Road, Dhule","20.8826912","74.7914472","true"
"ChIJE5UKaf3F3jsRYkx8Q3aQ7ig","Hindustan Petroleum Corporation Limited","Ground Floor, Chalisgaon Road, Dhule","20.8891301","74.77833199999999","true"
"ChIJB9DwNWrP3jsR_6ezkyRecDw","CBS Energy","VQQW+953, opp of DDRC Hotel, National Highway-3, Dhule","20.8883924","74.7954348","true"
"ChIJ2bCFiPXF3jsRP1mhBBhZN2E","Hindustan Petroleum Corporation Limited","Survey No 371, Plot No 82/1 & 2, 80 Feet Road, Ansar Nagar, Dhule","20.8921247","74.7772471","true"
"ChIJ4VjnWADF3jsRETVBcIPldtE","Indian Oil Jai Balaji Petroleum","VQV6+F39, Sambhappa Colony, Dhule","20.8935232","74.7604029",""
"ChIJe7KEB1vF3jsRvTyOVhGiNdw","Bharat Petroleum","SHIVTIRTH, NR SHIVAJI CHO, Dhule","20.8966527","74.7744161","true"
"ChIJ12EEC_jP3jsRrf96D4J-bOQ","BALAJI LPG Auto Gas (AEGIS)","Agra - Mumbai Highway, Dhule","20.8961529","74.7985502",""
"ChIJCWhdH0vP3jsR42jwfExjwzo","B P petrol pump","VQXP+JCQ, Pawan Nagar, Dhule","20.8990927","74.78611579999999","false"
"ChIJccYhmu3F3jsR8oZn3d7xrzI","Bharat Petroleum","VQX9+G49, Navnath Nager, Dhule","20.8987935","74.7678526","true"
"ChIJQ9aJPvfF3jsRJ1MwBJ4W3a8","IndianOil","santoshimata chauk, Near Gulmohor government rest House, Dhule","20.900405","74.7686626","true"
"ChIJB2con1XJ3jsRPoIC2MzLQT8","Bharat Petroleum","Fagune, NH-6, Dhule Nagpur Kolkata Highway, Mumbai Highway, Dhule","20.885494","74.872816","true"
"ChIJOVLBl1TJ3jsRbcL4nzZfoT0","Hindustan Petroleum Corporation Limited","Ground Floor, NH 3, Ajang","20.8867457","74.86907099999999","true"
"ChIJW_sPpHifnzkRBfCVrwEZi_U","IndianOil","Gut No 100 NH 6, Kalkheda, Highway, Jalgaon","20.888049","74.85965879999999","true"
"ChIJRVPoVzrL3jsRSm-hIXdNQqE","NEW BAFNA AUTO SERVICE","NH6, Ajang","20.8861909","74.87412069999999","true"
"ChIJMyfSpP3P3jsRPsJeHWHtgI8","Hindustan Petroleum Corporation Limited","GAT No 153/2, SUR No 83, NH 6, Dhule Nagpur Road, Fagane","20.889699","74.8421824","true"
"ChIJye97QNLO3jsRJD8x8fovmTs","Petrol pump","VRQQ+PJ7, Babhulwadi Road, Fagane","20.8898581","74.83739729999999",""
"ChIJq0_Grs3O3jsRC6omJRtiC1E","HP PETROL PUMP - K M CHHAJED DHULE","Fagne NH-6, Mumbai - Nagpur Highway","20.8904264","74.8355212","true"
"ChIJqw1HLADL3jsRCu-fU74vio8","Yuria pamp adblu","VVJX+7C3, Ajang","20.8806267","74.8985319",""
"ChIJn5_fMkW33jsRQtwAFNWVxNA","Hindustan Petroleum Corporation Limited","Ground Floor, NH 52, Junwane","20.764999","74.83885500000001","true"
"ChIJlQbRUdbO3jsRi67X1VHjiHY","IndianOil","Ground Floor, Balapur","20.8930097","74.829655","true"
"ChIJJYhhVmbXwjsR1sLCfJQwHzk","IndianOil","Survey No 37, Plot No 6, Road, Kshire Colony, Bhokar","20.9180666","74.76836829999999","true"
"ChIJveVKS4nF3jsRkNUPHHUuDSM","IndianOil","Ground Floor, Deopur, Dhule","20.910058","74.7746576","true"
"ChIJA0y1ikTF3jsRY5x3NpfwPKk","IndianOil","NH 6, Morane, Dhule","20.9021339","74.7201951","true"
"ChIJyfYcZnbE3jsRvgeZ0iUY8Aw","IndianOil","Ground Floor, Ashtane, Kundane","20.9022234","74.6890839","true"
"ChIJk4rpezHL3jsRXp-f_TNd-yo","IndianOil","Gut No 165/3 NH 6, near Stone 528, to, 533 Km, Ajang","20.9012957","74.6865923","true"
"ChIJM5zEAbfF3jsRRiWYVba9sRQ","Bharat Petroleum (BPCL)","WP3V+82, 6, National Highway, Vidhya Vihar Colony, Mahindale","20.9033125","74.74256249999999","true"
"ChIJW57GpnvF3jsRnqaub2kmtZI","Hindustan Petroleum Corporation Limited","GAT NO 36/2, Gondur Airport Road, Bhokar","20.9333438","74.7453946","true"
"ChIJ-THJkoTF3jsRdVM_2A8N7Og","Riya Bharat Petroleum","WQ56+WJQ, Jai Santoshi Mata Colony, Dhule","20.9098263","74.7616199","true"
"ChIJs9cOFx3P3jsRrTdQ3DiBzCI","IndianOil","Gut No 575/2B, Nimdal, Vidya Nagari","20.9465315","74.7076098","true"
"ChIJ-b8o1p_F3jsR5YDKxxDJKBs","IndianOil","Survey No 137, 5/6/7, Babhulvadi, Walwadi","20.92501799999999","74.759613","true"
"ChIJNUyjx7LF3jsRuf50PmeNros","Hindustan Petroleum Corporation Limited","No 30/4/1, Survey, Gondur Airport Road, Deopur, Walwadi","20.925891","74.7679161","true"
"ChIJl5r4KArD3jsRZZej8_pEBMY","BHARADWAJ PETROLEUM ( Bharat Petroleum Corp.Ltd.) & CNG Station","National Highway 53, Aanandkhede, Surat","20.90849159999999","74.65221009999999",""
"ChIJtykZAbDF3jsRrr8GymryWfI","Hindustan Petroleum Corporation Limited","B/1, Plot no, Gat No 27/2/A, 1 ,27/2, 2, Deopur, Dhule","20.916189","74.7765103","true"
"ChIJKa5QO4vF3jsRz8GK7ilxY7U","Hindustan Petroleum Corporation Limited","Plot No 37 & 38, Deopur, Dhule","20.913361","74.78054100000001","true"
"ChIJb0-D-R3F3jsRYNpG6m46zE4","A one servo petroleum","12, Shrirang Colony, Deopur, Dhule","20.92779449999999","74.77641559999999","true"
"ChIJk54nXADF3jsRa4itcShhcOA","Go Gas Auto LPG Pump Deopur","Nafees Mansion, Agra Road, Sharda Nagar, Bhoi Society, Dhule","20.9277992","74.7768482","true"
"ChIJ4V_p9vrP3jsR8nPKEPLYohM","IndianOil","Survey No 4665, Plot No 2/3, Chaini Road, Dhule","20.902745","74.78392199999999","true"
"ChIJ0xCjThDD3jsRDya1Hw5O0Wg","JIO bp petrol pump (Reliance)","&, Gut no 244, at post - Anand Khede, Tal, Dist, Anand","20.9111675","74.64078889999999","true"
"ChIJMaaZh17P3jsRhT4iuptdaQI","Zyada Gas Auto LPG Pump","Dongre Maharaj Nagar, Parola Road, Dhule","20.9024498","74.7883317","true"
"ChIJB_ew5TrP3jsRUNhKOhWsamY","Bharat Petroleum","BALAPUR, 3KM FROM NH3 ON, Dhule","20.897453","74.8140209","true"
"ChIJAbx6WNjP3jsRbxLt_M59O5A","Badgujar Petroleum HP","opposite Datta Factory, Plot no. 18/3 1 & 2, opposite Datta Factory, near cotton market, Parola Road, Dhule","20.9016373","74.7922092","true"
"ChIJYRVlJrXP3jsRJMNq5tyLtrM","Hindustan Petroleum Corporation Limited","Ground Floor, Drivershan Road, Deopur, Dhule","20.9308285","74.7852869","true"
"ChIJVQb7ZY7F3jsR6YdooR61euk","Ashish Petroleum","NH 03, Nagaon","20.9561183","74.779918","true"
"ChIJsSzcsVjF3jsRYDJ5WJVVNdQ","IndianOil","Gut No 312/B Dhule, Chaini Road, Nagaon","20.956352","74.779736","true"
"ChIJN8UNiP7P3jsRePD_8GYj2NE","HP Petrol Pump","Nagaon Hpcl Outlet NH-3, Aurangabad","20.9683894","74.7848374","true"
"ChIJH63OemTN3jsRDnJ9vUfsEJw","Bharat Petroleum Petrol Pump , SUPREME PETRO SERVICES","AT POST NAVALNAGARDHULE, Amalner Road, Dhule","20.93791","74.896143","true"
"ChIJj7DVntTL3jsRslRngQhtSxg","NAYARA SHRIRAM FILLING CENTRE","NATIONAL HIGHWAY, NO 06, Nandale Road, فاٹ, Kasvihir","20.8758126","74.9152206","true"
"ChIJ_5Zzap_d3jsReuE-s1aRukQ","Ramdoot petroleum","Taluk sakri, NH-6, bod ki khadi, Dhule","20.9858385","74.66346399999999",""
"ChIJD__36wbQ3jsRWtXZUt25NRU","Bharat Petroleum & Rohit Automobile and CNG Pump","420/1A, NH3, Mumbai agra national highway,, Nagaon, Dhule","20.9812048","74.78441939999999","true"
"ChIJS0gfjgbQ3jsRS9eiU6joqLo","Hindustan Petroleum Corporation Limited","Gat No 8, 1/2 Old NH 3, Agra - Mumbai Highway, Nagaon","20.9815389","74.7853294","true"
"ChIJJfymRXTQ3jsRGdmmc06A7mM","Hindustan Petroleum Corporation Limited","Gat No 302, 1 & 2, Agra - Mumbai Highway, Deobhane","21.0006926","74.7840776","true"
"ChIJx5iLo1nR3jsRRIgVGESWuIs","Hindustan Petroleum Corporation Limited","Gat No 191/1/A, NH 3, Agra - Mumbai Highway, Deobhane","21.0129819","74.7840025","true"
"ChIJsYGpf9nR3jsRj-4r8WWbDhg","IndianOil","Dhule","20.9845281","74.8420996","true"
"ChIJ8dbNznfR3jsRg37R6JGOz0E","Shree Shyam Petroleum (Nayara Energy)","Road, Deobhane","21.0276308","74.7927636","true"
"ChIJQWu_yUTR3jsRwnrf8puHTng","Bharat Petroleum, Petrol Pump -R.R.Petroleum","Sarwad","21.036068","74.785223","true"