place_id,name,address,latitude,longitude,open_now
"ChIJrbxydJVT2jsRdrt9GCmY0rw","Mahalaxmi Petroleum","Nagpur - Aurangabad - Mumbai Highway, Shelgaon","19.8725541","75.780542",""
"ChIJF6VcsklX2jsR4oTHlVdZPEw","Madhur Auto Services","Madhur Auto Services, near Hotel Nivant, Aurangabad Road, Jalna","19.8497084","75.8785668","true"
"ChIJl4uslmxX2jsRUvIlw-1yP3Q","Bharat Petroleum, Petrol Pump -Tridhara Auto Service","AMBAD, JALNA -SHOLAPUR, RD, Jalna","19.7858001","75.85597779999999","true"
"ChIJ-e_JQw1X2jsR2gLKXAJhLa4","Hindustan Petroleum Corporation Limited","Ground Floor, near Ambad Choufuli, Ambad Road, Indewadi, Jalna","19.8099536","75.8699306","true"
"ChIJ3wvikFI3wTsR0PLkhy8Qf2c","Jio-bp","Gut No 214, SH 6, Jalna - Aurangabad Road, Nagewadi, Jalna","19.8606123","75.842894","true"
"ChIJHU3AOyxR2jsRibYHXaV8iyI","Hindustan Petroleum Corporation Limited","Gut No 195 Nagewadi, opposite MIDC, Jalna","19.8599593","75.8456497","true"
"ChIJ1woHRQBR2jsRdrvuV0yKStU","HP petrol pump","VR9C+Q54, National Highway 753A, Pirkalyan","19.869381","75.8204477",""
"ChIJ_5PopzJR2jsRda3tOMLehfI","Hindustan Petroleum Corporation Limited","Gat No 299, P Nagewadi, Dawalwadi","19.869377","75.820611","true"
"ChIJb0-LAlxR2jsRhNWFwv1vTtA","Mauli Tyers","VRC7+64M, Jalna","19.8705839","75.8128081",""
"ChIJJ33lWVdX2jsRAz_7ct0Fsww","Balaji Kirana","Balaji, Jalna","19.8513239","75.85933310000001",""
"ChIJb8AG3ohX2jsR_54jfqVBM1w","Bharat Petroleum, Petrol Pump -Tirupati Auto Service","DAVALWADI, JALNA BADNAPUR, Jalna","19.8707923","75.8070752","true"
"ChIJuX_QoF5R2jsR-4iklsWpoAg","IndianOil","Ground Floor, Dawalwadi","19.8713029","75.81250610000001","true"
"ChIJO3RfRJBX2jsRjWRmsmFY3s0","Bharat Petroleum Petrol Pump , JAI BHARAT","Ambad Road, Jalna","19.8187177","75.8749589","true"
"ChIJXxH-xeZT2jsRrbALqG8LumY","Hindustan Petroleum Corporation Limited","Ground Floor, Jalna - Aurangabad Road, MIDC, Dawalwadi","19.871455","75.800398","true"
"ChIJ0yGmcj5X2jsRFtdayXErsZc","Vivek Automobiles - IOCL Petrol Pump","Gut no.166 , At post Wadigodri Taluqa, Ambad Road, Jalna","19.8206195","75.87659839999999","true"
"ChIJF12taehT2jsR-MCNE1JbKnA","A. P. Patel & Company (Diesel Pump)","VQCV+WJC, Nagpur - Aurangabad - Mumbai Highway, Dawalwadi","19.8723183","75.7940126",""
"ChIJfR8ehJJX2jsR8toQeXzdbjY","Hindustan Petroleum Corporation Limited","Ground Floor, near Vishal Corner, Aurangabad Road, Jalna","19.8486369","75.8683969","true"
"ChIJQ3kUWGxX2jsRQUyE5R5FuQ8","Hindustan Petroleum Corporation Limited","Gut No 482, Udan Bridge Road, Ambad Road, Choufuly, Samarth Nagar, Jalna","19.8267295","75.8797467","true"
"ChIJcdUpunFX2jsRNvTXOd1l_XM","Bharat Petroleum, Petrol Pump -Deepali Multi Services","beside merit hotel, Aurangabad","19.84974429999999","75.8707117","true"
"ChIJb2AcVTZX2jsRO4kxObfZm2A","Hindustan Petroleum Corporation Limited","Ground Floor, Jalna - Aurangabad Road, Jalna","19.8489064","75.8739732","true"
"ChIJ760yNwBX2jsRdRk-5enaQao","ADHOC SHREE SAI PETROLIUM ⛽","RVMJ+VM6, Jalna","19.8346659","75.88163449999999",""
"ChIJLxbBjxBX2jsRxzLb0iV37gc","Bharat Petroleum, Petrol Pump -Laxmichand Bechardas","Jalna Road, Jai Bhawani Nagar, Jalna","19.8532488","75.87570199999999","true"
"ChIJ2dS-WgBR2jsRUlsTvI5vJQ8","TR ekhande Bharat Petroleum","VRJQ+3C, Nidhona","19.880236","75.8385922","true"
"ChIJjyuaeQhX2jsRKTMFxfqAWGw","Bharat Petroleum Petrol Pump , HIND PETROLEUM ADHOC","Railway Station Road, FLYOVER, Jalna","19.836191","75.884864","true"
"ChIJQd2EAE9X2jsR1K0867N1fHw","HP Petrol Pump Totala Auto","SUR NO 103/1 Jalna, Aurangabad Jalna Road, Aurangabad","19.84942","75.88533","true"
"ChIJI3XZH_5Z2jsRCqabgM2tAGY","IndianOil","CTS No 2045, Sheet No, opposite Yuvraj Metal, 9/8, Devalgaon Rd, Jalna","19.855013","75.900032","true"
"ChIJE3fLjlVX2jsRBhc5_hPO080","Bharat Petroleum Petrol Pump","VV4X+7Q5, Devalgaon Raja Road, Gyatri Nagar, Jalna","19.8556417","75.8994857",""
"ChIJ6VhAzL5Z2jsRbLno21EEeWE","Bharat Petroleum - Jaylaxmi Petroleum","Jalna","19.8287604","75.905254","true"
"ChIJEw7sZFtX2jsR-UbnwyetaQE","Nayara Petrol Pump (Pitty)","RVRR+P4G, Mastgarh, Laxminarayanpura, Jalna","19.841815","75.89031299999999","false"
"ChIJxZziAS5X2jsROyXw04tL-y8","LPG Gas Pump","RVRR+XJ3, Mastgarh, Jalna","19.8423841","75.89155339999999",""
"ChIJQ9uusl5X2jsREH27SX_MeE0","Hindustan Petroleum Corporation Limited","PB No 49, Railway Station Road, Mastgarh, Jalna","19.841651","75.894701","true"
"ChIJp2s9m2tX2jsRu5Jqz5A9Huk","Yashvanti MRF Showroom","Ram Nagar, Jalna","19.8428939","75.90059339999999","true"
"ChIJW82EtFlX2jsRAr-3BpstDf0","Hindustan Petroleum Corporation Limited","Ground Floor, Sarojini Devi Road, Jalna","19.845901","75.89662009999999","true"
"ChIJP4BLtkVX2jsRms4xurSBKNE","M.W.MISHRIKOTKAR BHARAT PETROLEUM PETROL PUMP","Jalna Road, DEULGAONRAJA, DeulgaonRaja","19.8485384","75.88940939999999","true"
"ChIJIzIEhidX2jsRH055bDdl96I","Zyada Gas Auto Lpg Pump","near bus stand, Aurangabad road Lakkadcot, Jalna","19.8481642","75.8918456","true"
"ChIJA6NFfj1Y2jsRwD6wYeIQOi8","भारत पंटोलियम","India","19.7911726","75.9141657",""
"ChIJA-FPM1tX2jsREiITj5iZ0oE","Indian Auto Gas LPG Bhagwati Auto LPG","Nivant Hotel, Millat Nagar, Bhawani Nagar, Jalna","19.8496689","75.879454",""
"ChIJXXbdT1dX2jsRfY9bv2Yut0E","BPCL Petrol Pump","RVXV+8V8, Gyatri Nagar, JALNA NR ST BUS STAND, Jalna","19.8482757","75.89469059999999","true"
"ChIJNzmQ_ldX2jsRSemnDSnbbTA","KEN STAR","India","19.8482213","75.89963589999999",""
"ChIJX-0L5Z1X2jsRKVX7CvT1ahI","PRUTHVIRAJ PETROLEUM","Shop No 01, near Fine Staty Hotel D, Rana Road, Jalna","19.8512236","75.8987867",""
"ChIJF5DzI-9Z2jsRtE-eoWHVkDM","IndianOil","Gut No 276, Ambika Market, 1/1/P, Jalna","19.844043","75.91393699999999","true"
"ChIJW6P3UdRR2jsRJUoSsxlLBDQ","Shanti Gas Agency office","Maheshwari Township, Jalna","19.8584082","75.88160979999999",""
"ChIJGehB1StZ2jsRSmc17v7NTew","NAVKAR FUELLING STATION","Devalgaon Raja Road, Jalna","19.8537359","75.9048416","true"
"ChIJdQGgTFZZ2jsRazoOhjdcV0A","Bharat Petroleum, Petrol Pump -Inderchandra J. Tawarawala","Sindkhed Raja Road, Jalna","19.858643","75.9018066","true"
"ChIJMb-XeABR2jsRyygxdf-F4xk","Shri Sai Petroleum","135, New Mondha, Jalna","19.8681812","75.8845991",""
"ChIJbyy7bbdQ2jsRseiYpVxYI9Y","Essar petrol Pump","Maheshwari Twp, Jalna, SH-178, Nagpur Aurangabad Mumbai Highway, Jalana, Jalana","19.86842","75.880387",""
"ChIJGwbf5alQ2jsRHCYf6HL8NzM","Bianco","India","19.86642399999999","75.8992446",""
"ChIJk0UO3p5Z2jsRAgx4aq5pyV0","IndianOil","No 6A, Ambika Market, near Jalna, Nanded Road, Deomurti, Jalna","19.84290379999999","75.9419854","true"
"ChIJq-yECIZZ2jsRKa1DOyvkrvE","IndianOil","Gut No 160, Part Ambika Market, Wadgaon","19.7864628","75.9803751","true"
"ChIJoSU0PQBf2jsR8AmidlgtdA0","Hindustan Petroleum Corporation Limited","Ground Floor, NH 752/I, Sindhi Kalegaon","19.832695","75.994058","true"
"ChIJ8SvwHkxb2jsRrosHvcej6Vg","Nayara Petroliums","VW9W+9XW, Nava road, Deomurti, Jalna","19.8684819","75.9474424",""
"ChIJ_7pK-nxb2jsR-gwa5eGhy6A","Paroma petroleums","VW9X+G4G, Navha Road, Deomurti, Jalna","19.868806","75.9478223",""
"ChIJQ-dageBe2jsRHQx7M_45D2E","Chhatrapati Petroleum","Gate No, 171, Jalna - Jintur Road, Sindhi Kalegaon","19.8255282","76.01628769999999","true"
"ChIJ15rhQ-Be2jsRnHDepRDj63w","Hind Petroleum, BPCL","Jalna","19.82414259999999","76.0177145","true"
"ChIJURwKP1pf2jsRgb2gkJlJGls","Hindustan Petroleum Corporation Limited","Ground Floor, NH 752/I, Jalna - Jintur Road, Ramnagar","19.81911699999999","76.029335","true"
"ChIJsRrM83pT2jsR7L75tpAfQkw","kamalakar kale","WQ7V+GCQ, Najik Pangri","19.9138443","75.7936053",""
"ChIJiTzCWIdT2jsRviRBPyLmERs","मातोश्री गॅस एजन्सी मात्रेवाडी","VQ84+6V6, Matarewadi","19.865547","75.7571432",""
"ChIJ497YNZVR2jsRoB4z-AZo1s4","Suraj Petroleum","Gut No. 57, Ghanewadi, NH-753 H, Jalna - Bhokardan Road, Jalna","19.9077553","75.87226509999999","true"
"ChIJx4Fc7ZJQ2jsRkr9b9adTxLQ","IndianOil","Gut No 81, Hissa No 6, Jalna - Bhokardan Road, Ambika Market, Gundewadi","19.891327","75.878682","true"
"ChIJq40MeyVT2jsRhgJw_L1cB2A","Hindustan Petroleum Corporation Limited","Aurangabad Division, Gut No 687 SH 6, Shelgaon, Matrewadi, Badnapur","19.8683193","75.7475245","true"
"ChIJ8UZjcm1T2jsRDSiylRnzWrI","Nirankari Petrol Pump","GUT NO. 687 AT Matrewadi State Highway No6,post Shelgaon TAH Badnapur, Aurangabad","19.8681707","75.74755449999999","true"
"ChIJSZaiEQBR2jsRxdghKAEOZ7s","HP PETROLIUM ADHOC SHREE SAI","near Hindu Hrudaysamrat Balasaheb Thackeray Maharashtra Samruddhi Mahamarg, No 364, Corridor, Gundewadi","19.8886106","75.8932396","true"
"ChIJYXtOPgBR2jsRBDEYdX0LfAk","Refreshment services on Samruddhi Highway","VVQV+C8Q, Jalna","19.8885914","75.893372","true"
"ChIJQ2_bR71b2jsRJVuqGuo5aR8","Hindustan Petroleum Corporation Limited","Gut No 204, National Highway 753A, Panshendra, Jalna","19.881781","75.90702399999999","true"
"ChIJbxHn9tZb2jsRvrMyL6eepzc","IndianOil","Survey No 83, Devalgaon Raja Road, Jalna","19.8865844","75.9082993","true"
"ChIJ3fnnGR9d2jsRY3QNurP6CbI","Taj petrol pump","VXRV+74C, Borkhedi","19.89068869999999","75.9927683","true"
"ChIJFXDP24td2jsRsZFHm0zQ9kU","Bharat Petroleum, MSRDC Fueling Station","WX9V+8M8, Kadwanchi","19.9182788","75.9941973","true"
"ChIJh-Xdjk5b2jsRLCF28LtnV8k","Adblue D.E.F","WXW3+F9H, Jalna","19.9461903","75.95347389999999",""
"ChIJt_Es0jRb2jsRTGCyZoRG-eY","IndianOil","Gut No 1011, Ambika Market, Waghrul","19.9571341","75.969544","true"
"ChIJz-YTm05F2jsRBs7Q--KwoCE","Aai petroleum","XXCR+QC, Gokulnagar","19.9719435","75.9910183","true"