place_id,name,address,latitude,longitude,open_now
"ChIJ7eaPJ8uqwTsRdixhn0m5iaw","HPCL Petrol Pump (INGAWALE )","SURVEY No. 255/1B, PLOT No.1, BALINGA, PHULEWADI RING ROAD, KARVEER, PHULEWADI","16.6741149","74.1914738","true"
"ChIJN7TkN_5UwDsREYZGOcSGgCw","NAYARA parwati petrolium","India","16.6292992","74.1695302",""
"ChIJhYDaYLhUwDsRWrR3Cx-5hW0","Hindustan Petroleum Corporation Limited","Gat No 775, Road, Karveer, Balinge","16.6558576","74.14649159999999","true"
"ChIJdcOKWRVUwDsRjeEFcbpsTsc","Sadoli Petrol Pump","Near, State Hwy, Phondaghat, Kolhapur","16.6001683","74.1474842","true"
"ChIJ0YbGODpTwDsRuo761lPddeU","IndianOil","Gat No 946 Mdr 38, Are, Beed","16.642708","74.1161382","true"
"ChIJTbTbyLFUwDsR0MSN9OY1rso","HP PETROL PUMP - MAHALAXMI PETROLEUM","Hpcl Dealer, GAT. NO. 775, AT Mouje Koge, Tehsil Karveer, Vasco","16.660995","74.1369","true"
"ChIJU5Q4yRtVwDsRs3JGwoYUg-o","Hindustan Petroleum Corporation Limited","Survey No 248, Kolhapur-Radhanagari Road, Karvir, Washi","16.6426442","74.1795125","true"
"ChIJB242m4hTwDsRNDuPoxgcyMk","Anand Petroleum","Kolhapur","16.6260279","74.11021439999999","true"
"ChIJ3yePSKZVwDsRQMYZ0i6FlTg","Petrol pump","Ground Floor, Radhanagari Road, Barve, Haldi","16.5955338","74.1542951","true"
"ChIJOSoYwjxUwDsRloDkpKIYJz4","IndianOil","Ground Floor, Are, Shiroli Dumala","16.59148399999999","74.151558","true"
"ChIJM9lq9R9VwDsRVyByfL87g94","CHAKRESHWAR INDANE","J52V+X4F, Kolhapur","16.60244609999999","74.192791",""
"ChIJh-bKFOdVwDsRXKISEY8_EGs","IndianOil","Gat No 70/A, Hanbarwadi Rd, Paiki, Kolhapur","16.6134913","74.2041539","true"
"ChIJAfyunGhVwDsR3x-oaaPJPxk","Bharat Petroleum, Petrol Pump -Kalamba Petroleum","OCTORAI NAKA KALAMBA, Kolhapur","16.6483028","74.2054222","true"
"ChIJ3VR5qElVwDsRxjmrDB5ctzo","Ratna Petroleum BPCL Pump","Near Auto LPG Station, 855, Radhanagari Road, New Vashi Naka, C Ward, Kolhapur","16.6657224","74.19716749999999","true"
"ChIJIwjg9F-rwTsRlcLM1-vaoZ4","Hindustan Petroleum Corporation Limited","Survey No 255/1B, Plot No N, Phulewadi, Balinge","16.6741642","74.1917754","true"
"ChIJweh6oqxWwDsR-LxERUllLJ0","Nayara Petroleum Kurukali","H4CG+45M, Kolhapur","16.5703394","74.1254251","true"
"ChIJ7acYKgCrwTsRxcP1yPHd91s","BPCL electric charging station","Maharashtra State Highway 115, Kolhapur - Gaganbavda - kankavli Road, Kolhapur","16.6948706","74.1493608",""
"ChIJDdn_BAirwTsR4_mq4249K2A","BPCL Sonhira Petroleum","Kolhapur","16.694873","74.14956099999999","true"
"ChIJtSV-ygarwTsRQjCRQE_kHzk","Reliance Petroleum","Survey No 22/4/A/P Gaganbawada Road, Karveer, Balinge","16.6894629","74.1741717","true"
"ChIJmVfK-O6twTsR3hBY9Aag-VU","IndianOil","Ground Floor, Kuditre","16.6897926","74.1174492","true"
"ChIJp8_J8BWtwTsRLnc6qM6dHIY","IndianOil","Ground Floor Karveer, Mdr Kuditre, Amashi","16.68956","74.11619","true"
"ChIJ36WKupirwTsRqrAxngdeAi0","Essar petrol pump tuljabhavani petroleum","M4XM+388, Koparde","16.6976719","74.1333181",""
"ChIJdTbXSNyqwTsRc-3FGRcN8ZM","Nayara Petrol & Diesel Pump","M5RH+PF7, State Highway 115, New Nagadev Wadi","16.691777","74.178682","true"
"ChIJEcld1KaswTsRB_6RPNelN3k","HP PETROL PUMP - RENUKA AUTOMOBILES","Hpcl Dealers A/P.- Koparde, SH-210, TAH.- Karveer, Vasco","16.6981376","74.12962","true"
"ChIJMxEsm20AwTsRrr3wElPYXio","Bharat Petroleum, Petrol Pump -Laxmi Petrol Stores","Kalamba Ring Road, Salokhe Nagar, Kolhapur","16.6656531","74.2099994","true"
"ChIJ_eG0dg-rwTsRP8aHRWrySqY","Hindustan Petroleum Corporation Limited","Gat No 640, Kolhapur Gaganbawda Road SH 177, Kale, Karvir, Koparde","16.6985153","74.12967569999999","true"
"ChIJwbEv4dyqwTsRx5ngBzr1fEM","Hindustan Petroleum Corporation Limited","Survey No 45/46, Kolhapur Gaganbavda Rd, SH 177, Karvir, Balinge","16.692315","74.180965","true"
"ChIJqXVsBDP-wDsRHpAHcrEq6uM","IndianOil","Ground Floor, near Shivaji University, NH 4, Karveer, Ujalaiwadi, Kolhapur","16.6643942","74.2672005","true"
"ChIJW8lF7ryqwTsR0gMVr9K6_SY","Gangaves Bharat Petrol Pump, Phulewadi, Kolhapur.","1211, Maharashtra State Highway 115, Phulewadi, Kolhapur","16.6933442","74.204111","true"
"ChIJ4-5yxMOqwTsRuQxvd7gr7cM","IndianOil","Ground Floor, Gur Market Yard, Balinge","16.692184","74.18757599999999","true"
"ChIJVYlbAJL-wDsROS7sPLmh_AE","Hindustan Petroleum Corporation Limited","Ground Floor, Karvir, NH 48, Pune Bangalore Road, Kaneriwadi","16.6328404","74.28964479999999","true"
"ChIJbSvnIgD_wDsRiuxedttJrwg","Chakreshwar indian gas agency near kalamba jel","Rushikesh Park, Tal, Panchsheel Colony, Pachgaon, Karveer, Kolhapur","16.6599363","74.2235154",""
"ChIJ43c0LAD_wDsR-nZ2bfzdI-0","Charching End Point","M66W+92Q, Ratnappa Kumbhar Nagar, Kolhapur","16.6609612","74.2450965",""
"ChIJLfiC54arwTsR3uwAh47onMU","Go Gas LPG pump","M6C8+FVR, Tapowan, Kolhapur","16.6712317","74.2171462","true"
"ChIJn7Nwvab_wDsRuT2_eCVXB-I","Hindustan Petroleum Corporation Limited","S No 10/06/02, Karveer, Kandalgaon","16.653799","74.253781","true"
"ChIJR_4vvcH_wDsRyEBXzKCInBc","Nayara Petrol Pump Vijayshree Petroleum","M67W+XM9, near Nayara Energy Petrol Pump, Morewadi Road, Rajendra Nagar, Kolhapur","16.6649028","74.246617","true"
"ChIJkzU6GAEAwTsR12wb8b9BL2A","IndianOil","No 712/A, F Ward A, Karveer, Sambhaji Nagar, Kolhapur","16.679726","74.2213664","true"
"ChIJjycJDamqwTsRaIwTGetl7LA","Hindustan Petroleum Corporation Limited","Ward A, SH 121, near Radhanagari Road, RS No 722/4, Karvir, Deokar Panand, Kolhapur","16.682371","74.21439099999999","true"
"ChIJiZYnikr-wDsRmp_iAj-9i2A","IndianOil","Ground Floor, NH 4, Gokul Shirgaon","16.6551056","74.26781679999999","true"
"ChIJ02rnERsAwTsRckxlEsLxYBw","Green India Gasoline Gas Pump","Shree Renuka Temple, Kolhapur., Datta Colony, Kolhapur","16.6829209","74.233138",""
"ChIJpdGMgR8BwTsR--r63AWgG74","IndianOil","Ground Floor, Jawahar Nagar, Kolhapur","16.682961","74.233972","true"
"ChIJObhEZkn-wDsRVdcLyvMOpUg","Konduskar Auto Centre(BPCL) (Diesel & EV )","NH4, PB Road, Gokul Shirgaon","16.65237","74.27103199999999","true"
"ChIJrSXQG0_-wDsROHr-bdfTAVs","Hindustan Petroleum Corporation Limited","Gat No 217, Pune Bangalore Road, National Highway 48, Karvir, Gokul Shirgaon","16.649191","74.274183","true"
"ChIJV_dJF1r-wDsRDZPpqyby_i8","IndianOil","P2 MIDC, Pune, Bengaluru - Mumbai Highway, Gokul Shirgaon","16.6407413","74.277664","true"
"ChIJj4U0yFf_wDsR2rsnGtXu_XM","PATIL AUTOMOBILE DEF REFILING STATIO (TATA)N","Besides Pravin Petrol Pump, near by National Highway, No 4, Ujalaiwadi, Kolhapur","16.6641957","74.2674021","true"
"ChIJwXmpEBEAwTsR575DCf6N7jc","IndianOil","Ground Floor, 25, Shivaji Udyam Nagar, Kolhapur","16.691399","74.23376499999999","true"
"ChIJC8elfvX-wDsRCCg9vQ-cLzQ","Anand Petrol/Diesel Pump","J7MP+Q8J, Madras Bombay Trunk Road, Kolhapur","16.6344647","74.28575839999999",""
"ChIJBV2dfvX-wDsRluN1n4zAz4M","Charat Petroleum","India","16.6345435","74.2857844",""
"ChIJ5UjiqT0AwTsR1iKmZDQVXG8","Bharat Petroleum, Petrol Pump -Konduskar Auto Centre","RAJARAMPURI,KOLHAPUR, Kolhapur","16.6917125","74.2438449","true"
"ChIJQY2LYAD_wDsRp1P-gBEuQDQ","Kolhapur Zilla Sahakari Dudh Utpadak Sangh Ltd. Gokul Petrol Pump","J7MP+MJQ, Kolhapur","16.6350746","74.2865139","true"
"ChIJxxwJ6_UBwTsR6Jyz9-fVe6s","Shri Swami Samarth Spre Penting","M6RV+PQW, Rashiwade Bk, near Bharat Petroleum, Petrol Pump -Konduskar Auto Centre","16.6918544","74.244438","true"
"ChIJ5zap8RIAwTsRiPK7dBdztGU","Bharat Petroleum, Petrol Pump -Dharamtar Motors","NR UMA TALKIES KOLHAPUR, Kolhapur","16.6970166","74.2317755","true"
"ChIJy5M5A8OqwTsRi334Pc2i0IM","Bharat Petroleum, Petrol Pump -Patil Petroleum","M5RM+WVM, Maharashtra State Highway 115, New Nagadev Wadi, Kolhapur","16.6925837","74.1849768","true"
"ChIJ0cTBbxMAwTsRGHkSd8eIENs","Shetkari Petrol Pump","Shahupuri, Kolhapur","16.697472","74.234712",""
"ChIJJUCUaBMAwTsRwfgGg7_4nak","IndianOil","Ground Floor, Rajaram Road, Kolhapur","16.697287","74.23625899999999","true"
"ChIJ9apX4oirwTsRBKNKeeEXDz0","Hindustan Petroleum Corporation Limited","Survey No 1032 B, E Ward, Station Road, Karveer, Shivaji Udyam Nagar, Kolhapur","16.697778","74.23469349999999","true"
"ChIJO07uU5MBwTsRirZwF9LZQ5E","IndianOil","Ground Floor, Laxmipuri, Kolhapur","16.700271","74.229993","true"
"ChIJRR6xJQNVwDsRb19ZxUoFRDA","PETROL & CNG PUMP - N. S. PETROLEUM","AT & PO Sangwadi, Kolhapur Hupri Road Kolhapur, Vasco","16.6667561","74.3306232","true"
"ChIJQUIRFtEBwTsR2Rsyp5PhQSM","Aegis Autogas LPG Station","M7PF+X56, Madras Bombay Trunk Road, NH Service Road, Sarnobatwadi, Kolhapur","16.6874025","74.27289019999999","true"
"ChIJVdC5vNwBwTsR9mnL8Pny8jg","Essar Petrol Pump","Gad Mudshingi","16.6906877","74.2833113",""
"ChIJWx4QUc8BwTsR7MhkQANk4p0","Hindustan Petroleum Corporation Limited","Part 4/2, Survey No 350/A, Pune Bangalore Road, National Highway 48, Karvir, Uchgaon, Kolhapur","16.695691","74.27573100000001","true"
"ChIJTQpkmeD7wDsRkpCfqER_6uo","Hindustan Petroleum Corporation Limited","Ground Floor, Pune Bangalore, Road NH 48, Vikaswadi","16.568991","74.315861","true"
"ChIJoVy5boz-wDsR3ehRCWHHEB4","IndianOil","Ground Floor, NH 4, Are, Kaneriwadi","16.6285788","74.292116","true"
"ChIJMXbc9pD-wDsRh_SetHNq2sU","IndianOil","Ground Floor MIDC, Kaneriwadi, NH 4, Gokul Shirgaon","16.62116499999999","74.298092","true"
"ChIJU3J7MK_-wDsRAcIuy6khzCs","JAJAL AUTOMOTIVE","225 NH 4 HIGHWAY P.B ROAD, VIKASWADI, Kolhapur","16.619044","74.29870199999999","true"
"ChIJge2AR3f_wDsRW9uDY-rRum0","Hindustan Petroleum Corporation Limited","Survey No 225 Pune Bangalore Rd, NH 48, kagal, Vikaswadi","16.6192549","74.29892699999999","true"
"ChIJJT3s4ib_wDsRWYIZ4q12zfE","IndianOil","Ground Floor NH 4, Poona, Bengaluru - Mumbai Highway, Vikaswadi","16.61737399999999","74.3002577","true"
"ChIJTzSeY5j-wDsRaSDPHaKZQUY","Dhananjay Mahadik Petrol Pump","J873+J5W, Madras Bombay Trunk Road, Kagal","16.6141241","74.3029581",""
"ChIJ2ZU9iKD-wDsRgPID8qCr6Vk","Shree Mahalakshmi Petroleum(BPCL)","Kagal 5 Star MIDC Industrial Area, Vikaswadi","16.6108866","74.31099100000002",""
"ChIJrRUK4cH9wDsRuH_mWCD9dmc","SRUSHTI PETROLINK","Gur Market Yard, Gat No 18, Sangawadewadi, Karvir, Kolhapur","16.639476","74.3213324","true"
"ChIJOYjYR3H7wDsRI7x2PNqMKUA","IndianOil","Ground Floor, NH 4, Kagal","16.5978459","74.3065805","true"
"ChIJPU9tIav-wDsREM3zKB1sEvI","Kagal Agar Petrol Pump","H8R5+QCH, Service Road, Kagal","16.5919273","74.3086106",""
"ChIJBXfeSAD_wDsRMd3ixd58lg4","Tulsi HP GAS Godaun","राई हॉल रोड, उजळाईवाडी जी नंबर 54, near तुळशी गॅस गोडाऊन रवी, प्लॉट नंबर 4, Ujalaiwadi, Kolhapur","16.6773533","74.28229499999999",""
"ChIJOyShYJT5wDsRvLo4sYSkevs","IndianOil","Ground Floor, Gorambe, Kagal","16.5805342","74.29592199999999","true"
"ChIJ7fqUbFb5wDsROWvRv1e0JQo","Bharat Petroleum, Petrol Pump -Kagal Petrol Stores","Kaneri To NH4, Kagal","16.5841436","74.31015219999999","true"
"ChIJ41IjWmv8wDsRQIj47vVljns","Bharat Petroleum, Petrol Pump -Samarth Sai Petrolinks","Kagal 5 Star MIDC Industrial Area, Kagal","16.6102837","74.33606999999999","true"
"ChIJXU1Wm5r5wDsRNs2naOJSXSQ","IndianOil","Ghat No 137, SH 139, Pimpalgaon, Kagal, Gorambe, Kolhapur","16.5751717","74.2815092","true"
"ChIJw4L5spMewTsRpbUNXGPB3ow","IndianOil","Ground Floor, Gur Market Yard, Kagal","16.580013","74.31316079999999","true"
"ChIJ5_mLSf37wDsRABBkgKAsYeA","Bhuyekar Petrol Pump","H8J7+273, Hanbar Galli, Kagal","16.5800026","74.313176","true"
"ChIJ78qNxC79wDsRekLFA7RFDUk","Hindustan Petroleum Corporation Limited","Survey No 107, Kolhapur Hupari Road, SH 277, Karvir, Sangavade","16.6670343","74.3306207","true"
"ChIJOzQsS-v9wDsRN1mLwSwgRYU","Indian Oil SHREE PETROLEUM","Shop NO. 2 Near Vasagade, Main Road, Sangavade","16.6660458","74.3350437","true"
"ChIJfUJa_twBwTsRAodsaqy9xdY","Om Sai BPCL Petrol Pump","305 K, Gad Mudshingi - Mudshingi Road, Uchgaon, Kolhapur","16.689308","74.2852499","true"
"ChIJA6NzjdYBwTsRtu5ZnE6otrg","Ishwarkala Vinayak Gadage","4, NH Service Road, Sarnobatwadi, Kolhapur","16.6883468","74.2724111",""
"ChIJS20N-jwBwTsRlPQJjdDq240","IndianOil","Ground Floor, Pune Bengaluru Highway NH 4, Uchgaon, Gur, Shahu Market Yard, Kolhapur","16.6964587","74.2758173","true"
"ChIJ9zZCYAABwTsR81K4W2ztl8M","Cng","M7XG+CWX, Pune-Bangalore Highway, Uchgaon, Kolhapur","16.6986006","74.2773699",""
"ChIJhz1Drxz7wDsRGK9fQayTMxU","IndianOil","Ground Floor, Kagal Ichalkaranji Road Sangaon, Kasba, Kagal","16.5878623","74.3449126","true"
"ChIJHXmzTEOrwTsR15ey7KwqkSQ","Shetiraj Kisan Seva Kendra, Yavaluj","Kolhapur, Gat No 1000, Yavluj, Panhala, Bajar Bhogaon","16.7309212","74.1310128","true"
"ChIJq_Zd_WurwTsRqyjSKpn6mVw","IndianOil","Plot No 37, Karvir, Rajputwadi","16.7343775","74.1917541","true"
"ChIJdf4M0YWqwTsRneaXd2H7PWI","Petrol Pump","P675+MFF, राज्य महामार्ग क्र. २०४, Ambewadi","16.7141864","74.20865940000002",""
"ChIJ_9NxIlSrwTsRFJcCzAdRkhI","Hindustan Petroleum Corporation Limited","Sy No 29 & 30, Kolhapur Ratnagiri Road, NH 166, Karveer, Ambewadi","16.7099711","74.2119161","true"
"ChIJHdc5FR2pwTsRcEUuqAx4NTQ","Petrol Pump","Q47R+77J, Kale - Pachwad Road, Asurle","16.763218","74.1406513","true"
"ChIJp1vTrZyqwTsRuhVZThVuPJ0","BPCL Pump","P656+HXM, NH204","16.7089602","74.2124272","true"
"ChIJAQAAQHupwTsRx0EMszy5WXY","IndianOil","Kolhapur, Gat No 988 Kerle, Karvir, Karanjivane","16.7637689","74.16718139999999","true"
"ChIJzfMM-w-pwTsRTcl5BsRVdyA","Nayara Petrol Pump Pandurang Petroleum","Asurle, Porle - Majegaon Road, Kerle","16.7681365","74.15485509999999","true"
"ChIJkVmzG9OtwTsR0WWG74KcZVg","Nayara Petrol Pump Shree Siddhivinayak Petroleum","Chinchawade Tarf Kale","16.7071922","74.0727668","true"
"ChIJObK1Y1KpwTsR4PG0eS7r-UI","Bharat Petrol Pump","Q4CW+92H, Asurle","16.7712204","74.1450031","true"
"ChIJ84ONZEEAwTsRztJnhepA6To","Hindustan Petroleum Corporation Limited","Survey No 204, Station Road, E Ward, Karveer, Kolhapur","16.7053885","74.24511919999999","true"
"ChIJy5wopTgAwTsRBCHj8OIIRUk","Bharat Petroleum Petrol Pump","1148/E, Mahagaonkar Marg, Sykes Extension, Kolhapur","16.699823","74.24826399999999","true"
"ChIJsyol_EcAwTsRShO81TB9z0Q","IndianOil","Ground Floor, Old, Mumbai Bangalore Road, Trimboli, Kolhapur","16.7013561","74.2528452","true"
"ChIJKQiSgesAwTsR2Z0-QXki_1I","Bharat Petroleum Petrol Pump","P6RV+6RQ, Kasaba Bawada, Kolhapur","16.7405998","74.2445958",""
"ChIJKcW4WqnY3DsR-kRnqB9e0rY","IndianOil","Gat No 222, Shahu Market Yard, Junnar","16.7052388","74.26515189999999","true"
"ChIJ27R24wsBwTsRyyMgXMasO2U","Bharat Petroleum","NH-4, Madras Bombay Trunk Road, Kolhapur","16.7309311","74.2826882","true"
"ChIJAfrZ0XEAwTsR4TYmSiL0Rho","Bharat Petroleum","P64H+VHR, Collector Office Road, Nagalapark, Kolhapur","16.7072329","74.2288253","true"
"ChIJb61TWBQBwTsROoBYAqYqjxk","Hindustan Petroleum Corporation Limited","CS No 399, Assembly Road, Shahupuri, Kolhapur","16.7047698","74.2333074","true"
"ChIJM4aEH2sAwTsRD0ahXXjF_mo","Pioneer Energy","614 E, 1st Lane, Vyaparipeth, Shahupuri, Kolhapur","16.7012692","74.2383146",""
"ChIJ3xDiDGoAwTsR4AZbGg86A6k","IndianOil","Ground Floor, Kolhapur Station Road, Kolhapur","16.704597","74.241188","true"
"ChIJJdNikUEAwTsRMsFCtAHrG_8","Gurunanak Market","Tarabai Park, Kolhapur","16.7049873","74.24325270000001","true"
"ChIJB-lWHQABwTsRIvrR6vtJUVc","Bharat petroleum petrol pump","P63V+WQ3, Shahupuri, Kolhapur","16.7047025","74.2442868",""
"ChIJy6SFr0YAwTsRggQkGEEdzVU","Hindustan Petroleum Corporation Limited","City Survey No 517, B Station Road, Kawala Naka, Karveer, Kolhapur","16.705721","74.247981","true"
"ChIJYRNCpkYAwTsRtOZgm91KZVc","Mahadik Petrol Pump","Old Pune-Bangalore Highway, Shivaji Park, Shahupuri, Kolhapur","16.7061749","74.2480379","true"
"ChIJXdOeaAABwTsRm2i1UHYbW5c","Kavalanaka hp petrol pump","P64X+97V, Old Pune-Bangalore Highway, Shahupuri, Kolhapur","16.705889","74.248144",""
"ChIJzYuhDwABwTsRS5oY6QVc6hk","Bharat pump","P64X+G7V, Kolhapur","16.706369","74.2481772",""
"ChIJQUCfOQABwTsRe2vIodJB590","CNG","P64X+G7V, Kolhapur","16.706369","74.2481772",""
"ChIJzyhmyVUBwTsRRE1aK3WqdaM","Police welfare Petrol Pump - Bharat Petroleum","P6CR+C5C, Unnamed Road, Police Head Quarters, Kolhapur","16.7210639","74.2403819","true"
"ChIJT7fKBu0AwTsRFleP4_CXcXE","IndianOil","MIDC Road, Karveer, Kasaba Bawada, Kolhapur","16.7370059","74.24391039999999","true"
"ChIJv_ie8QJKwDsRzEdSmppZkiA","IndianOil","Ground Floor, Gur Market, Gaganbawada, Yard, Kolhapur","16.700912","74.2658342","true"
"ChIJS6DvWnsBwTsR2qtP7bu9Vbo","Bharat Petroleum, Petrol Pump -Devgiri Petroleum","HALONDI, Kolhapur","16.738685","74.3052836","true"
"ChIJk7F3-jwBwTsRuYEy-VjRosA","India auto Bharat Petrol CNG Pump","Q72H+XJ3, Service Road, MIDC, Shiroli","16.7523794","74.27905799999999","true"
"ChIJrUOKXpUBwTsRnolUCyUZVGE","Bharat Petroleum Corporation Ltd","P74P+GQ6, Kolhapur-Rukadi-Sangli Highway, Kolhapur","16.7062847","74.286891",""
"ChIJfX9wQpMBwTsRn3DT5N2z2vw","SHREE GURUNANAK PETROLEUM","S No 190/5B/1, Gandhinagar, Karveer, Uchgaon, Chinchwad","16.7056021","74.29764999999999","true"
"ChIJV0UNhgkBwTsRk_mhh1dzc_Q","IndianOil","Ground Floor, Shiroli NH 4, Naka Sangli Cross, Ghalwad, Shiroli","16.7282611","74.2821632","true"
"ChIJpRZrLgoBwTsRz298wcQFErU","Hindustan Petroleum Corporation Limited","Survey No 144, near Sangli Phata, NH 48, Pune Bangalore Road, Hatkanangale, Shiroli","16.7286749","74.2829951","true"
"ChIJua66YAkBwTsRuqelSYC1-YA","IndianOil","Ground Floor, Shiroli Naka, NH 4, Ghalwad","16.730439","74.282074","true"
"ChIJ4dsSFvQBwTsR0vJH1zF7nKc","IndianOil","Ground Floor NH 4, Atyal, Shiroli","16.7339476","74.28183589999999","true"
"ChIJJaoUSHABwTsRbhWO-L7EMuM","Shiv Parvati Petroleum","P7PX+W48, Kolhapur","16.7372832","74.2978184","true"
"ChIJ7w2ia0oBwTsRX6vHysx32uQ","Bharat Petroleum Petrol Pump , OM DATTA SAI PETROLEUM","NGAGAON FATA, SHIROLI, Kolhapur","16.742566","74.282337","true"
"ChIJSd2ii9IBwTsR3UUDcPqWXMc","Bharat Petroleum, Petrol Pump -Mahadik Bros","PETH NAKA,PETH, SANGLI","16.7490505","74.2795573","true"
"ChIJt_5FvxipwTsRm1o51LxyR9E","Hindustan Petroleum Corporation Limited","Gat No 64, NH 166, Kolhapur - Ratnagiri Road, Panhala","16.8004265","74.14909039999999","true"
"ChIJ5QDntUOpwTsRoeEiI4Cknig","IndianOil","Ground Floor, Karanjivane, Panhala","16.8004575","74.19863219999999","true"
"ChIJz261ByivwTsRma4UKGht0S0","Bharat Petroleum Petrol Pump - Vijeta Petroleum","378/A at Borpadale Phata, Borpadle","16.8286946","74.12191179999999","true"
"ChIJqagnDWWvwTsRgLy8_SPIceA","Petrol Pump","Kolhapur - Ratnagiri Road, Navali","16.8355435","74.117246","true"
"ChIJp58xyxMHwTsRaEdDsNLgjZM","IndianOil","Gat No 72, Hissa No 1/A, Karanjivane, Karveer, Ambewadi","16.7698614","74.2357351","true"
"ChIJ_T-fICQHwTsRfdjkOV8__u4","Dada Bhuyekar Kisan Seva Kendra","Bhuye, 72/1A Shiye, Main Road, Bhuye","16.7727359","74.2362083",""
"ChIJwV00SVEBwTsRU8m_vLwYrpY","Hindustan Petroleum Corporation Limited","Gat No 281/A, near NXG Car Care, Kasaba Bawada Main Road, Karvir, Kasaba Bawada, Shiye","16.765115","74.26692299999999","true"
"ChIJDVdm7LcHwTsRkoEBlHnaDmY","Petrol Pump","Shiye - Bawada Road, Shiye","16.778174","74.2678633",""
"ChIJYV0rHgABwTsRdD--MAseE1w","Bharat Petroleum, Petrol Pump -Parmar Petroleum","nr. LOKMAT PRESS, KASBA BAWDA – BHUYE ROAD, nr. LOKMAT PRESS, TAL KARVEER, Shiye","16.7696664","74.2698328","true"
"ChIJhUkumOsGwTsRHRPgZPY9ZfA","Hindustan Petroleum Corporation Limited","near Sanstha Ltd, Ground Floor, Pune Bangalore Road NH 48, Hathkan, Wadgaon, near Sanstha Ltd, Toap","16.799571","74.28463099999999","true"
"ChIJK1-iofUGwTsRVo8vfL1kVZY","CNG pump","R78P+85, Unnamed Road, Peth Vadgaon","16.8165433","74.2851369","true"
"ChIJY16EmG4HwTsRhfYtMn-BAAg","Bharat Petroleum Petrol Pump , KALYANI AUTOLINKS ADHOC","NH4,KASBA VADGAON, Kolhapur","16.8106315","74.2864072","true"
"ChIJSzJwM4wGwTsRuucQjK_PPaI","HP PETROL PUMP - DEVGIRI AUTOLINES","Hpcl Dealer A/P.- Sambhapur TAH.- Hathkanangale, Vasco","16.81021","74.293177","true"
"ChIJw09ZY60HwTsRJAuXBl_YST4","Bharat Petroleum, Petrol Pump -Kalyani Autolinks","Peth Vadgaon on NH 4, Kolhapur","16.8112581","74.2852295","true"
"ChIJgXOEtyj_wDsRDjI2EpibLwc","Samrat PETROLINKS","M7HH+9JP, Sarnobatwadi, Kolhapur","16.7450302","74.32303379999999",""
"ChIJ-Wg9GBcDwTsR8UinkdDMvhw","Disha Petrolinks & Online CNG Filling Station","HP PETROL PUMP, GAT NO 1086(K), VILLAGE - HERLE, SH-3, TALUKA, HATKANANGALE","16.7447513","74.3233034","true"
"ChIJ0a5xM9sDwTsR4px_HkcG9iU","Hindustan Petroleum Corporation Limited","Gat No 1086, K SH 3, Hatkanangale, Herle","16.7444831","74.32333","true"
"ChIJl3c5w2gHwTsRr1vGl5XQyog","Hindustan Petroleum Corporation Limited","Survey No 250, SH 151, Toap - Vadgaon Road, Peth Vadgaon","16.8130952","74.2981679","true"
"ChIJLURgLY8GwTsRMoQuAU_rIYI","Deogiri Petrol Pump","Peth Vadgaon","16.8131875","74.29781249999999",""
"ChIJR85AfCQEwTsRhA8RyMrUBAk","Venkateshwara Gas Store Department","R83C+J49, Tasgaon Road, Tasgaon","16.8040357","74.3203458",""
"ChIJsb6aFeIHwTsRiYAvZs7Lr-4","Hindustan Petroleum Corporation Limited","Gat No 299, NH 48, Pune Banglore Road, Hathkanangal, Peth Vadgaon","16.817059","74.28491269999999","true"
"ChIJnYc5q18GwTsR7NX-LhLghpU","Jio-bp","Survey No 335/336, NH 4, Vadgaon Peth, Kolhapur","16.820846","74.28572559999999","true"
"ChIJ9xJfxMMGwTsRUHpKuFOJGe8","Hindustan Petroleum Corporation Limited","Gat No 355, Part 130, NH 48, Pune Bangalore Rd, Hatkanangale, Peth Vadgaon","16.825193","74.2864045","true"
"ChIJ5ejGKgEHwTsR1Lu10ynXZEU","Hpoil Gas Pvt Ltd CNG Station","Pune - Bengaluru Highway, Peth Vadgaon","16.8253691","74.28678359999999","true"
"ChIJ5V7Krl0GwTsRwStc7iipzYE","Bharat Petroleum, Petrol Pump -Om Sai Highway Service","VADGOAN NH 4, Kolhapur","16.8263727","74.285799","true"
"ChIJW7ayQY0HwTsRvkYElnrKN68","Bharat Petroleum, Petrol Pump -Krishnai Automobiles","KINIWATHAR, Kolhapur","16.8335941","74.2893096","true"
"ChIJNSa2P48FwTsRXcQ1L-p8T5Y","IndianOil","Ground Floor, Peth Vadgaon, Hatkanangale","16.8319277","74.3209512","true"
"ChIJvz3YxagDwTsRLaEDuXGhjq8","IndianOil","Gata 105, Kolhapur Sangli Road Hatkanangale, Chokak","16.7413445","74.35374639999999","true"