place_id,name,address,latitude,longitude,open_now
"ChIJkeFBLtKDzzsRWexgh27Mp4I","Hindustan Petroleum Corporation Limited","Survey No 24B, Ausa Road, NH 361, Rajiv Gandhi Chowk, Kanheri","18.3791051","76.5582063","true"
"ChIJuWe_Kv1_zzsRfRcXmq4T21s","IndianOil","Gut No 52, Budhada, Harsala Circle U, Ardhapur, Budhada","18.3195946","76.5422552","true"
"ChIJI_TOUeCBzzsRaL9ZRmvtwas","Hindustan Petroleum Corporation Limited","Gut No 78 NH 361, Tuljapur, Solapur - Latur Road, Peth","18.3275901","76.54466099999999","true"
"ChIJC-pi5v6BzzsRUu8M2KXAM8s","IndianOil","Ground Floor, Peth","18.331145","76.547113","true"
"ChIJv5R2PTV_zzsRqH_lVfGoEBM","Hake Petroleum (BPCL ,CNG)","7GXM+FJ8, Budhada","18.2986875","76.53406249999999","true"
"ChIJPWIyXH1_zzsR2RviDyq6vaA","Chandrashekhar Petroleum","At, Post, Almala","18.3045088","76.47962799999999",""
"ChIJGYxU4BKDzzsR4Kpi9tLpuOs","Bharat Petroleum, Petrol Pump -Shubhada Petroleum","LATUR AUSA ROAD LHS, DIST-, Latur","18.3525424","76.55240669999999","true"
"ChIJaz8JWQB_zzsRRFK_Jwed5IY","Indian Oil","7GMG+8VQ, Wagjewadi","18.2833472","76.52723259999999",""
"ChIJ3RT9zSyCzzsR1wBdfx-AXgo","Thormote Petroleum","Lord Mahadev Temple, New, Sona Nagar, Latur","18.3732752","76.5566648","true"
"ChIJTcWVwVh_zzsRNpAlMpOeEOo","Shri ramchandra bio petrolium","National Highway 361, Wagjewadi","18.269192","76.52173700000002",""
"ChIJdzK8XzmBzzsRe_bLg0PO0h0","Hindustan Petroleum Corporation Limited","Plot No P/60 SH 77, Barshi Road, MIDC, Latur","18.3893671","76.491286","true"
"ChIJP7XIfwCBzzsRwu5wpIc4hQU","Indian Oil CNG","9FQQ+FM9, Additional Latur MIDC, Patil Nagar","18.3885004","76.48867849999999",""
"ChIJIcmIoDODzzsRvIWKNAL41EQ","ASHOKA CNG PUMP (S M BIDVE ENTERPRISES)","OPP BIDVE LAWNS WASANGOAN, Ausa Road, Latur","18.3768311","76.55828609999999","true"
"ChIJP3KjEy6F5zsRoiY5bz_d9r8","Jio-bp","near Rajiv Gandhi Chowk, Survey No 12, Gate 14 Ausa Road, Mojewasangaon, near Rajiv Gandhi Chowk, Latur","18.37755","76.5584133","true"
"ChIJqbO7nwWDzzsR4XR0QMx5hHc","Ashoka CNG Gas ,CNG Station","9HP2+99P, Ram Nagar, Latur","18.3859624","76.5509582","true"
"ChIJHwALIMV_zzsRFCld6igv7AE","Salunke Petroleum, Nayara Energy,Petrol pump","Gut No 104/B, Village Ausa District","18.2631884","76.518957","true"
"ChIJCy5lbQB_zzsRq1j-cS03_lU","Hindustan Petroleum Corporation Limited","Gut No 115, NH 361, Tuljapur Butibori Highway, Ausa","18.25901099999999","76.518281","true"
"ChIJA3S9kZWDzzsR0C7DcfeIEiw","H N Kamdar Bharat Petrol Pump","MG Road (SH-145), Sawe Wadi, Latur","18.39915","76.5758216","true"
"ChIJ0xgZNreDzzsR-9viW0jb6Mg","Mankari Petrol Pump","Patel Nagar, Latur","18.3824883","76.5796371","true"
"ChIJewiqtzCDzzsRQg7Ge0_-Dn0","Khubba Petroleum (Aegis Autogas)","9HMP+JMX, Latur","18.3841177","76.5867385","true"
"ChIJGwH7bbeDzzsR1Iuszbti-fc","Bharat Petroleum, Petrol Pump -Kamdar Petroleum","KANEHRI, LATUR, 5, Ring Road, kanheri chowk, Latur","18.3854488","76.57566709999999","true"
"ChIJI2knCLCDzzsRLwGu-9vD8zk","Hindustan Petroleum Corporation Limited","Survey No 149, B5 Nanded Bypass Road, Basweshwar Chowk, Latur","18.3869957","76.5827324","true"
"ChIJBfw-00l3zzsRNCarLqc0L3g","अमर गॅस एजन्सी","Gondri","18.3147684","76.64510330000002","true"
"ChIJe2mAAwCDzzsRnR4PyPVZKkg","RK_CNG/&सांज पेट्रोलियम बाभूळगावं","kazi petrol pump, Latur - Babhalgaon Road, हुडको अंद सिडको, लातूर","18.3906845","76.6133322",""
"ChIJ_x8ElJ6DzzsRL46bGOHUAIw","Islam Dagdusab Shaikh","1, Latur","18.3972638","76.58577919999999",""
"ChIJBbf-1i2DzzsRpZT2x_j6Z78","Zyada Gas Auto LPG Pump","Samrat Chowk, Nanded Road, Ganj Golai, Latur","18.3973041","76.5856761","true"
"ChIJg9iCOBeDzzsRwudANyPtnIs","Saanj Petroleum","Latur - Babhalgaon Road, DIST, Latur","18.3911249","76.6133107","true"
"ChIJxTYudHmDzzsRXvPxSPeoHBE","Keshav Kathar","Shop No 02, Samrat Chowk, near Jyada Lpg Gas Pump, Latur","18.3975476","76.5856833",""
"ChIJ56CELACDzzsRv94XTb-lj_Q","सेलू","9JHJ+VQR, Babhalgaon","18.3797466","76.631885",""
"ChIJi5rDUReDzzsRVE2BxVV-i2Y","Hindustan Petroleum Corporation Limited","Gut No 458, Plot No 1, Latur Nilanga Road, Babhalgaon","18.38983869999999","76.6176816","true"
"ChIJNeaDZaKDzzsRqJu6MCS4jJ0","Kawale Petroleum","Samrat Chowk, Nanded Road, Latur","18.3981523","76.58708539999999","false"
"ChIJDbE09L2DzzsRMj9KbHwUq1o","Hindustan Petroleum Corporation Limited","CTS 6228/H/31/4, Gandhi Chowk, Latur","18.3982201","76.5788601","true"
"ChIJM3dneQCDzzsR8zicCYtPWZU","INDIAN AUTO GAS","9JR9+632, Police Quarters, HUDCO and CIDCO, Latur","18.3903943","76.617465",""
"ChIJFYpPBet3zzsRPyy3lDyKXZc","IndianOil","Gut No 27, Hatte Road, Lodga","18.3132979","76.6725213","true"
"ChIJrf3yA6adzzsR8RxDFIVtF_A","Padile Petrol Pump","Gut No 384, Tilak Nagar, Bori","18.3718456","76.69296709999999","true"
"ChIJVYFtsgqEzzsRee1OD-tfZKI","IndianOil","Survey No 267, 1, Ambajogai Road, Sawe Wadi, Latur","18.422041","76.571804","true"
"ChIJCcox3keBzzsRJV8uCGkL18U","IndianOil","Gut No 103, Plot No 1211 & 12, Tilak Nagar, Harangul","18.405518","76.524483","true"
"ChIJmchsDVCBzzsRyBdMyW9nmi8","Hindustan Petroleum Corporation Limited","Survey No 30, PVR Chowk, SH 77, Barshi Road, Sona Nagar, Latur","18.4078708","76.5385886","true"
"ChIJwWxLVGeDzzsRf2CpwtayEcg","Bharat Petroleum, Petrol Pump -Swastik Petroleum","LATUR INDUSTRIAL AREA, Latur","18.412684","76.5399912","true"
"ChIJ9-S2Wl6BzzsReTEzGYITFkU","IndianOil","Survey No 37, Hatte Road, Ring Road, Khadgaon, Latur","18.39817369999999","76.544854","true"
"ChIJ35iMlkCBzzsR5AHjGeEueaE","Bharat Petroleum Petrol Pump , SHREE PADMAVATI PETROLEUM","MIDC CORNER, SQUARE, NO.1, Barshi Road, Latur","18.408874","76.546402","true"
"ChIJR87bYACBzzsRfn6Z234LCU8","Padmavati petrolium 1no chouk latur","1 no Chowk, Barshi Road, Sree Nagar, Latur MIDC, MIDC, Latur","18.4088987","76.5467461",""
"ChIJUcwLP0-HzzsRAra8tYIhUjw","Vatsala Baliram Petroleum","Kallam-Latur Road, Sree Nagar, Latur MIDC, Latur","18.4303396","76.4968274",""
"ChIJwXzZ9cCDzzsRcYOCBeu7zKQ","Reliance Petroleum","Survey No 48, Reliance Retail Outlet, Barshi Road, Khadgaon, Latur","18.40716159999999","76.5507161","true"
"ChIJu8WIdOaDzzsRSoDlNARUqSM","IndianOil","Ground Floor, Hatte Road, Latur","18.402734","76.558797","true"
"ChIJNzfqGgCFzzsRL1L4gP41dUw","Halkude petroleum","Latur Ring Road, Deep Jyoti Nagar, Latur","18.4201875","76.5539375",""
"ChIJXcQL6RiDzzsRVZCpQxftLGM","Hindustan Petroleum ⛽ Pump (HP) - Harishchandra Petroleum, Railway Station Ring Road, Latur","Railway Station, Latur Ring Road, Latur","18.4193396","76.558356","true"
"ChIJY4l2fRqDzzsRtzZ8oZujJOg","Hindustan Petroleum Corporation Limited","Gut No 134/P, MIDC Road, Arvi","18.4191891","76.5588374","true"
"ChIJ46SZUumDzzsRTSOp3fD9QME","Kayamkhani Petrol Pump","Ambajogai Road, State Highway 144, Sawe Wadi, Latur","18.4032603","76.56555829999999","true"
"ChIJy4h4rxmBzzsRvZW2rKrfM1I","Mulay Petroleum","Gut No.44/1, At sakhara, Near Airport Road, Barshi - Latur Highway, Latur","18.3918726","76.4600727","true"
"ChIJlRPoePODzzsRdWyPzAjLE6w","Hindustan Petroleum Corporation Limited","Gut No 259, NH 548B, Ambajogai Road, Latur","18.4146025","76.56893409999999","true"
"ChIJJV-FMdqDzzsRmWY76LiR4iw","Go Gas Station(LPG)","CH89+CR5, Ambajogai - Latur Road, Sharda Nagar, Latur","18.4160121","76.5695991",""
"ChIJado5PGdDxTsRRAM5t28TOaU","IndianOil","Survey No 167, 3, Ambajogai - Latur Road, Adas, Bardapur, Beed","18.4224985","76.57210309999999","true"
"ChIJH599ehZ-xTsR0523vrgt564","Bharat Petroleum, Petrol Pump -Hiremath Petroleum","SAKHARA, LATUR, Latur","18.3906067","76.439466","true"
"ChIJCafYjHSDzzsRkPFcDVa0gtA","IndianOil","Survey No 93A/1, Plot No 2 & 3, Vivekanand Chowk, Shevgaon","18.4023449","76.5994455","true"
"ChIJx2yycg-DzzsRN_tv1mKg54A","Hindustan Petroleum Corporation Limited","Gut No 5 & 4, P Ring Road, Maharana Pratap Nagar, Latur","18.416487","76.59266199999999","true"
"ChIJh7dMCL6DzzsRmJfJFQ8b8zM","IndianOil","Gut No 40/4, Hatte Road, Maharanapratapnagar, Latur","18.4136742","76.60056639999999","true"
"ChIJ9eJJMgCDzzsRHToJomJ6Ra4","Petrol pump","Shop No 4, Nanded Road, Malwati Road, Latur","18.4137258","76.6008696",""
"ChIJB9i2PXCDzzsRPlscpgQ4va8","Bharat Petroleum, Petrol Pump -Parandekar Petroleum","SH 3, Maharanapratapnagar, Latur","18.410569","76.6055706","true"
"ChIJ_9dsommEzzsRPwpiZDeILqg","Bharat Petroleum, Petrol Pump -Viresh Agencies","BORWATI, Latur","18.4424456","76.5794319","true"
"ChIJb1zbmlmDzzsRHocCJcNDzJU","IndianOil","Gut No 28, 2A/1, Pratap Nagar, Tilaknagar, Latur","18.420246","76.62732120000001","true"
"ChIJoVOIQkOEzzsRcqk8oF0m1f4","Hindustan Petroleum Corporation Limited","Gut No 84, NH 548B, Ambajogai Road, Latur","18.4501401","76.5821101","true"
"ChIJp4TeNwCDzzsRhC5nBhJRNtE","Hindustan Petroleum Corporation Limited","Gat No 115, Nagpur - Tuljapur Highway, Latur","18.422866","76.636068","true"
"ChIJ37FjcaqczzsRJappW5Zgb0E","Bharat Petroleum, Petrol Pump -Manjara Petrol Pump","Latur Road, Kolpa","18.4260614","76.64524039999999","true"
"ChIJixWWWQCdzzsR2PWR7ol2064","Appa Petroliym kolpa","CJHW+72Q, Latur","18.4261778","76.64705889999999",""
"ChIJ6_UxujeFzzsRk-O5P8nuGZ8","IndianOil","Gut No 147, 1/1, Hatte Road, Mahapur","18.4666268","76.593322","true"
"ChIJC5VNi4abzzsRRmIcVm7OuUE","Hindustan Petroleum Corporation Limited","Gut No 265, NH 361, Latur - Nanded Highway, Bhatangli","18.4344501","76.69582009999999","true"
"ChIJaRghzjabzzsRoGnd-izCjGI","IndianOil","Gut No 137, 1, Kolpa - Kasarkheda Road, Tilaknagar, Latur","18.4515729","76.6415366","true"
"ChIJG6Z4bmabzzsRyFwqajrtEG0","Bharat Petroleum Petrol Pump , A.G.MALWADE PETROLEUM","Latur - Nanded Highway","18.4406524","76.712653","true"
"ChIJSeK_i4yFzzsRHAa8ziImku0","Hindustan Petroleum Corporation Limited","Gut No 924 NH 548B, Ambajogai Road, Latur, Renapur, Latur","18.507561","76.574551","true"
"ChIJ63K9c8ePzzsR3InFkJ4C1YM","Hindustan Petroleum Corporation Limited","Gut No 186, Latur Ambejogai Road, National Highway 548B, Renapur, Samsapur","18.5228551","76.55677","true"
"ChIJG4jtmFmPzzsRmkaCw-TCsk4","HP PETROL PUMP - S.P. PETROLEUM","GUT NO. 186 AT Renapur Village Samsapur Taluka Renapur, Sholapur","18.518253","76.5625228","true"
"ChIJIxrywiaFzzsRwc0OyDZSaJQ","Bharat Petroleum, Petrol Pump -Ganesh Petroleum","KASBE RENAPUR, LATUR","18.5102434","76.5715331","true"
"ChIJ75VnZgCFzzsRZ4P8wmH99UY","MAHANAGAR GAS CNG PUMP","GH3H+97, Renapur, Rupchand Nagar","18.5034375","76.5781875","true"
"ChIJt-LrlFCFzzsR7M-KaTNTX60","Ashirwad Petroleum","Ambajogai - Latur Road, NH548B, Renapur","18.5048426","76.5787436","true"
"ChIJc59-2z2FzzsRfh9s3WnTc4o","Hindustan Petroleum Corporation Limited","Gut No 834P, NH 548B, Ambajogai Road, Renapur, Latur","18.505216","76.578887","true"
"ChIJT0crxACPzzsRA0DReXc-Bpw","Hindustan Petroleum Corporation Limited","Gut No 1055, NH 361H, Latur Renapur Road, Renapur, Latur","18.5179933","76.5720624","true"
"ChIJgTdsNXqPzzsRH_EjMDB7_EE","IndianOil","Gut No 1099, Renapur, Kamkheda","18.5241231","76.58782479999999","true"
"ChIJocIa86iPzzsRUtYg9vml7pk","IndianOil","Gut No 371, SH 169, Stone, 48 to 50, Hatte Rd, Renapur, Latur","18.523347","76.61679300000002","true"
"ChIJ7zO75QKbzzsRgS2-_a7u5nI","Bharat Petroleum Petrol Pump , SHRI VIGHNAHAR PETROLEUM","Austa Mode railway Track, Renapur","18.5145842","76.6441226","true"