place_id,name,address,latitude,longitude,open_now
"ChIJVYMCsCIqzjsRdMUIV41CgZ4","Petrol Pump","NH 361, BYPASS ROAD, ARDHAPUR","19.0994513","77.2756105","true"
"ChIJKalQjN8pzjsR5EwPo61qpdw","BPCL- Pensalwar Pump.","MHADA Colony, Nanded","19.12553459999999","77.3109516","true"
"ChIJTeVBVwArzjsRAVIN_LaAxJY","Rk cng pump 03 vishnupuri te somthana rod","37G2+JX, Dhangarwadi","19.0773353","77.25269469999999",""
"ChIJ72UY6r0rzjsRG7WT8Oy-k_Q","Bharat Petroleum, Petrol cng Pump -Gunaji Petroleum","DERLA, NANDED LOHA ROAD, N, Nanded","19.077016","77.2531137","true"
"ChIJVXig1fopzjsR9B3vs1ud9Ss","Hindustan Petroleum Corporation Limited","GUT No 95, near Latur Phata, Latur - Nanded Highway, Aundha Naganath, Nanded","19.1161099","77.2978574","true"
"ChIJUyI73y0rzjsR-fQj-eIAFOc","Hindustan Petroleum Corporation Limited","Gut No 106, Latur - Nanded Highway, Janapuri","19.05864099999999","77.239611","true"
"ChIJ9SfFFuIpzjsRAkKaNBmfTts","Bharat Petroleum","India","19.1241585","77.3027774",""
"ChIJxf12fvgpzjsRFXVk-rPSfAM","GUNDEGAONKAR KISAN SEVA KENDRA PETROL PUMP","Cidco, to, Osman Nagar Road, at, Gundegaon","19.0814683","77.3130785","true"
"ChIJscrTj7Dj0TsR7Q0qlVpjvjA","IndianOil","Gut No 67, 1/1, Vasarni, Nanded","19.1196835","77.31015699999999","true"
"ChIJ9YOEqJwpzjsRemGav1r-mLY","Shlok Sales And Services Petroleum","Nanded","19.0868125","77.3163125","true"
"ChIJR8RZzkXX0TsRbENT6g8HXrQ","Mansi Tyre Pumchar Center","1, Nanded","19.1290343","77.3064157",""
"ChIJx9NorobV0TsRkXbY0zqaXjw","Hindustan Petroleum Corporation Limited","Survey No, 134 & 135, Sugaon Khurd","19.1502494","77.2544874","true"
"ChIJsfwUldspzjsRXE3iiAbQEFQ","IndianOil","S No, 51, Ambedkar Chowk, Cidco, Nanded","19.118893","77.316544","true"
"ChIJLXAY9KcpzjsRURhqqfKQWQk","Hindustan Petroleum Corporation Limited","Gut No 60 NH 50, CIDCO, Osman Nagar, Road, Waghala, Nanded","19.1047896","77.3233259","true"
"ChIJZbef1KLV0TsRCknTlAZvXzU","Krishna HP gas agency","46F5+78M, Unnamed Road, Rahati Bk.","19.1232096","77.20830169999999",""
"ChIJu60wxP_X0TsR4UMea7dmXnU","Bharat petrol pump","48R4+WRW, Gowardhan Ghat Bridge Road, Kautha, Nanded","19.1423676","77.3070718","true"
"ChIJZRiO4XPW0TsRBJlFMnPbRNY","Bharat Petroleum","573V+F8Q, Waghi Road, Khadakpura, Nanded","19.15371739999999","77.293353",""
"ChIJu-tWJj4pzjsR3NhijmF6-cA","Hindustan Petroleum Corporation Limited","Gut No 16, Cidco Nanded, NH 50, near Osman Nagar Road, Rahimpur, Mujampeth","19.119101","77.326601","true"
"ChIJ3TjTSQDX0TsRKUg1Qb3DVw8","KGN Petroleum","1, Waghi Road, Dulleshah Raheman Nagar, Nanded","19.1539364","77.293351",""
"ChIJEcKJhnHW0TsRbQ-7koXfbCs","पावती ज्वेलेंस","573W+P69, Waghi Road, Vazirabad, Nanded","19.1542913","77.29561749999999",""
"ChIJnZD7H9QpzjsRYCQDLyqBtkA","Bharat Petroleum","India","19.1225693","77.32672529999999",""
"ChIJIUXcYR3X0TsR7ehgB3wO6FI","Girish Gas & Fuel - Kautha","02, Juna Mondha Road Kautha Naka","19.1393196","77.31566289999999",""
"ChIJ4eRKxfsrzjsRUg-j4ODez14","Hindustan Petroleum Corporation Limited","Gut No 18 P, NH 361, Latur - Nanded Highway, Loha, Sonkhed","19.038201","77.223731","true"
"ChIJxcxxgWrW0TsRxcsJSa82-Ok","Kamdhenu Petroleum","India","19.1517207","77.30924680000001",""
"ChIJEcMRgWrW0TsRMMMiv4twvVU","KAMDHENU PETROLEUM","5825+PM9, Gowardhan Ghat Bridge Road, Borban Factory Area, Vazirabad, Nanded","19.1517836","77.3092398",""
"ChIJbXCkR7fX0TsRDcurX8Mq7c4","Zyada Gas Auto LPG Pump","23/24, Gowardhan Ghat Bridge Road, Borban Factory Area, Vazirabad, Nanded","19.1517875","77.30930099999999","true"
"ChIJie-KRwArzjsRWTDblwgwMG4","Venkat Rao petrol pump Sankheda pump","26QC+2W2, Haldav","19.0374937","77.223226",""
"ChIJW4B7QP7X0TsRPW7tMTzv_yY","Dhanegaonkar Petroleum","48HH+XMG, Mujampeth","19.1302963","77.3296999","true"
"ChIJhSWTi9fX0TsRQcLTrts4Lkc","IndianOil","Ground Floor Dhanegaon, Adgaon, Nanded","19.1298258","77.34384659999999","true"
"ChIJLxoK4ULW0TsR0ifXxdap4ag","GUNWANT PETROLEUM, HP Petrol Pump","Station Road Nanded, Sholapur","19.1592745","77.3120158","true"
"ChIJHw8Es1vW0TsRZVSBCp9m3NM","Dantiwala Bharat Petroleum","5889+35V, Railway Station Road, Maganpura, Hyder Bagh, Dashmesh Nagar, Harsh Nagar, Nanded","19.165246","77.31792999999999",""
"ChIJTbuq9S8ozjsRJ8zDZFnZxkI","Bharat Petroleum- Munjaji Petroleum","India","19.1177408","77.3436802","true"
"ChIJjUi3U9fX0TsRvuK9_wqLiK8","Dhanegaon Petroleum Pump","Gut No 36, National Highway 161, Babarpur, Dhanegaon, Nanded","19.133791","77.343301","true"
"ChIJHWWCLcUpzjsRYSL7gI9bKqQ","Hindustan Petroleum Corporation Limited","No 201/2 SH 06, Nanded Hyderabad Road, Tuppa","19.0847542","77.36093319999999","true"
"ChIJi_1gLrzX0TsR5eiE9K_yVmM","PMK PRIDE","48JQ+WG5, Nagpur - Tuljapur Highway, Dhanegaon, Nanded","19.1326244","77.3385309",""
"ChIJyY2vOJkozjsRXVYpkoFiUX0","IndianOil","Survey No 97, 1 97/2, Degloor - Nanded Road, Kakandi","19.0643271","77.3714356","true"
"ChIJm_IoEsPX0TsRInS-oJlLJPI","RK Petroleum Nanded","India","19.14241999999999","77.3514514",""
"ChIJ36-FVqPX0TsRhVcg91odHKs","IndianOil","Gut No 28, Kapsi, Fattepur","19.1407217","77.3602518","true"
"ChIJ3eW1iMQlzjsRtZdSVduNVHM","IndianOil","Gut No 216, Chauphala - Degloor Naka Road, Martala","19.1482849","77.3300458","true"
"ChIJ0V08DUrX0TsR65oDCJmA09w","Petrol Pump","Hind, Ganga Nagar Road, Nanded","19.1492407","77.33410649999999",""
"ChIJ9WQZRCTX0TsRcBZScG3miWs","Hindustan Petroleum Corporation Limited","Gut No 81, P & 84/P, Wadi Puyad","19.138178","77.369506","true"
"ChIJkxqzXEfX0TsRsifCmPcaqNQ","Deep Naresh Petroleum","1, Nanded","19.1497022","77.32076409999999",""
"ChIJq3I_Ij4pzjsRWCEmUWnYgqY","Ramakrishna Petroleum","Gut No :- 215, Hyderabad Highway, Nanded","19.059373","77.3752587","true"
"ChIJyWXV8EfW0TsRkD_ViwEXYHs","IndianOil","CTS No 2035, Bhagat Singh Road, Nanded","19.1502446","77.32003929999999","true"
"ChIJEXBrUxTX0TsRsE4mx4H7gso","Bharat Petroleum Petrol Pump , BABA PETROL PUMP","Banana Research Center, OPP, NANDED CITY, Nanded","19.1559538","77.3251023","true"
"ChIJDeTzn7TX0TsR8Ocq5VDlC7Y","HYDER PETROLEUM","1 & 2،, Hyder Bagh Street, Hyder Bagh 1 & 2","19.15656","77.33387909999999","true"
"ChIJ-xgUgobX0TsRM5MfH9FD3TQ","Go Gas","5859+M3P, Samrat Nagar, Hyder Bagh, Dashmesh Nagar, Nanded-Waghala","19.1592014","77.3177113",""
"ChIJtWhllQsnzjsRcFF6LYOnBG0","Bharat Petroleum Petrol & CNG Pump , SHRI BALAJI PETROLEUM","TARFE TUPPANANDED, Degloor - Nanded Road, AT, Kakandi","19.051499","77.381905","true"
"ChIJFfb1iOnX0TsRdZjKN5Ni-dU","Hindustan Petroleum Corporation Limited","Survey No 6 Gate, No 2, near Railway Station - Bafna Road, Railway Station Road, Nanded","19.1590373","77.3116196","true"
"ChIJi_7Rq5TX0TsRB41O2i7rlPo","Bharat Petroleum, Petrol Pump -G.R. Choudhari","STATION RD NANDED, NR RAI, Nanded","19.15918259999999","77.31097129999999","false"
"ChIJ2Umg2VrW0TsREKBVaeZMuDM","DELTA","India","19.1623222","77.3183472",""
"ChIJOcqzVQXX0TsRohxUz8W_pC0","Girish Gas & Fuel LPG @Bafna","near Bafna Bridge, LIC Office Road, near Bafna Bridge, Nanded","19.1646164","77.323019",""
"ChIJP2o7kQgmzjsR9CTDn5sPK6E","Balaji Filling Station","Martala, Nanded, NH-161, Hingoli Nanded Degloor Road, Nanded, Nanded","19.041973","77.39080799999999","true"
"ChIJF4kNv1UlzjsRnKo5a0gUPyY","Hindustan Petroleum Corporation Limited","Gut No, 273 Loha, Kapsi Main Road, Martala","19.03590119999999","77.39433400000001","true"
"ChIJRWK55p3W0TsRktBdRigj2Qs","Hindustan Petroleum Corporation Limited","near Pawde Mangal Karyalay, Gut No 219/A/B Purna Road, Wadi BK, near Pawde Mangal Karyalay, Pawdewadi","19.1881166","77.2881498","true"
"ChIJ1XnEz1nW0TsRTbyUwTuH9cw","IndianOil","Ground Floor, Asdullabad, Limbgaon","19.169689","77.32009099999999","true"
"ChIJzUN8jUXU0TsRjtWgdrjOdpw","IndianOil","Survey No 110/A, Ashoknagar, Wadi Bk.","19.18112139999999","77.2561891","true"
"ChIJbdRLshrV0TsRTWzajGn7fmM","SINDHUTAI PAWDE PETROLEUM & CNG","Sindhu nagar, opposite Shubham function hall, Purna Road, Wadi(Bk, Nanded","19.1909117","77.28400239999999","true"
"ChIJC5ctg8TV0TsR5RU4cOlCWGs","Hindustan Petroleum Corporation Limited","Gut No 160, P Nanded Purna Road, Sayal Road, Nanded","19.1817275","77.23191100000001","true"
"ChIJ_dSug5vW0TsRl7D59iymJLE","M/s. Pawde Petroleum","Plot no 216A2, Purna Road, Chatrapati Nagar, Wadi Bk.","19.1863144","77.29287000000001","true"
"ChIJM1VDwWnX0TsR2eI83PqNdwk","Zyada Gas Auto LPG Pump","Frount of BSNL Office, Purna Road, Naka, Nanded","19.1852783","77.29841560000001","true"
"ChIJZ8UTV3bX0TsRL58vVQhjyG0","Hindustan Petroleum Corporation Limited","Survey No 6458, near Police Quarters, ITI Road, Sneh Nagar, Nanded","19.172748","77.304729","true"
"ChIJkVEuEGHW0TsRibFATLwBF6w","IndianOil","Cts No 6365, Plot No 120/C, Guru Gobind Singh Ji Road, Industrial Estate, Nanded","19.1682729","77.3056855","true"
"ChIJaVJNaADX0TsRATXOmPcJj8c","Gitte petrol pump nanded","Gitte petrol pump, Nanded Malegaon Road, Nanded","19.1907219","77.2974046",""
"ChIJt7D34pDX0TsRNpwGOgxXh9c","VIJAYMALA AIR CENTER","SHOP NO 1, near INDIAN OIL NEAR ITI, Nanded","19.1685065","77.30583759999999",""
"ChIJWclxk-PX0TsRaPfzX6fTIRE","MP Gite Bharat Petroleum","57RW+QVX, Nanded Malegaon Road, Bodhisattva Nagar, Ashtvinayak Nagar, Nanded","19.1919795","77.297247",""
"ChIJlekV2o3W0TsRBWnYrLHQkME","IndianOil","Survey No 12, Jangamwadi","19.181707","77.304146","true"
"ChIJ78-oxerX0TsRZT-W2cyJkkc","HP Free Air","Shop No, near Hp Petrol Pump, 7, Airport Road, Chandan Nagar, Nanded","19.1843699","77.30799449999999",""
"ChIJo4RQJHvX0TsRImuDKc4JS_I","Hindustan Petroleum Corporation Limited","Gut No 227, Tarodekar Chambers, near Shiv Mandir Road, Vital Nagar, Taroda Bk.","19.184381","77.30834899999999","true"
"ChIJpX4j0qXW0TsR4b4n7ooFw-4","G. J. Munde Fuel Station","673V+F4W, taroda road, Malegaon","19.2037488","77.2928403",""
"ChIJ_wL2KunX0TsRdeQuwBfPr2k","Bhadre Petroleum","Shakarnagar, Bhopala","19.1930518","77.3053334",""
"ChIJY-yeqTLX0TsR7dhSei0ag_M","Hindustan Petroleum Corporation Limited","Gut No 221, near RAJ CORNER, Chaitanya Nagar, Taroda Bk.","19.184679","77.31317899999999","true"
"ChIJpWVMXKnW0TsRNEKoiRWAHJ8","Hindustan Petroleum Corporation Limited","Gut No 130, Nanded Malegaon Road, Pasadgaon","19.2115647","77.2909902","true"
"ChIJHTyBXnLX0TsRVnoBfXlcoMc","Ratnakars Auto Fuels","Shop No.1, 2, 3, 4, 5, Pandurang Appartment, Hingoli Bypass Road, Namskar Chowk, Nanded","19.1762706","77.3262474","true"
"ChIJ45JBPqbX0TsR5cRzRMxb-yk","Hindustan Petroleum Corporation Limited","Gut No 142, near Namaskar C, 2/C, New Airport Bypass Road, Nanded","19.1749029","77.3311861","true"
"ChIJNb-_m3_X0TsRvVdfEyGuvY8","IndianOil","Survey No 37 Cts No 9479, Sangvi","19.1849127","77.3313151","true"
"ChIJrTxvxBDR0TsRPpEHU9TNyh8","Anurag Petroleum | BPCL","AT NERALI GUT NO 59NANDED, Nanded Malegaon Road, Nanded","19.2302889","77.292313",""
"ChIJMdOyiFXX0TsRNgPtKu8FbYk","IndianOil","Gut No 21/A, Mhalja, Nanded","19.17528099999999","77.338814","true"
"ChIJ4WvI3iLX0TsRKMTdpn2IR6Q","IndianOil","Survey No 235, Pimpalgaon Mahadeo","19.2008491","77.34267659999999","true"
"ChIJebxFCjTX0TsRGXMLqSotR2w","Sunder motors Bharat petroleum","688X+XW3, SH148, Pimpalgaon Mahadeo","19.2173875","77.3497969","true"
"ChIJNYdDh6PX0TsR_ulYWNZiOoI","IndianOil","Ground Floor, Kapsi, Bondhar Tarf Haveli","19.1670281","77.34980379999999","true"
"ChIJD3GhVgXX0TsRdX0BO1nyxYY","Girish Gas & Fuel LPG @Aasna","GAT NO.276, DIST, KAMTHA KHURD, TAL","19.1861289","77.3436571","true"
"ChIJhc85tw_X0TsReA2em1NCnhQ","Bharat Petroleum, Petrol Pump -Lala Petroleum","KAMATHA, NANDED BYE PASS, Nanded","19.1848381","77.34606","true"
"ChIJtcnf-2nX0TsR-2Wqn2F2oU8","Bharat Petroleum (BPCL) - Aspire Petroleum / CNG","Aspire petroleum ,Gut no.127, Pimpalgaon Mahadeo ,Tq, Dist, Ardhapur","19.2139583","77.34980519999999","true"
"ChIJM0EHYADX0TsRw3MOhLzpr2w","RK_cng_nanded_to_hingoli_rod","6982+Q5, Pimpalgaon Mahadeo","19.2140503","77.3497387",""
"ChIJo8mJaCba0TsRPbPBuU-DkCk","Bharat Petroleum","Mudkhed, NH-222, Basmath Nanded Bhokar Bhainsa Nirmal Road, Nanded","19.230806","77.410725","true"
"ChIJYcU6Ldbb0TsR2YeElf2GWdw","Hindustan Petroleum Corporation Limited","GUT No 23 Khairgaon, Ardhapur, Barad","19.2285066","77.4330533","true"
"ChIJ2yvVWTrZ0TsRQMNCBIrBHno","Bharat Petroleum, Petrol Pump -Sunder Motors","PIMPALGAON, HINGOLI RD, Nanded","19.2191178","77.3854647","true"
"ChIJbyNlJgDb0TsReFkTCsRRCLk","Naded patrol pump","6CJ6+94G, National Highway 61, Barasgaon","19.2307837","77.4106915",""
"ChIJvf-gmEzf0TsRPbirlp1WvbU","IndianOil","Ground Floor, Mudkhed","19.1540578","77.4715004","true"
"ChIJpxbfSELb0TsRMv-thCQ0cNU","IndianOil","Gut No 253, Part, Barasgaon","19.2328701","77.3976879","true"
"ChIJT6M2injS0TsRGPQ-sJUjXCk","Padmavati Petroleum (Bharat Petroleum)","Basmat - Nanded Road, Tirumala Nagar, Nanded","19.307173","77.248982","true"
"ChIJO6cf_Q7T0TsRuSjuZkL10Vo","Hindustan Petroleum Corporation Limited","Gut No 247, Nanded Road, Marlaknila, Nila","19.2396883","77.2335816","true"
"ChIJNRCrfsXT0TsRpl9B0eE4b9I","सिंधू ताई पेट्रोलियम नांदेड","66QM+W9H, Nanded","19.2398059","77.2334857","false"
"ChIJyyhIVGTT0TsRMXbzRbM2RcY","IndianOil","Gut No 25, Daur","19.2817286","77.2688763","true"
"ChIJve4QBUTT0TsRRdyhyCm7MGo","Jayesh petroleum malegaon","NH752","19.2987862","77.28122359999999",""
"ChIJl5a31jPT0TsRs2rvIWYNP1k","Shri Sai Servo Care","Ardhapur - Basmath Road, Tq, Malegaon","19.3021802","77.26576179999999","true"
"ChIJt19Duo_Q0TsRXX_q3knlmqg","Bharat Petroleum","NH-204, Latur Nanded Yavatmal Wardha Road, Nanded","19.26004099999999","77.36485499999999","true"
"ChIJqQk7wQLR0TsRrpbSH0EjK8E","Hindustan Petroleum Corporation Limited","Gut No 229, P Manik Nagar, Ardhapur, Dabhad","19.229212","77.352481","true"
"ChIJGRQc4UvR0TsRNDm9JFDezqo","IndianOil","Ground Floor, Latur-Nanded Highway, Nanded","19.232808","77.353807","true"
"ChIJzUyyC8jQ0TsROrffuaTn7xM","Jio-bp","Gat No 212, MSH 2, Hingoli Road, Nanded","19.2340901","77.3543803","true"
"ChIJk87FuFnR0TsRjCqY3WK_RCM","Kamal Petroleum","Gut No 279/P, Dabhad","19.2401327","77.35628779999999","true"
"ChIJ8yZ0ZyXX0TsRqmcbk16o7FI","Hindustan Petroleum Corporation Limited","GUT No 30, NH 61, Nagpur - Tuljapur Highway, Nanded","19.22201009999999","77.35072009999999","true"
"ChIJNRKqOL_Q0TsRU4X4RVZ7meI","SAI BABA PETROL PUMP","69R4+CPQ","19.2410838","77.3568519",""
"ChIJ0aXLz5XQ0TsRpD3VONc4pSw","MUJAWAR PETROLEUM - HP PETROL PUMP","Jamrun","19.2478281","77.3598758","true"
"ChIJV_Hgqq3R0TsR_pcDqNl0I78","Hindustan Petroleum Corporation Limited","Gut No 271/P, Near, Jamrun","19.2484514","77.3603629","true"
"ChIJ1Sbju7zQ0TsRFEb5LvxjLqs","IndianOil","Gut No 73 Dabhad, Ardhapur, Kapsi","19.2415623","77.3657831","true"
"ChIJPbaSoJHQ0TsRCThYxhEtCAs","IndianOil","Gut No 77, Ardhapur, Jambharun, Saregaon","19.2549762","77.3628057","true"
"ChIJta7WdgzR0TsRYJy603boUQ8","Bharat petrol pump","78GH+RJQ, Gondiya - Ghungarde - Hadgaon Road, Ganpur","19.2770792","77.3290967","true"
"ChIJv2NJWRstujsRaG5nmGngczs","IndianOil","Gut No 636 SH 3, Hingoli, Ardhapur, Chauphala, Near, hingoli road","19.2637131","77.36760149999999","true"
"ChIJ-4l8agDR0TsR9FBAuPf4jsI","Rk_CNG पंप किसान","79C9+9RM, Hingoli - Kalamnuri - Nanded Road, Ardhapur","19.2709714","77.36955139999999",""
"ChIJQZsvg33Q0TsRyOeOjWy6UKc","Kisan Petrol Pump/CNG (BPCL)","Nanded- Hingoli Road, Ardhapur","19.2708829","77.3698908","true"
"ChIJsbnujEzR0TsRftbQuMa0bWI","STAR PETROLEUM SERVICES , Bharat petroleum","AT RAHIMPUR ARDHAPUR BYPASSNANDED-AKOLA ROAD","19.2685917","77.37677099999999","true"
"ChIJHUn3ttbR0TsR76-IgEW9LyU","IndianOil","Ground Floor, Ardhapur","19.283277","77.377414","true"
"ChIJhQHDkdnb0TsRowHMyFyBbp4","Hindustan Petroleum Corporation Limited","Gut No 425, P NH 361, Ardhapur Road, Ardhapur","19.284646","77.387159","true"
"ChIJGygnEFrZ0TsRwYo363Sq0a4","SHIVBABA PETROL PUMP( Nayara Energy Ltd)","6FF5+45Q, National Highway 61, Barad","19.2228269","77.4579957","true"
"ChIJ98SRxAHZ0TsRcJEfY3P-iEU","Bharat petroleum","6CGW+WFC, Barad","19.2273125","77.4461457","true"
"ChIJR2qnoK_Z0TsRl830pGzQnFs","SAI PETROLIUM NH061 BARAD","NANDED BHOKAR HIGH WAY, Nanded","19.22770879999999","77.44652889999999",""
"ChIJwXMWUHHb0TsRAb1tvRpn3ZU","IndianOil","Gut No 317, Lahan","19.27289339999999","77.4464295","true"
"ChIJIxvBwNDZ0TsRgQGfLNcuRis","Vithai Gas Agency","6FF8+XP8, Indiranagar, Barad","19.2249046","77.46682109999999",""