place_id,name,address,latitude,longitude,open_now
"ChIJvcy2dJKVwjsRQltqZc13LeM","Hindustan Petroleum Corporation Limited","Survey No, Haveli, 14/2/1A/1B, near Ashirwad Garden, Uttam Nagar, Shivane, Pune","18.464568","73.775097","true"
"ChIJb5ctD4WVwjsREXkhDdnKagY","IndianOil","Gat No 93, Haveli, Shivane, Pune","18.4694422","73.7846258","true"
"ChIJiyN8KH6VwjsReuHiDB-oVew","IndianOil","Survey No 138, 2A/1A/1B, Warje, Pune","18.478617","73.79853589999999","true"
"ChIJ_QdY6da_wjsRpx-4J1ZwZuQ","Maharashtra Natural Gas Ltd CNG Station","Survey No. 130/2/1, 1, Bengaluru - Mumbai Highway, Warje, Pune","18.4824585","73.80319349999999","true"
"ChIJUeDXAl2VwjsRKsgw4lbnT_s","IndianOil","Ground Floor, Sinhgad Road, Manik Baug, Anand Nagar, Pune","18.4712327","73.82120789999999","true"
"ChIJuURQZ-K_wjsRlWR9k-nusvM","Bharat Petroleum, Petrol Pump -Mitali Service Station","Sinhgad Road, Hingane Home Colony, Pune","18.4825437","73.8266404","true"
"ChIJcRp5vTuUwjsRG6lpPt36t2s","Hindustan Petroleum Corporation Limited","Gat No 245, Panshet Road, Haveli, Gorhe Bk.","18.413724","73.76335739999999","true"
"ChIJ0RAO8czqwjsRzMn_UOpSqfI","BELDARE PATIL PETROLEUM","Survey No 35 Ambegaon On Pune Dehuroad, Ambegaon Budruk, Pune","18.4517082","73.8442967","true"
"ChIJw91AW3K-wjsRriVBksyjE9g","Daulat Service Station - Bharat Petroleum","BHUGAON ON MULSHI RD, Bhugaon, Bavdhan, Pune","18.5016808","73.7576382","true"
"ChIJARrhiMC_wjsRgmuBsxFXuIE","Hindustan Petroleum Corporation Limited","147, near Karve Statue, 6B/7, Kothrud, Pune","18.5023618","73.81519229999999","true"
"ChIJrX0Xafq_wjsRxAugiMi_lsc","IndianOil","Haveli, Parvati, Plot No 545/2, Sinhgad Road, Pune","18.4924099","73.83411339999999","true"
"ChIJo4BYbvq_wjsRpbk1_5XfrAI","IndianOil","S No 545/7, Sinhgad Road, Panmala, Pune","18.493938","73.835793","true"
"ChIJRZCDkXS_wjsRQU6-4_hQ9Aw","Bharat Petroleum, Petrol Pump -Kasat Petroleums","Kothrud, Pune","18.5045125","73.82235299999999","true"
"ChIJGzFkJ7nqwjsRM1DnWik3h5I","Hindustan Petroleum Corporation Limited","Ground Floor, Dhankawadi, Pune","18.4639183","73.8584371","true"
"ChIJoXDXzuu_wjsRGrJaPlBhy1w","Kailas Auto","India","18.5079552","73.8044464",""
"ChIJX6RLD6CVwjsRZIrnxzD7TlU","Pruthvi Gas Agency Hp Gas","Shop No 1, Nanded Fata, Nanded, Pune","18.4545052","73.7944703","true"
"ChIJt7SALTiVwjsRkJrpX-LZ0RI","INDIAN OIL PETROL PUMP","Shop No 1, Nanded Fata, Pune","18.4531704","73.7952643",""
"ChIJiXK4N22VwjsRM66K26JZ06I","Bharat Petroleum Petrol Pump , SHREE SWAMI SHANKARA PETROLEUM","KHADAKWASLATAL HAVELI, Pune","18.4418149","73.7793528","true"
"ChIJtfbAhtmVwjsRWk_9gWYPTKA","Bharat petroleum","FQ4X+GJW, Bharat petroleum, near Nandedcity, adjacent to Citypoint restaurant, off Sinhgad Road, township main gate, Pune","18.4563625","73.799075","true"
"ChIJ3xatUeqVwjsRAbgnoaIxYJo","Bharat Petroleum, Petrol Pump -Dhawade Petroleum","KONDE DHAWADE,PUNE, Pune","18.4553804","73.7677832","true"
"ChIJPwCq9kaVwjsRMqZohK859AE","Shell Petrol Pump","off Pune, 25, Sinhgad Road, Pune","18.45726699999999","73.80543","true"
"ChIJz6vDO2uVwjsRq6O_nmATKTY","Pokale Patil Petroleum","Shop No 01, Dhayri Tempal, Mahadev Nagar, Dhayari, Pune","18.4418708","73.81233399999999","true"
"ChIJQUEPgoWVwjsRh-h5xO--YTs","IndianOil","Survey No 138, 2A/1A/1B, Warje, Pune","18.478617","73.79853589999999","true"
"ChIJmUsgRT2VwjsRkR2BjB9ght8","Viotech Gases And Equpiments","near Bhosale Fabrication, Sr. No. 28/1, Pari Company Circle, near Bhosale Fabrication, Dhayari Narhe Road, Pune","18.4468043","73.81918879999999","true"
"ChIJ6aWYUHuVwjsRFuYhTfLb7UM","Maharashtra Natural Gas Ltd CNG Station","Narhe Road, Dhayari Phata, Pune","18.4474768","73.82055439999999","true"
"ChIJUzfSGz2VwjsRt8oZo9SDReI","STAR","India","18.4479138","73.82078849999999",""
"ChIJa6gNJj2VwjsRV2ztjHb3910","Amir","CRWC+Q95, Narhe Road, Dhayari Phata, Pune","18.4468937","73.8209906",""
"ChIJlzrDEzOVwjsRSVJr2F-WiFo","New Jyoti Gas Repair and Service","411041, Dhayari Narhe Road, Shree Control Chowk Road, Pune","18.4434188","73.8220542",""
"ChIJP67Ukda_wjsRs1nx9Mba9hM","Krishnaraj Washing & Greasing centre","Shop No. 132, Near Vardhan Petrol Pump, Giridhar Nagar, Warje, Pune","18.4825028","73.80175969999999","true"
"ChIJd7ezGAWVwjsRp2f8Je5l8jg","Hindustan Petroleum Corporation Limited","K 1, near Navale Icon, S No 55/17, Navale Bridge, Vadgaon Budruk, Pune","18.460267","73.82241599999999","true"
"ChIJ6cc9FZ6_wjsRGrqmgXFozKQ","Hindustan Petroleum Corporation Limited","Sr No 130, Haveli, Chandani Chowk, near Chaudhary CNG, 4/1/1, Service Road, Warje, Pune","18.4821132","73.80326939999999","true"
"ChIJc8C1NQC_wjsRkCheIXwDm88","Chaudhari Petroleum","FRJ3+V8H, Mumbai Pune Bypass Road Flyover, Warje, Pune","18.4821841","73.8033525","true"
"ChIJMzMv-da_wjsRwy4ZxNfY3TY","MNGL CNG Pump","FRJ3+X79, National Highway 48, Warje, Pune","18.4824041","73.8032307","true"
"ChIJZ1KzVDmVwjsRtOXQSNnXvlg","Mauli Gas Repair Service","Sun Univers Shop 3, Ganesh Mandir Line, Narhe, Pune","18.4524339","73.824263","true"
"ChIJSwNbUgC_wjsR7U7o1twLncs","BHARAT PETROLEUM","FRM2+5WV, Warje, Pune","18.482979","73.8023074",""
"ChIJ4yb9iw2_wjsRrfAmI6Y0SSk","Pramukh Indane","near Cipla Foundation, Shop No G6, Viola Properties, near Cipla Foundation, Warje, Pune","18.4858825","73.7987079",""
"ChIJTbyPD4e_wjsRa9DV8cSVUAA","Shree Traders","Shop No 30, near HDFC Bank ATM, Ramesh Wanjale Chowk, Warje, Pune","18.4864778","73.79683399999999",""
"ChIJKeYoJACVwjsR3anyP58i_h0","Hindustan Petroleum Corporation Limited","No 55/3A, Plot No 11, Narhe, Pune","18.45436","73.82687","true"
"ChIJwT0JPwCVwjsRjgl7UNP4JRo","Devi singh","CRPF+FP3, Shree Control Chowk, Narhe, handewadi, Pune","18.4361275","73.8242921",""
"ChIJe6mPXuK_wjsRFa3t2uL2zkI","Shell Petrol pump","Warje, Pune","18.4880778","73.7954104","true"
"ChIJN0t0TzeVwjsRhs2FZlj3kRQ","Dinesh Abhiman Pawar","Dinesh Pawar, Narhe, Pune","18.4482405","73.829267",""
"ChIJlzHvFIqVwjsRJwvIiznGPlA","Indian Oil Abhishek","Shop No 1, Pune","18.4568889","73.8289841",""
"ChIJ3RsUJCaVwjsRb4scWt_63dE","INDIAN OIL GANESH","Shop No 1, Ambegaon, Pune","18.4568851","73.82899239999999",""
"ChIJzWddkKCVwjsRKQpoVOIma_k","Indian Oil Manoj","Shop No, Katraj-Dehu Road Bypass, Pune","18.4572514","73.8290698",""
"ChIJBz9yCRmVwjsRHtdPXAdHpyA","Indian Oil Datta","Shop No 1, Katraj-Dehu Road Bypass, Pune","18.4577113","73.8290339",""
"ChIJC8yylUSVwjsR7wRt3leIiPs","Sagar Suryakant Nagarkar","Indian Oil Cng, Katraj Road, Pune","18.4573669","73.8291053",""
"ChIJFW2Md9qVwjsRbvNIlnAp7rE","Indian Oil Ashok","Ambegaon Budruk, Pune","18.45679179999999","73.8292592",""
"ChIJnSTwETiVwjsRS-XpomwrTfg","IndianOil","S No 6, 16, Budruk, Katraj-Dehu Road Bypass, Ambegaon, Pune","18.4578427","73.8290931","true"
"ChIJn4f7Gd6VwjsR9_b4Q0u6S4E","INDIAN OIL KIRAN","Shop No 2, Indian Oil Pump, Katraj-Dehu Road Bypass, Pune","18.4578998","73.82911690000002",""
"ChIJIQzLQZGVwjsRv9y-GNblogU","Rameshwar Ture","Shop No 1, Ambegaon, Pune","18.4566335","73.8293521",""
"ChIJv0MB8JmVwjsRVqm8r2POyug","SANGRAM ENTERPRISES","Shop No 1, Katraj Road, Pune","18.4579031","73.8291429",""
"ChIJbw2p5ESVwjsRVLHgBR-AYWI","Sai Krupa Automobiles","Shop No 55, Narhe Ambegaon Road, Vishnupuram, Narhe, Pune","18.45667389999999","73.8293719",""
"ChIJQYpvFDiVwjsRckmqkZ9Npfg","Babji Petrol Pump","Block-G, AMIT BLOOMFIELD, Ambegaon Road, Ambegaon Budruk, Pune","18.4567421","73.8293645","true"
"ChIJt4E7H7WVwjsRCj2iDtHGGJE","INDIAN OIL ANIL","Shop No 1, Katraj-Dehu Road Bypass, Pune","18.4580227","73.82928609999999",""
"ChIJBZBho0SVwjsRQGx13yw_U-Q","Someshwar Enterprises","Ganesh Villa-1,5, Vishnupuram Colony, Vadgaon Budruk, Pune","18.459533","73.8293722",""
"ChIJMaVXG1OVwjsRko2iIP5TAWs","VKD PETROLEUM","Sr no 4/4 ,Narhe Ambegaon road,Bhumkar Chowk ,Pune-4110141, Pune","18.449472","73.83414429999999","true"
"ChIJdzxeozGVwjsRxoPMeRikhPg","Bharat Petroleum","India","18.4494914","73.834203",""
"ChIJtz_GtTOVwjsR_sKBIz_toqM","Pushkar Gas Service","Shop No 04, Ambegaon Budruk, Pune","18.45066139999999","73.83773099999999","true"
"ChIJBSTyAvbrwjsRm-HpnYcWU60","Shell Petroleum Katraj","FR2W+HJH, Highway, Ambegaon Pune, Mumbai","18.4511344","73.8464697","true"
"ChIJcwCT8CrrwjsRdfziCR8AKB0","Avdhut Gas Enterprises","Shop No 04, Sadguru Hights, Jambulwadi Path Mudak Vasti Ambegaon, Katraj, Pune","18.4345305","73.8443534","true"
"ChIJTdcS3zTAwjsRm0_fSJEEiM0","IndianOil","opposite ARMED FORCES MEDICAL COLLEGE, 499/A, Pune - Solapur Road, Bhairoba Nala, Pune","18.506866","73.89798499999999","true"
"ChIJeQSywwvAwjsRKcxgSJ9P9RU","IndianOil","Sinhgad Road, Dandekar Pool, Municipal Colony, Pune","18.50115","73.846443","true"
"ChIJAQAAwIDqwjsRG6lVBHNt6tI","Bharat Petroleum - Petrol & CNG","Kondhwa Road, Lullanagar, Pune","18.4842841","73.8842309","true"
"ChIJW_4FcDzrwjsRrqFNYFbTPTU","Bharat Petrol Pump - Western Transport Agency","Bhilarewadi, Katraj, Pune","18.4230654","73.8601994","true"
"ChIJy2qHipzqwjsRMlGskloTNoA","PATEL PETROLEUMS","588/2B , PLOT No 9A , BIBWEWADI KONDHWA ROAD, Gangadham - Shatrunjay Road, Market Yard, Pune","18.4813192","73.87401609999999","true"
"ChIJGSBHkk7qwjsRsjRx45KXPlU","Bharat Petroleum Petrol and cng Pump","Shop No 2, Dharmavat petroleum, near dharmavat petrol pump, Katraj Bypass Road, Pisoli, Pune","18.4489405","73.9044255","true"
"ChIJ669Ejj3AwjsRjCQhcTd8Eoc","Bharat Petroleum, Petrol Pump Saraswati auto services","Pune-Satara Road, Dhankawadi, Pune","18.4999972","73.86602719999999","true"
"ChIJFZqGTA3AwjsRZO3pN-H7Dfk","Bharat Petroleum, Petrol Pump -Janata Automobiles","Tilak Road, Shukrawar Peth, Pune","18.5023373","73.8568817","true"
"ChIJQexkGBHAwjsRTAFnJ6wJNbE","Hindustan Petroleum Corporation Limited","Cts No 1021, Shukrawar Peth - Mahatma Gandhi Road, Swargate, Pune","18.50133","73.85839","true"
"ChIJV6uNDG3AwjsR0cL5luLlqAM","IndianOil","New 1339, Shukrawar Peth - Mahatma Gandhi Road, Natu Baag, Pune","18.509142","73.855232","true"
"ChIJyWqxTPW_wjsR_fc_p3_J0go","Bharat Petroleum, Petrol Pump -Bharat Petrol Depot, Navi Peth","Lal Bahadur Shastri Road, Pune","18.5078375","73.8440052","true"
"ChIJ_XNAh0DAwjsRjeXdZQVlexk","Hindustan Petroleum Corporation Limited","Mahavir Darshan Complex, F P, Bhawani Peth, Pune","18.5082297","73.8684852","true"
"ChIJebyWrjXAwjsR9xcXOOOob94","Hindustan Petroleum Corporation Limited","No 2 Poolgate, Solapur Road, Pune","18.5068815","73.88558069999999","true"
"ChIJe-IIL4y_wjsRFl7tCjYuZJM","Bharat Petroleum","Karve Road, Pune","18.5100223","73.8335075","true"
"ChIJ3XBJLYy_wjsR30ehLzqcP6k","IndianOil","Karve Road, Nal Stop, Pune","18.509878","73.833122","true"
"ChIJzcHHAYi_wjsRbECgv80Kbjo","Hindustan Petroleum Corporation Limited","Ground Floor, Fergusson College Road, Deccan Gymkhana, Pune","18.5167677","73.8418867","true"
"ChIJ2aiLynnAwjsRHIR76l2mABY","Hindustan Petroleum Corporation Limited","near Mcdonald Outlet, 889/890, Jangali Maharaj Road, Deccan Gymkhana, Pune","18.5187586","73.8449665","true"
"ChIJbZnKHWXAwjsR2cmIUmCelVA","The Filling Station","Shanivarwada, 1414, Chhatrapati Shivaji Maharaj Road, Kasba Peth, Pune","18.5204667","73.8559569",""
"ChIJX5ZmAYrqwjsRt3uNFzDahwg","Hindustan Petroleum Corporation Limited","S No 40/1/5, Plot No 4, Mitha Nagar, Kondhwa, Pune","18.4691515","73.8884185","true"
"ChIJsUMQsE_AwjsRaRliQmuLuHI","Hindustan Petroleum Corporation Limited","Plot No 1 Moledina Road, East Street, Pune","18.51822","73.879638","true"
"ChIJd51rtkLrwjsRzAN-92YA2Yg","HP PETROLEUM BALAJI","Shop No 1, Katraj, Pune","18.4486199","73.8578419",""
"ChIJ8wW5BO3rwjsREfcFix7HAEY","Swara gas services Katraj","Santosh Nagar, Ambegaon Khurd, Pune","18.4486294","73.85449109999999",""
"ChIJCZ8e9q7rwjsRm-Nsio8QcaY","Maharashtra Natural Gas Ltd CNG Station (Rathi CNG)","FV33+MCV, Bharati Vidyapeeth Road, Shriram Nagar, Dhankawadi, Pune","18.4542251","73.8535344","true"
"ChIJ3_V8J6TrwjsR0M1GvGMbyOk","RATHI CNG STATION","74, Bharati Vidyapeeth Road, Shriram Nagar, Katraj, Pune","18.4541593","73.8533621","true"
"ChIJqyaQrd7qwjsRA1piQ2g1tJk","Bharat Petroleum","India","18.4430373","73.85978589999999",""
"ChIJE8QE8v_rwjsRPsopo_I9TMo","Katraj petroleum BPCL","53/2A, Sr no, 7, Katraj Ghat Road, Katraj Vasahat, Katraj, Pune","18.44301759999999","73.8597564","true"
"ChIJCS82GtnqwjsRTKLShWbkJa8","HP GAS","CVR5+F2Q, Anjani Nagar Road, Anjani Nagar, Santosh Nagar, Ambegaon Budruk, Pune","18.4412146","73.8576215",""
"ChIJ1T9WbuXqwjsRdhntjmaOXNE","A M K Enterprises & Apollo Tyres","Katraj Kondhwa, Bypass Highway, Bypass Highway, Pune","18.4487004","73.8682844","true"
"ChIJl2_KxF7rwjsRpTgaZK3AFEo","Nilesh Store","Gokulnagar Lane3, Nirmal Society, Gokul Nagar, Pune","18.4459012","73.8711379",""
"ChIJeTVGnrrrwjsRsvgxHtCg6sQ","Ganesh Gas Agency","61/27, Lane Number 7, Sundar nagar, Katraj, Pune","18.4353981","73.8604833",""
"ChIJc_xaRwDrwjsRXMZb0YMSH_4","Jay malhar petroleum","Old, Pune - Satara Road, Santosh Nagar, Ambegaon Khurd, Pune","18.4350176","73.8598619",""
"ChIJvc2h5fDrwjsR8lPRqQJZytQ","Nuserawan Petrol Pump Dhankawadi","B PLOT, 19-A/4 A, Pune - Satara Road, Dhankawadi, Pune","18.4687787","73.8579982",""
"ChIJBZgO3abrwjsRYIzfSzomFW0","shilimkar 24X7 CNG station","beside Bharat petroleum, KK Market Road, Pune","18.468699","73.8592621",""
"ChIJFzu-orvqwjsRKwHukKPkYjo","Bharat Petroleum","India","18.4688397","73.8580022",""
"ChIJN243FPrrwjsRtmN8a_B2034","SSquare CNG station, Dhankawadi","FV92+8PQ, Hatti Chowk, Chhatrapati Sambhaji Nagar, Yashwantrao Chavan Nagar, Pune","18.4683259","73.85187379999999","true"
"ChIJMa_S7Z_rwjsRPp1OGqx_PMo","Maharashtra Natural Gas Ltd CNG Station","Santosh Society, Talajai Pathar, Dhankawadi, Pune","18.4683518","73.8518649","true"
"ChIJ4WGDebbrwjsRRm8e8DzBkBw","Shivansh Washing Center","near CNG pump, Hatti Chowk, Dhankawadi, Pune","18.468552","73.8527161","true"
"ChIJdd0oHSTrwjsR3E_6Iq2kMz4","IndianOil","S No 89, Mangadewadi, Parvati, Katraj, Pune","18.431814","73.858623","true"
"ChIJs4_yHCTrwjsRR1rljE9wJp0","राजमुद्रा एन्टरप्रायजेस","India","18.4312694","73.8592432",""
"ChIJsZF4o73qwjsRPI40gYooiDg","Hindustan Petroleum Corporation Limited","S No 672/11, Bibwewadi, Pune","18.4694","73.86379","true"
"ChIJxS796-PpwjsRPgu07LV4CZg","Jay Shambho Petroleum (BP - Deshmukh Petrol Pump)","MAULI SUSHILA, Pune Saswad Road, Bhekrai Nagar, Tukai Darshan, Phursungi","18.4875212","73.952469","true"
"ChIJ-1hpHObpwjsRV7dA-eQNHwg","Hindustan Petroleum Corporation Limited","Sr No 177/1, 36 Haveli, New, Phursungi","18.4810621","73.9547911","true"
"ChIJQbFk83TCwjsR3lFsZ3cptJo","Hindustan Petroleum Corporation Limited","Manjri Haveli, Sr No 77/1/B, Pune","18.4972744","73.9620315","true"
"ChIJl2BytVvBwjsR6nuGgS0jwf4","Bharat Petroleum, Petrol Pump -Ekvira Petroleum","Solapur Road, JJC Colony, Ramtekadi, Wanowrie, Pune","18.5066294","73.9113684","true"
"ChIJG-ObjQPswjsRaG0Xl0Txs1E","Hindustan Petroleum Corporation Limited","Ground Floor, Purandar, Bhivri","18.3904382","73.93038489999999","true"
"ChIJ-_nqaQ_CwjsRTgL43NPErNQ","Tekawade Petrol Pump & CNG","15, Pune - Solapur Road, Vital, Hadapsar, Pune","18.4992281","73.94892829999999","true"
"ChIJ8b9lZADrwjsRq-dTepZmIWo","Handewadi petroleum Bharat Petroleum","FW4J+2CR, Handewadi Road, Sayad Nagar, Hadapsar, Pune","18.4548662","73.93094649999999","true"
"ChIJbR1qESrrwjsRKcSlwmrNNTs","JAI GANESH PETRO STATION BPCL CNG PUMP","near Jai Bhavani Mangal Karyalaya, Nhavle Vasti, Handewadi Road, Hadapsar, near Jai Bhavani Mangal Karyalaya, Pandhari Nagar, Handewadi, Pune","18.4588634","73.93362139999999",""
"ChIJ_W0uFWTrwjsRyS2EVMPXHEI","CNG STATION,Bharat Petroleum...","FW5M+HF2, Pandhari Nagar, Handewadi, Pune","18.4588774","73.9336534","true"
"ChIJ01i866bJWTkRtMrcXGBfHQg","IndianOil","Pune, No 309/1, Uruli Devachi Fursungi, Haveli","18.4566386","73.9378827","true"
"ChIJl2ZShSbpwjsRuHI7IrYK5qQ","Hindustan Petroleum Corporation Limited","Gat No 312, Machine Chowk, near Mantarwadi Khadi, 2/1/4 & 312/2/1/5, Uruli Devachi, Pune","18.4576973","73.93892869999999","true"
"ChIJEVVkx57rwjsRtRs6w55XR-E","Company Work","Mandave Lakshiminagar, 51 Fata Mandave, Pandharpur, Solapur","18.4629151","73.9193499",""
"ChIJq5WuQkzrwjsRAzdDr3gbQfU","Unnati Ventures","Katraj-Hadapsar Bypass Road, Pune","18.4626109","73.91404039999999",""
"ChIJ-edCAmLrwjsRvmhN6XaVfAU","Shell Petrol Pump","FWG8+3G2, Tal- Haveli, Katraj-Hadapsar Bypass Road, Mohammed Wadi, Pune","18.466112","73.918238","true"
"ChIJP91D1t_rwjsR6JyKt7tw4u0","Hindustan Petroleum Corporation Limited","opposite Corinthians Club Internal Road, Sr No 12/11B, Mohammed Wadi, Pune","18.4660384","73.9175171","true"
"ChIJBx04zrjpwjsRGDPSet1MhVY","Shell petroleum","Saswad, Rd, Uruli Kanchan","18.457166","73.94521399999999","true"
"ChIJ6ydyRgDrwjsR5oFDUz9Emq4","Indian Oil (Sai Petro Hub)","29, opp. HDFC Bank, near to Baghban Restaurant, NIBM, Undri - Hadapsar Road, Hills & Dales, Kondhwa, Pune","18.4630402","73.91182739999999",""
"ChIJVRFmxaTrwjsRFGZkmtqhBuM","Yugrishi Healthcare Center","Behind Of Dharmawat Petrol Pump, Urban Rise, A- 802, next to ARV IMPERIA, Pisoli Road, Undri, Pune","18.4472458","73.906772","true"
"ChIJw4FxVtfrwjsRgelmKRz4cIY","Sadgurukrupa petrol pump","JSPM CYGNET SCHOOL, near Ambiacha Zaad, College, Handewadi Road, Indira Nagar, Undri, Autadwadi Handewadi","18.4697422","73.93270129999999",""
"ChIJW7PpBh_qwjsRLpelw2fkrYo","Bharat Petroleum","India","18.4697446","73.93280159999999",""
"ChIJO9LoJwDpwjsRAQWlvZP5_2w","Kondwa","FW7V+8W3, Pune","18.4632566","73.9447872",""
"ChIJgSIaexDqwjsRepPlcixV_Fg","NAVNATH ENTERPRISES","FWGF+7C9, Mohammed Wadi Road, Mohammed Wadi, Pune","18.4756677","73.9236073",""
"ChIJHb0dc5HpwjsRAVnA-xxDk0A","Bharat Petroleum, Petrol Pump, CNG Gas -Jai Ganesh Petroleum","Uruli Devachi, Pune","18.4620541","73.95102179999999","true"
"ChIJn9wqNGvpwjsR2E5kIE9Z1WI","TILAKRAJ CNG","DD, S.No12 ,H 12/A NH548, Pune","18.4642379","73.952666","true"
"ChIJ1TqrJADrwjsRBbny99QwNkI","Upcoming Bharat Petroleum","88/2/B/1, Mohammad Wadi Road, Gulam Ali Nagar, Hadapsar, Autadwadi Handewadi","18.4790262","73.92683869999999",""
"ChIJL3F1BlfqwjsR0FmYXlFTN7g","Bharat Petroleum","India","18.45002819999999","73.8922534",""
"ChIJlQxFBlfqwjsRTdGwn8huwe0","D. J. Petroleum","Danny Mehata Nagar Industrial Area, Kondhwa Budruk, Pune","18.4499986","73.892201","true"
"ChIJw8encRrrwjsRnau-AkSvbLw","IndianOil","Gat No 47, 1 Haveli, 2A/11 47/1C/13 47/1B, Mohammed Wadi, Pune","18.4809491","73.9104071","true"
"ChIJE7x3x3HqwjsRCqJhpfBeA9I","CHAKAN'S LAKDI GHANA OIL","FWH3+4R8, NIBM Post Office Road, Salunkhe Vihar Society, Kondhwa, Pune","18.4777861","73.90457479999999",""
"ChIJO_DNBurrwjsR8cPlXnkdKWw","Hindustan Petroleum Corporation Limited","Survey No, 13/2/1, Kondhwa, Pune","18.4591866","73.890999","true"
"ChIJb_plZb7pwjsR_LmYieovdBY","Hindustan Petroleum Corporation Limited","SN 44, Shantai Transport Katraj Kondhwa By Pass, Mantarwadi","18.4648976","73.9617422","true"
"ChIJ7f5RyuvpwjsRA06HH8SmyAQ","Hindvi Enterprises","FXF4+GGP, Phursungi Village Road, Suresh Nagar, Pune","18.4738333","73.9563265","true"
"ChIJ8-Efy-vpwjsRPByz8R2hU10","HP Gas","India","18.4738686","73.9564589",""
"ChIJM6O4b2fpwjsRb4UVIba4454","Hindustan Petroleum Corporation Limited","SR No 49, 1A/1 Haveli, Uruli Devachi, Pune","18.460459","73.964331","true"
"ChIJl6EpbILrwjsRGfyzZKIXMwY","Hindustan Petroleum Corporation Limited","Sr No 309, Handewadi Road Mohammadwadi, Railway Crossing, Hadapsar, Pune","18.4881282","73.93212199999999","true"
"ChIJC9dXwlzpwjsRaA6MiYeTmjI","Bharat Petroleum","Bhadale Vasti, Saswad Road, Uruli Devachi, Pune","18.4542288","73.9676521","true"
"ChIJ99l7SBXpwjsRw7a5uB-MfcU","MNGL Maharashtra Natural Gas Ltd CNG Station","sr no 215,chaitanya colony, Ganga Nagar, Phursungi","18.4809118","73.9547762",""
"ChIJd6PqI_7BwjsRYDY96dlM9Pg","Shree Mahalaxmi Gas Service","Sr No 311, Lane, opposite Ganesh temple, 13, Sasane Nagar Road, Hadapsar, Pune","18.49073","73.9318511","true"
"ChIJjdax0P_BwjsRbiq2kwrZaks","Gs Caltex","FWRP+5C2, Kale Padal Road, Swarvihar, Sasane Nagar, Hadapsar, Pune","18.4903796","73.93602440000001",""
"ChIJRTUOCz_rwjsRbRnQRxIKSBY","Jio-bp pulse","Survey No 2, 3/4, VIM Private Road, Kapil Nagar, Kondhwa, Pune","18.4582129","73.8837862","true"
"ChIJA7YDSYrqwjsR7ciiKirMPz0","Rolex Gas Service","Shop No. 3, Unity Park Road, Opeal Falak, Kondhwa, Pune","18.4674249","73.8865482","true"
"ChIJT9h8RP7BwjsR3vzkpU5tZ4c","NEW HANUMAAN OIL DEPO","India","18.4922645","73.9319833",""
"ChIJgylc1lHpwjsRLvEFguKCIcU","Hindustan Petroleum Corporation Limited","Sr No 221 Dhorewasti, Bhekrai Nagar, Phursungi","18.4821405","73.9591794","true"
"ChIJOThKTWfrwjsRJd57cgQGfvg","Bharat Petroleum, Petrol Pump -Kedari Service Station","WANVARI KEDARI NAGAR, Flower Valley Lane, Wanwadi, Pune","18.4865453","73.89864539999999","true"
"ChIJGfcqUaTrwjsRXODxWQlxyE0","Nisha engineering","SAFAYER CLASSIS BUILDING, Shivneri Nagar, LINE NO 05, Pune","18.478314","73.8893174",""
"ChIJo8409DPpwjsRo1o9LUO8888","JAYPRAKASH PETROLEUM","FXG8+VXM, Fursungi Bhekrai Road, BHEKRAINAGAR, Pune","18.4772127","73.96742379999999",""
"ChIJ_8yC2QfCwjsRQJGixu6pzBA","Jay Shambho Petroleum","3, Pune Saswad Road, Bhekrai Nagar, Hadapsar, Pune","18.4936205","73.9474163",""
"ChIJPWnZ7UTBwjsRqadnmmm6wvA","Vidya Petroleum","Sr No 13, Satavwadi, Hadapsar, Pune","18.4944159","73.9467446",""
"ChIJHypAr-XBwjsRqCSUnF_9ycw","Hindustan Petroleum Corporation Limited","Final Plot No 7, Sub PN S1, Sy No 107/1, TPS 2, Hadapsar Industrial Estate, Pune","18.4989872","73.92064620000001","true"
"ChIJo7NlyPnBwjsRA2HxeGl50IM","Paragon Fire Service And Paragon Enterprises","Shop No 6, Amar Plaza, Gandi Chowk, Pune","18.5005238","73.9321159","true"
"ChIJSfTuR2NywzsR6PU66oLx2KI","Shri Shirsai Petroleum","Gat No 85/P, Solapur Pune Hwy, NH 65, Ravangaon, Parwadi, Daund","18.5017137","73.9313671","true"
"ChIJV9sregPCwjsRprO8SPGN3Pg","Hindustan Petroleum Corporation Limited","Survey No 11, 1 & 2, Solapur Road, Hadapsar, Indapur","18.5001333","73.9411734","true"
"ChIJdzyIlya_wjsRKc8Kva9HyNM","Bharat Petroleum, Petrol Pump -Mauli Petroleum","BANER, Prathamesh Park Road, Aundh, Pune","18.55524489999999","73.79999529999999","true"
"ChIJuXH8DiW_wjsRbec4tm1DNhQ","Hindustan Petroleum Corporation Limited","Survey No, near Telephone Exchange Road, 137/138, Marutirao Gaikwad Nagar, Aundh, Pune","18.557858","73.8041953","true"
"ChIJg_umenu_wjsRG9658MNtbok","IndianOil","Ground Floor, opposite E-Square, Ganeshkhind Road, Pune","18.5371878","73.83534569999999","true"
"ChIJk5nzsYC_wjsRUqCcGiTKd4E","Bharat Petroleum, Petrol Pump -Famous Auto Centre","Dnyaneshwar paduka chowk dyaneshwar paduka chowk, Fergusson College Road, Shivajinagar, Pune","18.5271961","73.8425204","true"
"ChIJmRj6dTW_wjsR1kpAloBvXOk","Maharashtra Natural Gas Ltd CNG Station","6, Spicer College Road, Shitole Nagar Road, Madhuban Colony, Old Sangvi, Pimpri-Chinchwad","18.5696388","73.8171984","true"
"ChIJTaBdXL-9wjsRiH3SniPVzKk","Shell","Mulshi Road, Vill Bhukum, T, Mulshi","18.500522","73.7265","true"
"ChIJ2U8kS2PAwjsRuzJLveBbDes","Bharat Petroleum, Petrol Pump -Sholapur Motor Stores","opp. PMC, Shivajinagar, Pune","18.5252567","73.85362959999999","true"
"ChIJcci3hcm4wjsRzBjB4sb178I","Bharat Petroleum Petrol and CNG Pump , SHITOLE PETROLEUMS","NEW SANGHVI,SR.NO.82/1A/1/3/1 PCMC, Tal Haveli, Pune","18.5787802","73.8150962","true"
"ChIJNfatT0W-wjsR6V4jclllEFI","Hindustan Petroleum Corporation Limited","Plot No 68 & 69, Survey No 14 & 16, Sus Pashan Road, Shinde Ngr, Kothrud, Bavdhan, Pune","18.5112897","73.7823665","true"
"ChIJz5HHZXW_wjsRHDssrYpUZ88","Maharashtra Natural Gas Ltd CNG Station","Pranjali Patil Nagar, Bavdhan, Pune","18.5113198","73.7709271","true"
"ChIJ8Yi2ib6_wjsRiIDz6JLc8XY","SAI SAYAJI CNG PUMP MNGL","near C N G Pump, Shastri Nagar, Kothrud, Pune","18.5072193","73.80258669999999","true"
"ChIJi_w-z7a_wjsRAI-RgAK1ot0","MNGL CNG pump Kothrud","India","18.50722319999999","73.8026505",""
"ChIJ36EfNbe_wjsRdaYhtoatZ8s","LOVATO AUTOGAS","India","18.5079283","73.80499499999999",""
"ChIJ84_eDAC_wjsRbK8HUIC3aow","Hindustan Petroleum Corporation Limited","Survey No 130, Baner - Pashan Link Road, Pashan Gaon, Pune","18.5428505","73.7902924","true"
"ChIJDe_magC_wjsRVZuMdkgO09c","Proposed Petrol Pump","HQ2C+VX8, Baner Street, Baner Annex, Baner, Pune","18.5521516","73.772442",""
"ChIJe0DvI9O_wjsR9IC9S90_j60","Hindustan Petroleum Corporation Limited","Sr No 268/1 & 265/1/1, Paud Road, Mulshi Road, Bhugaon, Sanas Nagar","18.5005801","73.7548056","true"
"ChIJmUhmUrS_wjsR7ru8Zz8D1uI","Mauli entarprases","01 dp road, Baner - Pashan Link Road, Pune","18.5556734","73.80230809999999",""
"ChIJHRzEPE6_wjsRTDcWyPo-IOM","Ak Enterprise","Shop Number 1, Green Park, Baner, Pune","18.5564527","73.80032489999999",""
"ChIJ2Qa3332_wjsRZ4ROCllL264","Shell Petrol Pump - Sus","Sus Lane, Pune","18.551943","73.76083",""
"ChIJiZV6abG_wjsR0Yjay4PHM58","Shell select","Senapati Bapat Road, Pune","18.5268","73.829697","true"
"ChIJ7RGoAdi_wjsR5k-G3GQOT8k","Jio-bp","Ground Floor, Pradeep Chambers, Law College Road, Deccan Gymkhana, Pune","18.5191457","73.8305826","true"
"ChIJW5-jeHe_wjsR78e_7J5B7ao","YASHRAJ SERVICE STATION","GRJH+5V4, Namdev Bhirat Saduji Path, Shivaji Co operative Housing Society, Bhageerath, Gokhalenagar, Pune","18.5303962","73.8297015",""
"ChIJGUbx4qS-wjsRPbDQA6ZtUhk","Torrent SAS","HQ35+35G, Sus Lane, Sus, Pune","18.5526851","73.75795680000002",""
"ChIJ7bdqipO9wjsRzWsqyNQ6hwo","Vanaz auto LPG pump","GP2W+MJW, Mulshi Road, Bhugaon, Bavdhan, Pune","18.501748","73.746578",""
"ChIJLZLL93y_wjsRijacLaOxwFM","BP Police Welfare Pump Baner Road","GRVF+FQQ, Chavan Nagar, Pashan, Pune","18.5437127","73.8244876","true"
"ChIJWwA7Saq_wjsRE2Qu5mDv--E","BP Police Welfare Pump Pashan Road","GRVF+GRR, Doctor Homi Bhabha Road, Chavan Nagar, Pashan, Pune","18.5438666","73.8245175","true"
"ChIJ_bNoIKW-wjsRjHm99nP8ClM","Hindustan Petroleum Corporation Limited","Shop No, near Chandere CNG Pump, 84 Mulshi, Pashan - Sus Road, Pune","18.5523069","73.75592259999999","true"
"ChIJA2p26o2_wjsRF2C9PgnL9Aw","Select Automobiles","GR5J+MJ9, Nal Stop, Erandwane, Pune","18.5091725","73.8316069",""
"ChIJRVSq1Ka-wjsRAAAAsGhHpDU","ZARNAA OIL","GQX2+QC8, Vidya Villa Road, Gaon, Sus, Pune","18.5494032","73.7510848","true"
"ChIJd52aTlzAwjsR1G-hql2-yUE","New Auto Corner","Station Road, Plot No 36, Mangalwar Peth Road, Somwar Peth, Pune","18.5226274","73.86663879999999",""
"ChIJu6hQj_jAwjsRsRK_IcR0CAU","Mohanish Auto Centre","328/B, Bund Garden Road, Wadia college, Sangamvadi, Pune","18.5346431","73.87928","true"
"ChIJL0WpVF7AwjsR5QsRYg5nD9Y","RAILWAY CONSUMER DEPOT PUNE","Behindi sangham park, officers colony, Agarkar Nagar, Pune","18.5279216","73.86802170000001",""
"ChIJtdlkE1nAwjsR8Vg7N4HWPAQ","Hindustan Petroleum Corporation Limited","next to National Hotel, 14, Sasoon Road, Pune","18.5278839","73.8745689","true"
"ChIJY_0cNPzAwjsRxpL_rCk3lJQ","Bharat Petroleum, Petrol Pump -Roshani Services","HOTEL BLUE D, Koregaon Road, Vasani Nagar, Koregaon Park, Pune","18.5392265","73.8856668","true"
"ChIJ2aQRSvzAwjsRXjC4WaFpjUA","Hindustan Petroleum Corporation Limited","Ground Floor, North Main Road, Koregaon Park, Pune","18.5395644","73.8856763","true"
"ChIJ_RKtqqTBwjsRMEXY4TjNghM","Bharat Petroleum, Petrol Pump -Kawade Petroleum","Bhagwan Tatyasaheb Kawade Road, Ghorpadi, Pune","18.5226935","73.90659529999999","true"
"ChIJPxDN7oLBwjsRIDRip15ColA","IndianOil","Hissa No 3/1/1/1A/1/1A/1A/1/1A SN 60/2/1, Haveli, Mundhwa, Pune","18.534094","73.926132","true"
"ChIJfV5nSkXAwjsR4MBHTr6zqoI","Hindustan Petroleum Corporation Limited","No 3/C, Doctor Baba Saheb Ambedkar Road, Camp, Pune","18.5196097","73.8760569","true"
"ChIJi4IarIXAwjsRMJOEWUNezxE","Bharat Petrol Pump, Wakdewadi","Old Mumbai - Pune Highway, Wakadewadi, Pune","18.5373853","73.85077009999999","true"
"ChIJKw1sUoHAwjsRPuaCCH9FwAo","Maharashtra Natural Gas Ltd CNG Station","1 P.M.P.M.L. Bus Depot Commercial Bldg 27, A-Block, Narveer Tanaji Wadi, Shivajinagar, Pune","18.53426","73.8479033","true"
"ChIJlUjopm_AwjsRqXkqDq0cHYI","Haripriya Industrial and Trading Co.","Tiranga Bhavan, Chhatrapati Shivaji Maharaj Road, Budhwar Peth, Pune","18.5163938","73.85637","true"
"ChIJ_bpu7cPBwjsRrTqj6W1p5fg","Golden Daily Needs","430, nr. Ladkat petrol Pump, 2, New Mangalwar Peth Road, Somwar Peth, Pune","18.5222634","73.8626807",""
"ChIJGzmMemfAwjsRnlHbBFWKyMQ","Raj Stove Compressor Repairing","Plot No. 57, Sadanand Nagar, Mangalwar Peth, Kasba Peth, Pune","18.5224729","73.8647683","true"
"ChIJmbUneyTBwjsRxa1E0h1ZAwg","Bharat Petroleum, Petrol Pump -Shree Sadguru Service Station","JANGLI MAHARAJ ROAD PUNE, Pune","18.5265785","73.8508453","true"
"ChIJCY5E7eK1wjsRrX1cSsnEK-c","IndianOil","Ground Floor, near Post Office, Shivajinagar, Pune","18.5279573","73.8504593","true"
"ChIJh2VVRQDBwjsRSY9djFfYxI4","E Tender Filling service","near PMC Corporation, Office No. 1 Bahirat Patil Complex, Shivaji Nagar, Gaothan Pune 5, near PMC Corporation, Pune","18.529335","73.852848",""
"ChIJ9zEVcQDBwjsR_yKmCOlKF8w","Ladkat Petrol Pump","439/36, Lane Number 1A, Manik Nagar, Somwar Peth, Pune","18.5225394","73.8665973",""
"ChIJN0xLml3AwjsRZ1Hjy6c1BFQ","IndianOil","Ground Floor, Mangalwar Peth, Kasba Peth, Pune","18.522636","73.866669","true"
"ChIJzzRXIF7AwjsRl_ZnQ3PY9tA","Hindustan Petroleum Corporation Limited","206, Wellesley Road, Mangalwar Peth, Pune","18.526865","73.86467619999999","true"
"ChIJT6YuFR7BwjsRLfW-NpaGn4o","petrol pump","p. No. 308, Of Air India, near Rto F, मुंबई राश्ट्रीय मार्ग, पुणे","18.529529","73.862219","true"
"ChIJf9K_NmDAwjsRlo7s3nSr9K4","B P Coco And CNG Gas","RTO, Shivajinagar, Pune","18.5292581","73.86285509999999","true"
"ChIJcf5QkazBwjsR4Ko70LQoG0Y","IndianOil","near PUNE RAILWAY STATION, Wellesley Road, Mangalwar Peth, Agarkar Nagar, Pune","18.526768","73.86582899999999","true"
"ChIJ-ahc0VzBwjsRdvzT5NELIUk","Bharat Petroleum, Petrol Pump -Adarsh Automobiles","Pune Nagar Road, Wadgaon Sheri, Pune","18.5621693","73.9246908","true"
"ChIJBXRU-lzBwjsRRWSq_dp0RW4","Hindustan Petroleum Corporation Limited","No 46, 6, Pune Nagar Road, Wadgaon Sheri, Pune","18.5624571","73.926799","true"
"ChIJj1ZF8_3CwjsReyzNDioyXUM","IndianOil","Ground Floor, Haveli, Manjari Khurd","18.5384501","73.99020399999999","true"
"ChIJcx3N_n_BwjsRnS7FYjWICCk","Bharat Petroleum, Petrol Pump -Magar Petroleum","Kopargaon - Shirdi - Ahilyanagar - Pune Highway, Magarpatta, Hadapsar, Pune","18.5153703","73.9329605","true"
"ChIJ6RnXep_BwjsRO2t_cA2wUvQ","Hindustan Petroleum Corporation Limited","Survey No 71, 17B & C Haveli, Mundhwa, Pune","18.523875","73.9178173","true"
"ChIJN2cDOIXBwjsReYPWsxbdsHM","bhole gas agency","GWJ9+CM2, Pingale Wasti, Koregaon Park Annexe, Mundhwa, Pune","18.5310095","73.9191451",""
"ChIJjYRHKofBwjsRhZkoetas7aU","Shell","Mundhwa Road, Pune","18.531872","73.93289","true"
"ChIJl-0lo53BwjsRPOQ75BD9w8c","Bharat Petroleum, Petrol Pump -Yash Petroleum","Mundhwa Road, Mundhwa, Pune","18.533598","73.92057870000001","true"
"ChIJKz_x7HLBwjsRiR_ul0K6h24","Hindustan Petroleum Corporation Limited","Survey No 111, B/3A, Vaiduwadi, Hadapsar, Pune","18.504379","73.91958799999999","true"
"ChIJg1gDyK7BwjsRyJilo0hU18A","Hindustan Petroleum Corporation Limited","Ground Floor, near Pune - Solapur Road, Vaiduwadi, Hadapsar, Pune","18.5042998","73.9196089","true"
"ChIJXWFvgyTBwjsROXFVbCAnmwg","Shankar Patil","Vaiduwadi, Vaidhu Wadi, Hadapsar, Pune","18.5043063","73.9195779",""
"ChIJh3zYbrvBwjsRHefivvlPMWg","Hindustan Petroleum Corporation Limited","No 84/4/A, near Poonawalla Fincorp, Survey, North Main Road, Mundhwa, Pune","18.533782","73.914926","true"
"ChIJF2A7drPBwjsRINO2gUEy0O8","Rupesh","Silver Towers, Vaiduwadi, JJC Colony, Ramtekadi, Hadapsar, Pune","18.5028427","73.91911139999999",""
"ChIJn5EJbKjBwjsRRcdijwNRDFA","Salvi Petro Station (BHARAT PETROLEUM)","near Mundhwa, Magarpatta Road, Kharadi, Pune","18.5382735","73.934505","false"
"ChIJk7PTRyzBwjsRTmpNFor1rYA","TRY BUY KIOSK","1st Floor, above Kishor Medicals, opp. Bharat Petrol Pump, Bhagwan Tatyasaheb Kawade Road, Ghorpadi, Pune","18.5229756","73.9062143","true"
"ChIJ-4CGZQDBwjsR__6_hxuzys8","Maharashtra natural gas Ltd pump","GWF4+3F7, Nigade Nagar, Ghorpadi, Pune","18.5226745","73.9061729",""
"ChIJPYfd3H7BwjsRqlXA3nggHms","Jay Bhawani Home Appliances And Gas Services","Shop No. 1, Kharadi, Pune","18.5399027","73.9313517","true"
"ChIJWyomrArBwjsRJNzWEaHrW9E","Roshni Services","80, North Main Road, Koregaon Park, Pune","18.5351598","73.91211229999999",""
"ChIJU6OFJzDCwjsRzjPNzr1NkvE","Adira Gas Service","Shop No, 1, Mundhwa Road, Mundhwa, Pune","18.528255","73.94776999999999","true"
"ChIJVVVVpRfCwjsRqcbsGxgTqbw","Anna Gas Repairing And Sales Services","Mauli Sadan, near Gram Panchayat, Sade Satra Nali, Hadapsar, Pune","18.51273849999999","73.9499426","true"
"ChIJdVhIgATCwjsRVyij71142Kk","Hindustan Petroleum Corporation Limited","Ground Floor, Haveli, Pune - Solapur Road, Hadapsar, Pune","18.5001777","73.94195189999999","true"
"ChIJqSW2LgDBwjsRMt5hBqNa31k","London bridge","GWG2+HC4, Bridge Walk Way, Shravasti Nagar, Ghorpadi, Pune","18.5263885","73.9010658",""
"ChIJ0xN1g33BwjsRdzJZzFmoWmQ","Hindustan Petroleum Corporation Limited","Haveli, Survey No 23/1, Magarpatta Road, Mundhwa - Kharadi Road, Kharadi, Pune","18.5450588","73.9354238","true"
"ChIJZwTnGNHDwjsRO99o__HvPbQ","Lonkar Petroleum &CNG.","Mundhwa - Manjari Road, Lonkar Nagar, Pune","18.5266985","73.9544829","true"
"ChIJG1etwa_DwjsRpp4b-iw5x30","Hindustan Petroleum Corporation Limited","Sr No 132, 2/2B/2, Mundhwa - Manjari Road, Manjari Budruk, Pune","18.5254913","73.9562314","true"
"ChIJB6M2qyLBwjsRi0N4F27inVY","Infrastructure developers Contractor","Shivarkar road Parmar plaza 2 nd floor, Fatima Nagar, Wanwadi","18.5017657","73.9005023","true"
"ChIJ34bSIwDDwjsRGbQo3RUvseA","Manjari Road","GX23+P5F, Manjari Road, Subhash Nagar, Chaitanya Colony, Hadapsar, Pune","18.5018143","73.9529154",""
"ChIJgSLL0cvDwjsRdmFW76tDx3o","Shell Petrol Pump","Manjri-Hadapsar Road, Pune","18.5015","73.95267","true"
"ChIJFdsIEgq5wjsRmlKfNQ1ZGEs","Hindustan Petroleum Corporation Limited","Ground Floor, Priyanka Appartment, opposite Hotel Chanakya, Pimpri-Chinchwad Link Road, Gawade Nagar, Pune","18.6302626","73.7927471","true"
"ChIJT82KJeS4wjsRgoV7rlq1WQI","IndianOil","S No 4/3A/2 Netaji Chowk, Pimple Saudagar, Pimpri Colony, Aundh","18.6005074","73.8029341","true"
"ChIJCZwQPGC5wjsRdAOjWnamnTE","IndianOil","22/3 to 22/5, Hinjawadi Phase 1 Road, Hinjawadi Rajiv Gandhi Infotech Park, Pune","18.5912836","73.7488469","true"
"ChIJWyiQmne5wjsRVWbRSnQCBb0","Hindustan Petroleum Corporation Limited","near Dange Chowk Road, S No 49/2B/2, Mulshi, Tathawade, Pune","18.6112486","73.76044790000002","true"
"ChIJ69hNQ_O4wjsRwU1bdqOvv6o","Shell","Old Bombay, Service Road, Road, PCMC, Kasarwadi, Pune","18.612058","73.81721999999999","true"
"ChIJqZH6NfO4wjsR-rrI3bOGH4Q","IndianOil","Ground Floor, Old Mumbai - Pune Highway, Kasarwadi, Pune","18.6106945","73.8186675","true"
"ChIJJw7V1ZO4wjsR3depVAS_SW8","Hindustan Petroleum Corporation Limited","Ground Floor, Old Mumbai - Pune Highway, Kasarwadi, Pune","18.6043816","73.8240654","true"
"ChIJTQYfuUq4wjsRtHFmXnWK6qY","Bharat Petroleum, Petrol Pump -Jaihind Highway Service Station","Chinchwad Station Road, Chinchwad, Pune","18.6385722","73.7957916","true"
"ChIJmbWq3N27wjsRqF3w_lEKesw","Shell","T Mulshi, Bengaluru - Mumbai Highway, Vill, Tathawade, Pimpri-Chinchwad","18.6134892","73.7485824","true"
"ChIJUXvwxtu7wjsR9rOIEL4UeHw","Bharat Petroleum Petrol Pump , K.B. PETROLEUM","HPWR+J7F, Hinjawadi Phase 2 Road, Phase 1, Hinjawadi Rajiv Gandhi Infotech Park, Hinjawadi, Pune","18.5965624","73.7406582","true"
"ChIJhfRAVsO7wjsRZFzI58eEg8k","Hindustan Petroleum Corporation Limited","Shop No 152, opposite KPIT Cummins, 3/1A & 152/3/2, Hinjawadi Marunji Road, Mulshi, Hinjawadi, Pune","18.594002","73.73554519999999","true"
"ChIJx3FOT37HwjsRz7Dh9UEt5L4","Hindustan Petroleum Corporation Limited","Plot No J P9, Industrial Area Haveli, Pimpri Colony, Pune","18.6339734","73.8294236","true"
"ChIJjzfXNmu4wjsRfTufpJlnnvs","IndianOil","Plot No 61, Block 2F, MIDC Sector 2 Industrial Area, Bhosari, Pimpri-Chinchwad","18.641697","73.822372","true"
"ChIJm8OOdzq4wjsR-g84rkHV_Ts","Shell","Chinchwad-Bhosari Road, Pimpri Colony, Pimpri-Chinchwad","18.6485835","73.80672659999999","true"
"ChIJhZA9qjq4wjsRLyX-xrrQC0Q","Nayara Petrol Pump Kamdhenu Petroleum","Nigdi Bhosari Road, Chinchwad, Pimpri-Chinchwad","18.6517526","73.80659729999999","true"
"ChIJvb4BOdq5wjsRybsOS467lIo","Hindustan Petroleum Corporation Limited","Ground Floor, Old Mumbai - Pune Highway, Vivek Nagar, Akurdi, Pune","18.6547897","73.78091599999999","true"
"ChIJCVZwmRm6wjsRhC4GTVCQZR0","BP Petrol CNG Pump","Mumbai- Pune Bypass Road, Punawale, Pimpri - Chinchwad, Pune","18.639327","73.73852769999999","true"
"ChIJcdeuhyu4wjsRt1jGqeDGqGo","IndianOil","BLOCK-D, Plot No 112, Old, जुना मुंबई पुणे महामार्ग, MIDC, चिंचवड, पिंपरी चिंचवड","18.6575496","73.7984841","true"
"ChIJafsA2am5wjsRj4j2eo-Q6bk","KOTESHWAR PETROLEUM (BHARAT PETROLEUM)","JQ8R+X5F, Main Road, Kalewadi, Pimpri-Chinchwad","18.6162078","73.786816","true"
"ChIJJxKNiOm4wjsRqyVMs5SaUbU","Hindustan Petroleum Corporation Limited","Survey No 79, Appasaheb Jagtap Colony, near Kasarwadi, Bridge Road, Sudarshan Nagar, Pimple Gurav, Pune","18.5971101","73.8122487","true"
"ChIJzWt0ZRS5wjsRzsG3dwp5eB8","Shell fuel pump","Akshaynagar Phase II, New DP Road, Vishal Nagar, Pimple Nilakh, Pimpri-Chinchwad","18.585773","73.781582","true"
"ChIJDccnRRe5wjsR1_O2AGM6OPg","Hindustan Petroleum Corporation Limited","Survey No 17/1 Aundh, Road, Rathane, Kalewadi, Pimpri-Chinchwad","18.5973207","73.7823483","true"
"ChIJRUQuYgC5wjsR-JZBVsokKyo","Ambika bhavan","MIRCHANDANI PALMS, Aakashganga Road, Rambagh Colony, Rahatani, Pimpri-Chinchwad","18.6002393","73.7869468",""
"ChIJOxiAOYC5wjsREFUn8X0wT4s","Hindustan Petroleum Corporation Limited","Ground Floor, Wakad Road, Wakad, Pune","18.5892959","73.77484489999999","true"
"ChIJsRGNnRq5wjsRGUdTaW17wgM","Bharat Petroleum","DP Rd, NILAKH","18.57766119999999","73.7874949","true"
"ChIJjX3ueHW5wjsRk9WLGedm1Qg","Hindustan Petroleum Corporation Limited","Survey No 42, opposite Kinara Colony, Nakhate Vasti, Rahatani, Pimpri-Chinchwad","18.604469","73.78866339999999","true"
"ChIJsdmfqN24wjsRmGlAgMC_oOY","Bharat Petroleum, Petrol Pump -Om Sai Ram Fuel Center","Kate Vasti Road, Daffodils Housing Society, Kunj Colony, Pimple Saudagar, Pimpri-Chinchwad","18.5922464","73.8035068","true"
"ChIJL43RuLm5wjsRQqQY5yAErB8","MY DELIVERY : My Diesel @ My Doorstep (Doorstep Diesel Delivery )","survey no 50. baliraj colony, Bharat Ratna Dr. Babasaheb Ambedkar Marg, Rahatani, Pune","18.6065269","73.7910403","true"
"ChIJU7L_GAO5wjsRCJmLvZO45s0","Nayara Petrol Pump Maa Santoshi Petroeum","Survey 50, DP Road, Pawana Nagar, Rahatani, Pimpri-Chinchwad","18.6065764","73.7909585","true"
"ChIJkYNglDq5wjsRYxByqm_MN0c","Ac Fridge Washing Machine Service","JQ4J+JJ9, Moraya Colony, Pimpri-Chinchwad","18.6065308","73.7816091",""
"ChIJ05-ASCO5wjsR_-CVrcoU1R0","Hindustan Petroleum Corporation Limited","SN 64/2/2 & 1, Kalewadi Main Road, Adinath Colony, Shrinagar, Pune","18.6092524","73.7821696","true"
"ChIJzT39SwG5wjsR_npjmAUbwQU","Tejas Pumps & Motors Services.","Shop No 145, opp. Yash Sankul, near Kate petrol pump, Pimple Saudagar, Pune","18.6011646","73.80550710000001","true"
"ChIJDbQvHwC5wjsRIOi_XffOVp0","Mngl Maharashtra Natural Gas CNG Pump Station","HQFC+MP7, Balewadi, Pune","18.5741618","73.77180729999999",""
"ChIJqe5EPZi5wjsRnwdx6swb3VA","Nayara Petrol Pump Pride Petroleum Point","Sr. No. 73, Hissa No. 2D and 2F/1, Tapkir Mala chowk, Kalewadi - Rahatani Road, Pune","18.6114872","73.79375569999999","true"
"ChIJ69jkJv25wjsRIc71uOTA3Ps","IndianOil","Gat No 2, 14 2/15 And 7/1, Haveli, Sai Shraddha Colony, Rahatani, Pimpri-Chinchwad","18.6115736","73.7991237","true"
"ChIJseCzIAC_wjsREwl36CEZVCI","CNG Gas Pump MNGL","Pimple Nilakh, Pimpri-Chinchwad","18.5667709","73.79250329999999","true"
"ChIJYbltSu25wjsRuHx8bREQB1w","IndianOil","S No 1/1, New Mumbai Bang, Western Express Highway, Wakad, Pune","18.592459","73.760933","true"
"ChIJyS06iOm4wjsRhviF8mne1M8","H P","HRW6+RWQ, Pimple Saudagar Road, Parshawa Nagari, Pimple Gurav, Pimpri-Chinchwad","18.5970926","73.81235819999999",""
"ChIJn2SO-Km5wjsRUG6xoexe_ck","Maharashtra Natural Gas Ltd CNG Station","HP Pump, Pimple Saudagar Road, Parshawa Nagari, Pimple Gurav, Pimpri-Chinchwad","18.5971151","73.8123729",""
"ChIJSblPMQC5wjsRcyQfCQdbfBs","Pimple Saudagar","HRW6+RWQ, Pimple Saudagar Road, Parshawa Nagari, Pimple Gurav, Pimpri-Chinchwad","18.5971583","73.81244",""
"ChIJHTskvHW5wjsRKPN9QMLQI64","Shell - Thergaon","38, Aundh - Ravet BRTS Road, PCMC, Pune","18.611373","73.768151","true"
"ChIJ-_Dp3ZR7eDkRzomI5Dt9PEA","Jagbhan","Garkhuwan, Ggfsdgv","18.564238","73.77694",""
"ChIJ6TWqOgC5wjsRJHMv-DkxUgM","श्री ट्रॅक्टर सेल्स","HRJ7+XW2, Gurudatta Colony Road, Vinayak Nagar, New Sangavi, Pimpri-Chinchwad","18.5823926","73.81476839999999",""
"ChIJOX8mOde5wjsRVX0WO-N58HQ","Detachment Station","New Sangavi, Pune","18.57931779999999","73.8142604",""
"ChIJeZj5RR25wjsRb2607KftmaE","Shell petroleum","HRQ8+XMJ, Shirode Road, Rajiv Gandhi Nagar, Pimple Gurav, Pimpri-Chinchwad","18.59073","73.81681999999999","true"
"ChIJ47t6uZW5wjsRldM64L69oWE","Shree Murari Petroleum","1, Shankar Kalat Nagar, Wakad, Pune","18.606007","73.7595711","true"
"ChIJCxNfdne5wjsRR5OrOhP-X8Q","K.V.R Diesel","JQ66+663, Dange Chowk, near Prathiba Petrol Pump, Panchshil Colony, Thergaon, Pimpri-Chinchwad","18.610523","73.760549","true"
"ChIJO95HsmS5wjsRzWSXYoXl7YQ","Balwadkar Auto Service","JQ23+GR3, Western High Street, Shankar Kalat Nagar, Wakad, Pimpri-Chinchwad","18.6012636","73.754542","true"
"ChIJiVnYDku5wjsRaU_pUG3Ytfg","Prathmesh Bramhne","Shop No 1, near Wakad, Wakad, Pune","18.6012778","73.75441789999999",""
"ChIJBQOgcxq5wjsRQ6VCMyxGyfc","Hindustan Petroleum Corporation Limited","Survey No 132, near Wakad Police Station, NH 4, Bengaluru - Mumbai Highway, Wakad, Pune","18.6012112","73.75430159999999","true"
"ChIJrZ-akHm5wjsRtdyRsz-CA6s","ECO GREEN CNG","India","18.6084899","73.75739229999999",""
"ChIJwdMW4Za5wjsRyFRN4MOB53s","Hindustan Petroleum Corporation Limited","Survey No 25, near Pudumjee Paper Mill, 20, Mulshi, Wide DP Road, Thergaon, Pune","18.6201382","73.7701391","true"
"ChIJq-CKlv_rwjsREC2IBihshRY","IndianOil","1/2, Plot, Spicer Adventist University, near Spicer College Road, S No 13/1, Shitole Nagar, Old Sangvi, Pune","18.571235","73.8182781","true"
"ChIJ6ecanjW_wjsRbUW7hdMxRoo","IndianOil","S No 13/1, 1/2, near Spicer College Road, Plot No 3, Shitole Nagar, Old Sangvi, Pune","18.5697","73.8171852","true"
"ChIJ87GaKcm5wjsR7b4n1XqTCZs","IndianOil","Rajiv Gandhi Infotech, 22/3 22/4 & 22/5P, Hinjawadi Phase 1 Road, Pune","18.591742","73.74891889999999","true"
"ChIJU0jur7jGwjsRtD2caTQBDjg","Hindustan Petroleum Corporation Limited","Sr No 281, near Airport, Dhanori-Lohegaon Road, Sathe Nagar, Lohegaon, Pune","18.5976806","73.913011","true"
"ChIJ4wmiO9TAwjsRj0-rYP9Cczc","IndianOil","S No 352, Dhanori Alandi, Airport Road, Wadi Naka, Tingre Nagar, Pune","18.5735","73.8851146","true"
"ChIJS0y3ZMXHwjsRiPDbbTm0KEk","Shankar Maharaj petroleum","Gavde farm, Pune","18.5861071","73.8564765","true"
"ChIJxwB3iTHHwjsRxNwH9Uq3pCg","Rapid Fire And Safety Engineers Pvt. Ltd.","Shop No, 3, Alandi Road, Vishrantwadi, Pune","18.5835068","73.8752963","true"
"ChIJqRwRTM3AwjsRkvVmS2eysA8","Hindustan Petroleum Corporation Limited","S No 116/3 Haveli, Kalas, Pune","18.5773514","73.8763334","true"
"ChIJKyHih6-4wjsRtMACX9tmbEo","Maharashtra Natural Gas Limited CNG","HRPM+263, Dapodi Bridge, Phugewadi, Dapodi, Pimpri-Chinchwad","18.5850086","73.8330416","true"
"ChIJ_0FzBgC5wjsRdsSbH9aFOs0","EV Charging Station","HRMM+7C5, Dapodi, Pimpri-Chinchwad","18.5831367","73.833595",""
"ChIJ32V5hvq5wjsRn4HFlmk1A2Q","Bharat Petroleum, Petrol Pump -Express Petro Services Dapodi","DAPODI ON OLD MUMBAI RD, Pune","18.5830357","73.8336264","true"
"ChIJiWsnf6-4wjsR2w46wJxCTBo","Progrowth Enterprises","HRPM+259, Dapodi, Pimpri-Chinchwad","18.5850321","73.8329943","true"
"ChIJ17edCK-4wjsRDp6anJcOkTI","Bharat Petroleum","India","18.5830722","73.83354299999999",""
"ChIJld6Hec3AwjsRp2jAOJOcgD4","Hindustan Petroleum Corporation Limited","Ground Floor, Alandi Road, Vishrantwadi, Pune","18.5751102","73.87650099999999","true"
"ChIJKw6YEq_AwjsRzqI6YKMqTaI","N M Mankar","elephistone Road Bazar 411003, Khadki, Pune","18.5653493","73.84995049999999",""
"ChIJ12PsQFO_wjsRM7xTGpjd-vI","IndianOil","S No 1/A, Bopodi, Pune","18.572926","73.834816","true"
"ChIJVVU5QVO_wjsR407o55ljLSQ","Chhajed Petrol Pump","near Chajed Petrol Pump, 1a, Bhau Patil Road, Bopodi, Pune","18.5728662","73.8348075",""
"ChIJpQhkzbG4wjsRTgWCryPcKiE","Hindustan Petroleum Corporation Limited","Sy No 6, Sy No 1814, Dapodi, Pune","18.5820465","73.8293502","true"
"ChIJIV0vu5e4wjsRd93Zb7sR8dc","BPCL Saigauri Petroleum Petrol Pump & CNG Pump","BHOSARI ON OLD PUNE MUMBAI, Pune","18.59846139999999","73.8280625","true"
"ChIJ9eNZiDHHwjsRvtJ5Bd1tfyU","Maharashtra Natural Gas Ltd CNG Station","JR8V+M6, Pimpri Colony, Pimpri-Chinchwad","18.6167074","73.8431382","true"
"ChIJL9zr7yLHwjsRF0MMDeeku3w","HP Petrol & CNG Pump Bhosari Pune","Landewadi, Bhosari, Pimpri-Chinchwad","18.6166875","73.8426875",""
"ChIJqbbKPH7HwjsRaRPym1zakGw","Hindustan Petroleum Corporation Limited","Plot No 132, NH 50, Pune - Nashik Highway, Bhosari, Pune","18.616737","73.8426434","true"
"ChIJLW5Ds1LHwjsRqgvREUFlCLQ","Hindustan Petroleum Corporation Limited","Haveli, Plot No A/1, Survey No 69/6, Sai Park Rd, near Vithal Mandir, Bhosari Road, Dighi, Pune","18.6170264","73.87118389999999","true"
"ChIJ83uX6CnHwjsRqJLKeeaLb1o","Travels point landewadi petrol pump","Rajmata Jijau Shikshan, ACS College, Prasarak Mandal's, Landewadi, Bhosari, Pimpri-Chinchwad","18.6173308","73.84201519999999",""
"ChIJQ_NYLZG4wjsRsOXBTBcPVk4","IndianOil","Kasarwadi, Pimpri-Chinchwad","18.602027","73.826667","true"
"ChIJvz5k2ErHwjsRttO0sCjLkFQ","Shri Samarth Petroleum","HVQR+H57, 7, Gokul Nagar, Munjaba Vasti, Dhanori, Pune","18.590298","73.88920999999999","true"
"ChIJ47bOWQC_wjsRS6wJBAy2BD0","Om Sai Ram Puc Centar","HR7Q+GR8, Chikhalwadi, Bopodi, Pune","18.5637932","73.839574","true"
"ChIJbbfNDt2_wjsRNR1XRlghLag","Hindustan Petroleum Corporation Limited","Haveli, S No 22/B Bopodi, near Khadki Railway Station, Khadki, Pune","18.5638708","73.8393548","true"
"ChIJkcNIM-LAwjsRlClViCKaz7M","Shree Renuka Gas Supply","Shop No 2, near Bhaji Market, Yerawada, Pune","18.5661075","73.8779246","true"
"ChIJixAJXwDBwjsRexSdYLtsIDM","Sawant Petrol Pump","9, Siddheshwar Nagar, Kumar Samrudhi Society, Vishrantwadi, Pune","18.5736813","73.8850227","false"
"ChIJWzZ-BGLHwjsRyknLwIcQX5s","Bharat petroleum","Muktidham Building, Alandi Road, Shahu Park, Dighi, Pimpri-Chinchwad","18.6187565","73.8739245","true"
"ChIJS3QzxoLHwjsRysfEhQTr3BE","Hindustan Petroleum Corporation Limited","Survey No, 211/1/1, Bhosari Alandi Road, Bhosari, Pune","18.6233213","73.85286959999999","true"
"ChIJ9VMlvQK_wjsRIFzG85rXX7w","Sbubham Enterprises","C12, Shantaniketan 33, near Aundh IT Park, Bhau Patil Road, Bopodi, Pune","18.56699","73.83153949999999",""
"ChIJv8t3ApTHwjsRgMhytQQyRw4","D R Gavhane Petrol Pump CNG pump ( Bharat Petroleum)","Bhosari Alandi Road, Pune","18.6245426","73.8602427","true"
"ChIJHShrgca5wjsRdIXkVl2nFFY","Nayara Petrol Pump","Slum Area, Landewadi, Bhosari, Pimpri-Chinchwad","18.621366","73.8385011","true"
"ChIJ2RN4nJzHwjsRHlEQwQInozg","Om Sai Gas And Electicals","shop no 3, near by Shivraje Bhojnalay, Sainath Nagar, Bhosari, Pune","18.6273488","73.85561779999999",""
"ChIJh4xfp4THwjsR6FeB_3KFsV0","IndianOil","S No 198, Hissa No 1 Bhosari, Nashik - Pune Road, Haveli, Pune","18.6274055","73.8592963","true"
"ChIJQzgsRtu5wjsRVxVQDr9vui4","MNGL GOODWILL CNG PUMP","JR9H+RW5, MIDC Road, MIDC, Pimpri Colony, Pimpri-Chinchwad","18.6195189","73.829853","true"
"ChIJUY9boJvHwjsR6dB511IuGco","Svayambu Gas","Shop No 1, near by Sahara Super Market, Sainath Nagar, Bhosari, Pune","18.6293778","73.85672509999999","true"
"ChIJiQJIjR04nDkREShHrBDH2mY","IndianOil","Haveli, Sant Nagar, Lohegaon, Pune","18.5954571","73.9346166","true"
"ChIJbYpvi4XDwjsROqpnNHEVmgE","Hindustan Petroleum Corporation Limited","Gat No 1403, Haveli, Plot No 3 & 4, Wagholi, Pune","18.5786901","73.9717038","true"
"ChIJM2s6S5zEwjsRJOwyB4A-aTg","Hindustan Petroleum Corporation Limited","48, Bakori Phata, Wagholi, Pune","18.59111","73.9987967","true"
"ChIJnVt8RgDHwjsRFNq74cd1Yw0","Kondhwa bk","HWVH+Q2P, Lohegaon, Pune","18.5944704","73.9275889",""
"ChIJlVbNUADHwjsRpm0hq4cLYpo","SHAMBHU PETROLEUM","JW3H+2QV, Lohegaon, Pune","18.6026243","73.9294273","true"
"ChIJ25gfGQDHwjsRPH-kO4G2im8","Hindustan Petroleum Corporation Limited","Ground Floor, Haveli, Lohegaon, Pune","18.602804","73.929417","true"
"ChIJ5--3-XTHwjsRUOIbd_Y_Jb8","M D Moze Bharat Petroleum","JW3G+7X3, Shivnagar Chirke Colony, Lohegaon, Pune","18.6031381","73.9274083",""
"ChIJq9P8GQDHwjsRw5yE_EwPo-w","Sathe Petroleum & CNG station","HWX7+29W, Lohgaon Road, Kutwal Colony, Lohegaon, Pune","18.5974978","73.9134488",""
"ChIJHbgjaZPFwjsRqOl0UYNzzO0","Mauli Petrol Pump","Shop No 1, Lakeview city, Wadgaon Shinde Road, Pune","18.6097299","73.9366713",""
"ChIJqwaYLQDFwjsRW8dGoZi4zik","Indian oil petrol pump","HXR3+343, Yojna Nagar, Pune International Airport Area, Lohegaon, Pune","18.5901272","73.9529622",""
"ChIJuZcFLADFwjsRK_57JIb7haA","RADHE KRISHNA SERVICE CENTER","Shop No 4, Shiv Empire, opposite Datta Mandir, near Bhosale Nursery, Lohgaon - Wagholi Road, Lohegaon, Pune","18.5899627","73.95304349999999","true"
"ChIJfeNXTwDFwjsRrRaG-t2JxC8","HPCL fuel station","HXW3+62W, Pune","18.5956019","73.95257629999999",""
"ChIJL8KVpSbEwjsRPMOcMQ6edjs","IndianOil","near Brilliant International School, Opposite MMIT COLLEGE, near Brilliant International School, Wadgaon Shinde Road, Pune","18.61306399999999","73.941315","true"
"ChIJDfnThQvEwjsRFYSN2dyLIEw","Hindustan Petroleum Corporation Limited","SNo 89/3 Wagholi, Lohgaon Road, Lohegaon, Pune","18.5898809","73.955652","true"
"ChIJXWa-ZADBwjsRvNzhMJnn0y4","Singh Consultancy Solutions & Services","Off. No. 12, Surbhi Buldings, Pune Nagar Road, Chandan Nagar, Pune","18.5626908","73.9304823","true"
"ChIJY-zEPgDBwjsRonpHm7qp5pQ","Scammer Petrol Pump","HW6G+XVV, 46, Aga Nagar, Wadgaon Sheri, Pune","18.5624439","73.9271693",""
"ChIJb13KV1zBwjsRN9-8bND2rLI","IndianOil","46, Pune Nagar Road, Wadgaon Sheri, Pune","18.562424","73.927094","true"
"ChIJQf4IgwvEwjsRc63xEGTcJU4","Bharat Petroleum, Petrol -Shree Sai Petroleum","Survey No 89, 2, Wagholi Road, Lohegaon, Pune","18.5899662","73.95634079999999","true"
"ChIJV7B8YDTDwjsRC7uD4rUUFIA","Shell Petrol Pump","near Kharadi - Hadapsar Bypass Road, Pune Nagar Road, Pune","18.56282","73.93982","true"
"ChIJg1Gu4eXDwjsRzJpD7S-WsTA","IndianOil","S No 134, 1/2 Haveli, 9 Brd, Lohegaon, Pune","18.5651337","73.9444748","true"
"ChIJZf2BOCzBwjsRvbRAWoEmOew","Hindustan Petroleum Corporation Limited","2D, Plot, No 16, S No 162, Adarsh Colony Road, Vidyanagar, Pune","18.5751114","73.8968326","true"
"ChIJbaatbwDDwjsRapJqR9Jjh0g","Khandelwal nagar CNG pump","4, Pune - Ahilyanagar Highway, Khandve Nagar, Wagholi, Pune","18.5722708","73.9547662",""
"ChIJjY3x4d3DwjsRKuA6ObdJ78s","Pune","2337, Sai Satyam Park, Kawade Wasti, Wagholi, Pune","18.57695409999999","73.9582554",""
"ChIJ908y5IvDwjsR2CKe6H0vk0Y","Mahalakshmi Cab","Shop No 7, near shell petrol pump, Durvankur Society, Ashoka Nagar, Kharadi, Pune","18.559571","73.938621","true"
"ChIJZVggyd_DwjsRfW260HC6FxA","Shell","Mundhwa - Kharadi Road Vill, T Haveli, Kharadi, Pune","18.55889","73.93818999999999","true"
"ChIJd6c-t7YpwzsR_C5w264DqWg","Hindustan Petroleum Corporation Limited Charging Station","Gat No 1574, near MIDC Gate, Pune Nagar Road, Ranjangaon, Pune","18.572828","73.9569602","true"
"ChIJU7eWDgDDwjsRkYvmdycAxW4","Bharat Petroleum","HXG7+JVQ, Wagholi, Pune","18.5765908","73.96474669999999",""
"ChIJTQm0k0PDwjsRghaxzOwJjcI","Balaji Petroleum","1403, Pune Nagar Road, Wagholi, Pune","18.57857","73.9716534",""
"ChIJ85BAYZzDwjsR0X9DKcoMXOw","BALSKAR SIDDHESHWAR TULSHIRAM","Shop Number 03, Pune Nagar Road, Wagholi, Pune","18.5804896","73.97522719999999",""
"ChIJxyqhGPbDwjsR9P-QUMGsPkQ","RUSHIKESH FULCHAND SALUNKE","Shop Number 02, Pune Nagar Road, Wagholi, Pune","18.579961","73.975143",""
"ChIJrWGOJITDwjsRWzCqSflbzcc","IndianOil","Ground Floor, Haveli, SH-60, Wagholi, Rahu","18.5803751","73.9752665","true"
"ChIJNT5H8HbFwjsRgE2Vbs92JjE","Hindustan Petroleum Corporation Limited","Gat No 83/1 Bawadi Road, Gore Wasti Road, Paygude, Wagholi, Pune","18.593279","73.97927899999999","true"
"ChIJozOFeILDwjsRaZNwNGtl0eA","Sarthak Enterprise","Shop No 2, Wagholi, Pune","18.5787719","73.9829646","true"
"ChIJv6uC9y7DwjsRXDJddAECPA0","gas Repairing","HXJM+8V4, Awhalwadi Road, Wageshwar Nagar, Kalubai Nagar, Wagholi, Pune","18.5807642","73.9847157","true"
"ChIJVxtQ0h4FKzoRC3lcyPWsVUo","IndianOil","Gondia, Survey No 412/2412/1 Bagholi, Tirora Arjuni","18.57356429999999","73.9838548","true"
"ChIJZQ1yP-PAwjsRelzGKuCMN1U","IndianOil","Ground Floor, Yerawada, Pune","18.545786","73.888001","true"
"ChIJT_iZBmrDwjsREyjPeyc45aA","EV Charging Station Demo","HXHP+6G8, Awhalwadi Road, Kalubai Nagar, Wagholi, Pune","18.5780375","73.9863364","true"
"ChIJTyVjmlfDwjsRMab6GSFyxQ0","Bharat Petroleum, Petrol Pump -Shree Service Station","OPP JAIN, Pune Nagar Road, Wagholi, Pune","18.582392","73.9873971","true"