place_id,name,address,latitude,longitude,open_now
"ChIJW71o1h01kzkRf4I-QG5YQiI","IndianOil","National Highway 28A, Rajendra Nagar, Motihari","26.6614006","84.9139819","true"
"ChIJoXlyR9E0kzkR6EV1QS2QHMI","Bharat Petroleum","MW3M+3G6, SH-54, Khartari Tola, Chhatauni Badhai Tola, Motihari","26.6526649","84.9337718","true"
"ChIJ20UtgQk1kzkRhFQiwAG3tRE","IndianOil","Ground Floor, Lakhaura Road Motihari, Sihilia, Ajgarhimath, Motihari","26.6861517","84.93784699999999","true"
"ChIJG2eanHS17DkReLgW3SSGtgQ","IndianOil","Ground Floor, Lakhauda, Karmaula","26.73758299999999","84.977401","true"
"ChIJD9z5MS217DkRno3XulY4BO0","Hindustan Petroleum Corporation Limited","Ground Floor, Lakhaura","26.7392916","84.9773398","true"
"ChIJ_TvKTBe17DkRouFmVLRt-yU","मे. हमारा पम्प लखौरा ,मोतिहारी","PXQH+R5C, Sarsaula","26.7395613","84.97787679999999","true"
"ChIJ_Wa0yTs1kzkReatMRo6E8J4","Ramchandra Singh Filling Station","Bajrang Chowk, Road, Ajgari","26.6897699","84.89967759999999","true"
"ChIJR1ZuP6i17DkRnvfyHQmvhp0","IndianOil","Ground Floor, Motihari - Chauradano Road, Lakhaura","26.7638878","84.9772045","true"
"ChIJwZJgGnM1kzkRtYdXqZAXu0k","Mahesh Sah","Motihari","26.66566719999999","84.91493369999999",""
"ChIJJ_9h6x_L7DkRKi-h9DrZn44","IndianOil","Ground Floor Motihari Dhaka Rd, Basatpur, Motihari","26.659321","84.96187599999999","true"
"ChIJ8ZLzRaM1kzkRyi6oy-RmeXk","Dr Zaheer Petrol pump","Dr Zaheer clinic, Jaanpul Station Road, Arya Nagar, Motihari","26.66274169999999","84.90697829999999",""
"ChIJXcWBeNmn8jkRamv99FFu_rM","IndianOil","Ground Floor, Tarkulwa, Banjariya, Ajgari","26.6627575","84.9063994","true"
"ChIJwe0IiSM1kzkRNXFi9ozLCqI","Pintu Petrol","Chailha N/H727, Rode, Bettiah","26.6752156","84.88714430000002",""
"ChIJ3wpvDdo0kzkRS81vAycrr7Q","Hindustan Petroleum Corporation Limited","Ground Floor, NH 28, Chhatauni Badhai Tola, Motihari","26.652385","84.92936499999999","true"
"ChIJg15ZYBw1kzkRgt6A2B1S1TI","Bajrang Bairing Hause","near Sharma Hotel, Chatauni, near Sharma Hotel, Main Road, MW2H 3FC, Rajendra Nagar, Bettiah","26.6501757","84.9286357",""
"ChIJY9rdVgA1kzkR70OBqPYRPjs","Aditya petroleum","MV8Q+GX8, Ratanpur","26.6662949","84.8899637","true"
"ChIJjXSVEjU1kzkRy2ZK4PPwBvo","Nikhil Fuels Service","Near Shankar Dhaba, Chailaha, Thana, Banjaria","26.6828078","84.87453839999999","true"
"ChIJD0v-hNo0kzkRR8DyI57GUpg","Sharma Clutch Plate","Sharma Clutch Plate Chhatauni Nh 28, Motihari","26.6485189","84.9297938","true"
"ChIJET91ns81kzkRxQw2y03mplM","Maa Vaishno petrolium","JWWM+VPJ, Motihari - Madubanighat - Pakridayal Road, Refugee Colony, Motihari","26.6472115","84.9342684","true"
"ChIJJdwVF8I1kzkRMac3Sq_NON4","Lala Petroleum","Ward No-6, NH-28, Motihari","26.6729552","84.8804267",""
"ChIJG7oIECHL7DkRI9xS0WQWwDg","Om jai ma jugdumbey","Suga Pipar, Motihari","26.6467584","84.9427968",""
"ChIJn1EKZ-Y1kzkRt4kCTaSVfXg","IndianOil","Ground Floor, Motihari Bypass NH 28A, Chatauni Chowk, Ajgarimath, Motihari","26.6475101","84.9280201","true"
"ChIJBT47GQDJ7DkRcvpNWZyHct0","Indion oil","M2QV+JQ8, State Highway 54, Mishrauliya","26.6893109","85.04500300000001",""
"ChIJbYHrZV7J7DkRez-wA-qt3i4","M. Maa yugeshwari petroleum","SH 54 Dhaka to Motihari, Road, Ghorasahan - Chiraiya Road, Mishrauliya","26.6919858","85.0603829","true"
"ChIJEbQlcsvJ7DkROOoN463LR3c","Hindustan Petroleum Corporation Limited","Ground Floor, Sikarganj - Chiraiya Road, Mishrauliya","26.6919346","85.0617743","true"
"ChIJ_TVGUYjL7DkR3pYmLnDV_MU","ISHAAN RUDRA PETROLEUM","M28C+MC, Lalbeghiya bandh","26.6666187","85.02135659999999","true"
"ChIJLyOosZjJ7DkRiFkl5uMzu-s","Shree Hari Sanskar petroleum","M3V9+525, Mishrauliya","26.6928979","85.0675971",""
"ChIJ81T_NwDJ7DkREsxFNjKrerY","Pathar petroleum","M3WC+7C8, Chiraiya Bazaar","26.6956585","85.0710737",""
"ChIJwcXhtrfJ7DkRMh-4nFNJLH4","IndianOil","Ground Floor, SH 54, Ghorasahan - Chiraiya Road, Baidhnathpur","26.69220129999999","85.07129920000001","true"
"ChIJoxnk7DLJ7DkRYx7YUEIQiTc","IndianOil","Ground Floor Baraitha, Ghorasahan - Chiraiya Road","26.6852136","85.06771990000001","true"
"ChIJZXCIWD-37DkRny_vgs-t0K4","Eco Bharat Bio Fuel","Ghorasahan - Chiraiya Road, Mohaddinpur Chowk, Rampur North","26.7303947","85.07993379999999",""
"ChIJT5FjF5637DkRRUlC5Z-6BdA","Indian gas agency","P3WF+2Q9, Madhopur","26.7450274","85.074494",""
"ChIJkQohwaXJ7DkRKwyBcPJ-pAg","MS SK FUEL CENTRE","near Nirpur, Motihari Road, Meerpur","26.6935605","85.0762682",""
"ChIJk7LqPV3J7DkRvZ47yckyefU","Nitin Kumar","Kolasi Pump Kolasi, Patna","26.6705581","85.0827079",""
"ChIJFRWqFTLJ7DkRciuAVO1nG4o","IndianOil","Ground Floor, Sikarganj - Chiraiya Road, Baijnathpur","26.6696517","85.08308269999999","true"
"ChIJmUhNkEW37DkRgNOP1Npcd5U","MS MEHTA PETROLEUM","PS GHORASAHAN, MS MEHTA PETROLEUM, AT PO, Baghahi Bhelwa","26.7694002","85.09309239999999",""
"ChIJx_0CtnG37DkRGuxDzkOTnUU","Bharat Petrol Pump भारत पेट्रोल पंप Mehta Petroleum","Gurmiya, Belwa","26.7695217","85.0931061","true"
"ChIJDahqerfH7DkR27urxAP0zFI","IndianOil","Ground Floor, Ganga Pipar, Chiraiya, Bahlolpur, Dhaka","26.677769","85.13018","true"
"ChIJKcweclC57DkRTE5hjTJfB5k","KUNAL KUMAR","Kunal Kumar, near Nonaura, Ghorasahan Road, Chowk, Nonaura","26.7699971","85.11695329999999",""
"ChIJN4vF_2O37DkRr-2Cg5y5P-s","IndianOil","Ground Floor, Ghorasahan, Bagaha Champaran, Nimoia East","26.77702649999999","85.1012994","true"
"ChIJIXi8dqbH7DkRfpCfO-GE5is","IndianOil","Ground Floor, Ruphara, Chiraia,Baidhnathpur","26.6753505","85.13995469999999","true"
"ChIJ70874OG57DkRjT_YNSHDPro","Petrol Pump Laukhan","Laxmipur Laukhan, Dhaka","26.7636553","85.1377076","true"
"ChIJeeDph8fH7DkRvKLdLBCJReQ","HIRA PETROLEUM","near Apna Cafe, 09, Motihari Road, Roophara","26.6744069","85.14175809999999","true"
"ChIJo8p_7gdNkzkRzB5axg57LII","IndianOil","Motihari, Ground Floor Motihari, Narkatia Bazar,Ajgarhimath","26.830412","84.90967599999999","true"
"ChIJdXSZ1bWz7DkROucm5m6Rl0M","IndianOil","Ground Floor Chauradano, Latihanwa","26.843993","85.00031899999999","true"
"ChIJWakFGzyz7DkRQdc5-M9zBQU","Hindustan Petroleum Corporation Limited","Ground Floor, Chauradano","26.844322","84.99979599999999","true"
"ChIJbSbeXlCx7DkRPYkGmbmwn4g","IndianOil","Ground Floor, Bankatwa,Kesariya, Bankatwa","26.8279801","85.063469","true"
"ChIJN24gGRCz7DkRm7DTvfJyBR4","Mehta petroleum bhelwa bazar ghorasahan","Belwa","26.8531381","85.00515329999999",""
"ChIJK74mXwCx7DkRDeU95yMB-00","Aman And Suman Oil Store","V24P+JC, Beldari","26.8565398","85.0360986",""
"ChIJG1deD4u57DkRtxCNVCkv9AU","Bharat Petrol Pump","Singh Road, Kadamawa","26.8035929","85.12967499999999","true"
"ChIJL-brP7mx7DkRVdGr9mSZEzE","S K Electronic","Ghosahan, Jhanjhara","26.8336184","85.0865991",""
"ChIJZWk72V-77DkRhCI6L-Hvx_0","IndianOil","Ground Floor, Purnahiya, Amawa, Ghorasahan","26.8099562","85.1272682","true"
"ChIJsQoF-dm77DkRKFlf9K8fZt0","Bharat Petroleum Petrol Pump , BHARTIYA SERVICE CENTRE","GHORASANGHORASAN","26.810667","85.12777799999999","true"
"ChIJDd4cEjWx7DkRz5LlrHdQ9nI","AVNISH FUEL STATION","near Avnish Petrol Pump, Ghorashan Road, near Avnish Petrol Pump, Ghorasahan - Bankatwa Road","26.8338841","85.0996002",""
"ChIJGTuYbpC57DkRhk1NPbhezPo","Hindustan Petroleum Corporation Limited","Ground Floor, Ghorasahan","26.794131","85.136681","true"
"ChIJYW6UoL9NkzkRdhSe0RNwiSM","IndianOil","Ground Floor, Adapur, Majharia","26.8663462","84.87917569999999","true"
"ChIJK5tHbBGt7DkRq75CqAt42ms","IndianOil","Ground Floor, Ajgarhimath, Adapur, Belwa","26.9167995","84.94022","true"
"ChIJwV0YwMpSkzkRnf6SHKKCCLQ","HP PETROL PUMP - HAMARA PUMP ADAPUR","HP Petrol Pump Vill: Kachurbari PO: Adapur, PS: Harpur, Begusarai","26.91988599999999","84.938862","true"
"ChIJYZSVrVVTkzkRCuQspxahGsM","Hindustan Petroleum Corporation Limited","Ground Floor Harpur, Adapur","26.924194","84.929102","true"
"ChIJZ5M5XLW77DkROZWrCAKHWOw","Kankali oil store","V4RM+RRR, Bam Nahar Road, Simraungadh","26.892105","85.13451979999999",""
"ChIJi7VJsq-v7DkRG01Ijdu52hw","Janki oil","Bam Nahar, Laxmipur Kotwali","26.925346","85.10486499999999","true"