place_id,name,address,latitude,longitude,open_now
"ChIJ6cg9JXu87TkRN482JPxBGVM","Hindustan Petroleum Corporation Limited","Ground Floor, Samastipur Darbhanga Road, Hanuman Nagar, Poaria","26.0645401","85.8148101","true"
"ChIJV3ZiDAC77TkRzuqQ-BIDDSE","RRP PETROLIUM (BPCL)","3RMM+WFP, Dihlahi","26.0848392","85.83371029999999","true"
"ChIJIWSRHwC77TkR2xFZM-ee1fg","Bharat Petroleum","3RMM+WGF, Dihlahi","26.0848211","85.8337844","true"
"ChIJmwG_Sd277TkRQtqxk-bxvW0","IndianOil","Ground Floor, Darbhnaga Samstipur Road, DMC, Darbhanga","26.09427","85.83892","true"
"ChIJ5XHp21m77TkRe5cwO91bxBU","R.J. Bhawani HP Gas godam","4R3W+338, State Highway 50, Dihlahi","26.1026642","85.84521199999999",""
"ChIJly_J6hy97TkRa4w2IlePrr4","IndianOil","Ground Floor Bishunpur, Hanuman Nagar","26.0610449","85.8125025","true"
"ChIJb0ukBaO97TkRaEN__RcHY1A","IndianOil","Ground Floor Patrory, Basant","26.0621261","85.80004629999999","true"
"ChIJB-TSSXO97TkRzD1ef8SQD3A","Maa Kalli Hp Gas","2RQ7+CJP, Ughra","26.0385985","85.8140626",""
"ChIJhysPxyC67TkR0yDcLQdlPS8","Bharat Petroleum","India","26.1421901","85.84693589999999",""
"ChIJSRFlK8Ol7TkRsAkqAkCL0lY","Hindustan Petroleum Corporation Limited","Ground Floor, Moro, Bishanpur Aterbel Road, Araila","26.0900798","85.76436679999999","true"
"ChIJRZamzv247TkRtFOKHf_N288","IndianOil","Ground Floor, Laheriasarai, Sundarpur","26.1183058","85.88931099999999","true"
"ChIJH5hkbAC57TkRtybjEsphfrM","Petrol pump","4W22+PWX, Kabipur, Laheriasarai, Darbhanga","26.1018729","85.9023605","true"
"ChIJM1DUp7K57TkRebA9Ec0t9mk","Shanti Niketan Dabakhena","Shanti Niketan Davakhana, Leaheryasarai.Near Jantadarbar, Laheriasarai","26.1186833","85.90008329999999",""
"ChIJ21kPAjS97TkR_s75NZ_ckPo","राजू भारत ग्रामीण वितरक","2R96+X4P, State Highway 50, Gorina","26.0199699","85.8103311",""
"ChIJLSsAlj6_7TkRNuXb2wWkFB4","IndianOil","Ground Floor, Kharsand East, Simaria Bhindi","26.018507","85.850899","true"
"ChIJfywsVam57TkRo33fLeQLZRk","R R P PETROLEUM","Dihlahi","26.1308634","85.89466929999999","true"
"ChIJsQUnv1a47TkRG-b1Rxc6CNk","IndianOil","Ground Floor, Laheriasarai, Darbhanga","26.1297343","85.8957458","true"
"ChIJSS1siO3A7TkR2wVSzIL2Ej4","Hindustan Petroleum Corporation Limited","near Ashok Paper Mills Road, Ground Floor Anand Pur, near Ashok Paper Mills Road, Horalpatti","26.06753089999999","85.9291825","true"
"ChIJGabtwGu47TkR9HExjhE0IRc","Hindustan Petroleum Corporation Limited","Ground Floor, Sonki Road, Bheluchak, Donar, Kabir Chak","26.144567","85.9136364","true"
"ChIJ6z488fG57TkRGQWkHNeYLcs","Bharat Petroleum","DONAR, CHOWKDARBHANGA, Donar Road, Bhathiarisarai, Darbhanga","26.1482759","85.9082224","true"
"ChIJxwyDcje47TkR0m1Sj7kpLy8","Indian Oil","Ground Floor, near CM College, Chowk, Mirzapur, Darbhanga","26.1523148","85.89860259999999","true"
"ChIJT4B78a657TkR_nvTlnIHML4","Bharat Petroleum, Petrol Pump -Jagdamba Fuel Centre","SURHACHATTI,PAGAIMBARPR,DA, Darbhanga","26.1226128","85.9015944",""
"ChIJ14POfPC57TkRNimtAhD6Nfg","Bharat Petroleum, Petrol Pump -Sony Fuels","NEHRA,SAKRI-NEHRA RD,DARBH, Darbhanga","26.1239192","85.9066919","true"
"ChIJiZtWMFm47TkRdFvWhMdv7tI","IndianOil","Ground Floor, VIP Road, Balbhadrapur, CM College, Darbhanga","26.1271142","85.9030579","true"
"ChIJuVt-JwDH7TkRffXAgLoVM94","Hp Gas Office","4WJM+H9C, Balbhadrapur","26.1314349","85.93338519999999",""
"ChIJtSPa3bO57TkRZXNnrSlYP3I","R K Khan","Neem Chowk Khan Hotel, Urdu Bazaar Road, Neem Chowk","26.13936159999999","85.8865458",""
"ChIJWWQQyezB7TkRNy-7IbxCfIw","IndianOil","Ground Floor, Imambari, Sidhouli","26.0491233","85.94535739999999","true"
"ChIJTZKSL1vB7TkRiCpfX28zapc","Mai Enterprises","Mai Enterprises Lagopur, Road, Lagopur, Baheri","26.0469869","85.9479624",""
"ChIJL3PmsUG47TkRx9DxvjuRorY","IndianOil","Ground Floor, CM College, Donar, Darbhanga","26.145588","85.908205","true"
"ChIJ4agbPVq57TkRD42RW_S23wk","Bharat Petroleum, Petrol Pump -Kumar Fuels","SONKI, PANTA, DARBHANGA, Darbhanga","26.1451857","85.9191369",""
"ChIJ6Td-HTS47TkRQxZGI0CWuzM","Pansary Auto service","Tower chowk, Mirzapur Road, Lal Bagh, Darbhanga","26.1535369","85.89466589999999","true"
"ChIJZ4MDdHu57TkRakm5Uyar1So","Bharat Petroleum","Pani tanki, Lalbagh, Mirzapur, Lal Bagh, Darbhanga","26.153558","85.894685","true"
"ChIJadCrvjO47TkRSOCxY22N2_s","Indian Oil Petrol Pump","Near, Hasan Chowk Road, Lal Bagh, Darbhanga","26.1561824","85.8929347","true"
"ChIJ7QTPUaO57TkRpFQzcqihZu0","Yusuf Zuber Izhar","opposite of Madras, Mangal Chandi, Sasanda, opposite of Madras, Mangal Chandi, Arei","26.1568726","85.89996289999999",""
"ChIJ386TFLzH7TkRqaeSZF3bA2A","R.B.Petro","42F4+FFC, R.B.Petro Dhoi Ghat, Sonki Road, Darbhanga","26.123695","86.0061418",""
"ChIJt8D47hq57TkRM03vW3vE0d8","IndianOil","Ground Floor Sahila, Sadar, Rasoolpur","26.1340254","85.9926123","true"
"ChIJFaOmfYDG7TkRvlUuFfqyaIs","Bharat Petroleum Petrol Pump","State Highway 56, Sonki","26.1276515","86.0097098","true"
"ChIJZcYZkF_A7TkRNT3f95dZ-OY","M/s Shaktipeeth Kisan Sewa Kendra","to, Sidhouli - Hathauri Kothi Road, Surhachatti","26.0314761","85.95272980000001","true"
"ChIJNY95ncLF7TkR4cJwtg2Bhwg","Biofuels Petrol Pump","Parkhotimpur","26.1256875","86.0215625",""
"ChIJB1DNrLnH7TkRHZMMzrxube8","IndianOil","Ground Floor, Jalapur, Dhoi","26.1474093","85.9589562","true"
"ChIJZR6F7ia47TkRJN3ppk2DKiE","IndianOil","Ground Floor, Bela More, near CM College, Darbhanga","26.168389","85.903222","true"
"ChIJQ3RgiZq37TkRCtxASrwS3ho","Hindustan Petroleum Corporation Limited","Ground Floor, Bira, Lateral Road, Basudeopur, Darbhanga","26.186601","85.898701","true"
"ChIJQbUAM5-w7TkRNfbQDn3NkK0","Indian Oil Petrol Pump","5RGG+9H6, Manihas Kansi","26.1759082","85.82640529999999","true"
"ChIJre4FUKWw7TkRKAvHsg4r4Xs","M/S Gauri Petroleum","Basudeopur, Darbhanga, NH-57, Darbhanga","26.1815642","85.83781570000001","true"
"ChIJjW1ym12x7TkR-izcLT_pK1Q","Reliance Petroleum","Plot No 232, Khata No 82 Mabbi Belauna, Nh 57, Chakka","26.1821354","85.8366719","true"
"ChIJrUERY1G37TkRIbAYsW0_xhs","Hira Petroleum","NH57, East-West Expressway, Bastauli","26.1790002","85.85398169999999",""
"ChIJX5hCj1637TkREUO1qQ5rG1I","IndianOil","Ground Floor, Mabbi Belauna","26.1785671","85.8604065","true"
"ChIJd7pzuGW37TkRhxdoYU0d7fw","IndianOil","Ground Floor Sheodhara, CM College, Darbhanga","26.181442","85.875374","true"
"ChIJ0cYv4Fu77TkRFBV45qxQxt8","Mithila gairej","Baheri","26.1391185","85.7717907",""
"ChIJGV5HKVOl7TkRy1wgpYIdW20","IndianOil","Ground Floor, A Babhangama, Simri","26.1596546","85.7665102","true"
"ChIJfWQr7PG57TkRqnIuUhiYArY","Bharat Petroleum, Petrol Pump -Chaudhury Service Station","SHANKAR LOHAR CHOWK,DARBHA, Darbhanga","26.1694056","85.89618759999999",""
"ChIJy_w4U8O37TkREZd5f5ZR6do","Hindustan Petroleum Corporation Limited","Ground Floor, NH 57, Crossing, Mabbi Belauna","26.1869053","85.8965937","true"
"ChIJ7dipD6G37TkR-Q9rQJ8Lfu4","Chaudhary petrol pump","State Highway 50, Ranipur, Darbhanga","26.1824545","85.9011364",""
"ChIJ35SWCjal7TkR6Lr43GJMYI8","Nazmi Petroleum","4QP6+G2, Arai","26.1363081","85.76006389999999","true"
"ChIJb1G5NXa37TkRUA5iG207X0s","IndianOil","Ground Floor Bashudeopur, Sadar,B, Bira, Darbhanga","26.1828348","85.90100149999999","true"
"ChIJJQhvU6-37TkRZzNzhz_2poc","KRISHNA HI-TECH PETRO","5WP3+JC3, Kakarghatti","26.1865124","85.9035349","true"
"ChIJC4BYMfu37TkRSfn_Jo1prKE","IndianOil","Km Stone, Ground Floor Gehumi, 65/027, Sadar Anchal, Darbhanga","26.1842205","85.9235403","true"
"ChIJtU-9LMO57TkRBRMIiDlSGnQ","Hindustan Petroleum Corporation Limited","Ground Floor, Old Darbhanga Madhubani Road, Gangwara, Darbhanga","26.1701251","85.9155273","true"
"ChIJtX5dP8q37TkRXbj-Tt_qRGw","CNG pump","5WP7+C67, Basdeopur","26.1866487","85.9116435","true"
"ChIJ66dJUfu37TkR53LhGAesHww","CHOUDHARY HIGH TECH PETRO","5WMF+PXQ, Darbhanga Bypass East-West Expressway Down, Bela Shankar","26.1843491","85.9249973","true"
"ChIJSfjCuRzI7TkRV5tVHcsrq2M","Sitaram Yadav Hi-Tech Petro","5 km from Dillimore towards sakri on LHS of N.H-57, Bela Navada N.H -57 Darbhanga, Darbhanga","26.185861","85.934519","true"
"ChIJAdiFhnLJ7TkRP_Y3EKsdmgQ","IndianOil","Ground Floor Bela Nawada, Sadar,B, Bira, Darbhanga","26.1861516","85.934513","true"
"ChIJ40UxvWTJ7TkR5wXB-ta7Wy4","Kgm Transport Punjabi Hotel","National Highway 27, Aerodrome Darbhanga, Ranipur, Bela","26.1856976","85.93546359999999","true"
"ChIJ37aStLDJ7TkR31ldiWOr_PU","IndianOil","Ground Floor, Khutba, Darbhanga - Sakri Road, Dhoi","26.174155","85.957477","true"
"ChIJu4ovUm7I7TkRmEa7prYxwuw","IndianOil","Ground Floor, Kharthua","26.1885009","85.9583047","true"
"ChIJH124D4_I7TkRiVDolaxVIoc","Bharat Petroleum, Petrol Pump -Sita Petro","SAKRI ROAD, NH-57, Darbhanga","26.1881554","85.978668","true"
"ChIJRRQdSrjI7TkR9fBBdYnYr8E","Hindustan Petroleum Corporation Limited","Ground Floor, Jivach Ghat, Muria","26.19567829999999","86.0008101","true"
"ChIJZyUCXgDJ7TkRkpF93yKLCQc","CNG PUMP SITA PETROLEUM","57, Darbhanga - Sakri Road, Darbhanga","26.18857689999999","85.9784842","true"
"ChIJ0-fQ8L3I7TkRX1eJkAmROgI","Hindustan Petroleum Corporation Limited","Ground Floor, NH 57, near Jeevachhghat, Khajuri","26.191197","85.988886","true"
"ChIJsRIj88zI7TkR_-sPXYq1-UE","IndianOil","Ground Floor, Muria","26.20586279999999","86.00949709999999","true"
"ChIJkZsB_h2x7TkRev3rztgVTEI","Hindustan Petroleum Corporation Limited","Ground Floor, Madhopatti Gopalpur, SH 75, Kamtoul, Pindaruch","26.2416187","85.8412669","true"
"ChIJ-Y05TAC17TkR5UHBbFN-Uko","Bhardwaj Petroleum","7VC2+P76, Tektar","26.2717875","85.85064059999999","true"
"ChIJhRek_RG27TkRj6E6GtOM2jU","IndianOil","National Highway 105, Pathra","26.255098","85.915971","true"
"ChIJWfMIXjHL7TkREJwsBAysuH8","Hindustan Petroleum Corporation Limited","Ground Floor, Keoti","26.282781","85.93359099999999","true"
"ChIJw0a4NADP7TkRbXKyjk_FQVU","Shyeem gas agency Mohammad pur","62PW+PJP, Mohammadpur, purnea","26.2368265","86.046587",""
"ChIJv1zMX33L7TkRbhD6DrjHxmU","IndianOil","Ground Floor, Balia, Rahika, Gangdwar","26.287905","86.006554","true"
"ChIJpcdnQADL7TkR7U1eqHiHygo","टिंकू मोटरसाइकिल गैरेज","72R3+3X3, Belam","26.29013369999999","86.004925",""