place_id,name,address,latitude,longitude,open_now
"ChIJj5q028Es8zkR5ejHSXhKOw4","Bharat Petroleum Siddharth Filling Station","Belsar, Gaya NH-83, Gay a, Gaya-Dobhi Road, Bodh Gaya","24.6970985","84.96096299999999","true"
"ChIJmVjh2JYs8zkRPpZ9lkZAqWs","IndianOil","Ground Floor, NH 83, Mastpura, Bodh Gaya","24.7098383","84.9653283","true"
"ChIJkXqNPQAt8zkRhQY3N_9z7fY","Devkuli Toll Plaza","MX85+9CG, Gaya-Dobhi Road, Pathalgarh","24.6659442","84.9585645",""
"ChIJ-2ZF4b4t8zkRz4I_TXhDhqE","Hindustan Petroleum Corporation Limited","Khasra No 662, Thana No 419 Domuhan, Gaya-Dobhi Road, Matihani","24.651731","84.952411","true"
"ChIJFXB__cwt8zkR5BsqnObhTrA","Maa Kamla service station","MX22+3JV, Bodh Gaya","24.6494988","84.9514468",""
"ChIJv-ZzOAAt8zkRu5BNCggyUgA","Bharat Petroleum","JWVX+6HP, National Highway 22, Matihani","24.643755","84.9490953",""
"ChIJCbsCriwt8zkRzdTxmCjCH8k","BELWANTI MAA FUEL STATION GAYA","near AIRPORT, NH-83, Gaya-Dobhi Road, Hario","24.713725","84.96691109999999","true"
"ChIJkUArXdQt8zkR1Q3E18JsQ6w","My home","Bodhgaya, rajapur, Gaya","24.6821924","84.99073489999999",""
"ChIJG4QgHgAt8zkRw_9vr4_ZHDs","Jai Hanuman petrol pump","MXCV+FCP, Mocharim, Sirajpur","24.6711757","84.9935677","true"
"ChIJ6aBSQprTjDkRfY2Dtcp3wCc","Ujjain Fuels","PV4Q+MRC, Cherki - Gaya Road, Kurmawan","24.7066885","84.8895203",""
"ChIJVaHHBgor8zkR8UM8EKKIaPU","Bharat Petroleum, Petrol Pump -Swati Service Station","Gaya-Dobhi Road, Gaya","24.73676489999999","84.9657484",""
"ChIJfYJNsUYr8zkR2k4xD4S_78I","Bharat Petroleum, Petrol Pump -Hindustan Automobiles","BODH GAYA1,GAYA, Gaya","24.7370782","84.96558979999999","true"
"ChIJ62s4B5HVjDkR5Bo-pfYTBOI","HP Petrol Pump - विशुनगंज","Sherghati - Cherki - Gaya Road, Gaya","24.7414798","84.9288641","true"
"ChIJVT0Q9DAt8zkRHpQyFv_BNFk","IndianOil","Ground Floor Silaunja, Bodh Gaya","24.683808","85.01768799999999","true"
"ChIJCw0WJQss8zkRONc5aiuydT8","Hindustan Petroleum Corporation Limited","Khata No, Riverside Road, Plot No 2810 & 2797, Gaya - Bodhgaya Road, Amwan, Gaya","24.7226941","85.0034148","true"
"ChIJqc6UMPQr8zkROBSUftLa1Hs","IndianOil","Ground Floor Bodh Gaya Rd, Suryapura, Amwan Main Road, Bodh Gaya","24.7299997","85.0068371","true"
"ChIJO5GupJwn8zkRAF8ksTHUnqE","IndianOil","Ground Floor Gaya Fatehpur Rd, State Highway 70, Kanwan","24.7312086","85.1242784","true"
"ChIJv68JzD8n8zkRabYTR5O8h2Y","Mahesh fuel station","near Bartara Bazar, Tel Bigha","24.7316535","85.1242731","true"
"ChIJZ7GqPgAl8zkRLh4WxrnD2iw","इंडियन ऑयल पेट्रोल पंप अकल बीघा","M455+62, Barman","24.6580306","85.10756119999999",""
"ChIJUbnDyv4q8zkRi7iOxu86EoI","Hindustan Petroleum Corporation Limited","Ground Floor, opposite Jail, Gaya - Sherghati Road, Gaya","24.778681","84.977881","true"
"ChIJKdr0q1wq8zkRICAC4EoD3wU","Bharat Petroleum BP Gaya","QXRR+GQJ, Judges Colony, Gaya","24.7913273","84.99189559999999","true"
"ChIJf8_OS_Mr8zkRAxu1mZ6ADUk","Bharat Petroleum Petrol Pump , UJJAIN FUELS","Shankar Road, GAYA International Airport, Gaya","24.7460227","84.95095979999999",""
"ChIJvfUa36Ar8zkRD9H1W1GbYxk","BELWANTI MAA FUEL STATION","BELWANTI MAA FUEL STATION, Chandauti, Gaya","24.7461589","84.96393169999999","true"
"ChIJTX3g6wEr8zkRdfeXybWJg1M","CNG pump","PXW7+JH, Chandauti, Hario","24.7465911","84.96399799999999","true"
"ChIJD92O5c3VjDkRv8pRRuy6h_0","Badal Kumar","63, Cherki Road, Gaya","24.74062139999999","84.91023679999999",""
"ChIJZzYp9Cor8zkRHXngmb1spIc","Hindustan Petroleum Corporation Limited","Ground Floor, Vir Kunwar Singh Colony, Gaya","24.7711023","84.9549303","true"
"ChIJB4eVc9kr8zkR49yCZcjdXcc","Hindustan Petroleum Corporation Limited","Ground Floor, Chapardah Road, near Ambedkar Market, Kaler Road, Gaya","24.772941","84.95508099999999","true"
"ChIJTYeAOQAr8zkRD_4stc6tqYE","OC SUPPLY DEPOT PHARPUR GAYA","QXC6+5JJ, Gaya","24.770456","84.9615264",""
"ChIJpbzy5wUr8zkRpiQe5zc7iuk","Hindustan Petroleum Corporation Limited","Ground Floor, NH 83, Gaya Bypass Road, Gaya","24.7623301","84.9759807","true"
"ChIJjTNcQ_wq8zkRDynkHxpeD40","IndianOil","More, Chandauti, Gaya","24.7526609","84.98929749999999","true"
"ChIJt4Cc_-8r8zkRf2Dz9FguGQQ","Bharat Petroleum, Petrol Pump -B. K.Mukherjee & Sons","SHERGHATI TOWN,GAYA, Gaya","24.77863","84.9772041",""
"ChIJ75UiyrEr8zkRS56Zo7dxRS0","Bharat Petroleum","India","24.7647633","84.9933696",""
"ChIJkaOu1WUr8zkRq3ARMUdZh2A","Gaya Petrozone","1, Gaya-Dobhi Road, Rock Area, Maranpur, Gaya","24.7645372","84.9938512","true"
"ChIJRwWd9lAq8zkRTy-_oDEzRm8","IndianOil","Ground Floor, Jail Road, Gaya","24.7814319","84.9848001","true"
"ChIJ52WsDNYr8zkRULlz0fvG7Ok","Bharat Petroleum, Petrol Pump -BP-Gaya","Katari Hill, Gaya","24.7831111","84.9892301",""
"ChIJuwEX2JAr8zkR5oNXum3RAZY","IndianOil","Chandauti Road, Katari, Gaya","24.7960411","84.97444709999999","true"
"ChIJzSKeIQAr8zkRGN5cjBEFeDk","DAYAL SERVICE STATION","QXMV+WF4, Gewalbigha, Gaya","24.7851389","84.9933611",""
"ChIJRfF6IFQr8zkRt8YT3Sk0Rv0","IndianOil","Ground Floor, Gewalbigha, Gaya","24.78513299999999","84.993371","true"
"ChIJN57Wqicr8zkRQsAy4rD0IxU","Om Shree Hari Energy Station","Shankar Road, Ghughari Tand, Gaya","24.7719151","85.0048226","true"
"ChIJ02w34cor8zkRTm0kRQr19SM","Bharat Petroleum","Q2C3+QWQ, Shankar Road, Chand Chaura, Gaya","24.7719539","85.004864",""
"ChIJCSyqbkYq8zkROCVNasv6YMI","Saraogi Petrol Pump","South, Church Road, Gaya","24.7872949","84.99829299999999",""
"ChIJievpdG4r8zkRX1LY8BnacZU","Bharat Petroleum, Petrol Pump -Vishal Service Station","AWAGILA , MANPUR, Gaya","24.7877001","84.99874849999999",""
"ChIJ8-CjU7Ur8zkRB8mepM2DRw8","Bharat Petroleum, Petrol Pump -M Service Station","GAYA TOWN1,GAYA, Gaya","24.7877001","84.99874849999999",""
"ChIJawh6lqYr8zkRklK_cYCZ3wk","Petrol Pump","QXRW+GCX, Tekari Road, Jaiprakash Nagar, Gaya","24.7913724","84.99611949999999","true"
"ChIJ5fucZLUr8zkRporJs3kXdyo","Kochar petrol pump","near Kocher petrol pump, South, Church Road, Jaiprakash Nagar, Gaya","24.787431","85.000371",""
"ChIJ2-ixVEYq8zkRusWUSIaMaW8","Hindustan Petroleum Corporation Limited","Ground Floor, near North Church, Road, Gaya","24.7880501","84.99992010000001","true"
"ChIJi9YwhD0q8zkReW3QNry3XLc","Petrol Pump","Q2W6+R2R, Shaheed Road, Dulhingunj, Gaya","24.7971204","85.0100183",""
"ChIJy5gmBmsq8zkR9kzwQJge-IE","Petrol Pump","Station Road, Gol Bagicha, Gaya","24.8009349","85.0000924","true"
"ChIJNerwDfUp8zkR9Aa4b6V9U7Q","Vishal Bharat Petrol Pump","R22G+323, State Highway 4, Manpur","24.8001484","85.0250332","true"
"ChIJ3_wSQysq8zkRcoXUK8WDtYs","M.A PETROL POINT","Q2G9+4HV, Salempur Surhari More Gaya, Bhadeja","24.775374","85.01891069999999",""
"ChIJ4c18vTIr8zkRfShbxNAaDnI","Hindustan Petroleum Corporation Limited","Ground Floor, Manpur","24.7755517","85.0183313","true"
"ChIJt3U61Y4p8zkRvoDdvIdrmzs","IndianOil","Ground Floor Gaya Fatehpur Rd, Bhadeji, Surheri, Alipur, Gaya","24.7766706","85.0329007","true"
"ChIJVxCOFdEp8zkR2yozslvZ6LY","IndianOil","SH-70, Gaya - Rajauli Road, Majhauli","24.7661653","85.0458745","true"
"ChIJUXNp4gwp8zkR9YTj50El5CM","Indian Oil","India","24.76625289999999","85.0458603",""
"ChIJl6oH1kAq8zkRcFWMT2qj0Bk","IndianOil","Ground Floor, Swarajpuri Road, Gaya","24.79117399999999","85.000374","true"
"ChIJiQHS1UAq8zkR1edmOF1phuE","Kashinath Petrol Pump","QXRX+MX5, State Highway 7, Nagmatia Colony, Gaya","24.7916384","84.9999694",""
"ChIJFdfc35Ir8zkRQUu3aJbxc0A","Ola Cabs - Gaya","9th floor, Aziza Plaza, Enayat Colony, Gaya","24.7934013","85.00080729999999","true"
"ChIJu2l_jkMr8zkRwDVwWAs74dA","IndianOil","Ground Floor, Arjaeur Road, Gaya","24.7937058","85.0002075","true"
"ChIJX-OI38Qp8zkRJKtWNVhDNDE","Nitish Fuel Tank","1, Nauranga","24.792341","85.03714889999999",""
"ChIJtwjHfxcq8zkRLpmu4_fftTU","Hindustan Petroleum Corporation Limited","Ground Floor, Kirani Ghat, Murarpur, Gaya","24.7991882","85.0122739","true"
"ChIJ6Xr2cbAr8zkR6yQ-JmfcwdQ","M Service station","Q2X6+V4V, Shaheed Road, Murarpur, Gaya","24.7997284","85.01030899999999",""
"ChIJ3caEJ_Up8zkRpmmwu0c6j5c","ONKAAR AUTO","Gaya - Nawada - Sikandra Road, Abgilla, Gaya","24.7990583","85.0258638","true"
"ChIJx_3i7kIp8zkR3WUkjkOwbw8","Hindustan Petroleum Corporation Limited","Khasra No 6839/68, Khata No 1154, 2317, Baijal Tetariya","24.78717929999999","85.0545197","true"
"ChIJfYPH0ewp8zkReP22N7uY31g","Mehta Service Station","NH 82, Gaya","24.798911","85.03685449999999","true"
"ChIJyRlfos0p8zkROkeJYQvs1VE","Bharat Petroleum CNG Station","Q2XX+68G, Manpur","24.798065","85.0483431",""
"ChIJpbZDo8Yo8zkRxXC9A2h7pkM","Hindustan Petroleum Corporation Limited","Ground Floor, Muffasil, Sohai Pur","24.7452559","85.0809785","true"
"ChIJY35LOXwr8zkRsZ8qlecCvFM","Bharat Petroleum, Petrol Pump -Saraogi Petrol Stn","GAYA TOWN3,GAYA BUS STAND,, Gaya","24.8112732","85.01634849999999",""
"ChIJ0W3JCWwo8zkRKIeMTlzm33E","HP PETROL PUMP - VIDYA HP","Thana No 292, Budhgere, Muffasil, Kaiya","24.796338","85.0864418","true"
"ChIJ84spiKop8zkRt4LIUR7JUZI","IndianOil","Ground Floor, Lakhan Pur","24.79706","85.0669961","true"
"ChIJ2xpODCUl8zkRvPaMwxA4xz4","Jio-bp","near Bartara Bazar, Ground Floor Tankuppa, near Bartara Bazar, Bartara, Aropur","24.7236114","85.1432289","true"
"ChIJvwoflU_V8jkRNd6ufNOs_N0","Hindustan Petroleum Corporation Limited","Khata No 58, SH 7, Plot No 629, Kujapi, Kewali","24.832635","84.9495566","true"
"ChIJUZnFknLV8jkRZoZZ5un9Ojo","IndianOil","Ground Floor, Bairagi, Chandauti, Kewali","24.8276252","84.95902579999999","true"
"ChIJy8v9b7fV8jkRROGrRewx-4E","Pradeep petrolemum","RXR3+276, Kewali","24.8400358","84.95314139999999","true"
"ChIJJ6z0kWQrjTkR0Dqe5hv9iUY","IndianOil","Ground Floor, Chandauti, Sadar, Bairagi, Churi","24.8450383","84.9353828","true"
"ChIJxeB6fPbV8jkRFg3tW0QZw8s","H & R NEYAJIPUR ENERGY STATION","NEYAJIPUR, Gaya","24.8323174","84.97423350000001","true"
"ChIJq3X-GQDV8jkRVytkhMl_2gs","Petrol pump","RXMF+8J, Aradih","24.83332829999999","84.97406",""
"ChIJzeq2m0PV8jkRQ454QtGoY8E","ANEK RAJ FUEL STATION","NH 22, PLOT NO.-365, PATNA BYPASS, Gaya","24.8333417","84.9742169","true"
"ChIJPQTOgX0q8zkRG5-2lVzYYm4","Suman Petroleum","GPD road, Kujapi","24.8115097","84.9818999","true"
"ChIJ3zJ44ffV8jkRYDfHvm-Lg-s","Hindustan Petroleum Corporation Limited","Ground Floor, Gaya - Patna Main Road, K P Colony, Gaya","24.821611","85.012074","true"
"ChIJC0ouw4XV8jkRNEDOQBYqzXA","Bharat Petroleum Petrol Pump , SHRUTI SERVICE STATION","KANDI, MOUZA RASALPUR, Gaya","24.854217","85.00361099999999","true"
"ChIJ27MFJXDW8jkRrys30EUUwxw","IndianOil","SH-4, Manpur","24.8134743","85.028075","true"
"ChIJjWM4Jzgp8zkRzNFYk7VZpl4","Bharat Petroleum Petrol Pump , SIDDHARTH SERVICE STATION","Khizersarai Bypass Road, Manpur","24.812941","85.03618510000001","true"
"ChIJ1w0qSwDX8jkRSNypD2x1W8U","Hindustan Petroleum Corporation Limited","Ground Floor, Khizersarai Road, Buniyadganj, Gaya","24.82990969999999","85.0299941","true"
"ChIJx9li2KnX8jkR2mfJY-czaxQ","IndianOil","Ground Floor Khanjahanpur, Buniyad Ganj, Alipur","24.824049","85.043719","true"
"ChIJJ-qjLMjV8jkR9Hb2JVx2y44","IndianOil","Ground Floor Rasalpur, Bairagi, Gaya","24.859952","85.00199099999999","true"
"ChIJTRnfJXDW8jkRSMSqJhXf5Lk","Indian Oil","India","24.85540259999999","85.0334056",""
"ChIJkQukBpEn8zkR1LAASqxb3-8","Bharat Petroleum Petrol Pump , JAGDISH SINGH FUEL STATION","VILL - BHIKAMPURPO, Pale","24.8101934","85.13455259999999","true"