place_id,name,address,latitude,longitude,open_now
"ChIJN2hgnT087TkR6HXasFVsy3I","Hindustan Petroleum Corporation Limited","Ground Floor, NH 102, Pokhraira, Muzaffarpur","26.071531","85.210861","true"
"ChIJt6j4tK897TkRBR8k1uYCApI","Bharat Petroleum","NH-102, Narhar Sarai, Muzaffarpur","26.0949385","85.2385311","true"
"ChIJuWqw6Ds87TkRRKk7uffJyus","IndianOil","Ground Floor Rewaghat Road, Bhagwatpur Karja, Karja","26.073938","85.216336","true"
"ChIJfXV_K1897TkR-we--K2tgc8","Bangali Sah & Chandra Pratap Fules","Karja, Rewa Road, Karja Dih","26.0948983","85.2387323","true"
"ChIJ-4bYmMk_7TkRlpomM_5OJTE","IndianOil","Ground Floor, Saraiya, Bahilwara Rupnath South","26.0301709","85.20419009999999","true"
"ChIJw86SY_IV7TkRq9kRsNCEmgA","Gaming Access","Chakwaja Chakwaja, Muzaffarpur","26.0095506","85.2725717",""
"ChIJB4prUXk97TkRr7SV9lruVwo","Reliance Petroleum","near Nh 102, No 650P & 655P, Khata No 135, 12 & 193 Saraiya, Kanti, Marwan Khurd, near Nh 102, Karja, Muzaffarpur","26.111262","85.2665301","true"
"ChIJU42ZbNYX7TkR7WHUpeWjCTQ","IndianOil","Ground Floor Mansurpur Chamarua, Marwan, A, Bishanpur","26.112822","85.27355299999999","true"
"ChIJUasiCPQV7TkRqaEieM7CFAY","IndianOil","Ground Floor, Kurhani","26.0308162","85.306683","true"
"ChIJDWSTHXQ97TkRnwjSuUK7hzE","IndianOil","Ground Floor, arja, A, Bishanpur, Marwan Bhoj","26.11725","85.256417","true"
"ChIJeZVEBQA97TkR_fNi2BFeymk","Om Namah Shivaya Service Station","47G5+FP7, Bagahi","26.1261729","85.2593113",""
"ChIJcRhsb2057TkRusWja0ymdsQ","IndianOil","Ground Floor, Mugaulli, Chakna","26.046429","85.173346","true"
"ChIJJX4P_bEW7TkRxolCK25m0UI","IndianOil","Ground Floor Ladaura, A, Bishanpur, Muzaffarpur","26.073175","85.349335","true"
"ChIJvzmjTVwR7TkRi-jnF_K3lrs","Hindustan Petroleum Corporation Limited","Ground Floor, NH 77, Hajipur - Muzaffarpur Highway, Muzaffarpur","26.0700201","85.372624","true"
"ChIJnYtbUxMR7TkReUOYGelp6WM","IndianOil","Ground Floor, Malang Asthan, Ashok Nagar, Muzaffarpur","26.085974","85.3807573","true"
"ChIJMyT9KhIR7TkRyHVL9Fpmwso","IndianOil","Ground Floor, Ramdayalu, NH 77, Khabra","26.091583","85.383583","true"
"ChIJS8RbQ9EQ7TkRLCyOW54nIjg","IndianOil","Ground Floor, Near Muz Collectorate, Bhagwanpur","26.1161316","85.3603929","true"
"ChIJy-eQ19IT7TkRQkmsKy0-xp8","Ms Mishra & Sons Petrol Pump Purushottampur","Kacchi Pakki Bus Stand Road, Purushottampur","26.0538007","85.3956865","true"
"ChIJO5h5ZdIQ7TkRP0WGWZ78Igg","IndianOil","Ground Floor, NH 28, near Bhagwanpur, Chowk, Muzaffarpur","26.11962","85.358051","true"
"ChIJv7sQnjsV7TkRPjHh5OMO85M","SAMRAT FUEL SERVICE","NH 57, Muzaffarpur","26.0493501","85.3446321","true"
"ChIJvXGRCJYV7TkRLbA0LYKX9OY","IndianOil","Ground Floor Kurhani, Turki, Basouli","26.035007","85.34123199999999","true"
"ChIJ9XJNTw0U7TkRe4H0RHkRV14","IndianOil","Ground Floor NH 77, Turki","26.0381956","85.3456162","true"
"ChIJvzeHfywR7TkRvoKE7Q0zggA","Bharat Petroleum, Petrol Pump -Raj Petroleum","NH-77,TURKI, MUZAFFARPUR, MUZZAFARPUR","26.0516401","85.3567837","true"
"ChIJ8ZFyXTwT7TkRl7rvgHggwy8","Bharat Petroleum, Petrol Pump -Sarthi Fuel Station","NH77, KURHANI, MUZAFFARPUR, MUZZAFARPUR","26.0516401","85.3567837",""
"ChIJlUfzWwAT7TkRDLkcefxv2vE","IndianOil","Ground Floor, NH 77, Shakri Saraiya","26.052881","85.35746","true"
"ChIJpdekZfkT7TkR6W7RxruvuT0","Reliance Petroleum","Ground Floor, Sakari Saraianchal, Nh 77, Kurhani","26.053594","85.3595941","true"
"ChIJQ2xmYPYU7TkRo8mnBez6GYU","Sarthi Fuel Station","286H+65Q, NH77, Road, Chandra Hati","26.0105953","85.3279895","true"
"ChIJH7ISOV8R7TkRTctLjzLvpBA","IndianOil","Ground Floor, Shiv Mandir, NH 28, near Khabra, Khabra","26.089755","85.3708942","true"
"ChIJz2EQD9oR7TkRosCQnkRiRko","IndianOil","Ground Floor Malangasthan, NH 77, A, Purushottampur","26.0846108","85.3812353","true"
"ChIJix9RFRcR7TkRr0b9SodiF_w","Vijay Petrol Pump","39WH+CV8, Pragya Nagar, Muzaffarpur","26.09604169999999","85.37969819999999","true"
"ChIJo4BZKAAR7TkRAPOuDzVUV_E","CP YADAV PETROLEUM","399V+426, Siwanpatti","26.0675813","85.39252479999999","true"
"ChIJz4psR9EQ7TkR_X_r9JVOfig","Hindustan Petroleum Corporation Limited","Ground Floor, near Bhagwanpur, NH 28, Prabhat Nagar Road, Chowk, Muzaffarpur","26.117501","85.359471","true"
"ChIJ8X-iZTIX7TkRSA1lSvojREM","Hindustan Petroleum Corporation Limited","Ground Floor, Chhapra - Rewa - Muzaffarpur Road, Muzaffarpur","26.121278","85.351936","true"
"ChIJ13RIUAAR7TkRwJrE6SOKl0g","Tuntun singh","4968+2C5, Majhaulia Road, Dinkar Nagar Majhuliya, Muzaffarpur","26.1100099","85.3661125",""
"ChIJBxKSb58R7TkRIVv7qvohpu4","Hindustan Petroleum Corporation Limited","Ground Floor, Kacchi Pakki Road, Mahendra Nagar, Sherpur, Bela","26.085701","85.39960099999999","true"
"ChIJ47khLqsT7TkRyENtTdvr01E","IndianOil","Ground Floor, Ramchandra Chouk, Karma Road, Kachi Pakki, Basouli","26.0192914","85.3957679","true"
"ChIJWbedeAQR7TkRnkh6s1CIxro","Bharat Petroleum Zenith Auto","493R+8G8, Ramdayalu Nagar - Hajipur Road, Aghoria Bazar, Saadpur, Muzaffarpur","26.1037893","85.38895579999999","true"
"ChIJjYHFBicO7TkRh4TFC0Qwu3U","Bharat Petroleum Petrol Pump","Kothia Dakhili","26.0962459","85.43975130000001",""
"ChIJN98B-PIQ7TkRNBcBXw2-YAs","IndianOil","Ground Floor, Collectorate, Akharaghat Road, Muz, Muzaffarpur","26.130451","85.387902","true"
"ChIJN0Vv1nsR7TkRP_VIROyNGKY","IndianOil","Ground Floor, 01, Kacchi Pakki, Dighra Rampur Shah","26.079426","85.408409","true"
"ChIJC9AsMJ8R7TkRNNyaEyIvgCQ","Bharat Petroleum, Petrol Pump -Kishan Fuel Point","NH-28,SHERPUR,MUZAFFARPUR, Muzaffarpur","26.0838254","85.4011544","true"
"ChIJb0f7TJYR7TkRl3Q36Ji1zzU","Indane Bottling Plant (IOCL)","Narayanpur Anant, Sherpur","26.0848342","85.40924679999999","true"
"ChIJhWulkwsR7TkRc0t9_XIaDPg","IndianOil","Ground Floor, NH 28, Kachi Pakki Chowk, Mahendra Nagar, Muzaffarpur","26.0904667","85.3919726","true"
"ChIJvVlJvmsR7TkRTf7RwrNiNtk","IndianOil","Ground Floor, Sadar, Muz Collectorate,Dighara Rampur Shah","26.0813132","85.41650469999999","true"
"ChIJ9arQZYcR7TkRe1mDrQw3Rlk","IndianOil","Ground Floor, Swami Vivekanand Road, Narayanpur, Dighra Patti","26.0937215","85.4083028","true"
"ChIJvZAggLwT7TkRBeHkZfDtML0","Reliance Petroleum","Khata No 170, 72 106 & 148, Thana No 272, Kurhani","26.0541028","85.4349216","true"
"ChIJK0NMSgIR7TkRb2NLfJGyWQI","IndianOil","Ground Floor, Collectorate, Aghoria Bazar, Muz, Muzaffarpur","26.107035","85.38962599999999","true"
"ChIJzSP8OugR7TkR005D6Cw3SBM","Hindustan Petroleum Corporation Limited","Ground Floor, Water Tank Chowk, near Kalambagh Road, Mahammadpur Kazi, Ramna, Satsang Vihar, Muzaffarpur","26.1094133","85.386456","true"
"ChIJk14vjGIR7TkR6TYPGe4ApOs","Bharat Petroleum Petrol Pump , MAA TARA FUELS","KANHAULI AZRAKABEPS, Mithanpura, Muzaffarpur","26.1062872","85.4206949","true"
"ChIJFTv6Qo8N7TkR35L-R2tSW70","IndianOil","Thana No 253, Mahanth Maniari","26.0298175","85.4439108","true"
"ChIJr1Q0Fl4P7TkRrqrreArhTwU","Vishvakarma Fuels Centre","Rahua Chowk, near Bharat Petroleum, Pusa Rd, Rohua","26.0957069","85.4406198",""
"ChIJ3erLJ58R7TkRgqa-eoB7ROE","Vishnu Nidhi Urga Kendra Company control Pump BPCL","R K hot and cold point, Hathi Chowk, Kachchi sarai road, Amar cinema, near Bisheswar Shyama Market, to, kalyani road, Muzaffarpur","26.1185409","85.395566","true"
"ChIJEdYtTDER7TkR2UkJyPmHHko","Bharat Petroleum, Petrol Pump -Lalit Kumar Bose","Station Road, Muzaffarpur","26.1216293","85.3811836","true"
"ChIJezU9YBsR7TkRy6_BreRMLXc","IndianOil","Ground Floor, Collectorate, Jail Road, Muz, Muzaffarpur","26.124826","85.405174","true"
"ChIJ20VcM84Q7TkRAdhD7zgaFZI","IndianOil","Ground Floor Maripur, Saraiyaganj Muz, Collectorate, Muzaffarpur","26.1261237","85.38520559999999","true"
"ChIJt2Lniy8R7TkRl-ABpo3oGu8","MS RAGHUBANSH ENERGY","ENERGY. Chhap Ambara, RAGHUBANSH, Jaffarpur Deoria Road, Muzaffarpur","26.1262788","85.3883654",""
"ChIJc2LSXuoP7TkRde5u5VMLHwQ","Hindustan Petroleum Corporation Limited","Ground Floor, Mansi Nawada Chowk, near Muzaffarpur Pusa Road, Musahari, Muzaffarpur","26.085601","85.460768","true"
"ChIJ9R5fHZA97TkRFoe7NrBDGQA","IndianOil","Ground Floor, Kanti - Harchanda Road, B Mahanand, Harchanda","26.13704","85.2587131","true"
"ChIJHVD482897TkR2T4BmoB_rJQ","IndianOil","Ground Floor, Muzaffarpur-Deoria Road, Harchanda","26.1411171","85.2661938","true"
"ChIJjWbbjrE87TkRfsMStU1J6wk","HP PETROL PUMP - GEETA FUELS","Hpcl Petrol Pump Badkagaon","26.14446","85.20151299999999","true"
"ChIJeWetfaY97TkRjCY_-Ehugn0","IndianOil","Ground Floor, Barkagaon Road, Marwan","26.15264879999999","85.20283789999999","true"
"ChIJE49p9Ks87TkRIE5Ouy7bfjU","Hindustan Petroleum Corporation Limited","Ground Floor, Muzaffarpur-Deoria Road, Barkagaon North","26.145879","85.194447","true"
"ChIJNT3daD4j7TkROjMPLQI-xRc","Md Aarif","Urdu School Urdu School, Gopalpur","26.18139279999999","85.2098307",""
"ChIJH8XhQ2MX7TkRN4MMRpOLrtc","Baba Fuel Point","582F+6CQ, Unnamed Road, Chiknauta urf Harpur Lahauri","26.1505897","85.3235988","true"
"ChIJ24-68a4Q7TkRHPm4eBRwWwE","Hindustan Petroleum Corporation Limited","near Bus Stand, Ground Floor NH 28, kolhua, Paigambarpur, near Bus Stand, Bairia","26.147823","85.361862","true"
"ChIJz4bHSZsQ7TkRPgwerpMStX4","IndianOil","Ground Floor, Akharaghat Zeromile, Ahiyapur, Purushottampur","26.149477","85.385616","true"
"ChIJnVwZNvMQ7TkRP8cf1KKvCqQ","Hindustan Petroleum Corporation Limited","Ground Floor, Akharghat, Muzaffarpur","26.132901","85.38980099999999","true"
"ChIJsapgTYsX7TkR_C2LfyhAeas","IndianOil","Ground Floor Kanti, Bishanpur, Damodarpur, Muzaffarpur","26.139595","85.349605","true"
"ChIJITBJGVkX7TkRm9Q0XIXOeRo","Bharat Petroleum, Petrol Pump -Narayani Fuels","NH-28, Kolva Pagambarpurmu, Muzaffarpur","26.1517569","85.3412163","true"
"ChIJm1MCMTUX7TkRDcXQMIp6K1w","Shanti Petrol Pump","Oom Nagar, opposite swayamvar vivah bhawan, After, Railway Crossing, Navijaan Colony, Damodarpur, Jaiprakash Nagar, Muzaffarpur","26.1361227","85.3542983",""
"ChIJb7Yh9f8R7TkRVgdNwtN1d6A","IndianOil","Ground Floor, Near Muz Collectorate, Brahmapura, Muzaffarpur","26.13003","85.35853999999999","true"
"ChIJhSH247MQ7TkRY5kTOge5UVM","IndianOil","Ground Floor, Chandani Chowk, Muzaffarpur","26.13951459999999","85.3597158","true"
"ChIJFYCiKjkR7TkREJtw44rij5A","Mahavir Auto Service","Zeromile Chowk, Bairiya Road, Muzaffarpur","26.152568","85.35203059999999","true"
"ChIJqQEg2fwZ7TkRmHVTQGz13bo","Bharat Petroleum","India","26.1586322","85.34552070000001","true"
"ChIJpxpsdDIR7TkRyJZVzLpXaZE","BABA BAIDHNATH FUEL CENTRE","Rajepur Maduaha, Tetariya, Road","26.1354584","85.3622338",""
"ChIJzQLqc64Q7TkRdy3AJkgF_TI","Bharat Petroleum, Petrol Pump -R.C Filling Station","BAIRIA GOLAMBAR, Kolhua Paighambarpur, Railway station road, ward-1, Muzaffarpur","26.1458337","85.36057989999999","true"
"ChIJpWQ_DscQ7TkROuG_y261moY","Bharat Petroleum, Petrol Pump -Zenith Fuels","49Q8+82J, Brahampura Main Road, Daudpur Kothi, Muzaffarpur","26.131987","85.3662557","true"
"ChIJw7tP-bkQ7TkRZ_De_taVIfE","IndianOil","Ground Floor, Laxmi Chowk, Collectorate, near Muz, Muzaffarpur","26.138188","85.365636","true"
"ChIJf52OeOkZ7TkRroqHDdA5Chk","IndianOil","National Highway 28, Chhapra Dharampur Jadu","26.1723745","85.3382292","true"
"ChIJ_Sd-eBAZ7TkRHWR-XAyBovE","Hindustan Petroleum Corporation Limited","Ground Floor, NH 27, Kalwari, Kanti","26.173533","85.338144","true"
"ChIJe8B1SDcb7TkRbCMYlpRRxHo","IndianOil","Ground Floor, Paigambarpur Kolhua Ahiyapur, Kanti, Chhapra Dharampur Jadu","26.168915","85.36009399999999","true"
"ChIJTbLFXxsa7TkRSXPAX8U4O_U","Induno","India","26.1691745","85.3602425",""
"ChIJ76uUGJkQ7TkRJZy_q7HccoE","IndianOil","Ground Floor Chakgazi, A, Purushottampur","26.14892","85.378822","true"
"ChIJmVm-Hd8Z7TkRnkybW3m8vbU","IndianOil","Ground Floor, Kanti","26.1940256","85.3165798","true"
"ChIJI6sASwAR7TkRhPkFJRRpcQY","Shiv shakti services","49XQ+QJH, New Zero Mile","26.1494366","85.38909799999999",""
"ChIJCe-p2VwR7TkRAu6LmXcI2R0","IndianOil","Ground Floor, NH 57, New Zero Mile, Muzaffarpur","26.148522","85.39119920000002","true"
"ChIJHdXwA6g37TkRsa8oPuKhd0Q","IndianOil","Ground Floor, NH 57, New Zero Mile, Muzaffarpur","26.148522","85.39119920000002","true"
"ChIJLct2Ww8R7TkRscaMQezcNT0","Surendra Mehta Gas station","593R+G6M, Muradpur Dullah","26.1538393","85.3905319","true"
"ChIJS0UoYgAR7TkRgcj8qKzddz0","New zeromile","5C43+FPC, Shahbazpur","26.1491017","85.3957686",""
"ChIJue1x86sa7TkRZcK2FCDNjAE","IndianOil","Ground Floor Patiasa, NH 57, Amma","26.163838","85.43357800000001","true"
"ChIJKaJjCVYR7TkR0Lq5Wl2wz-w","Hindustan Petroleum Corporation Limited","Anchal Musahari, Plot No 35, Saraiya Sahdullahpur, Muzaffarpur","26.1565938","85.40787189999999","true"
"ChIJaS8Nc88b7TkRtVRoH3aUzqs","IndianOil","Ground Floor, Amma, Fatehpur - Harpur Bakhri Road, Ahiyapur","26.1611136","85.4093049","true"
"ChIJFY0ShGMa7TkR-QYojzW6uss","Hindustan Petroleum Corporation Limited","Ground Floor, near SKMCH, Bhikhanpura","26.172188","85.391423","true"
"ChIJWykPNqYa7TkRYKLuQkwmNf4","IndianOil","Ground Floor, Near Muz Collectorate, Bakhri Crossing, Musahri, Muzaffarpur","26.161016","85.4256142","true"
"ChIJ8UY-1HEb7TkRH6f1SilBB5E","Hindustan Petroleum Corporation Limited","Ground Floor, Ghirni Pokharrd, Muzaffarpur","26.163251","85.431821","true"
"ChIJjaJ2GvUa7TkRowvEGqYCTTw","IndianOil","near B Factory, Ground Floor Ahiyapur, NH 77,Umanagar, near B Factory, Muzaffarpur","26.182655","85.397789","true"
"ChIJua6TNAAb7TkRjJONaBiTxWA","CNG petrol pump","59MX+475, Bhikhanpura","26.182884","85.398321",""
"ChIJpVc8bacY7TkRkcCS6go76-k","Hindustan Petroleum Corporation Limited","Ground Floor NH 28, Motipur, Pakhnaha Shiuram","26.23178799999999","85.273594","true"
"ChIJOfVRMZAf7TkR46qRFOonLv4","IndianOil","Ground Floor Jhitakahi, Madhuban, Mahartha","26.2046663","85.2643883","true"
"ChIJeW9eTwgi7TkRI0ptVYE4Eoc","HP PETROL PUMP - SINGH RAMESHWAR HP","Pakhnaha, Motipur ON, National Highway 28","26.233339","85.270557","true"
"ChIJX0PgIgAj7TkRW6S3z3NXN4U","Indian oil petrol pump","67P7+JG9, Kharika urf Bhalaipur","26.2365431","85.2638542","true"
"ChIJS2p2YakZ7TkR-oVzU-uQDXk","Shree Patel Enterprises","near Overbridge, Chowk Nh28, Kanti","26.2069612","85.2933615",""
"ChIJJSyABZgZ7TkRhiEDTw5iYb0","Hindustan Petroleum Corporation Limited","Ground Floor, Shriram, Minapur, Pakhnaha Shiuram","26.227831","85.280608","true"
"ChIJz3D7OfYY7TkR1scfGBCYx5Q","Hindustan Petroleum Corporation Limited","Ground Floor, NH 28, Kanti - Minapur Road, Muzaffarpur","26.20234009999999","85.2998501","true"
"ChIJJat4_PcY7TkRImIN-mjbHi4","Sheet Basant Fuel service","6823+M44, National Highway 28, Kanti","26.2016343","85.3028167","true"
"ChIJ22Unhbsj7TkRCH4n307UGKQ","IndianOil","Ground Floor Panapur, B Mahanand, Minapur","26.24566","85.23588099999999","true"
"ChIJo_dpgK0j7TkR0N9V6zfReBM","IndianOil","66WM+FC6, National Highway 27, Nariar","26.245523","85.233322","true"
"ChIJn-j50_QZ7TkRARyUXqrf3GM","IndianOil","Ground Floor, Kanti,B Mahanand, Pakari","26.2206746","85.30143059999999","true"
"ChIJ74ewijwb7TkREYEnnlg2J0g","IndianOil","Ground Floor, Aur, Bishunpur Kanth","26.2405456","85.3646357","true"
"ChIJ35mZIwAb7TkRijDC5DvxVCQ","Hindustan Petroleum Corporation Limited","near Viswakarma Chowk, Plot No 1674, Jamala Bad","26.2045287","85.3930827","true"
"ChIJ6eloSPsb7TkRdeVgxQpnxIE","IndianOil","Ground Floor Ahiyapur, Jhapaha","26.1995767","85.399423","true"
"ChIJJenmvBQb7TkRYydxwGaZglQ","IndianOil","B Factory, Ground Floor Bhikhanpur, Bazar, Jhapaha","26.2350494","85.4154188","true"
"ChIJQVhibFgb7TkRys26464PBF4","Hindustan Petroleum Corporation Limited","Ground Floor, Muksudpur","26.25143719999999","85.4258447","true"