place_id,name,address,latitude,longitude,open_now
"ChIJG3VTp6-o8jkRRYOX0GriBW8","Bharat Gas Godown","F3WX+HFC, Hospital Road, Alawalpur","25.4964417","85.0986278","true"
"ChIJi_5TtNep8jkRuCcNe7E-y2A","IndianOil","Phulwari Khagaul, Road, Phulwari Sharif, Patna","25.5774176","85.0566233","true"
"ChIJt9heUQdY7TkRDSiLQli58bQ","Bharat Petroleum","H4J6+MRM, Tej Pratap Nagar, Patna","25.5817175","85.11205729999999","true"
"ChIJ9WPbTgCp8jkRdU4wnwsX2TQ","NZ petrol","G375+MM4, Phulwari Road, Hasanpura","25.5141388","85.05920809999999",""
"ChIJD1RKhKCp8jkRU2TfkRIiKKs","MALIKPUR INDANE GRAMIN VITARAK","G32R+V39, Nemdarganj","25.5021571","85.0902311",""
"ChIJiVtn2fap8jkRm4HPzA7MYc0","Munna Kumar","Fast Food, Phulwari Sharif, Bahadurpur","25.5584286","85.0586907",""
"ChIJ-36N3Sim8jkRVO4e47D08sk","IndianOil","Ground Floor Punpun, Suitha, Akauna","25.524824","85.110237","true"
"ChIJf2eXkFyp8jkRcfJfPXQz5Wg","Hindustan Petroleum Corporation Limited","Ground Floor, AIIMS Janipur Road Phulwari, Alampur Gonpura, Babhanpura","25.5441641","85.0260066","true"
"ChIJXU6rqwOp8jkRs_qxJzEgoWQ","HP Petrol Pump","G2WG+MF2, Phulwari Sharif-Janipur Road, Babhanpura","25.5447503","85.02602949999999","true"
"ChIJ1Y4crcuv8jkRIrXgfqyM4IU","IndianOil","Ground Floor Nadpura, Punpun, Akauna","25.4778493","85.0763936","true"
"ChIJeyJXZKKv8jkRyfFBY6Wac48","IndianOil","Ground Floor Nadpura, Akauna, Punpun, Patna","25.4778493","85.0763936","true"
"ChIJa4otT92p8jkRToxI3vUyOzY","HP GAS","India","25.567979","85.0450902",""
"ChIJR2McJACp8jkRJrwoEsyCEBQ","Hindustan Petroleum Corporation Limited","Ground Floor, Phulwari Sharif, Patna","25.573832","85.0601609","true"
"ChIJEy_RXgCp8jkRjZA7A5RZI58","Hindustan Petroleum Corporation Limited","Ground Floor, Phulwari Sharif, Patna","25.573832","85.0601609","true"
"ChIJWa-Ny3Wp8jkRudU6wYjmeC4","Indian Oil","Nohta Anchal, Phulwari Sharif, Patna","25.573599","85.058156","true"
"ChIJiSTxjKmr8jkR9FV4qrCP3nQ","Indian Oil Petrol Pump","Near Bagha Tola, AIIMS-Naubatpur road, Hanumanchak, Simra","25.53699289999999","85.0118567","true"
"ChIJi1lN_9Sp8jkR6lL1KucJHBg","CASTTLE PETROLEUM","India","25.5764537","85.06235230000001",""
"ChIJX3nnFQCp8jkREfy6GOzCvzI","Petrol Pump","H3FR+688, Shivam Vihar Colony, Paharpur, Mahua, Anisabad, Patna","25.5730475","85.0908424",""
"ChIJCQAAtKun8jkRgndtm64OD4U","Hindustan Petroleum Corporation Limited","Ground Floor Patna Punpun, Road, Kurthoul, Parsa","25.5533333","85.1207962","true"
"ChIJBS0rV2Op8jkRsa__SHm9plw","Ritik Kumar","B The1776, Sabajpura, Patna","25.57962","85.0579762",""
"ChIJQ4fokSCo8jkRfwUBuRefNAA","IndianOil","Bypass Road, B Sector, Phulwari Sharif, Patna","25.5796821","85.0826171","true"
"ChIJhUpO4q6n8jkRpaDv-r_WRoY","Highway goal biodiesel","Repose Road, Badulah Chak, Rahimpur","25.5387644","85.1292945","true"
"ChIJaXZnAQCp8jkR6_1RjolAKTg","Vicky Ahir","H3HV+255, Anisabad, Patna","25.5775117","85.0929732",""
"ChIJAxDd4q2p8jkRZFHMny51s78","SHOYAB PETROL PUMP","near by Fast Food, Patna","25.5778624","85.0934625",""
"ChIJ49b9HcGp8jkR7osYitiOisE","DAS PETROL PUMP","near by Fast Food Restaurant, Patna","25.5778628","85.09346239999999",""
"ChIJSUnXP_1X7TkRwV3KkRgVPHU","Bharat Petroleum","ANISHABAD,PATNA, Patna","25.5825274","85.09734569999999","true"
"ChIJafUlRFtX7TkR1y3chLeZhkk","IndianOil","Ground Floor, Rialway Station, Vidyut Parisad, near Danapur, Patna","25.581177","85.031982","true"
"ChIJAye-1qJX7TkRZ-5b4M0HWac","HP petrol","H3MW+RHM, Anisabad, Patna","25.5845821","85.0964073",""
"ChIJd5ZpQQBW7TkRLDmKeUypvmY","Hindustan Petroleum Corporation Limited","Ground Floor, near Sarari, Danapur Road, Railway Crossing, Sewala, Patna","25.5801349","85.0244536","true"
"ChIJ6_O7FQCn8jkRuyEKJPl-CJM","Bokaro Steel City","H4H8+67J, 35 Feet Road, Anjanpur Colony, Dasratha, Aitwarpur, Patna","25.5780929","85.1156482",""
"ChIJE4XOAABZ7TkR5eSTTZjDAGg","Awesome Bhakti, Petrol Pump","H4J6+M8Q, Tej Pratap Nagar, Patna","25.5818288","85.1110575",""
"ChIJxU7QMfyr8jkRNuEdWKOC0pw","OM BIO FULES PETROL PUMP","Chirora,Naubatpur, Patna","25.5225154","84.98956729999999","true"
"ChIJVVVVyfan8jkRKSGyPoMwv2Q","BPCL Depot loni","H4GC+F5C, Anjanpur Colony, Dasratha, Sipara, Patna","25.5761765","85.1203819",""
"ChIJHzvn-BFZ7TkRbjVnbhoJ75I","Exifuel India Pvt Ltd","KB Homes, 2nd Floor, Bypass Road, New Alkapuri, Gardanibagh, Patna","25.5827857","85.1126587","true"
"ChIJe1WvFXJY7TkRdTSSTfY7NA0","Bharat Petroleum","Near Old Police Chowki, &, Gaya Gumati Line Road, Mithapur, Patna","25.5925527","85.13138359999999","true"
"ChIJrfis9X2n8jkRLe4IFsqpGUg","Shambhavi enterprise","near chippira village, Chainpur, Jaganpura - Chipura Road, Patna","25.5420552","85.1484083",""
"ChIJD68VRgCn8jkRd-6U6eC0B-E","Paru","G5QH+377, Sona Gopalpur","25.5376627","85.1781602",""
"ChIJM66XvFen8jkRzhWOSAUlYqk","PATNA PETROLEUM petrol Pump (Fatehpur)","Fateh Pur","25.5076875","85.1871875",""
"ChIJwVpVXgCn8jkRBnZ4Z67d5Y4","Maa jagdamba fuel service","G56Q+RHQ, Rupaspur, Fatehpur","25.5133083","85.1891",""
"ChIJ_x2IIimn8jkRmNo9osj-F60","Hindustan Petroleum Corporation Limited","Ground Floor, Patna Gaya Road, Sampatchak","25.50767759999999","85.1873461","true"
"ChIJ9z6ylmmn8jkRmc3V1AcT1vs","R K Avanue Indane","F5XP+8P4, Jujharpur","25.4982567","85.1868137",""
"ChIJtaf2saqn8jkREKjt2DMyEZ4","Baba petroleum Private Limited","Ho No 65, E New Jangnpura, near by Trdiv Mandir, New Jangnpura, Patna","25.577543","85.14973289999999",""
"ChIJhza0sX6n8jkRvWmG7E6Snlw","Narayan Vardhan Fuel Station","H5G2+XX6, New Jaganpura, Ram Krishna Nagar, Ramkrishan Nagar, Patna","25.5774033","85.15238099999999",""
"ChIJVyfXz1Kn8jkRhsu9GuvQ6_g","Bharat Petroleum","Jaganpura Road, East Lakshmi Nagar, Ramkrishan Nagar, Patna","25.5774121","85.15243559999999",""
"ChIJ68ZiJQCn8jkRTFhCBbKEY7c","Munna.jee.gas","2, Ghana Colony Road, East Ram Krishna Nagar, Ramkrishan Nagar, Patna","25.5806807","85.1430682",""
"ChIJnSSmEgCn8jkRsZPDnFgM1Ek","आकाश कुमार","H5J2+JGC, Jaganpura, Ramkrishan Nagar, Patna","25.5815647","85.1512692",""
"ChIJcwmIr3dY7TkRndpnGnaL75Q","C.N.G ऑटो पार्टस","India","25.584571","85.13561610000001",""
"ChIJDyfhnQWk8jkRRDCQdaesWkw","IndianOil","Ground Floor Patna Gaya Road, State Highway 1, Gaurichak","25.4785358","85.1817011","true"
"ChIJJ8yrFnhZ7TkRIWHwycup2p0","Ganga Fule Centre","Ward No 01, Dalsinghsarai","25.5862998","85.13565129999999",""
"ChIJ5f6qCgdY7TkRnMBRub7q0tE","IndianOil","Patna Byepass, Anishabad, Chitkohra, Patna","25.582831","85.11443299999999","true"
"ChIJFTUhjYNZ7TkRZPp5jdKf0-w","ALD ENTERPRISES","Bihari complex, old bus stand road, Mithapur, Patna","25.5864883","85.1355719","true"
"ChIJbVQ6DTBZ7TkRmyG_Q-bhMlE","CNG Pump Online","Indian Oil Petrol Pump, Main Bypass, Alkapuri, Shivpuri, Chitkohra, Patna","25.5831202","85.114119",""
"ChIJ_4AxGHKn8jkRp83mDpa58O0","Bharat Petroleum Petrol Pump , PUSHP PUNJAN SERVICES","MASSAURHI ROAD, Hansadih","25.569762","85.18787999999999","true"
"ChIJn_D4GE2n8jkRlsbUk1820QA","IndianOil","Ground Floor, Ilahi Bag","25.570087","85.18768299999999","true"
"ChIJbRlrzNJZ7TkRL26Z2zzvB0U","MURMU HP FUELS","Hathi garh, near by kreshar more, hiranpur pakur road, hathi garh, Patna","25.5919942","85.13854979999999",""
"ChIJ_fZiuKBY7TkRoQoU0IvYixM","Hindustan Petroleum Corporation Limited","Nandlal Chhapra, Ground Floor NH 30, New, Patna - Bhagalpur Road, Patna","25.5849701","85.1728401","true"
"ChIJIY3s4ndZ7TkR33pLalO-JeE","KISHORI PETROLEUM","near Petrol Pump, 00 Barahi, Main Road, Sursand","25.5917423","85.1557143",""
"ChIJE1PYbABZ7TkRa6rtx4dR6Ms","Rocky kumar","H4VQ+J2P, Patna","25.5940947","85.1375645",""
"ChIJoXjnn-lZ7TkRfT-xlh0KN6U","UNIVERSAL FLUES","Khorahar","25.5940947","85.1375645",""
"ChIJJfF5eKhY7TkRp4BaSvXwO00","Bharat Petroleum","Bhagwat Nagar Main Road, Kumhrar, Patna","25.5850835","85.1764209","true"
"ChIJZwdlQ32g8jkRZ9W74Q5dgJM","Hindustan Petroleum Corporation Limited","Ground Floor, Patna - Bhagalpur Road, Agam Kuan, Karmali Chowk, Patna","25.5747585","85.2314911","true"
"ChIJHTsTiK2h8jkRuF0UF2jOTw0","Bharat Petroleum, Petrol Pump -Shivang Petro Point","KARMALICHAK,PATNA BYE PASS, Patna","25.5742155","85.23352299999999","true"
"ChIJM1VyJ8Oh8jkR2TS6eLMtPJI","IndianOil","New Bypass Road Karmalichak, NH 30, Simli Murarpur","25.572961","85.237946","true"
"ChIJBTjLPACh8jkR5GQx1IgyvHM","Magadh online exam centre","H6FQ+4CJ, Ghoghardiha - Durgasthan Road, Narayan Nagar, Paijawa, Patna","25.5728358","85.238503",""
"ChIJK-GHjrah8jkRk8Qc10d7Ncg","Bharat Petroleum, Petrol Pump -S.L.Misser","DHAWALPURA,PATNA BY PASS,P, Patna","25.5776123","85.22718739999999","true"
"ChIJ4RRTpYGj8jkRAi5BiNVv_5w","Narayan Petro Moda BPCL PETROL PUMP","Village- Sudiha, Chandasi, Bhikhuwa Road, Patna","25.4790736","85.24617889999999","true"
"ChIJ3XHrsN6h8jkRLu4YwiPx7OA","GAIL RB petroleum","H6J9+G5Q, Ranipur, Patna","25.5813299","85.21797029999999","true"
"ChIJYX1llcGh8jkRlcshTrjsgdI","IndianOil","Ground Floor, Ranipur, Patna","25.583041","85.211517","true"
"ChIJA_LFAgCh8jkRVybYbZHgg-o","Dumri","G729+V5, Dumri","25.5018185","85.2682152",""
"ChIJDUr4bKCg8jkRVs7fC4Dxd6c","IndianOil","Plot No 2414 & 2412, NH-30, Ranipur, Patna","25.5835698","85.208584","true"
"ChIJDWzdBzeh8jkRdM36UjOkJsk","IndianOil","Patna - Bhagalpur Road, Pahari, Patna","25.5836083","85.2019693","true"
"ChIJVVpo9GJf7TkR-JI70gcimjg","IndianOil","Ground Floor, Pahari, Patna","25.584723","85.19743299999999","true"
"ChIJNSGg_q9f7TkR8fkKI0S0CI0","IndianOil","Ground Floor, Bypass Road, Jakariyapur, Pahari, Patna","25.5852318","85.1899047","true"
"ChIJNwQvje1Z7TkRr1zy1INqpVQ","DHL SmarTrrucking Patna SmartHub","H5PQ+3H6, DHL Smart Hub, Singh Petrol Pump Zero Mile Jatakiya Pur near, Transport Nagar, Kankarbagh, Kumhrar, Patna","25.5851655","85.18888729999999","true"
"ChIJnVgGjKpY7TkRS6DkhL3U3GY","HP PETROL PUMP - GANGA HP PETROL PUMP NH 30","Near, Digha - Sonpur Bridge, Digha Ghat, Patna","25.58506","85.187151","true"
"ChIJHSW5n05f7TkRY-oOS6JLFQE","Bharat Petroleum","Road, Mahatma Gandhi Setu, Pahari, Patna","25.5871751","85.189065","true"
"ChIJj92cSG6h8jkRHiKFsXd7Pws","Hindustan Petroleum Corporation Limited","Ground Floor, Ashok Rajpath Road, Deedarganj, Patna","25.5726801","85.2568201","true"
"ChIJBxUNbgCh8jkRm6qFzi98W5I","Didarganj","H787+V7Q, Jaferkhantola, Patna","25.5669557","85.2634894",""
"ChIJJ2ZK3Imf8jkRx95yuEIKQtA","IndianOil","Ground Floor Fatehjangpur, Begampur, Patna","25.5543411","85.27346969999999","true"
"ChIJFeJpjeCh8jkRkjZTVsaRoaY","IndianOil","Ground Floor, Deedarganj, Patna","25.56898099999999","85.26231399999999","true"
"ChIJb2dtpxCg8jkRB6aG7rqBFVY","Hindustan Petroleum Corporation Limited","Ground Floor, NH 30, Patna Bypass Road, Deedarganj, Patna","25.5695801","85.2618301","true"
"ChIJt40YWwBZ7TkRjPbu7grdZi4","NRL Petrol Pump","H5PH+8H4, Bhootnath Road, Bahadurpur Housing Colony, HIG Colony, Mahatma Gandhi Nagar, Chitragupta Nagar, Patna","25.5857701","85.1789425",""
"ChIJ7-QdTKtY7TkReZZYK2z2wlI","IndianOil","Zero Mile, Mahatma Gandhi Setu, Pahari, Patna","25.588881","85.18899499999999","true"
"ChIJccZUC75f7TkR_SuAkS4_BF8","Nidhi Auto Shop","H6QF+QPH, Ghasiyaritola, Patna City, Patna","25.5894284","85.2243731",""
"ChIJ95q2Hxqg8jkRvsTXrb0NlZw","IndianOil","Bailey Road, Madhav Mills Main Road, Deedarganj, Patna","25.568933","85.262947","true"
"ChIJ-ZeVPACh8jkRw4qH7q036gw","Rajdhani service station","Jaferkhantola, Patna","25.5690625","85.2631875","true"
"ChIJnWAIz72h8jkRCrp9cXtE-Ws","Om Sai Service Centre","H7H2+W2P, Sharifaganj, Near Didarganj Thana, Patna City, Patna","25.5798284","85.2500934","true"
"ChIJF1S5dyyf8jkRDRZvP2VAql4","IndianOil","Ground Floor, Fatuha, Begusarai Court, Jethuli","25.541962","85.281283","true"
"ChIJgwfR5lJf7TkRnDCBlDfusS8","GAIL CNG Sonali Service Filling Station","Care SRI Bidhan ROY 3 SRI Daroga PD ROY Road","25.5928003","85.19129649999999","true"
"ChIJqwvvxdlf7TkRiKfbIS59e0M","Hindustan Petroleum Corporation Limited","No 3, Sri Daroga Prasad, Rai Road, Kumhrar, Patna","25.5929301","85.1910401","true"
"ChIJg6GCqaMXjTkRcpjX4im2-Uc","PIHU FUELS POINT Gawaspur-Piroo","Haspura -Mehandia Rd, Gawaspur","25.4553743","85.18859510000001","true"
"ChIJSfwmAE9W7TkRMcy2MFE3UNQ","Bharat Petroleum, Petrol Pump -Rajdhani Fuel Station","Gola Road, Bailey Road, Danapur, Ramjaipal Nagar, Patna","25.611906","85.0571185","true"
"ChIJC72oSkVW7TkRJeF7P4EUaZI","IndianOil","Ground Floor, Bailey Road, Biyapur","25.614918","85.053207","true"
"ChIJqdS8XVxW7TkRfm5aE1zenpc","IndianOil","Ground Floor, Jalalpur","25.616325","85.050117","true"
"ChIJDzOe-WF-DRQRk8s7kRHBxzU","EVENT MANIAA patna","12, Gokul Path, North Patel Nagar, West Patel Nagar, Patna","25.6164229","85.1013054","true"
"ChIJ1cg5jvJW7TkRPUg5v1i_EcE","Bharat Petroleum Petrol Pump","Danapur Bus Stand Road, Bibiganj, Danapur Nizamat, Patna","25.6372599","85.04614699999999",""
"ChIJWZx0BW1X7TkRdqIh_f2QHQI","Bharat Petroleum - Yash anand fuel service","Ashiana - Digha Road, Mica Colony, Yadav Colony, Digha Ghat, Patna","25.6419722","85.08776549999999","true"
"ChIJ6xN64mF-DRQRMwaQLlGUFrE","JAYA FUELS","JAYA FUELS, West Boring Canal Road, Patna","25.615441","85.120129","true"
"ChIJG_SQVWxX7TkRY97t2wzgIWQ","Petrol Pump Sunil Kumar Matho","2, Mahatma Gandhi Path Rajeev Nagar Patna, Bihar 800024, Mahatma Gandhi Path, Mica Colony, Yadav Colony, Patna","25.6428823","85.0883234","true"
"ChIJETY8uxlX7TkRGYNZq7pX1wo","Bharat Petroleum","Main Road Ramjeechak Bataganj, Digha, Patna","25.6470619","85.073415","true"
"ChIJRwpCsdVZ7TkRRDI8fvBJ8Iw","Hindustan Petroleum","74, Patliputra Colony Road, Patliputra Colony, Patna","25.6325948","85.10871399999999","true"
"ChIJtUGF4DVY7TkRShtos6Ncstk","Bharat Petroleum","Ashok Rajpath Road, Buddha Colony, Patna","25.6234526","85.1259177","true"
"ChIJXbVaOtJZ7TkRhiQvCObi-hE","Hindustan Petroleum Corporation Limited","Ground Floor, Road, Sadaquat Ashram, Digha Ghat, Patna","25.6336601","85.11492009999999","true"
"ChIJx5RgqzNY7TkRW6lpsfOc1tU","IndianOil","near Buddha Colony, Ground Floor Bansghat, near Buddha Colony, Dujra Main Road, Chauraha, Patna","25.6232841","85.13168619999999","true"
"ChIJoxHNN0NY7TkRwHCfYtRGBo4","Bharat Petroleum","near Daak Bunglow, Chauraahaa, Chajju Bagh, Patna","25.6101951","85.1371571","true"
"ChIJf60xMV1Y7TkRnZJbApa-6fk","HP Petrol Pump","J45Q+459, Fraser Road Area, Patna","25.6078118","85.13801029999999","true"
"ChIJ8cO7vmFY7TkRiLAfBMhuzd4","IndianOil","Chiraiyatand Road, Kankarbagh, Patna","25.602943","85.142991","true"
"ChIJDZojf_F-DRQRhIqLKHAWPmU","IndianOil","Bailey Road, Rukanpura, Patna","25.606623","85.07094599999999","true"
"ChIJs_p-K_NX7TkRFaAPPRPU3as","Ms Nand Kishor Fuel Centre.","Lalita Residency, Rupaspur","25.6061914","85.06228589999999",""
"ChIJYf6kiBVX7TkRbjnsQHa7UgI","SATYAM PETROL PUMP","near Hanuman Mandir, PATNA CITY AIRPORT BYPASS ROAD, near Hanuman Mandir, Patna Airport - Ashiana More Road, BIT Campus, Patna","25.5952314","85.08308040000001",""
"ChIJsQ4JWgBX7TkRmvgAJcWtO6A","Indian Oil Fuel Station (Petrol Pump) M/s Ajit Energy Station, AIIMS Digha Nahar Road","J377+VQ9, Ramjaipal Nagar, Nizamat, Danapur","25.6146626","85.06449540000001",""
"ChIJmVpa9xBX7TkR8A9JlE8rjqg","BPCL AFS","H3WW+76F, Patna","25.5956835","85.0955338",""
"ChIJVWBufx1X7TkRwGT1BGmktFI","IndianOil","Mustafapur, Danapur","25.606911","85.04278599999999","true"
"ChIJWe00PABX7TkR8mRhypMU7o0","LAXMI JAGAT SERVICE STATION","Metro Piller no. 140, beside indian oil petrol pump, B. No - 3313, Bailey Road, RPS More, Kaliket Nagar, Patna","25.616333","85.05011100000002",""
"ChIJwTBLQdpX7TkRZf4fHhrPuGg","Bharat Petroleum","Saguna - Danapur Main Road, Saguna More, Mainpura, Danapur Nizamat, Patna","25.6192675","85.0476833","true"
"ChIJ9TckH15W7TkR7vv92EVzUZQ","Hindustan Petroleum Corporation Limited","Ground Floor, Bailey Road, Saguna More, Patna","25.621891","85.044451","true"
"ChIJQ60OQtVX7TkR_KA8MzxMe_Y","Sri Ram Fuels - BPCL","Patel Nagar, Patna","25.6159027","85.1005275","true"
"ChIJH8UR92BW7TkR7zdwzS1sVPM","IndianOil","Ground Floor Sagunamore, Bailey Road, Danapur","25.6232611","85.04232689999999","true"
"ChIJIft7prxX7TkRUlzCmaHoRG4","Fuel Petrol","Sultanpur, matth","25.6308942","85.04722509999999",""
"ChIJIdZrJABZ7TkRAqhgU-RMwF8","MOTHER STATION CNG PUMP GAIL","H4W8+8X4, Gardanibagh, Patna","25.5954899","85.1179219",""
"ChIJW_w-4ShY7TkRfkGUmsqkoJo","KRISHNA SERVICES BPCL Petrol Pump","Boring Road, Sri Krishna Puri, Patna","25.6195012","85.11010619999999","true"
"ChIJMzzPbABX7TkR9WddUZfTs6Y","Bharat Petroleum","Pillar No -310, AIIMS Elevated Bridge, near Bailey Road, Mithila Colony, Patna","25.6421919","85.0773482","true"
"ChIJCcYTaEBZ7TkRA0EEI5e3unY","IndianOil","Ground Floor, Boring Road, Patna","25.6128487","85.1182099","true"
"ChIJr1GFnj5Y7TkR2cnewlxl2bQ","Hindustan Petroleum Corporation Limited","Ground Floor, Bailey Road, Patna","25.60948029999999","85.1221241","true"
"ChIJqTWtYTdX7TkRyGrTyqkvEYI","Bharat Petroleum","M/S PIT STOP, Patliputra Kurji Road, Patna","25.6324169","85.1058151","true"
"ChIJzXhAPyJX7TkR8mVeMb--6sg","Nk Trader's","94, Kailashpuri, Patna","25.6345443","85.103155",""
"ChIJMy1sNY5Y7TkRJzAAGb7-UX4","IndianOil","Ground Floor, Lohia Nagar, Patna","25.597788","85.157066","true"
"ChIJD91625VY7TkRjUuuaK6JKs4","IndianOil","Ground Floor, Kankarbagh, Patna","25.60157599999999","85.166763","true"
"ChIJS1V3N0Bf7TkReBdllxbTzcw","Bharat Petroleum","J645+9JR, Anumandal Karyalay,Near Kamla Kunj Old City Court, Gulzarbagh, Patna","25.6059959","85.209014","true"
"ChIJFff7Z19Z7TkRXsc2pEtxxZc","Raju Petrolium Gas","Radhika Niwas, Ram Nagar, Patna","25.5960769","85.13878849999999",""
"ChIJcUOJbmJZ7TkRjHaush8sdmI","Maa patan Devi gas chulha","Devi asthan gali, 3, Chiraiyatand Main Road, Postal Park, chouwraha, Patna","25.5964434","85.1413132",""
"ChIJ42HITgBZ7TkR_gvnlPMCA1s","Ranjan Enterprises (South Point)","J42V+FVQ, Chandmari Road, Kankarbagh Colony More, Khasmahal, Mithapur, Patna","25.601157","85.144629",""
"ChIJlyDx_FhZ7TkR3xn12q8lcEo","Zullfaykar Ali","Patna Junction, Patna","25.6042407","85.1356953",""
"ChIJ3TO4cg5Z7TkR6yda2mHraAs","IndianOil","Main Road, Kankarbagh, Lohia Nagar, Patna","25.6021034","85.1462537","true"
"ChIJCRVDvfF-DRQR9Ip8aPyBleg","IndianOil","Ground Floor, near Ashok Cinema, Buddh Marg, Patna","25.605705","85.133194","true"
"ChIJg8WzexNY7TkRCzlwLQ3Gi2Y","IndianOil","Ground Floor, Harding Road, R-Block, Veerchand Patel Road Area, Patna","25.598982","85.125001","true"
"ChIJQwwc8MZZ7TkR-jSjMBkeo-Y","Bhushan yadav","J44W+3H8, Ghrounda, Patna","25.6051069","85.1464828","true"
"ChIJI92V0F1Y7TkRJ-kveDx7Nsw","Hindustan Petroleum Corporation Limited","Ground Floor, Exhibition Road, Patna","25.608351","85.142341","true"
"ChIJq0y9z0JY7TkRwiuICd8J6F0","HPCL Hindustan Petroleum Corporation Limited","6th Floor, Dak Bungalow Chowk, Patna","25.6091785","85.1372511","true"
"ChIJt9fmN3VZ7TkR00UzmZyENns","Proposed CNG station","302-514, Jawaharlal Nehru Marg, Budh Vihar, Lodipur, Patna","25.6100306","85.1361962",""
"ChIJu8VTBwBZ7TkRrNsLsVXQu0k","BP Petrol Pump","Near Girija fashion,Maurya lok complex fraser road.patna 80000, Lodipur, Patna","25.610205","85.13712819999999","true"
"ChIJo1vKpX9Z7TkRMko2R_kOISU","Sudhir Kumar","Jagat Trade Centre, 111, Fraser Road Area, Patna","25.6110806","85.1380006",""
"ChIJB8nQf4xY7TkR91trDEz6Jj4","Hindustan Petroleum Corporation Limited","Ground Floor, Old Bypass Road, Kankarbagh, Patna","25.6035595","85.1532593","true"
"ChIJH6p-v1lZ7TkRlRWDCaQWJYM","Indian Oil Corp Regional Office Bihar","J46V+82H, Exhibition Road, Old Jakkanpur, Lodipur, Patna","25.6108139","85.142608",""
"ChIJA-gEabZZ7TkRUOGg6q-ThqM","Green Natural Energy 69 | Biodiesel Company in Bihar | BIO CNG Company in Bihar | Dealership in Bihar","Faizal Imam Complex, beside Central Mall, Patna","25.6121229","85.1389962","true"
"ChIJ740emfVY7TkRhHL_8qtJ-BI","रिलायबल","India","25.6097186","85.1490582",""
"ChIJozKH6oVZ7TkRA5Jxump9axs","RX100 BIOENERGY LIMITED","above UNION BANK OF INDIA, Exhibition Road, Patna","25.6123744","85.1429172","true"
"ChIJBd2KrUBY7TkRwEFCI5xem48","Hindustan Petroleum Corporation Limited","Ground Floor, Bailey Road, Patna","25.6112251","85.12802119999999","true"
"ChIJ0zojUZ9Z7TkR2qHjqQqFNeg","Dxn Stop Point","dxn stop point, at, Patna","25.6134669","85.1413259",""
"ChIJIfjrknRZ7TkRG_GqUZZJTxA","Ar Travel","2ND FLOOR, HOUSE NO.21, Kidwaipuri, near IDBI BANK, IAS Colony, Kidwaipuri, Patna","25.6128526","85.1281854",""
"ChIJQ7H_YjZZ7TkRAhdkrLyCJjo","Indian biofuels corporation","Office No - 32, Ashiyana Galaxy, in front of Lemon tree Premire Hotel, Exhibition Road, Patna","25.61414189999999","85.1442376","true"
"ChIJZd2KGgBZ7TkRsLiM4WO3Wxo","Pradushan janch kendr","Sai Krishna Nagar, NO.101,FIRST FLOOR,RAM KRISHNA APARTMENT ,NEAR INCOME TAX, 12, Main Road, Sri Krishna Nagar, Kidwaipuri, GOLOMBER","25.6146426","85.1253948",""
"ChIJz-88cf9Z7TkRDxixOLKU3Gc","NX100 PACIFIC BIOFUEL PVT. LTD. | Biodiesel Company Bihar & Jharkhand | Biodiesel Pump Bihar & Jhakhand","B-Block , 4th Floor, City centre mall, off No. 404, Lodipur, Patna","25.61799539999999","85.135533","true"
"ChIJYaALKQVf7TkRYa5ysRsAD4Q","Md Irfan","Sadikpur, Patna","25.5996448","85.2062055",""
"ChIJC2ILLilf7TkR5GN824Mi9nM","Sonam Kumari","098, Old City Court, Patna","25.6047444","85.20867009999999",""
"ChIJRxmHdONf7TkRfxVfS18qAIo","IndianOil","Ground Floor, Court, opposite Patna, Sadikpur, Patna","25.6052558","85.207537","true"
"ChIJxakIEkBf7TkRCANAWuiLgyA","Uma petrol centre","J645+FCQ, Gulzarbagh, Sadikpur, Patna","25.6073228","85.2091653","true"
"ChIJUXbJXgBf7TkROVbTFb79-QY","Bhuthnath","J62C+7R6, Patna City, Patna","25.6006531","85.2220225",""
"ChIJ1xH7Q7NY7TkR96hJUf7UcCI","Hindustan Petroleum Corporation Limited","Ground Floor, Old Bypass Road, Kumhrar, Patna","25.600601","85.18840100000001","true"
"ChIJbQLFPrFY7TkRnR3Q_81MPXU","IndianOil","Ground Floor, Kankarbagh Main Road, Kumhrar, Patna","25.600309","85.18279299999999","true"
"ChIJW-MUcABZ7TkRguAY8xZYoqo","Apurv petro sales","J52M+52R, Kumhrar Road, Kumhrar, Patna","25.6005135","85.18272680000001",""
"ChIJiVTMLzhZ7TkRWSAU7jXkq3Q","Hindustan Petroleum Corporation Limited","Ground Floor, Saidpur, Patepur, Dumra","25.60327699999999","85.183499","true"
"ChIJ35Tyt_NZ7TkRI6-NrXy-J1M","Hindustan Petroleum Corporation Limited","Ground Floor, Old Bypass Road, Kumhrar, Patna","25.6006687","85.1812054","true"
"ChIJX2uBTx1Z7TkRtIq6uk4O0ag","M/s Ravindra Narayan Filling Station","Jagarnath Singh Lane Choudhary Tola, Mahendru, PO, Patna","25.6144897","85.18738309999999","true"
"ChIJbdKajcxY7TkR8g1oGQd8_5E","Hindustan Petroleum Corporation Limited","Ground Floor, Jagannath Singh Lane Ashok Rajpath, Chaudhary Tola, Mahendru, Patna","25.614711","85.187421","true"
"ChIJSf1lg6tZ7TkRoK5qwF6bAsw","Fuel Shop","15, Bazaar Samiti Road, Bahadurpur, Patna","25.605415","85.1779706",""
"ChIJC2CUv0FZ7TkR9ajIbbN15y8","Chat Ghar","Bind, Barhog","25.5986425","85.1724744",""
"ChIJtxDWdDhZ7TkRr44N5OX0Nrw","Kumar Ltd","Tripolia, Patna","25.6163883","85.1800308",""
"ChIJX07kcrdZ7TkRCH-__SJhJ_I","IndianOil","Kankarbagh Main Road, Bahadurpur, Patna","25.601942","85.16722899999999","true"
"ChIJVdxolhBZ7TkRSDpihEdjZmA","Pandey ji Pollution Testing Centre","J569+VCX, Bhikhana Pahari, Patna","25.6122307","85.1686167",""
"ChIJ0yRsk-1Y7TkRgAS7oSU4W1k","IndianOil","Ground Floor, RK Avenue, Patna","25.611195","85.158936","true"
"ChIJkccLVQBZ7TkRRfLKA00hBcA","RAJENDRA NAGAR SERVICE STATION","Amruddi Lane, RK Avenue, Machhua Toli, Patna","25.611195","85.158934",""
"ChIJe0OYKBJZ7TkRRx6IAySASRA","XtarGFX","029/z, Langar Toli, Patna","25.6148192","85.15794989999999",""
"ChIJdUjda2tX7TkRqS_Z2t3tn9k","BHAGYA NARAYANI FUEL SERVICES","1, Danapur Main Road, Birla Colony, Patna","25.6467097","85.08721249999999","true"
"ChIJiZE-BABX7TkR9r2ELGnQW8A","Bharat petroleum","1, Danapur Main Road, Yadav Colony, Patna","25.6467472","85.0872764","true"
"ChIJKwkH-zlX7TkRaFoh5SGciM4","Gautam Indane","Parshu Ram, Parshuram Singh Path, Railway Colony, Digha Ghat, Patna","25.6422433","85.0908434",""
"ChIJxRneegBZ7TkRfPBwImUeJOA","GO GAS OFFICE","J4P5+MHF, Kurji, Patna","25.636925","85.1089382",""
"ChIJdU0zTR9Z7TkROd9REImYebs","Rajeev","50, Mainpura Road, Rajapur, Mainpura, Patna","25.6269509","85.1201421",""
"ChIJs-IfDslZ7TkRW1I44Vx0IYQ","IndianOil","Sadar, Mainpura, Patna","25.6273342","85.1209635","true"
"ChIJ9znlmO5V7TkRzndR2ue4FRY","Fuel Center","J2Q3 JX9, Nh 30, Shahpur","25.64107","85.00129609999999",""
"ChIJJyqKhThU7TkRcU7G53jFgBs","IndianOil","near Shiv Mandir, Ground Floor Shahpur, near Shiv Mandir, Cant, Daudpur, Danapur","25.6430414","84.99935339999999","true"
"ChIJl4dXH5JZ7TkReYZ7-cv8Gmc","PIHU FUELS POINT","near Maa Sharda Iti, 1 piroo, haspura road, Patna","25.6234485","85.132378",""
"ChIJo7ey_W5Z7TkRxpW_NLx5CU0","Maa Chandika Petrol Center","nearby Banma Block, Banma Itahri Kalatwa, nearby Banma Block, Main Road, Teliyahat, Patna","25.6234485","85.132378",""
"ChIJYw5dcUZZ7TkRvP-Difi8t1c","M S BRAHMA FUEL","PETROL PUMP, 123, DHANAUJI DHANAUJI, Patna","25.6234485","85.132378",""
"ChIJIdK7ntRb7TkRRj8nswa-AiY","IndianOil","Saran, Ground Floor Paharichak Baijalpur Keso","25.7046593","85.16267839999999","true"
"ChIJI_NyIvhY7TkROmPBgnTYUqs","Bharat Petroleum","Ashok Rajpath Road, Bakarganj, Patna","25.6186028","85.1492012","true"
"ChIJr3HstkVb7TkREc_g2bZ7Yws","IndianOil","Ground Floor Bakarpur, Sonepur, Keso, Baijalpur","25.7184194","85.1382607","true"
"ChIJT8sfn0Fb7TkRRAHbjAZrNi4","M/S SANKRITYAYAN INDANE GRAMIN VITRAK","Flat No-01,Village-Murhar,Locality-Sahebganj NearbyLandmark- Sub HealthCentreRoopChhapra,Sahebganj,District-Muzaffarpur,State-Bihar,Pin Code-8431","25.7019868","85.1845158",""
"ChIJZ97cfEdc7TkR5LuVe6Ee51w","IndianOil","Ground Floor, Railway Station, near Hajipur, Mahatma Gandhi Setu Path, Hajipur","25.7024522","85.2166376","true"
"ChIJiW31wDNc7TkRLpRFk7EKyIg","IndianOil","Ground Floor, Mahatma Ghandhi Setu Rd, Bhairopur","25.695714","85.226706","true"
"ChIJYTLMvWZc7TkRX_O6WoR-OUE","Hindustan Petroleum Corporation Limited","Ground Floor, Sadar, Chandralay, Hajipur","25.71912","85.20596309999999","true"
"ChIJUScWe6ld7TkRqSOcWTx_a8Y","Essar Petroleum","Sharifabad, Vaishali, NH-77, Vaishali, Vaishali","25.723645","85.23644999999999",""
"ChIJWx7pBABf7TkRatdF-QQVqLY","Narmada Petroleum","M69H+G4W, Hajipur","25.6687207","85.2282194",""
"ChIJvbqB6l1f7TkR2rKhbb8bgQY","IndianOil","Ground Floor, Vaishali, Chak Jalal","25.6687757","85.2282228","true"
"ChIJRydEk6gJ8jkRgFOOlxzuuJU","Reliance Petroleum","Pn 448 & 460P, Khatauni No 695 & 560 Nh 19, Bagh Tola Jadhua, Hajipur","25.6778232","85.2359413","true"
"ChIJG6C7vBdc7TkRxTJRaJSGulU","Hindustan Petroleum Corporation Limited","Ground Floor, Ramdayalu Nagar - Hajipur Road, Hajipur","25.6938401","85.2092601","true"
"ChIJW14GmbVf7TkRPYMU9Encc2Y","Bharat Petroleum, Petrol Pump -Ramniwas Ramballav","HAZIPUR TOWN,HAZIPUR,VAISH, VAISHALI","25.6784871","85.236744",""
"ChIJuaEiatNd7TkRmsz_c8FFf0k","IndianOil","Ground Floor, MG Setu Road, Bhairopur Deodhi, Hajipur","25.685952","85.23124039999999","true"
"ChIJeyhfxi1f7TkRMDN-ua7KQ0w","Bharat Petroleum, Petrol Pump -Om Sai Petro Service","HAZIPUR HIGHWAY2,HAZIPUR, VAISHALI","25.6793587","85.23737349999999","true"
"ChIJSeXuAshd7TkRCc-vN1KHZ1Q","Hindustan Petroleum Corporation Limited","Ground Floor, Rajdhani Road, Hajipur","25.685761","85.233991","true"
"ChIJwbKY7h9d7TkRxqTDW7YRZPc","IndianOil","Ground Floor,Ramashish Chowk Vaishali, Bhairopur, Deodhi, Hajipur","25.689924","85.229782","true"
"ChIJ49m00D1c7TkRZ82qDZExkVM","Varma Petrol Pump","Hajipur","25.6965585","85.2121389","true"
"ChIJLf_TjTJc7TkRd5jEqDY_l48","Hindustan Petroleum Corporation Limited","Vaishali, Ground Floor NH 19, opposite National Auto SR, Hardeo Nagar, Hajipur","25.6880401","85.23241399999999","true"
"ChIJ271mUDRd7TkR9L45jcGKY4A","patliputra jcb","M6RJ+85C, Chaurasia Road, Hardeo Nagar, Hajipur","25.6908196","85.230398",""
"ChIJbSnZjTJc7TkRNIJ2SHa-ekQ","IndianOil","Ground Floor MG Setu Road, Vaishali,Bhairopur, Hajipur","25.691599","85.229897","true"
"ChIJE8xLG4Nd7TkRmTX_ck9AWZc","Bharat Petroleum, Petrol Pump -Bharat Deep","HAZIPUR HIGHWAY1,HAZIPUR,V, VAISHALI","25.6934786","85.2274308","true"
"ChIJqRIQQpVd7TkRbTR7rpX-Zc4","Hindustan Petroleum Corporation Limited","Ground Floor, Anchal, Jadhua, Industrial Area Road, Hajipur","25.692841","85.236372","true"
"ChIJR71uanNd7TkREmmNZhKT5V4","Agency","Hansh Kanaujia, Ramashish Chowk, Dighi Road, Hajipur","25.7066427","85.21827549999999",""
"ChIJQ6AE8cRd7TkRAGOWI9uuYeE","Hajipur Road Bharat Petrol Pump","Niper Road, Hajipur","25.69452489999999","85.2446135","true"
"ChIJhVBnIA5e7TkRPeJqgV1od_w","IndianOil","Ground Floor, Ganga Bridge Sahdullahpur, Deodhi, Bhairopur","25.6686569","85.25843689999999","true"
"ChIJiS0g_NNf7TkRdXnhKmr6KtM","Petrol Pump","12patna Jfg Lh, Patna","25.6438815","85.25603389999999",""
"ChIJAZfD--Fd7TkR0euqKHSK-2A","S K ENERGY STATION","322, Plot, NH, 42, Hilalpur Road, Chowk, Hajipur","25.6877134","85.257171","true"
"ChIJ6-riu5pd7TkRu3h3Do4wNjs","Bharat Petroleum, Petrol Pump -Hariharnath Service Station","CHANDALHE,CHANDRALAY,VAISH, VAISHALI","25.7163115","85.2057691","true"
"ChIJVcOeDuNd7TkRkCsOHfZVelc","IndianOil","Ground Floor, Industrial Arae Mangurahi,Bhairopur, Hajipur","25.691703","85.2569241","true"
"ChIJD_j0MwBd7TkRfKpoPlleiRc","CHANDRALAY","P694+PCC, Chowk, Chandralay, Gadai Sarai","25.7193028","85.2060037",""
"ChIJY56JJZZf7TkRMq6HHoaJCOM","Jay General Store","Kanchanpur Maa Jagdamba Asthan Road, Panapur Dharmpur","25.665936","85.27059560000001",""
"ChIJC0LmXABd7TkRa5JNQJU5JTU","Indian oil petrol pump⛽","SH74, Chandralay, Chak Nayamat","25.7235397","85.20537159999999",""
"ChIJXa4za3Be7TkRGmdA4ryyVB0","Hindustan Petroleum Corporation Limited","Ground Floor, Anchal Biddipur, near Post Office, Biddupur, Kanchanpur","25.6657562","85.2739868","true"
"ChIJm1KUTWdh7TkR5GzV4cvQ-8Y","Petrol Pump","Mahnar Road, Panapur Dharmpur","25.6703921","85.28618600000001",""