place_id,name,address,latitude,longitude
"ChIJs7OgS1VCOToRIK5uPRa2XDs","IndianOil","Lock No T1/84, opposite Town Police Station, Port Area, Visakhapatnam","17.6958091","83.2930063"
"ChIJjddMAWhDOToRJrBouA6saqA","Hindustan Petroleum Corporation Limited","CR Reddy Circle, opposite Andhra University, Siripuram, Visakhapatnam","17.7229421","83.317978"
"ChIJ37VMvJZCOToRVZNWcIYJn2c","BPCL- Vizag Port Petrol Bunk","Scindia Rd, Collgate Bus Stop, HPCL Steel Plant, Visakhapatnam","17.7149854","83.26581639999999"
"ChIJm-ScRjxDOToRiGE-Ss4mp7s","IndianOil","Lock No T1/71, Resapuvanipalem, Visakhapatnam","17.7329263","83.317839"
"ChIJbUGz5S1DOToRLSJ8Yu95AAU","Hindustan Petroleum Corporation Limited","near Police Station, Plot No 121 & 122, Balayya Sastri Layout, Visakhapatnam","17.738161","83.304751"
"ChIJA96o7y1DOToRgWgC3DARgYA","Kusum Kunj Enterprises","P8Q3+M8M, NGGOS Colony, Akkayyapalem, Visakhapatnam","17.739205","83.3032861"
"ChIJV-rFZHlCOToRHonrIAiRV6s","IndianOil","Lock No, T1/31, Malkapuram, Visakhapatnam","17.6875535","83.2556113"
"ChIJcYeQ5S1DOToRWaos5UvnpsE","IndianOil","Ward No 34, VPT Land, Survey No 2/1, Dondaparthy Extn, Visakhapatnam","17.73997499999999","83.29608700000001"
"ChIJi6vzultDOToRUAA-RB8mYAE","Hindustan Petroleum Corporation Limited","opposite Polamamba Temple, S No 111, Pedda Waltair, Visakhapatnam","17.7294172","83.3289934"
"ChIJZePXbcxDOToRzvblveb_VBk","BPCL - Matsya Marines","FISHING HARBOUR RD, VISAKH, Visakhapatnam","17.7000524","83.3029471"
"ChIJ6fGZeSlDOToRcJR4jv3NQq0","Pratibha Vaishnav","STREET, Kotha Agraharam, Jalaripeta, STREET, Visakhapatnam","17.7011365","83.30225709999999"
"ChIJVb3_37FpOToRv1zTYp3GV5w","Ramachandra Gas Agencies","21-1-35, Town Kotha Road, AVN College Down, Jagadamba Junction, Visakhapatnam","17.7044571","83.29805259999999"
"ChIJCTY-iv1COToR-7yR0GZYvfE","Hindustan Petroleum Corporation Limited","D No 26/3/8, Chittaranjan Marg, Visakhapatnam","17.704401","83.2933201"
"ChIJy9KrLxtDOToRBlB7LQ-xiDY","Hindustan Petroleum Corporation Limited","Turner Choultry, D No 28/8/34, Main Road, Jn, Town Kotha Road, Visakhapatnam","17.709361","83.300921"
"ChIJ64oPUR1DOToRfHeWy90164U","IndianOil","Lock No T1, 29, 75 Feet Road, Old Town, Visakhapatnam","17.7086828","83.29339829999999"
"ChIJcfEDTx1DOToR_ZoDdrIL2Bw","Hindustan Petroleum Corporation Limited","D, 26/3/1, 75 Feet Road, Purna Market, Visakhapatnam","17.709151","83.294321"
"ChIJFdWV4RpDOToRHg3BREkifWY","Hindustan Petroleum Corporation Limited","D No, 28/2, Turners Choultry Main Road, Maharani Peta, Jagadamba Junction, Visakhapatnam","17.7108908","83.3015944"
"ChIJiwEjDY5DOToR5LsQ2buQAAE","Akshaya fire services","Raja Rammohan Roy Road, Suryabagh, Jagadamba Junction, Visakhapatnam","17.7114208","83.2988197"
"ChIJz7x-9RtDOToRcEG3XDet7p4","IndianOil","No T1, Lock, 88, Leelamahal Road, Daba Gardens, Visakhapatnam","17.713301","83.298897"
"ChIJa-B5bDVDOToRWrYEheXN-J8","Tirumula enterprises BPCL petrol station","beside Manorama Theater, 32-1-179, Bowdara Road, Allipuram, Visakhapatnam","17.7138709","83.2942364"
"ChIJb6i8eqtcOToRqCeOn2xE10k","Bharat Petroleum (Venkojipalem Petrol Bunk)","223, MVP Colony, MVP Sector 1, Venkojipalem, Visakhapatnam","17.747549","83.3315939"
"ChIJgxT6Aa1EOToROcPl6zzlKaY","IndianOil","MNVP Colony, opposite Appu Ghar, Beach Road, Kailasagiri, Visakhapatnam","17.7430196","83.3441065"
"ChIJPTwdBFNDOToRMFv6OPQCy50","Bharat Petroleum Petrol Bunk","P8VH+2CC, MVP Double Road, A.P.G.O Colony, Sector 1, MVP Colony, Visakhapatnam","17.7425659","83.3285033"
"ChIJ0f1TSVJDOToRxLQgmlnCDo0","IndianOil","L No T1, 91011, Isukathota, MVP Colony, Visakhapatnam","17.740999","83.32790399999999"
"ChIJXxW9TGxbOToR2E9o64ZtacM","Hindustan Petroleum Corporation Limited","near GITAM College, No 43, near GITAM College, Vivekananda Nagar, Yendada, Visakhapatnam","17.7782717","83.3541412"
"ChIJlfZTIadcOToRDHQLKQgJ5NQ","Bharat Petroleum BPCL Petrol Bunk","Service Road, Indira Gandhi Nagar, Adarsh Nagar, Visakhapatnam","17.7617115","83.3339556"
"ChIJo67L0lZbOToRISPtL1t3j5M","Police Welfare Petrol Bunk (HP) - Hindustan Petroleum","9-580, Police Quarters Road, Vishalakshi Nagar, Visakhapatnam","17.753821","83.341293"
"ChIJMzXtbwBbOToRYp2bVlkjcEE","Nayara Energy - NSR Fuel Mart","S. Y, 279/P, 100 Feet Road, Midhilapuri Vuda Colony, Madhurawada, Visakhapatnam","17.8026267","83.3644502"
"ChIJe_xYUABbOToRnUxY04__Ais","NAIRA PETROL BUNK","R936+X92, Midhilapuri Vuda Colony, Pothinamallayya Palem, Visakhapatnam","17.8048798","83.36087959999999"
"ChIJFakva9ZYOToRwJGZNL0FPPg","IndianOil","Ground Floor, Anandapuram, Tarluvada","17.8884001","83.3425"
"ChIJeRraTgBZOToRrfvorqYlk3Y","Hindustan Petroleum Corporation Limited","No 156, 3AB, 156 3A, A2, Gambhiram","17.876698","83.372393"
"ChIJkxTENgBZOToRl3dDALwLW94","Hindhusthan petrol pump","V9GC+R8, Visakhapatnam","17.8770299","83.3708041"
"ChIJ2_iYreNYOToRpZpyik3-Tug","IndianOil","Survey No 297/1, Pendurthi Road, Anandapuram","17.8908695","83.36498739999999"
"ChIJXwi_OwBZOToR9zRMictiomA","S.N.S. Fuels","V9RC+P46, Visakhapatnam","17.89179309999999","83.3702752"
"ChIJ5V_U8fxYOToRGI88H8wTrRI","HINDUSTAN PETROLEUM","India","17.8917973","83.370273"
"ChIJQRnu0VBYOToRQRqRtut9UnY","Hindustan Petroleum Corporation Limited","S No 118/3 Vemulavalasa, Anandapuram, Vellanki","17.897912","83.38458899999999"
"ChIJyR0D2vBYOToRgN8uA3ryRgE","Indian Oil","India","17.9023625","83.3728939"
"ChIJ-Y4POzdZOToRQcl64dRsVLA","Shre Prakush Filling Station","Anandapuram","17.9023635","83.37298729999999"
"ChIJ_aARsbpbOToRoqMTVebZMcY","JAI ENERGY STATION","Marikavalasa Road, Visakhapatnam","17.8396755","83.3587438"
"ChIJXZIrCCtZOToRQ25Nsm4RXkg","Bharat Petroleum, Petrol Pump -J C Enterprises","ANANDAPURAM, VISAKHAPATNAM, Visakhapatnam","17.9010349","83.39733249999999"
"ChIJYSEtxEFZOToRKDfBrqYxNms","KINGS FUELS","DOOR NO-1-405,PEDDIPALEM VILLAGE ,ANADAPURAM MANDAL, Visakhapatnam","17.9017846","83.3973067"
"ChIJMRdAoW5ZOToR9IQxhZixoNE","Hindustan Petroleum Corporation Limited","Shop No 180, near NH 16, Marikavalasa Road, Paradesipalem, Madhurawada, Visakhapatnam","17.8339374","83.3593751"
"ChIJATaHOwBbOToRYl_iWJgMiTM","CNG Bunk","R9M5+476, Madhurawada, Visakhapatnam","17.8327789","83.35813759999999"
"ChIJk_h_i_5bOToRnjeU7hX8smM","Bharat Petrol Bunk (BPCL) Vizag Automobiles Service Station ( VASS )","Marikavalasa Road, Madhurawada, Visakhapatnam","17.8325507","83.3583304"
"ChIJ7-ZwUONfOToRhl0olixG23w","Bharat Petroleum, Petrol Pump -Sree Kanya Petro Station","GUDILOVA, VISAKHAPATNAM, Visakhapatnam","17.88636","83.3269191"
"ChIJg2QEYrHiOzoRkqR5RBSrY8o","Hindustan Petroleum Corporation Limited","Ground Floor NH 5, Rajapulova, Maharajupeta","17.952421","83.416311"
"ChIJrzJ4oP5XOToRtmFCOqaeefU","Bharat Petroleum","CJM petrol Bunk, Kothapeta CJM Road, Chittivalasa","17.9323499","83.42717239999999"
"ChIJneFp3dEVPDoRc7tMYITv_iM","IndianOil","Ground Floor, Rajapulova","17.9551739","83.4174908"
"ChIJp06vKDT9OzoRumndvFDze8w","IndianOil","Lock No T1/52 Modavalasa, Vizianagaram, Annavaram","17.9642001","83.426901"
"ChIJ3ynjcuZpOToRxGt50W4aCsA","IndianOil","lock No T1 30, 4/171, Akkireddypalem, Rajapulova","17.9643069","83.4320233"
"ChIJ479SIM39OzoR2iSiHmAg53s","Satya veerabhadra filling station","National Highway 16, Polipalle","17.9647072","83.4323117"
"ChIJd1zVDADjOzoRAwxkrQOhOoY","CNG bunk","XCH8+QH6, Denkada","17.9794212","83.4163981"
"ChIJs5CdJtTiOzoRr6FyxEHUZxY","IndianOil","Survey No 4/1/5 NH 43, Annavaram, Modavalasa","17.9801164","83.4164874"
"ChIJ-2T6Y2ZXOToRYoTDZMu5x3Q","Nayara Energy Limited Petrol Station","Gudivada - Annavaram - Pedanagamayyapalem Road","17.9353781","83.43769979999999"
"ChIJSVhVFefjOzoRfnWATtDIOtg","Bharat Petroleum Petrol Pump , VENGAMAMBA FUEL STATION","PADMANABHAM MANDALSURVEY NO.115, 1, Visakhapatnam","17.9607658","83.38134699999999"
"ChIJeYKnABFzOToROK4Kd7psL_E","Jio-bp","Ground Floor, Ravada, Bhogapuram","17.9810978","83.4504126"
"ChIJH-3V04NZOToRs3GhifM29n8","Fuelstop","opp. Sukhibhava Appartments, beside Medicover Hospital, Anits Back Gate, Visakhapatnam","17.9198987","83.4204156"
"ChIJf59AIgT7OzoRpuJN8661ixQ","Bharat Petroleum - Sathya Maheswari Agencies","2GP3+VV, Bhogapuram","18.0367493","83.50406459999999"
"ChIJayYlXgD7OzoR-qkViJToO_4","Cng filling stetion","2GP3+VV, Bhogapuram","18.0368309","83.5041695"
"ChIJgwE502z8OzoRKlbeiBSsOJs","HP PETROL PUMP - SRI BALAJI ENTERPRISES","HPC Dealers NH16, Bhogapuram Village & PO Bhogapuram, Visakhapatnam","18.018944","83.485445"
"ChIJ1a755kj9OzoRJDJpVxpWle4","Hindustan Petroleum Corporation Limited","Ground Floor, NH 16, Bhogapuram","18.018505","83.4856921"
"ChIJ4cJHmA79OzoRu-kAMY76km4","IndianOil","Ground Floor, NH 16, Amatamravivalasa, Bhogapuram","18.0091291","83.4826777"
"ChIJCdUMGnz9OzoRVAD2MdelLIo","IndianOil","Ground Floor, Nh 16, Old Nh 5, Bhogapuram","18.009111","83.482693"
"ChIJaTETNMr5OzoRUyRdLc1wFc0","Hindustan Petroleum Corporation Limited","Ground Floor, National Highway 16, Denkada, Singavaram","18.0542065","83.51889729999999"
"ChIJFywvPUP5OzoRmA6n4U0475w","HP PETROL PUMP - JANAKIRAMA NATHAVALASA","NH - 5 Singavaram Village Nathavalasa Denkada Mandal, Visakhapatnam","18.05432","83.51886999999999"
"ChIJt6g8_gD4OzoRiWxrSbTgXdk","Bharat Petroleum, Petrol Pump -Gandhi Fuel Station","PUSAPATIREGA, VIZIANAGARAM","18.1280625","83.58967550000001"
"ChIJZePz4uH5OzoRGBvNDS8ZHJc","Hindustan Petroleum Corporation Limited","Ground Floor, NH 16, Pusapatirega","18.0830709","83.54999029999999"
"ChIJq6qqGsQIPDoRhFKMv1jpQJA","IndianOil","S No 123/7, NH 16 Nelivada, Ranastalam","18.1591019","83.65245039999999"
"ChIJyedzA7kJPDoR0xuzuS6vyjk","IndianOil","Sy No 138/7, Kosta","18.1728214","83.67720589999999"
"ChIJ7b8Yi4QJPDoREFcYljJMwss","Hindustan Petroleum Corporation Limited","Ground Floor, Ranastalam, Sancham","18.1509379","83.6356648"
"ChIJ_5XyjNEOPDoRehISVKWkczw","Hindustan Petroleum Corporation Limited","NH 5, JR Puram, Survey No 82/10 to 13, 82/33 & 34, Ranastalam","18.191701","83.683131"
"ChIJDU78AAAJPDoR7P6BpZkN35I","ADI ENERGY STATION","5JWR+HW, Kammasigadam","18.196428","83.642332"
"ChIJn9zTPFcPPDoR0nImA2Cqj1U","Bharat petroleum corporation limited","Patharlapalli Road","18.1437563","83.7024522"
"ChIJE_Y6EgANPDoRlmdAczFG7y0","Bharat Petrol bunk OTP/CARD AVAILABLE","6QV6+67, Budumuru","18.243011","83.76065280000002"
"ChIJpzNETfATPDoRoRHWzfCmA0A","Bharat Petroleum Petrol Pump , PODUGU SWAMULU & SONS","National Highway 16","18.2605529","83.7883458"
"ChIJ40l1Ty4TPDoRWJOFhtEYEvQ","Nayara Energy","7Q7V+HPJ, Allinagaram","18.2639698","83.794274"
"ChIJBf5osxEVPDoR1YzWhGDf0p0","IndianOil","Lock No T1 51, China Bazar, Srikakulam","18.2969001","83.90299999999999"
"ChIJzdavoREVPDoRthCySRUAKmc","Hindustan Petroleum Corporation Limited","S No 145, Ram Lakshman Junction, near Deepa Mahal, Bankers Colony, Srikakulam","18.297681","83.904151"
"ChIJC6Sf2CgVPDoRd2VLWCPPJnc","IndianOil","Lock No T1, 299, Palakonda Road, China Bazar, Srikakulam","18.3212896","83.8940796"
"ChIJcf10g-8UPDoRkZIcWEAD88o","IndianOil","S No 170/2 Kusalapuram, Etcherla, Eluru","18.2968001","83.8787"
"ChIJ0VLdoysVPDoRhik_UIbQi6Y","IndianOil","Sy No 109/7, Pudivalasa","18.31222","83.8707701"
"ChIJgXsnZAAVPDoRrPmWZQ56uBk","Srikakulam sevice staion","sevice staion, near eenadu press, Srikakulam","18.3142332","83.8755627"
"ChIJK-cyPmsTPDoRcQ3N80xpkT4","IndianOil","Survey No 300/38, Kesavarao Peta","18.2839499","83.83945279999999"
"ChIJXzrLX_wVPDoRaleK60llxeg","Hindustan Petroleum Corporation Limited","S No 11/5 Ramadasupuram, Kanimetta","18.32293499999999","83.85356399999999"
"ChIJN0pcUQQVPDoRb-uCji2r38U","IndianOil","Survey No 234, Ward No 24, Potti Sriramulu Junction, China Bazar, Srikakulam","18.2961513","83.89520329999999"
"ChIJ816b7yEVPDoR-6lhjHFymtI","Hindustan Petroleum Corporation Limited","TS No 712, near Day & Night Junction, S No 169, Palakonda Road, Srikakulam","18.3068701","83.8941301"
"ChIJG7XHFE4VPDoRPKvFvLQfk4E","IOB PETROL BUNK","7VRW+GV5, Old Bus Stand Road, Arasavilli, Srikakulam","18.2912545","83.89724389999999"
"ChIJ5VYwlBgVPDoRJpFrsM4y-aM","IndianOil","Ground Floor, near Raitu Bazaar, Illisipuram Main Road, Srikakulam","18.305401","83.8964017"
"ChIJx0QIoyYVPDoRSyOu0kZZAd8","Bharat Petroleum - Sri Siva Priya Filling Station","Palakonda Road, Chinnabondilipuram, Hudco Colony, Balaga, Srikakulam","18.3136355","83.8944889"
"ChIJVUSbsbkVPDoRtvrmkn_xRC0","Bharat Petroleum, Petrol Pump - Srikakulam Service Station","Surya Mahal Junction, Surya Mahal Area, New Colony, Srikakulam","18.2947937","83.9006837"
"ChIJjWT4GiIVPDoRH3am6zlF8DI","IndianOil","Ground Floor, China Bazar, opposite Industrial Area, Srikakulam","18.2968978","83.90307519999999"
"ChIJ_99XwBVrPDoRtzAjm2lKtZ4","Supriya Petrol Pump","8VJ3 C3F, Kinthali","18.3318799","83.85243799999999"
"ChIJZ9zGTgAVPDoRCHNvUPIZfE0","AP Civil Supplies Petrol Pump","7WH3+64C, A.P.H.B.Colony, Srikakulam","18.2781276","83.9027234"
"ChIJdZhIYqYVPDoR7PXB-Uo-ufo","IndianOil","Sy No 701/3 Patha, China Bazar, Srikakulam","18.2769047","83.9031006"
"ChIJqbKHfjo_PDoREGQBc0RO0FM","SRIKAKULAM SERVICE STATION BPCL","National Highway 16, Srikakulam","18.3233149","83.93759539999999"
"ChIJ4-1_m_dAPDoRBnrVsnul5fY","IndianOil","Ground Floor, Bhairi Junction, Gara","18.3666001","83.9772"
"ChIJ2UF2TCpBPDoR2bFiaI99Z_U","Bhaarat Petroleum","1, National Highway 16, Karajada","18.3692565","83.9812621"
"ChIJAQAAcNs_PDoROhssdZpF8F4","HP GAS GODOWN","8W2R+G77, SANIVADA","18.301276","83.9406844"
"ChIJFTCV-kIVPDoRwMPsvlUKXPM","IndianOil","S No 261/1, China Bazar, Srikakulam","18.3098424","83.919722"
"ChIJj0XZPsZGPDoR-DXBStc9eKA","Bharat Petroleum","Gunduvilli Peta, Srikakulam, NH-5, Ichapuram Road, Narsanna Peta, Narsanna Peta","18.4011122","84.02843980000002"
"ChIJDzLKiiNHPDoRXHjMMIqsWc0","IndianOil","Lock No T1, Narasannapeta,Jhadupudi, near Rtd 280, Srikakulam","18.4178001","84.04339999999999"
"ChIJcW6w_JpGPDoRKMMMTHW_XKw","Hindustan Petroleum Corporation Limited","near Old Bus Stand Road, D No 23/289, Singupuram - Narasannapeta Road, Srikakulam","18.4203849","84.0464346"
"ChIJubjpMvRGPDoRgmYfyI9RaOM","IndianOil","S No 71/7, Amplam","18.401056","84.056204"
"ChIJXXDoTitBPDoRiH37KHFK1oQ","IndianOil","Lock No T1, 211, Singupuram - Narasannapeta Road, Komarthi","18.3861001","84.0161"
"ChIJzZ37dQBBPDoRyGAWjb9fYpg","Tata def oil","9XGX+RCV, Narasannapeta","18.3771125","83.99856199999999"
"ChIJw2mMMwBBPDoRrE2xXrkHiY8","Sri venkatasai electricals","9XGX+VC2, Narasannapeta","18.3771283","83.9985236"
"ChIJvXtMQmVPPDoRg0HJ7FvKGng","DEF Filling Station","Peddabammidi","18.4684994","84.1081615"
"ChIJq1aZEQBFPDoRqxWSCEYzZWk","Sri Satyanarayana filling station (NAYARA)","C3XQ+MPQ, Subbaraopet","18.449602","84.0881957"
"ChIJn4O0IU9TPDoRoXGu62qzhzo","Jio-bp","Ground Floor, Konusula Kotturu, Parasurampuram, near It College, Srikakulam","18.5667432","84.1923577"
"ChIJcSc634ZPPDoR4T6vPMyDMss","IndianOil","Sy No 227/5 227/13, Konsula, Kotturu","18.5632253","84.1969812"
"ChIJ7XrBDQBRPDoRQAs4M6xg9ns","Hindustan Petroleum Corporation Limited","Ground Floor, NH 5, Kotabommali","18.545573","84.174961"
"ChIJB9zN_WtTPDoRFODIN7gL4Y0","Bharat petroleum bunk","H6F3+X22, Konusulakotturu","18.5748985","84.20251019999999"
"ChIJP0Zu8NVRPDoR6HUmjsnBM6g","Bharat Petroleum, Petrol Pump -BP Ghar Kannevalasa","KANNEVALASA NH 5, SRIKAKULAM","18.5425545","84.1673287"
"ChIJ87LuwdlTPDoRhH0MGIDnyDI","Bharat Petroleum Petrol Pump , SRI VENKATA GODAVARI POLAMMA","FILLING STATIONS NO 346-1, NEAR POLICE QUARTERS SRIKAKULAM, A.P","18.535867","84.200947"
"ChIJEc37OedRPDoRFjbUUwj9cFg","Bharat Petrol COCO Bunk & Ghar Dhaba - BP Kannevalasa","G5M8+PGH, Kurudu, National Highway 16","18.53430329999999","84.166347"
"ChIJ390e395RPDoRukdqUdoc3fA","Shant Petroleum","India","18.5306844","84.1604244"
"ChIJ83002d5RPDoRyjdDadBtvUA","BP PETROL PUMP - BP AUTO CARE CENTRE KOTABOMMALI","NH- 5, Tarlipeta Village, Kotabommali Mandal","18.5302997","84.1603615"
"ChIJAxgSFXpSPDoR9dGDA8HYaSw","SRI venkatesswara indian oil petrol pump","Santhabommali","18.5365625","84.21856249999999"
"ChIJoxYpsW1PPDoR630D91Kx5ro","Santhosh Auto Garaje","Kotabommali, Mainroad","18.5201566","84.16453849999999"
"ChIJhRtd2HpTPDoRZBU1wKZWHt0","Petrol Bunk Tekkali","J68Q+63J, Tekkali Main Road, Tekkali","18.6155827","84.237628"
"ChIJbzpfwnpTPDoR1zxRz5jSnxk","Hindustan Petroleum Corporation Limited","D No 16/2/78 Old NH 5 Road, Mellaputi Road, Srikakulam","18.614741","84.237201"
"ChIJ4_Pm93dTPDoR4xC-fuirHbE","Bharat Petroleum, Petrol Pump -Ayush Enterprises","TEKKALI, SRIKAKULAM","18.6088225","84.23154339999999"
"ChIJufgsYEGqPToRNx3oXx9ZHHU","HP","India","18.6940311","84.3279386"
"ChIJMRkArgWqPToRUOdn27HiuNc","Jayaram Petrole Fills","Kasirajukasipuram","18.7143708","84.34598450000001"
"ChIJl2kd0DWrPToRDm6eiHsEZH4","IndianOil","Lock No T1, Nandigam, Thotaneelapuram,Goppili, Palasa","18.7159001","84.352901"
"ChIJIU9NKVKqPToRFCT-So475y0","IndianOil","Survey No 117/453B267 Pedalavunipalli, Nandigam, Kothapalle","18.6797595","84.3206178"
"ChIJ5S5MCL4BPToRnP7SBVMv77s","NAYARA FILLING STATION","80-9A, 80-9B, Tekkalipatnam","18.7390775","84.3311969"
"ChIJh-yLgbUHPToRBpfG1t_1sZQ","IndianOil","Lock No, T1/167, Antharakudda, Kasibugga","18.7630173","84.4256367"
"ChIJ90wNfEwGPToRORguy4KQd7E","Nayara - Krishna Prasad Filling Station","seeta ram Nagar, G J College, near Palasa, Palasa","18.7751097","84.4116042"
"ChIJEf-A5UgGPToRvAV7ymsNDEs","Hindustan Petroleum Corporation Limited","Survey No 220, 4 to 6, Mogilipadu, Palasa","18.781441","84.41380099999999"
"ChIJTw3H7wwHPToRRS1jwsfZeDw","IndianOil","S No 60/2, Lock, T1/53, Goppili Road, Puroshottampuram, Palasa","18.7689001","84.417"
"ChIJSSFXM4wHPToR5aQbFuW5HvA","SRI LAKSHMISUDHA PETRONILAYAM","Main Street, Kasibugga","18.759275","84.4208869"
"ChIJF8EXetEHPToRpYnJt876iZs","ESSAR PETROL PUMP - KML Enterprises","near Ayyappa Swami Temple, Old NH5 Road, near Ayyappa Swami Temple, Kasibugga","18.7658216","84.4307712"
"ChIJU3VNRAAHPToREdO-zi3Z3U0","K V GOPAL&SONS FUELS","opp. Prajna Collage, Old NH5 Road, Kasibugga","18.7662216","84.43164829999999"
"ChIJrxP5C5UHPToROhI_574xUAc","HP PETROL PUMP - HP AUTO CARE CENTRE KASIBUGGA","1/40,chinna Badam Kasibugga, Visakhapatnam","18.746428","84.414954"
"ChIJNVPIsLUHPToR9sFbRAGKKk4","Petrol","QC5J+HV7, Poondi - Akkupalli - Kasibugga Road, Kasibugga","18.7589057","84.43215959999999"
"ChIJU7nJBwAHPToRzKgte3r9HOM","Sri Raja Rajeswari Energy station","P9MX+5M7, Garudakundi, Sariyapalle","18.732909","84.399165"
"ChIJQxQmKAAPPToR6xZ6Y_alSvk","HP PETROL PUMP","RFJM+JRP, Kusumala","18.83158","84.4845639"
"ChIJP9YZhvsPPToROKbwdRX-Ebw","ADHOC SREE MAHA LAKSHMI FUEL STATION","beside Vajra Foods, Allimeraka","18.8322616","84.48494439999999"
"ChIJzyeXYcQOPToR9sAlKIQc3io","Hindustan Petroleum Corporation Limited","Survey No 43, 8, Haripuram Main Road, Mandasa","18.8380449","84.493583"
"ChIJdxCa6fkPPToRwXgwbeNplDY","SVN ENERGY STATION, Indian Oil petrol Pump outlet","Main road, to, Haripuram","18.8469249","84.51155589999999"
"ChIJK3bgPQgPPToR-hpyOxiiMoc","Bharat Petroleum, Petrol Pump -Kaluvamma Filling Station","MANDASA, SRIKAKULAM, SRIKAKULAM","18.8671146","84.46831000000002"
"ChIJlxcEY3IPPToR6JUTgcBrsTU","Hindustan Petroleum Corporation Limited","Ground Floor, Boyi Street, Ummagiri","18.867417","84.468576"
"ChIJtf27xIgOPToRAALhQgm4DcY","IndianOil","Lock No T1/173 NH 5, Cheepi, Binnala","18.8645001","84.5098"
"ChIJWZvicy4NPToRhWIOf6XWCbo","Bharat petrol pump","VHQH+P7J, Near Baruva sompeta junction, Mulapalam","18.88934219999999","84.5781525"
"ChIJj-iSCD4TPToRP-jmcfPv3Jo","IndianOil","Lock No T2/256 Kanchili, Jadupudi","18.9843001","84.58590099999999"
"ChIJXwyi2J4TPToRLYjCX4n6d7I","IndianOil","Birusuwada, Chapara, S No211, 3P 2001, Sompeta","18.9564248","84.5786571"
"ChIJR-nxlaUTPToRxqxL-BIOrjA","SRI SAI LAKSHMI SURYA AGENCIES","Indian Oil, Sompeta","18.9561375","84.57889109999999"
"ChIJGxUCUdITPToRNSCpVanuFoo","Bharat Petroleum Sri Sai Rama Filling Station","S NO. 211.3KANCHILI - SOMPETA ROAD","18.9550232","84.58001399999999"
"ChIJcVksCxYTPToR2uxhtzmXTrw","VBR Traders","WHWR+4F8, Sompeta","18.9452269","84.59152739999999"
"ChIJgQDBPwATPToRDq4CIGgJ8y0","DEF AD BLUE (यूरिया)","near King fish restaurant, NH16, near King fish restaurant, Sompeta","18.949613","84.5655392"
"ChIJQ8tkzlNqPToRCKCmrAx1F4A","IndianOil","Ground Floor G Balarmpur, Dharmpur, Jarada","19.0683247","84.65538760000001"
"ChIJdTk6u51BPToRYpjd30QfpHg","IndianOil","Ground Floor, Srikakulam - Ichchapuram Highway, Ichapuram","19.0663618","84.65112839999999"
"ChIJqUmugt9rPToRHAqHRByE6L0","IndianOil","Ground Floor Ichapuram road, Karapadu Toll plaza, National Highway 16, Kaviti, Kojjiria","19.0680215","84.6482308"
"ChIJ4U3oVONTPDoRIyn5Ax_K_9Q","IndianOil","Ground Floor Nh 5, Kojjeria Junction, Mandal, Kaviti","19.0628798","84.6481818"
"ChIJzTJIN9xpPToRQAy9aH4CDog","UTReddy filling station","near bridge, Edupuram","19.0819343","84.7015127"
"ChIJuX1cvERBPToRoZIj4eoqxLU","SAPPA VAIKUNTA RAO","Railway Gate, Ichchapuram","19.1186803","84.6805311"
"ChIJu1-wXABpPToRq-86kQjVRjQ","Sri Limmeswari Gas Goodown","3PC4+HX6, Edupuram","19.0714036","84.7073905"
"ChIJqefb8mRBPToRLU7Irjw90pI","Bharat Petroleum","4MFQ+J99, Ichapuram Main Road, Ichchapuram","19.1240288","84.6884821"
"ChIJp4vuOgBBPToRNecN-CfKuSw","General store","4M9J+667, Ichapuram - Buddipeta Road, Ichchapuram","19.1180312","84.68054149999999"
"ChIJxdMClLZDPToRENlDfZZCsDA","Bharat Petrol Pump","5P87+PPF, Ganjam","19.1668031","84.7142891"
"ChIJKWXqtaNDPToR4qOIkw3_ryE","Bharat Petroleum Ghar COCO","Chennai - Kolkata Highway, Brahmapur","19.180514","84.724947"
"ChIJ___PDZ9DPToRzMBxefB4bBE","HPCL Coco Girisola","5PPH+799, BH 5, Girisola","19.1856704","84.7284876"
"ChIJu4VTumRDPToRjFljufh4Cwk","TRINATH FILLING STATION NAYARA PETROL PUMP","6P2V+C6V, Brahmapur","19.20112109999999","84.74303689999999"
"ChIJeU06EWNDPToRIpFW1mEwAZU","IndianOil","Ground Floor, NH 5 Ganjam, Tamarapalli, Girisola","19.2043349","84.7437381"
"ChIJ_QhjcqNDPToR79TGebXriz8","Samalai Filling Station Indian Oil Petrol Pump","Girisola, Ganjam, NH-5, Baharagora Chennai Highway, Berhampur, Brahmapur","19.179071","84.723117"
"ChIJeUhZ3MVDPToRcPVK8w_yeDM","IndianOil","Ground Floor, near Balangir Court, Chennai - Kolkata Highway, Balangir","19.1788954","84.7234525"
"ChIJ55NmNotDPToRMWiZpCTWVig","Bharat petroleum and restaurant","AH45","19.18092499999999","84.725205"
"ChIJ9UMM6KFDPToRAJ2PAsoKy4w","BPCL Petroleum Shakti filling station","Girisola","19.18332999999999","84.7275634"
"ChIJVx8m9klDPToRENbZRTqsdsM","Hindustan Petroleum Corporation Limited","Ground Floor, NH 16, Girisola","19.185941","84.728312"
"ChIJP101mndDPToRJuzC7ZpZt9o","Girisola Mini Depot","5PVM+WFV, Girisola","19.1948528","84.7336737"
"ChIJV2UCL31DPToRcUUE38stZUg","Jio-bp","Ground Floor, Valiagad, NH 5, Girisola","19.1953041","84.7342498"
"ChIJr7Nf8-JDPToRizDOybjRjd8","Reliance Petroleum","in front of ROLLAND INSTITUTE OF ENGINEERING, NH-5, BHALIGARH","19.1956336","84.7346513"
"ChIJlyZBrlZDPToR-N3-I6Nefvg","Prabha Filling Station","Golanthra Biswanathpur Road Haradanga Village Land mark, Bhairavi Temple Road, Brahmapur","19.1893686","84.7562123"
"ChIJLxlzEQBDPToRq3V_B1nfN_g","Shree Ram Nayara","4PM4+74, Suvani","19.133154","84.70525599999999"
"ChIJDZmEYDBDPToRhZPv-iZl0DE","Kamakshi Filling Station","Suvani","19.1315101","84.7051534"
"ChIJpSu1oUVDPToRrcJJpF6aQvw","Bharat petrol pump","5QJ8+69M, Golantra-Biswanathpur Road, Jhatipadar","19.1805877","84.7659199"
"ChIJdTGfwypFPToRAMm2yjJ3NHw","IndianOil","Ground Floor, Golanthara, Kanisi","19.25867629999999","84.77270949999999"
"ChIJrZO2vnBQPToRVpdGrc7J3q8","Bharat Petroleum Pump","Goulandi Road, Behind New Bus-stand, National Highway 59, Brahmapur","19.3114104","84.8035878"
"ChIJIfTJqhFQPToRkPnYb43Z2qs","HAISTAND AGENCIES","AskaRoad giremarket chok In front chaturbujo petrol pump, Brahmapur","19.319237","84.7862044"
"ChIJgdQiOQBbPToRYmkhkwrlwyw","Nayara-Nahak Filling Station","7QPP+275, Gosani Nuagam, Brahmapur","19.2850069","84.7857216"
"ChIJTWfd481aPToRrdrO8lfhBeA","Hindustan Petroleum Corporation Limited","Ground Floor Haldiapadar, opposite Auto Nagar, Ralaba","19.2693589","84.7783091"
"ChIJ6wIzAwBFPToRKms4Y1CAjEg","Hp petrol pump near by sis office","7QHC+PQ, Modanamohanpur","19.279279","84.771996"
"ChIJL5AT4ndbPToR4yFLfbTffrU","IndianOil","Ground Floor, near Mango Market, Andhapasara Road, Radhanathpur, Brahmapur","19.2971965","84.78131619999999"
"ChIJt2hpqUxbPToR-J4cULfYngU","KAMALA FILLING STATION","Andhapasara Road, Gosani Nuagam, Brahmapur","19.3010827","84.781759"
"ChIJwRtUZuxbPToRf4bdd6UI3lg","Uma Rani Fuels, Bermhpur","Lanjipalli, Brahmapur","19.2911351","84.80576860000001"
"ChIJf97KwI9aPToRLdzb80QabW0","IndianOil","Ground Floor, NH 16, Ankuli, Lanjipalli, Brahmapur","19.290896","84.80593999999999"
"ChIJiXg--UVbPToRNN9VE_VKIvo","Hindustan Petroleum Corporation Limited","Ground Floor, Sundar Nagar, Ganjam","19.3012359","84.7936723"
"ChIJfUjSN_NbPToRaTzdgyQcPy8","IndianOil","Ground Floor Bijipur, Rd, Bada Khemundi Street, Brahmapur","19.3028523","84.7953842"
"ChIJ0crgOjNbPToR1i4iPItPSm4","Krishna Kumar Patro","near Ganesh Tower, Shop No .2, Hill Patna Main Road, near Ganesh Tower, Mahalaxmi Temple Road, Brahmapur","19.3044065","84.7994871"
"ChIJNTvX3etbPToRbDUBJ5vrt_0","M/s DEEPAK BIO FUEL OFFICE","7RW6+8QH, Lanjipalli, Brahmapur","19.2952245","84.8124983"
"ChIJ6RMFXAtQPToRe9fqVDdptvk","Kargil Petrol Pump, ganjam","PVN Rao Petrol Pump Square, Brahmapur","19.3098474","84.7931625"
"ChIJF6nAIwBPPToRYDIaLsuqD88","Bharat petrol pump ⛽","Lathi Road, Brahmapur","19.3069929","84.7636021"
"ChIJc8vvFw9QPToRLyYK3UMhPBo","IndianOil","Ground Floor, Ganjam, Badakhemundi Street, Gandhi Nagar, Brahmapur","19.3118743","84.785508"
"ChIJ3T47UeBRPToRLr5yM33UQvk","IndianOil","Ground Floor, Brahmapur","19.3107054","84.7934899"
"ChIJUS7ro0dFPToR_c5Owe0eS6Y","Pandit service centre","6QV8+CC7, Unnamed Road, Konisi","19.2435253","84.76604189999999"
"ChIJV9Ui2bRRPToRhnebn9mPZb8","Lingraj Fuels","Shop No .7, near Bombey Kichten, Park Street, Brahmapur","19.3144002","84.78487369999999"
"ChIJ8Tbnz0VXPToRTeRj4NMUtCM","Bharat Petroleum, CNG & Petrol Pump -Bhambra Highway Service Station","BERHAMPUR, GANJAM","19.3235139","84.8692829"
"ChIJwUBTzEVXPToR4aAMiFf8GWc","IndianOil","Ground Floor, Narendrapur, Jaganathpur","19.3231993","84.868123"
"ChIJxbMNhahQPToR6V0Lh7xOckg","IndianOil","Ground Floor Gopalpur Jn, Badakusasthali, Berhampur","19.309402","84.84700149999999"
"ChIJ-THkyOFXPToR858_4A5II8Q","M/s Pankaj Filling Station","NH 16, Jagannathpur Pukudibanha Junction","19.3219067","84.86512809999999"
"ChIJQwZ1eWxXPToRg52j8fQ_OKk","Reliance Petroleum","Narendrapur, Antarbatia","19.32719639999999","84.88329499999999"
"ChIJpZVzWmxXPToRVUj37pery8s","IndianOil","Ground Floor, Nh 5, Raghunathapur","19.32715","84.88468"
"ChIJvYpquOFRPToRu0oGw8f0Yn8","TULASI FILLING STATION NAYARA","8V74+V9X, Dura Bahadurpetta","19.3142427","84.8550722"
"ChIJk57DksFXPToR_pAhEYcrJxI","Nayara petrol pump (Aditya Fuel Station)","in front of Tata colony, Narendrapur, Tata Colony, Brahmapur","19.3472461","84.8702843"
"ChIJYxugwt1ZPToRA6TQ2OnF3-k","IndianOil","Berhampur - Gopalpur Road, Dura Bahadurpetta","19.2983057","84.8671864"
"ChIJfTvaYwBRPToRW4bZMJz5740","Devika Filling Station - Nayara","8R7W+V29, Bima Nagar, Brahmapur","19.3146659","84.8451185"
"ChIJkYzqUb1XPToRojlrIIcRiBo","Hindustan Petroleum Corporation Limited","Ground Floor, NH 5, Chamakhandi","19.3321536","84.9100654"
"ChIJHfZwKp9QPToROXo8glGZ3bI","IndianOil","Ground Floor, Khodasinghi, Ankuli, Brahmapur","19.31135829999999","84.8333017"
"ChIJO-fCKQBXPToR4mgxfXXinNg","Hindustan Petroleum Corporation Limited","Ground Floor, Chhatrapur, Chamakhandi","19.333287","84.917711"
"ChIJcQPzfwb9FzoRGxMI_R9mTeQ","IndianOil","Ground Floor NH 5, Chhatrapur, Agasti Nuagam","19.3507367","84.9738783"
"ChIJ26iMhwb9FzoRSWvd1EYrREU","OMM OILS","9X2F+HHX, Service Road, Chatrapur","19.3514986","84.9739735"
"ChIJKQjHU3L9FzoR6Ghw7TMo6bo","Bharat Petroleum, Petrol Pump -Maa Adishakti Filling Station","NH-5,GANJAM Dist., Chatrapur","19.3471","84.9580016"
"ChIJhd263xr9FzoRXsP5TAzmkLM","Bharat Petroleum, Petrol Pump -Orissa Pisciculture Dev. Corpn. Ltd","HIGH SCHOOL SQ., CHATRAP, Ganjam","19.3520376","84.9851162"
"ChIJ5ah3gc_9FzoR06_4jEa8yNE","IndianOil","Ground Floor NH 16, Humuri, Chatrapur, Agastinuagam","19.364285","85.00769199999999"
"ChIJSQ7YYjn7FzoRMBrX5PMP_kM","IndianOil","Ground Floor Nh 16, Pallibandha","19.39451","85.065968"
"ChIJqZCH5J35FzoR4W782a14c_k","IndianOil","Ground Floor, Rambha","19.43040839999999","85.07053909999999"
"ChIJrUenCAv4FzoRU5bXNqE5Dq4","HP PETROL PUMP - SRINIVAS HIGHWAY SERVICE","AT PO Rambha DT Orissa, Bhubaneshwar","19.4985033","85.0881804"
"ChIJyzM3nkb5FzoR6UMYfU7L_z8","Hindustan Petroleum Corporation Limited","Ground Floor, Rambha","19.4985615","85.0880055"
"ChIJVVVVBUr4FzoRZq16cM-9Wqc","IndianOil - SWAGAT","Ground Floor NH 16, Rambha, Biruligada Road, Subalaya","19.471328","85.084689"
"ChIJQciuDIX5FzoR7OT5Id8ZIAg","Coco Berhampur","F3CM+CR","19.4710634","85.08459429999999"
"ChIJFRBSXxf5FzoRhMeHWDemlWc","Omkar Dinbandhu Filling Station","F35J+4F, NH16, Subalaya","19.4578125","85.0811875"
"ChIJV0e9494CGDoRbvvWxxAn8Yw","petrol pump","Kumbhidhepa","19.546811","85.089229"
"ChIJZYqKWrAFGDoRxCK-BvVMxUE","Lingraj Fuels-Nayara Energy","in front of Exercise office, Keshpur Road, Khallikot","19.6076181","85.1060528"
"ChIJqeJbOgADGDoRp9URWimrHk8","Ramadevi Filling Satation - Nayara Energy","H38V+RVQ, Khallikot","19.5670781","85.0947477"
"ChIJo6fxQhUbGDoRhmMGA3dEWZ4","IndianOil","Ground Floor, Keshpur","19.6237972","85.1286013"
"ChIJlx2Mc_sbGDoRD4ByrzBVRWk","Jio-bp","Ground Floor, Patharakata","19.6730582","85.1679035"
"ChIJI7o-IuIbGDoRNFocC24wjdI","BHAGIRATHI MOBILITY STATION","RELIANCE PETROL PUMP, PATHARAKATA, PLOT NO 862/1690, PLOT NO 862/1689 KHALIKOT, LANGALESWAR, KESHPUR, DIST, Khallikot","19.6729948","85.16821639999999"
"ChIJAQAAABsaGDoRZgjJasG6Zqk","IndianOil","Ground Floor, Narayani Road, Chhak, Aitipur","19.68017099999999","85.173885"
"ChIJc-lZLNwWGDoRQoSHwOtDFFQ","Hindustan Petroleum Corporation Limited","Ground Floor, NH 5, Balugaon","19.74923009999999","85.20700099999999"
"ChIJ1WpQ090WGDoREVE2ouzJoik","Bharat Petroleum D. Ramamurty. Patra & Sons","Main Road, Balugaon","19.7492704","85.2076546"
"ChIJb09FRD0XGDoRReHYKFUlE_I","Shree Krishna filling station","P6X4+4M2, Balugaon","19.7477665","85.2066373"
"ChIJBepc55QXGDoR-segc8AzCd8","HP Gas Office","4r, Bidyadharpur Road, Bidyadharpur, Cuttack","19.74638299999999","85.2072372"
"ChIJ955u-esRGDoRBhKJIuCeOyY","IndianOil","NH 16, Balugaon","19.7458124","85.1835294"
"ChIJndxii7QTGDoRrbW6vM4NaVw","Dilip Kumar Das","Pretol Pump, Banapur","19.78643","85.1751938"
"ChIJoyA12lgRGDoRmDmkcGoJX64","Banapur Petrol Pump","Q5MF+GGJ, Pandiripadar, Banapur","19.7870073","85.1746634"
"ChIJEcniGQARGDoRvu3_8bmuhpc","Annu","Indian oil petrol pump, Banapur","19.7800296","85.1696971"
"ChIJGep_O4cRGDoR7oU33h_axfE","Lingeswar special chaat","petrol pump, Banapur","19.7800296","85.1696971"
"ChIJ1_247OoVGDoR0naMcvd4U_o","Prabhukrupa Fuels ksk","Q6VR+JMP, Old Asian Highway 45, Gamei","19.79409979999999","85.24170819999999"
"ChIJGUXZy8gVGDoR-J6HJB15kHs","IndianOil","Plot No 1237, Khata No 578/159, Brahmanakusadihi, Balugaon, Ankulachati","19.7949488","85.2428139"
"ChIJIZ7ZIs0_GDoRelgxXRP-BYc","IndianOil","Lock No 21013X2, Khordha Nachuni, Baradi Harikunda, Badapadar","19.8412679","85.28471239999999"
"ChIJgScVdrE_GDoRaXMq9SBTX64","Maa Bata Mangala Filling Station","CNG Filling Station, NH-16, Nachuni","19.8425971","85.2917349"
"ChIJOelRdgA_GDoRPX79U-O2my4","Cng station","R8W2+R8F, Nachuni","19.8470565","85.3007859"
"ChIJ9XgzeLE_GDoRP3FhyeFZR4k","IndianOil","Ground Floor, Khurda, Arakhpur, Nachuni","19.8470483","85.300825"
"ChIJBWAVLAxHGDoRY3s7q8H3plE","IndianOil","Ground Floor, Tangi","19.9189737","85.3878015"
"ChIJ22ib1KpAGDoRMmI28ytNm_g","Hindustan Petroleum Corporation Limited","Ground Floor, NH 5, Tangi","19.8919301","85.3548501"
"ChIJC5pE86dHGDoRAAAAMPIPv2g","RAGHUNATH FUEL POINT","W9FW+RMR, Tangi","19.924608","85.3966464"
"ChIJ7wXkoVFHGDoRsqWlwollIf4","IndianOil","Ground Floor, Tangi Talagada Kuhudi, Chandeswar","19.8986669","85.361437"
"ChIJo8DvWQBHGDoRtiD4oKOCxZo","DEF AdBlue यूरिया पंम्प","Chennai - Kolkata Highway, Kuhudi","19.8979597","85.361144"
"ChIJ_8ZbKhJHGDoRj3cowO2yBss","Hindustan Petroleum Corporation Limited","Ground Floor, Chandeswar","19.8917291","85.3563381"
"ChIJ5eHQOgBBGDoRKRkrwvbbWGs","INDIAN OIL (Sai Ganesh Filling Station)","V9R3+2QW, Nizgarhkuhudi","19.8901221","85.35444009999999"
"ChIJi_j_O9tAGDoRAAAAsIjA6RQ","Snehanshu Pvt Ltd","W8GR+7CG, At-singarama, Singarama","19.9256976","85.3410816"
"ChIJp3wXxStPGDoRvRvY_hgEV3g","Hindustan Petroleum Corporation Limited","Ground Floor, Badapokharia","19.9901672","85.4736527"
"ChIJHeDYoJxPGDoRXEcUoef5xpM","GAIL CNG Kuber Filling Station","2F4Q+M2H, Katikata - Jaipur Road, Ratamati","20.0066785","85.48761789999999"
"ChIJHTAzlNxOGDoRGkVcOdgJyq8","Bharat Petroleum","India","20.0067426","85.4876049"
"ChIJ-fo7MABPGDoRNLsb4QzwnEE","Maa Ugratara DPS Filling Station- Nayara","2G82+GVQ, Bagheiput","20.0163264","85.5022231"
"ChIJ8Z4Yg89NGDoRF37LS7wmCBQ","Bharat Petroleum Annapurna Filling Station","2GXM+337, National Highway 16, Kalibati","20.0476647","85.5326566"
"ChIJ7-VnYMtNGDoRVmH6ipEipJ4","Bharat Petroleum, Petrol Pump -Annapurna Filling Station","NH5-JANKIA-KHURDA, Khordha","20.0594689","85.54784459999999"
"ChIJa995Mw5NGDoR_AfHnQl02E8","IndianOil","Ground Floor, NH 16, Jankia","20.0667537","85.5497615"
"ChIJkbYSE-JPGDoRfTMmxGFfYF8","Hindustan Petroleum Corporation Limited","Ground Floor, Hanumantpur, Jankia","20.0466083","85.4969083"
"ChIJQePyUZBOGDoRjmdZQ5tFHu8","IndianOil","Ground Floor Birakesharpur, Jankia, Chouk, Rameswar","20.02153","85.50754669999999"
"ChIJC0DpMEVOGDoRfBvVrUJzUyc","HP Petrol Pump","At/po Olosingh Hanumathpur, PS: Jankia Dist:, Bhubaneshwar","20.0479671","85.49225539999999"
"ChIJoycRHTFTGDoRnD78RWXbFTU","IndianOil","Ground Floor, NH 16, Malipada","20.0892518","85.56622329999999"
"ChIJ7SzC49ysGToRt2fKiBmOWl4","IndianOil","Khata No 95/77, Plot No 311 Shialiapatna, Khordha, Bangida","20.142987","85.619925"
"ChIJC5pWp5dTGDoRnCR1App0Dhs","Khurdha","4HCH+RJ8, Dadhimachhagadia","20.1219986","85.5792051"
"ChIJeww5LilTGDoRu0QexGXMYOg","Hindustan Petroleum Corporation Limited","Ground Floor, NH 15, Dalaiput","20.138656","85.59473899999999"
"ChIJ-f9adyBTGDoRCir1hQ2sLBM","Hindustan Petroleum Corporation Limited","Ground Floor, NH 16, Dadhimachhagadia","20.12217069999999","85.5787826"
"ChIJ9XeE0-dSGDoRSJmbcbTrArg","IndianOil","Ground Floor, Kuradhamalla","20.1212898","85.57933829999999"
"ChIJYb6f0-dSGDoRJPSz2sEZuSE","Inland","India","20.1212541","85.5793856"
"ChIJj7KrPZ9TGDoRdZugJ-SfZvI","IndianOil","Ground Floor Deulatangi, Dadhimachhagadia","20.13751169999999","85.56073669999999"
"ChIJkY-_hR2tGToRzmOAbvP_m7A","HIGHWAY FILLING STATION","5J23+H53, near Madina Dhaba, Daleiput Road, Dalaiput","20.1513875","85.60291989999999"
"ChIJB1L9UcusGToRQKOtrbxo_vI","Bharat Petroleum","India","20.1518338","85.60272479999999"
"ChIJUYSyQMusGToRgyhhuHErQ5o","THE ORIGINAL ENGINE OIL","India","20.1540474","85.60399129999999"
"ChIJ3WYxQL6tGToRasccynqB7uc","Meghdoot filling station (Indian Oil)","near Ex Military kitchen, National Highway 16, Palla","20.1597904","85.60754070000002"
"ChIJE0YROqNTGDoRhDP-hoY5G08","Hindustan Petroleum Corporation Limited","Ground Floor, near AAA School Road, Khordha","20.169651","85.582386"
"ChIJm69teQBTGDoRWcm7MipiqgE","DEF adblue यूरिया पम्प","3HV9+VRX, Katikata - Jaipur Road, Kiajhari","20.0945878","85.5693823"
"ChIJfSKpypGrGToRlZNMN56Kdrs","Bharat Petroleum Kasi Motors","Kanjiama","20.1954634","85.6562762"
"ChIJNU964WCpGToRnibaMNXXrPs","Hindustan Petroleum Corporation Limited","Ground Floor, Rajpath, Bhatakuri","20.2094501","85.6881401"
"ChIJUZMIfV6rGToRNmVGiotPxuo","Bharat Petroleum, Petrol Pump -Kasi Motor Service Station","KHURDA, Khordha","20.1865903","85.6204834"
"ChIJO8gQOZCrGToRpR1e6JTD8gI","SHREE JAGANNATH OIL","5MW4+455, Khurdha Bypass Road, Khordha","20.1952523","85.65547049999999"
"ChIJZ3IzoJqrGToRgwfNvPQ-pH0","Hindustan Petroleum Corporation Limited","Ground Floor, Bypass Road, Khordha","20.1953801","85.6536101"
"ChIJLTCLypqrGToRefo9C-wqLXw","BPCL Petrol Pump - Bhagabati Highway Service Station, Khordha","National Highway 16, Pitapalli","20.1941","85.6524"
"ChIJGZefVGOrGToRnFvRQZwPjmA","IndianOil","Ground Floor, Main Road, Mukundaprasad, Bagheitangi","20.1872332","85.6331471"
"ChIJ86mhYR-tGToRvpiSB8fyNlI","Jio-bp","Plot No, 31/A, National Highway 16, Industrial Area, Mukundaprasad, Khordha","20.176364","85.640126"
"ChIJt-H4Q4GsGToRlVS49bUjz-k","RASUDEV OIL","India","20.1768996","85.63928609999999"
"ChIJ0SImCgCtGToRzXfPBYGQlBQ","PRAYAGA AGENCY","5MFC+HH7, Jatni - Pipili Road, Pipili","20.1739134","85.6714179"
"ChIJyyAzO2qrGToRTu8Ldp2zchU","NISAMANI TRADERS","5JXF+XVC, Gurujanga - Kumbharbasta Road, Gurujanga, Khordha","20.1999344","85.624646"
"ChIJt_oVOwCpGToR8LRhuuGDBXk","BPC bunk truck parking","6M5Q+22R, Odisha Mouza - Bhatakhuri, Gangapada","20.2076156","85.68752719999999"
"ChIJZwvBo9ipGToRUTMcEbyhqS8","AROHI ENTERPRISES","Odisha Mouza - Bhatakhuri, Gangapada","20.2080549","85.6874361"
"ChIJ98xz82CpGToRYL9f35-2oFk","Petroleum","India","20.2083168","85.6875295"
"ChIJ0SCZr02rGToRYlrJJvtrhIk","Sahil","Farang","20.2239546","85.6722219"
"ChIJ5wrL8WerGToRo_fj_RNyKT4","Binod Bihari KSK","5JRF+WC6, Gurujanga, Khordha","20.1922752","85.6235066"
"ChIJ2dPm8GerGToRYsEfClFYKAg","IndianOil","Ground Floor Gurujang, Bagheitangi","20.192001","85.6233767"
"ChIJMVLuJuKtGToR2EzHmRp2JIU","IndianOil","near Gada Khordha, Ground Floor Nh 16, Jagannathpur, near Gada Khordha, Chaka, Khordha","20.17291999999999","85.62761499999999"
"ChIJ-RlLp9epGToRjz29iMjiojU","Hindustan Petroleum Corporation Limited","Ground Floor Jathni, Janla, Gobindapur","20.203971","85.697081"
"ChIJYaPW-mipGToR8nVNrgHCItg","GAIL Balaji Filling Station","6M6W+7Q6, Near Maa Bata Bhuasuni Temple, Ogalapada, Radhacharanpur, Janla, Bhubaneswar","20.2106507","85.6968797"
"ChIJWWSapP6oGToROaFhbob9d8w","Petrol Pump","6PGH+FW8, Santarapur","20.2261596","85.7298424"
"ChIJF554g9enGToRncGUqGCz-Is","IndianOil","National Highway 16, Patrapada, Bhubaneswar","20.2435987","85.76889949999999"
"ChIJOcwg4xCpGToR2mWZLpm6uF4","IndianOil - SWAGAT","Ground Floor NH 16, Tamando, Bijipur","20.2322916","85.74219350000001"
"ChIJP0eAlv2oGToRRasZZoS-dfM","Hindustan Petroleum Corporation Limited","Ground Floor, National Highway 16, Somnathpur, Janla","20.223401","85.726901"
"ChIJx8mvZWWnGToRvvTE8vOT-Jo","IndianOil","Lock No 23008, NH 5, 10/2, Aiginia, Kuber Puri, Bhubaneswar","20.2452","85.7787"
"ChIJzZeezU2nGToR1PbFYPXWivg","CNG Gas station, GAIL","6QWJ+MH6, Shreekhetra Vihar, Khandagiri, Bhubaneswar","20.2466552","85.781466"
"ChIJF4CpaG-nGToRfc3x3KlLu5Y","Bharat Petroleum, Petrol Pump-Khandagiri fuel station","Bhubaneswar","20.2549707","85.78732289999999"
"ChIJ6XB6A8ipGToRzsLFoPQG3vY","Bharat Petroleum BP BBSR NXT","7QG7+5GF, Kalinganagar, Bhubaneswar","20.2758379","85.7637171"
"ChIJ4V9Rp_AJGToRW0j0BRZSbYY","IndianOil","Unit No 9, near IDBI Bank, Bhoinagar, Bhubaneswar","20.28529","85.84318429999999"
"ChIJgxb0aN4JGToR9eqoDynWyUs","IndianOil","Lock No IG3784, Jayadev Vihar, Bhubaneswar","20.2860267","85.8264524"
"ChIJY6NTFtEJGToRgBXeV_7N5oA","Bharat Petroleum: Krishna Filling Station","in front of ISKON Temple, 1060, NH 5, Nayapalli, Bhubaneswar","20.2885914","85.81452449999999"
"ChIJ494T8PAJGToRqPn0JXPakzM","Bharat Petroleum Vanivihar Service Station","JANPATH, Bhubaneswar","20.2958395","85.8415953"
"ChIJd6UVMFSnGToR61x5lvoBqnc","Hindustan Petroleum Corporation Limited","5, Janpath, Bhubaneswar","20.2766209","85.8437233"
"ChIJhdmuyIanGToR4J2lmZgnF3Q","Hindustan Petroleum Corporation Limited","Ground Floor, Fire Station Road, Paika Nagar, Baramunda, Bhubaneswar","20.276661","85.801921"
"ChIJyUMXZKygGToR12uZgqJsBUg","IndianOil","Plot No 4, Bomikhal, Bhubaneswar","20.27510599999999","85.851731"
"ChIJQzaM6EOnGToR2dZTyI793Ac","IndianOil","No IG193, Lock, 2, Unit 1, Bapuji Nagar, Bhubaneswar","20.264434","85.832234"
"ChIJbfQcYRAKGToRA-bN67qZpd8","IndianOil","Lock No 21018 Mancheswar, Rasulgarh, Bhubaneswar","20.296764","85.85999199999999"
"ChIJH-DBn0anGToRwrNzwE-iK6I","Bharat Petroleum - Rajdhani Service Station","4, Raj Path, Unit-2, Ashok Nagar, Bhubaneswar","20.2636743","85.8345859"
"ChIJexVrZ6ygGToRPtkPPShc8Zk","Indian Oil","Lock No, 13005/2, Cuttack Road, Bhubaneswar","20.2625023","85.8447705"
"ChIJiaDILDanGToRIZSDjVLuFik","Bharat Petroleum, Petrol Pump -Joy Auto Centre","KALPANA SQUARE BHUBANESW, KHORDHA","20.2574251","85.8410947"
"ChIJazvmfZGnGToRdFCkR3KP9ec","IndianOil","National Highway 16, Baramunda, Bhubaneswar","20.26515","85.79245759999999"
"ChIJV8OSDwAJGToROmY84L9hbYE","Ambresh karad","7RWF+9RX, Bhubaneswar","20.2959847","85.8246101"
"ChIJVZwHTQAJGToRKU6IoEsIn8Y","Pahal","7RWF+9RX, Bhubaneswar","20.2959847","85.8246101"
"ChIJOZnczukJGToRf6_2HqnR_ig","Local Petrol Vendor Petrol Pump","Сервис көчөсү, Acharya Vihar, Bhubaneswar","20.2968084","85.8290444"
"ChIJeT-zIO8JGToR_eMHvqKsB2U","KAR Gas","7RWM+GM5, National Highway 16, Bhoi Nagar, Bhubaneswar","20.2962513","85.834246"
"ChIJA0kIGQAJGToRan_ksgM7Ako","Indian oil","7RPG+CG6, Kalinga Market, Nuasahi, Nayapalli, Bhubaneswar","20.2860391","85.8262719"
"ChIJu-dwBswJGToRIAZQxINcGoY","Bharat Petroleum","India","20.2985222","85.8122541"
"ChIJlTRviwQJGToRAlGFaryj_S0","Prabhujee Filling Station","353/64-65, Jayadev Vihar-Ekamra Kanana Road, Jayadev Vihar, Bhubaneswar","20.29836389999999","85.8121053"