place_id,name,address,latitude,longitude,open_now
"ChIJpWJdCMKXyzsREBEMHoWwnls","Hindustan Petroleum Corporation Limited","opposite Zoo Park, H No 19/2/212, Bahadurpura, Hyderabad","17.3502303","78.4524804","true"
"ChIJK1tBcaO9yzsRsl-n77arfzw","IOCL - Moula Service Station","S No 62, Gaganpahad, Rajendranagar mandal, Budwel","17.3027599","78.42048419999999","true"
"ChIJW8ZCriuWyzsRe8Q1XEBX_f4","IOC Petrol Pump","8CMG+VC9, Inner Ring Road, Vivekananda Nagar, Shivarampally Jagir","17.3346614","78.42612059999999","true"
"ChIJr1xuJrC9yzsRJfEXBGEe4kY","Hindustan Petroleum Corporation Limited","Survey No 218, National Highway 44, Gaganpahad","17.29455","78.41816","true"
"ChIJxes_MdiXyzsRovT5HcYEkC8","Hindustan Petroleum Corporation Limited","Ground Floor, Bangalore Road, Hasan Nagar, Hyderabad","17.3346545","78.4421272","true"
"ChIJ1SkAnEyWyzsRTjs42ak0kZE","IndianOil","Ground Floor, Upperpally","17.3570049","78.4231226","true"
"ChIJ618GsDq8yzsR_TaPRAfObxk","IndianOil","Sy.No: 148, 713, Shamsabad, Pashambanda, Hyderabad","17.3365137","78.38447219999999","true"
"ChIJza8ysDWWyzsRLmNROtJ4rfM","SUPERGAS Auto LPG Station - Go Green Enterprises","4-11-93/1/A, Chintalmet, Beside Patel Dairy Farm, Hyderabad","17.3521889","78.4261238","true"
"ChIJg-FrMdiXyzsRELWxphFRJvo","IndianOil","Bahadurpura - Aramghar Road, Meersagar, Tad Bun, Hyderabad","17.3405954","78.4503019","true"
"ChIJIxvAu0a9yzsRyaO_bRrowow","IndianOil","Sy No 83, Rajendra Nagar, Mailardevpally, Hyderabad","17.3148473","78.45905599999999","true"
"ChIJr7f9mLOjyzsRvwnFh-ANqLY","IndianOil","S No 187, 2, Bandlaguda Road, Vattepally, Mailardevpally","17.3155929","78.4652083","true"
"ChIJocuqZ02WyzsRtANuRo1JB_4","Bharat Petroleum Corporation ltd","Survey No 400, opposite Pillar Number 137, Attapur, Hyderabad","17.3657827","78.42819229999999","true"
"ChIJFUEWOrGXyzsRP1WV3ntwQ0w","SUPERGAS Auto LPG Station","No: 19-5-128/1, NM Guda, Hyderabad","17.3617501","78.43731009999999","true"
"ChIJu4y7BbmXyzsRBIKK43uVpUY","IndianOil","No 19, 5/28/12/2/A, Kishan Bagh, Hyderabad","17.3594019","78.4444055","true"
"ChIJh-IBjnaWyzsRs9VUvVUP7G8","Hindustan Petroleum Corporation Limited","Survey No 19, Bandlaguda Jagir Road, Rajendranagar, Gandamguda","17.3592266","78.3875321","true"
"ChIJ9azGy_2XyzsRVXfIZuTAX_s","IndianOil","MCH No 18/2/578/2, Falaknuma, Hyderabad","17.3364998","78.4683045","true"
"ChIJPRVKw1W9yzsRJILhNLC-23Q","Hindustan Petroleum Corporation Limited","opposite Falaknuma Palace, D No 18/2/474/3, Nagarkarnool, Jangammet, Hyderabad","17.3321894","78.4701503","true"
"ChIJRzKz516WyzsRCXz5jbNluhU","Bharat Petroleum Corporation ltd","No 9/1/364/A/1/3, Survey No 243 to, 247, Gandipet Main Road, Langar Houz, Hyderabad","17.3733105","78.4111495","true"
"ChIJUW_x0syiyzsREUXotU_v9WQ","IndianOil","S No 104, Chandrayangutta, Hyderabad","17.302799","78.47540300000001","true"
"ChIJxRzzwKyiyzsRZkV0PNVkJDY","PrimeFuel Auto Gas","Chandrayangutta Flyover, Indira Nagar, Falaknuma, Hyderabad","17.3272984","78.476367","true"
"ChIJO7yI7qyiyzsRsjPvEQ1TPgw","petrol pump","Kummar Basthi, Chandrayangutta, Hyderabad","17.3266151","78.4771305",""
"ChIJP0Fi69KiyzsR3NjAbyGt_uo","IndianOil","Saroor Nagar, Shaheen Nagar, Habeeb Colony, Balapur","17.2980631","78.4768783","true"
"ChIJP6efeqyiyzsRkywytvEIPdM","IndianOil","18-2-39/72/A, Inner Ring Road, Saba Colony, Gazia-E-Millat Colony, Falaknuma, Hyderabad","17.3278","78.4787592","true"
"ChIJwSaxBqyiyzsRRfGm9SS3lrc","Nayara Petrol Pump.","18-1-404, Inner Ring Road, Tadla Kunta, Chandrayangutta, Hyderabad","17.328379","78.48049","true"
"ChIJFeMkfvaXyzsRJwVx-Oc0LoY","IndianOil","Ground Floor, opposite Bajaj Electronics, Shah Ali Banda, Hyderabad","17.3511438","78.4720811","true"
"ChIJd8XCqPWXyzsRmtI4XXwb6yQ","Hindustan Petroleum Corporation Limited","No 20, 4/199, Shah Ali Banda, Hyderabad","17.3541631","78.472938","true"
"ChIJawQ0NfWXyzsReQK7BP_uwYY","IndianOil","MCHD No 20/4/62/G & 62/H & 62, near Charminar, 1, Falaknuma Road, Punchmohalla, Khilwat, Hyderabad","17.3575001","78.473602","true"
"ChIJHZQN6IuXyzsRgVGkYRI6Yzk","Essar Oil Filling","21-3-858/8, Laad Bazaar Road, Char Kaman, Ghansi Bazaar, Hyderabad","17.3622842","78.47085849999999","true"
"ChIJE3o7UgaXyzsRkeax-9rg4ds","Hindustan Petroleum Corporation Limited","No 13/6/457/5, 13/6/457/6 & 13/6/457/7 Karwan, Gudimalkapur, Hyderabad","17.3819327","78.4388613","true"
"ChIJ5e-vFVm9yzsR_muz41ZFiH8","Hindustan Petroleum Corporation Limited","Survey No 265, D No 1/1/1/98, Rajendranagar mandal, Budwel","17.3098633","78.42356079999999","true"
"ChIJY7OozB29yzsRH9lWgEmAzWM","Hindustan Petroleum Corporation Limited","Survey No 289, 1 Gaganpahad, Rajendranagar mandal, Hyderabad","17.306528","78.4211828","true"
"ChIJkwdU-7m9yzsRyZOh4i88cVU","TS AGRO KARSHAK PETROL BUNK BOMMARASPET","Hyderabad","17.314993","78.4026268",""
"ChIJtQr4x8-9yzsR5XA9fapjCXY","Telangana state agro karshak petrol pump","8CH9+C75, Budwel","17.3285224","78.4182345","true"
"ChIJnwpldgC9yzsR9RNaZQfmC00","HP PETROL PUMP","6-1-33, Inner Ring Road, Shivrampalli Village, Shivarampally Jagir","17.3229949","78.4297342",""
"ChIJ--wXf4K9yzsRnd4wBmtshKA","Hindustan Petroleum Corporation Limited","Aram Ghar, No 6/3/181/4/A/2 Kattedan, Cross Rd, Shivrampalli Village, Hyderabad","17.3230301","78.4298991","true"
"ChIJM8dPhXi9yzsRNeABhHjyS0c","IndianOil","Survey No 101, Attapur Ring Road Rajendrangr, Kattedan Road, Indra Reddy Nagar, Hyderabad","17.323505","78.430405","true"
"ChIJMVCbXey9yzsRRO-nd09GS8E","Ramesh","opp. Shop, 7-3-74, Katedhan","17.3080656","78.4314405",""
"ChIJZ0dWe1-9yzsRC1TI_FR7hOw","Hp bunk CNG","8C5J+6PG, Old Kurnool Road, Telangana NGOS Colony, Katedhan","17.308015","78.4315167","true"
"ChIJdfXmKAu9yzsReX2blDXd7iI","Hindustan Petroleum Corporation Limited","Sy No 71/A, Gaganpahad, Rajendranagar, Katedhan","17.3079754","78.4316587","true"
"ChIJnTFW4fq9yzsRcAXsnQY5ACk","Bharat Petroleum, Petrol Pump -M/S Srigopal Ser.Stn","Gaganpahad","17.2992868","78.41962149999999","true"
"ChIJvyapb2W9yzsRsSyw9acO-gg","IndianOil","Sy No 48, Ida, Kattedan Road, Nehru Nagar, Rajendranagar mandal, Hyderabad","17.3080865","78.4322912","true"
"ChIJewTF5eK9yzsRIiZ0rhcaGm4","Arsad Air Pump","Ganesh Nagar, beside Indian Petrol Pump, 6-5-36/3, Kattedan Road, Hyderabad","17.3084299","78.4325458",""
"ChIJOy2rDAC9yzsRKw0aGV1dYCg","IOCL-Pravaah Fuels","8C5M+92W, Hyderabad","17.3084994","78.4325908","true"
"ChIJz6s5YQC9yzsRg1iohau8bZA","Katedan","8C5J+6X2, Katedhan","17.3080183","78.4323909",""
"ChIJBUnEfQeXyzsRcL0UZIWtMrI","Hindustan Petroleum Corporation Limited","Survey No 366, Rajendranagar, Attapur, Hyderabad","17.3266576","78.42921299999999","true"
"ChIJIUB7OAC9yzsRGXVdH5OSKoI","Petrol bunk","7CX9+58X, Hyderabad","17.2979968","78.418373",""
"ChIJWVZZyXS9yzsR5hsGagQaM0I","A-One Oil","8C5M+HF4, Old Kurnool Road, Telangana NGOS Colony, Katedhan","17.3088845","78.43369229999999",""
"ChIJsxP_ZJC9yzsRGlHPPSsV95o","Bharat Petroleum","beside Metro, 7-1-1/2 Gaganpahd, beside Metro, Umda Nagar, Hyderabad","17.2961123","78.4178225",""
"ChIJVd7_a_aXyzsR2m5HPGoThVU","IndianOil","Airport Road Sogbowli, Shivrampalli Village, Hyderabad","17.331501","78.4267188","true"
"ChIJj92Jn7WXyzsR8xZd8OMRtQ4","Iram Filling Station","Pillar No.277, Bahadurpura - Aramghar Road, Shivarampally Jagir","17.3316272","78.4267371","true"
"ChIJ9TH2vnC9yzsREiFSpmbhDrw","IndianOil","Sy No 48, 18/A, Rajendra Nagar, Katedhan","17.3189628","78.4365718","true"
"ChIJbZfuJQW9yzsREuFeAtcm_Us","MOHD FAYAZ","6-6-76B, Inner Ring Road, Markandeya Nagar, Babul Reddy Nagar, Nawab Saheb Kunta, Katedhan","17.318623","78.43686470000002",""
"ChIJl9yJLQC9yzsRnLEznUAFjEI","Shivrampally shyamala Nagar","6-2-18/8/2, Prashant Colony, Vivekananda Nagar, Hyderabad","17.3299539","78.4306798",""
"ChIJAQC9vIa9yzsRTNrs_-RqXdc","Hindustan Petroleum Corporation Limited","Survey No 60/A1, Rajendranagar, Katedhan","17.3263018","78.4342376","true"
"ChIJTR4bEeOXyzsRCkqko20TySU","Hindustan Petroleum Corporation Limited","near GHMC, Survey No 211 to 214/1 & 214/2 Himayat Sagar Road, near GHMC, Circle, Rajendranagar mandal, Budwel","17.3354528","78.4101883","true"
"ChIJ37HIEACXyzsRSsECKUXbKL8","Bharat Petrol pump bansilal nagar","1/1, Rajendra Nagar Road, Bansilal Nagar, Hyderabad","17.335023","78.4080137",""
"ChIJYx7AcnK9yzsRKVB2qU3fX7M","VIRAT Mustard Oil","8C7R+759, Old Kurnool Road, Telangana NGOS Colony, Katedhan","17.313168","78.4404721",""
"ChIJHYg5L2u9yzsRaLH2o2KYKBs","Hindustan Petroleum Corporation Limited","Survey No, 157 to 159, Rajendranagar, Mailardevpally","17.31286429999999","78.44069840000002","true"
"ChIJ2_z48gq9yzsRVgdO15Li46E","BPCL - Ridhima Service Station","Bus stop, Durga Nagar, Mailardevpally","17.3152298","78.4431731",""
"ChIJpSRy0Zq9yzsRu7g9vyfrhF8","Bharat Petroleum, Petrol Pump -Fil Point","Gaganpahad","17.2892339","78.416855","true"
"ChIJj1b6aEGYyzsRKhISkS0TlJk","Hindustan Petroleum Corporation Limited","H No 17/9/70 to 78, Saidabad Road, Kurmaguda, Hyderabad","17.3631618","78.5027539","true"
"ChIJP3ezPoqiyzsRWDnqJJLtDkU","Hindustan Petroleum Corporation Limited","Ground Floor, RCI Road, Lenin Nagar, Meerpet","17.3176901","78.5183777","true"
"ChIJiX1036aiyzsRYM4b-cfiv2k","Hindustan Petroleum Corporation Limited","H No 18/1/350/A/6, 7, 8 Phoolbagh, Fathima, Owaisi Nagar, Hyderabad","17.33212","78.49101999999999","true"
"ChIJdT08sQ2YyzsRzziKHnA3_uM","PrimeFuel Auto LPG Station","Survey No. 12, Moin Bagh - Idi Bazaar Road, Opp. Asian Foundation Plaza, Beside HPCL Petrol Pump, Hyderabad","17.3445811","78.49397019999999","true"
"ChIJ1SGit1-iyzsR2YtQJmUflig","HP Petrol Bunk, Shivasai Enterprise","4, Annapurna Nagar Road Number 1, Bheeshma Nagar, Badangpet","17.3120785","78.5229106","true"
"ChIJz_7x-nuYyzsRBj2PJ3N1B6E","Hindustan Petroleum Corporation Limited","No 9, 4/112 Karmanghat Ring Road, Champapet","17.342896","78.514326","true"
"ChIJex-smHyiyzsRM25S6hyM-e8","R.R Fuels (Nayara Energy Filling Station)","Survey No.74/A, Jillelguda, Balapur Mandal, Hyderabad","17.327323","78.52588899999999","true"
"ChIJc7EYlSGYyzsR1dlVQAy9Gk4","IndianOil","23/1, 496, Kotla Alijah, Hyderabad","17.3592822","78.4796669","true"
"ChIJfc0MB4GYyzsR2WJwUvbsZ9M","Hindustan Petroleum Corporation Limited","Survey No 108 & 109, Inner Ring Road, Saidabad, Kharmanghat","17.3399221","78.5239216","true"
"ChIJkQEKumSYyzsRg9WiUSNR22A","IndianOil","Sy No 1 to, 9, Champapet","17.348831","78.513992","true"
"ChIJB202IGmYyzsRcR37gIv1Xlc","IndianOil","Ground Floor, Saidabad, Hyderabad","17.3548034","78.5061959","true"
"ChIJgz83UkqhyzsR1IO8amzT33k","Naveen Fruit Shop","Badangpet Road, Siva Sai Puram, Badangpet","17.2989401","78.53156830000002","true"
"ChIJh06dPSOYyzsRYiwHhV4nxAE","Gleam Total Gas","Yakutpura Station Road, Etebar Chowk, Bibi Bazaar, Yakhutpura, Hyderabad","17.3622307","78.4821365","true"
"ChIJiQRntIKYyzsRrJiwGvAHU20","ESSAR PETROL STATION","New Mythri Puram Colony, Kharmanghat","17.3387285","78.53177649999999","true"
"ChIJU_8kYEeYyzsRcmqiihwmd0E","My Nation Petrol pump","Chanchalguda, Hyderabad","17.3662051","78.4979582","true"
"ChIJn5b_2kaYyzsR88oY6J2hjyI","IndianOil","Sy No 249, Ward No 175, Block A, Saidabad, Chanchalguda, Hyderabad","17.3662599","78.49797720000001","true"
"ChIJTSxAB3aiyzsR_1Z4qJyP3zo","IndianOil","Survey No 7, 1289 & 19, Defence Colony, Karmanghat, Jillalguda","17.3373867","78.5376202","true"
"ChIJ01nAsJ6YyzsRrDUg9kD2Tk4","IndianOil","Sy No 20 Saroornagar, Lingojiguda, Kharmanghat","17.343068","78.5387504","true"
"ChIJA-kyeYaXyzsReWLV7F3_ET8","BPCL - Ramkishen & Co.","Afzal Gunj, Hyderabad","17.37135809999999","78.469741",""
"ChIJi_n_KJ-YyzsRxqMJ9cp2hwY","BALAJI AUTOGAS STATION (AEGIS AUTOGAS)","Sagar Ring Road, Karmanghat, Hyderabad","17.3433261","78.5406848","true"
"ChIJC7TO0EiYyzsR7oyBwlMwlW0","Nayara Petrol Bunk","16-2-706, National Highway 65, Dayanand Nagar, New Malakpet, Hyderabad","17.3731688","78.5029465",""
"ChIJyQDIlqGYyzsREKOJuC5l6WE","IndianOil","Survey No 46, Karman Gate, Sagar Cross Road, Sathavahana Nagar, Hyderabad","17.3430677","78.5454256","true"
"ChIJR8YOtjOYyzsR2RhmIC6Cml0","SUPERGAS Auto LPG Station - Crown Metro Enterprises","16-6-33/1 & 2, Chaderghat road, Hyderabad","17.3776259","78.489419","true"
"ChIJ____P4KXyzsRH6cjD92G5n4","IndianOil","Ground Floor, Goshamahal, Hyderabad","17.37779919999999","78.47131399999999","true"
"ChIJAQAArCyYyzsRy5doyY1OCOs","IndianOil","8/28/5, No 4, RM Road, Putlibowli, Hyderabad","17.3812699","78.482693","true"
"ChIJsbRlAFSYyzsRHGrvZaAdu04","Bharat Petroleum Corporation ltd","House No 16/11/16/5/1 & 2 Saidabad, Moosarambagh Main Road","17.3774599","78.5150506","true"
"ChIJlzO5V9WZyzsRCFPB_gynFyQ","IndianOil","Ground Floor, Goshamahal, Hyderabad","17.3817514","78.4722742","true"
"ChIJcbo3372YyzsRgJcthUHYKUk","M/s. Bhagyanagar Gas Limited - Saroornagar","Sy.no. 13 to 15, P.no. 1/2, Chitra Layout, L. B. Nagar, saroornagar","17.3556548","78.5452155","true"
"ChIJWf8M4PGYyzsRl1OLKLusAzM","Hindustan Petroleum Corporation Limited","Ground Floor, National Highway 65, Chaitanyapuri, Hyderabad","17.3687221","78.5335877","true"
"ChIJ_7A4aVSYyzsR39DsyLPUyZ0","IndianOil","H No 16/11/16/T/6 Prashanth Nagar, Malakpet Extension, Hyderabad","17.379257","78.516167","true"
"ChIJ5TLoxqWYyzsRm7dmb_E2iwc","Hindustan Petroleum Corporation Limited","Door No 3, 8/173, Inner Ring Road, Chandrapuri Colony, L. B. Nagar, Saroornagar","17.345699","78.5528978","true"
"ChIJ2Ze-8qiYyzsRnRAXMyPxPkw","IndianOil","NH 9, Old Check, L. B. Nagar, Chintalkunta","17.342648","78.556038","true"
"ChIJUQcuCzSjyzsRFIHlWnqG7Ys","SHAIK AHMED PETROL PUMP","Shop No 11, Chandrayangutta, Hyderabad","17.3228073","78.4804833",""
"ChIJNfFsgI6jyzsRJK69ZxTbcik","Shaik Wali chicken store","12, Omer Colony, Hafiz Baba Nagar South, Hafiz Baba Nagar, Hyderabad","17.3234721","78.4923376",""
"ChIJR96PucqiyzsRtO7fSNMfM4c","Arfat Gas Station","5-14, Srisailam Highway, Yerrakunta, Chandrayangutta, Hyderabad","17.30975","78.4759577","true"
"ChIJNzIIluKjyzsRwLWYxLQazZo","Go Gas Auto LPG Station","8F5G+96Q, Yerrakunta, Chandrayangutta, Hyderabad","17.3084539","78.47561","true"
"ChIJlVOj0sqiyzsRfEXsdetkiW4","Al Amoodi Filling Station Bharath Petroleum (ال عمودی فیلنگ اسٹیشن)","Near, Errakunta, Barkas, Chandrayangutta, Hyderabad","17.3087484","78.47517549999999","true"
"ChIJIfN63P-hyzsRcATVDZxfyAA","IndianOil","Plot No 2 & 3, National Highway 65, Vanasthalipuram","17.3391407","78.56779019999999","true"
"ChIJ1fGl0PyhyzsRPyNDsu0gZFM","Hindustan Petroleum Corporation Limited","D No 2, No O/364/3, 3/37, Indira Nagar, Hyderabad","17.336686","78.57665539999999","true"
"ChIJ1YuxxVefyzsRJTaRvmL3yIw","SBR Petroleum Products Pvt Ltd","Plot no 1&2, Block No 31, TSIIC, Auto Nagar","17.3408682","78.5755136","true"
"ChIJ25d6JMWhyzsR6Sb3nJohcwI","IndianOil","National Highway 65, 4-7-188/1, Shirdi Nagar, Hayathnagar_Khalsa","17.3283899","78.5977978","true"
"ChIJW-AH18iYyzsRGvRbdIRaVo0","IndianOil","S No 102, 3/2, Nagole Road, Hyderabad","17.3671704","78.5575216","true"
"ChIJISCKUhWhyzsRw1L4QM5pvlQ","IndianOil","Sy No 339, Nagarjuna Sagar Road, Turkayamjal","17.271461","78.58897639999999","true"
"ChIJF89ULMuhyzsRgmb1poyPa_0","Hindustan Petroleum Corporation Limited","Survey No, 20 & 21, Khalsa, Hayathnagar_Khalsa","17.3224","78.61135709999999","true"
"ChIJcWvJ0zSgyzsRR6sgazEDxi4","LPG Station (HayathNagar)","8JG4+R5C, Sri Sai Colony Phase 2, Sai Colony, Hayathnagar_Khalsa","17.3216226","78.6115221","true"
"ChIJCZEoQ-iYyzsRwu9faXPpMgA","Hindustan Petroleum Corporation Limited","Plot No 5 & 6, Survey No 171, Uppal - Ramanthapur Road, Kothapet, Hyderabad","17.372163","78.5432312","true"
"ChIJVVVVVUGfyzsRk-xWzKmfgcc","IndianOil","Sy No 117, Hayathnagar, Tattinnaram, R Krishnaiah Nagar, Bandlaguda Jagir","17.3649026","78.58895319999999","true"
"ChIJie4PpsKYyzsRkv9m3om6amc","NAYARA PETROL BUNK","Shop Num 1,Road, Number 6, New Nagole Main Road, SBI Colony, Nagole, Hyderabad","17.3725052","78.5438508","true"
"ChIJzVA6QQCjyzsRCsC9_qz9U30","BGL GAS HASTHINAPURAM","8H82+PGJ, Hastinapuram, Hyderabad","17.3168305","78.5512713",""
"ChIJe2bvRmqjyzsRD5g0ZIvq23o","BPCL","No 59/1, Plot, Besides Pai Electronic, No 8, Karmanghat, Cross Road, B.N Reddy Nagar, Hyderabad","17.3222937","78.559162","true"
"ChIJBVkvZQCjyzsRMZ64r8MrZ4U","A B FILLING STATION","8HF4+4V4, Panchayatiraj Teachers Colony, Hastinapuram, Hyderabad","17.3227721","78.5571921",""
"ChIJhxteJhevyzsRGJ4px261Mjo","Hindustan Petroleum Corporation Limited","SURVEY NO: 60, near Police Station, 538, Kandukur, Hyderabad","17.322902","78.5485526","true"
"ChIJb8kzDeKhyzsRMlIJaACyROg","DEVENDER FUEL","Nayara Petrol Pump, Gurram Guda, Hyderabad","17.3090899","78.56659619999999",""
"ChIJt5d1AnehyzsRxLqomJpZfcg","NAYARA Essar PETROL BUNK, sri Venkateswara filling station","beside Flytech Aviation Academy, SH19, Hari Hara Puram, Gurram Guda, Hyderabad","17.3091037","78.56673119999999","true"
"ChIJHdxujJehyzsRjyv0KPPIxWM","P Srikanth Reddy","8H, Gurram Guda Road, Gurram Guda, Vanasthalipuram","17.307396","78.56850229999999",""
"ChIJffFFHJmhyzsRU2PHJKBOFKo","SV Gas station","Gurram Guda, Hyderabad","17.3073256","78.5684788","true"
"ChIJ0dzZ7wahyzsREYVdX2XRReM","Suresh Q","8H49+W99, Swamy Narayana Colony, 8H49, Hyderabad","17.3072964","78.5684694",""
"ChIJcb9ANgChyzsRWPHJns85kbU","M/S Sri Venkateshwara Fuels","Swami Narayana Colony, Swamy Narayana Nagar, Gurram Guda, Hyderabad","17.3073172","78.5684885","true"
"ChIJYwOovNShyzsROZPvqtodhpc","Karnati Ramesh","8H, Gurram Guda Road, Gurram Guda, Vanasthalipuram","17.3070035","78.5683578",""
"ChIJjWWqQByhyzsRrOzoIzKkwGo","Shekar Reddy","8H, Vanasthalipuram - Gurram Guda Road, Gurram Guda, Vanasthalipuram","17.3072916","78.56861599999999",""
"ChIJBUdqDAKhyzsRl1KUV4_2-90","Kondrapalli nagesh","Gurram Guda, Hyderabad","17.3067468","78.56871249999999",""
"ChIJ4wsppw-iyzsR_3Jy9trRJ7g","IndianOil","S No 58/1, G L, B Nagar, Hastinapur Colony, Bairamalguda","17.32987469999999","78.5532881","true"
"ChIJa0Ea0ZejyzsRt3weVKbhduE","HP petrol bunk","Sy No 60, 60M, PN 14 to 16, 60P to 60R, ZP Nagar Road, Hastinapuram, Saroornagar","17.3268883","78.54664029999999","true"
"ChIJqz8FsfKjyzsRoyK2PagIdKA","Akshitha Petrol","Akshitha Petrol Pump Hanuman, Ganesh Nagar","17.323321","78.5413982",""
"ChIJaWVafk6jyzsRP04exOGzHmI","IndianOil","124 & 125, 74 744 & 745, Almasguda, Visaka, Balapur","17.3007895","78.54423039999999","true"
"ChIJ70ymmGujyzsRzluX9mAfLrc","Katari Petroleum","No 23, Ujjwal Boys Hostel Rd, RN Reddy Colony, Hyderabad","17.3244208","78.5384622",""
"ChIJo1nawByjyzsRmGKpnSuOh-4","Vaishnavi Filling Station (Bharat Petroleum)","8GFQ+R67, RTC Colony, Hyderabad","17.32453629999999","78.53803599999999","true"
"ChIJSTq9WACjyzsR90_gnKnzdBM","SRI RAMCHANDRA REDDY FILLING STATION","7GWW+J4W, Visaka Nagar, Almasguda","17.2966088","78.5453136","true"
"ChIJNwtwrAmiyzsRpXenBSPjs7U","Hindustan Petroleum Corporation Limited","Survey No 57, Ward No 8, Block No 2 Saroornagar, Shaktinagar, Kharmanghat","17.3361142","78.551667","true"
"ChIJt9M92VyhyzsRtd_3znm-utM","Hindustan Petroleum Corporation Limited","near Auto Nagar, Plot No 19, Survey No 10 Sahebnagar Kalan, near Auto Nagar, Vanasthalipuram Road, Vanasthalipuram","17.3286453","78.575301","true"
"ChIJydUvyUKiyzsRCc_TM8Zc6gU","IndianOil","India","17.3124338","78.53249939999999",""
"ChIJnwSUEQCjyzsRV4k19FrVySU","SVR PETRO MART","8G6J+XXG, Almasguda","17.3124375","78.53243750000001","true"
"ChIJy1YpkGehyzsRIGyAvT2OXp0","Bharat Petroleum (ANJALI Petroleums)","8HJG+56P, Vanasthalipuram Road, Huda Sai Nagar Colony, Vanasthalipuram","17.3304658","78.5755847","true"
"ChIJ64-Q-wmiyzsRJV3nTvxi1KM","IndianOil","Sagar Road, Bairamalguda Road, Hastinapuram, Hyderabad","17.337992","78.54950699999999","true"
"ChIJSQhZDfuhyzsR97kp_9TC1Rc","HP Petrol Station","8HJG+X4P, Vanasthalipuram Main Road, Kamala Nagar, Vanasthalipuram","17.3324723","78.5753261","true"
"ChIJ-z27k0ihyzsRTWo04hhHETc","Pucher Shop","A-375, Guruwar Road, Vanasthalipuram","17.3327087","78.57525679999999",""
"ChIJR9VSEvuhyzsRIjyExwRV4gY","SRI GEETHANJALI FILLING STATION","8HJG+X5X, Lotus Lap School Road, Huda Sai Nagar Colony, Vanasthalipuram","17.3324888","78.5754889",""
"ChIJyUDcTvuWyzsRxi_cSRPnefs","Essar - P.S Rathore & company","Toli Chowki, Hyderabad","17.3886349","78.4230226","true"
"ChIJ9amV1LuWyzsRO0UFzGOV3i8","Hindustan Petroleum Corporation Limited","House, No 8/1/299/C/1, Shaikpet, Hyderabad","17.4081206","78.4012055","true"
"ChIJdTbbNrqWyzsRVeuqr-rC3Jk","Bharat Petroleum Corporation ltd","Survey No 75, opposite DMart Shaikpet, A/76, Shaikpet Road, Shaikpet, Hyderabad","17.4089419","78.4001152","true"
"ChIJudgOjySXyzsRRPtgcrYEZw8","IndianOil","No 8/2/682/L/4, Road Number 12, Banjara Hills, Hyderabad","17.4085278","78.43889399999999","true"
"ChIJLfT6JWiXyzsR1aX1dM6MNuY","Hindustan Petroleum Corporation Limited","Door No 6/2, 29/1, AC Guards, Masab Tank, Hyderabad","17.40288","78.46173","true"
"ChIJufNi_0KXyzsROWkMV3YtvX0","IndianOil","Ground Floor, Wooden Bridge, adjacent Nirankari Bhawan, Saifabad, Hyderabad","17.405803","78.4609469","true"
"ChIJi_xvH2iXyzsRDbdtGjM1B6w","Hindustan Petroleum Corporation Limited","Lakdi-Ka-Pul Railway Station, Lakdikapul, Hyderabad","17.4032419","78.46249660000001","true"
"ChIJBdeh8tKQyzsR6F96p6l7t38","IndianOil","D No 8, D Sy, 2/268/A/1/2, Banjara Hills Road Number 3, Banjara Hills, Hyderabad","17.4275036","78.4394762","true"
"ChIJF7u4O3uXyzsRRDPu5Wm36KI","Hindustan Petroleum Corporation Limited","Mosque, opposite Ek Minar, 11/6/314, Nampally Station Road, Hyderabad","17.3909657","78.4676743","true"
"ChIJG4vNiWeXyzsRmb4VtbXTr3E","Hindustan Petroleum Corporation Limited","No 6, opposite IGP Office, 1/69/1, Saifabad, Khairtabad, Hyderabad","17.40341","78.46567999999999","true"
"ChIJe8xescqQyzsRLITXus0uR-E","IndianOil","D No 6, 3/654/B, Road Number 1, Banjara Hills, Hyderabad","17.4263641","78.4514373","true"
"ChIJt6QcmHyXyzsRBm9QeeXhep4","BPCL - Nampally Petrol & Auto Service Station","5-4-418, Srinagar - Kanyakumari Highway, Abids South, Nampally, Hyderabad","17.3906151","78.47029119999999","true"
"ChIJjUcWSUSRyzsR9AHrYXc0_2Q","IndianOil","Plot No 730, Road Number 36, Jubilee Hills, Hyderabad","17.4380503","78.3996014","true"
"ChIJKw5KCtaZyzsRuWG8Nmg436Y","Bharat Petroleum, Petrol Pump -Auto Lines,","Jawaharlal Nehru Road, Hyderabad","17.3866511","78.4764885",""
"ChIJUax_8WGXyzsRFh8loijfgPU","Hindustan Petroleum Corporation Limited","No 59, Basheer Bagh, Hyderabad","17.3995659","78.47459549999999","true"
"ChIJE9TeXfqTyzsRlbUbGnruuuk","IndianOil","S No 52, 58, Serilingampalli, Gachibowli, Hyderabad","17.42967999999999","78.374451","true"
"ChIJgVxjcNaZyzsRmHireNEvi5Y","IndianOil","409, GTK, D No 4/1, 13011, Street Number 5, Hyderabad","17.387311","78.4772964","true"
"ChIJK99eouOZyzsRZvKjUaz0acg","Hindustan Petroleum Corporation Limited","No 1/2/597/30, opposite P VKT Reddy, Indira Park Road, Hyderabad","17.4112","78.482933","true"
"ChIJxw4mNcSZyzsRU2_7AAatWdg","IndianOil","No 3/5/1089, 16, Narayanguda Road, Narayanguda, Hyderabad","17.3962932","78.49100589999999","true"
"ChIJUzmXR7mWyzsRk7UR2eF236s","IndianOil","Survey No 403, Plot No 1 & 2, Shaikpet, Hyderabad","17.416005","78.434967","true"
"ChIJf4hSTEWUyzsR0NPqYa58d5Q","Y V Krishna Rao & Sons","Plot no 4, beside HP petrol pump, Gandipet Main Road, Narsingi, Hyderabad","17.3875282","78.3415143","true"
"ChIJceNvbeyTyzsR6TCPJFk_5gI","Hindustan Petroleum Corporation Limited","Survey No 18, Gachibowli, Hyderabad","17.4376931","78.3654863","true"
"ChIJoZKjUsuWyzsR8T9GTT4Nxmk","IndianOil","Plot No 1354, Road Number 68, Jubilee Hills, Hyderabad","17.4234283","78.4118599","true"
"ChIJ7xcJdO6XyzsRiYpRs9kONFE","Sangshaptak Adhikari","Sang Adhikari, Langar House Flyover, Kalidas Pura, Prashanth Nagar, Langar Houz, Hyderabad","17.3780803","78.4186855",""
"ChIJ72skT_uWyzsR9AFPSTJBLrc","NAYARA","India","17.3888033","78.42302889999999",""
"ChIJEYTXBV6XyzsRyonswoKLVXM","Hindustan Petroleum Corporation Limited","D No 9/1/45/3, Langar Houz, Hyderabad","17.378038","78.4204464","true"
"ChIJ6eV8bISXyzsRt6RsbVG5i-M","IndianOil","Sy No 144, Langar House Flyover, Bapu Nagar, Langar Houz, Hyderabad","17.378159","78.42081100000001","true"
"ChIJj0r4RvaXyzsRMSI65CiwLjc","Auti Srikanth","opp. langer house, 12-7-788, Hyderabad","17.3780267","78.42057670000001",""
"ChIJR6Uhh_iWyzsR4Qla0_Z-9Eo","Shaheen Oil Shop","9CHC+6GQ, Fort Road, Bapu Nagar, Langar Houz, Hyderabad","17.3780825","78.4213532",""
"ChIJs6EWAy2XyzsRkApgLncLxd8","IndianOil","Sy, 284/3284/4/1 & 284/4/2284/5, Berbun, Nanal Nagar, Hyderabad","17.3906195","78.4230182","true"
"ChIJGybrIQCXyzsRP7VfB2jbTXI","Bharathi Fuels","9CRF+975, Hyderabad","17.3908931","78.4232231","true"
"ChIJ-_C4meSWyzsRM1Q830WFWoE","TotalEnergies","India","17.3910979","78.4234186",""
"ChIJc7Wn_i2XyzsRO2me7BX8YnQ","Extra Gas Auto Lpg","9-3-234/2, opp. Ali Pan Shop, MD Lines Road, Toli Chowki, Hyderabad","17.3941337","78.4175486",""
"ChIJKVa7huSWyzsRYEaNL9ez8LY","IndianOil","near Olive Hospitals, Plot No 9/4/80 80/1 to 8, Nanal Nagar, Hyderabad","17.3919","78.42320000000001","true"
"ChIJz6AJBLiXyzsRiXuFBIh9hzQ","IndianOil","near Olive Hospitals, Plot No 9/4/80 80/1 to 8, Nanal Nagar, Hyderabad","17.3919","78.42320000000001","true"
"ChIJees8jK-ZyzsRSR6Pv06qwas","IndianOil","No 2/2/1075/25G, Shivam Road, Tilak Nagar, New Nallakunta, Hyderabad","17.3937283","78.5108964","true"
"ChIJoZWbNLiZyzsRks_dtBUW-4Q","IndianOil","MCH No 3/4/897/2, Barkatpura, Narayanguda, Hyderabad","17.3949391","78.500588","true"
"ChIJI5H3cqKZyzsRhNsKVUGPoD4","IndianOil","1/9, 698/A, Vidyanagar, Hyderabad","17.4057032","78.51330109999999","true"
"ChIJF6uhG7iZyzsRsNvsEIWgNI8","Hindustan Petroleum Corporation Limited","No 3/4/877, Barkatpura, Hyderabad","17.3941911","78.4984463","true"
"ChIJEUFWMq6ZyzsRhXDzh_FHAq8","IndianOil","No 2/2, 1075, Amberpet, Hyderabad","17.3912788","78.51027359999999","true"
"ChIJs_1LJ1WYyzsRmtd-pQ9HK_g","IndianOil","H No 2, S No 7 & 8, 3/692/K/3, Moorsaram Bagh, Amberpet, Hyderabad","17.3818005","78.5178998","true"
"ChIJAdt2GAaZyzsRF6ti_ImwQu0","IndianOil","No 2/2/63, 1 & 22018, Amberpet, Hyderabad","17.3947459","78.52475419999999","true"
"ChIJ03-3m_aZyzsRuw7vwiOWOfU","IndianOil","No 6, Prithvi darpan apartment, behind Marriot Hotel, 6/114/1, Kavadiguda Road, Bhagyalaxmi Nagar, Kavadiguda, Hyderabad","17.4244168","78.4917897","true"
"ChIJC_EgKyKayzsRxa7G3iMQU3A","Hindustan Petroleum Corporation Limited","Ground Floor, Saint Marys Road, Hyderabad","17.4348576","78.5006808","true"
"ChIJQzNRpRmayzsRbySPCqt5nq8","IndianOil","No 6227, 6228, Rashtrapati Road, Kalasiguda, Hyderabad","17.437901","78.494102","true"
"ChIJG4Lch82ZyzsR1qQW1iudAeQ","SUPERGAS Auto LPG Station","Sy.No.93, B Nalla Cheruvu, Hyderabad","17.4015978","78.57681579999999","true"
"ChIJ10pHmzCZyzsRwYLxp23JuQI","IndianOil","D No 24 & 23, S No 581/1, IDA Uppal, Ramanthapur, Hyderabad","17.4006878","78.5550307","true"
"ChIJ036RsEyZyzsR34LjJixTezQ","Hindustan Petroleum Corporation Limited","Survey No 55, Plot No 5 & 6, Uppal Khalsa, Chilkanagar, Hyderabad","17.4161357","78.56545779999999","true"
"ChIJqwBq5nyZyzsRGBNCubyYMw4","IndianOil","Ground Floor, Tarnaka, Hyderabad","17.42709989999999","78.5302955","true"
"ChIJG83RkyyayzsRHfi7THQyZZo","Hindustan Petroleum Corporation Limited","12-8-179, near Metro Station, Mettuguda, Hyderabad","17.4367888","78.5177305","true"
"ChIJUc7JdcmbyzsRK5-N2km0XrA","Hindustan Petroleum Corporation Limited","D, No 13/57, Yadav Nagar, Malkajgiri, Hyderabad","17.4477279","78.5359979","true"
"ChIJGRpHzhGcyzsRjsKC6qQuCS8","Hindustan Petroleum Corporation Limited","Uppal Mandal, Survey No 52/1, Marriguda Mallapur, Kapra, Hyderabad","17.4483892","78.5782309","true"
"ChIJZ5fKmO2byzsRZGbNBQlNWFc","SUPERGAS Auto LPG Station","Sy.No.610/1, Malkajgiri Mandal, Hyderabad","17.451873","78.553732","true"
"ChIJb3eLne2byzsR5kwTbudus_M","IndianOil","S No 610/2 & 612, Moula Ali, Hyderabad","17.452409","78.5538012","true"
"ChIJR0un1IqeyzsRcSx-ldIl7EQ","IndianOil","NH 202, Medipally, Hyderabad","17.4119956","78.6090013","true"
"ChIJ33KnRpGZyzsRmZzw8t9F2Gk","Bharat petrolium Nagole","9HP5+35C, Laxmi Narayan Nagar Colony, Ramanthapur, Hyderabad","17.385658","78.5581653",""
"ChIJaUamVvGZyzsRj12ovwtj1Q0","BPCL Shaanvi Filling station","near Shilparamam, 807, near Shilparamam, Laxmi Narayan Nagar Colony, Nagole, Hyderabad","17.3856221","78.5582074","true"
"ChIJTdyccjOZyzsRm5EPksgeM1Q","IndianOil","Sy No 364, Uppal Bhagath, Plot No 175/A, Uppal, Hyderabad","17.3855036","78.55869679999999","true"
"ChIJiyN61ymZyzsRqEsNHOA0vAU","Hindustan Petroleum Corporation Limited","Survey No 443/3, Nagole Cross Roads, Bhagayath, Uppal, Hyderabad","17.38685869999999","78.5588095","true"
"ChIJT2ne3daYyzsR-wignDtbh0I","LPG GAS Station","9HJ5+C5V, Samathapuri, Kothapet, Hyderabad","17.3811005","78.5579245",""
"ChIJ4dt2AieZyzsRWbs9ezQeFcc","IndianOil","Sy No 136 & 137, Mamatha Nagar, Samathapuri, Uppal, Hyderabad","17.3802812","78.55790549999999","true"
"ChIJQf_Qvi6ZyzsRhRJ5InYtVJ0","H S R P","India","17.3925776","78.5592264",""
"ChIJ6RBVSRSZyzsRas-nDG6cOXI","Auto LPG","Hanuman Nagar Garden II, Nagole, Hyderabad","17.37596109999999","78.5581641",""
"ChIJtckM01WZyzsRvFXYX1dA-9k","One Eight Oil","Saraswathi Nagar, Uppal, Hyderabad","17.394067","78.55941829999999",""
"ChIJ8SBljHKZyzsRjpaEjwLJ-Rk","SHAIK Asger","Shop No 1, Hyderabad","17.39409329999999","78.55935459999999",""
"ChIJd43t3fmZyzsR3tR7yLaPL4A","MD AKTHAR FUEL STATION","Metro Station Uppal, near Nagole, Main Road, Hyderabad","17.3940744","78.5595135",""
"ChIJNzdt5TaZyzsR8N3gwF2dX5k","Srinivas Petrol Pump","2-1/85, Road Number 3, Main Road, Saraswathi Colony, Uppal, Hyderabad","17.394132","78.55940489999999",""
"ChIJy1n00_yQyzsRgFNO652bIlY","SUPERGAS Auto LPG Station","beside nissan showroom, H.No.7-2-1838/1, beside nissan showroom, Fatehbagh, Hyderabad","17.46013079999999","78.4325203","true"
"ChIJh0w18OOQyzsR0poW0-zithY","Ashok Service Station (Dealer Indian Oil)","opp. Gokul Theater Compound, 7-2-1813, opp. Gokul Theater Compound, National Highway 65, Erragadda, Hyderabad","17.4550128","78.4347854","true"
"ChIJ78cLNKqRyzsRGUEFur5J2ak","Hindustan Petroleum Corporation Limited","opposite KKP Bus Depot, No 6/37, Sanath Nagar, Moosapet, Hyderabad","17.4732472","78.4248617","true"
"ChIJU6aI0K6RyzsRCRzeivGh3IE","IndianOil","S No 421, Kukatpally, Hyderabad","17.47738","78.42163","true"
"ChIJJ5N56PaQyzsRLTI4ot48bLw","IndianOil","Survey No 123404142, &45 Kajaguda, Fatehnagar, Balanagar, Hyderabad","17.4679131","78.4446031","true"
"ChIJS_xol32RyzsRtcDRheUGJDM","Bharat Petroleum Corporation ltd","Railway Station, Survey No 41/14 JNTU, near Hitech City, Hitech City Road, Khanammet","17.4607134","78.3854502","true"
"ChIJxZezjPOQyzsRXIVsI3wGGcA","Hindustan Petroleum Corporation Limited","Ground Floor, Cross Road, Secunderabad Road, Balanagar, Hyderabad","17.4661481","78.4482113","true"
"ChIJ25P-KbyRyzsRbM8XwMaMAaE","Hindustan Petroleum Corporation Limited","2/96, Jntu Balanagar Rd, Bagh Ameer, Kukatpally, Hyderabad","17.4876173","78.4102091","true"
"ChIJsSd-ofaRyzsRH2WKoQnjrIg","IndianOil","Survey No 145, Kukatpally, Hyderabad","17.4983243","78.38882869999999","true"
"ChIJD4DxbcGRyzsRKgKSO8Q3g4s","Hindustan Petroleum Corporation Limited","Survey No 111, 112 & 113, Bala Nagar, Kukatpally, Hyderabad","17.4987713","78.41299099999999","true"
"ChIJe9BeREKQyzsR6f2hkjhkdNo","IndianOil","Door No A, 105/1, Narsapur Road, IDPL Colony, Hyderabad","17.4878948","78.4507115","true"
"ChIJb_8OwYKQyzsRF5RtdMZXkRo","Hindustan Petroleum Corporation Limited","Plot No 2&3, Krishna Reddy Nagar Colony, Bowenpally, Secunderabad","17.46345","78.4736387","true"
"ChIJXwMZ2uSRyzsRkOZSPkud2VA","Chandrika Srinivas Filling Station","423&416, Pragathi Nagar Road, Tulasi Nagar, HMT Hills, Kukatpally, Hyderabad","17.507563","78.3962986","true"
"ChIJDzn25RmSyzsRcyjv-eiu1KY","IndianOil","Ground Floor, Miyapur Road, Hafeezpet, Hyderabad","17.496126","78.373581","true"
"ChIJgRxDC4CQyzsRQJQqeECnNf8","Hindustan Petroleum Corporation Limited","No GLR 516/PT, Bowenpally, Hyderabad","17.4736148","78.4738338","true"
"ChIJd9rIuQCTyzsRT8ztkKd0mZY","Hindustan Petroleum Corporation Limited","Survey No 124, Vinayak Nagar, Gachibowli, Hyderabad","17.4427552","78.3570929","true"
"ChIJkRWc0H6ayzsR28lS3uuJ3Gw","Hindustan Petroleum Corporation Limited","Sy No 132, PN 39 & 40, Sanjeevaiah Nagar Colony, Secunderabad","17.4691634","78.4785629","true"
"ChIJiQznnyOQyzsRD7yorHy7lCM","Hindustan Petroleum Corporation Limited","Plot No 88/C, APIIC Colony, IDA Jeedimetla, Quthbullapur","17.51029","78.4483","true"
"ChIJhz6-IkGSyzsR2cTHIN2MdIg","Bharat Petroleum Corporation ltd","Survey No 89, near Kondapur Flyover, Hafeezpet, Hyderabad","17.4859962","78.35808159999999","true"
"ChIJqyXIh3KayzsRtdEqTFHXYC4","IndianOil","Chandulalbowli, Plot No 1/1A, Tar Bund, Bowenpally, Hyderabad","17.4551364","78.4856307","true"
"ChIJ0Xtm7eZeUjoRDNrp9pVPvuQ","IndianOil","Sy No 98/1, Hafeezpet, Hyderabad","17.4892217","78.353803","true"
"ChIJG1m0NhmQyzsRRSpElb5s33E","Nayara Petrol Pump","near Little Star Heigh School, Shop No. 3 & 4, Pipeline Road, Subash Nagar, Jeedimetla, near Little Star Heigh School, Hyderabad","17.5132015","78.4563222","true"
"ChIJ2wIT-wuQyzsRcJ6bH-06J1U","IndianOil","Survey No 193/EE, Quthbullapur, Hyderabad","17.5022532","78.4700275","true"
"ChIJq7S6aOeTyzsRHs_w7vqDPIk","IndianOil","Plot No, 7, Madhapur, Phase 2, HITEC City, Hyderabad","17.4439667","78.37686579999999",""
"ChIJ5_gEsvaQyzsRtXIiLCaPkTw","Amar Jyothi Service Station","1/A, Narsapur X Road, Door No. 6-3-131, Main Road, Bala Nagar, Hyderabad","17.4661711","78.4468381",""
"ChIJ40JFQG2RyzsRuoOhxt96mPw","NAYARA","FC44+Q77, Allapur Road, Allapur, Borabanda, Hyderabad","17.4569168","78.4056798",""
"ChIJHUITQG2RyzsR3EFVbTsWeqI","Haji Masthan Petrol Station","FC44+P7J, Jyothi Nagar, Gayatri Nagar, Allapur, Borabanda, Hyderabad","17.45684499999999","78.40563499999999",""
"ChIJg40Gu6yRyzsRJ6sLLDv9F_s","Shop No 3 Opp Gas Pump","Bus Stop, Site-3, Raja Nagar, Nrr- Puram, Borabanda, Hyderabad","17.4480095","78.4070737",""
"ChIJmY6gkwmRyzsROpZqmfHedrc","Bharat Petroleum - Shiva Shakti Fuel Station","Survey No 1011, 10, Moosapet Road, Kukatpally, Hyderabad","17.4687509","78.41362380000001","true"
"ChIJy_xZN06RyzsRspLg--8h0Zg","Ramesh Traders","H N 1, near Ifb, 4/1, Bhavani Nagar, Moosapet, Hyderabad","17.4676801","78.42617659999999",""
"ChIJt3v0vL2RyzsRnf-oRJqhX18","Bharat Petroleum Corporation ltd","opposite Gokul Theatre, No 7 2/1813, opposite Gokul Theatre, Sanath Nagar, Hyderabad","17.4544104","78.4349699","true"
"ChIJ-YrQ4OiRyzsRxJWskZ_R1j0","SAWARNA SONAJI MUDHGULE","66/88, Bhavani Nagar, Moosapet, Hyderabad","17.4711129","78.42699499999999",""
"ChIJ77afwGiRyzsR3sHSTqa79_A","Kumar","1-150, Bhavani Nagar, Moosapet, Hyderabad","17.4712191","78.4269039",""
"ChIJ-dqEbGiRyzsR4H8mflaBtX0","KALIM","12-33, Moosapet, Hyderabad","17.4711826","78.4269802",""
"ChIJL2KHqxmRyzsRxzM1QuJ9O9w","Moosapet Filling Station Bharat petrol/CNG pump","FCCG+FR7, Moosapet Road, Bhavani Nagar, Moosapet, Hyderabad","17.4711538","78.4270386",""
"ChIJUXo3W-GRyzsRInmDzZwTzvA","Sai Datta Enterprises","Thinu, Venkat Rao Filling Station, Plot No-5-150, X Road, Moosapet, Hyderabad","17.4712044","78.4269705",""
"ChIJb8NHU8eRyzsRM2z-19rdVh4","MD IZHAR ALAM","12-12, Moosapet, Hyderabad","17.47120049999999","78.4270059",""
"ChIJrQHRxTaRyzsRr8dq17Sl3Iw","Kakunoor Sreenu","Shop No500081, Hyderabad","17.4411513","78.3995805",""
"ChIJLVbueiiRyzsR3yb5Dihaf6I","Hindustan Petroleum Corporation Limited","Survey No 123, Yousufguda Police Lines, Hyderabad","17.4359794","78.4274058","true"
"ChIJUWQ7NfaRyzsRnRNscUjzpEQ","Faiyaj Refilling","Sri Krishna Nagar, Yousufguda, Hyderabad","17.4362129","78.4290911",""
"ChIJiXkgcNKRyzsRL8aKjoKIuD0","BhagyaNagar Gas Limited","8-3-279/A, Sri Krishna Nagar, Yousufguda, Hyderabad","17.4360995","78.4290015",""
"ChIJM4rIMqOZyzsRQ-nmrMbc79U","IndianOil","Sy No 41 & 42, Plot No: 25, 36 & 37, Kavuri Hills, Guttala_Begumpet, Hyderabad","17.440435","78.3982565","true"
"ChIJAU4XJGiRyzsRojlwjhHiHUA","ANDESHWAR KUMAR Petrol Pump","Ms Service, Hyderabad","17.4403267","78.3983131",""
"ChIJMYe-AkSRyzsRg3h2bWZyxQo","Sonu Kumar Petrol Pump","Shop No500033, Hyderabad","17.4401866","78.3983899",""
"ChIJBcDOGi2RyzsR26QQ7_JkPwk","Anil Kumar","Shop No500081, Hyderabad","17.4402758","78.3982561",""
"ChIJIY_cUFeayzsRdKnzxpS87ls","Hindustan Petroleum Corporation Limited","Detention Barracks, DNo 3/10/4, 28/3, Subhash Nagar, Tirumalagiri, Secunderabad","17.4708543","78.5096674","true"
"ChIJ01RR0rubyzsRUve6yB15NyE","Hindustan Petroleum Corporation Limited","Sy No 875, D No 26/70/1 &71, 1 & 876/1, Chanakyapuri, Safilguda, Hyderabad","17.4605514","78.5351315","true"
"ChIJseGNzmCayzsRHmZKNUNGD5E","IndianOil","Sy No 82/1, Agricultural Ma Committee, Bowenpally","17.469431","78.4955611","true"
"ChIJw1XDbFuayzsRn2VhPuL45lo","Hindustan Petroleum Corporation Limited","Survey No 54, 1, Tirumalagiri, Secunderabad","17.466","78.50496","true"
"ChIJ4cU4OY2ayzsR9YZ_uMUxNKI","IndianOil","Survey No 385, Ranga Reddy, near Secunderabad, Military Dairy Farm Road, Hydarabad","17.4851206","78.4969205","true"
"ChIJq6qq-j2byzsRqHDyF4vdsI4","Hindustan Gas Company","alvf. hdt, B D, Sai Nagar Colony, Alwal, Hyderabad","17.5000041","78.508697","true"
"ChIJyfm4mrubyzsRptQ-WcJc_4o","Nayara Petrol Pump","7, Old Neredmet - Malkajgiri Road, Surya nagar, Shivam Residency, Safilguda, Malkajgiri, Secunderabad","17.4623365","78.5370566","true"
"ChIJbxjZArmayzsRJp75znAn-ds","IndianOil","Sy No 542, H No 1, Old Alwal Road, Father Balaiah Nagar, Secunderabad","17.50646859999999","78.49481039999999","true"
"ChIJp35W-QibyzsR8Di5hP0zZcE","Bharat Petroleum Corporation ltd","No 242, Plot No, Sy, near Secunderabad Center, 5 & 6, Ramakrishnapuram, Malkajgiri, Secunderabad","17.4805985","78.534567","true"
"ChIJ06UpxaiayzsRTeK_htsMnRc","Hindustan Petroleum Corporation Limited","Survey No 42/1, NH 7, Hyderabad Nagpur Road, Petbasheerabad, Quthbullapur, Hyderabad","17.5114095","78.47993319999999","true"
"ChIJda6IsJmbyzsR39Tpjk9njJk","IndianOil","Sy No 329/1, Brundavan Colony, Old Safilguda, Neredmet, Hyderabad","17.4686105","78.5467007","true"
"ChIJqfpaFz6byzsRsTNmMYftcA0","Hindustan Petroleum Corporation Limited","Survey No, 184 & 195 Alwal, Yapral, Secunderabad","17.5019401","78.5390017","true"
"ChIJPYQZVz6byzsRNpq3TE1WFds","Essar Petrol Pump","GG3Q+FXP, Employees Colony, Bapuji Nagar, Yapral, Secunderabad","17.5037188","78.5399453","true"
"ChIJVVVVynOayzsR-CmgM4T7feo","IndianOil","H No 2, S No 67/4 70/4, 3, 1 Taiwapura, Tar Bund, Bowenpally","17.455312","78.483186","true"
"ChIJ3c-eZHKayzsRZ3TraNVz_Zs","PrimeFuel Auto Gas","Sy. No. 180, Brig Sayeed Road, Tadbund, Secunderabad Hyderabad","17.4546626","78.48595519999999","true"
"ChIJYUxxKvKbyzsR5NsP_3yg6xM","Nitrogen Air Filling station","5-57/58/59, Gundla Pochampally,, Near Trinetra Warehouse, Secundrabad, Tar Bund, Hyderabad","17.4557269","78.48319900000001",""
"ChIJcVAQKlibyzsRRbjwqwBcwUc","IndianOil","No 95 Secunderabad, Sarojini Devi Road, Hyderabad","17.4436019","78.48810329999999","true"
"ChIJybsle1ucyzsRM1jnIkPf-OI","IndianOil","Sy No 249, Prisoners Agricultural Colony, Ghatkesar, Cherlapalli, Hyderabad","17.4715319","78.5947484","true"
"ChIJvfCQwjibyzsRhNA9HtN1Bk4","IndianOil","PN 1112 & 1 Sy No 317 318/457 & 458, Keesara, Kapra, Secunderabad","17.4765674","78.5658277","true"
"ChIJM9ZKdn-cyzsR5HsU8r5x5ww","Essar Petrol Pump","1-7, 96/2, Doctor AS Rao Nagar Road, South Kamala Nagar, Kamalanagar, Anupuram Colony, Moula Ali, Secunderabad","17.4765684","78.5676034","true"
"ChIJGV6RcUecyzsRH_hlw6LEUxU","IndianOil","Sy No 184185 & 186, Phase 5, Cherlapalli Industrial Area, Hyderabad","17.4585016","78.59688820000001","true"
"ChIJq9idiPWcyzsR-pXpN2xaf5g","Hindustan Petroleum Corporation Limited","S No 310, Plot No 60 to 65, Nagaram, Secunderabad","17.4810225","78.5923487","true"
"ChIJ-R-kApWcyzsRl6GGDqLvkwY","Bharat Petroleum Corporation ltd","near Chowrasta, Survey No 160 Saket Road, near Chowrasta, Kapra","17.5007595","78.5861745","true"
"ChIJSRozTQCbyzsR14_ppw18lfk","AMR PLANET Charging point","near Reliance Fresh, 858/10, Eshwar Nagar Colony, Moula Ali Hill, Moula Ali, Hyderabad","17.4634507","78.5605908",""
"ChIJT_xcc8mbyzsR8Tc2KVVbSfc","Raju Service","Anandbagh, Secunderabad","17.4548479","78.5453086",""
"ChIJCZfZ54ibyzsRINARGm7xsCw","Dev N Dev Filling Station","SP Nagar Road, SP Nagar, Eshwar Nagar Colony, Mehdi Jung Colony, Moula Ali, Secunderabad","17.4651512","78.5619517","true"
"ChIJCZfZ54ibyzsR6p1P2tDdRE8","IndianOil","Sy No, 374, ECIL Main Road, Moula Ali, Hyderabad","17.46520539999999","78.561937","true"
"ChIJPVf0koibyzsRj7mGzbLDZU4","IndianOil","Ground Floor, Moula Ali, Hyderabad","17.4660219","78.5625003","true"
"ChIJTcitCgCVyzsR5UXN7dwSMAA","Green Gas Indian Oil Petrol Pump","Sy No 181/1, H No 3/4/97, Nacharam - Mallapur Road, Uppal, Hyderabad","17.4467143","78.5680601",""
"ChIJg53T54WbyzsRQwvhJximGkM","Hindustan Petroleum Corporation Limited","Sy No 357, PN 42/601, 1 357/3 & 357/4, Moula Ali, Hyderabad","17.4677494","78.564145","true"
"ChIJBz__24ebyzsRU9_p1B1llYA","Loyal Pump and Pantry HP Fuel Station","42-601, ECIL Main Road, SP Nagar, SSS Tower, Mehdi Jung Colony, Moula Ali, Secunderabad","17.4678025","78.5642495","true"
"ChIJ6cGnQQCbyzsRotMfv52UDTY","Bharat Petroleum Corporation Ltd., BP - Nacharam, బిపి - నాచారం","21, Nacharam - Mallapur Road, Industrial Development Area, Nacharam, Secunderabad","17.44159299999999","78.5658224","true"
"ChIJnx0zkKCbyzsRavpUlWXfPxo","Nacharam Filling Station","Survey No 51, PART), IDA, Plot No 1B & 2, beside Maruti Mitra Service Center, Nacharam, Hyderabad","17.441159","78.56507959999999","true"
"ChIJubrBfnubyzsRtVbe4RZj6Ow","MaheshGoud FUEL","IDA Nacharam Road Number 12","17.4410458","78.5650785",""
"ChIJlWRGHw-byzsR4FVh16RA4QU","NARSIMHA INDIAN OIL","1/2B, IDA Nacharam Road Number 12, Secunderabad","17.4410643","78.5651271",""
"ChIJUyqmCdWbyzsRjk7u8n76nSU","Krishna Reddy Fuel","IDA Nacharam Road Number 12, Nacharam","17.4410375","78.5650785",""
"ChIJhUxDnBebyzsRdHSuL7nbm4k","MANIKYAM VEERAPPA","IDA Nacharam Road Number 12","17.4410119","78.56504120000001",""
"ChIJtVYW7fubyzsRfne6xPq0eKU","Hindustan Petroleum Corporation Limited","Survey No 50, IDA, Uppal, Plot No 7/3, Nacharam, Hyderabad","17.4389828","78.5595367","true"
"ChIJyfeIqxibyzsRdR0S1ft3KLs","Raj Kumar Chatial","Raj Kumar Balighai, East, Midnapore","17.451655","78.539928",""
"ChIJW6vBS-2byzsR3RTJgijTtrA","UMA INDIAN OIL","beside D Mart, Main Road, Old Safilguda, Hyderabad","17.46851999999999","78.5469835",""
"ChIJQWAQBACbyzsRPp5beuWWrho","HPPertolpump","FH98+Q67, New, Muncipal Office Ln, SSS Tower, Mehdi Jung Colony, Moula Ali, Secunderabad","17.4691659","78.5658073","true"
"ChIJh8koV52byzsRkLJbptwFplM","Hindustan Petroleum Corporation Limited","Ground Floor, beside Depot, Kamalanagar, Kushaiguda, Hyderabad","17.4693192","78.5657964","true"
"ChIJ6Wa19PubyzsRvcxndVwcC9A","NAYARA","India","17.4383274","78.55899370000002",""
"ChIJyX-XKhqbyzsRQqfzV73q7Hc","Essar petrol pump","Industrial Development Area, Nacharam, Secunderabad","17.4383203","78.5589785",""
"ChIJgWQBz5ebyzsRxbiMgyxt3h0","Shree santhoshimaa filling station essar pump","Post Ramakrishnapuram Post Neredmet Sector 3, Brindavan Residency, Santoshimaa Colony, Old Safilguda, Neredmet, Secunderabad","17.4685061","78.5451862","true"
"ChIJ01u2beebyzsR4PBvceHO4MY","Go Gas","CGQV+VW4, Moula Ali Road, Indira Nagar, Malkajgiri, Secunderabad","17.4396345","78.5448251","true"
"ChIJf0K0yFWbyzsRClXcFa3K71A","Auto Service","30 1168, Vinayak Nagar, Hyderabad","17.4688393","78.5422854",""
"ChIJv6luX4ebyzsReAqZnl-0y3c","BS COMMUNICATIONS","SHOP NO 1, Moula Ali, Secunderabad","17.472876","78.56587209999999","true"
"ChIJdUL4GB-byzsROdwEUxDnKro","BHARATH HP PUMP","Yadav Nagar Main Road, Malkajgiri, Secunderabad","17.4477567","78.53594930000001",""
"ChIJLT0BNm2cyzsRvdMnGu-kHks","NUCLEAR FUEL COMPLEX","FH4H+RHC, NFC North Gate Road, ECIL, Cherlapalli Industrial Area, Moula Ali, Secunderabad","17.4570591","78.5788773",""
"ChIJK_hMx-SbyzsRfM3sS5z1poY","HYDAR service","Malkajgiri, Hyderabad","17.4473175","78.5358122",""