place_id,name,address,latitude,longitude,open_now
"ChIJ-1Cm3oH8zDsRIt7Scw_q1hc","IndianOil","Survey No 715 & 716, Lock No 113/D1D, Kamareddy - Sircilla Road, Sai Nagar, Karimnagar","18.3803782","78.79695679999999","true"
"ChIJp3rBv8D8zDsRKuVGQaHWW4s","IndianOil","Jyothinagar, Yellareddypet","18.4062946","78.81992819999999","true"
"ChIJkcCgH4r7zDsRG9sTyr48tC0","IndianOil","Lock No D1/111, A2/6, Peddur","18.3740445","78.7757187","true"
"ChIJ6T-Gztf7zDsRUYReGMNbvho","GOLDEN FILLING STATION","GOLDEN FILLING STATION, Kamareddy - Sircilla Road, Peddur","18.3744545","78.7756868",""
"ChIJbbJE8E_7zDsRGTFX47HWIiU","Hindustan Petroleum Corporation Limited","Ground Floor, Kamareddy - Sircilla Road, Sircilla","18.36914699999999","78.768241","true"
"ChIJfzruDPb7zDsRwGZ-jtUnUPw","HP PETROL PUMP","HP PERTOL PUMP, Sircilla","18.3689078","78.7674753","true"
"ChIJwbqJZN77zDsREplKA6RtqA4","IndianOil","Ground Floor, near Markedyar, Mustabad - Sircilla Road, Sardapur","18.3613973","78.75563009999999","true"
"ChIJG9VKxpL9zDsRshz4MCHAHxI","Madhu Filling Station","4, Kamareddy - Sircilla Road, B.Y Nagar, Rajanna Sircilla, Sircilla","18.38604609999999","78.797744",""
"ChIJ5eWryNT9zDsRNl84QV3iH5M","District Administration Filling Station - Sircilla","opposite Medical College, 2nd bypass, Peddur","18.3858183","78.76116739999999","true"
"ChIJM7gg2Vj7zDsRUzI3ep4wzkY","Hindustan Petroleum Corporation Limited","Survey No 238, Thangallapalli","18.3550229","78.8146859","true"
"ChIJVy5IRoT7zDsRhlRT9cJVHsU","Vishwaa sai filling station","9R27+4WM, Thangallapalli","18.3503485","78.8148109",""
"ChIJ1wkvewD9zDsRD_k6BV2yZYo","Hindustan Petroleum Corporation Limited","Survey No 120, 1, 1, Rajanna, Mushtipalli","18.399798","78.785203","true"
"ChIJDVt3PQD7zDsRkcYU_9Pi7u8","""Nayara energies ROCKY BODAPATLA"" FUEL STATION","8RR6+VP8, Baddenapalli","18.3421653","78.8118295",""
"ChIJF8SRKJD9zDsRhUwazHzS7M0","Dharmapuri Onion Marchent","Shop No 11, 11, Market, Kamareddy - Sircilla Road, Rajanna Sircilla","18.3870429","78.8103916",""
"ChIJB6IGOFr5zDsRUOGkQOnVK-A","Bhara Petroleum","India","18.3629689","78.7405564",""
"ChIJeXboH2f9zDsR-mOV1Vg3tus","Sri Lakshmi Venkateshwara service station â›½","Vidyanagar, Sircilla","18.391126","78.8100899",""
"ChIJR7DTV6r9zDsR0-h1ZD71204","IndianOil","Sy No 517 & 518, Siddipet Road, Vidyanagar, Karimnagar","18.3834447","78.81832",""
"ChIJtQNOWZf8zDsRWEhjy93UncU","Old Petrol Pump","Samudra Lingapoor Road, Padma Nagar, Shanti Nagar, Sircilla","18.3930279","78.810965","true"
"ChIJre95dS37zDsRy64Scvdu7N8","IndianOil","Sy No 555/2 Thangallapally, Baddenapalli","18.3311892","78.80865969999999","true"
"ChIJ534PvqD8zDsRQl4EGz4-XXI","Bharat Petroleum, Petrol Pump -Sunrise Quality Fuel Point","Bypass Road, Sircilla","18.3826688","78.8199044",""
"ChIJGcW8b0r9zDsRtUMqyiyTOJE","IndianOil","Sy No 517 & 518, Siddipet Road, Vidyanagar, Karimnagar","18.3826657","78.8199121","true"
"ChIJ6x6uUpb8zDsRcW0bR3628Hw","Hindustan Petroleum Corporation Limited","Survey No 1559, Karimnagar Road, Sircilla","18.3954198","78.81317609999999","true"
"ChIJBVidZ5f8zDsRGuwOe17eJz0","Sri Venkateswara Filling Station Indian Oil Petrol Pump","11, Vemulawada-Karimnagar Road, Padma Nagar, Shanti Nagar, Karimnagar","18.3963304","78.8138111","true"
"ChIJe6bUnGr5zDsR18DreajgWso","Hindustan Petroleum Corporation Limited","Survey No 979, Venkatapur Road, Yellareddypet, Karimnagar","18.366715","78.728972","true"
"ChIJvZEHcfL8zDsRGSeQN6M6jRM","Hindustan Petroleum Corporation Limited","Survey No 993, B & 999/C, Karimnagar - Sircilla Road, Chandrampet","18.4078679","78.8037549","true"
"ChIJpZIRcsj9zDsRT44-CURPQZ4","Hindustan Petroleum Corporation Limited","Survey No 1522 Ragudu, Sircilla Road, Karimnagar","18.402158","78.817973","true"
"ChIJlYA3vOb9zDsRJXEbl_IVqK0","Madhu Filling Station","512/H , Main Road Kolanur, Sircilla","18.4247636","78.7675185","true"
"ChIJ32UmxRn5zDsRgrWiG0TMjuk","Nayara petroleum bunk","Kamareddy - Sircilla Road, Venkatapur","18.3703435","78.7125373","true"
"ChIJxQS4sQf9zDsRtAGsMtW8wds","IndianOil","Sy No 1148, Bypass Road, Ragudu, Sircilla Rural","18.4165658","78.8247748","true"
"ChIJCScwK9v8zDsRF5kZfKZjKSY","NAYARA Petrol Pump","CR8G+89F, Ragudu, Sircilla Rural","18.4158062","78.82593640000002","true"
"ChIJczS8BgD9zDsRJW7Crk_mdDE","Sree Sai Ram filling station","9RR6+F24, Siricila to","18.391126","78.8100899",""
"ChIJ1e-q1JvlzDsRrH_x5J8sC5U","Bharath Petroleum","Unnamed Road, Obulapuram","18.3644451","78.9131665",""
"ChIJezKc7DX9zDsRzHZ4uSKikqU","BHARAT PETROLEUM RETAIL OUTLET PETROL PUMP","SH 11, Thettikuntta Village, Agraharam","18.43264289999999","78.834908","true"
"ChIJ_2wu4vv9zDsRDoeSuQ1uD-I","MUSHIKAM RANJEETH KUMAR","BHARAT PETROLEUM RETAIL OUTLET PETROL PUMP, SH 11, Thettikunta Village, Agraharam","18.4329415","78.83482020000001","true"
"ChIJVfeZpCHmzDsRbNuZW0vxcjc","Hindustan Petroleum Corporation Limited","Ground Floor, Ellantakunta","18.2997481","78.9535475","true"
"ChIJYxpCYwDnzDsRBBRBz9vYsTI","BHARATH PETROL","8W6X+96J, Ellantakunta","18.3104408","78.9492556",""
"ChIJA2fNmETnzDsRo9cpTQGTf4U","Bharat Petroleum Petrol Pump","8X74+77X, Kalvakunta - Kazipur Road, Ellantakunta","18.313228","78.955749","true"
"ChIJjdmwXfvhzDsRkeCoWdGHYwQ","S R Filling Station","Venkatraopally To, Road, Manwada","18.4044892","78.97158999999999","true"
"ChIJb_h6Kp79zDsRlx25I7ngnjg","IndianOil","No 198B/A, Suddala","18.4637557","78.8043613","true"
"ChIJ86ATV-_jzDsR1hQgL5uAYYs","IndianOil","Survey No 438, L No D1/192/C/5/1 Nampally, Vemulawada, Sthambhampalle","18.442201","78.843301","true"
"ChIJV462FQD_zDsRAkYnvjpMzFM","Petrol Filling station Bharath","FP9H+937, Nizamabad","18.46842029999999","78.7276639",""
"ChIJDyyi3ZPizDsR0gzQV9QRvLg","IndianOil","Lock No 102/D1 & F/3/3, Tippapoor, Sthambhampalle","18.4597979","78.86798639999999","true"
"ChIJP-K0n1sdzTsRs_Ub7qx_Edo","Hindustan Petroleum Corporation Limited","Survey No 1773, Korutla Road, Kanaipalle, Vemulawada","18.4858367","78.8540053","true"
"ChIJn6AgiPvjzDsRN7-pC0hQSLg","Bharat Petroleum, Petrol Pump -Sri Kedareshwara Service Station","Rd, Vemulawada","18.4562434","78.8689917","true"
"ChIJkUaOymPjzDsR0fjwZpg_JuU","HP petrol pump","State Highway 11, Vemulawada","18.4410013","78.8833399","true"
"ChIJG5YvJK3jzDsRErstZgDgWgs","Hindustan Petroleum Corporation Limited","Survey No 1343/1, SS Road, Vemulawada","18.4629612","78.86979819999999","true"
"ChIJRQHNog3jzDsR2bMlYKGn41M","LAXMI SAI FUEL STATION","Syno 1413,1415 2nd bypass , Vemulawada Rajanna, Sircilla","18.4720282","78.8568992","true"
"ChIJdSF8BSPjzDsRTII0hRUMsoE","SRR GTM Filling Station","1-12, Vemulawada","18.47447","78.8596249",""
"ChIJVbBlv8vjzDsRDfDX-kofH5k","IndianOil","Sy No 1787 & 88, Lock No 108/9, D1 & E/2, Korutla Road, Sthambhampalle","18.476407","78.858817","true"
"ChIJ2yoALoLizDsRF7w98yaIWqo","IndianOil","Lock No 182/D1, D/3/1, Vemulwada, Sthambhampalle","18.475969","78.87708130000001","true"
"ChIJtXpM-oEdzTsRkp0NpI2zB_g","SRR GTM FILLING STATION","3-67, korutla Road, Vemulawada","18.4857611","78.8541995",""
"ChIJUUtpTzAdzTsRPu7JErWVzIs","ANNAPOORNA FILLING STATION","Sarv No136, Korutla Road, Vemulawada","18.4857452","78.85448339999999",""
"ChIJ8RSoL3wdzTsRR9AqBEEA8-4","NAYARA PETROL PUMP","Vemulawada - Vattemula, Kondagattu - Jagtiyal Road, Vemulawada","18.4832535","78.8775927","true"
"ChIJ1YkNaocdzTsR_dfQmiqwj9c","Mahalaxmi Filling Station","Vemulawada - Vattemula, Kondagattu - Jagtiyal Road, Vemulawada","18.4836297","78.8776299","true"
"ChIJRekaWvjgzDsRMGWfpeEfgUY","Hindustan Petroleum Corporation Limited","Survey No 23, A & 23/B SH 10, Gangadhara, Oddyaram, Karimnagar","18.4358668","78.9829639","true"
"ChIJgdKeBWLhzDsRH8MbdrQ76ps","Seetha rama fuels","to, Karimnagar - Sircilla Road, Ellantakunta","18.4361474","78.933505",""
"ChIJO_RdXzDmzDsR54r-gdNKEvM","IndianOil","Survey No 82, B Hanumajipet, Vardavelli","18.4379766","78.94155359999999","true"
"ChIJAQDBGJ3hzDsRSWYYBCDFmL0","IndianOil","D1D, No 110, Kodurupaka","18.4379562","78.9416846","true"
"ChIJbb_2jY8DzTsR9MaAZgr5JB0","IndianOil","Lock No D1/258, A/3/4, Marrigadda","18.5566248","78.7808107","true"
"ChIJ3d6FkR8DzTsRC6X2iCmVD4E","Hindustan Petroleum Corporation Limited","Survey No 300, D Vemulawada, Hanmajipet","18.506109","78.804501","true"
"ChIJufBm7KADzTsRP-W7_3BW4j8","Vasundhara Filling Station ( ESSAR ), Petrol Pump","Hanumajipet, Mallaram, Sirikonda Road, Vemulawada","18.5033823","78.8076031","true"
"ChIJPQ_zDQADzTsRHirH_VMEf5k","PACS CHANDURTHI FILLING STATION","GRH6+PJQ, Mallaram","18.52934219999999","78.8116053",""
"ChIJ7dW5VLMBzTsR1cxtjeFR0Nc","Laxmi filling station","GP3M+949, Bavusaipeta","18.5034091","78.73285299999999","true"
"ChIJAW2yLwEBzTsRuLBrM9_ma0I","Hindustan Petroleum Corporation Limited","Survey No 397, D Konaraopet, Bavusaipeta","18.5147756","78.71944529999999","true"
"ChIJUS_huxgDzTsR6djqNjq10Uw","Hindustan Petroleum Corporation Limited","Survey No 506/A, Vemulawada Korutla Road, Chendurthi","18.562823","78.779491","true"
"ChIJLRI00JUFzTsRXxFtPMSBfN0","Bharat Petroleum Petrol Pump , UMA MAHESHWARA FILLING STATION","SY. NO.757 & 758VEMULAWADA ROAD","18.571558","78.77608","true"
"ChIJZQuDT1cczTsRD-SM06b3Hs0","Hindustan Petroleum Corporation Limited","Survey No 154, Kondagattu Vemulawada Road, Satrajupalle","18.5367722","78.8884925","true"
"ChIJz7-AgVcdzTsRZIqjDm8XOXU","Sri Raja Rajeshwara Filling station","Vattemula Road, Vattemula","18.544703","78.8942641",""
"ChIJbUnqIgAdzTsRytGS-L_xCTw","Bharat petrol","HV2V+HFF, Vattemula","18.5514885","78.89360049999999","true"
"ChIJk0A0Kg8dzTsRx0BL2VxxWio","SRI RAJA RAJESHWARA FILLING STATION","2-67, Kondagottu Road, Vattemula","18.5517355","78.8933547",""
"ChIJ7crAdekfzTsReEq9_o6LR6E","IndianOil","Sy No 577/C Boinpalli, Karimnagar","18.509216","78.932583","true"
"ChIJgXP86XEezTsRtgwa3pyiMyk","Hindustan Petroleum Corporation Limited","Survey No 284, 288/1 288/A1 & 288/A, Boinpalli","18.506383","78.93886499999999","true"
"ChIJS5WAxoLTMjoR-e7BZ9ODOrc","IndianOil","Ground Floor Peddapalli, near Bus Stand, Karimnagar","18.507539","78.97629239999999","true"
"ChIJ-35keT8fzTsRPHWPIoe4C4g","IndianOil","Sy No 574/G, Garsekurthi","18.5008754","78.9831014","true"