place_id,name,address,latitude,longitude,open_now
"ChIJW5e50wVYNDoRj7Mv-sjzG48","Hindustan Petroleum Corporation Limited","Ground Floor, Khammam Suryapet Road, SH 42, Warangal Cross Road, Gurralapadu","17.2439459","80.10426609999999","true"
"ChIJ8fk27oD4NDoRD3YT4uiQaGQ","IndianOil","Survey No 48, A1 & 49/A, Kodad - Khammam Road, Ammapeta","17.185755","80.094595","true"
"ChIJSTFhAtdXNDoRT4isNyPUWWI","Eshwar Petrol Station","54W2+QHH, Mudigonda","17.196931","80.101483",""
"ChIJqaqqqqpq4okRmuwTRxALgZs","Hindustan Petroleum Corporation Limited","Ground Floor, opposite Siddi Vinayaka Granites, Kodad - Khammam Road, Venkatagiri","17.20495159999999","80.10658289999999","true"
"ChIJ0weod9tXNDoRHXlSePlA4gw","B.V.R FILLING STATION","507003, Venkatagiri, Jubilee Hills, Hyderabad","17.2050099","80.1067365","true"
"ChIJNxQ-egNXNDoRGRkkD6WUnNQ","SRI VENKATESWARA FILLING STATION","Venkatagiri X Roads, Khammam","17.2131578","80.1142191",""
"ChIJ_5e97elXNDoRdqdv-IgNglw","ESSAR","6477+6M, Venkatagiri","17.213304","80.11415079999999",""
"ChIJta4zkoj3NDoRzx-z00j_d_8","Hindustan Petroleum Corporation Limited","Ground Floor, SH 42, Suryapeta - Khammam Road, Ponnekallu","17.2368885","80.0657726","true"
"ChIJocwuXgBXNDoRnK8QDjJDlxs","BVR petrol bunk","64FF+374, Khammam","17.22231","80.1235317",""
"ChIJCfGi-PP3NDoRblAvIA54Yqg","IndianOil","Lock No 21004, Madulapalli,Dabala Bazar, Khammam","17.239539","80.081028","true"
"ChIJBfwdJgD3NDoR4TDKdFOpMlE","Nayara petrol bunk","63QV+M6F, Khammam","17.2391852","80.093042",""
"ChIJs8pYSAD3NDoReecO3AYSLxE","Annapurna Filling Station","63QV+JPJ, State Highway 42, Khammam","17.238989","80.09423989999999",""
"ChIJ5ztB1R_5NDoR0DWZ6lPfkR8","SAKETH FILLING STATION","National Highway 365BB, Tallampadu","17.2251912","80.0372776","true"
"ChIJv_xMsuL3NDoREnm-BbI2dsA","Hindustan Petroleum Corporation Limited","Survey No 157, 1E2 SH 42, Suryapeta - Khammam Road, Maddulapally","17.240255","80.096097","true"
"ChIJb2c3UAD5NDoR3_RUDSry4zo","AMALA FILLING STATION","62HP+RG, Gopalraopeta","17.2297308","80.03591809999999","true"
"ChIJIV_YAblZNDoRCdNohV6Bxk0","Bharat Petroleum Petrol Pump , JAI KRISHNAA AUTO SERVICES","KODAD X ROADKHAMMAM RURAL MANDAL","17.243786","80.10338899999999","true"
"ChIJ-2Np4QRYNDoRIZhDt4rcx04","IndianOil","Ground Floor, Dabala Bazar, Gudurupadu","17.243544","80.10772899999999","true"
"ChIJ98QnSo9XNDoRPfhNwDVMEIQ","Hindustan Petroleum Corporation Limited","Survey No 219, Venkatagiri Road, Praksh Nagar, Khammam","17.229954","80.13042399999999","true"
"ChIJeXqMvjFZNDoRQTIrgjfTu2I","Adil Tyre Works","6-164/2, Warangal X Road, AutoNagar, Khammam","17.2458957","80.10447289999999",""
"ChIJbd-hyntXNDoRoGerFRb6fPA","Purna Balaji Filling Station","Mustafa Nagar, Khammam","17.2284929","80.1497926","true"
"ChIJa8p-R4dXNDoRLINi3U4B3rw","Bharat Petroleum","64PP+2HR, opposite st. joseph school, Praksh Nagar, Khammam","17.2351029","80.1363879","true"
"ChIJa85ekshVNDoRvESRoKF95As","Hindustan Petroleum Corporation Limited","No 515/2, Vallabhi Road, Krishnapuram, Khammam","17.1233094","80.1328772","true"
"ChIJ-Z2Rg9ZZNDoRNRRdL2x4Q9M","Hindustan Petroleum Corporation Limited","D No 5/6/1 & 5/6/1/B, Bonakal - Khammam Road, Pakabanda Bazar, Khammam","17.240661","80.14876100000001","true"
"ChIJdUWXEc1ZNDoRHJpe_vw_-bY","Balaji Service Station","Wyra Road, Khammam","17.2505748","80.14483330000002","true"
"ChIJry7ecPtZNDoRqPC6_pxdssY","IndianOil","Survey No 497 & 75E, Bhuranpuram","17.245242","80.178702","true"
"ChIJl3yxtjFYNDoRRjtbtcJJ8wY","Hindustan Petroleum Corporation Limited","Ground Floor, Trunk Road, Moti Nagar, Khammam","17.2499701","80.13489009999999","true"
"ChIJ0VT9QDBYNDoRyNHm2zkLK_E","Bharat Petroleum Bunk","Ramachandra Nagar Colony, Moti Nagar, Khammam","17.24976819999999","80.13331749999999","true"
"ChIJ7zh4tcNWNDoRfkH264Rjo7E","IndianOil","Sy No 777/A, Bhuranpuram","17.185185","80.16385199999999","true"
"ChIJo3zR2N9XNDoRukRuzbhQCCA","IndianOil","Survey No 746, AA & 747, Dabala Bazar, Dhamsalapuram","17.1957659","80.158355","true"
"ChIJ36OljaBXNDoR-M_WFYxzKSQ","Sri Ramachandra Filling Station","Khammam Road, Dhamsalapuram","17.1957278","80.1587875","true"
"ChIJYTGfFRJXNDoRMC0lMuY2AI8","Hindustan Petroleum Corporation Limited","Ground Floor, Bonakal Road, Khammam","17.2095244","80.1553381","true"
"ChIJMWn619VXNDoRNb4nBsEaOGI","Hindustan Petroleum Corporation Limited","S No 108, 2/1, Bonakal - Khammam Road, Chintakani","17.156681","80.174925","true"
"ChIJM8icUQBXNDoRC2z6X0U9EwA","Hindustan Petroleum Corporation Limited","Survey No 59/VUU, Allipuram Road, Khammam","17.2259922","80.1582722","true"
"ChIJATjTzopXNDoRU6AVY-QNGqc","Vinayak Service Station, nayara petrol pump","65J3+PF4, Mustafa Nagar, Khammam","17.231788","80.15359939999999","true"
"ChIJl2jzbwBXNDoRulS-tl7un5A","Nayara Fuel Station","65J3+PFG, Pakabanda Bazar, Khammam","17.23181169999999","80.1537012","true"
"ChIJJQDEROpVNDoRPCvZ9OZ1xuU","IndianOil","Sy No 507, Aa Vanam Vari, Kistapuram, Bhuranpuram","17.124997","80.132071","true"
"ChIJTTySDb9ZNDoRE8kutk5y6Lw","IndianOil","H No 8/6/131, 8/6/149 8/6/132, Bhuranpuram","17.24228799999999","80.149253","true"
"ChIJCd2WgyJZNDoRnujsrPb842E","Bharath Petroleum","65R6+Q49, Mini Tank Bund Road, Manikya Nagar Basti, Khammam","17.2419182","80.1603727","true"
"ChIJY5VmBABZNDoRA5mJkC4dO6U","Jai Guru Datha Gas Agencies","beside SAI BABA TEMPLE, 16-7-MA0010, Road Number 12, Madhura Nagar, Sri Nagar Colony, Khammam","17.2390438","80.17406489999999",""
"ChIJudZ4cOdRNDoRTIBOipOhj7w","IndianOil","Survey No 334, AA, Kodumuru - Lachagudem Road, Ananthasagar","17.19085399999999","80.2153392","true"
"ChIJZwO8nt5ZNDoR-6auA60UUoM","IndianOil","Survey No 81, Mamatha Hospital Road, Khammam","17.2430029","80.1612718","true"
"ChIJ59Mu7eZZNDoR8g8JrYwucPU","Hindustan Petroleum Corporation Limited","Survey No 112/A, near Milk Dairy, H.No : 4-2-604/1, Wyra Road, Radhakrishna Nagar, Netaji Nagar, Raheem bagh, Khanapuram Haveli","17.2460501","80.1693401","true"
"ChIJNyHCMaVZNDoRZhFpzsdFwjI","Bharat Petroleum","742P+4CC, Moti Nagar, Khammam","17.2503157","80.13601980000001","true"
"ChIJ8SIuBQtZNDoRAs4cVxqea1g","Bharat Petroleum Petrol Pump - Prerana Filling Station","7524+GQ6, Wyra Road, Indira Nagar Colony, Khammam","17.2512917","80.15666590000001","true"
"ChIJjwyy-sRZNDoRZpJt6iFZakE","Hindustan Petroleum Corporation Limited","Ground Floor, Wyra Road, Khammam","17.251495","80.157515","true"
"ChIJnZ_PVABZNDoRckh9NFN8WvA","Saiprabhath nagar junction","64W9+259, Khammam-Warangal-Karimnagar-Nizamabad Road, Saiprabhath Nagar, Khammam","17.2450295","80.11798759999999",""
"ChIJ-YMi5eFPNDoRF7lPqlL2bZY","bharath petroleum","67GG+2WM, Khammam","17.2250807","80.2772894",""
"ChIJdwiw2_tRNDoReQCdutT6ux0","Hindustan Petroleum Corporation Limited","Survey No 755, VU/1, Konijerla, Pedda Gopathi","17.17010459999999","80.2588683","true"
"ChIJO4WoBTlTNDoR4J7J4-sJ_R4","Hindustan Petroleum Corporation Limited","Survey No 18, A/1, Chintakani","17.131022","80.2057057","true"
"ChIJx59Di1tRNDoRGWCPrxomToU","IndianOil","Survey No 552 & 554 Ammapalem, Anantharam","17.237546","80.238851","true"
"ChIJCWTgQABRNDoR5ec9NJfiUXE","Bharat Petroleum","66PV+P4, V.Venkatayapalem","17.2368529","80.2427925",""
"ChIJHe324x9RNDoRln4IFzqPc-A","Indira Petroleum","near vijaya engineering college, Thanikella","17.2368584","80.24278950000001",""
"ChIJKX8E_RFQNDoR8mErFhSVFr0","Hindustan Petroleum Corporation Limited","Ground Floor, SH 42, Khammam Rajahmundry Road, Thanikella","17.2309406","80.2601301","true"
"ChIJWUs_e9BbNDoRLj6iwQJO-ck","IndianOil","Lock No LG 4064 Velugumatla, Ballepally","17.2441909","80.2063143","true"
"ChIJ6zey8AhaNDoRJuBjMsKbcdg","LPG Gas Petrol Bunk","Khammam - Sathupally Road, Khammam","17.2428908","80.2006262",""
"ChIJ6XHIuQ5YNDoRkAdddS8XE4A","Sri seshadri auto fills Petrol Bunk","Ground Floor, near Khammam Bypass Road, Warangal Cross Road, Jintal, Khammam","17.251351","80.10470099999999","true"
"ChIJ84qstW1YNDoRLvabMd1U5dU","Hindustan Petroleum Corporation Limited","Ground Floor, Auto Nagar, Khammam","17.2631177","80.1119038","true"
"ChIJef1raxVYNDoRWvx3sm5wV2I","Nava Durga Auto Fills","Nayudupet, Khammam","17.2573573","80.1192473","true"
"ChIJoabbWrRZNDoRPS1dIyHfeiw","Hindustan Petroleum Corporation Limited","Ground Floor, Khammam Bypass Road, Raparthi Nagar, Khammam","17.2642209","80.14628909999999","true"
"ChIJc8qdbbZZNDoRcWhkXEedBp4","Bharat Petroleum","Raparthi Nagar, Khammam","17.2621565","80.1491977",""
"ChIJ35VrKABZNDoRf81juUkE2A4","Nayara Organ petro Hub","7424+83V, Khammam","17.2508527","80.1051854",""
"ChIJEYlLibVZNDoRKRfibo-_FS4","ORGAN PETRO HUB","Organ petro hub, 325/sa, junction, Yedulapuram","17.2512451","80.1054615",""
"ChIJWfU-Yw5YNDoRSq5c1zWY920","IndianOil","RS No 327, Aa2/Aa Edulapuram, Arekodu","17.2518936","80.1068574","true"
"ChIJT29dq99ZNDoRobvrmKOt9Oc","Bharat Petroleum, Petrol Pump -Lakshmi Balaji Filling Station","YEDULAPURAM NEAR WARANGAL, Khammam","17.2512731","80.1079069","true"
"ChIJhwoXLQBZNDoRyGhd9p8FH4o","Ad Blue","7438+9PJ, Naidupeta, Nayudupet, Khammam","17.2537059","80.1169317","true"
"ChIJq4-jUgBZNDoRP8eufskmzjs","Hindustan Petroleum Corporation Limited","Survey No 138/E, Khammam-Mahbubabad Road, Yedulapuram","17.2580994","80.1162602","true"
"ChIJi_DRHCRZNDoRjSBivTFuuEM","Bharat Petroleum Bunk","64W9+777, Saiprabhath Nagar, Khammam","17.2456616","80.1181787",""
"ChIJS0sTqRZZNDoRIIdLUEelOLU","Bharat Petroleum Petrol Pump , NIRMALA FILLING STATION","SV NO 147/A1 PALLEGUDEMMV PALEM GRAM PANCHAYAT","17.287155","80.10785","true"
"ChIJC0Vkm0NYNDoRkbtqv0rcy9k","Bharat Petroleum","India","17.2677532","80.12529479999999",""
"ChIJOYBriNdZNDoRyaE_OYkZDdI","Bharat Petroleum, Petrol Pump -Lakshmi Manikanta Filling Station","Khammam Bypass Road, karunagiri, Khammam","17.2678103","80.1253","true"
"ChIJscv_gedZNDoR2e8bohvahXE","SUPERGAS Auto LPG Station - VENKATARAMANA AUTO GAS STATION","1 & 17, Survey No: 181, plot no â€“ 2 &18 and, Bhuranpuram","17.2620266","80.1342425",""
"ChIJqfuaZi5ZNDoRzCpbWvJotBE","IndianOil","Ground Floor, Burhanpuram Road, Ballepally","17.2640301","80.13489700000001","true"
"ChIJeRcv0RpWMToR_GIfS1I4uX8","Hindustan Petroleum Corporation Limited","Survey No 138, 4 Manuguru, opposite Police Station, Khammam","17.2548575","80.1392383","true"
"ChIJmdYOFABZNDoRPiQMleaNjuA","Civet consumer bunk","74FM+QQH, Dhanavaigudem","17.2744472","80.1344842",""
"ChIJZeSrNQD3NDoRS10TNGsYULM","MRVNS FILLING STATION","8333+7FC, Chintapalli","17.3031767","80.05362559999999",""
"ChIJH950yTpZNDoR8NXGtq-_t64","IndianOil","Ground Floor, Bhuranpuram","17.252201","80.143384","true"
"ChIJRyim6xNZNDoR4euip9nedio","Khammam room","H No, 11-9-32, Bhuranpuram","17.2576739","80.1440047",""
"ChIJey6CtVhZNDoRn_TNAJoQ3Yo","Annapurna Filling Station (Aegis Autogas)","1-5, Raparthi Nagar, Jalagam Nagar, Khammam","17.2628964","80.1488545","true"
"ChIJLSk_ewBZNDoRvUyJ_jc4YZI","Bharat Petrol Bunk","7542+G3R, NST Road, VDO's Colony, Khammam","17.2563705","80.1502811",""
"ChIJ5xYp_rdZNDoRvmQgqu9a2tw","Hindustan Petroleum Corporation Limited","Ground Floor, Khammam Bypass Road, Bhuranpuram","17.2608044","80.1538195","true"
"ChIJHbMOW9RbNDoR8AU5YOausqw","BHEEMLA FILLING STATION","Raghunathapalem Khammam (urban) Mandal, Yellandu Road, Warangal","17.2895","80.19122999999999","true"
"ChIJQ1P-eB9ZNDoRQ8W7oMaZAIY","Hindustan Petroleum Corporation Limited","Survey No 227, Khammam - Yellandu Road, Khammam","17.254947","80.161735","true"
"ChIJkTyvY99ZNDoRHTWs4RsfDe0","IndianOil","Survey No 225 & 226A, Khanapuram, Bhuranpuram","17.256684","80.162808","true"
"ChIJGSFmnsJZNDoRkcb0448wNe4","IndianOil","Lock No IG4106, opposite Dist, Kaviraj Nagar, Ballepally","17.25139279999999","80.1649053","true"
"ChIJI-aw9uNZNDoRqd0onU_he-c","Hindustan Petroleum Corporation Limited","Survey No 207, Bypass Road, Khanapuram Haveli","17.2535255","80.168536","true"
"ChIJOydzS2hZNDoR_F7ZXGWvswc","Hindustan Petroleum Corporation Limited","RS No 230/E, Khammam - Yellandu Road, Ballepally","17.2700511","80.17591259999999","true"
"ChIJGakv3ttZNDoRdphUccwgtGE","Bharat Petrol Station","7-65, Ballepally","17.2707487","80.17651169999999","true"
"ChIJvaOBBwJaNDoRXcgvsFVjkk8","V V MOTORS MAHINDRA","Suryapeta - Khammam - Aswaraopeta Highway, Tekulapalli, Velugumatla","17.2449942","80.18731",""
"ChIJ99yvPgBZNDoRcvzkIo1IWh8","IndianOil","Survey No 504/1, Dabala Bazar, Gudurupadu","17.286621","80.145185","true"
"ChIJn2ec6WFbNDoRzRRUkxs-1Ss","Bharat Petroleum, Petrol Pump -Tene Venkateshwarlu Filling Station","RAGHUNADHAPALEM, Khammam - Yellandu Road, Khammam","17.2896277","80.1917337","true"
"ChIJh30GW9RbNDoRrySPv4jud7k","Hindustan Petroleum Corporation Limited","Ground Floor, Khammam - Yellandu Road, Raghunadapalem","17.289518","80.191237","true"
"ChIJtQyaPQBPNDoR1o1-LA_fK_E","Konijerla kaaluva","1-55, Vandanam","17.22468","80.27962",""
"ChIJi8PRhIlPNDoRmbIZnGTRWq8","Nayara Petrol Bunk","67FH+RV9, Konijerla","17.2245265","80.279733",""
"ChIJHRvIh7D1NDoRm7fmjrO6BzE","Hindustan Petroleum Corporation Limited","Survey No 73/A Khammam, Road, Kuravi","17.3542377","80.0652623","true"
"ChIJW33dSL32NDoRUAyTx-7zpGI","IndianOil","Lock No 263, D1 Thirumalayapalem, Arekodu","17.312408","80.030125","true"
"ChIJH1SYSAD3NDoR3OxLPWH9eqo","Petrol bunk","82C7+JWW, Pindiprolu","17.3216202","80.01481849999999",""
"ChIJ9SjVxp5ZNDoR9ue1dta9RQE","Hindustan Petroleum Corporation Limited","Survey No 210/E, 1/1, Kamanchikal","17.311152","80.149062","true"
"ChIJjfZJtoZeNDoRAsk2G6YpAao","Hindustan Petroleum Corporation Limited","Survey No 349, Papatapally","17.374676","80.181635","true"
"ChIJfeOt2gNdNDoRaeT0Hdv1F4c","Pushpa Filling Station_indianoil","Khammam - Yellandu Road, main road, Manchukonda","17.3391909","80.2184633","true"
"ChIJSaw1RWJcNDoRvAMPXysdLBo","IndianOil","Manchukonda","17.3500747","80.2301548","true"
"ChIJCVoz6h9dNDoRo6F9l5ilzqo","Hindustan Petroleum Corporation Limited","Ground Floor, Khammam - Yellandu Road, Kommenapally","17.372934","80.2322301","true"