place_id,name,address,latitude,longitude,open_now
"ChIJ63bjjEckyjsRiCqmepfq8FA","Bharath Petrol Bunk","Boothpur, Potulamadugu, Mahbubnagar","16.691522","78.0427541","true"
"ChIJy3B7VgEhyjsRoOulpcatqJQ","Hindustan Petroleum Corporation Limited","Survey No 480 Addakkal, Hyderabad BNG Hwy, Janampeta","16.61380699999999","77.97866669999999","true"
"ChIJcaKUnk0hyjsRn2xtSPEyjOw","Bharat Petroleum","India","16.6533922","78.006863",""
"ChIJCY7rm00hyjsRjd6QOVI8wt0","Sri Ala Sai fuel filling station CNG filling station","Hyderabad - Bangalore Highway, Annasagar","16.6531101","78.00696210000001","true"
"ChIJV-uBTxkkyjsRFfMFKfCxpe8","IndianOil","Sy No 102/A, NH 7, Addakal","16.675452","78.02645799999999","true"
"ChIJBSLlE1clyjsRwbQUsHCbv64","SUPER PURE FUELS","S No -133/U, National Highway 44, Pothulamadugu","16.6915111","78.0429845",""
"ChIJGxRhr84lyjsR7oOxarTSzwQ","SUPER PURE FUELS","U NH 44, Plot N0 133, Pothulamadugu","16.6924492","78.04242119999999",""
"ChIJ5X_FESclyjsRw5OLTo0blhM","Bharat Petrol Bunk","P27J+G7M, Bhoothpur Road, Amistapur","16.7138483","78.03066369999999",""
"ChIJQdsw8lEkyjsRnzTd6Izwmxw","Ashirwaad fuels (BPCL)","near Bharath Petrol Pump, 1-2, Ngkl Road, Bhuthpur","16.6990679","78.0549143",""
"ChIJwY1GXWYlyjsR8VW_xSM7oeA","IndianOil","Sy No 364, 1C, Addakal, Bhuthpur","16.695601","78.058801","true"
"ChIJCeSMMdUlyjsRL1Neb0AC0j0","Hindustan Petroleum Corporation Limited","Survey No 260, beside Sai Baba Temple, Bhoothpur Road, Palakonda (R)","16.7163498","78.027203","true"
"ChIJU43IdwAlyjsRAu-_gqKnlxY","Shakthi Fuels","Bypass, Palkonda Rd, Mahbubnagar","16.728674","78.02122",""
"ChIJaRqci6YnyjsRYDFMiSHcxbw","SRI SAI BALAJI FILLING STATION","Telangana, Raichur - Mahabubnagar Road, Perkiveed Thanda, Mahbubnagar","16.70440379999999","77.9592955","true"
"ChIJqxSZ3sUnyjsRXe_p2NrfQAg","Hindustan Petroleum Corporation Limited","Survey No 619, Raichur Road, Bandameedipally, Mahbubnagar","16.7216171","77.9777988","true"
"ChIJSYy6gsknyjsRrJHNjjRFScQ","Hindustan Petroleum Corporation Limited","Ground Floor, Christianpally, Mahbubnagar","16.7310193","78.00309829999999","true"
"ChIJU1pmQHojyjsRuFNP_exgULE","Hindustan Petroleum Corporation Limited","Sy No 273AA, Yelkicharla","16.6433614","78.09353879999999","true"
"ChIJ0dVgKwAjyjsRnVjSw3da3ro","SRINIVASA FILLING STATION (Hindustan petroleum)","Nagarkurnool road, Yelkicharla","16.6361488","78.104595","true"
"ChIJ3bq6B5I9yjsRn9-3AbzD5B4","PSR FUEL STATION (Bharath petro pump)","J4C8+RJ6, Yelkicharla","16.622422","78.1177876",""
"ChIJ99md7jIlyjsR9zCepZq0GmE","Sri Balaji Petroleum","Hyderabad - Bangalore Highway, Sherpally","16.7206073","78.0714484",""
"ChIJMQ0fKA8lyjsRvn0-jxCZx3A","IndianOil","Sy No 197/B, Addakal","16.720593","78.070543","true"
"ChIJswBH3_k7yjsRPmpGc5vtQVk","Bharat Petroleum, Petrol Pump -Dkr Vijaya Laxmi Filling Station","Timmajipet - Avancha Road","16.6709317","78.190727","true"
"ChIJUUmBoQQ9yjsR0hWnNK_o1kA","IndianOil","Ground Floor Thimmajipet, Nagarkurnool, Madigatla","16.6604729","78.19319060000001","true"
"ChIJ5buajGQ9yjsRPEoWF40GcpI","Indian Oil Corporation","M53W+R2H, State Highway 21, Gummakonda","16.654573","78.195103","true"
"ChIJ0aL8An0-yjsRupELF8ql_EA","IndianOil","Sy No128, E Bijinepally, Vattem","16.6190788","78.2107179","true"
"ChIJSWqtuiYmyjsRpX68lLpPY-c","Hindustan Petroleum Corporation Limited","Survey No 3 Main Road","16.74431","77.99069999999999","true"
"ChIJg7OGFAAnyjsR9AV-R3OJqiY","Bharat Petroleum - SLNS Filling Station","P2R3+G4V, near NP Subb Reddy School, Bhageeratha Colony Road, Sheshadri Nagar, Shah Saheb Gutta, Mahbubnagar","16.7420372","78.0027952","true"
"ChIJZcoKs4wpyjsRncvYgZjHtkU","IndianOil","Ground Floor, Ravindranagar, Mahbubnagar","16.7531","78.01809999999999","true"
"ChIJ-ZNZMgAnyjsRSOXCObDlVzU","Indian Oil petrol pump","PXPR+PHR, Shiva Shakthi Nagar, Ramaiah Bowli, Mahbubnagar","16.7362753","77.9915645",""
"ChIJ3zAoNFQvyjsRh_5WX0kLSrE","Hindustan Petroleum Corporation Limited","DNo 7/5/235, Survey No 267/AA2, Lakshmi Nagar, Yenugonda","16.75329","78.024012","true"
"ChIJMwb1DI4vyjsRxCv46QTfppc","Kailas Auto Supplies","opp. Rural Police Station, Srinivasa Colony, Mahbubnagar","16.7539557","78.02396660000001",""
"ChIJlzChHAAvyjsRSgZGv7GCi2I","IndianOil","Survey No 166A & B, 167A & B, Advi, Venkatapur","16.752901","78.026501","true"
"ChIJw1b0rDknyjsRCdlcJzRfCrk","Haji Gaffar Ahmed","near Woqw Complex, Raichur Road, Mahbubnagar","16.7426803","77.9903649",""
"ChIJa17xX_EnyjsR8ckVlV_vtXc","IndianOil","Survey No 737737/A & 745, Adavivenkatapur","16.7375","77.98859999999999","true"
"ChIJEfVrgiAmyjsRDz5eIoCpeh4","Reliance Petrol Pump","Monappagutta, Kidwaipet, Mahbubnagar","16.7481538","77.9934036",""
"ChIJOY2rZDcnyjsRmwzr4uAEfrM","Bharat Petroleum, Petrol Pump -P. Narasimha Reddy & Sons","MAHABOOBNAGAR TOWN, Mahabubnagar","16.7363562","77.98822489999999","true"
"ChIJP5DJuSYmyjsRuzmmOCwr3DQ","Bhavya Enterprises Filling Station-Hindustan Petro","PXVR+83Q, Mahabubnagar - Jadcherla Road, State Highway 18, Mahbubnagar","16.7433388","77.99023269999999","true"
"ChIJ1ax-vSAmyjsRyfXqAM8Fy-w","Bharat Petroleum, Petrol Pump -Haji Gaffar Ahmed,","Hyderabad Road, Mission Compound, Monappagutta, Boyapalle Rural, Mahbubnagar","16.7473542","77.9926077","true"
"ChIJNzIKqCEnyjsR5s5q6zurkl0","IndianOil","Ground Floor Advi, Venkatapur","16.746101","77.990701","true"
"ChIJ1dukhCovyjsR8RHqq9miJZY","Bharath Petrol Pump","opposite Ramreddy Eyes Hospital, Yenugonda","16.754229","78.0327461",""
"ChIJ8TOse50oyjsRgrdsTqvV6jU","Hindustan Petroleum Corporation Limited","Old Bus Depot, Sy No 31, 34 to 36, 38 to 41, 51, 53, 58, Mahbubnagar","16.7484546","77.9884891","true"
"ChIJdyX9vt8pyjsR93qFELiji1I","Amisthapuru Mahesh HPCL","Shop No -22, Clock Tower Road, Old Bustand, Mahbubnagar","16.7484376","77.98791740000001",""
"ChIJu1Qe0TEpyjsR2Av5jFyA8JY","Hindustan Petroleum Corporation Limited","Survey No 1052, Plot No 6, Nawabpet Road, Mahbubnagar","16.757653","77.993222","true"
"ChIJQfFNDLkpyjsRp9AxcJNzCXw","Hashim filling station","Nawabpet Road, Kristan Pally, Mahbubnagar","16.7630331","77.9930159","true"
"ChIJ09xU4pYoyjsRfZ2AeRq2sO0","IndianOil","Sy No 335/A/7 Boyapally,Advi, Venkatapur","16.7635096","77.9930183","true"
"ChIJowUojl0vyjsR5h1bdXNEUjU","IndianOil","Survey No 4, Plot No 4516 & 17 Yenugonda, Advi, Venkatapur","16.7587652","78.0416212","true"
"ChIJ6SMZmoYoyjsROwY4cGA5uoA","IndianOil","Sy No, 956/A, Kosgi Road, Advi, Venkatapur","16.755101","77.978901","true"
"ChIJUZ48b7ovyjsRJIahEWhTOw8","Bharat Petroleum, Petrol Pump -Siva Gowri Filling Station","Mahabubnagar - Jadcherla Road, Indira Nagar, Mahbubnagar","16.7563363","78.051437","true"
"ChIJyWrWwIcoyjsRDkCt2UGWCtM","Bharat Petroleum, Petrol Pump -Tirumaldevgutta Service Station","KOILKONDA X ROADS, Koilkonda Road, Kristan Pally, Mahbubnagar","16.7575412","77.9756316","true"
"ChIJZaJ0XHovyjsR7dHq6pYhN24","IndianOil","Survey No, 213/A, Appanapally, Mahbubnagar","16.7612684","78.0585174","true"
"ChIJt8E-fwApyjsR7cMd0yWS4Mo","BPCL petrol pump","QXJR+PGQ, Boyapalle","16.7818347","77.99135179999999",""
"ChIJxZv6l6cpyjsRrgib_Q7pyGI","Hindustan Petroleum Corporation Limited","Survey No 38/A, Mahabubnagar Kosgi Road SH 23, Hanwada, Chinnadarpally","16.765631","77.967221","true"
"ChIJnZN6SFAlyjsR8y_TX3l5TBs","Indian Oil","India","16.7445545","78.1015973",""
"ChIJGeUTQzoxyjsRwLNjh_Cxj5k","Bharat Petroleum | M/s. Sharada Filling Station","SY. No. 71/E, 72/U2, Bhureddypally, Jadcherla","16.7603953","78.1181896","true"
"ChIJKSJGXsQxyjsReyT8Z_eBDLo","Hindustan Petroleum Corporation Limited","Survey No 115, E1E & 115/E1AA, Mahabubnagar - Jadcherla Road, Jadcherla","16.772151","78.11312699999999","true"
"ChIJ9-6Hog8wyjsRmW17TLy1Izo","IndianOil","Ground Floor, Jadcherla","16.764094","78.122165","true"
"ChIJDeNcZQAxyjsRC7DhvF7EVJM","H B FILLING STATION - BHARAT PETROLEUM","Q4F7+47, Jadcherla","16.7728656","78.1132111",""
"ChIJxc_buRQwyjsRA4Htrpz2Ui0","Hindustan Petroleum Corporation Limited","Ground Floor, Jadcherla Cross Road, Jadcherla","16.77427399999999","78.1318907","true"
"ChIJpcjBHYcwyjsRdpdeT8eYRaw","IndianOil","Survey No 617/AA, Road, Gangapur","16.7652887","78.1396302","true"
"ChIJp-rCQIQxyjsRMykuOqPvo3I","Rama Chandra Sarvice Station","6-78, New Bustand Road, Jadcherla","16.7750225","78.1327553","true"
"ChIJZ79vzm0wyjsRsNdBra6qAXg","Bharat Petroleum, Petrol Pump -Sai Baba Filling Station","JADCHERLA TOWN, Mahbubnagar","16.7707986","78.1385665","true"
"ChIJ7fj2GHgwyjsRGrmQUgpXeME","IndianOil","Ground Floor, Jadcherla","16.759373","78.14538499999999","true"
"ChIJ2ehqC24wyjsR508guDTTjUQ","IndianOil","Survey No 229/E, Ediganipally, Jadcherla","16.769646","78.1396401","true"
"ChIJ0w70C9MxyjsRp4o2zJJllgE","Bharat Petroleum, Petrol Pump -Ch. Yegnaiah & Sons,","JEDCHERLA, Mahbubnagar","16.7596292","78.1455189","true"
"ChIJK8WYz8M7yjsRn7jWa_AsjZ8","Raghavendra Fuel Station","4, 67 Road, Nagasala","16.749533","78.1494946",""
"ChIJT-xKXro7yjsRz1EDMW5QvS4","Madhu Fuel Station","Pvrfuelstation, Jadcherla","16.7495067","78.1495398",""
"ChIJv00eVKg7yjsRPE75wf275qs","PVR FUEL STATION","SH 21, Ngkl Road, Jadcherla","16.7495067","78.1495398","true"
"ChIJ7zj4gLk7yjsRT3YJlyKSerM","Sandeep Goud Fule","SH 21, BijiNepali Road, Jadcherla","16.7485489","78.1498293",""
"ChIJM-DcrHAxyjsR4HyoY04Zjyk","IndianOil","No 486/A/2, Jadcherla","16.7774796","78.13429049999999","true"
"ChIJv94QuYg6yjsRDOer-UYvR4U","Hindustan Petroleum Corporation Limited","Survey No 214/A/A Nagarkurnool Rd, Badepally Stn, Jadcherla","16.7444402","78.1517416","true"
"ChIJa2jKfLg7yjsRp3as06FvhXY","IndianOil","Sy No 147, A2 Jadcherla, Balanagar","16.737301","78.155301","true"
"ChIJuwbtKYUwyjsR6wrlx2vgZww","Shri Lakshmi Venkateshwara Filling Station","Jadcherla - Kalwakurthy Road, Kalwakurthy","16.7656502","78.15922119999999","true"
"ChIJiaUlDtcxyjsRQs0s1m1g3u8","Hindustan Petroleum Corporation Limited","Survey No 558, A Kalwakurthy Road, Gangapur","16.7666029","78.17079240000001","true"
"ChIJ6d627KQwyjsRxQNwGNrDAVI","Chennakeshava Filling Station Bharat Petroleum","Near, DVK Road, Chanakyapuri, Nalgonda","16.7691029","78.1863771","true"
"ChIJfTItZUYwyjsRUhFLliRSaXY","Bharat Petroleum and CNG gas Corporation Limited","Macharam, Polepalle","16.7890776","78.13887849999999","true"
"ChIJ2QX8P08wyjsRHYkK8PqVE3E","IndianOil","Ground Floor, opposite Police TRG Centre, Jadcherla","16.793299","78.140427","true"
"ChIJcQ9hQhgxyjsRBr4vdAI7iqA","HPCL Petrol Pump","Q4WR+369, Macharam, Polepalle","16.7951641","78.14046200000001","true"
"ChIJD4pXWgAvyjsRMPcpZ-iEdL4","Mr.. K","R3MR+R6X, Ambatapur","16.8346125","78.09018929999999",""
"ChIJA16Z41q1zjsRQ8jJzdZ7FZM","IndianOil","Zaheerabad, Medk, Satwar, Gopanapally X Road","16.8071608","78.144869","true"
"ChIJ0w_8X88xyjsRWSCwbYCfWMQ","Hindustan Petroleum Corporation Limited","NH 44, Hyderabad - Bangalore Highway, Kurnool","16.812898","78.1467926","true"
"ChIJWZMIFQAxyjsRsgGah8IMPeY","BPCL FARHAN FILLING STATION","4-12, Macharam, Polepalle","16.8127785","78.14726639999999",""
"ChIJMTCwqkgzyjsRRby2N9RowTo","IndianOil","Survey No 853, 1/1, Rajapur, Buddharam","16.8670997","78.1542552","true"
"ChIJQeRsE5EzyjsR5bfw1k8tLfA","Ms Bhavani Ksk Filling Station","near Rajapur, Rajapur, near Rajapur, Jadcherla","16.8672804","78.15431989999999",""
"ChIJxV3eh84zyjsRRhvQhPm89iY","Bharat Petroleum | Srinivasa Filling Station","RAJAPUR, MAHBUBNAGAR","16.8668825","78.1630921","true"
"ChIJx1sMAckzyjsRDaXjvB6tl8k","IndianOil","AA, Survey No 267/A & 267, Rajapur","16.874191","78.165841","true"