place_id,name,address,latitude,longitude,open_now
"ChIJs83kVCWKyzsRsRs9ehWzTwQ","Bharat petrol pump","Shapur Nagar, Bonthapalle","17.6662505","78.372978","false"
"ChIJd_FayDqKyzsRZoiixpQly3Q","Hindustan Petroleum Corporation Limited","Survey No 195, Medak - Hyderabad Road, Bonthapalle","17.6675253","78.37236539999999","true"
"ChIJL7HrFWuJyzsRzTnqUH2wb3c","Indian Oil","JCP4+R5Q, Dundigal","17.6370861","78.4054737",""
"ChIJb13SIXCLyzsRWs_tW86i0J4","IndianOil","Survey No 1029, Jinnaram","17.6309701","78.32543799999999","true"
"ChIJw4BxYFiJyzsRUsEPAQBUvok","Nayara Petrol Pump","India","17.6229671","78.38561039999999",""
"ChIJFys66y2KyzsR4-ATyoKikx0","IndianOil","Sy No 17, 18 & 20 Domadugu, Jinnaram, Medak","17.658596","78.37379399999999","true"
"ChIJMWDYlC2KyzsRMx_pflrDCZ0","Amarjyothi Filling Station","M95F+GJ4, Domadugu","17.658762","78.374085","true"
"ChIJjQP3Ay6KyzsRk_SoE9i_Gpw","Srinivasa Traders","opposite Hanuman Temple Road, 557, Bonthapally Kaman, opposite Hanuman Temple Road, Hyderabad","17.6606772","78.37314359999999","true"
"ChIJCUo3T6GJyzsR6pIP9gu1GXU","BHARAT PETROLEUM-GARUDA FILLING STATION","2-24/9, Church, Gagillapur, Dundigal, Hyderabad","17.616216","78.3879168","true"
"ChIJNRQ04LGOyzsR79_VZQAEmx8","Hindustan Petroleum Corporation Limited","Survey No 166, Qutubullapur, Gagillapur, Hyderabad","17.6021127","78.3956271","true"
"ChIJJVI0UrCOyzsRk5kXjReTSTA","IndianOil","Sy No 145, Near Airforce Academy, Gagillapur, Hyderabad","17.6001292","78.39784039999999","true"
"ChIJ5W6QTQCLyzsRfCQCaghyP04","Lakshmi Ganesh auto works","M9M9+VCP, Gummadidala","17.6847171","78.3685788",""
"ChIJ08WUEluLyzsRRFCGQeZ7WsU","IndianOil","Survey No 194/A Jinnaram, Annaram","17.684603","78.37039899999999","true"
"ChIJD1LySQCJyzsRMMiW6pOUYZo","IOCL DUNIGAL AFS","JCP5+4J8, Dundigal","17.635281","78.4090921",""
"ChIJ825UtLmOyzsRg6lvlsSRSoA","IndianOil","Survey No 579, Near Airforce Academy, Dundigal","17.595983","78.403609","true"
"ChIJW487qI2PyzsRtR-Zx6d-g0Q","BPC Petrol Bunk Ambati Pushpalatha Channaiah Filling Station","Medak - Hyderabad Road, Gandi Maisamma, Gundlapochampally","17.5909866","78.4092419","true"
"ChIJpYq2lzKMyzsRgpoEaHgDSEI","NAYARA","India","17.562656","78.3719842",""
"ChIJUR20oiCNyzsR8nbBU5UvdUU","Petrol pump","H97C+2QR, Bachupally, Hyderabad","17.5626074","78.37190480000001","true"
"ChIJj1T_KD6PyzsRHF2o5C4o00A","IndianOil","482/A/E, 485, A/E, Survey No 481, Hyderabad","17.5890658","78.4493839","true"
"ChIJG4Lch82ZyzsRyZpl9IdmODE","IndianOil","Sy No 59, SSH 7, near Gandi Maisamma, 10th Road, Bahadurpally, Hyderabad","17.57299","78.423752","true"
"ChIJGQ2_6weGyzsROvEZgvPnoFc","IndianOil","Ground Floor, near Check Post, Medchal, Secunderabad","17.6155755","78.485507","true"
"ChIJe_0Bj8OIyzsRpY7qNsHRuKc","Hindustan Petroleum Corporation Limited","Survey No 6, Gowdavalli Road, Medchal, Railapur","17.6300838","78.4448207","true"
"ChIJ9zOzF8WJyzsRlBGe3FGHdHI","PARNIKA PETRO MART","S Y, No 6, Medchal, Railapur","17.6297352","78.4449872","true"
"ChIJiX0aWQ-PyzsR3knfc7F2J-M","Petrol pump","HCQ8+X62, Gundlapochampally","17.5898881","78.4155033",""
"ChIJFcAbGuSPyzsR2MFZP9rDfpc","Ujjayini Essar fuel station","78/A, Hyderabad - Narsapur Road, Gandi Maisamma, Domara Pocham Pally","17.5859061","78.415719",""
"ChIJn5sYTOiOyzsRTGDIGrwZfSA","Hindustan Petroleum Corporation Limited","SH 6, Plot No 6, Medak - Hyderabad Road, Domara Pocham Pally","17.5850827","78.4157812","true"
"ChIJdzOvkOiOyzsR0reBsHHwN3M","Indian Oil Petrol Pump","2, Medak, To, Nehru Outer Ring Road, Gandi Maisamma, Hyderabad","17.5834585","78.4177186",""
"ChIJw0htreqPyzsRZepVz3jZRuM","Shanti filling station","Plot no 4&5, main road, Gandi Maisamma, Hyderabad","17.5812102","78.4186935","true"
"ChIJp_MPiOGOyzsR4BVZlpjzx2M","Indian Oil","India","17.5819106","78.4276261",""
"ChIJ6WL7g_yOyzsRQrLLkTXzaNQ","IndianOil","Survey No 62, 1 Aqutubullapur, Gandi Maisamma, Hyderabad","17.5732767","78.4242429","true"
"ChIJTZkzNQCPyzsRgJNgqDU6toY","IndianOil","Sy No 248, Plot No 7810 & 11, Bowrampet","17.57283","78.420738","true"
"ChIJO1NJv0WPyzsRrweBY_oQGiU","Hindustan Petroleum Corporation Limited","Plot No 1 to 3 & 45, Quthbullapur, Bahadurpally, Hyderabad","17.5689863","78.4249174","true"
"ChIJezxFd2yPyzsRbn8GNji6K_c","Hindustan Petroleum Corporation Limited","Survey No 445 & 446, Medchal Road, Gandi Maisamma, Gowdavalli","17.5900293","78.4669909","true"
"ChIJC7Osc6GFyzsRCC2theryIgk","BPCL - Dhara Filling Station","KANDLAKOL","17.6033369","78.4788676","true"
"ChIJ1SgXw_mFyzsRXXo1Ad1zWNM","Hindustan Petroleum Corporation Limited","Survey No 49, Medchal Road, Gandi Maisamma, Kandlakoya","17.6032142","78.47924239999999","true"
"ChIJaxHcfhOFyzsRWSdLoP_5kFM","MM FILLING STATION","Secunderabad","17.6034446","78.4793919",""
"ChIJF3NPiBqGyzsRATxUHipjQOM","NAVNEET AUTODROME","JFHP+G7W, Nizamabad - Hyderabad Road, Secunderabad","17.6288692","78.4857116","true"
"ChIJtxhCExiGyzsR0rkEcBemkfU","IndianOil","Ground Floor, NH 44, Uma Nagar Colony, Medchal, Secunderabad","17.6367788","78.4855388","true"
"ChIJB5I6M7iJyzsRdaaOYjtB-10","Harsha Bharath petroleum","MCW6+CG, Kanukunta","17.6959386","78.41181069999999",""
"ChIJ9YKNerWPyzsRrB5xaCfJjQU","Bharath petrol pump","HC7J+M2G, Gandi Maisamma, Hyderabad","17.5646429","78.42980089999999",""
"ChIJowqAx_6OyzsR_d66_KmP5t8","Hindustan Petroleum Corporation Limited","Quthbullapur, Bahadurpally, Hyderabad","17.5644176","78.42911099999999","true"
"ChIJ2afpbGWPyzsRMS_OmsNoRMw","Hindustan Petroleum Corporation Limited","Ground Floor Bachupally Gandi Maisamma, Road, Bowrampet","17.56338149999999","78.41448969999999","true"
"ChIJS_VbH5yHyzsRZhAB-CRiVPE","Hindustan Petroleum Corporation Limited","Survey No, 296 & 296/P, Athvelly, Secunderabad","17.6427278","78.4857689","true"
"ChIJrbWbixOHyzsRBg76K5qEIAY","Home","JFVP+5CP, Medchal, Secunderabad","17.6428884","78.4859122",""
"ChIJi3HY_FKFyzsRjOz3ptgQMQs","IndianOil","Sy No 253, Near Airforce Academy, AA/E, Kandlakoya","17.5969187","78.47917029999999","true"
"ChIJMYQmGDyPyzsRu8aGK1yP8uM","Kuna Vijay Shankar filling station","HC6J+G5H, Gandi Maisamma, Hyderabad","17.5613084","78.4304829","true"
"ChIJ1f0vRgCFyzsRon3tghlMLm4","Dhyana Sai HP filling Station","HFVH+3HG, Kandlakoya","17.59264929999999","78.47890749999999",""
"ChIJgzPRKQCFyzsRVgrZvRUgVFI","NRO","HFVH+3HG, Kandlakoya","17.5926985","78.478948",""
"ChIJCbwPpr2FyzsRxwvtc4N7vds","Bharat Petroleum, Petrol Pump -Sandeep Road Carriers (Hyd)","NH-7 MEDCHAL, RANGA REDDY","17.6101408","78.4876955","true"
"ChIJQQgdFQCJyzsRfOtYdEu7NMw","Sri Lakshmi Narasimha filling station konaipally","MFR4+G4F, Konaipalle","17.691322","78.4553013",""
"ChIJAVmKbDaPyzsR09GwSw-wm6U","IndianOil","E830/A, Sy No 830/A/AA830/A, EE835 835, A/E, Bowrampet, Dundigal","17.5610932","78.39621149999999","true"
"ChIJr-4TZgCPyzsRQciKxfnFWQM","Hindustan Petroleum Corporation Limited","Survey No 234EE, Doolapally Road, Bahadurpally, Dundigal","17.5602021","78.434816","true"
"ChIJUVca4ZGGyzsRLvQs7v4B1FI","Hindustan Petroleum Corporation Limited","Survey No 64EE, Shamirpet Medchal Road, Raja Bollaram","17.6332932","78.5319016","true"
"ChIJxbvN_z2PyzsRlKwuqyg6E_k","Hindustan Petroleum Corporation Limited","Survey No, LU Gandimaisamma, 485/RU & 485, Medchal Road, Goudavalli","17.6772205","78.4897885","true"
"ChIJ1zx4y-CHyzsR_t7-p2Yhrgs","IndianOil","Survey No, 161/C, National Highway 44, Medchal, Yellampet","17.6857963","78.4806859","true"
"ChIJ28W8xI-HyzsRkR5JL4ryB9k","Hindustan Petroleum Corporation Limited","Survey No 1/A4, 2, Mulug","17.698506","78.507352","true"
"ChIJNzTSUS6HyzsRu3J5EPepldw","Hindustan Petroleum Corporation Limited","Survey No, 820 to 823, Kistapur Road, Medchal, Secunderabad","17.6223197","78.497435","true"
"ChIJ43GbpOWFyzsR5oSUxMErg7A","Hindustan Petroleum Corporation Limited","Survey No 62, Kandlakoyya, National Highway 44, Medchal","17.60484","78.48993999999999","true"
"ChIJ136dcxKHyzsRZlE47NClLxo","vishnu vardhan reddy filling station","JGJ9+2H7","17.6300363","78.51893539999999",""
"ChIJV1UBExiGyzsR7O3Y-0Xrsbg","Bharat Petroleum COCO Petrol & CNG Pump, BP Medchal","ATTIVELLI, Secunderabad","17.6644381","78.48894390000001","true"
"ChIJ-ROKloiGyzsRODElfMrsQLI","IndianOil","Survey No 27/C, Shamirpet, Pudur","17.6291301","78.5247601","true"
"ChIJZ0j2IACFyzsRPTmGz7GPMoA","Rajesh Raiy","HGX9+C6R, Munirabad","17.5986091","78.5180245",""
"ChIJC9kDO5GFyzsRJGVReDEJuOw","IndianOil","Ground Floor, NH 7, Gundlapochampally, Pudur","17.584077","78.4910501","true"
"ChIJE70SulaFyzsR91X7ORFEkVI","IndianOil","Survey No 444, 3/2, Medchal, Pudur","17.5932765","78.51708060000001","true"
"ChIJ9w-VoWWHzDsRVGqHzQ2LPL0","Hindustan Petroleum Corporation Limited","Gajwel, Survey No 504, Pragnaur, Medak","17.6772205","78.4897885","true"
"ChIJxTi3SQCFyzsRGJLdfFLgVy0","Bharat petroleum","Sky sports arena, beside HDFC BANK, Rd, manikya reddy nagar, గుండ్లపోచంపల్లి, హైదరాబాద్","17.5685524","78.4840954","false"
"ChIJ8yVa9umFyzsR3FmGfIBn3gM","Bhagya Nagar Gas Limited Hyderabad","HGWV+RR3, Shamirpet, Secunderabad","17.5970168","78.5445277","true"
"ChIJ_VnvT_GFyzsRVvsBMyNGi4k","Hindustan Petroleum Corporation Limited","Sy No 96A & 96E/A, Kompally Shamirpet Rd Kompally, Gundlapochampalli","17.5622837","78.4936295","true"
"ChIJH-m9aAB3zDsRrRMtZHvqwYk","Nayara petrol pump","P9WV+PWV, Gomaram","17.7468573","78.3948018","true"
"ChIJFbM_r6gLzDsR74_hIwDPS-s","Hindustan Petroleum Corporation Limited","Survey No 79, Bus Depot, near Narsapur, 14/2, Narsapur","17.735465","78.286492","true"
"ChIJh6kktPd3zDsR_mFuHRuWNjc","IndianOil","Survey No, 416/E, National Highway 44, Manoharabad","17.7211821","78.4735512","true"
"ChIJ95EVMvV3zDsRUnNe2l9V41k","Hindustan Petroleum Corporation Limited","Survey No 343, Tupran","17.729966","78.4732497","true"
"ChIJp3RfL_l5zDsRC5qBwG_p5Aw","IndianOil","near kothur, Sy No 358 Mulugu, near kothur, Kokkonda","17.719461","78.53278499999999","true"
"ChIJbQp4Cnl5zDsRWUxvQ8Yk6F8","Hindustan Petroleum Corporation Limited","Survey No 382, Wargal Road, Manoharabad, Dandupally","17.757578","78.477155","true"
"ChIJ4V7HFpt3zDsRV6ssKSASd4s","SREE PRAKASH BIO FUELS","S YO 412, MANDAL, Manoharabad","17.76642069999999","78.46809019999999","true"
"ChIJz-z4wF11zDsRc1nb4jVK6Io","Bharat Petroleum Petrol Pump , ANJANA FILLING STATION","S.NO.37/E2","17.78282","78.36604","true"
"ChIJ1741QqR1zDsRYkThyBl-PjQ","IndianOil","Survey no- 41/AA, Shivampet","17.7829136","78.36620839999999","true"
"ChIJoTuiCgBzzDsRANbpmAuwXc8","MIRZA FUEL STATION","R823+XC9, Shangrila Farms Road, Thirmalapur","17.8042457","78.30423400000001",""
"ChIJYd3PNwBzzDsRDhMs3mZz86U","INDIAN OIL","R833+JG9, Thirmalapur","17.80404309999999","78.3038605",""
"ChIJfcPKcABzzDsRha_JlG60E-c","MIRZA FUEL STATION","Narsapur - Tupran Road, Brahmanapalle","17.8055504","78.3043027",""
"ChIJNcIHwycLzDsRoLRwIaAjnBc","IndianOil","Sy No 11/3, Narsapur","17.74402599999999","78.2802707","true"
"ChIJqZUod9gKzDsR4Xvwbqrjq48","Hindustan Petroleum Corporation Limited","Survey No 752, 753/2, Sangareddy-Narsapur Road, Narsapur","17.74173","78.27981","true"
"ChIJ3XCFfQB3zDsRIs2VcKZPD8I","Hindustan Petroleum Corporation Limited","Survey No 68, AA Tupran, Manoharabad","17.7731282","78.4686603","true"
"ChIJlVptzRdxzDsRTSGsouuKk5g","Hindustan Petroleum Corporation Limited","Survey No 172/E, Venkatapur(B)","17.82143079999999","78.4386075","true"
"ChIJbTuM6-hwzDsRiZi2phxibnA","Bharat Petroleum G Gangaram Filling Station","Venkatapuram patti, Narsapur-Tupran Rd, Brahmanapalle","17.8257895","78.4428037","true"
"ChIJ7Tt7E8Z7zDsRdHqBejXlJJM","IndianOil","Survey No 320 & 321, A4, Nacharam, Bangla Venkatapur","17.822007","78.533059","true"
"ChIJMz_tuDR7zDsR8o5Q_5hkb_4","Hindustan Petroleum Corporation Limited","Ground Floor, Toopran to, SH 17, Doulatabad - Gajwel Road, Tupran, Allapoor","17.8226206","78.48260669999999","true"
"ChIJZ4KY3At7zDsRhdg5bshV2Fw","IndianOil","Sy No 471, A & 472/A, Tupran, Medak","17.8327907","78.4770602","true"
"ChIJXdqoGodwzDsRNiT23fp7VDo","Bharat Petroleum, Petrol Pump -Sheethal Kishore,","TOOPRAN TOWN, MEDAK","17.83324069999999","78.476761","true"
"ChIJxcYH7qhxzDsRdlKPEPa7-00","Toopran Indizel Fuel Station","RFQC+293, Tupran","17.8375147","78.47092119999999","false"
"ChIJvW7hXQB7zDsRg_2b8cFT-c4","Pathan House","RFRG+CVV, Tupran","17.8411095","78.47716270000001",""