place_id,name,address,latitude,longitude,open_now
"ChIJYaNdKQDXyjsRcHxvXnlK6N8","Hindustan Petroleum Corporation Limited","Ground Floor, SH 18, Parvathagiri","16.98629799999999","79.20906699999999","true"
"ChIJPzPB4qfXyjsRHXkLu0cHVHc","Bharat Petroleum Petrol Pump , SAI RENUKA FILLING STATION","MANDALNEAR TEMPLE, DARVESHPURAM VIL, KANAGAL, Nalgonda","16.998518","79.215999","true"
"ChIJ88FHbvvXyjsRGDFd_xatPxU","Hindustan Petroleum Corporation Limited","Survey No, 629 & 631, Kanagal","16.950821","79.20055099999999","true"
"ChIJa-FOKwApyzsRB0r5juks7lM","IndianOil","Sy No 358, KHA Appajipet, Nalgonda","17.0131936","79.24565969999999","true"
"ChIJ09DAbGfZyjsR6Vuv5znJQjQ","Essar Petrol Bunk","W5VV+P7G, Budamarpally","16.9443154","79.1931888",""
"ChIJdTdyJQDZyjsRS0VzNZNDIu4","G Yadavelly","X4CP+FQQ, Chandur Main Road, Gaddamvari Yadavelly","16.9712005","79.136972","true"
"ChIJf0JbPAApyzsRsgATd1zbNiA","Hindustan Petroleum Corporation Limited","Ground Floor, Sagar Road, Nalgonda","17.0362179","79.2506926","true"
"ChIJ04AIjfkoyzsRXmYL-1M8D7Q","Essar Petrol Bunk","Munugodu -- Nalgonda, Nalgonda","17.0555502","79.2354088","true"
"ChIJWVQ5NUUpyzsRgME8awX73GU","Praveen","01, Munugodu Road, Nalgonda","17.0556567","79.2354849",""
"ChIJVSBgoc0pyzsRKjPgXXsAd8U","Bharat Petroleum, Petrol Pump -Chennakeshava Filling Station","NALGONDA TOWN (ON DVK ROAD, Nalgonda","17.03888","79.2572668","true"
"ChIJUbVWPbspyzsRyiISVvhPhBo","Hindustan Petroleum Corporation Limited","Ground Floor, Devarakonda Road, Chaitanyapuri Colony, Nalgonda","17.038411","79.260652","true"
"ChIJUR2F26IpyzsR3nFAsCjKUGo","IndianOil","Ground Floor, DVK Road, Nalgonda","17.041608","79.26557199999999","true"
"ChIJ0xa8kp8pyzsRARFWksIW9Hk","Bharat Petrol Bunk","3729+HG3, 53, Prakasham Bazar Road, New Prakasham Bazar, Bottu Guda, Nalgonda","17.0505611","79.26850189999999","true"
"ChIJM_aDKPwpyzsR4v88YYSLJQo","S S Cansalttansi Auto Fainaes","27J9+P54, Mella Duppalapally Road, Abbasia Colony, Chaitanyapuri Colony, Nalgonda","17.0317544","79.2679538",""
"ChIJB-2HKgApyzsRDS_kN7--CxE","AKSHAYA FILLING STATION BPCL RO","27PF+4HW, Sai Nagar, Nalgonda","17.03536919999999","79.2739381","true"
"ChIJlXmlyqcpyzsRdcIBJFJON-0","Sri Raghurama Services","Siddaratha colony, Nalgonda","17.0447803","79.2676687","true"
"ChIJmUJ7XZ8pyzsRkB99hMqVpgI","IndianOil","Sy No 115, Jail Premises NLG,Appajipet, Nalgonda","17.047775","79.268154","true"
"ChIJg9KzJzgpyzsRCm7Qx4_ppaY","IndianOil","Survey No 461, 462 & 463, Gollagudem,Appajipet","17.044115","79.2891401","true"
"ChIJTXN6PZ0pyzsRxQ0Y2jneLwc","Hindustan Petroleum Corporation Limited","Ground Floor, Miryalaguda Road, Bottu Guda, Nalgonda","17.050425","79.277576","true"
"ChIJHUGOEDQpyzsRIJ_wWr05kYs","Bharat Petroleum, Petrol Pump -J.Laxmaiah & Sons","NALGONDA TELE EXCHNG, Nalgonda","17.051533","79.2660274","true"
"ChIJUbNhG5QpyzsRbPXT7jEpgcE","Bharat Petroleum, Petrol Pump -Etihad Petro Plaza","NALGONDA TOWN, Nalgonda","17.0509329","79.27719689999999","true"
"ChIJV6kiNQspyzsRmJ2RUDU97Ck","HP PETROL BUNK. (Sri Balaji Oil Company)","Rashtrapati Road, Nalgonda","17.056271","79.26758","true"
"ChIJxcYw2AwpyzsRacCngIGTdMA","IndianOil","Ground Floor, near Police Headquarters, Hyderabad Road, Nalgonda","17.0604513","79.26692369999999","true"
"ChIJKX0in8DWyjsRy0Kxkhs5kPk","IndianOil","Ground Floor, Appajipeta, Serilingotam","16.931378","79.267457","true"
"ChIJXRsrMXApyzsRCH6ivWGBgI4","IndianOil","D No 6, 1/492, Panagal Road, Srinivasa Colony, Ramgiri, Nalgonda","17.063175","79.276654","true"
"ChIJPfYDRWEqyzsR1Mm8kLU2CHM","Hindustan Petroleum Corporation Limited","SH 2, Ground Floor, Narketpally Addanki Road, Anishetty Duppalapally","17.027183","79.33014399999999","true"
"ChIJmeWGbm0pyzsR1vae-cDY5Eo","Essar Petrol Pump","3779+WRW, N G Colony Road, Nagarjuna Colony, Nalgonda","17.0648621","79.2695912","true"
"ChIJl9HIJgApyzsRSamNRSk8M1A","Nayara petrol","3779+XVF, Shivaram Nagar, Nalgonda","17.0649277","79.2696658",""
"ChIJtx4zkJoryzsRaF6XlAyzkv4","IndianOil","Sy No 28, Golla Guda, Appaji Peta","17.059763","79.295002","true"
"ChIJB1SZV2kryzsR761abTOT4yA","Bharat Petroleum, Petrol Pump -Nalgonda Petro World","NALGONDA BYE-PASS (DUPPALA, Nalgonda","17.0239652","79.3383204","true"
"ChIJlV0DLpAryzsRzhrBvuMhGgA","Prime Highway-Facing Commercial Land for Lease","opposite Gollagudem Village road, Near Anishetty Duppalapally, Hyderabad-Nalgonda-Chennai Highway (Narketpally–Addanki route, opposite Gollagudem Village road, beside KRR Gardens, Nalgonda","17.0232375","79.3443734","true"
"ChIJo0atmwMryzsR7gGvCn7PbkA","Classic petroleum NAYARA","Hyderabad Road, Raini Gudem","17.022187","79.36068999999999","true"
"ChIJf0-ijDoryzsRf_9Avus1iL4","Bharat Petrol pump and CNG station Tipparthi","MALLEPALLIVARIGUDEM, Nalgonda","17.0211456","79.37875559999999","true"
"ChIJbQgFFA_VNDoRq7dzf5H-284","Hindustan Petroleum Corporation Limited","Ground Floor, Jangareddigudem, Tipparthy","17.016019","79.3854601","true"
"ChIJfS_WRV8rNToRhZtVKQqDiN8","IndianOil","Sy No 1118, Kannekal","16.9455048","79.3817682","true"
"ChIJxfEqeywpyzsRe49vJB9Qwug","Hindustan Petroleum Corporation Limited","Survey No 30, Hyderabad Road, Marriguda","17.0944234","79.2514605","true"
"ChIJL-ILeywpyzsRltIx1S_-YS0","Durga Devi Filling Station Hindustan Petroleum","Marriguda, Nalgonda SH-2, Guntur, Hyderabad Road, Marriguda","17.0907834","79.25060669999999","true"
"ChIJzYKgTJkpyzsRsd71zYb1SaU","Aramco Fuel Plaza","Bus Stop, Marriguda, SH 21, Industrial Area, Nalgonda","17.0903461","79.25376279999999","true"
"ChIJ4WkUyi8pyzsRDflr5Kysf6s","Essar","India","17.0889614","79.2550536",""
"ChIJBbNlUDwpyzsROYVS9iuQLpw","IndianOil","Sy No 1513, Hyderabad Road Arjalabavi, Appajipet, Old Venkateshwara Colony, Nalgonda","17.0785203","79.25982119999999","true"
"ChIJTSSI-hEvyzsRDH8COu_V9OE","Essar Petrol Bunk","469J+FXM, Nalgonda","17.1187163","79.2324366",""
"ChIJxThv42kpyzsRmM5DUE2f4C4","Hindustan Petroleum Corporation Limited","Survey No 1498, New Venkateshwara Colony, Nalgonda","17.072388","79.26217100000001","true"
"ChIJ-3m5d4EpyzsRQywqhKsb2Rs","Rk Shop","1, Nalgonda","17.0692512","79.2635143",""
"ChIJmQbciRMpyzsRxXANADUX6r4","Venkateshwara oil company Bharat Petroleum","Nalgonda, SH-2, Guntur Hyderabad Road, Nalgonda, Nalgonda","17.0694235","79.2638597",""
"ChIJXSOwIw4nyzsRD2ARqqL4aEI","Hindustan Petroleum Corporation Limited","Survey No 339E, Domalpalli","17.07690819999999","79.12980519999999","true"
"ChIJQzcC9e8vyzsRDQotGubeJ6k","Hindustan Petroleum Corporation Limited","Ground Floor, near 12th Batallion TSSP, SH 2, Narkatpally Addanki Hwy, Aneparti","17.130825","79.228839","true"
"ChIJaSvwH2EpyzsR_Ito0IakPdg","Hindustan Petroleum Corporation Limited","Ground Floor, Addanki Narketpalli Bypass Road, Panagal, Nalgonda","17.073374","79.2860182","true"
"ChIJS76XMmEpyzsRxVePTPDJipI","S R SERVICE STATION, Bharat Petroleum","India","17.0725624","79.2846715",""
"ChIJd1REj-YpyzsRDUIzw3S5UR8","Hindustan Petroleum Corporation Limited","Ground Floor, near Hyundai Showroom, SH 2, Ammaguda","17.086844","79.27210099999999","true"
"ChIJO2aqh18pyzsR56lO721W9R0","IndianOil","Sy No 139, Panagal","17.078369","79.289644","true"
"ChIJETKMIDctyzsRkmMVGKOVI2s","ESSAR Petrol Diesel Bunk","49HC+3C2, Suraram","17.127641","79.3710132",""
"ChIJW51DKJ8vyzsRAeIMboR9wJE","IndianOil","Ground Floor, Yellareddy Gudem,Akkinepally, Yellareddy Guda","17.1477378","79.2200135","true"
"ChIJ0U0vDPMvyzsR983OY_bPgW4","Sri Parvathi Jadala Ramalingeshwara Swamy filling station","Yellareddy Guda","17.1721214","79.2058824","true"
"ChIJQ9TYfQ8wyzsRJYJI_DSTyPM","Hindustan Petroleum Corporation Limited","Ground Floor, NH 9, Narketpalle","17.2005102","79.20809419999999","true"
"ChIJNYrB-Lw6yzsRI0chKAojvLE","Bharat Petroleum: Sai Filling Station","NH-9, Vijayavada Hydrabad Road, Narkatpally Main Road, Nalgonda, Narkatpally","17.2075","79.18599999999999","true"
"ChIJB5IalfIvyzsR0ak9OIaLvE8","వర్షిణి జ్యూయలర్స్","India","17.1671191","79.20999069999999",""
"ChIJh3ov8fMvyzsR65QrD9XxwrE","NAYARA","56C4+3CC, Hyderabad Road, Yellareddigudem","17.1701942","79.20603009999999",""
"ChIJBbMQvnovyzsR41NoAt5kB3M","Hindustan Petroleum Corporation Limited","Survey No 216/1, Narketpalle","17.1734183","79.2047319","true"
"ChIJfyQfagAvyzsRFb9CZeDc8Cc","SRI VENKATESHWARA Filling station","56J2+V8H, Cherughat","17.1833024","79.201337","true"
"ChIJ0TqhzzovyzsRfB8avnIpczU","Hindustan Petroleum Corporation Limited","Sy No 749E2 & 3 SH 2, Addanki, Narketpalle","17.186473","79.200396","true"
"ChIJ3UBwNGclyzsRSnGAFhj5b-Q","IndianOil","Sy No 90/A, Aipur, Brahmana Vellemla","17.1686498","79.1432627","true"
"ChIJYXJP65QkyzsRh4aYynKnuQE","Bharat Petroleum","India","17.1569068","79.1305678",""
"ChIJ7SCceac6yzsR1JebrRxEccM","IndianOil","Survey No 220, Varkatpally, Akkinepally","17.2030668","79.1994438","true"
"ChIJk4uMOaU7yzsRHRxeDQZSJaE","Bharat Petroleum, Petrol Pump -Sai Fillig Station","HIGHWAY ROAD NARKETPALLY, Shapally","17.20440809999999","79.1977225","true"
"ChIJebwjRAAvyzsRzXFSiQumcaE","Shiva sai filling station","57M3+888, Akkinepallivari Lingotam","17.183297","79.25331349999999","true"
"ChIJX1DPBqUtyzsRfNWr0tzewQU","Hindustan Petroleum Corporation Limited","RS No 126, A2 NH 9, Katangur","17.1625118","79.32647349999999","true"
"ChIJK0cQX1ItyzsREI_0WqJCd-Y","VENU GOPALA FILLING STATION","Nalgonda Road, Ramnagar","17.1392865","79.3089758","true"
"ChIJf5mn1DouyzsR801tRH1Uuro","IndianOil","Sy No 28 & 32 Pamanagundla, Kattangur, Aiti Pamula","17.179601","79.25870599999999","true"
"ChIJ0atK-zYsyzsRk3Iin5VPnLM","IndianOil","Survey No 423/Aa2, Katangur","17.1509228","79.3104383","true"
"ChIJ548sElItyzsR9aoidm5kyQU","Essar Petrol Pump","58C6+923, Eduloor - Kattangur Road, Katangur","17.1708804","79.3100419",""
"ChIJF8j7_rstyzsRPl8rZo1Ov6w","Fuel Station","Eduloor - Kattangur Rd, Road, Katangur","17.1750036","79.3087769",""
"ChIJ_TpGWwAvyzsR3Q2SpGbIglM","Nayara petrol station","56QX+W9V, Akkinepallivari Lingotam","17.1898082","79.2483364","true"
"ChIJN2ofdAAvyzsR5P8DrSamik0","Aegis LPG gas Station","56QX+W9V, Akkinepallivari Lingotam","17.1898625","79.2484219",""
"ChIJDU0EVAotyzsR-QqQ9I6IXRk","Bharat Petroleum Petrol Pump , GOKUL PETRO AGENCY","SY NO.116/A,116/AA,116/U/4NH 65, KATTANGUR (V )& ( M","17.1631441","79.3212032","true"
"ChIJyZWV-KQtyzsRsWZJiec5oUU","Gokul Petro Agency","587G+9PR, Nalgonda","17.1634773","79.3267671",""
"ChIJVQ2a_qQtyzsRmnjnUqbCI0Q","Bharth Petroleum","India","17.1634686","79.3267985",""
"ChIJp4Wf-KQtyzsRRAZ7nNmXddo","Bharat Petroleum","India","17.1634777","79.326831",""
"ChIJRWeazunSNDoRn-9KDk8eY2I","Devi Petro Filling Station-Bharat Petroleum","Nakrekhal Main Road, Nalgonda, NH-9, Vijayavada Hydrabad Road, Nakirekal, Nakirekal","17.1674473","79.4037953","true"