place_id,name,address,latitude,longitude,open_now
"ChIJqztw-jK4yzsRyZb2_i-OGuc","IndianOil","Survey No 37, E Maheshwaram, Chegur","17.153582","78.336255","true"
"ChIJ9yGi8PXHyzsRHjsvamAic8w","IndianOil","Mahabubnagar, Ground Floor, Thimmapur, Rangareddy Inmulnarva","17.1557034","78.2924201","true"
"ChIJ_6JFXwrIyzsRTJogEoybrfQ","Hindustan Petroleum Corporation Limited","Survey No 1950, Ayyappa Nagar, Kothur","17.134629","78.27292969999999","true"
"ChIJpYOSBVe3yzsRQvBKvhMcj1I","Hindustan Petroleum Corporation Limited","Survey No 15/P, Pendyal","17.1387719","78.37497019999999","true"
"ChIJu8czlQu3yzsRVJFAio307Vg","MD.KHAYYUM GAS","486C+6Q6, Penjerla","17.1105533","78.3218876",""
"ChIJiV7iFAC3yzsRlYob1DtRfmI","Hindustan Petroleum Corporation Limited","Survey No 26, U Maheshwaram, Kollapadakal","17.0899444","78.36660599999999","true"
"ChIJOXStXya5yzsRQNjU5O0OC6E","Sri Venkateswara filling station","5866+JC8, Peddatupra","17.1615351","78.3110761","true"
"ChIJT-i3hdu5yzsRHrBzrAXqAW8","BHARATH PETROL PUMP","Penjarla Road, Kothur","17.1392932","78.295377","true"
"ChIJ1zhhUdi3yzsRRVa6b2sI0ZA","Nayara energy Sri Sai filling station","Mekaguda","17.1051228","78.29564309999999","true"
"ChIJX09T8VTJyzsRZggoks0R-OQ","Hindustan Petroleum Corporation Limited","Survey No 192/E, JP Dargah Road, Nandigama","17.1271896","78.28899679999999","true"
"ChIJZbboYUC3yzsRNFJttXgsWO8","Bharat Petrol Pump","472W+MCX, Unnamed Road, Mekaguda","17.1017302","78.2961186",""
"ChIJ0xf7UQDHyzsR23Z6XDUMFIM","Hindustan Petroleum Corporation Limited","Kothur By- Pass National Highway 44, Kothur","17.139619","78.288553","true"
"ChIJ9VyB5lC5yzsRYLfq7MEdO44","Hindustan Petroleum Corporation Limited","Survey No 88, NH 44, Thimmapur","17.1640998","78.2965461","true"
"ChIJmbBoD9O5yzsRVXJKBtCKZyE","Hindustan Petroleum Corporation Limited","No 68, A1/2, Madanpalle","17.1879402","78.32827689999999","true"
"ChIJJfEYMADJyzsRxGT1vir9zl0","Bharat petroleum","47JJ+8PP, Siddapur","17.130851","78.28137199999999",""
"ChIJl4UewoLJyzsRLiXMbT1zGOE","Essar Petrol Pump","National Highway 44","17.1303645","78.2809008","true"
"ChIJYUaqZy-6yzsRkBtMtMRTyKQ","IndianOil","Survey No 54, Maheshwaram, Attapur, Kukatpally, Hyderabad","17.178583","78.391574","true"
"ChIJrWqyEJC5yzsRcaiR8jmqfdo","Hindustan Petroleum Corporation Limited","Survey No 109/AA, Kothur","17.1744579","78.2937905","true"
"ChIJyeM5AeLHyzsRw3eN9vmWlAg","Bharat Petroleum, Petrol Pump - KVLS FUELS","Thimmapur","17.1365643","78.2763724","true"
"ChIJrRdyw4u3yzsRl0smb48TWsE","IndianOil","Sy No 10/4S, B Pally, Siddapur - Porandla Road, Kothur","17.062221","78.352736","true"
"ChIJg6ikIADHyzsRNUFGidQgCQA","RK_CNG_PUMP_H02","47QG+PCF, Anthireddyguda","17.1387527","78.2759068",""
"ChIJy5zrMve5yzsR4yvSs1ltWk0","Bharat petroleum","58Q5+8W4, Venkannaguda","17.188772","78.3087377",""
"ChIJETSkZgCxyzsRvTBsQCdbTSk","Hindustan Petroleum Corporation Limited","No 381, 382 & 383, Maheshwaram","17.1327889","78.4218099","true"
"ChIJm67ynKexyzsRYBZZghUdoWA","Sri Manikanta Service Station | BPCL","SY.NO 342NEAR MALLANNA TEMPLE","17.13212979999999","78.4273777","true"
"ChIJiZkpQ1mxyzsRDC3hSHQfZvs","Hindustan Petroleum Corporation Limited","Survey No 334, Pulimamidi, Maheshwaram","17.1322247","78.4334524","true"
"ChIJXeo6p3uwyzsRBdXioX630fA","IndianOil","Survey No 4, Maheshwaram","17.1373735","78.4371967","true"
"ChIJc4Hfu3GxyzsR0DW5iZHxx8E","IndianOil","Sy No 234, E Maheshwaram, Thummaloor","17.1281527","78.4769018","true"
"ChIJX9_Zc3CvyzsRdUBsLfDGcws","KMR FUELS","Sy No 240, Srisailam Highway, Thummaloor","17.1212706","78.47705169999999","true"
"ChIJ3cyFqiyvyzsRaKi7VjXeiac","Hindustan Petroleum Corporation Limited","Survey No 240, Maheshwaram, Thummaloor","17.121205","78.477091","true"
"ChIJT5trlR2xyzsRaCDwduU3_us","IndianOil","Sy No 38, Kandukur,Inmulnarva, E & 38/A/1/38/A/2","17.1030228","78.4739249","true"
"ChIJEWvXyE-7yzsRuoMKXTxk8pk","Hindustan Petroleum Corporation Limited","H No 6, Survey No 624/a/1/2, 4/1, Maheshwaram, Mankhal","17.190824","78.450661","true"
"ChIJJZZvnTOxyzsR0B_yXGS_GL4","Hindustan Petroleum Corporation Limited","Survey No 880, E/2 NH 765, Srisailam Highway, Hyderabad","17.085592","78.474701","true"
"ChIJGwEbM6mxyzsRZgJ4zRrzTqU","Sri Venkata Sai Filling station","3FPF+3V2, Gudoor","17.0851323","78.47464339999999","true"
"ChIJlZ5QI9O6yzsRlT5FBuHvoH0","IndianOil","No 7/128 Maheshwaram, Hyderabad","17.186301","78.47410099999999","true"
"ChIJwQm2hQOvyzsR2o7Krr3r48I","IndianOil","Survey No 344/A Gudur, Kandurkur, Chippalpalle","17.095587","78.496903","true"
"ChIJxZpmZ92vyzsR6IN1yZqBSWc","SRI BALAJI FILLING STATION","Kandukur Mandal, Rachloor","17.1172277","78.52207179999999","true"
"ChIJRzyxL72xyzsR0CGCoAKO_mY","Hindustan Petroleum Corporation Limited","Survey No 580/AA1, 581, AA1 & 581/EE, Kandukur","17.064889","78.473327","true"
"ChIJ69OMJK65yzsRWEIqLlv0Cyg","Hindustan Petroleum Corporation Limited","Survey No 222, NH 44, Hyderabad - Bangalore Highway, Peddashapur","17.211658","78.335371","true"
"ChIJQQNskhK5yzsRJSoyO43aWOc","Hindustan Petroleum Corporation Limited","S No 26, 27 & 28, Shamshabad, Gandiguda","17.22778109999999","78.3500086","true"
"ChIJ9chKGdK_yzsRqGPWMcpKBc0","Hindustan Petroleum Corporation Limited","S No 4 Shamshabad, Thondapalli, Hyderabad","17.2479539","78.37426130000001","true"
"ChIJLZ0pxxi_yzsRkuz8LH-0Yg4","IndianOil","Sy No 347/A, Chinnagolkonda, Shamshabad, Narkhuda","17.2576372","78.33197369999999","true"
"ChIJ-SmNBPC9yzsRwJ3Fymu-85g","Hindustan Petroleum Corporation Limited","Survey No. 87 & 89, near Delhivery Hub, Mansanpally Highway, Pedda Gollapally, Shamshabad, Hyderabad","17.2383189","78.39710649999999","true"
"ChIJKW5lvEK_yzsRC7RJ3RqqMyU","IndianOil","Survey No 37/A62, Uu & 37/Aa, Shamshabad, Kacharam","17.2540757","78.3098042","true"
"ChIJB25K8TO_yzsRIs79mt_uZaw","Sulochana filling station","7834+F7W, Kacharam","17.2537346","78.3056987",""
"ChIJi650eAC_yzsRjy-3mJWo7PA","Hindustan Petroleum Corporation Limited","S No 577, Rallaguda, Shamshabad, Hyderabad","17.2629239","78.378712","true"
"ChIJp8AkbAC_yzsRBSGM41KYt8w","HP petrol pump","797H+HP5, R B Nagar, Shamshabad, Hyderabad","17.2638777","78.3793539",""
"ChIJ0wAxksykyzsRml4iUlF5Z2A","Hindustan Petroleum Corporation Limited","Survey No, 199 & 200, Maheswaram, Tukkuguda, Nagarkurnool","17.2109404","78.47717840000001","true"
"ChIJNRuRJ9vvAzsRG6EnNk0kqlM","IndianOil","Maheshwaram, Tukkuguda","17.2149982","78.4771998","true"
"ChIJFWKgmYC8yzsR5FDHPyO2lwc","Megha Gas - CNG Station","India","17.2425642","78.4302555","true"
"ChIJC6fLdwClyzsR1NqZeHuEe3Y","Hp petrol bunk","HP Petrol Pump, Dinesh, Tukkuguda","17.2102233","78.47669929999999",""
"ChIJd-RYXwClyzsR-lX3Qd8FCa4","Sri Prema theatre junction road","6F8G+6Q2, Tukkuguda","17.2155066","78.476896",""
"ChIJhaWsjZi9yzsRnz23Xx4CY2k","Bharat Petroleum COCO Pump, BP Hyderabad Airport","6FV5+RG8, Airport Approach Road, Shamshabad, Mamidpally","17.2445345","78.458838","true"
"ChIJ0RBxrru9yzsRz7iIZ5wkl1A","Fauji Petrol Pump","Plot No 1, Abdul Kalam Township Road, Shamshabad, Hyderabad","17.2592013","78.4056652","true"
"ChIJdXOjAgC7yzsRjWbSr6iGIz8","Srinivasa FILLING STATION Bharat","Apiic Hardware Park, 3, Hyderabad","17.2233812","78.4751567","true"
"ChIJsXi4bAClyzsRJmhTk7QfhaQ","Raviryala underway","6G57+95C, Service Road, Kongar Khurd (A)","17.2084279","78.5129045",""
"ChIJO7ED4ZulyzsRQt4swZ4TtTA","Bharat Petroleum Petrol Pump , SRI LAXMI BALAJI PETRO FILLS","SY.NO. 334/1E KONGARA KHURD (V)MAHESHWARAM MANDAL","17.208096","78.513341","true"
"ChIJT8eM3qy8yzsR2dEMWZGAOSU","Hindustan Petroleum Corporation Limited","Kancha Imarat, Survey No 1/1, Airport Entrance Raviryala, Srisailam Highway, Hyderabad","17.2473019","78.47441909999999","true"
"ChIJIRwn85e9yzsRjySeSpmstyM","Meghagas CNG Station","6FXF+PP4, Mamidpally","17.2492747","78.4743154","false"
"ChIJ_YgTzTakyzsR9EgRhrx2Ge0","IndianOil","Survey No 55, EE, Kongara Kalan Road, Ibrahimpatnam","17.206398","78.5491938","true"
"ChIJcWJEEAClyzsRJn_bzuo8qgU","KGN WELDING WORKS","6GMV+C27, Adibatla","17.2335311","78.54255429999999","false"
"ChIJRzlEyQijyzsRLeMrC_1T_o8","NIRADI SHANTHAIAH","Indian Petroleum Opposites, ayyappaswmy Temple Shamshabad Road, Hyderabad","17.2623524","78.47659039999999",""
"ChIJyRr2CEijyzsRAFWgLO60aEE","BHARATGAS DISTRIBUTOR, RCI","7F7P+MH2, Kurmaguda, Hyderabad","17.2641424","78.4863803","true"
"ChIJ7bNYczC8yzsRchPki18J5sI","Hindustan Petroleum Corporation Limited","Survey No 719, Peshambanda, Shamshabad, Hyderabad","17.2718183","78.3971187","true"
"ChIJJXybGUq8yzsRinUc4gwb78w","IndianOil","S No 670, Sathamrai Colony, Shamshabad, Gaganpahad","17.27809809999999","78.4081583","true"
"ChIJgdDxQCC9yzsRYHbYTvFfjLc","Hindustan Petroleum Corporation Limited","Survey No 35, Satamrai","17.28190379999999","78.4111729","true"
"ChIJ00CTuDGVyzsRTKizUnkD7HI","Hindustan Petroleum Corporation Limited","Survey No, 7, P Gandipet, Dargah Khaleej Khan, Hyderabad","17.328838","78.37302199999999","true"
"ChIJpSRy0Zq9yzsRu7g9vyfrhF8","Bharat Petroleum, Petrol Pump -Fil Point","Gaganpahad","17.2892339","78.416855","true"
"ChIJkwdU-7m9yzsRyZOh4i88cVU","TS AGRO KARSHAK PETROL BUNK BOMMARASPET","Hyderabad","17.314993","78.4026268",""
"ChIJK1tBcaO9yzsRsl-n77arfzw","IOCL - Moula Service Station","S No 62, Gaganpahad, Rajendranagar mandal, Budwel","17.3027599","78.42048419999999","true"
"ChIJr1xuJrC9yzsRJfEXBGEe4kY","Hindustan Petroleum Corporation Limited","Survey No 218, National Highway 44, Gaganpahad","17.29455","78.41816","true"
"ChIJIxvAu0a9yzsRyaO_bRrowow","IndianOil","Sy No 83, Rajendra Nagar, Mailardevpally, Hyderabad","17.3148473","78.45905599999999","true"
"ChIJP0Fi69KiyzsR3NjAbyGt_uo","IndianOil","Saroor Nagar, Shaheen Nagar, Habeeb Colony, Balapur","17.2980631","78.4768783","true"
"ChIJUW_x0syiyzsREUXotU_v9WQ","IndianOil","S No 104, Chandrayangutta, Hyderabad","17.302799","78.47540300000001","true"
"ChIJr7f9mLOjyzsRvwnFh-ANqLY","IndianOil","S No 187, 2, Bandlaguda Road, Vattepally, Mailardevpally","17.3155929","78.4652083","true"
"ChIJW8ZCriuWyzsRe8Q1XEBX_f4","IOC Petrol Pump","8CMG+VC9, Inner Ring Road, Vivekananda Nagar, Shivarampally Jagir","17.3346614","78.42612059999999","true"
"ChIJxes_MdiXyzsRovT5HcYEkC8","Hindustan Petroleum Corporation Limited","Ground Floor, Bangalore Road, Hasan Nagar, Hyderabad","17.3346545","78.4421272","true"
"ChIJsxP_ZJC9yzsRGlHPPSsV95o","Bharat Petroleum","beside Metro, 7-1-1/2 Gaganpahd, beside Metro, Umda Nagar, Hyderabad","17.2961123","78.4178225",""
"ChIJIUB7OAC9yzsRGXVdH5OSKoI","Petrol bunk","7CX9+58X, Hyderabad","17.2979968","78.418373",""
"ChIJnTFW4fq9yzsRcAXsnQY5ACk","Bharat Petroleum, Petrol Pump -M/S Srigopal Ser.Stn","Gaganpahad","17.2992868","78.41962149999999","true"
"ChIJvXITkW29yzsRGTtECycBlJI","HP LPG Godown","7CRQ+9RH, Green City Farm Lands, Pardhi Guda, Hyderabad","17.2909403","78.4396108",""
"ChIJC-ek6Za9yzsRc-tYjMc5yw0","Salman Fuel Point","Jalpally Road, Jalapalli, Hyderabad","17.282849","78.45080399999999",""
"ChIJY7OozB29yzsRH9lWgEmAzWM","Hindustan Petroleum Corporation Limited","Survey No 289, 1 Gaganpahad, Rajendranagar mandal, Hyderabad","17.306528","78.4211828","true"
"ChIJ5e-vFVm9yzsR_muz41ZFiH8","Hindustan Petroleum Corporation Limited","Survey No 265, D No 1/1/1/98, Rajendranagar mandal, Budwel","17.3098633","78.42356079999999","true"
"ChIJZ0dWe1-9yzsRC1TI_FR7hOw","Hp bunk CNG","8C5J+6PG, Old Kurnool Road, Telangana NGOS Colony, Katedhan","17.308015","78.4315167","true"
"ChIJdfXmKAu9yzsReX2blDXd7iI","Hindustan Petroleum Corporation Limited","Sy No 71/A, Gaganpahad, Rajendranagar, Katedhan","17.3079754","78.4316587","true"
"ChIJMVCbXey9yzsRRO-nd09GS8E","Ramesh","opp. Shop, 7-3-74, Katedhan","17.3080656","78.4314405",""
"ChIJz6s5YQC9yzsRg1iohau8bZA","Katedan","8C5J+6X2, Katedhan","17.3080183","78.4323909",""
"ChIJvyapb2W9yzsRsSyw9acO-gg","IndianOil","Sy No 48, Ida, Kattedan Road, Nehru Nagar, Rajendranagar mandal, Hyderabad","17.3080865","78.4322912","true"
"ChIJewTF5eK9yzsRIiZ0rhcaGm4","Arsad Air Pump","Ganesh Nagar, beside Indian Petrol Pump, 6-5-36/3, Kattedan Road, Hyderabad","17.3084299","78.4325458",""
"ChIJOy2rDAC9yzsRKw0aGV1dYCg","IOCL-Pravaah Fuels","8C5M+92W, Hyderabad","17.3084994","78.4325908","true"
"ChIJWVZZyXS9yzsR5hsGagQaM0I","A-One Oil","8C5M+HF4, Old Kurnool Road, Telangana NGOS Colony, Katedhan","17.3088845","78.43369229999999",""
"ChIJHYg5L2u9yzsRaLH2o2KYKBs","Hindustan Petroleum Corporation Limited","Survey No, 157 to 159, Rajendranagar, Mailardevpally","17.31286429999999","78.44069840000002","true"
"ChIJYx7AcnK9yzsRKVB2qU3fX7M","VIRAT Mustard Oil","8C7R+759, Old Kurnool Road, Telangana NGOS Colony, Katedhan","17.313168","78.4404721",""
"ChIJEQrYVd29yzsR9xKs_IMC9YA","Hindustan Petroleum Corporation Limited","8C5X+MHX, Laxmiguda Village, Lakshmiguda","17.3092317","78.44899710000001","true"
"ChIJ2_z48gq9yzsRVgdO15Li46E","BPCL - Ridhima Service Station","Bus stop, Durga Nagar, Mailardevpally","17.3152298","78.4431731",""
"ChIJbZfuJQW9yzsREuFeAtcm_Us","MOHD FAYAZ","6-6-76B, Inner Ring Road, Markandeya Nagar, Babul Reddy Nagar, Nawab Saheb Kunta, Katedhan","17.318623","78.43686470000002",""
"ChIJ9TH2vnC9yzsREiFSpmbhDrw","IndianOil","Sy No 48, 18/A, Rajendra Nagar, Katedhan","17.3189628","78.4365718","true"
"ChIJwxWX1yK9yzsRF76uOWIkK4Y","Cyberabad Police Welfare Fuel Station","8-5-140/53, Inner Ring Road, Durga Nagar, Katedhan","17.3153079","78.4467039",""
"ChIJedOsJcC9yzsRAV_AzjJPekQ","Nadeem bhai petrol and stationary","8F27+2GH, Ghousenagar Milaad Road, Chandrayangutta, Hyderabad","17.3000541","78.4638536","true"
"ChIJnwpldgC9yzsR9RNaZQfmC00","HP PETROL PUMP","6-1-33, Inner Ring Road, Shivrampalli Village, Shivarampally Jagir","17.3229949","78.4297342",""
"ChIJ--wXf4K9yzsRnd4wBmtshKA","Hindustan Petroleum Corporation Limited","Aram Ghar, No 6/3/181/4/A/2 Kattedan, Cross Rd, Shivrampalli Village, Hyderabad","17.3230301","78.4298991","true"
"ChIJYdBfU9S8yzsR5Ix1GQItX5c","Hindustan Petroleum Corporation Limited","Survey No 156, Plot No 47 to 50 Wadi E Huda, Balapur, Saroornagar","17.2844795","78.4719944","true"
"ChIJhWQzwBy9yzsRjPBEJjC-qpo","Bharat Petrol Pump","opp. Shop Pahadi, 18-8-646, Hyderabad","17.2783429","78.4734351",""
"ChIJM8dPhXi9yzsRNeABhHjyS0c","IndianOil","Survey No 101, Attapur Ring Road Rajendrangr, Kattedan Road, Indra Reddy Nagar, Hyderabad","17.323505","78.430405","true"
"ChIJK58y3NK8yzsRsFBZBewh6OI","Sharfan & Sons Filling Station Bharat Petroleum Corporation Ltd.","Rajiv Gandhi International Airport, New bypass pahadi shareef dargah road, Srisailam Highway","17.278338","78.4737735","true"
"ChIJBUnEfQeXyzsRcL0UZIWtMrI","Hindustan Petroleum Corporation Limited","Survey No 366, Rajendranagar, Attapur, Hyderabad","17.3266576","78.42921299999999","true"
"ChIJESvsKUK9yzsRJ3dSkNIrwDI","Hindustan Petroleum Corporation Limited","No 8, 5/11/1 to 3, Mailardevpally, Hyderabad","17.3156157","78.45490509999999","true"
"ChIJtQr4x8-9yzsR5XA9fapjCXY","Telangana state agro karshak petrol pump","8CH9+C75, Budwel","17.3285224","78.4182345","true"
"ChIJAQC9vIa9yzsRTNrs_-RqXdc","Hindustan Petroleum Corporation Limited","Survey No 60/A1, Rajendranagar, Katedhan","17.3263018","78.4342376","true"
"ChIJGYLshza9yzsRRb8kzgLW28g","Haseeb Petrol Pump","Moghals Colony, Weaker Section Colony, Street Number 5, Moghuls Colony, Vattepally, Hyderabad","17.3197809","78.4537248",""
"ChIJIdQmpfy9yzsRBqtKiZ6E0u0","Mansoor Bin Amar Service","18-5-412, Chandrayangutta, Hyderabad","17.3149034","78.4602467",""
"ChIJl9yJLQC9yzsRnLEznUAFjEI","Shivrampally shyamala Nagar","6-2-18/8/2, Prashant Colony, Vivekananda Nagar, Hyderabad","17.3299539","78.4306798",""
"ChIJy_tcdLm9yzsRt5V3RCLNFzY","Syed Azeem Shah and Son's Service Station","Survey No 10, Plot No 48, 61 & 62, Vattepally, Hyderabad","17.321743","78.452891","true"
"ChIJgz83UkqhyzsR1IO8amzT33k","Naveen Fruit Shop","Badangpet Road, Siva Sai Puram, Badangpet","17.2989401","78.53156830000002","true"
"ChIJ1SGit1-iyzsR2YtQJmUflig","HP Petrol Bunk, Shivasai Enterprise","4, Annapurna Nagar Road Number 1, Bheeshma Nagar, Badangpet","17.3120785","78.5229106","true"
"ChIJP3ezPoqiyzsRWDnqJJLtDkU","Hindustan Petroleum Corporation Limited","Ground Floor, RCI Road, Lenin Nagar, Meerpet","17.3176901","78.5183777","true"
"ChIJO7yI7qyiyzsRsjPvEQ1TPgw","petrol pump","Kummar Basthi, Chandrayangutta, Hyderabad","17.3266151","78.4771305",""
"ChIJP6efeqyiyzsRkywytvEIPdM","IndianOil","18-2-39/72/A, Inner Ring Road, Saba Colony, Gazia-E-Millat Colony, Falaknuma, Hyderabad","17.3278","78.4787592","true"
"ChIJxRzzwKyiyzsRZkV0PNVkJDY","PrimeFuel Auto Gas","Chandrayangutta Flyover, Indira Nagar, Falaknuma, Hyderabad","17.3272984","78.476367","true"
"ChIJwSaxBqyiyzsRRfGm9SS3lrc","Nayara Petrol Pump.","18-1-404, Inner Ring Road, Tadla Kunta, Chandrayangutta, Hyderabad","17.328379","78.48049","true"
"ChIJiX1036aiyzsRYM4b-cfiv2k","Hindustan Petroleum Corporation Limited","H No 18/1/350/A/6, 7, 8 Phoolbagh, Fathima, Owaisi Nagar, Hyderabad","17.33212","78.49101999999999","true"
"ChIJPRVKw1W9yzsRJILhNLC-23Q","Hindustan Petroleum Corporation Limited","opposite Falaknuma Palace, D No 18/2/474/3, Nagarkarnool, Jangammet, Hyderabad","17.3321894","78.4701503","true"
"ChIJex-smHyiyzsRM25S6hyM-e8","R.R Fuels (Nayara Energy Filling Station)","Survey No.74/A, Jillelguda, Balapur Mandal, Hyderabad","17.327323","78.52588899999999","true"
"ChIJ9azGy_2XyzsRVXfIZuTAX_s","IndianOil","MCH No 18/2/578/2, Falaknuma, Hyderabad","17.3364998","78.4683045","true"
"ChIJxzAGltGjyzsR4e1uREsA0jA","IndianOil","Survey No 61/A 61/A/A Saroornagar, Mallapur, Kurmalguda","17.273954","78.48818299999999","true"
"ChIJk0AfF-ejyzsRVIHRzWRLSzM","MK FILLING STATION","Sy.no-61, Balapur Airport Road, Mallapur, Hyderabad","17.2735117","78.4898156","true"
"ChIJEVeRXwCjyzsR6AUOVRk4eRY","NAYARA PETROL PUMP","no 61, Balapur Airport Road, Mallapur, Balapur","17.2736058","78.4898556","true"
"ChIJl__V1bSjyzsR5ssDH7gLm48","PRATHAP REDDY","Indian Petrol Pump, Tukkuguda, Hyderabad","17.2866092","78.48421499999999",""
"ChIJf4QesdOiyzsR5n25Jy1mbFo","A-1 Gas Stove","India","17.29604149999999","78.47899199999999",""
"ChIJ95egGQujyzsR-b9HEdc4v_Q","manik","17-65, Shaheen Nagar, Hyderabad","17.2975576","78.47679020000001",""
"ChIJMxPcSamjyzsRli-ZDt2U6EI","Sajjid Ali Indian Oil","beside Getfit Gym, 11-66/15, Shaheen Nagar, Hyderabad","17.2977154","78.47687739999999",""
"ChIJm-e52hOjyzsRgePK7rzEnGg","Rasheed Pump","beside Get Fit Gym, 22-88, Shaheen Nagar, Habeeb Colony, Pallecheruvu","17.2977561","78.476984",""
"ChIJD1x0EG2jyzsRIywJLE6EjrE","Mohammad Sabil","16-77, Shaheen Nagar, Hyd, Hyderabad","17.2978921","78.4770954",""
"ChIJDZLNrJyjyzsRmPRkubeNk4Y","Hindustan Petroleum Corporation Limited","Survey No 45 Balapur, Kurmalguda, Nadargul Rural","17.267781","78.521515","true"
"ChIJf120O6KjyzsRqoBIRf522TE","Hp Gas","1, Nadargul, Hyderabad","17.2693813","78.52730489999999","true"
"ChIJNzIIluKjyzsRwLWYxLQazZo","Go Gas Auto LPG Station","8F5G+96Q, Yerrakunta, Chandrayangutta, Hyderabad","17.3084539","78.47561","true"
"ChIJlVOj0sqiyzsRfEXsdetkiW4","Al Amoodi Filling Station Bharath Petroleum (ال عمودی فیلنگ اسٹیشن)","Near, Errakunta, Barkas, Chandrayangutta, Hyderabad","17.3087484","78.47517549999999","true"
"ChIJR96PucqiyzsRtO7fSNMfM4c","Arfat Gas Station","5-14, Srisailam Highway, Yerrakunta, Chandrayangutta, Hyderabad","17.30975","78.4759577","true"
"ChIJBz1gefGiyzsRVX16hSBa3QY","S.Y.R","8G46+PX9, Balapur - Badangpet, Badnaipet, Balapur","17.3067802","78.51248029999999",""
"ChIJ_eHwqLCjyzsRsznpy6gK8yk","Bharat Petroleum","India","17.279763","78.53710269999999",""
"ChIJ0ap5jAujyzsR8rJ_AZR73Yw","Amit Bairagi","N0015, Nadargul Rural","17.27900769999999","78.53736789999999",""
"ChIJVbzTuJWjyzsRFDH_Rv5QWKg","IndianOil","Sy No 576/A Saroor Nagar, Nadargul","17.266405","78.539383","true"
"ChIJn3j0MgCjyzsRonKp5iRtC6o","APR FUEL POINT","near srinilayam township, Badangpet","17.288647","78.5358268","true"
"ChIJ5Y6758WjyzsRLgjresBKy2I","IndianOil","Sy No 86, Plot No 1216 to 21, Saroornagar, Badangpet","17.28873","78.53592499999999","true"
"ChIJT7dVjpWjyzsRNVycbker_cQ","Hindustan Petroleum Corporation Limited","Survey No 575, near Nobel College, 1 & 576/1, Ragannaguda Cross Road, Balapur","17.2675465","78.5397574","true"
"ChIJs4CquwijyzsREeAtvY6Qm_0","Bharat Petroleum Pump","7GRP+583, Dawoodkhanguda","17.2903891","78.5358024",""
"ChIJMYvMzJujyzsReD5MD6bHdTY","Hindustan Petroleum Corporation Limited","Survey No 170, Saroornagar, Badangpet","17.3059383","78.5251004","true"
"ChIJNf6-UE69yzsRkbQlVIpYJFA","GOGAS AUTO LPG STATION","8F98+RWX, Beside SR Convention Hall, Rajiv Gandhi Nagar, Mahamood Nagar, Bandlaguda, Chandrayangutta, Hyderabad","17.3196082","78.46734420000001",""
"ChIJUQcuCzSjyzsRFIHlWnqG7Ys","SHAIK AHMED PETROL PUMP","Shop No 11, Chandrayangutta, Hyderabad","17.3228073","78.4804833",""
"ChIJNfFsgI6jyzsRJK69ZxTbcik","Shaik Wali chicken store","12, Omer Colony, Hafiz Baba Nagar South, Hafiz Baba Nagar, Hyderabad","17.3234721","78.4923376",""