place_id,name,address,latitude,longitude,open_now
"ChIJRzKz516WyzsRCXz5jbNluhU","Bharat Petroleum Corporation ltd","No 9/1/364/A/1/3, Survey No 243 to, 247, Gandipet Main Road, Langar Houz, Hyderabad","17.3733105","78.4111495","true"
"ChIJpWJdCMKXyzsREBEMHoWwnls","Hindustan Petroleum Corporation Limited","opposite Zoo Park, H No 19/2/212, Bahadurpura, Hyderabad","17.3502303","78.4524804","true"
"ChIJocuqZ02WyzsRtANuRo1JB_4","Bharat Petroleum Corporation ltd","Survey No 400, opposite Pillar Number 137, Attapur, Hyderabad","17.3657827","78.42819229999999","true"
"ChIJ1SkAnEyWyzsRTjs42ak0kZE","IndianOil","Ground Floor, Upperpally","17.3570049","78.4231226","true"
"ChIJyUDcTvuWyzsRxi_cSRPnefs","Essar - P.S Rathore & company","Toli Chowki, Hyderabad","17.3886349","78.4230226","true"
"ChIJE3o7UgaXyzsRkeax-9rg4ds","Hindustan Petroleum Corporation Limited","No 13/6/457/5, 13/6/457/6 & 13/6/457/7 Karwan, Gudimalkapur, Hyderabad","17.3819327","78.4388613","true"
"ChIJFUEWOrGXyzsRP1WV3ntwQ0w","SUPERGAS Auto LPG Station","No: 19-5-128/1, NM Guda, Hyderabad","17.3617501","78.43731009999999","true"
"ChIJ9amV1LuWyzsRO0UFzGOV3i8","Hindustan Petroleum Corporation Limited","House, No 8/1/299/C/1, Shaikpet, Hyderabad","17.4081206","78.4012055","true"
"ChIJza8ysDWWyzsRLmNROtJ4rfM","SUPERGAS Auto LPG Station - Go Green Enterprises","4-11-93/1/A, Chintalmet, Beside Patel Dairy Farm, Hyderabad","17.3521889","78.4261238","true"
"ChIJdTbbNrqWyzsRVeuqr-rC3Jk","Bharat Petroleum Corporation ltd","Survey No 75, opposite DMart Shaikpet, A/76, Shaikpet Road, Shaikpet, Hyderabad","17.4089419","78.4001152","true"
"ChIJh-IBjnaWyzsRs9VUvVUP7G8","Hindustan Petroleum Corporation Limited","Survey No 19, Bandlaguda Jagir Road, Rajendranagar, Gandamguda","17.3592266","78.3875321","true"
"ChIJu4y7BbmXyzsRBIKK43uVpUY","IndianOil","No 19, 5/28/12/2/A, Kishan Bagh, Hyderabad","17.3594019","78.4444055","true"
"ChIJudgOjySXyzsRRPtgcrYEZw8","IndianOil","No 8/2/682/L/4, Road Number 12, Banjara Hills, Hyderabad","17.4085278","78.43889399999999","true"
"ChIJW8ZCriuWyzsRe8Q1XEBX_f4","IOC Petrol Pump","8CMG+VC9, Inner Ring Road, Vivekananda Nagar, Shivarampally Jagir","17.3346614","78.42612059999999","true"
"ChIJ618GsDq8yzsR_TaPRAfObxk","IndianOil","Sy.No: 148, 713, Shamsabad, Pashambanda, Hyderabad","17.3365137","78.38447219999999","true"
"ChIJLfT6JWiXyzsR1aX1dM6MNuY","Hindustan Petroleum Corporation Limited","Door No 6/2, 29/1, AC Guards, Masab Tank, Hyderabad","17.40288","78.46173","true"
"ChIJufNi_0KXyzsROWkMV3YtvX0","IndianOil","Ground Floor, Wooden Bridge, adjacent Nirankari Bhawan, Saifabad, Hyderabad","17.405803","78.4609469","true"
"ChIJi_xvH2iXyzsRDbdtGjM1B6w","Hindustan Petroleum Corporation Limited","Lakdi-Ka-Pul Railway Station, Lakdikapul, Hyderabad","17.4032419","78.46249660000001","true"
"ChIJg-FrMdiXyzsRELWxphFRJvo","IndianOil","Bahadurpura - Aramghar Road, Meersagar, Tad Bun, Hyderabad","17.3405954","78.4503019","true"
"ChIJF7u4O3uXyzsRRDPu5Wm36KI","Hindustan Petroleum Corporation Limited","Mosque, opposite Ek Minar, 11/6/314, Nampally Station Road, Hyderabad","17.3909657","78.4676743","true"
"ChIJxes_MdiXyzsRovT5HcYEkC8","Hindustan Petroleum Corporation Limited","Ground Floor, Bangalore Road, Hasan Nagar, Hyderabad","17.3346545","78.4421272","true"
"ChIJBdeh8tKQyzsR6F96p6l7t38","IndianOil","D No 8, D Sy, 2/268/A/1/2, Banjara Hills Road Number 3, Banjara Hills, Hyderabad","17.4275036","78.4394762","true"
"ChIJA-kyeYaXyzsReWLV7F3_ET8","BPCL - Ramkishen & Co.","Afzal Gunj, Hyderabad","17.37135809999999","78.469741",""
"ChIJ____P4KXyzsRH6cjD92G5n4","IndianOil","Ground Floor, Goshamahal, Hyderabad","17.37779919999999","78.47131399999999","true"
"ChIJG4vNiWeXyzsRmb4VtbXTr3E","Hindustan Petroleum Corporation Limited","No 6, opposite IGP Office, 1/69/1, Saifabad, Khairtabad, Hyderabad","17.40341","78.46567999999999","true"
"ChIJt6QcmHyXyzsRBm9QeeXhep4","BPCL - Nampally Petrol & Auto Service Station","5-4-418, Srinagar - Kanyakumari Highway, Abids South, Nampally, Hyderabad","17.3906151","78.47029119999999","true"
"ChIJlzO5V9WZyzsRCFPB_gynFyQ","IndianOil","Ground Floor, Goshamahal, Hyderabad","17.3817514","78.4722742","true"
"ChIJHZQN6IuXyzsRgVGkYRI6Yzk","Essar Oil Filling","21-3-858/8, Laad Bazaar Road, Char Kaman, Ghansi Bazaar, Hyderabad","17.3622842","78.47085849999999","true"
"ChIJe8xescqQyzsRLITXus0uR-E","IndianOil","D No 6, 3/654/B, Road Number 1, Banjara Hills, Hyderabad","17.4263641","78.4514373","true"
"ChIJjUcWSUSRyzsR9AHrYXc0_2Q","IndianOil","Plot No 730, Road Number 36, Jubilee Hills, Hyderabad","17.4380503","78.3996014","true"
"ChIJE9TeXfqTyzsRlbUbGnruuuk","IndianOil","S No 52, 58, Serilingampalli, Gachibowli, Hyderabad","17.42967999999999","78.374451","true"
"ChIJKw5KCtaZyzsRuWG8Nmg436Y","Bharat Petroleum, Petrol Pump -Auto Lines,","Jawaharlal Nehru Road, Hyderabad","17.3866511","78.4764885",""
"ChIJgVxjcNaZyzsRmHireNEvi5Y","IndianOil","409, GTK, D No 4/1, 13011, Street Number 5, Hyderabad","17.387311","78.4772964","true"
"ChIJUax_8WGXyzsRFh8loijfgPU","Hindustan Petroleum Corporation Limited","No 59, Basheer Bagh, Hyderabad","17.3995659","78.47459549999999","true"
"ChIJawQ0NfWXyzsReQK7BP_uwYY","IndianOil","MCHD No 20/4/62/G & 62/H & 62, near Charminar, 1, Falaknuma Road, Punchmohalla, Khilwat, Hyderabad","17.3575001","78.473602","true"
"ChIJd8XCqPWXyzsRmtI4XXwb6yQ","Hindustan Petroleum Corporation Limited","No 20, 4/199, Shah Ali Banda, Hyderabad","17.3541631","78.472938","true"
"ChIJFeMkfvaXyzsRJwVx-Oc0LoY","IndianOil","Ground Floor, opposite Bajaj Electronics, Shah Ali Banda, Hyderabad","17.3511438","78.4720811","true"
"ChIJAQAArCyYyzsRy5doyY1OCOs","IndianOil","8/28/5, No 4, RM Road, Putlibowli, Hyderabad","17.3812699","78.482693","true"
"ChIJc7EYlSGYyzsR1dlVQAy9Gk4","IndianOil","23/1, 496, Kotla Alijah, Hyderabad","17.3592822","78.4796669","true"
"ChIJh06dPSOYyzsRYiwHhV4nxAE","Gleam Total Gas","Yakutpura Station Road, Etebar Chowk, Bibi Bazaar, Yakhutpura, Hyderabad","17.3622307","78.4821365","true"
"ChIJ9azGy_2XyzsRVXfIZuTAX_s","IndianOil","MCH No 18/2/578/2, Falaknuma, Hyderabad","17.3364998","78.4683045","true"
"ChIJf4hSTEWUyzsR0NPqYa58d5Q","Y V Krishna Rao & Sons","Plot no 4, beside HP petrol pump, Gandipet Main Road, Narsingi, Hyderabad","17.3875282","78.3415143","true"
"ChIJUzmXR7mWyzsRk7UR2eF236s","IndianOil","Survey No 403, Plot No 1 & 2, Shaikpet, Hyderabad","17.416005","78.434967","true"
"ChIJoZKjUsuWyzsR8T9GTT4Nxmk","IndianOil","Plot No 1354, Road Number 68, Jubilee Hills, Hyderabad","17.4234283","78.4118599","true"
"ChIJ7xcJdO6XyzsRiYpRs9kONFE","Sangshaptak Adhikari","Sang Adhikari, Langar House Flyover, Kalidas Pura, Prashanth Nagar, Langar Houz, Hyderabad","17.3780803","78.4186855",""
"ChIJEYTXBV6XyzsRyonswoKLVXM","Hindustan Petroleum Corporation Limited","D No 9/1/45/3, Langar Houz, Hyderabad","17.378038","78.4204464","true"
"ChIJj0r4RvaXyzsRMSI65CiwLjc","Auti Srikanth","opp. langer house, 12-7-788, Hyderabad","17.3780267","78.42057670000001",""
"ChIJ1yQfnuWXyzsR3o75je5p5qY","Hindustan Petroleum Corporation Limited","Survey No 80, H No 13/6/822/3, Langar Houz, Hyderabad","17.373633","78.416962","true"
"ChIJ6eV8bISXyzsRt6RsbVG5i-M","IndianOil","Sy No 144, Langar House Flyover, Bapu Nagar, Langar Houz, Hyderabad","17.378159","78.42081100000001","true"
"ChIJR6Uhh_iWyzsR4Qla0_Z-9Eo","Shaheen Oil Shop","9CHC+6GQ, Fort Road, Bapu Nagar, Langar Houz, Hyderabad","17.3780825","78.4213532",""
"ChIJ72skT_uWyzsR9AFPSTJBLrc","NAYARA","India","17.3888033","78.42302889999999",""
"ChIJa-OtLwCXyzsR9Rsb41MWMOI","MM Enterprises Indian Gas Agency","9CGG+RJG, Fort Road, Bapu Nagar, Langar Houz, Hyderabad","17.3770669","78.426592",""
"ChIJs6EWAy2XyzsRkApgLncLxd8","IndianOil","Sy, 284/3284/4/1 & 284/4/2284/5, Berbun, Nanal Nagar, Hyderabad","17.3906195","78.4230182","true"
"ChIJGybrIQCXyzsRP7VfB2jbTXI","Bharathi Fuels","9CRF+975, Hyderabad","17.3908931","78.4232231","true"
"ChIJc7Wn_i2XyzsRO2me7BX8YnQ","Extra Gas Auto Lpg","9-3-234/2, opp. Ali Pan Shop, MD Lines Road, Toli Chowki, Hyderabad","17.3941337","78.4175486",""
"ChIJ-_C4meSWyzsRM1Q830WFWoE","TotalEnergies","India","17.3910979","78.4234186",""
"ChIJj_iuKrmXyzsR78OorVAfyvw","ExtraGas Attapur","13-6-431/14 and 13-6-431/15, MOGHAL KA NAKA, Attapur","17.3769932","78.428535","true"
"ChIJKVa7huSWyzsRYEaNL9ez8LY","IndianOil","near Olive Hospitals, Plot No 9/4/80 80/1 to 8, Nanal Nagar, Hyderabad","17.3919","78.42320000000001","true"
"ChIJz6AJBLiXyzsRiXuFBIh9hzQ","IndianOil","near Olive Hospitals, Plot No 9/4/80 80/1 to 8, Nanal Nagar, Hyderabad","17.3919","78.42320000000001","true"
"ChIJ_6yb3ZCXyzsR-4il_OfT6Jg","Patel Enterprise","Olive Hospital, Patel Enterprise 19-3-263/B/1 Yatru Colony Jahanuma Circle, 1, Circle 1, Hyderabad","17.3917202","78.42378839999999","true"
"ChIJj1b6aEGYyzsRKhISkS0TlJk","Hindustan Petroleum Corporation Limited","H No 17/9/70 to 78, Saidabad Road, Kurmaguda, Hyderabad","17.3631618","78.5027539","true"
"ChIJxw4mNcSZyzsRU2_7AAatWdg","IndianOil","No 3/5/1089, 16, Narayanguda Road, Narayanguda, Hyderabad","17.3962932","78.49100589999999","true"
"ChIJees8jK-ZyzsRSR6Pv06qwas","IndianOil","No 2/2/1075/25G, Shivam Road, Tilak Nagar, New Nallakunta, Hyderabad","17.3937283","78.5108964","true"
"ChIJoZWbNLiZyzsRks_dtBUW-4Q","IndianOil","MCH No 3/4/897/2, Barkatpura, Narayanguda, Hyderabad","17.3949391","78.500588","true"
"ChIJI5H3cqKZyzsRhNsKVUGPoD4","IndianOil","1/9, 698/A, Vidyanagar, Hyderabad","17.4057032","78.51330109999999","true"
"ChIJR8YOtjOYyzsR2RhmIC6Cml0","SUPERGAS Auto LPG Station - Crown Metro Enterprises","16-6-33/1 & 2, Chaderghat road, Hyderabad","17.3776259","78.489419","true"
"ChIJn5b_2kaYyzsR88oY6J2hjyI","IndianOil","Sy No 249, Ward No 175, Block A, Saidabad, Chanchalguda, Hyderabad","17.3662599","78.49797720000001","true"
"ChIJU_8kYEeYyzsRcmqiihwmd0E","My Nation Petrol pump","Chanchalguda, Hyderabad","17.3662051","78.4979582","true"
"ChIJC7TO0EiYyzsR7oyBwlMwlW0","Nayara Petrol Bunk","16-2-706, National Highway 65, Dayanand Nagar, New Malakpet, Hyderabad","17.3731688","78.5029465",""
"ChIJF6uhG7iZyzsRsNvsEIWgNI8","Hindustan Petroleum Corporation Limited","No 3/4/877, Barkatpura, Hyderabad","17.3941911","78.4984463","true"
"ChIJB202IGmYyzsRcR37gIv1Xlc","IndianOil","Ground Floor, Saidabad, Hyderabad","17.3548034","78.5061959","true"
"ChIJEUFWMq6ZyzsRhXDzh_FHAq8","IndianOil","No 2/2, 1075, Amberpet, Hyderabad","17.3912788","78.51027359999999","true"
"ChIJ_7A4aVSYyzsR39DsyLPUyZ0","IndianOil","H No 16/11/16/T/6 Prashanth Nagar, Malakpet Extension, Hyderabad","17.379257","78.516167","true"
"ChIJsbRlAFSYyzsRHGrvZaAdu04","Bharat Petroleum Corporation ltd","House No 16/11/16/5/1 & 2 Saidabad, Moosarambagh Main Road","17.3774599","78.5150506","true"
"ChIJK99eouOZyzsRZvKjUaz0acg","Hindustan Petroleum Corporation Limited","No 1/2/597/30, opposite P VKT Reddy, Indira Park Road, Hyderabad","17.4112","78.482933","true"
"ChIJs_1LJ1WYyzsRmtd-pQ9HK_g","IndianOil","H No 2, S No 7 & 8, 3/692/K/3, Moorsaram Bagh, Amberpet, Hyderabad","17.3818005","78.5178998","true"
"ChIJdT08sQ2YyzsRzziKHnA3_uM","PrimeFuel Auto LPG Station","Survey No. 12, Moin Bagh - Idi Bazaar Road, Opp. Asian Foundation Plaza, Beside HPCL Petrol Pump, Hyderabad","17.3445811","78.49397019999999","true"
"ChIJAdt2GAaZyzsRF6ti_ImwQu0","IndianOil","No 2/2/63, 1 & 22018, Amberpet, Hyderabad","17.3947459","78.52475419999999","true"
"ChIJkQEKumSYyzsRg9WiUSNR22A","IndianOil","Sy No 1 to, 9, Champapet","17.348831","78.513992","true"
"ChIJ03-3m_aZyzsRuw7vwiOWOfU","IndianOil","No 6, Prithvi darpan apartment, behind Marriot Hotel, 6/114/1, Kavadiguda Road, Bhagyalaxmi Nagar, Kavadiguda, Hyderabad","17.4244168","78.4917897","true"
"ChIJz_7x-nuYyzsRBj2PJ3N1B6E","Hindustan Petroleum Corporation Limited","No 9, 4/112 Karmanghat Ring Road, Champapet","17.342896","78.514326","true"
"ChIJiX1036aiyzsRYM4b-cfiv2k","Hindustan Petroleum Corporation Limited","H No 18/1/350/A/6, 7, 8 Phoolbagh, Fathima, Owaisi Nagar, Hyderabad","17.33212","78.49101999999999","true"
"ChIJWf8M4PGYyzsRl1OLKLusAzM","Hindustan Petroleum Corporation Limited","Ground Floor, National Highway 65, Chaitanyapuri, Hyderabad","17.3687221","78.5335877","true"
"ChIJPRVKw1W9yzsRJILhNLC-23Q","Hindustan Petroleum Corporation Limited","opposite Falaknuma Palace, D No 18/2/474/3, Nagarkarnool, Jangammet, Hyderabad","17.3321894","78.4701503","true"
"ChIJP6efeqyiyzsRkywytvEIPdM","IndianOil","18-2-39/72/A, Inner Ring Road, Saba Colony, Gazia-E-Millat Colony, Falaknuma, Hyderabad","17.3278","78.4787592","true"
"ChIJwSaxBqyiyzsRRfGm9SS3lrc","Nayara Petrol Pump.","18-1-404, Inner Ring Road, Tadla Kunta, Chandrayangutta, Hyderabad","17.328379","78.48049","true"
"ChIJxRzzwKyiyzsRZkV0PNVkJDY","PrimeFuel Auto Gas","Chandrayangutta Flyover, Indira Nagar, Falaknuma, Hyderabad","17.3272984","78.476367","true"
"ChIJO7yI7qyiyzsRsjPvEQ1TPgw","petrol pump","Kummar Basthi, Chandrayangutta, Hyderabad","17.3266151","78.4771305",""
"ChIJfc0MB4GYyzsR2WJwUvbsZ9M","Hindustan Petroleum Corporation Limited","Survey No 108 & 109, Inner Ring Road, Saidabad, Kharmanghat","17.3399221","78.5239216","true"
"ChIJC_EgKyKayzsRxa7G3iMQU3A","Hindustan Petroleum Corporation Limited","Ground Floor, Saint Marys Road, Hyderabad","17.4348576","78.5006808","true"
"ChIJCZEoQ-iYyzsRwu9faXPpMgA","Hindustan Petroleum Corporation Limited","Plot No 5 & 6, Survey No 171, Uppal - Ramanthapur Road, Kothapet, Hyderabad","17.372163","78.5432312","true"
"ChIJG4Lch82ZyzsR1qQW1iudAeQ","SUPERGAS Auto LPG Station","Sy.No.93, B Nalla Cheruvu, Hyderabad","17.4015978","78.57681579999999","true"
"ChIJW-AH18iYyzsRGvRbdIRaVo0","IndianOil","S No 102, 3/2, Nagole Road, Hyderabad","17.3671704","78.5575216","true"
"ChIJcbo3372YyzsRgJcthUHYKUk","M/s. Bhagyanagar Gas Limited - Saroornagar","Sy.no. 13 to 15, P.no. 1/2, Chitra Layout, L. B. Nagar, saroornagar","17.3556548","78.5452155","true"
"ChIJie4PpsKYyzsRkv9m3om6amc","NAYARA PETROL BUNK","Shop Num 1,Road, Number 6, New Nagole Main Road, SBI Colony, Nagole, Hyderabad","17.3725052","78.5438508","true"
"ChIJ10pHmzCZyzsRwYLxp23JuQI","IndianOil","D No 24 & 23, S No 581/1, IDA Uppal, Ramanthapur, Hyderabad","17.4006878","78.5550307","true"
"ChIJyQDIlqGYyzsREKOJuC5l6WE","IndianOil","Survey No 46, Karman Gate, Sagar Cross Road, Sathavahana Nagar, Hyderabad","17.3430677","78.5454256","true"
"ChIJ5TLoxqWYyzsRm7dmb_E2iwc","Hindustan Petroleum Corporation Limited","Door No 3, 8/173, Inner Ring Road, Chandrapuri Colony, L. B. Nagar, Saroornagar","17.345699","78.5528978","true"
"ChIJVVVVVUGfyzsRk-xWzKmfgcc","IndianOil","Sy No 117, Hayathnagar, Tattinnaram, R Krishnaiah Nagar, Bandlaguda Jagir","17.3649026","78.58895319999999","true"
"ChIJ2Ze-8qiYyzsRnRAXMyPxPkw","IndianOil","NH 9, Old Check, L. B. Nagar, Chintalkunta","17.342648","78.556038","true"
"ChIJ036RsEyZyzsR34LjJixTezQ","Hindustan Petroleum Corporation Limited","Survey No 55, Plot No 5 & 6, Uppal Khalsa, Chilkanagar, Hyderabad","17.4161357","78.56545779999999","true"
"ChIJi_n_KJ-YyzsRxqMJ9cp2hwY","BALAJI AUTOGAS STATION (AEGIS AUTOGAS)","Sagar Ring Road, Karmanghat, Hyderabad","17.3433261","78.5406848","true"
"ChIJ01nAsJ6YyzsRrDUg9kD2Tk4","IndianOil","Sy No 20 Saroornagar, Lingojiguda, Kharmanghat","17.343068","78.5387504","true"
"ChIJIfN63P-hyzsRcATVDZxfyAA","IndianOil","Plot No 2 & 3, National Highway 65, Vanasthalipuram","17.3391407","78.56779019999999","true"
"ChIJ1YuxxVefyzsRJTaRvmL3yIw","SBR Petroleum Products Pvt Ltd","Plot no 1&2, Block No 31, TSIIC, Auto Nagar","17.3408682","78.5755136","true"
"ChIJTSxAB3aiyzsR_1Z4qJyP3zo","IndianOil","Survey No 7, 1289 & 19, Defence Colony, Karmanghat, Jillalguda","17.3373867","78.5376202","true"
"ChIJiQRntIKYyzsRrJiwGvAHU20","ESSAR PETROL STATION","New Mythri Puram Colony, Kharmanghat","17.3387285","78.53177649999999","true"
"ChIJ1fGl0PyhyzsRPyNDsu0gZFM","Hindustan Petroleum Corporation Limited","D No 2, No O/364/3, 3/37, Indira Nagar, Hyderabad","17.336686","78.57665539999999","true"
"ChIJqwBq5nyZyzsRGBNCubyYMw4","IndianOil","Ground Floor, Tarnaka, Hyderabad","17.42709989999999","78.5302955","true"
"ChIJex-smHyiyzsRM25S6hyM-e8","R.R Fuels (Nayara Energy Filling Station)","Survey No.74/A, Jillelguda, Balapur Mandal, Hyderabad","17.327323","78.52588899999999","true"
"ChIJG83RkyyayzsRHfi7THQyZZo","Hindustan Petroleum Corporation Limited","12-8-179, near Metro Station, Mettuguda, Hyderabad","17.4367888","78.5177305","true"
"ChIJ25d6JMWhyzsR6Sb3nJohcwI","IndianOil","National Highway 65, 4-7-188/1, Shirdi Nagar, Hayathnagar_Khalsa","17.3283899","78.5977978","true"
"ChIJUc7JdcmbyzsRK5-N2km0XrA","Hindustan Petroleum Corporation Limited","D, No 13/57, Yadav Nagar, Malkajgiri, Hyderabad","17.4477279","78.5359979","true"
"ChIJP3ezPoqiyzsRWDnqJJLtDkU","Hindustan Petroleum Corporation Limited","Ground Floor, RCI Road, Lenin Nagar, Meerpet","17.3176901","78.5183777","true"
"ChIJZ5fKmO2byzsRZGbNBQlNWFc","SUPERGAS Auto LPG Station","Sy.No.610/1, Malkajgiri Mandal, Hyderabad","17.451873","78.553732","true"
"ChIJ4dt2AieZyzsRWbs9ezQeFcc","IndianOil","Sy No 136 & 137, Mamatha Nagar, Samathapuri, Uppal, Hyderabad","17.3802812","78.55790549999999","true"
"ChIJT2ne3daYyzsR-wignDtbh0I","LPG GAS Station","9HJ5+C5V, Samathapuri, Kothapet, Hyderabad","17.3811005","78.5579245",""
"ChIJ6RBVSRSZyzsRas-nDG6cOXI","Auto LPG","Hanuman Nagar Garden II, Nagole, Hyderabad","17.37596109999999","78.5581641",""
"ChIJqZMG1CWZyzsRNMzVNflrmLQ","Bharat Petroleum Corporation ltd","Municipal No 2/2/0309 Upal Ring Rd, Nagole, Cross Road, L. B. Nagar, Hyderabad","17.374573","78.5580909","true"
"ChIJaUamVvGZyzsRj12ovwtj1Q0","BPCL Shaanvi Filling station","near Shilparamam, 807, near Shilparamam, Laxmi Narayan Nagar Colony, Nagole, Hyderabad","17.3856221","78.5582074","true"
"ChIJ33KnRpGZyzsRmZzw8t9F2Gk","Bharat petrolium Nagole","9HP5+35C, Laxmi Narayan Nagar Colony, Ramanthapur, Hyderabad","17.385658","78.5581653",""
"ChIJTdyccjOZyzsRm5EPksgeM1Q","IndianOil","Sy No 364, Uppal Bhagath, Plot No 175/A, Uppal, Hyderabad","17.3855036","78.55869679999999","true"
"ChIJKTIc-dGYyzsRQjjy9JB3rOM","OUTFIT MEN'S WEAR","beside jokey store, near mahankali temple, 2--217/C, Bandlaguda Road, Nagole, Hyderabad","17.3745631","78.5601365","true"
"ChIJiyN61ymZyzsRqEsNHOA0vAU","Hindustan Petroleum Corporation Limited","Survey No 443/3, Nagole Cross Roads, Bhagayath, Uppal, Hyderabad","17.38685869999999","78.5588095","true"
"ChIJzdlbrsKYyzsRhmyS2HXGqrY","NAYARA","India","17.3726226","78.5439255",""
"ChIJdyXM0NuZyzsRj2wuK3k-7fo","Sandeep Services","Shop No 1,Road No 6,Sbi Colony Kothapet, beside Hp Petrol Pump, To, New Nagole Main Road, nagole","17.3724903","78.5437941",""
"ChIJQWxGcziZyzsRyAy3dUclO-4","Royal Surabhi fuels","4AM Briyani, Rudra’s kitchen, Hyderabad","17.3723598","78.543874","true"
"ChIJy1n00_yQyzsRgFNO652bIlY","SUPERGAS Auto LPG Station","beside nissan showroom, H.No.7-2-1838/1, beside nissan showroom, Fatehbagh, Hyderabad","17.46013079999999","78.4325203","true"
"ChIJh0w18OOQyzsR0poW0-zithY","Ashok Service Station (Dealer Indian Oil)","opp. Gokul Theater Compound, 7-2-1813, opp. Gokul Theater Compound, National Highway 65, Erragadda, Hyderabad","17.4550128","78.4347854","true"
"ChIJ78cLNKqRyzsRGUEFur5J2ak","Hindustan Petroleum Corporation Limited","opposite KKP Bus Depot, No 6/37, Sanath Nagar, Moosapet, Hyderabad","17.4732472","78.4248617","true"
"ChIJU6aI0K6RyzsRCRzeivGh3IE","IndianOil","S No 421, Kukatpally, Hyderabad","17.47738","78.42163","true"
"ChIJS_xol32RyzsRtcDRheUGJDM","Bharat Petroleum Corporation ltd","Railway Station, Survey No 41/14 JNTU, near Hitech City, Hitech City Road, Khanammet","17.4607134","78.3854502","true"
"ChIJJ5N56PaQyzsRLTI4ot48bLw","IndianOil","Survey No 123404142, &45 Kajaguda, Fatehnagar, Balanagar, Hyderabad","17.4679131","78.4446031","true"
"ChIJxZezjPOQyzsRXIVsI3wGGcA","Hindustan Petroleum Corporation Limited","Ground Floor, Cross Road, Secunderabad Road, Balanagar, Hyderabad","17.4661481","78.4482113","true"
"ChIJ25P-KbyRyzsRbM8XwMaMAaE","Hindustan Petroleum Corporation Limited","2/96, Jntu Balanagar Rd, Bagh Ameer, Kukatpally, Hyderabad","17.4876173","78.4102091","true"
"ChIJceNvbeyTyzsR6TCPJFk_5gI","Hindustan Petroleum Corporation Limited","Survey No 18, Gachibowli, Hyderabad","17.4376931","78.3654863","true"
"ChIJD4DxbcGRyzsRKgKSO8Q3g4s","Hindustan Petroleum Corporation Limited","Survey No 111, 112 & 113, Bala Nagar, Kukatpally, Hyderabad","17.4987713","78.41299099999999","true"
"ChIJsSd-ofaRyzsRH2WKoQnjrIg","IndianOil","Survey No 145, Kukatpally, Hyderabad","17.4983243","78.38882869999999","true"
"ChIJe9BeREKQyzsR6f2hkjhkdNo","IndianOil","Door No A, 105/1, Narsapur Road, IDPL Colony, Hyderabad","17.4878948","78.4507115","true"
"ChIJd9rIuQCTyzsRT8ztkKd0mZY","Hindustan Petroleum Corporation Limited","Survey No 124, Vinayak Nagar, Gachibowli, Hyderabad","17.4427552","78.3570929","true"
"ChIJb_8OwYKQyzsRF5RtdMZXkRo","Hindustan Petroleum Corporation Limited","Plot No 2&3, Krishna Reddy Nagar Colony, Bowenpally, Secunderabad","17.46345","78.4736387","true"
"ChIJDzn25RmSyzsRcyjv-eiu1KY","IndianOil","Ground Floor, Miyapur Road, Hafeezpet, Hyderabad","17.496126","78.373581","true"
"ChIJXwMZ2uSRyzsRkOZSPkud2VA","Chandrika Srinivas Filling Station","423&416, Pragathi Nagar Road, Tulasi Nagar, HMT Hills, Kukatpally, Hyderabad","17.507563","78.3962986","true"
"ChIJgRxDC4CQyzsRQJQqeECnNf8","Hindustan Petroleum Corporation Limited","No GLR 516/PT, Bowenpally, Hyderabad","17.4736148","78.4738338","true"
"ChIJhz6-IkGSyzsR2cTHIN2MdIg","Bharat Petroleum Corporation ltd","Survey No 89, near Kondapur Flyover, Hafeezpet, Hyderabad","17.4859962","78.35808159999999","true"
"ChIJkRWc0H6ayzsR28lS3uuJ3Gw","Hindustan Petroleum Corporation Limited","Sy No 132, PN 39 & 40, Sanjeevaiah Nagar Colony, Secunderabad","17.4691634","78.4785629","true"
"ChIJiQznnyOQyzsRD7yorHy7lCM","Hindustan Petroleum Corporation Limited","Plot No 88/C, APIIC Colony, IDA Jeedimetla, Quthbullapur","17.51029","78.4483","true"
"ChIJ0Xtm7eZeUjoRDNrp9pVPvuQ","IndianOil","Sy No 98/1, Hafeezpet, Hyderabad","17.4892217","78.353803","true"
"ChIJqyXIh3KayzsRtdEqTFHXYC4","IndianOil","Chandulalbowli, Plot No 1/1A, Tar Bund, Bowenpally, Hyderabad","17.4551364","78.4856307","true"
"ChIJq7S6aOeTyzsRHs_w7vqDPIk","IndianOil","Plot No, 7, Madhapur, Phase 2, HITEC City, Hyderabad","17.4439667","78.37686579999999",""
"ChIJ5_gEsvaQyzsRtXIiLCaPkTw","Amar Jyothi Service Station","1/A, Narsapur X Road, Door No. 6-3-131, Main Road, Bala Nagar, Hyderabad","17.4661711","78.4468381",""
"ChIJg40Gu6yRyzsRJ6sLLDv9F_s","Shop No 3 Opp Gas Pump","Bus Stop, Site-3, Raja Nagar, Nrr- Puram, Borabanda, Hyderabad","17.4480095","78.4070737",""
"ChIJHUITQG2RyzsR3EFVbTsWeqI","Haji Masthan Petrol Station","FC44+P7J, Jyothi Nagar, Gayatri Nagar, Allapur, Borabanda, Hyderabad","17.45684499999999","78.40563499999999",""
"ChIJ40JFQG2RyzsRuoOhxt96mPw","NAYARA","FC44+Q77, Allapur Road, Allapur, Borabanda, Hyderabad","17.4569168","78.4056798",""
"ChIJrQHRxTaRyzsRr8dq17Sl3Iw","Kakunoor Sreenu","Shop No500081, Hyderabad","17.4411513","78.3995805",""
"ChIJM4rIMqOZyzsRQ-nmrMbc79U","IndianOil","Sy No 41 & 42, Plot No: 25, 36 & 37, Kavuri Hills, Guttala_Begumpet, Hyderabad","17.440435","78.3982565","true"
"ChIJAU4XJGiRyzsRojlwjhHiHUA","ANDESHWAR KUMAR Petrol Pump","Ms Service, Hyderabad","17.4403267","78.3983131",""
"ChIJMYe-AkSRyzsRg3h2bWZyxQo","Sonu Kumar Petrol Pump","Shop No500033, Hyderabad","17.4401866","78.3983899",""
"ChIJBcDOGi2RyzsR26QQ7_JkPwk","Anil Kumar","Shop No500081, Hyderabad","17.4402758","78.3982561",""
"ChIJzadrohyRyzsRWhj8gKEC36U","DILEEP KUMAR","shop no500081, Hyderabad","17.4380851","78.39975249999999",""
"ChIJTbRtGPmRyzsRK3BgKUzS8Rg","indra petro product","Shop No Coco, Jubilee Hills, Hyderabad","17.4380794","78.3995499",""
"ChIJlcG7E6qRyzsR9d3UDrLBf5s","Ajeet Kumar","730, Road Number 36, CBI Colony, Jubilee Hills, Hyderabad","17.43799599999999","78.399605",""
"ChIJM8FsrkiRyzsRyZOFQ4i44-E","Ranjit Kumar","730, Road Number 36, CBI Colony, Jubilee Hills, Hyderabad","17.43799599999999","78.399605",""
"ChIJ820k_9KRyzsRD_wh8u7JcwY","BPCL COCO HYDERABAD INTER","Shop No500033, Hyderabad","17.4380429","78.3995214",""
"ChIJvfthTAqRyzsRuHGPHu0gO84","Coco Jubilee Hills","Shop No500033, Hyderabad","17.4377544","78.3996368",""
"ChIJuYWjLS2RyzsRDjMVkDwBHXs","Bijay Maddi","Shope500033, Hyderabad","17.4378222","78.3994852",""
"ChIJb_sXyDyRyzsRVyffW8ZHCCg","SHUBHENDRAKUMARSURESHTHAKUR","Shop No500033, Hyderabad","17.4377934","78.3994168",""
"ChIJmY6gkwmRyzsROpZqmfHedrc","Bharat Petroleum - Shiva Shakti Fuel Station","Survey No 1011, 10, Moosapet Road, Kukatpally, Hyderabad","17.4687509","78.41362380000001","true"
"ChIJLVbueiiRyzsR3yb5Dihaf6I","Hindustan Petroleum Corporation Limited","Survey No 123, Yousufguda Police Lines, Hyderabad","17.4359794","78.4274058","true"
"ChIJUWQ7NfaRyzsRnRNscUjzpEQ","Faiyaj Refilling","Sri Krishna Nagar, Yousufguda, Hyderabad","17.4362129","78.4290911",""
"ChIJiXkgcNKRyzsRL8aKjoKIuD0","BhagyaNagar Gas Limited","8-3-279/A, Sri Krishna Nagar, Yousufguda, Hyderabad","17.4360995","78.4290015",""
"ChIJt3v0vL2RyzsRnf-oRJqhX18","Bharat Petroleum Corporation ltd","opposite Gokul Theatre, No 7 2/1813, opposite Gokul Theatre, Sanath Nagar, Hyderabad","17.4544104","78.4349699","true"
"ChIJy_xZN06RyzsRspLg--8h0Zg","Ramesh Traders","H N 1, near Ifb, 4/1, Bhavani Nagar, Moosapet, Hyderabad","17.4676801","78.42617659999999",""
"ChIJIY_cUFeayzsRdKnzxpS87ls","Hindustan Petroleum Corporation Limited","Detention Barracks, DNo 3/10/4, 28/3, Subhash Nagar, Tirumalagiri, Secunderabad","17.4708543","78.5096674","true"
"ChIJQzNRpRmayzsRbySPCqt5nq8","IndianOil","No 6227, 6228, Rashtrapati Road, Kalasiguda, Hyderabad","17.437901","78.494102","true"
"ChIJseGNzmCayzsRHmZKNUNGD5E","IndianOil","Sy No 82/1, Agricultural Ma Committee, Bowenpally","17.469431","78.4955611","true"
"ChIJw1XDbFuayzsRn2VhPuL45lo","Hindustan Petroleum Corporation Limited","Survey No 54, 1, Tirumalagiri, Secunderabad","17.466","78.50496","true"
"ChIJ4cU4OY2ayzsR9YZ_uMUxNKI","IndianOil","Survey No 385, Ranga Reddy, near Secunderabad, Military Dairy Farm Road, Hydarabad","17.4851206","78.4969205","true"
"ChIJ01RR0rubyzsRUve6yB15NyE","Hindustan Petroleum Corporation Limited","Sy No 875, D No 26/70/1 &71, 1 & 876/1, Chanakyapuri, Safilguda, Hyderabad","17.4605514","78.5351315","true"
"ChIJyfm4mrubyzsRptQ-WcJc_4o","Nayara Petrol Pump","7, Old Neredmet - Malkajgiri Road, Surya nagar, Shivam Residency, Safilguda, Malkajgiri, Secunderabad","17.4623365","78.5370566","true"
"ChIJq6qq-j2byzsRqHDyF4vdsI4","Hindustan Gas Company","alvf. hdt, B D, Sai Nagar Colony, Alwal, Hyderabad","17.5000041","78.508697","true"
"ChIJ2wIT-wuQyzsRcJ6bH-06J1U","IndianOil","Survey No 193/EE, Quthbullapur, Hyderabad","17.5022532","78.4700275","true"
"ChIJbxjZArmayzsRJp75znAn-ds","IndianOil","Sy No 542, H No 1, Old Alwal Road, Father Balaiah Nagar, Secunderabad","17.50646859999999","78.49481039999999","true"
"ChIJp35W-QibyzsR8Di5hP0zZcE","Bharat Petroleum Corporation ltd","No 242, Plot No, Sy, near Secunderabad Center, 5 & 6, Ramakrishnapuram, Malkajgiri, Secunderabad","17.4805985","78.534567","true"
"ChIJ06UpxaiayzsRTeK_htsMnRc","Hindustan Petroleum Corporation Limited","Survey No 42/1, NH 7, Hyderabad Nagpur Road, Petbasheerabad, Quthbullapur, Hyderabad","17.5114095","78.47993319999999","true"
"ChIJda6IsJmbyzsR39Tpjk9njJk","IndianOil","Sy No 329/1, Brundavan Colony, Old Safilguda, Neredmet, Hyderabad","17.4686105","78.5467007","true"
"ChIJb3eLne2byzsR5kwTbudus_M","IndianOil","S No 610/2 & 612, Moula Ali, Hyderabad","17.452409","78.5538012","true"
"ChIJG1m0NhmQyzsRRSpElb5s33E","Nayara Petrol Pump","near Little Star Heigh School, Shop No. 3 & 4, Pipeline Road, Subash Nagar, Jeedimetla, near Little Star Heigh School, Hyderabad","17.5132015","78.4563222","true"
"ChIJVVVVynOayzsR-CmgM4T7feo","IndianOil","H No 2, S No 67/4 70/4, 3, 1 Taiwapura, Tar Bund, Bowenpally","17.455312","78.483186","true"
"ChIJ3c-eZHKayzsRZ3TraNVz_Zs","PrimeFuel Auto Gas","Sy. No. 180, Brig Sayeed Road, Tadbund, Secunderabad Hyderabad","17.4546626","78.48595519999999","true"
"ChIJYUxxKvKbyzsR5NsP_3yg6xM","Nitrogen Air Filling station","5-57/58/59, Gundla Pochampally,, Near Trinetra Warehouse, Secundrabad, Tar Bund, Hyderabad","17.4557269","78.48319900000001",""
"ChIJGRpHzhGcyzsRjsKC6qQuCS8","Hindustan Petroleum Corporation Limited","Uppal Mandal, Survey No 52/1, Marriguda Mallapur, Kapra, Hyderabad","17.4483892","78.5782309","true"
"ChIJvfCQwjibyzsRhNA9HtN1Bk4","IndianOil","PN 1112 & 1 Sy No 317 318/457 & 458, Keesara, Kapra, Secunderabad","17.4765674","78.5658277","true"
"ChIJM9ZKdn-cyzsR5HsU8r5x5ww","Essar Petrol Pump","1-7, 96/2, Doctor AS Rao Nagar Road, South Kamala Nagar, Kamalanagar, Anupuram Colony, Moula Ali, Secunderabad","17.4765684","78.5676034","true"
"ChIJybsle1ucyzsRM1jnIkPf-OI","IndianOil","Sy No 249, Prisoners Agricultural Colony, Ghatkesar, Cherlapalli, Hyderabad","17.4715319","78.5947484","true"
"ChIJGV6RcUecyzsRH_hlw6LEUxU","IndianOil","Sy No 184185 & 186, Phase 5, Cherlapalli Industrial Area, Hyderabad","17.4585016","78.59688820000001","true"
"ChIJq9idiPWcyzsR-pXpN2xaf5g","Hindustan Petroleum Corporation Limited","S No 310, Plot No 60 to 65, Nagaram, Secunderabad","17.4810225","78.5923487","true"
"ChIJqfpaFz6byzsRsTNmMYftcA0","Hindustan Petroleum Corporation Limited","Survey No, 184 & 195 Alwal, Yapral, Secunderabad","17.5019401","78.5390017","true"
"ChIJPYQZVz6byzsRNpq3TE1WFds","Essar Petrol Pump","GG3Q+FXP, Employees Colony, Bapuji Nagar, Yapral, Secunderabad","17.5037188","78.5399453","true"
"ChIJ-R-kApWcyzsRl6GGDqLvkwY","Bharat Petroleum Corporation ltd","near Chowrasta, Survey No 160 Saket Road, near Chowrasta, Kapra","17.5007595","78.5861745","true"
"ChIJT_xcc8mbyzsR8Tc2KVVbSfc","Raju Service","Anandbagh, Secunderabad","17.4548479","78.5453086",""
"ChIJtVYW7fubyzsRfne6xPq0eKU","Hindustan Petroleum Corporation Limited","Survey No 50, IDA, Uppal, Plot No 7/3, Nacharam, Hyderabad","17.4389828","78.5595367","true"
"ChIJyfeIqxibyzsRdR0S1ft3KLs","Raj Kumar Chatial","Raj Kumar Balighai, East, Midnapore","17.451655","78.539928",""
"ChIJ6Wa19PubyzsRvcxndVwcC9A","NAYARA","India","17.4383274","78.55899370000002",""
"ChIJyX-XKhqbyzsRQqfzV73q7Hc","Essar petrol pump","Industrial Development Area, Nacharam, Secunderabad","17.4383203","78.5589785",""
"ChIJ01u2beebyzsR4PBvceHO4MY","Go Gas","CGQV+VW4, Moula Ali Road, Indira Nagar, Malkajgiri, Secunderabad","17.4396345","78.5448251","true"
"ChIJnx0zkKCbyzsRavpUlWXfPxo","Nacharam Filling Station","Survey No 51, PART), IDA, Plot No 1B & 2, beside Maruti Mitra Service Center, Nacharam, Hyderabad","17.441159","78.56507959999999","true"
"ChIJhUxDnBebyzsRdHSuL7nbm4k","MANIKYAM VEERAPPA","IDA Nacharam Road Number 12","17.4410119","78.56504120000001",""
"ChIJubrBfnubyzsRtVbe4RZj6Ow","MaheshGoud FUEL","IDA Nacharam Road Number 12","17.4410458","78.5650785",""
"ChIJUyqmCdWbyzsRjk7u8n76nSU","Krishna Reddy Fuel","IDA Nacharam Road Number 12, Nacharam","17.4410375","78.5650785",""
"ChIJlWRGHw-byzsR4FVh16RA4QU","NARSIMHA INDIAN OIL","1/2B, IDA Nacharam Road Number 12, Secunderabad","17.4410643","78.5651271",""
"ChIJTcitCgCVyzsR5UXN7dwSMAA","Green Gas Indian Oil Petrol Pump","Sy No 181/1, H No 3/4/97, Nacharam - Mallapur Road, Uppal, Hyderabad","17.4467143","78.5680601",""
"ChIJ6cGnQQCbyzsRotMfv52UDTY","Bharat Petroleum Corporation Ltd., BP - Nacharam, బిపి - నాచారం","21, Nacharam - Mallapur Road, Industrial Development Area, Nacharam, Secunderabad","17.44159299999999","78.5658224","true"
"ChIJSRozTQCbyzsR14_ppw18lfk","AMR PLANET Charging point","near Reliance Fresh, 858/10, Eshwar Nagar Colony, Moula Ali Hill, Moula Ali, Hyderabad","17.4634507","78.5605908",""
"ChIJdUL4GB-byzsROdwEUxDnKro","BHARATH HP PUMP","Yadav Nagar Main Road, Malkajgiri, Secunderabad","17.4477567","78.53594930000001",""
"ChIJK_hMx-SbyzsRfM3sS5z1poY","HYDAR service","Malkajgiri, Hyderabad","17.4473175","78.5358122",""
"ChIJCZfZ54ibyzsRINARGm7xsCw","Dev N Dev Filling Station","SP Nagar Road, SP Nagar, Eshwar Nagar Colony, Mehdi Jung Colony, Moula Ali, Secunderabad","17.4651512","78.5619517","true"
"ChIJCZfZ54ibyzsR6p1P2tDdRE8","IndianOil","Sy No, 374, ECIL Main Road, Moula Ali, Hyderabad","17.46520539999999","78.561937","true"
"ChIJF-l5GWqbyzsRJVO4OeGnUZY","Hindustan Petroleum Corporation Limited","S No 100, Lalapet, Pedda Amberpet","17.4349735","78.54316","true"
"ChIJPVf0koibyzsRj7mGzbLDZU4","IndianOil","Ground Floor, Moula Ali, Hyderabad","17.4660219","78.5625003","true"
"ChIJKf_Fqd6byzsR8TktR0jJ7Uo","Bharat Petroleum, Petrol Pump -Sai Shanthi Filling Station","Malkajgiri, Secunderabad","17.444893","78.53459889999999","true"
"ChIJUbPoQwCbyzsRFQvysMi0G3o","PrimeFuel AutoLPG Station","Sh 2","17.4498205","78.5337787","true"
"ChIJW6vBS-2byzsR3RTJgijTtrA","UMA INDIAN OIL","beside D Mart, Main Road, Old Safilguda, Hyderabad","17.46851999999999","78.5469835",""
"ChIJgWQBz5ebyzsRxbiMgyxt3h0","Shree santhoshimaa filling station essar pump","Post Ramakrishnapuram Post Neredmet Sector 3, Brindavan Residency, Santoshimaa Colony, Old Safilguda, Neredmet, Secunderabad","17.4685061","78.5451862","true"
"ChIJiVwPS32byzsRX3tUV627Ws4","Sameer Petrol Pump","Malkajgiri, Secunderabad","17.4501095","78.5322154",""
"ChIJ3-tG2sibyzsREitCXwV3ojo","IndianOil","near Anutex, S No 904, Malkajgiri, Hyderabad","17.4501001","78.532097","true"
"ChIJp2de9tCPyzsRfVQINFQpRCM","IndianOil","Ground Floor, Jeedimetla, Chintal","17.5271058","78.4392295","true"
"ChIJgyMxlHKOyzsR4o9-7tAaa4U","IndianOil","Plot No 1 & 2, Sy No 150, ALEAP Industrial Area, Qutubullapur, Hyderabad","17.5410062","78.3942663","true"
"ChIJl9ZmIP-NyzsREBDBirpW-sA","Hindustan Petroleum Corporation Limited","Survey No 306, Jntu, Nizampet Road, Quthbullapur, Nizampet, Hyderabad","17.51779849999999","78.3797975","true"
"ChIJC69_S6mPyzsRoDZ4L1LH5Wk","IndianOil","Sy No 176, Bahadurpally, Hyderabad","17.5589964","78.4365998","true"
"ChIJG4Lch82ZyzsRyZpl9IdmODE","IndianOil","Sy No 59, SSH 7, near Gandi Maisamma, 10th Road, Bahadurpally, Hyderabad","17.57299","78.423752","true"
"ChIJMXznhMCNyzsRZz_J_SNGrUU","Ganesh Leela Bharat Petroleum","ASR Brundhavan Colony, Bachupally, Hyderabad","17.5407521","78.3619688","true"
"ChIJf789PZKPyzsRqMK_V-kZ3aU","IndianOil","Sy No 171, Comp No 205, Quthbullapur, Doolapally Road, Bhadurpalle, Hyderabad","17.5483769","78.4623641","true"
"ChIJyWnF42iSyzsRS4N-oOPZouQ","IndianOil","Ground Floor Miyapur, Hafeezpet, Hyderabad","17.494091","78.352745","true"
"ChIJsb4CzieOyzsRiRrJY8ZnoXc","Bharat Petroleum Corporation ltd","Survey No 280, Gajularamaram, Hyderabad","17.5197091","78.4176166","true"
"ChIJsamOUQCPyzsRTQYeTg116Vg","Sree Rama petrol service","GCG8+QJP, Samskruthi Avenues Road, Mahadevpur Colony, Hyderabad","17.5270706","78.4170315",""
"ChIJicLpBi-OyzsRAZUeWDo4JnQ","Hindustan Petroleum Corporation Limited","Survey No 226 Quthbullapur, Gajularamaram","17.5235518","78.42477679999999","true"
"ChIJtfmSj6qRyzsRUkmTRfscILk","King","2-30, NTR Nagar Road, Mahankali Nagar, Yellamma Banda, Kukatpally, Hyderabad","17.5031828","78.40779169999999","true"
"ChIJbRdL2kmRyzsR4lv2mLslOyk","Hindustan Petroleum Corporation Limited","Survey No 295, P & 296/P, Usha Mullapudi Road, Kukatpally, Hyderabad","17.502953","78.40795899999999","true"
"ChIJxdsBt0SRyzsRp6SRK_CgCu4","Hindustan Petroleum Corporation Limited","Ground Floor, Pipeline Road, Kukatpally, Hyderabad","17.4992913","78.4130066","true"
"ChIJlZeHKACRyzsRvFq2MT_gXsA","HPCL - TELANGANA AGROS PETROL PUMP - Kukatpally","FCX7+P3X, Navodaya Colony, Kukatpally, Hyderabad","17.4992261","78.4129778","true"
"ChIJF06WKeKPyzsR4x6xTrbvovw","Hindustan Petroleum Corporation Limited","Survey No, Plot No 18 to 20, 153 & 155, Pragathi Nagar, Bachupally","17.533886","78.39382200000001","true"
"ChIJv41PKeWRyzsRps5i1idep8s","IndianOil","Survey No 498, Kukatpally, Hyderabad","17.4972627","78.4202227","true"
"ChIJl1Z4Wr-PyzsR54rJdkoHASw","Perfect Petroleum (BPCL Dealer)","Pragathi Nagar, Bachupally, Hyderabad","17.5356211","78.3940559","true"
"ChIJKR_Ir1CPyzsRpty4qslaU9E","BPCL COCO HYDERABAD INTER 2","Shop 500090, Hyderabad","17.5339935","78.39252119999999",""
"ChIJB_evBaiPyzsRfnt5rsVCxW0","Sanjeeva Reddy Petrol Pump","Petrol Pump Petrol, Medchal, Annaram","17.5412777","78.3986266",""
"ChIJ7ZokaACRyzsRJXXHDlAIohY","Polkam Vinod Kumar Petrol Bunk Broker","219, Road Number 7, Western Hills, Jal Vayu Vihar, Kukatpally, Hyderabad","17.500112","78.3952547",""
"ChIJ_cdMrb2RyzsR-45fhPDQFYw","Hindustan Petroleum Corporation Limited","Survey No, No 4/35/564/28/1, near Kukatpally - Jagathgiri Gutta Road, 500 & 509, Balakrishna Nagar, Kukatpally, Hyderabad","17.4942848","78.4202959","true"
"ChIJGz8NScKRyzsR7TNmrmlyYYI","Vinod","Devender Vidyalaya, Hyderabad","17.4964171","78.3966074",""
"ChIJ3xcdnLKRyzsR7VD36WvXjmI","SHAIK GHOUSE","Kukatpally Housing Board Road, Kukatpally, Hyderabad","17.4965273","78.3964319",""
"ChIJKY5MIUWRyzsRiIqkMWuxDiY","SAYYED HAIDER","Kukatpally Housing Board Road, Kukatpally, Hyderabad","17.4965244","78.396399",""
"ChIJ86HtGSeRyzsR5YP8rJ9xPwI","Mallesh","JNTU Road, Kukatpally Housing Board Colony, Hyderabad","17.4962095","78.3966817",""
"ChIJhQLVKUCRyzsRq8Ti5qV1fmo","ANSHUL SINGH BPSL","Shop 1 Pillar 727, S-28 P-102, BaghAmeeri, village, National Highway 65, Jal Vayu Vihar, Kukatpally, Hyderabad","17.4964315","78.3962911",""
"ChIJ86q3hqiRyzsRA1sNOjDUEBk","Bharat Petroleum Corporation ltd","Survey No 178, opposite KPHB Colony, Kukatpally, Hyderabad","17.496425","78.3961903","true"
"ChIJ5fqhUu6RyzsRVoNfXhLJ4YU","Vishal Thakur","Jawaharlal Nehru Technological University, Jal Vayu Vihar, Kukatpally, Hyderabad","17.496225","78.396309",""
"ChIJS_Ju_9iPyzsRYldVQuSuE4s","Sri Rajeshwari Services","India","17.521408","78.4439921",""
"ChIJGwyZLfiPyzsR6-NA-12L874","Mahesh Paware","29_101, Narasimha Basti, IDA Jeedimetla, Saibaba Nagar, Jeedimetla, Hyderabad","17.5339282","78.4420923",""
"ChIJwSoWsriPyzsRjF0dAySLzqc","Bharat Petroleum Corporation ltd","Survey No 130 Main Road, Suraram, Quthbullapur Besides Narayana Mellareddy Hospital","17.54431749999999","78.4334507","true"
"ChIJ1b7bBP-NyzsR-I5smRuqEa8","Nayara - Srinidhi Service Station","3-95, Nizampet Road, Hi-Rise Colony, Venkatraya Nagar, Nizampet, Hyderabad","17.5174889","78.3808432","true"
"ChIJG01MMSeQyzsRpNgIUJyWxxk","IndianOil","Sy No, 275276 & 277, Shapur Nagar, Quthbullapur, Hyderabad","17.51716","78.446411","true"
"ChIJCbpzjquPyzsRTBd9zze58Ps","food pvt ltd","3232, Hyderabad","17.5256333","78.4463543",""
"ChIJF5og2pCRyzsRtvsmsQmNkJk","UMAKANTH","Petrol Pump, Hyderabad","17.5166093","78.4467525",""
"ChIJAQAAAOGPyzsRZKAZgDBQ-e0","Sri Ganesh Service Station","India","17.5008522","78.4511624",""
"ChIJkSGo8aSRyzsRRTXg5MItfu4","Sai Petroleum Enterprises","Pillar No.791, 40/A, Bagh Ameer, Sumitra Nagar Colony, Kukatpally, Hyderabad","17.487496","78.4101936",""
"ChIJh5h9zPyPyzsR1dL0I6sk1_s","Hindustan Petroleum Corporation Limited","Survey No 85, SH 6, Medak - Hyderabad Road, Quthbullapur, Suraram, Hyderabad","17.54771","78.4328718","true"
"ChIJryJDLbaRyzsRU1KG9ImOIN4","Bharat Petroleum","67, Ranga Reddy Nagar, Kukatpally, Hyderabad","17.4930719","78.4354017","true"
"ChIJc2dZMwONyzsRWZzJnNfg-hI","IndianOil","SY No, 836 No 19204748 & 48/A, Ameenpur, Hyderabad","17.4877895","78.4254121","true"
"ChIJR1op9kSFyzsRzahovBk2LOY","IndianOil","Ashoka A, Sy, Kompally","17.53684549999999","78.4895119","true"
"ChIJE-ib4auayzsRpjzE1vyMvUs","IndianOil","Sy No 91, Petbasheerabad, Hyderabad","17.515249","78.479652","true"
"ChIJif6AN6aayzsR4TFh-fQ6iXE","Jayabharathi Filling Station","Beema Pride, Medchal Road, Green Park, Jeedimetla, Hyderabad","17.5078682","78.4788961","true"
"ChIJ4w1gNdybyzsR7dqNvd2Pn3Y","Go Gas Auto LPG Alwal","24, HMT Colony Road, Saibaba Nagar, Father Balaiah Nagar, Alwal, Secunderabad","17.50663029999999","78.4925647","true"
"ChIJ1S0KPt-FyzsRcH0m4IHuya0","Mahipal Reddy","Shop No 1, Main Road, Kompally","17.5366076","78.48917089999999",""
"ChIJK6Km-NaFyzsRizmZFKJbmIg","Sunny Sai Servo","Main road, Kompally, Hyderabad","17.5366418","78.489301",""
"ChIJ3f2h5Y2FyzsR8wQBFn_a7p4","Sravanthi Enterprises","Main Road, Kompally, Hyderabad","17.5366987","78.4891884",""
"ChIJX2iySQCFyzsR6ug8TJ0qghc","COMPANY OUT LET IOCL","Sy No 132/A, Ruby Block, Kompally, Hyderabad","17.5368829","78.4895189",""
"ChIJU2XWLjWFyzsRUoDj5pka4P8","Raju Servo Force","132, Kompally, Hyderabad","17.5371003","78.4893195",""
"ChIJwT-UN4CFyzsRuSN3o2msppc","mahesh servo","132 a, Kompally, Hyderabad","17.5370948","78.48938679999999",""
"ChIJPy5kCMyFyzsRRncUOs5mH4I","Kiran Services","No 132/a, Sy, Kompally","17.5371249","78.4893456",""
"ChIJhestx92FyzsREXt_oUYoDIA","Servo Express","Shop 1, Main Road, Kompally","17.5370523","78.489649",""
"ChIJzwx7YamFyzsRiBS1c2R9XQ0","NARESH Goud","Main Road, Kompally, Hyderabad","17.5371764","78.4893426",""
"ChIJYQfqzJybyzsRvSb231okP3w","Hindustan Petroleum Corporation Limited","15, 13 & 14, Plot No 12, Old Alwal, Alwal, Hyderabad","17.513772","78.502104","true"
"ChIJk4MmTgCbyzsReNnEcT7RIHk","Hindustan Petroleum Corporation Limited","15, 13 & 14, Plot No 12, Old Alwal, Alwal, Hyderabad","17.513772","78.502104","true"
"ChIJ_fcF8PaRyzsRj6lrx2qxi3E","UDAY KUMAR","Bhagya Lakshmi Colony, 1, Hyderabad","17.5112877","78.4643873",""
"ChIJVXX_oQ-QyzsRi9qf9oQctps","Bharat Petroleum Corporation ltd","Survey No. 236, Suchitra, Junction, Quthbullapur Main Road, Quthbullapur, Hyderabad","17.5068101","78.4663381","true"
"ChIJo504iguFyzsRsfL7serAyT4","Palle Prashanth","Main, Road Nh44, Hyderabad","17.5401092","78.4892507",""
"ChIJ-yBu0MmRyzsReVr3uXofam4","Bharat Petroleum Corporation ltd","Sy No, Besides RS Brothers, South India shopping mall, No 7, 9 to 11 & 57 A, 279 & 280, Jeedimetla, Hyderabad","17.5019705","78.4722529","true"
"ChIJu7owvUkVrjsRR06gcBAD6VE","Hindustan Petroleum Corporation Limited","Survey No 229 to 233 Jeedimetla, Krishna Nagar, Quthbullapur","17.506208","78.4665103","true"
"ChIJRx15qA-QyzsRb3HIA4uVhoM","Hindustan Petroleum Corporation Limited","Survey No 229 to 233 Jeedimetla, Krishna Nagar, Quthbullapur","17.506208","78.4665103","true"
"ChIJOU9F6Q6QyzsR0SQ3a9u8qSk","Cool Point Car A/C Service","Shop No 3, Quthbullapur, Hyderabad","17.5045219","78.4677833","true"
"ChIJCZa9EmebyzsRrMVoCa66_CQ","Bharat Petroleum Corporation ltd","Survey No, near Selectator, 56 to 58, Alwal Road, Suchitra, Hyderabad","17.4996252","78.47574519999999","true"
"ChIJh5iy_GCFyzsRkSp23xIJxq8","Reliance Petroleum","Survey No 103/B, Quthbullapur Main Road, Kompally, Hyderabad","17.4996192","78.4757468","true"
"ChIJ48zHaS6byzsRDi9lW_ermD4","Bharat Petroleum Corporation ltd","House No 1/1 95/2/1 near SBI Bank Malkajgiri, Old Alwal, Bolarum, Secunderabad","17.50838","78.50245","true"
"ChIJr_7YSwCPyzsRLp1WcPVWmFY","Suchitra","GF95+VFC, Jeedimetla, Hyderabad","17.5196968","78.4586419",""
"ChIJMyNl57yRyzsRIsXVN1Ds5Vo","Cylinder","F9, A/3, IDA Jeedimetla, Jeedimetla, Hyderabad","17.51405099999999","78.457882",""
"ChIJdaFMcduRyzsR7GXsHL9yW5I","Shree venkateshwara fuels","GF55+FP7, Unnamed Road, Ayodhya Nagar, Jeedimetla, Hyderabad","17.5086661","78.4592871",""
"ChIJk3D9zoqPyzsR4p_vlsLPsYw","Bharat Petroleum-Nikhil Fuel Filling Station","GFVC+HXR, Dulapally, Hyderabad","17.5446793","78.4735871","true"
"ChIJC26lJe-PyzsR4jGQg-Awhms","Bharat Petroleum, Petrol Pump -Sheshadri Filling Station","Jeedimetla, Hyderabad","17.533598","78.4589608","true"
"ChIJ6_VxSwCRyzsROx3uGMj-Q-8","Subash nagar Essar petrol bunk","GF74+67F, Pipe Line Road, IDA Jeedimetla, Chinthal, Jeedimetla, Hyderabad","17.5130535","78.45568279999999",""
"ChIJp_F2-uCPyzsRwMo-HScE90Q","Sv Gas Industries","Shop No 7, Jeedimetla, Hyderabad","17.52275729999999","78.454604","true"
"ChIJQ-iPYhKQyzsRHkbzMCQoRlA","Rukmini Fire & Safety","H.No, beside Munna Kiranam, 57, 48, Dattatreya Nagar, Hyderabad","17.4995101","78.4629805","true"
"ChIJE5W00K2FyzsR8IfITa87hOQ","Hindustan Petroleum Corporation Limited","Survey No 15, Qutbullapur, Kompally","17.5477248","78.4922019","true"
"ChIJEbEy1tKPyzsRagfBRvS9mAE","HEMAADRI FILLING STATION","Dulapally, Hyderabad","17.5455247","78.4659465",""
"ChIJD2y_sIeEyzsRBg9L9X9vz1k","IndianOil","Sy No 88/P, Thumkunta, Shamirpet, Nisa Hakimpet, Thumukunta, Secunderabad","17.570841","78.557824","true"
"ChIJiStZM4mDyzsRTAXP5VMLc-g","IndianOil","Sy No 1212/A, Shamirpet Thumkunta, Shamirpet Road, Ankireddipalli","17.588468","78.571646","true"
"ChIJZ4YWjtObyzsRY8E7zGmKZY4","Nayara Petrol Station (PREVIOUSLY ANISH FILLING STATION","beside GK's Pride, Balaji Nagar Main Road, Yapral, Secunderabad","17.5137468","78.547056","true"
"ChIJ1boEkEibyzsRWNma3ELKfng","GOGAS AUTO LPG","GG7W+GM9, Swarnandhra Colony, Yapral, Secunderabad","17.51378189999999","78.5467244","true"
"ChIJ38RZBSmFyzsRMeCfT7seHok","Hindustan Petroleum Corporation Limited","Survey No 185, Kowkoor Main Road, Gruhatara, Bollaram, Secunderabad","17.5263432","78.5422993","true"
"ChIJybeGrDKbyzsRWl88s3Jn39M","Swamy Reddy","Yapral, Hyderabad","17.5085123","78.54124639999999",""
"ChIJ064KzBmbyzsRWMHcxm5q00I","IndianOil","Sy No 1, Ranga Reddy, Yapral, Secunderabad","17.50837","78.54129999999999","true"
"ChIJJ7oWYQCbyzsRTcrMtkeS0DI","Aniki Filling station","GG3Q+FXG, Employees Colony, Bapuji Nagar, Yapral, Secunderabad","17.503618","78.54001099999999",""
"ChIJIc7vOwCbyzsRM7XdMRsj2C4","Yapral Water Tank - HP Petrol bunk","GG2Q+QM8, Yapral, Secunderabad","17.5019057","78.5391999",""
"ChIJj2mOtyOdyzsRdyya4g_5Z1k","TSRTC JAWAHARNAGAR BPCL Petrol Pump","Bus stop, Ambedkar Nagar Main Road, Jawahar Nagar, Ambedkar Nagar, Secunderabad","17.5092692","78.5804356","true"
"ChIJiRSeduqbyzsRTgVYz3q_0bU","Shiva Shankar Fuel Service","Shop No 234, Yellareddyguda Road, Sainikpuri, Hyderabad","17.4943452","78.5651804",""
"ChIJq0PUkDebyzsRjcUGxoS0q5U","Mallesh Fuel Service","Shop No 12, Yellareddyguda Road, Bank Colony, Kapra, Hyderabad","17.49380769999999","78.5651914",""
"ChIJI3Fipk6FyzsRnv1NpFGKB3k","Hindustan Petroleum Corporation Limited","Survey No 782, Hyderabad Karimnagar Road, SH 1, Shamirpet Road, Hakimpet","17.5455574","78.5346698","true"
"ChIJ8wkerxebyzsRaLgVPdE8kXc","Sonelal Paswan","Raghavendra Colony, Kapra, Hyderabad","17.4909179","78.56516429999999",""
"ChIJ9XmaIwCbyzsR7jdyIjDltXc","Hindustan Petroleum Corporation Limited","Yellareddyguda Road, Sri Guru Raghavendra Colony, Kapra, Secunderabad","17.4908677","78.5651318","true"
"ChIJo1UdQACdyzsRG8kcMHDXa4k","Indian Oil Petrol Bunk","1st Flr, New Muthoot Bldg, 1/1/30/5/6/A, Saket Road, Hyderabad","17.4909732","78.5734104",""
"ChIJtyYPc4-byzsRXsIU_xe_6kM","BHANU Service","Neredmet, Hyderabad","17.4852044","78.5526739",""
"ChIJsQb1bYKcyzsRHUK-NhGxivY","Venkat Goud Petrol Bunk","Virat Nagar Colony, Kapra, Secunderabad","17.4868551","78.5668045","true"
"ChIJP3pEUVKbyzsRDRBhfCLKlS0","Ravi Auto Service","A. S. Rao Nagar, Secunderabad","17.48545","78.5439949",""
"ChIJfY3bKf6dyzsR__aptX6qxrM","RAJA KUMAR","Shop No 7, Ecil, Virat Nagar, Hyderabad","17.4865808","78.566929",""
"ChIJyalkRpScyzsRa-uCxlZqEuA","Venkat Goud Petro Mart","H No 1, Radhika Theatre, opp. Sri Siddi Vinayaka Temple, to, Dammaiguda Road, Kapra, Secunderabad","17.49984079999999","78.58484589999999",""
"ChIJCas88G6byzsR991r_KRi1Hk","SRINIVAS","A. S. Rao Nagar, Hyderabad","17.4829461","78.55198519999999",""
"ChIJxaM-UZmbyzsR03YhhDCuTf8","SACHIN KUMAR","Sainikpuri, Hyderabad","17.4829138","78.5520312",""
"ChIJfblNKZebyzsRcVLQs0BTYdQ","PANKAJ KUMAR","Sainikpuri, Hyderabad","17.4828946","78.5520332",""
"ChIJYaLbveObyzsRiSybgPIWH_k","Raushan Kumar","Shop 3, A. S. Rao Nagar, Hyderabad","17.4828668","78.5519953",""
"ChIJE_YpJXKbyzsRUeNrqHHt2qc","Bharat Petroleum Corporation ltd","Survey No 601, Besides Canara Bank, Plot No E102 & 103, Doctor AS Rao Nagar Road, Sainikpuri Colony, Sainikpuri, Secunderabad","17.48286359999999","78.5519698","true"
"ChIJ0yc9vGebyzsRDTg0uGEmeIA","Ashok","Sainikpuri, Hyderabad","17.4828476","78.55202109999999",""
"ChIJKdcgQdmayzsRCJ3nWLk026c","Bharat Petroleum Corporation ltd","Besides Jubilee Hospital, Sy No 163, Bangla No 56, Revenue No 606 Bolaram Road, G V Reddy Colony, Alwal","17.5066288","78.5162297","true"
"ChIJF2xBdACFyzsRELLVO414pm4","Sri Lalitha Filling Station","HG5V+XQW, Devarayamjal","17.559786","78.544095",""
"ChIJW-vu4T-FyzsRJyNdURxawLo","IndianOil","Survey No 96, SH 1, Shamirpet Road, Hakimpet","17.5598122","78.5441235","true"
"ChIJjULOFkabyzsRuU4dXnfDRh8","GUNDRALASHIVAKUMAR","123 Nothing, 456 Everything, Hyderabad","17.4822371","78.536532",""
"ChIJe102QQmbyzsRWNuY0WUgysA","Bharat Petroleum Petrol Pump","Neredmet X Road, Secunderabad","17.482237","78.53652799999999","true"
"ChIJYR4uo2uFyzsRFJMArowpUx4","Hindustan Petroleum Corporation Limited","Survey No 362, SH 1, Hyderabad - Ramagundam Road, Shamirpet, Thumukunta, Secunderabad","17.5610187","78.5459491","true"
"ChIJewpTTeWFyzsRPFZ52p8_kts","Shahi Kumar Services","Thumkunta,vyjayanthi Services, Main Road, towards, Karimnagar","17.5611092","78.5459389",""
"ChIJychAqXKbyzsRZr7bVIQltcA","KETHIREDDY N RANJITH REDDY","SHOP NO 5, Road Number 9, PURAM, Neredmet, HYDERABAD","17.4782272","78.54394669999999",""
"ChIJJegtWxmbyzsRLVzI749xcb0","ABDUL A AHMED","SHOP NO 8, Road Number 5, Shiva Nagar Colony, HYDERABAD","17.4781665","78.5439195",""
"ChIJJTgqZ-eayzsRsxSsuMMYRNw","IndianOil","opposite Panama Godown, Plot No 2 & 3, opposite Panama Godown, Alwal Road, Secunderabad","17.499001","78.513397","true"
"ChIJY8n9boWdyzsRW-rkA-CQXH0","IndianOil","Sy No 20 & 45, Plot No 1 & 2, Kapra, Secunderabad","17.4875663","78.5849934","true"
"ChIJsShETACdyzsRpHdlsqyFb2Q","Company owned & company operated pump (cocokapra)","FHF8+MPF, South Kamala Nagar, Moula Ali, Secunderabad","17.4741893","78.56679489999999",""
"ChIJXV307eSdyzsRhAQQKr2le8I","Bharat Petroleum, Petrol Pump -Venkateswara Flg. Stn.,","ECIL Cross Roads, Secunderabad","17.4761155","78.57310849999999","true"