place_id,name,address,latitude,longitude,open_now
"ChIJIYTbRqdRMzoRcZut0YX4Vss","IndianOil","D1, G/6/4, Lock No 209/T3/451, Fatimanagar","17.906548","79.49953599999999","true"
"ChIJ9xCnd6lQMzoR1osujfHl_1o","IndianOil","Survey No 27/D, Lock No 422/4/D1, G/3, Inolu, Rollakal","17.86833799999999","79.557361","true"
"ChIJJ4JS9_paMzoROqzSCwohpDA","HP Petrol Pump","WH9W+VC7, Police Training Center Quarters, Warangal","17.9196541","79.59605119999999",""
"ChIJF8a_V5tRMzoRhSaacjQIVEk","BHARATH PETROL PUMP( RISHANK FILLING STATION)","Kunur to Kazipet Road, Vanamala Kanaparti","17.8992948","79.4968742","true"
"ChIJT0AkKQBRMzoRgBMqlP8pdtc","Rajesh","VH93+CVJ, Inavolu","17.8685901","79.55465459999999",""
"ChIJVbtXxJJaMzoRsTCeiFP2a-4","Bharat Petroleum","India","17.9234332","79.58190420000001",""
"ChIJS9z-1vlPMzoRsAKhuRXygwc","IndianOil","Ground Floor, Bhattupally","17.961488","79.5462068","true"
"ChIJe-IRbzJOMzoRvc_nODUyWAg","Hindustan Petroleum Corporation Limited","Survey No 224 Kazipet, Road, Kadipikonda, Bhattupally","17.9646989","79.5153689","true"
"ChIJHRT69ORPMzoRmZ7a90SmkCE","Bharat Petroleum","India","17.9621244","79.5465231",""
"ChIJAz__gPJJMzoR5Z85MFA-jUQ","IndianOil","Lock No, 33-4, D2 G, Yellapur Town, Warangal","17.9279758","79.5884748","true"
"ChIJe0eZUwNSMzoRlC0xZgAIriI","Indian Oil","India","17.9387211","79.46518619999999",""
"ChIJP_-q8SxTMzoRRR2w1QrObgM","Bpcl petrol pump","WFQ8+R7W, Hyderabad - Warangal Highway","17.9396163","79.4656955","true"
"ChIJE0hHDQJOMzoR-OD-K6OZLus","Adithya BPCL Filling Station","beside Eenadu Office, 1-207, National Highway 163, Madikonda, Kazipet","17.9515208","79.4773561","true"
"ChIJQTdbeQBPMzoRAfkrJUPPCPo","Megha Gas CNG","beside Eenadu Office, 1-207, NH163, Madikonda, Kazipet","17.9516432","79.47748519999999",""
"ChIJU3EDVANSMzoRqnEOeiy8USc","dianOil","India","17.9388529","79.46508050000001",""
"ChIJ4cwQZgBTMzoRjXkgaJked-E","Surya Chandra Fuels","Rampur industrial, Kazipet","17.9389825","79.4649247","true"
"ChIJrTwWC_1TMzoR34IoLOCuZcs","Hindustan Petroleum Corporation Limited","No 333, ABY1/4AA, 333, ABY1/4E, Rampur, Warangal","17.939324","79.46446399999999","true"
"ChIJN0rfKABbMzoRZ2NCnKNiBHA","Mamunuru police petrol bunk","5-9, Khammam - Warangal Highway, Mamnoor","17.9163562","79.5965138",""
"ChIJnaXWcmFPMzoR6gkX047NSqE","IndianOil","Sy No 110, A 125/A1, Bhattupally","17.961981","79.558799","true"
"ChIJNxub0vpaMzoReDGMqHlhXKw","Bharat Petrol Pump","WHCW+RFG, Khammam - Warangal Highway, Warangal","17.9220702","79.596192",""
"ChIJjXSDsOVaMzoRS4cWApVtZeU","IndianOil","Lock No 130/D1/276, G5/2 Khammam Highway Road, Mamanur, Warangal","17.926077","79.596245","true"
"ChIJgxLiGkhFMzoRnq1hJLD0ujI","IndianOil","Lock No 23016/93, Lock No 99/D1E Ursu, Hunter Road, Warangal","17.967457","79.582397","true"
"ChIJMU-nqTZaMzoRmVnnbXY1e9Q","IndianOil","Sy No 459/A1, Lock No 92/D2, Sangem","17.881939","79.599457","true"
"ChIJwa-VnX1bMzoR5Jpyxd2U4gw","Hindustan Petroleum Corporation Limited","Survey No 88, Police Camp, near TSSP, NH 563, Nemmikal - Warangal Road, Mamnoor","17.9202693","79.5964619","true"
"ChIJ01hdeeZaMzoRcPwPOMWUD9I","Reliance Petroleum","Survey No 314, Thimmapur Road, Hanamakonda","17.9283165","79.59632049999999","true"
"ChIJtce9ozBbMzoRqzsPxYlHMic","Manjunatha Filling Station","VJ92+QC9, Warangal","17.8694199","79.6011025",""
"ChIJNSRL-BpbMzoRi3M8OZK5hrE","Yamini Filling Station","Nakkalapally, Warangal","17.9258975","79.6144157","true"
"ChIJJyYMDlRbMzoR3fV3qjipd7Q","Sony Sweet House","Naidu petrol pump, Khammam - Warangal Highway, Warangal","17.9340349","79.5972713",""
"ChIJh20xb4BZMzoRHV0g0agrS0g","IndianOil","Survey No 37, Lock No 85, Panthani,Gopanpalli, 6/D2, Lohitha","17.863079","79.60324899999999","true"
"ChIJxaf3o91aMzoRlvMWQoc8aAw","Hindustan Petroleum Corporation Limited","Ground Floor, near Warangal, NH 563, Khammam Bypass Road, Rangashaipet, Warangal","17.9358792","79.59706709999999","true"
"ChIJ0Y4kwp9bMzoRWWHytw2mVbw","Hindustan Petroleum Corporation Limited","Survey No 166/1, Nekkonda Road, Warangal","17.9056834","79.6340235","true"
"ChIJLTFifhtZMzoRzpBY75gVYS0","Sri venkateswara Nayara petrol pump","VJ63+4FG, Warangal","17.8603138","79.603709","true"
"ChIJw4cqscRaMzoRlH1FiaBS6h0","Hindustan Petroleum Corporation Limited","Survey 31, Hunter Road, 32 & 37, Khammam Bypass Road, Rangashaipet, Hanamkonda","17.9409345","79.5935511","true"
"ChIJMXcqNVNbMzoRGqAxHrsgRo0","Lokesh Enterprise","19-10-38/4, Sri Sai Nagar, Warangal","17.942807","79.6011",""
"ChIJq8LHb_9ZMzoRbcZgfwegDAk","HP Petrol bunk","VJ23+3FW, Khammam - Warangal Highway, Panthini","17.8502469","79.6036915",""
"ChIJ6XEu551ZMzoRdBe28lOlAAY","Hindustan Petroleum Corporation Limited","4-134/1, Survey, Panthini","17.8501949","79.6038386","true"
"ChIJyf6LZdRaMzoRAogGN9rCiBc","IndianOil","Lock, No 3/D1 & H2, 2, Shambunipet, Warangal","17.953921","79.600571","true"
"ChIJX4zBZpRFMzoR2Br7fmgDP68","IndianOil","Lock No 220, Lock No 1740 /11024/93547, T3/E, Khammam Road, Warangal","17.9601569","79.6010684","true"
"ChIJ9cTsOgBZMzoRzHpMz1g_e7Y","Adblue (यूरीया) Pump","NH563, Warangal","17.8366573","79.604396","true"
"ChIJz7A5HElFMzoR3KZ97jb_320","Hindustan Petroleum Corporation Limited","Ground Floor, Khammam - Warangal Highway, Ursugutta, Urus Bodrai, Khila","17.9649257","79.5789913","true"
"ChIJk_u-3E5FMzoRfwq-6bkZPB8","Bharat Petroleum","India","17.9643514","79.57607209999999",""
"ChIJgYoSmEFFMzoR7IqNWoLWGxQ","Spoorthhy Filling Station","Warangal","17.9643872","79.5760356","true"
"ChIJpy1OuF5FMzoR6N4oPZgTmzs","Bharat Petroleum ,Sai Krupa Filling Station","XH9X+6F, Warangal","17.96815759999999","79.5987773","true"
"ChIJEV61kbZFMzoRCagGFSMX75A","Hindustan Petroleum Corporation Limited","Survey No 4 Ursu, Kareemabad Road, Warangal","17.9689665","79.5927853","true"
"ChIJK_89dShdMzoRyx92A-FYb3I","Hindustan Petroleum Corporation Limited","Survey No 618, A/1/1, Konaimakula, Geesugonda","17.9511574","79.6966803","true"
"ChIJf1xQna1EMzoRqbF59jk45HE","Hindustan Petroleum Corporation Limited","Survey No 419/A Geesugonda, Sthambampally","17.9626134","79.6397212","true"
"ChIJA7XX7qBeMzoRDXJmdG6ZzJ0","Hindustan Petroleum Corporation Limited","Survey No 417, G & 417/D, Nekkonda Road, Sangem","17.856392","79.67419199999999","true"
"ChIJdcAtbFpdMzoRhVoXi1vCsBQ","Bharat Petroleum Petrol Pump , SHRI SHIV SHANKAR FILLING STATION","SANGEM, Warangal","17.889464","79.712396","true"
"ChIJf5ew6eldMzoR0J8QSKSraDg","Hindustan Petroleum Corporation Limited","Ground Floor, Geesugonda","17.9342686","79.7097397","true"
"ChIJU9wUqo9dMzoR5W85-AAjLDI","Jio-bp","317/D/5, Sy No 317, beside Sai Baba Temple, D/4, Narsampet Road, Geesugonda","17.9547278","79.6732854","true"
"ChIJXYTYvddcMzoRvYvS29vSbsk","IndianOil","Sy No 733, Lock No 386/7/D1, G2, Geesugonda","17.9524951","79.6929912","true"
"ChIJ_58dcDVdMzoR69J8vcmuRyg","Yelishala Filling Station BPCL","Tfghhjjjgggh Tg, Chinthala Pally","17.9519466","79.6948792","true"
"ChIJiY950tBcMzoRgeNzqBaF8lA","HP Petrol Pump","Survey NO 618/A/1/1 Konai Makula Villge Gesukonda Mandal, Warangal","17.9512398","79.6963196","true"
"ChIJEzYK2nRdMzoR-0LJ9zzyWok","Petrol pump","near gangadevipally, Geeeugonga mandal, near gangadevipally, Warangal","17.9515256","79.70365989999999","true"
"ChIJBaJJVUFdMzoRxEf7pLArH5Q","Bharat petroleum / Mahalakshmi filling station","Warangal-Narsampet Road, Gangadevi Pally","17.9516754","79.708427",""
"ChIJ2zglNihfMzoROMSxR0Z24yE","Hindustan Petroleum Corporation Limited","Ground Floor, Warangal Nekkonda Road, Theegarajupally","17.839824","79.69914100000001","true"
"ChIJf8uQDK9PMzoRIr5iChmAh-I","IndianOil","Lock No, 183/D1/E Sy No 753, Bypass, Kazipet, Wadepally, Warangal","17.991816","79.525131","true"
"ChIJ5bHCSKNPMzoRMSDHJupB5UI","IndianOil","Lock No 96, D1/G2, Kazipet","17.989651","79.533394","true"
"ChIJC1R8lz5OMzoROBZegMWVEpY","IndianOil","Lock No 2, opposite Diesel Colony, D1 D/7/6, Bapuji Nagar, Kazipet","17.9702843","79.496927","true"
"ChIJpbKyXAlPMzoRG6hmOly0tuM","HP PETROL PUMP - SARAYU FUEL POINT HANAMKONDA","Sy.no.880 Village Church Road, Waddepally, Phase 1, Teachers Colony, Hanamkonda","18.0051327","79.5317268","true"
"ChIJXQ9BjoBPMzoR2-nGX2QQsEE","Hindustan Petroleum Corporation Limited","H No 1/8/277 Nakkalaguta, Bus Stand Road, Balasamudram, Hanamkonda","17.99859379999999","79.5592605","true"
"ChIJB8qHM2NPMzoREh706j8GZ1E","Hindustan Petroleum Corporation Limited","Survey No, opposite Hanamkonda, 344 & 345, Old Bus Depot Road, New Abadi, Kazipet","18.0054936","79.55344149999999","true"
"ChIJsxHUqGVFMzoRmqJt7EnqHss","IndianOil","Lock No 11005 & 93296 Lock, 43/D1, Hunter Road, Subedari, Warangal","17.987726","79.569351","true"
"ChIJNQ81fWpFMzoRZGeUY_6qu-Q","IndianOil","H No 23, near Flyover Bridge, 6/140/3, Ramannapet, Warangal","17.9801317","79.5800431","true"
"ChIJ01REzUNPMzoRSWkkBs0_-zw","IndianOil","Lock No 282/3, D1 & E3, Karimnagar Road, Vidyaranyapuri, Warangal","18.027679","79.544258","true"
"ChIJ_yLs1HRFMzoR0o20btFNdoI","Bharat Petroleum, Petrol Pump -Vijaya Fuel Filling Station","MULUG, X ROADS, Hanamkonda","18.0004361","79.5826957","true"
"ChIJ7yMIJgtFMzoRraOpwalkydc","Karthik Service Station Indian Oil Petrol Pump","H.No. 15-1-430, X, Mulugu Road, Vidya Nagar, Warangal","18.0001813","79.5837298","true"
"ChIJi9xqI5pFMzoRmRYXgxS1_hY","Bharat Petroleum Bunk","Reddy Colony, Hanamkonda","18.0130637","79.57644959999999","true"
"ChIJbapOiM5PMzoR1KJHswsl_xY","Madugula Rakesh","XGC3+W9W, Kazipet","17.972366","79.5034501",""
"ChIJ96Fb5KJPMzoRTt5rCTzBsSI","IndianOil","Lock No 120/D1 Main Road, Hanamkonda, Waddepally, Warangal","17.99109499999999","79.53557599999999","true"
"ChIJ-1TBCTlOMzoRC0ilKdGm70k","Hindustan Petroleum Corporation Limited","Survey No 1099/1A, NH 163, Hanamkonda- Hyderabad Road, Diesel Colony, Warangal","17.97024","79.4980492","true"
"ChIJx7aiXdVPMzoRC6E-pwuTu8k","BPCL PETROL PUMP - ARK PETROLEUM SERVICES","Hanamkonda","17.9915676","79.53737199999999","true"
"ChIJazQ2-ZtPMzoRVxWQ2-uo-UM","Hindustan Petroleum Corporation Limited","Survey No 880, Waddepally, Hanamkonda","18.0051372","79.5315521","true"
"ChIJxxa2D5dPMzoRBdF_TbPeRcU","Fast Food","Sadanandam. Chidurala. 30-2-1118/2/1, Road, 6, TNGOS Colony Road, III, Hills Colony, Madikonda, Kazipet","17.9685053","79.4851989",""
"ChIJt5eMgH9PMzoRDLVyHYtLsCo","Bharat Petroleum Petrol Pump , T.MUKUNDA REDDY FUELS","opposite VANA VIGNAN, ROAD, Shyampet, Hanamkonda","17.9919177","79.5573432","true"
"ChIJd2bqrqtPMzoRx3wEFPQl92s","Bharat Petroleum Petrol Pump , UMA FILLING STATION","KUC, Devannapet - Kazipet Road, ROADWADEPALLY","18.007505","79.533562","true"
"ChIJW4GgIX1PMzoRJJV4pwyK8sA","IndianOil","Lock No 444/45, No 2/6/45/5, D1 & E/6/2, Nakkala Gutta, Hanamkonda","17.99745189999999","79.55303239999999","true"
"ChIJiQ_2rcNPMzoRI4hGyNSoTCY","IndianOil","2-9-636, Waddepally, Warangal","18.0088208","79.5344171","true"
"ChIJFzk1hSNPMzoR0sCPw2qBhz0","Bharat Petroleum, Petrol Pump -Sri Prataprudra Automotives","NAKKALAGUTTA,HNK, Hyderabad - Warangal Highway, NAKKALAG, Nakkala Gutta, Warangal","17.9997955","79.5555274","true"
"ChIJIzPV6YFPMzoRjTdeA8pbZs4","IndianOil","opposite Water Tank, Nakkalagutta Hanamkonda, opposite Water Tank, Warangal","18.001095","79.556054","true"
"ChIJ4Z2FAnhPMzoRVlMWDjXPviE","VARSHA SREE FILLING STATION","Road, Unikicherla","18.0107242","79.500376","true"
"ChIJibflvq9PMzoR1gBxaxrHqkE","Hindustan Petroleum Corporation Limited","Survey No 200, A5/E, Road, Hasanparthy, Unikicherla","18.010621","79.4986498","true"
"ChIJr-ruAB1PMzoRHw0k-b2yvD4","Petrol Pump(Bharath petroleum)","XF9C+GVX, Madikonda Dharmasagaram Road, Dharmasagar","17.9688503","79.47222599999999",""
"ChIJMSiMU0NPMzoR5KcPCkN4v5s","SREE THIRUMALA FILLING STATION HP","Survey No 78, Vivek Nagar Colony, Saptagiri Colony, Warangal","18.0150165","79.5426868","true"
"ChIJAWnUPbJPMzoRdEC9MLgM_RA","Adarsha nagar","XF9C+PGX, Madikonda Dharmasagaram Road","17.969366","79.471367",""
"ChIJ0yDaAgBFMzoRmdvNQ7XrX0g","IndianOil","No 23/6/194, L No 4518 L No D1/23/24/25, Hanamkonda","17.9853135","79.5739449","true"
"ChIJnydnWatFMzoR0ukbMKgj2jo","Hindustan Petroleum Corporation Limited","Survey No 908, near Padmakshi Temple, Padmakshi Temple Road, Hanamkonda","17.9962409","79.56859709999999","true"
"ChIJzeottrJPMzoRGNazngctE1M","Bharat Petroleum - Kakatiya Filling Station by TS Police Dept","2H45+W85, Sai Nagar, Hanamkonda","18.0075632","79.55815559999999","true"
"ChIJYyinWgBFMzoRvSFbL6I1DqE","Sree Vaishnavi fuel station hunter road","XHMG+P6G, Hunter Road, Shyampet, Hanamkonda","17.9843078","79.5755719",""
"ChIJL8DdQmlFMzoRydzH2FnEXpc","Hindustan Petroleum Corporation Limited","Survey No 125/C, Hunter Road, Hanamkonda","17.9841038","79.5763541","true"
"ChIJWZ15qo1FMzoRQcEiE4YN1ZI","Charan Reddy Petrol Pumb","2H46+MP6, mulugu road, honamkonda, Warangal","18.0066664","79.56177939999999","true"
"ChIJw_5wzGtFMzoRP_OxG7uM-Rg","Sri Venkateshwara Sai Lpg Gas Station","Shyampet, Hanamkonda","17.9829171","79.5782222","true"
"ChIJCzMDKS1FMzoR1c3jO1V5TS8","Bharat Petroleum Petrol Pump , MARUTHI FILLING STATION","H.NO.5-1/G, KURELLA, VILLAGEKOHEDA MANDAL, Siddipet","17.979525","79.579774","true"
"ChIJozBKfWRPMzoRr8pfkwJyvvU","Hindustan Petroleum Corporation Limited","Ground Floor, near Hanumakonda, Nala, Naim Nagar, Warangal","18.013978","79.5565475","true"
"ChIJOXkuE4dFMzoR9xZjCnUul3g","Hindustan Petroleum Corporation Limited","Ground Floor, near Public Garden Road, Hanamkonda","18.0102601","79.56173009999999","true"
"ChIJTVP3ZgBPMzoReJSMgse30bs","Sammakka Saaralamma filling station","Suvery no 362, 4/2, Devannapet","18.0254433","79.509558",""
"ChIJFebnHD9FMzoRF5h1wc9qtyQ","Hindustan Petroleum Corporation Limited","No 681 Urus, Hunter Road, Timmapur, Warangal","17.9763862","79.58541149999999","true"
"ChIJQdyoIUhFMzoRlf-lepRWpKw","Jio Petrol bunk","beside lane of Reliance Petrol Bunk, 3-1-378, Raganna Darwaja, New Raipura, Raipura, Hanamkonda","18.0045255","79.5770062",""
"ChIJYZgOD-RPMzoRQYzPsEUgHYI","Hera gas service","2HC6+736, Hanuman Nagar, Hanamkonda","18.0206586","79.5601267",""
"ChIJCwMrWVNFMzoRI8pp3voOF5I","Bharat Petroleum, Petrol Pump -Venkataramana Filling Station","UMAINAGAR, Warangal","17.982885","79.5904805","true"
"ChIJr-QVbBxFMzoRvj7UZwb5LTE","IndianOil","Lock No D1/51, Pochamma, C9/5, Warangal","17.9887617","79.6006537","true"
"ChIJtyg0M0ZFMzoR8jNp42KEP-U","Bharat Petroleum, Petrol Pump -Aukarapu Narasingam Son","JPN ROAD,WGL NR.SBH, 9-10-20, Jayaprakash Narayan Road, Nandayya Gari Compound, Sherpura, Warangal","17.9802227","79.5988507","true"
"ChIJTR3dOilFMzoRGGVPfOtIv1c","Bharat Petroleum, Petrol Pump -Navya Fuel Services","LAXMIPURAM, VENKATRAMA THE, Warangal","17.9788167","79.6087146","true"
"ChIJD_2OWe5EMzoRMjGyZ_G9GRU","Bharath Petrol Pump","Balaji Nagar, Warangal","17.9909363","79.62033040000001",""
"ChIJv7CEbLZEMzoRia9WT9lEZ9I","IndianOil","Survey No 395, Lock No 29, Janipeerilu, D1 & E/7/3, Warangal","17.965956","79.629211","true"
"ChIJj0iZXwBFMzoR97MaJ43Lwxg","Karunasree filling station","16-5- 288 & 289, Under Bridge Road, Perukawada, Shanthi Nagar, Warangal","17.9714584","79.599513","true"
"ChIJx-t2GLRFMzoRPpG8gixUaEs","Hindustan Petroleum Corporation Limited","H No 8/3/13, Medariwada, Old Beet Bazaar, Warangal","17.9745614","79.5980349","true"
"ChIJ6TTyUABFMzoRGYwx7qkwQhI","ABSS FUELS SERVICE STATION - HP BUNK","beside HP petrolpump, 8-3-12/1, Badrakali Housing Society Colony, Old Beet Bazaar, Warangal","17.974516","79.59828300000001",""
"ChIJKdj6MOVFMzoRVU2OecvLqks","IndianOil","Lock No T3/83, Warang, A/1/4, Warangal","17.9750561","79.5996716","true"
"ChIJQYRkMhlFMzoR6Tosy_v4IP4","Bharat Petroleum","Jayaprakash Narayan Road, Sherpura, Warangal","17.9843328","79.5993665",""
"ChIJtXxnCeBEMzoR0J_g7lCW_iQ","Shiva Sai Auto care HP petrol Pump","India","17.9815399","79.6063114",""
"ChIJKQYq8UdFMzoRH-eLnYLWPho","Hindustan Petroleum Corporation Limited","Ground Floor, Jayaprakash Narayan Road, Pochamma Maidan, Warangal","17.987865","79.601236","true"
"ChIJs9k46pZFMzoRVvqyPCQiBtg","Hindustan Petroleum Corporation Limited","RS No 736, GWMC Premises, Tadkamalla, Warangal","17.9909904","79.5912556","true"
"ChIJb6Dlsw9FMzoRLnnawo7mYB0","Superintendent Retail Outlet Central Prison Warangal","Warangal Central Jail, near Nizampura, Sardar Vallabhai Patel Road, Nizampura, Warangal","17.9942567","79.59155849999999","true"
"ChIJLVgSWA5FMzoR5i62FNupG-4","Hindustan Petroleum Corporation Limited","Survey No 625, opposite Warangal Central Jail, SVP Road, Warangal","17.9949276","79.5903506","true"
"ChIJL_hQINpFMzoRJB7qCK07yjU","IndianOil","Lock No 167/478, Bhadrakali Super Bazar, D1 E/2/1, No 23022/9346, Warangal","17.9953258","79.5905207","true"
"ChIJnS7U7xFFMzoR5BGjXeYrrHQ","IndianOil","Lock No 28/D1, E1/2, Grain Market Road, Enumamula, Warangal","17.9892249","79.6168459","true"
"ChIJnSYJwgdFMzoRLQi-OyEk1FM","Bharat Petroleum, Petrol Pump -Sri Raja Rajeswari Service Station","MULUG ROAD, NR GOVT ITI, Warangal","18.0035186","79.5837083","true"
"ChIJVzZPqrZEMzoRUQm34DwmK0Q","Bharat Petroleum, Petrol Pump -Sainath Service Station","Gorrekunta Village, Warangal","17.9652553","79.6331498","true"
"ChIJOZ8MFwBFMzoRdT7yqG0cfJE","Peddamagadda cemetary","2H4R+WWG, Peddammagadda, Hanamkonda","18.0073181","79.5923323",""
"ChIJDdFqBEhFMzoRgQpOpshDn4M","Hindustan Petroleum Corporation Limited","Survey No 625, Hanuman Jn, NH 163, Parkal - Hanmakonda Road, Warangal","18.0076796","79.5923416","true"
"ChIJX-I7VKtDMzoR_PxHiN__v10","HP Petrol pump","XMWF+Q6C, Ooglapur Dharmaram Road","17.9969435","79.67300879999999","true"
"ChIJxf3YcuRDMzoRuIJxZmhU7oQ","Hindustan Petroleum Corporation Limited","Survey No 249/1, 250/1 & 250/7A2, Geesugonda, Mogilicherla","17.9978637","79.6731346","true"
"ChIJryvqO-1EMzoRsB7A9Bt_8UA","HP PETROL PUMP - SRI TIRUMALA FILLING STATION","Survey No 102/B Enumamula Mustyalapalle, Road, Mogilicherla","17.9967416","79.6369019","true"
"ChIJH1K2OYNDMzoRxNDnBF5eRU8","శ్రీలక్ష్మీ జ్యూయలరీ వర్క్","India","18.0117761","79.66063969999999",""
"ChIJa5thZaFDMzoRf0ilUYNj3VM","IndianOil","Lock No T3/141, B8, Sy No 254, A/2, Athmakur, Akkampet, Musthayalapalli","18.0137194","79.6763154","true"
"ChIJ24CKaQBFMzoRLE0YlHH5TKA","SRI BALAJI SERVO STATION, AREPALLI-WARANGAL","Parkal - Hanmakonda Road, Warangal","18.036088","79.6397242","true"
"ChIJNTfS7TRPMzoRb5xBJu9T_us","Hindustan Petroleum Corporation Limited","S No 164/2 & 165/2, Bheemaram, Hasanparthy","18.045551","79.534121","true"
"ChIJjVEk6B1JMzoRoi4KWrD97ds","IndianOil","L No T3/33, C/7/4, Hasanparthy","18.076541","79.513916","true"
"ChIJU3BTip1JMzoRp-DJb1qrbIE","Hindustan Petroleum Corporation Limited","S No 364/A SH 7, Hasanparthi, Yellapur","18.09197499999999","79.485762","true"
"ChIJrQOg3x5PMzoRLX0nvXEXP1A","HP Petrol bunk","55-1-604 beemaram sreenagar colny, road, Bheemaram, Hanamkonda","18.0343481","79.5393459",""
"ChIJR-OeeSpPMzoRlOAvR12i3MM","Hindustan Petroleum Corporation Limited","Survey No, 47 & 36, National Highway 563, Bheemaram, Hasanparthy","18.0344547","79.53977909999999","true"
"ChIJ-6tplPpJMzoRafBif9MMoME","Bharat Petroleum, Petrol Pump -Hanamkonda Service Station","HASANPARTHY, WARANGAL-KARI, Warangal","18.0571943","79.5281028","true"
"ChIJVzug5s9IMzoRLJvpUK7Jgpk","Go Auto LPG Gas","3G5G+3RV, Warangal","18.0577361","79.5270584","true"
"ChIJLeU_rFdPMzoRbil3EBj9U2g","Bharat Petroleum","Unnamed Road","18.0339682","79.4866294",""
"ChIJidCFSQBJMzoRZCm83J4OOv0","Indian Oil Sre Balaji Filling Station","3FQV+76, Yellapur","18.088134","79.49304099999999",""
"ChIJfYmbixBJMzoR2dSeGEZCp1I","Hindustan Petroleum Corporation Limited","S No 364/A SH 7, Hasanparthi, Yellapur","18.09197499999999","79.485762","true"
"ChIJq_eSLrdJMzoRkOHFReBufaU","IndianOil","Sy No 744, Aa Ambala, E/2/1/A 743/A/2/1/B &743/A/3, Babapur","18.095788","79.558461","true"
"ChIJo6nb1EpEMzoRrUu6Z4--2MM","Hindustan Petroleum Corporation Limited","Survey No 159, near Iskcon Temple, NH 163, Warangal Mulugu Road, Matwada, Warangal","18.0249507","79.6045303","true"
"ChIJY6rTN0hEMzoRtFEDO9EeEzg","Bharat Petroleum, Petrol Pump -Warangal Petroleum Supply Co.,","PAIDIPALLY(AREPALLY), MULU, Warangal","18.02707789999999","79.6143093","true"
"ChIJNx2mbupFMzoRG_cvVAs_zOc","IndianOil","Survey No 605, Paidipally, Arepally","18.032446","79.628379","true"
"ChIJIcuKZjZFMzoRDfHzXhBNkFU","IndianOil","Sy No 283/B/2 Damera, Ladella, Warangal","18.043917","79.6333301","true"
"ChIJR6ggN49HMzoRAmaKLvWqZyk","IndianOil","Sy No 566, 1/1, Hasanparthy, Siddapur","18.084703","79.60103199999999","true"
"ChIJ3USu_Q1EMzoR6ySDFLQKGuE","IndianOil","Sy No 643/1 Aarepally, Paidipally, Ladella","18.0390652","79.6437687","true"
"ChIJe00JFzxDMzoR_JTJ2gLvIAw","IndianOil","Sy No 117/A, 117/Aa, 117/E, Oglapur","18.0487879","79.6615765","true"
"ChIJP7QOsJFBMzoRTnCGsGaAMeg","IndianOil","Sy No 818, Lock No 81/D1, Gudeppad,Akkampet, Atmakur","18.070814","79.70968599999999","true"
"ChIJg8GASWBBMzoRrNTwJav6Z-g","IndianOil","Lock No, D1/37/C/9/4, NH 202, Beat Bazar, Warangal","18.056698","79.675097","true"
"ChIJQ60cfPRBMzoRSHovxtLVmOI","ERR Filling Station","3M9X+2CF, Damera, orugonda village, Warangal","18.067564","79.69854649999999",""
"ChIJt2MCMINBMzoR3sKeAGnAF-I","Bharat Petroleum","India","18.0674908","79.6986209",""
"ChIJheh4zZFBMzoR2mwcVW6VJ14","Hindustan Petroleum Corporation Limited","Ground Floor, Atmakur","18.069209","79.7094882","true"