place_id,name,address,latitude,longitude,open_now
"ChIJyUU8uQGdoDkRadfA_J2NSIM","IndianOil","Ground Floor Naripur, Kamalwaganja Lamachaur, Haldwani","29.225735","79.424123","true"
"ChIJHxT96ACdoDkRYMvMpFOZn-c","Hindustan Petroleum Corporation Limited","Ground Floor, opposite Amrapali Institute, Haldwani Kaladhungi Road, Lamachaur Khas","29.227531","79.421371","true"
"ChIJ1TL6eQCdoDkRGZ-TJ5ZrbLI","Off. Narayan Petrol pump","6CMQ+CP4, Isainagar No1","29.2335131","79.4393291",""
"ChIJ0zx1OYCdoDkR8HDsoz0OpKA","Jio Petrol Pump","6F75+3R6, Anandpur Road, Bhagwanpur Vichla, Haldwani","29.2124804","79.4589088",""
"ChIJ29ePTwCDoDkRfqAFn_IdOyc","Kalika kisan seva kendra indian oil petrol pump","5FG8+FJ, Gais godam rood, Haripur Kunwarsingh","29.1753416","79.46618889999999",""
"ChIJG6h_11WboDkR7XQ6l8patQs","Deewan Filling Station- C.N.G. and Petrol-Deisel Pump.","Pandey Newar","29.1931679","79.47250869999999","true"
"ChIJHcKoF-ODoDkR18oXp3fiRU4","IndianOil","Anandpur Road","29.17495749999999","79.46990319999999","true"
"ChIJr26WV_mboDkRCUbog7sDR5w","Hindustan Petroleum Corporation Limited","Ground Floor, near Panchayat Ghar, RTO Chowk Road, Prempur Loshyani","29.2006479","79.4787125","true"
"ChIJ4wZ8PtqFoDkR8TSmJRcoesk","Nayara Petrol Pump - ABS Filling Station","Dhanpuri choraya RTO OFFICE ROAD, Panchayat Ghar, Haldwani","29.1736724","79.47445580000002","true"
"ChIJd4w-oSiboDkRmpgYvLuHkhM","Hindustan Petroleum Corporation Limited","Ground Floor Haldwani, Road, Lamachaur Khas","29.2143767","79.4790459","true"
"ChIJuynF5yyboDkR70XEXU4dITY","Indian Oil Petrol Pump","Ground Floor, near Transport Nagar, Rampur Road, Fathepur, Haldwani","29.192137","79.507935","true"
"ChIJ4zLjSMaEoDkRV9ijnFIDB2o","Bharat Petrol Pump shree bihari ji filling station","5FGW+GGW, Bera Pokhara, Haldwani","29.1763513","79.49633","true"
"ChIJOUpYmSqboDkR-FlEpKpuJFg","Hindustan Petroleum Corporation Limited","near Transport Nagar, Ground Floor, Rampur BLY Road Haldwani, near Transport Nagar, Bypass, Haldwani Talli","29.1927245","79.5149016","true"
"ChIJLyKvxeWaoDkRqCX4YpvwLWk","Essar Petrol Pump","Vishakha butiq, near essar petrol pump, Nawabi Road, Malla Gorakhpur, Heera Nagar, Haldwani","29.221552","79.5245308","true"
"ChIJp3RtvfGaoDkRnTul1d_1r14","BPCL Fuel Station","National Highway 87, Subhash Nagar, Haldwani","29.2287294","79.5307974",""
"ChIJK-wo9GSboDkRL_L-IMHnqcE","IndianOil","near Maharishi Vidhya Mandir, Ground Floor Karyalpur Chatursingh, near Maharishi Vidhya Mandir, Dewalchaur Road, Nainital","29.1944801","79.4984326","true"
"ChIJiXp8nHyFoDkRq8Q-CV0hJWw","IndianOil","Bachipur, Motahaldu, Fatehpur Near Bottling Plant, Ground Floor NH 87, Haldwani","29.1987793","79.5033634","true"
"ChIJEXsRjCyboDkRELTg54eJTnI","CSC Manpur Utter","Rampur Road, Dewalchour Chouraha, Dahariya, Haldwani","29.1929193","79.5086366","true"
"ChIJA8bSBniboDkRNvTlBHeELRw","IndianOil","Ground Floor Kaladungi Road, Loharia, State Highway 41, Fatehpur","29.233831","79.481261","true"
"ChIJQ-Vk7qCboDkR5Md__OcOCqE","Janki Energy Filling Station, Bharat Petroleum","6FPG+6XX, Kathghariya, Haldwani","29.23535279999999","79.4774925","true"
"ChIJ2b-OPsSboDkR7JDa3X5906g","Bharat Petroleum, Petrol Pump -Kant Brothers.","MAHAVIRGUNJ,HALDWANI,NAINI, NAINITAL","29.19555429999999","79.51111999999999","true"
"ChIJG7PW3XOboDkRPtdItpz90r4","Bharat Petroleum, Petrol Pump -Royal Fuel Station","Harinagar","29.2241386","79.5011013","true"
"ChIJpU1KRgCboDkRpWQo5MRg5Eg","Mahadev Filling Station","5GV7+945, Mandi Bypass Road, Transport Nagar, Haldwani","29.1933793","79.5128709",""
"ChIJt9ZxvRuboDkRe7V3EM2Qzb0","IndianOil","Ground Floor, Kaladhungi Road, Haldwani","29.2212024","79.5082923","true"
"ChIJ77VOxMKboDkRLQLYf39LKw8","Bharat Petrol Pump Goyal Filling Station","Vill, Transport Nagar Road, Manpur Uttar","29.1935476","79.5148081","true"
"ChIJ6ys4fACFoDkRKGi8sZKyn4w","Ganna center","5F5J+65W, Haripur Motia","29.1578301","79.4807553",""
"ChIJI6RrTqiboDkR8cC6OR-gec8","Bharat Petroleum, Petrol Pump -Jagannath Service Station","TALLI BAMORI,HALDWANI,NAIN, NAINITAL","29.218076","79.51705799999999","true"
"ChIJq6qq6oSEoDkRW9aMBB__VqY","IndianOil","Ground Floor Haripur Ratansingh, Haldwani","29.1540489","79.47911359999999","true"
"ChIJiXNvTSmFoDkRolO_DczNc1Q","Bharat Petroleum - Janta Petrol Pump","5GPC+29J NH-87, Transport Nagar, Haldwani","29.1850916","79.5208925","true"
"ChIJ-cXJd9yaoDkRGLW3HNgb3jk","Hindustan Petroleum Corporation Limited","Ground Floor, Rampur Road, Nainital","29.2089032","79.522781","true"
"ChIJJX64WOGaoDkR-xPl7_pPleg","IndianOil","Ground Floor, Bareilly - Nainital Road, Fathepur, Haldwani","29.198732","79.525323","true"
"ChIJzQwcqoaFoDkRJ2U9tvya1vs","Jio-bp","Khasra No 49/1, 51, Khatauni, 00010 Sh 05, Rampur Road, Haripur Ratansingh","29.151363","79.47685899999999","true"
"ChIJA_rd3NyaoDkRPiq9Grho-LM","IndianOil","Ground Floor Rampur Road, Bareilly - Nainital Road, Fatehpur","29.2113287","79.52554649999999","true"
"ChIJC7mTDTiboDkRuOB_dl0yKWI","Haldwani Energy Centre","next to Nilkamal furniture, Bareilly - Nainital Road, Mangal Parao, Haldwani","29.2073947","79.5277802","true"
"ChIJK4fYePiFoDkRbaJrTRkdHDE","Hindustan Petroleum Corporation Limited","Ground Floor, Teen Pani Bypass Road, Haldwani Bypass Road, Gaujajali Bichli","29.1899571","79.5292697","true"
"ChIJU4LW4jKFoDkRJPUKWgNA-44","Hp Petrol Pump - Satat Filling Station","Village Gaujajali Bichli Haldwani Byepass Road, Dehradun","29.1843999","79.5278925","true"
"ChIJS6W4L36DoDkRtb3ix7Qmsmk","Hindustan Petroleum Corporation Limited","Ground Floor, SH 61, Rampur Road, Nainital","29.1449137","79.4696381","true"
"ChIJFbtxZxSFoDkRE9VjXDFC_88","Bharat Petroleum Petrol Pump (BP)","5GGH+Q3H, Unnamed Road, Patwadanagar, Haldwani","29.1769324","79.5277337",""
"ChIJlYyMEOmaoDkR9cDbcBr9Dws","HP PETROL PUMP - MATHURA PRASAD & SONS","HP Dealers Haldwani U.A., Dehradun","29.21895039999999","79.52998170000001",""
"ChIJfYkI_3yFoDkRSMB2oBcedYE","Bharat Petroleum, Petrol Pump -Kamla Service Station","GAUJA JALI,HALDWANI , NAIN, NAINITAL","29.1667997","79.5213309",""
"ChIJ0QutmYOboDkRhYuRwkK0mCA","Petrol Pump (BPCL)","6GCH+2WG, Station Road, Malla Gorakhpur, Heera Nagar, Haldwani","29.2201206","79.52980509999999",""
"ChIJq543e6KFoDkRbyyw24AK9vY","Hindustan Petroleum Corporation Limited","Ground Floor, Bareilly - Nainital Road, Haripur Tularam","29.166201","79.52120099999999","true"
"ChIJyStLspSboDkRXVHWxMXkggs","Bharat Petroleum, Petrol Pump -Harbans Motor Works A/C. Haldwani","NEAR NAGARPALIKA,HALDWANI,, NAINITAL","29.220936","79.53071899999999",""
"ChIJRy8T8e6aoDkROeh-Quf6Ogo","PK Filling Station","6GFJ+856, Bareilly - Nainital Road, Tikonia Chouraha, Tikonia Churaha, Haldwani","29.2232995","79.5303955",""
"ChIJV1mEOgmboDkRiyvlRG3h6rU","Bharat Petroleum, Petrol Pump -Gurunanak Service Station","BHOTIA PARAV,HALDWANI,NAIN, NAINITAL","29.22871679999999","79.5308393","true"
"ChIJZ_I4vRuFoDkRUPHO-bhrjD0","Bharat Petroleum Petrol Pump","5G6C+7XQ, NH-87, Gorapadao, Haldwani","29.160724","79.522499",""
"ChIJezT5Wm-DoDkR03qt_W7JcBc","Bharat petroleum H S FILLING STATION)","4FQ7+VJ2, Rudrapur - Haldwani Road","29.1396309","79.4640287","true"
"ChIJgdX3nvGaoDkR-4ahJ_q85fI","Hindustan Petroleum Corporation Limited","Ground Floor, Haldwani","29.229451","79.53105099999999","true"
"ChIJZw4EljOboDkR0Wpc2Py4g1s","Bharat Petroleum, Petrol Pump -Triloksingh & Company A/C.Beriparaw","KATHGODAM HALDWANI RD NAINITAL, UTTRAKHAND","29.2309995","79.5315066",""
"ChIJAV7IZ1iaoDkRdfhzocCb4hU","IndianOil","near, Panchakki Road, Chauraha, Vill, Bamori Malli","29.2393258","79.5288032","true"
"ChIJofPaq2uboDkR6uEW1_72SFg","IndianOil","Ground Floor, Bareilly - Nainital Road, Fathepur, Haldwani","29.2369072","79.53312020000001","true"
"ChIJG3M2e0SFoDkRGA6p2HwYAFI","Amba Filling Station","Supi bhagwanpur, Motahaldu Bypass Road, Haldwani","29.144454","79.51246499999999","true"
"ChIJP3L4speaoDkRTJ4T0fyTRvw","Hindustan Petroleum Corporation Limited","Ground Floor, Gaulapar Haldwani Bypass Road, NH 87, Nawar Khera","29.2184593","79.54641219999999","true"
"ChIJ9aO_FPqPoDkRCT9IY2oplew","Shiv Shakti filling station Nayara Energy petrol pump","Gola Range","29.1837845","79.5674853","true"
"ChIJmyyibxOaoDkRp7nsCFfPFOg","IndianOil","Harishtal, Ground Floor, Kathgodam Kathgodam Haldwani Road, Near, Bareilly - Nainital Road, Nainital","29.2645056","79.54421260000001","true"
"ChIJCy0M85iaoDkRgeaJlNUGcxs","IndianOil","Haldwani Bypass Road, Nawar Khera","29.2182907","79.55241269999999","true"
"ChIJZ8r-LYKaoDkRDNnRBivNT_I","IndianOil","Ground Floor, Gramkheda, Golapar, Haldwani,Harishtal, West Khera, Haldwani","29.233884","79.55789899999999","true"
"ChIJBTmk-26boDkRwJ6YwHDCJC0","IndianOil","Ground Floor, Damuwadunga Bandobasti, Haldwani","29.2495862","79.537081","true"
"ChIJO93gMpiboDkR2EYcQP4myDA","Bharat Petroleum, Petrol Pump -R.A.Nariman & Co.","NAINITAL RD,KATHGODAM,NAIN","29.2503339","79.5408027","true"
"ChIJJyXjn-OPoDkRHKjoV0ggqck","Devki Energy Point Bharat Petroleum Corporation Ltd.","Madanpur, PO, Kishanpur, Gaulapar","29.1526599","79.57984479999999","true"
"ChIJc-6hqWyaoDkR_bhxtUNrAig","Hindustan Petroleum Corporation Limited","Ground Floor, Kathgodam, Nainital","29.26176199999999","79.543658","true"
"ChIJK_jSWxOaoDkRaGPgcpSj_eg","Bharat Petroleum Petrol Pump R. A. Narmain And company","87, National Highway, Kathgodam, Haldwani","29.2632252","79.5437894","true"
"ChIJ8cL5eK6FoDkRjTS9NrrI61g","Reliance Petrol Pump - Shri Ram Petroleum","बिलासपुर - रुद्रपुर - हल्द्वानी - राजमार्ग, Tejpur Negi","29.1362311","79.5215183","true"
"ChIJVfDIzICFoDkRK9pIRPlVWG8","IndianOil","Ground Floor Motahaldu, Opposite Indane Bott P, Haldwani","29.1340098","79.5209459","true"
"ChIJkYvJRfF3CjkR9af8TNM_BIw","Jahoor filling station","7983+H2R, Guljarpur, Kaladhungi","29.2664826","79.3525105",""
"ChIJbduF0md3CjkRNhAzN3VL4FY","IndianOil","Ground Floor Gulzarpur, Banki, Kaladhungi","29.2669025","79.3523","true"
"ChIJSaHy0Bh1CjkRHopt_J9ahVg","Ganga Filling Station","78PX+45W, Kaladhungi","29.2853743","79.3479638",""
"ChIJW5obm_Z1CjkRMFTU3YE9dVU","Bharat Petroleum Petrol Pump , NAVDURGA SERVICE STATION","Kaladhungi","29.288436","79.34405199999999","true"
"ChIJy3AXELV1CjkRDiHllm6DbFk","IndianOil","Ground Floor Haldwani, Bazpur Rd, Kaladungi, Bail Pokhra","29.29373299999999","79.33739","true"
"ChIJCSvKIiV0CjkRjxwXpxxY3sU","Hindustan Petroleum Corporation Limited","Ground Floor, Ramnagar Road, Nayagaon, Kaladhungi","29.2776399","79.32188990000002","true"
"ChIJH21HCnqboDkRA1xPXBc4gSM","Maasheetla Filling Station","7GJW+P24, Smanora Range","29.281729","79.545001","true"
"ChIJRYSaOnqboDkRyxfdFw5GUoE","IndianOil","opposite Maa Sheetla Mandir, Ground Floor Ranibagh, Haldwani Nainital Rd,Harishtal, opposite Maa Sheetla Mandir, Nainital","29.2818034","79.5449927","true"
"ChIJWRo5LkaZoDkR96IKTx_ZpsQ","Jeolikote Petrol Pump","Unnamed Road, Smanora Range","29.3396203","79.4842381",""
"ChIJf2VfvLuZoDkRMiLe6D_1Pgs","Nainital filling Station","Jeolikote","29.3396692","79.4841695","true"
"ChIJRTw4ib-hoDkRrwNpSowMmds","IndianOil","Ground Floor Sukhatall, Khurpatal","29.3927001","79.4459","true"
"ChIJT0O1W_qhoDkRYtYpykooY5s","IndianOil","Ground Floor, near High Court, Thandi Sadak, Tallital, Nainital","29.38001","79.46209999999999","true"
"ChIJ7R3lA7-ZoDkRlAlG0YMunqY","Almora Filling Station","08, Bareilly - Nainital Road, Nainital","29.34296789999999","79.4827383","true"
"ChIJl72EZmKioDkR13js-3nCjEA","T J Petrol Pump","9GQ7+RP7, Sukha","29.38952959999999","79.5142975","true"
"ChIJkxyeVn6joDkRBA_EwJbUeLQ","Roadways workshop","9GHG+CV3, Bhowali-Bhimtal-Haldwani Rd, Bhowali - Bhimtal Road, Nagri Gaon","29.3785001","79.52717779999999",""
"ChIJNf0Be2KioDkR3u1GFu4eqV8","Hindustan Petroleum Corporation Limited","Ground Floor, Almora Road, Bhowali, Nainital","29.3896117","79.51483189999999","true"
"ChIJ1902d4qZoDkRwd0clETh-1Q","Jio-bp pulse","June Estate Road, Bhimtal","29.3493501","79.54679809999999","true"
"ChIJB9MxzRGYoDkRwvo2uA0PpQ0","Bhimtal Petrol Pump","Bhimtal Bhowali Road, Bhimtal, Bhimtal","29.3649066","79.5463601",""
"ChIJrTLmCSKYoDkRyssJZD5oi0I","IndianOil","Ground Floor, Bhimtal","29.3548476","79.5538523","true"
"ChIJ-zNAUlWZoDkRWyHfeEDkjrQ","IndianOil","Ground Floor, SH 10, Bhimtal Road, Aanu","29.3632718","79.5542201","true"