place_id,name,address,latitude,longitude,open_now
"ChIJp1YiNYBFCTkRbFZOtM2OqVw","Hindustan Petroleum Corporation Limited","Ground Floor, Pherupur","29.851972","78.113497","true"
"ChIJqRNEoEJFCTkRUhqiVkqsX7k","HP PETROL PUMP - HAMARAPUMP CAPITAL PETROLEUM","Laksar Road Vill Dhamouli URF Kharwala Pargana Jawalapur, Dehradun","29.84390839999999","78.1119192",""
"ChIJObkB479ICTkRlzi3tu1iOLs","Hindustan Petroleum Corporation Limited","Ground Floor, near Milestone 196 & 197, NH 58, Roorkee - Haridwar Road, Haridwar","29.91712099999999","78.090321","true"
"ChIJfZNWzBJJCTkR3WDizesPOxU","IndianOil","Ground Floor, Roorkee Road, Haridwar","29.921117","78.0454982","true"
"ChIJlw8Z4DdGCTkR7e8kkbNzdvw","IndianOil","Ground Floor, Ranipur More, Arya Nagar, Haridwar","29.933422","78.13338499999999","true"
"ChIJe2qiY0VGCTkRze6EdybTpxs","Bharat Petrol Pump","W4MV+472, NH 58, Kankhal, Gyan Lok Colony, Mayapur, Haridwar","29.9327709","78.14314949999999",""
"ChIJta99GVRPCTkRBRPARwq50tM","Auto Driver","5218, Haridwar","29.8812235","78.1066839",""
"ChIJwbuqql1PCTkROuY1yziuDKU","Chaudhary Genetics","V4M4+74M, Unnamed Road, Bahadar Pur Jutt","29.88322299999999","78.105286","true"
"ChIJo0SIh1FPCTkRVBs3_bztV2k","Hindustan Petroleum Corporation Limited","Ground Floor, Sarai, Pathri Road, Bahadar Pur Jutt","29.889419","78.101441","true"
"ChIJ-cey_WBJCTkRaXjgQbDyI38","IndianOil","Ground Floor Sarai, Arya Nagar, Haridwar","29.895222","78.09255999999999","true"
"ChIJ69zLtWxJCTkRxZZvaAhlR8U","Radha Krishna Petrol Pump राधा कृष्ण पेट्रोल पंप","Unnamed Road, Bhagtanpur Abidpur Urf Ibrahim","29.8960189","78.0932584",""
"ChIJvy7fJ-NJCTkRd67yA6rCbfg","Hindustan Petroleum Corporation Limited","Ground Floor, Sarai Bypass Road, Sarai","29.90100499999999","78.09346699999999","true"
"ChIJRdsovYBFCTkRcIksitQ_Ous","IndianOil","NH 334A, Taparpur, Pherupur Ramkhera","29.86089029999999","78.11859489999999","true"
"ChIJIZz72JJFCTkRL7-cvDqZmAQ","Bharat Petroleum","V4FF+4QH, Pherupur Ramkhera","29.8728043","78.124478","true"
"ChIJE8ABnzRJCTkRGzsg4qVE_8E","Hindustan Petroleum Corporation Limited","Ground Floor, near Mandi Samiti Chauraha, Sarai Road, Jwalapur","29.907022","78.098413","true"
"ChIJzbwdc4BJCTkR82WJBudB1o0","IndianOil","Ground Floor, Alipur Ibrahimpur, Aurangabad","29.8914188","78.05922900000002","true"
"ChIJ9cJ-qXFJCTkRNIPWWvjZiCI","KS Fast Food","17, Haridwar","29.9108866","78.1041237",""
"ChIJ6366b71ICTkRGZDvQcJbrhQ","IndianOil","Ground Floor Jwalapur, Arya Nagar, Haridwar","29.91668899999999","78.09751899999999","true"
"ChIJ5_QWTGVHCTkREGgltee26_M","CNG Anaerobic CNG pump","Laksar Road, Noorpur Panjanhedi","29.8999602","78.1324743","true"
"ChIJNSoKWABFCTkRWBnv10dD2aU","Dhanpura Fuels (BPCL)","1, Laksar Road, Alipur Ibrahimpur, Padartha Urf Dhanpura","29.838442","78.115104",""
"ChIJ3R8zmKJICTkR7Rl9DIyc45A","अन्सारी मोटर्स","India","29.9172211","78.1010192",""
"ChIJKw2mT3dJCTkRlxYm54q97FU","HNG CNG FILLING STATION","National Highway 334, Haridwar","29.9168183","78.0841245","true"
"ChIJZzv77GxJCTkR1hJoT3-jk88","Haridwar Natural Gas CNG Pump","W358+GJ, Ruhalki Kishanpur Urf Ikkad","29.9172446","78.08452419999999",""
"ChIJG5FC_qFICTkRXTNCDfy5h00","Hindustan Petroleum Corporation Limited","Ground Floor, NH 58, Jwalapur - Laksar Road, Sitapur, Jwalapur","29.918354","78.105791","true"
"ChIJ-WwVWZ9ICTkR9wTdRkP7dN0","Bombay Gas House","W494+CC9, NH-58, Sitapur, Haridwar","29.9185269","78.1061058",""
"ChIJWdDhpJhICTkRvP0bngiWThc","Bharat petroleum","Jatwada pul, Sitapur, Haridwar","29.9187007","78.1052446",""
"ChIJxb3ffDhJCTkRRkXhL8YA55E","POOJA FILLING STATION, BPCL","W4C2+94W, Unnamed Road, Haridwar","29.92097559999999","78.1003331","true"
"ChIJMXlhBQBJCTkRl703qGq3jsE","Udgam uniform","W3CW+JJ5, Jwalapur","29.9215198","78.0966229",""
"ChIJIwIsxupJCTkR1cUjz0iGBB4","KD","W3CM+PG4, Subhash Nagar, Jwalapur","29.9217554","78.0838197",""
"ChIJvzLusnJJCTkRIsUaGCwj7PI","IndianOil","Ground Floor, Ranipur, Shiwalik Nagar Road, Arya Nagar, Jwalapur","29.922264","78.0815976","true"
"ChIJn4CHjXhJCTkROPvupT8kB54","IndianOil","Ground Floor NH 58, Ranipur","29.9180489","78.0664027","true"
"ChIJY1EYJm1GCTkRUX0SDYMaB_Y","IndianOil","Ground Floor, Laksar Road, Arya Nagar, Jagjeetpur, Haridwar","29.9120351","78.1344369","true"
"ChIJqQxuSGZFCTkRT4JqLy8vCD0","IndianOil","Ground Floor Dhanpura, Mustafabad, State Hwy, Ambuwala","29.83090009999999","78.1218","true"
"ChIJjRZu1CpHCTkRtRuDodSCIsY","BPCL - Vishal Bharat Filling Station","W4F7+JF6, Abdul Kalam Marg, Jwalapur","29.9240329","78.1136497","true"
"ChIJwygy1CBGCTkRatkKSAlkQZ0","Hindustan Petroleum Corporation Limited","Ground Floor, Jwalapur Railway Station Road, Jwalapur","29.9245601","78.11353009999999","true"
"ChIJAfQNpIxJCTkRgyFnk1mwuKs","Hindustan Petroleum Corporation Limited","Khasra No, 281, Alipur Ibrahimpur, Bahadarabad","29.9112079","78.0467713","true"
"ChIJ_ZarJSRGCTkROOGWxQsnQJ0","Hindustan Petroleum Corporation Limited","Ground Floor, Jwalapur Railway Station Road, Jwalapur","29.9270498","78.11701099999999","true"
"ChIJcwBVw4VJCTkRKIT7D7QiWL0","Shakumbari fuels Sanant chauhan ji","alipur rohalki road, Bahadarabad","29.9119552","78.0461151","true"
"ChIJ7x-CCzBJCTkRWBeEIrFm3uM","ShreeJi Filling Station","Village And Post, Bahadarabad","29.9201301","78.05557250000001",""
"ChIJAb0X4kxFCTkR4FBYtG9JoFc","IndianOil","Ground Floor Mustafabad, NH 334 A, Haridwar, Aithal","29.8267472","78.126048","true"
"ChIJf4Tbx2lHCTkRw4FPYcIncCc","Shiwalik filling station","Shiwalik filling station, opp. railway station, Haridwar","29.9283805","78.1194491","true"
"ChIJk6dTJkRJCTkRp-s5mxjRZGE","Agromec Fuels","Unnamed Road, Bahadarabad","29.920643","78.04903999999999","true"
"ChIJy0-zq6FHCTkRD4D8-rRTJAA","IndianOil","Ground Floor Luxure, Road, Bhimgoda, Haridwar","29.92571","78.1331","true"
"ChIJy4XCeQNJCTkRlUTSH793vBM","IndianOil","Ground Floor, बहादराबाद, Industrial Area, Aurangabad","29.9283264","78.06007330000001","true"
"ChIJhY0PqkFGCTkRSTWtBag5sHc","Ganesh Petrol Pump","W4FP+HPF, Krishna Nagar, Jagjeetpur, Haridwar","29.9239432","78.1367981","true"
"ChIJJeCSkDlGCTkR8O8wgOe8lQM","Fuel-F3","India","29.9297563","78.1288825",""
"ChIJ__WyKQBJCTkRe2cy9K4asGg","Pradhan Petrol Pump","W3H2+7GW, बहादराबाद, इंडस्ट्रियल एरिया, हरिद्वार","29.9279546","78.0517328","true"
"ChIJw9nagDdGCTkRYTSdIv3tKSA","IndianOil","W4JJ+QFF, Haridwar Main Road, Adarsh Nagar, Model Colony, Haridwar","29.93206209999999","78.1312485","true"
"ChIJXbVV9SRFCTkRA7mcnVMZgZM","Hindustan Petroleum Corporation Limited","Ground Floor, Bhawanipur Jamal Pur","29.817139","78.131152","true"
"ChIJi3j4AmZJCTkR7PwKbIGNwQo","IndianOil","Ground Floor Hardwar Roorkee, Road, Aurangabad","29.9166943","78.0307464","true"
"ChIJVx9pcmNICTkRrBVfrTg1Fog","BHEL Gas Filling Station","W3VW+WWJ, BHEL Township, Haridwar","29.9448348","78.0972592",""
"ChIJwwPY7GVECTkRAgzejejzcmU","IndianOil","Ground Floor Gandhi Road, NH 74, Shyampur","29.8676129","78.18647039999999","true"
"ChIJFcM8VABHCTkR13PF9bS_lbM","Rahul house (Rajput ji xpo)","W4PR+V38, Kankhal, Haridwar","29.9371736","78.1402001",""
"ChIJkSsgIrNHCTkRe6Nk90yc0LU","CNG Pump - Bharat Petroleum","85, 6, Devpura, Haridwar","29.9442501","78.1513662","true"
"ChIJleDdGz9oCTkRAzhmGEv4e5Q","Hindustan Petroleum Corporation Limited","Ground Floor, Laldhang Road, Samaspur Katabarh","29.836495","78.29634399999999","true"
"ChIJq3Xm7k1ICTkRHJ80uuerPAw","Northern Fuel Station","Integrated Industrial Estate, Sector 8A, BHEL Township, Haridwar","29.950182","78.0698508","true"
"ChIJE9msCVNICTkRucseg1S9H6U","HP Petrol Pump","MA 47, Sidcul Road, BHEL Township, Haridwar","29.9499428","78.0688225",""
"ChIJU4fB7ThJCTkRYqDpjFWX5FM","IndianOil","Plot No 7, Sidcul Industrial Estate, Sector 8B, Haridwar","29.9513094","78.0696","true"
"ChIJddQo1hFJCTkRr1ZKwT-ovnE","Kusum Filling Station","Shop No. 18, 19 20, Sector 3, Integrated Industrial Estate, Sector 8A, Sidcul, Salempur Mahdood","29.95353169999999","78.0579829",""
"ChIJoSYcaOdJCTkRIWUeQgMMsrI","AR Filling Station Haridwar","opposite Sai Mandir, Denco Chowk, opposite Sai Mandir, Rawali Mahdood, Bahadarabad","29.9440924","78.05587609999999",""
"ChIJi0cnW29JCTkRXEKmqDS8EfY","Bharat Petroleum, Petrol Pump -Eesh Kripa Filling Station","Sidcul Bypass Road, Haridwar","29.9409889","78.05271130000001","true"
"ChIJRbvmEKZJCTkRg2sStEwGIdk","Hindustan Petroleum Corporation Limited","Ground Floor Bahadrabad, Sidcul Bypass Road, Salempur Mahdood","29.939725","78.05165199999999","true"
"ChIJ-e9g9aZJCTkRVKsdUyfzzns","IndianOil","Ground Floor, Adm Block, Salempur Mahdood","29.94004019999999","78.0512321","true"
"ChIJFUXEN91JCTkRZCSFe2JuR3g","Hindustan Petroleum Corporation Limited","Ground Floor, Sidcul Highway Jawalapur, 45 M Road, Salempur Mahdood","29.938645","78.050142","true"
"ChIJH4d0FA9JCTkR3PBeNQ2mc04","IndianOil","Ground Floor Salempur, Mehdood, 2, Haridwar","29.9382997","78.0489985","true"
"ChIJ3d03CgpJCTkRHlMz5oAEAjI","Bharat Petroleum","India","29.935585","78.0469449",""
"ChIJ2whqRdFJCTkRD06CELAZCDc","Tanvaliya Petrol Pump","Police Line, Aneki Hetmapur, Haridwar","29.9758775","78.0586972","true"
"ChIJw-Lj8dZJCTkRfTo2WM201kU","Hindustan Petroleum Corporation Limited","Ground Floor, near Navodaya Chowk, Salempur Mahdood","29.972649","78.048026","true"
"ChIJrUngzN5JCTkRTqaGR76y6TI","Petrol Pump local","Near Haridwar Green, Navodaya Chowk X28R+PR3 To, Road, Roshanabad, Hetampur, Haridwar","29.9667504","78.0420384",""
"ChIJNR0TYTlJCTkRHbur8gly7fg","Hindustan Petroleum Corporation Limited","Ground Floor, Dhanori Road SH 68, Dadupur Govindpur, Bahadarabad","29.924471","78.025474","true"
"ChIJjd5stXNHCTkRzehD4AGnWwY","KN Filling Station BPCL PETROL DIESEL CNG","X5HJ+RMQ, Bhoopatwala, Motichur Range","29.9795576","78.18193389999999","true"
"ChIJsQsiDQBHCTkRcmCEqb1o1vo","Haridwar cng pump","Dudadhari Chowk, Peepalwali Gali, Motichur, Haridwar","29.980423","78.183376",""
"ChIJn1nggvo5CTkRGth817vzni0","Bharat Petroleum, Petrol Pump -M.J.Fuels","HARIPUR KALAN,RISHIKESH RO, DEHRADUN","30.000278","78.189816","true"
"ChIJNQhxTek-CTkRLo6ANIVBnQ0","IndianOil","Haridwar Road, Shyampur, Rishikesh","30.0594001","78.229872","true"
"ChIJH6qSRs8_CTkRtuIWYMQdYOs","Hindustan Petroleum Corporation Limited","Khasra No 420KA, Rishikesh, Parwadoon, Khata No, 00187, Khandraiwala","30.0270723","78.2054596","true"
"ChIJZ_xDFAA_CTkRfSNnlwJYkFQ","PETROL PUMP HPCL","26C7+VV8, Raiwala","30.02217450000001","78.2146922",""
"ChIJj7qN2C4_CTkRTiYXuQ5qVCQ","Bharat Petroleum Pump","Ambala-Dehradun-Haridwar Road, Raiwala","30.0350328","78.21056709999999",""
"ChIJ-3ahglY5CTkRIi7DCDng4RE","IndianOil","Ground Floor, NH 72, Rishikesh","30.073251","78.20167099999999","true"
"ChIJraS83lA5CTkR7WSbPXDzAI0","IndianOil","Ground Floor, NH 72, Rishikesh","30.078959","78.19321599999999","true"
"ChIJd6D_pOY_CTkRfhq45qzAxGI","Hindustan Petroleum Corporation Limited","Ground Floor Dwar, opposite 213 KM Stones, Rishikesh Road, Shyampur, Rishikesh","30.0576837","78.22639989999999","true"
"ChIJIyqYCOk-CTkRLZkhNRIYWHs","Airwing Petrol Cng Pump","58, National Highway, Khairi Kalaa, Namberdar Farm, Rishikesh","30.0580381","78.2278245","true"
"ChIJifyym_g9CTkRk1H_9nynifw","IndianOil","near NDS School, Ground Floor NH 58, Haridwar, near NDS School, Road, Shyampur, Rishikesh","30.0632186","78.2394286","true"
"ChIJ94_ZHAA_CTkRn1B9QpamgbU","UMA Gas Service LPG Godown","26VW+XP5, Chopda Farm, Khadri Khadakmaf, Kharakmaf","30.0448976","78.2468669",""
"ChIJW2H--u8_CTkRJEPayzY1EWU","Hindustan Petroleum Corporation Limited","No 197/3, Khasra, Gumaniwala, Dehradun","30.07114099999999","78.2449887","true"
"ChIJLZtKXPU_CTkRFp9cLhDwbbM","Sanjeev Fuels HP Petrol Pump","36CW+C9Q Rishikesh Road Malviya Nagar, Virbhadra, Gumaniwala, Rishikesh","30.0710905","78.2459958",""