place_id,name,address,latitude,longitude,open_now
"ChIJ95_Swys3-DkRpf1ap6TqZIk","Bharat Petrol Pump","6Q9J+R4Q, Salun","23.2195851","87.7803684","true"
"ChIJ09jZZ9Qw-DkRVr2Qq2KrO4c","Hindustan Petroleum Corporation Limited","Ground Floor, SH 8, Bardhaman - Bankura Road, Khandagosh, Sasanga, Bardhaman","23.2192416","87.77329499999999","true"
"ChIJ3wuEKUo5-DkRQvAfJD6jva0","Bharat Petroleum Sabila Auto Service","5Q4G+GR8, Bardhaman","23.1562911","87.77708109999999","true"
"ChIJW-AsJQA5-DkROpTS7RTwJAA","MAA Abhaya Fuel Centre,BPCL Petrol Pump","5R9F+J3J, Gopalpur","23.1690958","87.82264169999999","true"
"ChIJsV364c03-DkRDg3baf7kbDo","Maa Abhaya Fuel Center","canel pole, Telipukur, to, Arambagh - Bardhaman Road, Gopalpur","23.1790578","87.8272877","true"
"ChIJkdLFgfQ3-DkRVtloh5yVR2M","Jio-bp","PLOT NO 240 & 241, JL NO 2, MOUZA BABROKPUR, SAGRAI, PS RAINA, DISTRICT: BURWDAN Sehera Bazar","23.180193","87.828256",""
"ChIJxw8r2a05-DkR-i66zLfanMY","Ma Durga Fuel(COCO)","4RR6+WH9, Sipta","23.1422949","87.81149889999999",""
"ChIJvQpQjI03-DkRXVDFxZx9590","IndianOil","Lock No 13010, Rtkm 120, Chakpurhit, Machkhanda, Sehara","23.188305","87.832291","true"
"ChIJXfIeVj05-DkRkzlARpWX0Kw","IndianOil","Burdwan, Khatian No 195, JL No 013 Plot No 2746, Gopalpur, Shyamsundar East","23.1512323","87.8234536","true"
"ChIJh9c6qmM5-DkRpA0EnB0BMjE","Manna Filling Station","near Tirupati Rice Mill, Unit 2, Gopalpur","23.1511864","87.8234311","true"
"ChIJbyrT2605-DkRYlQbu4YDAEU","Hindustan Petroleum Corporation Limited","Ground Floor, Burdwan Aranbag Road, SH 7, Khandaghosh - Badulia Road, Badulia","23.138905","87.81109269999999","true"
"ChIJM3Thic43-DkR9eMsXIiRCRA","IndianOil","State Highway 7, Purba, Bardhaman","23.194201","87.83752199999999","true"
"ChIJJx2wlcI3-DkRaa20zgcP4A4","Hindustan Petroleum Corporation Limited","Ground Floor, Machhkhara","23.201921","87.844031","true"
"ChIJ9TSqYwAx-DkRTlACB8LMLKE","Berugram Fuelling Station(IOCL Petrol Pump)/বেড়ুগ্রাম ফুয়েলিং স্টেশন(ইন্ডিয়ান অয়েল পেট্রোল পাম্প)","5PG5+JH, Ukhrid","23.1765651","87.7089141",""
"ChIJHzO0ChEx-DkRfgHTKw88Ax8","M.R Filling Centre (Reliance Jio BP Petrol pump)","Aradanga - Rupsa Road, Khandaghosh","23.2153721","87.7187845","true"
"ChIJz1qj9_tI-DkRV_8RWz4_hoc","IndianOil","Lock No 13005, Bamchandipur, Joteram","23.219426","87.899829","true"
"ChIJI8K3IGZH-DkR_iUlrOsuRb0","IndianOil","Lock No 13007, Rt km 146, Shyamsundar","23.110122","87.864684","true"
"ChIJRy7kUy5I-DkRxXmhvW05qsY","Bishalakshmi Petrol Pump","Rammudipally, Becharhat P","23.2164984","87.86271359999999","true"
"ChIJmQeDxIhI-DkR3iFmPZJZL88","শ্রীকৃষ্ণ বসালয়","5VRX+P7Q, Dhamas - Burdwan Road, Bamunia","23.191835","87.8982429",""
"ChIJ5-gd7TM2-DkRW2HCDKEM3H8","IndianOil","Ground Floor, NH 2, Nutanganj, Tejganj, Bardhaman","23.22906619999999","87.84115279999999","true"
"ChIJKXbKGZ1J-DkRqVwa_kB9RLo","Alisha fuel station","BUS STAND, near ALISHA, Gopalnagar Avenue, Bardhaman","23.2169829","87.8878194","true"
"ChIJyzF-GVFI-DkROr7iOnGHck0","Hindustan Petroleum Corporation Limited","Ground Floor, Gopalnagar Avenue, Bardhaman","23.2173662","87.8878489","true"
"ChIJwQjv8MpJ-DkRiK-yj2O_098","Hindustan Petroleum Corporation Limited","Ground Floor, Grand Trunk Road, Police LIne Bazar, Bardhaman","23.227571","87.872991","true"
"ChIJswvyH4E4-DkRtL55RZlJuDc","Hindustan Petroleum Corporation Limited","Burdwan, Ground Floor Sagrai Road, Shyamsundar East","23.1265175","87.8514543","true"
"ChIJ2VJYYsVJ-DkRy8t8k1wovdc","Dholdighi Petrol Pump","Grand Trunk Road, Khosbagan, Bardhaman","23.2370779","87.8664744","true"
"ChIJySUDYcVJ-DkROJpQiCiNRuA","Hindustan Petroleum Corporation Limited","97, Grand Trunk Road, Bardhaman","23.237171","87.86621099999999","true"
"ChIJLbkDrRBJ-DkRrENlpU14Toc","IndianOil","Lock No 13008, 48/1, Grand Trunk Road, Bardhaman","23.2439042","87.8685095","true"
"ChIJsUqH3M9J-DkR_6FNtzCIf7U","NARAYAN AUTO STORES - (BPCL)","BUS STAND, 66, GT, ROAD, OLD TINKONIA, opposite of SIDDHARTHA HOTEL, Bardhaman","23.2455567","87.86880470000001","true"
"ChIJ3cfgZzBP-DkRhKthVfpWAsc","Petrol Pump","6W6R+PRQ","23.2118392","87.9421158",""
"ChIJh7P7dAZG-DkRnhindarTCQA","Maa Durga Filling Station","Dhamas - Burdwan Road, Haripur","23.1687847","87.9293569","true"
"ChIJlcBAT6RJ-DkR-IYOdt61fK0","Reliance Petroleum","NH-2, VILLAGE GANGPUR, POST OFFICE JOTHRAM, DISTRICT: BURDWAN Burdwan -1 (Rev 01","23.2165079","87.9293393","true"
"ChIJL4wQXQBP-DkRWp9GLJBbd24","IndianOil","Ground Floor, NH 2, Kandorsona","23.21195","87.941841","true"
"ChIJIwff9DpP-DkR2f4N3S_Xsfs","IndianOil","near Agriculture Farm, Ground Floor, Joteram, near Agriculture Farm, Kandorsona","23.2113848","87.94449039999999","true"
"ChIJm7f3JKBP-DkR4bZHyBaraPI","Hindustan Petroleum Corporation Limited","Ground Floor, G T Road, Bardhaman","23.203381","87.974031","true"
"ChIJ1SgOgg9P-DkRiM5CT9FB_A0","Mondal Auto Mobiles","Mondal Auto mobiles, Paschim Memari","23.186543","87.9830167",""
"ChIJFYtNZwBJ-DkRXlRe1qmyUEI","Hindustan Petroleum Petrol Pump","6WR3+5R, Dangachha","23.2396693","87.90446349999999","true"
"ChIJ5-eefrxJ-DkR9FWoq0YsoNo","Hindustan Petroleum Corporation Limited","JL No 71, Plot No 181, Kalna Road, Bardhaman","23.2396129","87.9036117","true"
"ChIJ-REO1ZBP-DkRhEOuPCz6h-8","Hindustan Petroleum Corporation Limited","near 581 KM Stone, Ground Floor, Kalanabagram NH 2, Saktigarh, near 581 KM Stone, Bypass Road, Konarpara","23.1968955","87.9857978","true"
"ChIJB_5Boho2-DkRnotr4Pc4vrg","Bharat Petroleum - FRIENDS Service Station","UIT, near Burdwan, Goda, Bardhaman","23.2590977","87.84560680000001",""
"ChIJQTMQD-JJ-DkRXtsA2ha8Dks","Hindustan Petroleum - Charu Petrol Pump","Grand Trunk Road, Khagragorh, Bardhaman","23.2555264","87.85539419999999","false"
"ChIJ71qRfOFJ-DkRhIYEUFbNaAY","Hindustan Petroleum Corporation Limited","Bhangakuthi BSNL Tower, Ground, Old, Grand Trunk Road, Bardhaman","23.254501","87.857601","true"
"ChIJI2tJ83U3-DkRzwuQttrRAuU","Hindustan Petroleum Corporation Limited","Ground Floor, Block Burdwan 1, Belkash","23.2587515","87.78552529999999","true"
"ChIJQ3LdahA0-DkRgCyFxbdOWKU","Hindustan Petroleum Corporation Limited","Ground Floor, NH 2, Shyamsundarpur, Nala","23.2846853","87.7875212","true"
"ChIJD74Xg1I1-DkRYYOpoHKdTKc","Bharat Petroleum, Petrol Pump -Friends Service Station","KESHABGANJ, Bardhaman","23.2735949","87.81132099999999","true"
"ChIJ9ye1cwAz-DkRyZ1pjrBIF5g","Sahid DEF Point⛽⛽","7QVC+F6W, Belgram","23.2937257","87.7705814","true"
"ChIJ49ReJHc2-DkR6hKIIvljI5s","IndianOil","Ground Floor, near Bus Stand, Fagupur, Nababhat","23.267176","87.827652","true"
"ChIJZ-6obG02-DkRfyBqQmsKDmM","Hindustan Petroleum Corporation Limited","Ground Floor, Byepass Road, Lakhoti, Goda, Bardhaman","23.258841","87.83383099999999","true"
"ChIJrfp9agAz-DkRz1omGhPljlc","Nurtazz Xpress","8Q25+44P, National Highway 19, Sanko","23.3003371","87.75815639999999","true"
"ChIJoYXBxTVJ-DkRf1-BSuERmmA","Hindustan Petroleum Corporation Limited","Ground Floor, Grand Trunk Road, Khagragorh, Bardhaman","23.2555012","87.8551979","true"
"ChIJH5d9g-hJ-DkRCyu9KF3Z6eI","Hindustan Petroleum Corporation Limited","Ground Floor, Mehdi Bagan, Grand Trunk Road, Bardhaman","23.252331","87.864961","true"
"ChIJUWZrQ-xJ-DkRCRko5xcDtzc","IndianOil","Lock, 13012, Katwa - Bardhaman Road, Bijoyram, Bardhaman","23.2703001","87.8755001","true"
"ChIJqT36DR1J-DkRIUGJXVoRu5c","VK PETROLEUM","near Gopal Nagar, 7V59P44, Bardhaman","23.2607382","87.8651635",""
"ChIJpefKeQBJ-DkRNozd3vSt2-8","Hindustan Petroleum Corporation Limited","Ground Floor, Das Para","23.27198659999999","87.8759697","true"
"ChIJf8FHIg5K-DkR2STpWeqEW0E","Radhakrishna Filling Station","Palitpur Road, Kamnara","23.289174","87.8553328","true"
"ChIJ4dgPEwBP-DkRk0bHBJ7vFsA","Maa Sarada Service Station","7X5H+4G3, Bodhpur","23.2577704","87.978803",""
"ChIJI7cUYgBN-DkRh3YcMICnlTA","Pravat's Land","7XHR+R2J, Barshua","23.2795948","87.9900024",""
"ChIJ-yvtkfA0-DkRNY5o4UszzRg","Nayara Petrol Pump - Atithi Centre","near National Highway 2B, Haldi","23.3275205","87.80496529999999","true"
"ChIJl0cYPvQy-DkRPwi5wLN_CpM","IndianOil","Ground Floor, Ura, Galsi, Galsi","23.32243","87.72126","true"
"ChIJKZ4AC05L-DkRo0SN175StuU","IndianOil","Plot No 8290, No 2246, Mahachanda","23.3423041","87.8729541","true"
"ChIJfx7NGvhK-DkRAw_dzhFKj0k","Kshetia Petrol Pump","Ketia Railway Gate, Nabinagar, Kharjuli","23.3213251","87.8849309","true"
"ChIJ02t9mbdL-DkRpxvi_Tzghmo","IndianOil","Karjjana","23.3476105","87.8920797","true"
"ChIJuZPH0L9L-DkRkpVozwlGEbo","Petrol Pump","Amarun","23.354545","87.92268340000001",""
"ChIJe0QMozlN-DkRao78zyw-wtA","Bharat Petroleum Petrol Pump , MAA DURGA FILLING STORES","SONAPALASI, KURMUN, PS-BARDHAMAN SABARDHAMAN, Nadanghat Rd, Purbha, Bardhaman","23.3295823","87.9618222","true"