place_id,name,address,latitude,longitude,open_now
"ChIJy1s6_pCQ-DkRrnZjnsKGo0Q","IndianOil","Ground Floor, Barrackpore, Pinkal","22.8171048","88.3752075","true"
"ChIJbwIQC9uP-DkRMjYre7PDjEs","IndianOil","Delhi Road, Bhadreswar","22.8332783","88.3166705","true"
"ChIJSbIyDSuO-DkR3kG-JwDI8Es","MAA MANGALCHANDI FILLING STATION","Old, Delhi Road, Nowapara, Bagdanga","22.8517735","88.3202874","true"
"ChIJ98t87BCa-DkRS0NnC-ln3Ek","IndianOil","Lock No 411, T/T, Babanpurp, Kalyani Express Highway, Bengal","22.7870283","88.39070099999999","true"
"ChIJG0_WuqyQ-DkR80fjMlRuctY","IndianOil","Ground Floor, Jagaddal, Gurdah, Shyamnagar, Hansia","22.809161","88.401085","true"
"ChIJRV7_dVqa-DkRF4LU6jMW7f0","Hindustan Petroleum Corporation Limited","59, Ghosh Para Road, Chakraborty Para, Barrackpore","22.766571","88.369061","true"
"ChIJK6RFjVaa-DkRmVOlZLjkzaE","Bharat Petroleum, Petrol Pump -Basu&Co","14, Barrackpore","22.7620001","88.3658142","true"
"ChIJIa6IBUqX-DkRDCzuocV-fQs","Hindustan Petroleum Corporation Limited","Ground Floor, Jagatdal, Shyamnagar, Rahuta P","22.8258745","88.4060805","true"
"ChIJOXDkONSa-DkRqFDmQAirEo0","IndianOil","24 GT Road, Bahir Serampore Road","22.75809","88.32767299999999","true"
"ChIJSTl3GxKR-DkRnt--jqXx6bI","IndianOil","Ground Floor, Kundughat Road, Chandannagar","22.86833","88.373289","true"
"ChIJ6ysyY3mP-DkRyvmhrshcuk4","IndianOil","Ground Floor Deshapara, Singur, Antisara","22.809595","88.280304","true"
"ChIJqcHX9BKR-DkRE4KmSECw2p4","Hindustan Petroleum Corporation Limited","Ground Floor, Grand Trunk Road, Chandannagar","22.8705601","88.3739501","true"
"ChIJ2XfqYSib-DkRTU6HC1-hgTM","Hindustan Petroleum Corporation Limited","Ground Floor, Grand Trunk Road, Serampore, Chinsurah","22.7513301","88.3325701","true"
"ChIJpUXrfhqb-DkR4u54-5WqZx0","Hindustan Petroleum Corporation Limited","Ground Floor, Grand Trunk Road, Mahesh, Serampore","22.7427901","88.350501","true"
"ChIJfxhHepCQ-DkROA6vvt0SOhY","Bharat Petroleum, Petrol Pump -Balaji Energy Station","NOAPARA,GARULIA,N24PARGANA, NORTH 24 PARGANAS","22.8148219","88.374517","true"
"ChIJ26y4pC-P-DkR4VXJ0o24jFo","SASHADHAR FILLING STATION(INDIAN OIL)","Bighati","22.8131852","88.31465109999999","true"
"ChIJNTyiME2F-DkRSut3EcFLe5A","Chowmatha Petrol Pump","Q8QF+58G, Grand Trunk Road, Baidyabati","22.7879398","88.3233425","true"
"ChIJWy804VWQ-DkRyOoCCOyF1oI","Hindustan Petroleum Corporation Limited","Ground Floor, Grand Trunk Road, Mankundu, Chandannagar","22.8441001","88.3618901","true"
"ChIJBXhI-eqQ-DkRiDg4UxoWJpk","Lala Service Station","20, Ghosh Para Road, Noapara, Shyamnagar, Kolkata","22.828738","88.3800181",""
"ChIJv1KJYlWQ-DkRrBcQBLRwaaA","পাঞ্জাব ন্যাশনাল ব্যাংক","India","22.8459812","88.362179",""
"ChIJrWT9NlmF-DkRMK8RKlPSPkU","EDS বাচ্চার বাজ","India","22.7973988","88.309806",""
"ChIJBfgXCmmP-DkREnpR13vDSXc","Hindustan Petroleum Corporation Limited","Ground Floor, Old, Delhi Road, Garji More, Mankundu, Chandannagar","22.8430765","88.3193614","true"
"ChIJp9_3Tymb-DkRMceCjTNlOog","Dev SOLUTION","189, Bhim Rao Ambedkar, Sreepally, North Barrackpur","22.7847144","88.3760113",""
"ChIJC3BkAUuF-DkRuOpH3sHYtts","Hindustan Petroleum Corporation Limited","Ground Floor, Grand Trunk Road, Sheoraphuli, Chinsurah","22.781201","88.321801","true"
"ChIJw7PQc2ub-DkR-xYESb38GJM","Bharat Petroleum, Petrol Pump -Mishra Bros","Market, Grand Trunk Road, Sheoraphuli, Ghosha","22.7791305","88.3235523","true"
"ChIJqcfyV8qa-DkR5nX-EkgPlpQ","মুথূট ফিনকর্প","Q8GG+7HM, Sheoraphuli","22.775716","88.32643329999999",""
"ChIJPYdIXOeQ-DkRQ9GDfah3QpA","Authpur Petrol Pump","West Ghosh Para Rd, State Highway 1, Authpur, Shyamnagar, Bhatpara","22.8428244","88.3817819","true"
"ChIJAYSBHuuR-DkR1zp3qWtP6Ts","NRL PUMP","Hansia","22.8053364","88.39892569999999",""
"ChIJ2evtlxSb-DkR4HXgsH2p_J8","Little Flower Shop","49 Lakri Mahal Orderly Bazar, Area, Barrackpore","22.7665851","88.3635125","true"
"ChIJEVgrErWR-DkRoCYoe5xV2Vo","Omni Agency Pvt Ltd IOCL","Hansia","22.8092164","88.4010598","true"
"ChIJO4qL2beF-DkRMHf62c644Xk","SAHA SERVICE STATION","870/D Pearapore, Delhi Road, Sheoraphuli","22.7732874","88.3127514","true"
"ChIJJzYmPACR-DkRIxhUOoA7r_4","Chandannagar Auto house","V968+9PM, Bagbazar, Sukhsanatantala, Chandannagar","22.8610133","88.3669273",""
"ChIJR2NAqwiR-DkRNffr9vQvXCg","Hindustan Petroleum Corporation Limited","Ground Floor, Grand Trunk Road, Chandannagar","22.86204009999999","88.36774009999999","true"
"ChIJ4Rbo3WiP-DkRY2VXoXEy66I","Hindustan Petroleum Corporation Limited","Ground Floor, SH 13, Old, Delhi Road, Hooghly","22.861717","88.32346799999999","true"
"ChIJ8_1YyEuX-DkReKftdCf4AtM","Bharat Petroleum, Petrol Pump -Poddar Filling Station","RCF3+CXX, Shyamnagar, BASUDEVPUR","22.822944","88.4055666","true"
"ChIJzzNBHVSa-DkRFrLjZfzsmnE","Hindustan Petroleum Corporation Limited","Ground, Chiriakhana, Barrackpore","22.760611","88.367031","true"
"ChIJEWjHBS-F-DkRRuiM0nPTgSg","IndianOil","No 869/B, A/1, Pearapur Road, Shrirampur, Antisara","22.7637888","88.3160623","true"
"ChIJw1l8ajeX-DkRF8XQCXVIqsQ","Reliance Pump","RCJ6+84J, Kolkata, Gurdah, Shyamnagar","22.8308403","88.4102631","true"
"ChIJL4zOSuyb-DkRQEmB3W3FlnM","Reliance Petroleum","1313 & 1310, Barackpore Kalyani Hwy, 17, Ucchagarh, Bidyadharpur, Jagatdal, Kolkata","22.830912","88.4102468","true"
"ChIJM-wTmMqa-DkRlhUv1iKS-3Q","Mishra Brothers","138, Grand Trunk Road, Ghosh Para, Sheoraphuli, Dakshin Rajyadharpur","22.7517787","88.3313945","true"
"ChIJX4kTXl2X-DkRKwce_Wv6HYo","Ganesh enterprises","Ganesh Cyber, Jagatdal, Bhatpara","22.8462303","88.405191",""
"ChIJE-_zpCmb-DkR71SdjeEsWxM","Bharat Petroleum, Petrol Pump -B.Dey (I)Pvt. Ltd","Grand Trunk Road, Serampore","22.751669","88.330398","true"
"ChIJbydohRKb-DkRZik8zjg52og","Madhabi Vandar","Harikati, Talpukur, Titagarh","22.7518466","88.3748935",""
"ChIJO12IBgCb-DkRcPR5ihdRerM","Petrol Pump","2, Shitalatala Road, Titagarh, Kolkata","22.7501043","88.37220649999999",""
"ChIJicuP9k2b-DkRPFdphTRtbH4","Bharat Petroleum, Petrol Pump -Haricharan S/Stn","1,BARRACKPORE, Talpukur, Titagarh, N24","22.7498906","88.3716675","true"
"ChIJ1S5y312P-DkRL2mCLSyxrTk","Hindustan Petroleum Corporation Limited","Ground Floor, Desha Para, Diara, Hooghly","22.8110154","88.2730924","true"
"ChIJW5J0pimF-DkRMbSLLOha7KM","Banik Filling Station","S, NH2 Byepass, Delhi Road, Serampore, Dakshin Rajyadharpur","22.7501118","88.31833619999999","true"
"ChIJFwIfKtGR-DkR4lY1WLrauyI","Rohit Petrol Supplier","East Ghoshpara Road, Kankinara, Bhatpara","22.8653717","88.3981274",""
"ChIJx2pwwc6R-DkRZpKHgYNAY3w","BPCL Petrol Pump","Shop Number 1, Ghoshpara Road, Bhatpara","22.865761","88.39888549999999",""
"ChIJCebjlOSW-DkRsYSJV1spLAE","Hindustan Petroleum Corporation Limited","No 200, Barrackpore - Kalyani Expressway, Bhatpara","22.857951","88.42938099999999","true"
"ChIJQ-96IwCX-DkRYMJ157hjIDA","SWASTIKA ENERGY HUB (HP PETROL PUMP)","VC2G+CWG, Bhatpara","22.8510687","88.4273189",""
"ChIJL6oxOv2Z-DkRMhuHVaYicKI","Bharat Petroleum Petrol Pump , SINGH SERVICE STATION","VILL & PO BERABERIAPS, Amdanga","22.7677","88.445","true"
"ChIJqVNLasWX-DkRp8BplMcPc2Y","IndianOil","Ground Floor, Bhatpara, Madrail","22.8663682","88.43158729999999","true"
"ChIJ4d8wR6yR-DkRb3BwYqdOnLc","BHARAT FUEL","H/N 31, East Ghoshpara Road, Kankinara, Bhatpara","22.8664446","88.4002507",""
"ChIJo7yguCSR-DkRikKqEijPE9Y","Hindustan Fuel","Line 11, East Ghoshpara Road, Kankinara, Jagatdal, Bhatpara","22.8665832","88.40059989999999",""
"ChIJkwhppMyW-DkRwKUE8DFsFBY","Hindustan Petroleum Corporation Limited","7, East Ghoshpara Road, Kankinara, Bhatpara","22.8677346","88.40239","true"
"ChIJvT4qjmRnAjoRykAFNjmXI2c","Jio-bp","DAG NO 648, 649, 651, JL NO 2, SH-1, VILLAGE RAJARHAT, MOUZA AYODHYANAGAR PS US Amtala II","22.871502","88.40532499999999","true"
"ChIJXUV00v-Y-DkR0cVWIH1J4PQ","IndianOil","Ground Floor, Barasat Kokapur, Nilgunge, Beraberia","22.752792","88.44089799999999","true"
"ChIJ0zycRwCZ-DkRYwfFuH0Pu64","Kokapur Petrol Pump","QC3R+299, Kokapur","22.7525375","88.44098439999999",""
"ChIJLY2wq2iZ-DkRm7pTifTrtTU","Bharat Petroleum Petrol Pump , AZAD SERVICE STATION","VILL : KOKAPURBARASAT, Barrackpore - Barasat Road","22.7510697","88.4434943","true"
"ChIJUXeJYya9-DkR5Jl4Jlz-AU4","IndianOil","Ground Floor NH 34, Arkali Amdanga, Adhata","22.817762","88.513831","true"
"ChIJZfuHzxu9-DkRvvwtKZXsTCY","Hindustan Petroleum Corporation Limited","JL No 56, Ashoknagar, Talsa","22.804974","88.539255","true"
"ChIJyUMVK1a9-DkRVK_YF6lK96c","Hindustan Petroleum Corporation Limited","Ground Floor, NH 34, Amdanga, Hisabi","22.8505067","88.5271061","true"
"ChIJbVK7TYii-DkRn8jxLIZBdcI","IndianOil","Ground Floor, NH 34, Barasat, Khilkapur","22.757762","88.491137","true"
"ChIJb5u9F7K9-DkRq7bUEsP7xqQ","Shikra BHARAT Petrol Pump","Shikra, R.O.P, Fulkalmi Road, Sikra","22.86459259999999","88.51369749999999",""
"ChIJg8_hB2eR-DkR8VJ9K52i25k","Bharat Petroleum Fuel Station (Bansi Service Station)","Grand Trunk Road, Chinsurah R S, Chinsurah","22.8888218","88.38037609999999","true"
"ChIJf46cOR2S-DkRKZZok2Qil28","BABA PANCHANAN SERVICE STATION","Kamdebpur","22.8989471","88.3343354","true"
"ChIJ2bos4kSS-DkRMh1k-Kn9ISA","IndianOil","Plot No 2423 Polba, Junction, Rajhat, Bandel","22.931036","88.350494","true"
"ChIJccts21KR-DkR2BR8owWcFyU","Hindustan Petroleum Corporation Limited","Ground Floor, Chinsurah R S, Chinsurah","22.8883401","88.4007401","true"
"ChIJ7QRdO-uT-DkRHIPhI1ko890","Bharat petroleum Petrol Pump","State Highway 6, Keota, Bandel","22.9204841","88.3851358","true"
"ChIJ22pu_wCR-DkR3dqHZWEELtc","IndianOil","Monarchy highway servicveErenga, Delhi Road, Khalsani, Jarura","22.891487","88.33019300000001","true"
"ChIJhbfkBeCT-DkRM2m-civHLdg","IndianOil","Ground Floor, Rabindranagar Bazar, Debi Das Tala, Grand Trunk Road, Chinsurah R S, Chinsurah","22.8982786","88.38258379999999","true"
"ChIJ74H3A5iN-DkRKgT8uFeoQt4","IndianOil","Ground Floor Alinagar, Polba, Kaswara, Kamdebpur","22.91384","88.3048001","true"
"ChIJr6acMhKT-DkRv59e2JKr1Ts","MULLICK AUTO SERVICE","More, Grand Trunk Road, Bandel","22.9190297","88.38500979999999","true"
"ChIJh09WwVKR-DkRn4eeWB55msI","BP Petrol Pump","VCQ2+FFC, Chinsurah R S, Chinsurah","22.8886998","88.40114729999999","true"
"ChIJd5O4KgCX-DkRK7iICkLBkZg","Toilet","VCW3+JJP, River Side Main Road, Chinsurah R S, Chinsurah","22.8965806","88.40409129999999",""
"ChIJYSz5TFeS-DkRD33fnxadiZs","Arabinda Automobile","Delhi - Kolkata Highway, SH 13, Delhi Road, Rajhat, Bandel","22.9403788","88.35460810000001","true"
"ChIJ9ecjZCyT-DkR2IX05l1UMtE","Hindustan Petroleum Corporation Limited","Ground Floor GT Road, Keota, Sahaganj, Kalibari, Chinsurah","22.9314996","88.3875636","true"
"ChIJuYVE9x6P-DkRX9sLpfSVYd0","Souvik Oil And fuel","R7V9, GQF","22.8680591","88.27921610000001",""
"ChIJlVJcSZqT-DkRPeqWRQ-h0no","M/S. Shreema Fuel Station","W9PQ+CCC, Grand Trunk Road, Sahaganj","22.9360645","88.3885012",""
"ChIJwSbRA-2V-DkR1U55uXPXnxM","Irfan General Store","14, Ishaque Sardar Road, Kolkata","22.9096857","88.4124044","false"
"ChIJe4s6OKKW-DkRBeVDCXVDleI","Bharat Petroleum, Naihati Filling Station","Rishi Bankim Chandra Road, Naihati","22.8909883","88.4193119","true"
"ChIJX_PZAKCT-DkRQVmnACZKg78","Hindustan Petroleum Corporation Limited","Ground Floor, Grand Trunk Road, Bansberia, Chinsurah","22.945111","88.381821","true"
"ChIJIyuubsaV-DkR6JstQ2NT5hk","Hindustan Petroleum Corporation Limited","P.o & Vill:, Chandua Road, Ps, Jetia","22.9172343","88.4517079","true"
"ChIJTzPB7_6U-DkRRPxtYndv134","Bharat Petroleum, Petrol Pump -Alpana Service Station","Kanchrapara M","22.949777","88.4373085","true"
"ChIJu5k_4SGX-DkRkkgyHJY5VZU","Nigam Go Gas","VCPM+4JM, 743165, Naihati - Habra Road, Kultala, Naihati, Kolkata","22.885348","88.434043",""
"ChIJTWwBoIiX-DkRpQfaGCL_XlY","SUDHA NARAYAN SERVICE STATION","VCWP+79V, Naihati","22.8957454","88.4359251","true"
"ChIJS1rthbOX-DkREES02Dq_RK8","IndianOil","Ground Floor Mamudpur, Naihati, Bora","22.8824196","88.4458104","true"
"ChIJy8KS4g6X-DkRBdictL17pho","M/S DIAMOND K S K","73 Habra Road, ROAD, Adhata","22.8821261","88.4458014",""
"ChIJfcEbRC-X-DkRpOtHnSfqG3w","BHARAT PETROLEUM DEVOKE","ON 73 BUS ROUTE , NAIHATI, TO, HABRA ROUTE, Mamudpur","22.8822789","88.45045999999999","true"
"ChIJ6zAIlG6W-DkRECzD2o5ZwLE","পূজা ভ্যারাইটিসাটাল","India","22.8823905","88.4539698",""
"ChIJs8zaK7uV-DkRQtxs1M99VSc","Vinay Store","Halisahar, Kolkata","22.9235055","88.4135763",""
"ChIJgf9PUACV-DkRe3DhrbvrRPY","Petrol shop","WCHF+QXV, Halisahar, Kanchrapara","22.9294867","88.4249078","true"
"ChIJLb2NH8eV-DkRzTMdqD1d4Mo","IndianOil","Ground Floor, Bijpur Chendua, Barajonepur, Kanchrapara","22.919486","88.453637","true"
"ChIJXdByBwCV-DkRxNnFumBau_A","Army Petrol Pump","WFCC+J69, Dadiwala","22.9214458","88.47022559999999",""
"ChIJO8UiigeV-DkREX7z_h9gGas","Hindustan Petroleum Corporation Limited","Ground Floor, Lenin Sarani, Kanchrapara","22.946101","88.448601","true"
"ChIJaerMb_OU-DkRc1NjCiHabkQ","Shree Lauxmi Narayan Auto Service Station (Bharat Petroleum)","beside Baghmore Bharat Petrol Pump, Halisahar, Kanchrapara","22.9526254","88.4227672","true"
"ChIJJ2lZr4iV-DkRqTPU8ZtMzqY","PAL AUTO MOBILES","near Gandhi More, Gandhimor, Kanchrapara","22.9466133","88.4487608",""
"ChIJyfcH-Di--DkRHpAipWPnye4","IndianOil","Ground Floor, Dharampur, Majhipara Bi Dharampur, Barajonepur, Kanchrapara","22.930518","88.49312800000001","true"
"ChIJ4V_mPSe--DkRpvDarrbaATs","IndianOil","Ground Floor, Saradapally, Kampa, Bijpur","22.93028300000001","88.480842","true"
"ChIJEaM7qyW_-DkRGmvjvh9f6ek","IndianOil","Ground Floor, Masunda, Suria, Gadamara Bazar, Paschim, Dhania","22.9028014","88.5354352","true"
"ChIJF_qEYjqT-DkR24cjS1Ver-k","Hindustan Petroleum Corporation Limited","Ground Floor, Grand Trunk Road, Kantapukur, Mogra, Chinsurah","22.9825646","88.37397279999999","true"
"ChIJIZwRhxeN-DkRip9OcQje6qU","Hindustan Petroleum Corporation Limited","Ground Floor, Polba","22.965571","88.295431","true"
"ChIJO6u0OwCT-DkR8vZYeQ9rXHI","Bengal Gas Company Limited Mother station and CNG pump","X948+W7V, Adisaptagram, Jhanpa","22.9567571","88.36511349999999",""
"ChIJmxPdhRiT-DkRyOmx75zuYXY","Hindustan Petroleum Corporation Limited","Ground Floor, Grand Trunk Road, Mogra, Chinsurah","22.9684801","88.36970099999999","true"
"ChIJayEqiSKT-DkRzHSd43Nb5y4","East India Service Station","State Highway 13, West Shek Para, Mogra, Alikhoja","22.9705449","88.37049119999999","true"
"ChIJJ6ndzhuT-DkRT4Fv9gLv6NA","Bharat Petroleum, Petrol Pump -Mangal S/S","Grand Trunk Road, Mogra, Chinsurah","22.9814072","88.3737804","true"
"ChIJ3YzgsDGT-DkRdiqQ_WK5Ffw","Hindustan Petroleum Corporation Limited","Ground Floor, Grand Trunk Road, Mogra, Chinsurah","22.984541","88.37409099999999","true"
"ChIJS84wd3GT-DkRxAJuaIJynqA","Mangal service station Petrol pump","Boropukur Area, Mogra, Amodghata","22.9856915","88.3731018","true"
"ChIJBQ-sy2mT-DkRP0Hlsn6L8c0","IndianOil","Lock No 526, Bansberia Dingalhat, Boropara, More, Bansberia, Bazar","22.967867","88.38944099999999","true"
"ChIJ_TTNdNTs-DkR-HvVdDMdq5w","IndianOil","Ground Floor Hansghara, Mogra, Akna","22.9974217","88.36738","true"
"ChIJc_A4Na-T-DkRMAcKD4dK23k","Tea Shop","Samudraghar, 20, State Highway 6, Purba, Bardhaman","22.9925188","88.39182459999999",""
"ChIJKbRcsU6T-DkR6wix6izbFyA","Hindustan Petroleum Corporation Limited","Ground Floor, State Highway 6, Tribeni, Chinsurah","22.9967853","88.3950055","true"
"ChIJkyJGzYjt-DkRR8F_Xsuu5jM","Anand Growcery Shop","ITC Compound Road, Benipur, Chandrahati","23.0041617","88.4014524",""
"ChIJMQQWweiU-DkR4rCCqwQDB3M","IndianOil","Ground Floor Nadia, Bidhan Park, Kalyani","22.9649001","88.4292001","true"
"ChIJPQtGDd2U-DkRcOtKIsicv_I","Bharat Petroleum cng","B 13, Block B, State Highway 1, Kalyani","22.9712106","88.4325334","true"
"ChIJacXiNA6V-DkRna4ZTQ3juXw","IndianOil","Ground Floor, near Bidhan Park, Barrackpore - Kalyani Expressway, Kalyani","22.95639199999999","88.452917","true"
"ChIJq6qqOlnr-DkRrQk9_0ifbjQ","Bharat Petroleum, Petrol Pump -Universal Fuel Station","Madhusudanpur, Chandrahati, Raghunathpur","23.0070118","88.4025058","true"
"ChIJw0ynM8OV-DkRCq_IHozkNvk","Bharat Petroleum, Petrol Pump -Geeta Fuel Point","Block B, Kanchrapara","22.9638394","88.42530730000001","true"
"ChIJDTMMYwCV-DkRwhDOeupmoAU","Kalyani Bharat Petroleum petrol pump","Central park, Near, Kalyani","22.9711875","88.4324741",""
"ChIJ3ZAa91yV-DkRwAXuOucfhKQ","BHAKTA ENTERPRISES","Dakshin, Chandmari, Kalyani","22.9886733","88.4632568",""
"ChIJm0Cda0Tr-DkRAAAA0NVQTD8","Singh Mobile","Kuntighat - Magra Road, Raghunathpur","23.0110424","88.41039789999999",""
"ChIJc9xgfOm_-DkR5mAPvRtF1zw","IndianOil","Ground Floor Raghunathpur, Madanpur - Kalyani Bypass Road, Alaipur","22.973956","88.493292","true"
"ChIJUTWFtpe_-DkRsr09jcKU2Bs","IndianOil","Ground Floor, Raghunathpur, Soguna,Bidhanpark, Kalyani","22.9721001","88.50600100000001","true"
"ChIJUfBUBji_-DkRFkLB5dQDSkk","Hindustan Petroleum Corporation Limited","Ground Floor, Vill, Muragacha PO:, Simhat","22.970601","88.546201","true"
"ChIJrYOMIKLA-DkRE5QD5F5_7HY","IndianOil","Shitalatala","23.0005343","88.5385751","true"
"ChIJWeo4WoW_-DkRuUhMmiOxw2I","IndianOil","Gate No 7, Ground Floor, River Research Instn, Near AIIMS Hospital, Haringhata","22.967182","88.535675","true"
"ChIJgXxwYdi--DkRB0BEcGO5G3c","Jaguli Bharat Petroleum Pump","Barajaguli","22.9457532","88.544797","true"
"ChIJPT8UBVq_-DkRnnRy1oc74j0","IndianOil","Ground Floor, NH 34 Narayanpur, Birohi, Haringhata","22.9876807","88.54647039999999","true"