place_id,name,address,latitude,longitude,open_now
"ChIJLbUZ-3CD-DkRz8KAhwvLMTU","Hindustan Petroleum Corporation Limited","Ground Floor, NH 2, Durgapur Expressway, Dankuni","22.6917689","88.291815","true"
"ChIJtbITcheD-DkRFuAxll9NO5I","Hindustan Petroleum Corporation Limited","Ground Floor, NH 2, Durgapur Expressway, Dankuni","22.6716987","88.30133699999999","true"
"ChIJ-QgodkmE-DkRTGSkgnEcEL0","Hindustan Petroleum Corporation Limited","Ground Floor, NH 2, Durgapur Expressway, Joykrishnapur","22.7466101","88.2680201","true"
"ChIJoRCWUPqD-DkR_tEII-QoCC4","IndianOil","Ground Floor Kalachara, Mahesh 1, Serampore, Chanditala","22.6972001","88.2539001","true"
"ChIJ2XfqYSib-DkRTU6HC1-hgTM","Hindustan Petroleum Corporation Limited","Ground Floor, Grand Trunk Road, Serampore, Chinsurah","22.7513301","88.3325701","true"
"ChIJOXDkONSa-DkRqFDmQAirEo0","IndianOil","24 GT Road, Bahir Serampore Road","22.75809","88.32767299999999","true"
"ChIJ6zra8xCb-DkRMGOaNcyH-u4","Bharat Petroleum -Mukherjee Service Station","224/A, Grand Trunk Road, Mahesh Masirbari, Serampore","22.74081109999999","88.3504966","true"
"ChIJpUXrfhqb-DkR4u54-5WqZx0","Hindustan Petroleum Corporation Limited","Ground Floor, Grand Trunk Road, Mahesh, Serampore","22.7427901","88.350501","true"
"ChIJh_fQIY-c-DkR798F4iOHhDg","Bharat Petroleum Dharsa Petrol Pump","Hindmotor, Konnagar","22.6922277","88.3566973","true"
"ChIJnz7OGd2C-DkRecHl-0VY5t4","IndianOil","Ground Floor, NH 6, Jaipurbill, Liluah, Anandanagar","22.648166","88.3060982","true"
"ChIJd6RrqMSF-DkREaeeUvo0oJw","IndianOil","Ground Floor, Singur Durgapur Expressway, NH 2, Borai, Bara Kamalapur","22.770962","88.256315","true"
"ChIJZ5b3OwCF-DkRxjAiLUGkpwc","Bharat Petroleum - Sanjay Energy Station","P872+2V6, Bhadua","22.7125348","88.30215299999999","true"
"ChIJ60yzbACF-DkRc3Wx-t2z8kY","Petrol Pump","P862+7MQ, Delhi Road, Rishra, Simla","22.7107091","88.30174029999999",""
"ChIJQSk_NgCF-DkRwUzmANQe1kk","Bharst Petrolium","P872+4XM, Delhi Road, Mollaber Village, Bhadua","22.712503","88.302441",""
"ChIJ8zcA352E-DkRyiuRLmYFnW0","Hindustan Petroleum Corporation Limited","Ground Floor, Primary School, near Bhadua, Delhi Road, Mollaber Village, Hooghly","22.70804009999999","88.2995301","true"
"ChIJm0rBWACF-DkRp06SgWVv9uI","Bharat Petroleum","P852+FCQ, Chakundi, Konnagar, Satghara","22.708628","88.30098",""
"ChIJ52lvHgCF-DkRK962eWOaMOw","DEF FLUID","SH 2, Mamunali, Konnagar, Bamunari","22.7147681","88.3037566",""
"ChIJCWt_VbyE-DkRvm8jVJMEguo","IndianOil","Ground Floor, Delhi Road, Bamunari, Dankuni","22.721394","88.30688099999999","true"
"ChIJBeziJgCF-DkR8r5Sn3ZZTIU","TATA GENUINE DEF STATION","toll plaza, Durgapur Expressway, Gobra, Dankuni","22.7062724","88.2851508","true"
"ChIJH4zFgkKF-DkRHigPbfhszfs","EXCEL HIGHWAY SERVICE","P8C4+JXP, State Highway 2, Mollaber Village, Bamunari","22.72159749999999","88.3074441",""
"ChIJr8FnoWWD-DkRyJeyyqnu2_0","IndianOil","Ground Floor, Delhi Road, Chakundi, Pardankuni","22.69591","88.297234","true"
"ChIJzfwCJf2D-DkRpxCqe6-jxtY","Morcha Pump Dankuni","M7RR+RM5, Monoharpur, Gobra, Dankuni","22.6920014","88.29174359999999",""
"ChIJA46DOQCD-DkR6h86NB5B5cc","Dankuni fill-ni centre","NH19, Monoharpur, Gobra, Dankuni","22.6920768","88.2910141","true"
"ChIJ298jfnGD-DkR9AA-8KZ5ows","Dankuni Fill In Centre","Ground Floor, NH 2, Durgapur Expressway, Dankuni","22.6919546","88.29131919999999","true"
"ChIJU6OzLgCD-DkRJ5CZJN5I0T4","TATA. AD BLUE DEF (URIA)","M8P3+HF3, Housing Estate Colony, Dankuni","22.6863056","88.30391519999999",""
"ChIJTYriPkqF-DkRGoO-VSITJsM","Krishna Bhavan","Unnamed Road, Chikrand","22.71601060000001","88.2615125",""
"ChIJr2RAcZKd-DkROpd4rjpQUrs","Arush Service Centre","83, Naity Road, Chakraborty Nagar, Hooghly","22.7021251","88.33039289999999",""
"ChIJA0PG5BSD-DkRKsMSkb1WcBA","IndianOil","Ground Floor, Delhi Road, Dankuni","22.680571","88.3018201","true"
"ChIJOa3MopeD-DkRAPmpa1ZBUwU","IndianOil","Ground Floor Ahalyabai Road, Kalipur, Garalgacha","22.684361","88.27402599999999","true"
"ChIJUVFkRJOD-DkRHIsMah0hiqM","Chandimata Auto Service","M7Q8+HHP, Kalipur Garal Gacha Chanditala Near Auto Palace, Station Pally, Dankuni,Hooghly","22.688964","88.266448","true"
"ChIJDWIntCGD-DkR6vTtjdR5K98","Akash filling station","M7GW+7HW, Dankuni","22.6757457","88.296463","true"
"ChIJbWqhF4yD-DkROXy8X9CXTA8","IndianOil","Ground Floor, SH 15, Chanditala","22.6945316","88.25872489999999","true"
"ChIJzRS4FwCF-DkRcXwrjVhx_14","TATA DEF STATION ⛽ টাটা ডেপ এসটেসন","P7V9+XJ2, Joykrishnapur","22.7448816","88.2690284",""
"ChIJLbgllhOb-DkRXE2_OCK6L8E","Arabinda Fuels","Ghoramara Road, Serampore","22.736091","88.33349969999999","true"
"ChIJWRuiGgCb-DkR_9nXzRsNFok","Indian Oil","D18, Nayabasti, Natun Gram, Rishra, Chinsurah","22.735993","88.3335935",""
"ChIJW5J0pimF-DkRMbSLLOha7KM","Banik Filling Station","S, NH2 Byepass, Delhi Road, Serampore, Dakshin Rajyadharpur","22.7501118","88.31833619999999","true"
"ChIJ-1YkSwCF-DkRtuFg43aem3k","DEF W.B AD BIUE","P7W9+V7V, Durgapur Expressway, Bhastara","22.7472495","88.2681691",""
"ChIJUeO1JNaD-DkRp0_VBgehIYg","PRADIP","Belanagar, Howrah","22.6696704","88.3066953",""
"ChIJE-_zpCmb-DkR71SdjeEsWxM","Bharat Petroleum, Petrol Pump -B.Dey (I)Pvt. Ltd","Grand Trunk Road, Serampore","22.751669","88.330398","true"
"ChIJM-wTmMqa-DkRlhUv1iKS-3Q","Mishra Brothers","138, Grand Trunk Road, Ghosh Para, Sheoraphuli, Dakshin Rajyadharpur","22.7517787","88.3313945","true"
"ChIJEWjHBS-F-DkRRuiM0nPTgSg","IndianOil","No 869/B, A/1, Pearapur Road, Shrirampur, Antisara","22.7637888","88.3160623","true"
"ChIJK8ikHe2b-DkRB8g7fwN-mxQ","Reliance Petroleum","No 100, 13, Grand Trunk Road, Bagkhal, Rishra, Hooghly","22.7157401","88.3547901","true"
"ChIJl9YweayD-DkRZunjsQvCZeM","G.S. Engineering","M76J+P27, Bhaighachi, Jagadishpur, Howrah","22.6617972","88.2800338",""
"ChIJQROPCgCD-DkRGdfrsfm-Q3c","Annapurna Service Station","Baigachi, Jagadishpur, Howrah","22.6621614","88.2786417","true"
"ChIJU0si9qyD-DkRn0H0-nl_qgA","IndianOil","Ground Floor Baigachi, Jagadishpur, Howrah","22.6613395","88.2785787","true"
"ChIJiVQJPvyb-DkR4NGyWXB1j14","IndianOil","12 GT Road, Indira Gandhi Road, Hatirkul, Konnagar, Kolkata","22.7094017","88.3562967","true"
"ChIJXxg4ydqc-DkRnJHg85yc7nw","Hindustan Petroleum Corporation Limited","Ground Floor, near Birla More, Makhla","22.6700978","88.33516089999999","true"
"ChIJ-dSlzrKG-DkRFf6iTLaWHDI","IndianOil","Ground Floor, Ahilyabai Holkar Road, Chanditala","22.705954","88.234901","true"
"ChIJrei-pNiH-DkR6BrvyvaQaD8","Bharat Petroleum Petrol Pump , APNA GHAR","KOTULPUR-ARAMBAG ROADOLD, Benaras Road","22.7063","88.2325","true"
"ChIJO4qL2beF-DkRMHf62c644Xk","SAHA SERVICE STATION","870/D Pearapore, Delhi Road, Sheoraphuli","22.7732874","88.3127514","true"
"ChIJvbi6_u2c-DkR74fTIGQHVEg","Hindustan Petroleum Corporation Limited","Ground Floor, near Bhadrakali High School, ST Road, Bhadrakali, Hooghly","22.677401","88.352901","true"
"ChIJp76Kz3-H-DkR8xKZLUPyE24","Hindustan Petroleum Corporation Limited","Ground Floor, SH 15, Janai","22.7112293","88.2277948","true"
"ChIJsbYMjoad-DkRHzqSOzQfpis","IndianOil","Ground Floor, NH 2, Bypass Delhi Road, Bally, Howrah","22.653051","88.32951399999999","true"
"ChIJqcfyV8qa-DkR5nX-EkgPlpQ","মুথূট ফিনকর্প","Q8GG+7HM, Sheoraphuli","22.775716","88.32643329999999",""
"ChIJMUo9VvGH-DkRTC5iHWc-uZ8","Hindustan Petroleum Corporation Limited","Ground Floor, SH 15, Baksha","22.7155647","88.22248139999999","true"
"ChIJRW00kmed-DkRZZwWaNGzGTs","Shyamol petrol shop","M82H+52F, Nischind, Madhyapara, Bally, Howrah","22.6504328","88.32754039999999","true"
"ChIJw7PQc2ub-DkR-xYESb38GJM","Bharat Petroleum, Petrol Pump -Mishra Bros","Market, Grand Trunk Road, Sheoraphuli, Ghosha","22.7791305","88.3235523","true"
"ChIJn3DSVVyb-DkROGSMhAoqTA4","Hindustan Petroleum Corporation Limited","Ground Floor, Barrackpore Trunk Road, Sukchar, Khardaha","22.7099901","88.3737101","true"
"ChIJC3BkAUuF-DkRuOpH3sHYtts","Hindustan Petroleum Corporation Limited","Ground Floor, Grand Trunk Road, Sheoraphuli, Chinsurah","22.781201","88.321801","true"
"ChIJ51HPIL2b-DkRu8J0A2qCWdA","IndianOil","161, Barrackpore Trunk Road, Titagarh, Bishalakshi Ghat","22.733631","88.37350599999999","true"
"ChIJL5nO5l6Z-DkRmdnFITzqNBU","IndianOil","Ground Floor, Doperia Village, Khardaha","22.726468","88.404442","true"
"ChIJlSCkOk-c-DkRCCgfZzkPgVI","IndianOil","M98H+RV8, 30/2, Barrackpore Trunk Road, Kamarhati, Belghoria, Kolkata","22.6691306","88.37667859999999","true"
"ChIJK6RFjVaa-DkRmVOlZLjkzaE","Bharat Petroleum, Petrol Pump -Basu&Co","14, Barrackpore","22.7620001","88.3658142","true"
"ChIJp_xFd0yc-DkR98uhguhtggM","Hindustan Petroleum Corporation Limited","16, BT Road, Belghoria, Kolkata","22.663171","88.377101","true"
"ChIJRV7_dVqa-DkRF4LU6jMW7f0","Hindustan Petroleum Corporation Limited","59, Ghosh Para Road, Chakraborty Para, Barrackpore","22.766571","88.369061","true"
"ChIJ3cgDUrGd-DkR43xGfu54wmM","IndianOil","near Dunlop, No 200B T Road Ashokgarh, near Dunlop, More, Kolkata","22.6526914","88.3771165","true"
"ChIJ7Zw8Camd-DkRq3FUxCpgpxY","Onkar Service","58, BARANAGAR, KOLKATA","22.651363","88.36550989999999","true"
"ChIJPZ4Mt9ee-DkRWrf7roow9lk","IndianOil","Ground Floor, Sajirhat Jugberia Madhyamgram, Sodepur Road, New Barrakpur","22.6980072","88.43909599999999","true"
"ChIJ4_GXcLmd-DkRdcXrB-wA-d8","IndianOil","101/2A, Barrackpore Trunk Road, Baranagar, Kolkata","22.643871","88.37820099999999","true"
"ChIJ0bJyM_ub-DkRKhbqTh9NNSI","Bharat Petroleum, Petrol Pump -Paul Chaudhry Bros","BT ROAD, 24PARGANA, (n, KHARDAH","22.7056959","88.3743051","true"
"ChIJzcsAGaed-DkRiFxCXuXJm8E","Bharat Petroleum, Petrol Pump -Krishna S/Stn","B.T.ROAD, N24PARGA, PANIHATI","22.7023182","88.374442","true"
"ChIJzzQ7K3Gc-DkRpavm1A8DqZw","Hindustan Petroleum Corporation Limited","Ground Floor, Barrackpore Trunk Road, Sodepur, Kolkata","22.7012401","88.375001","true"
"ChIJPUVj6XGd-DkR4HVh9WssnNQ","Hindustan Petroleum Corporation Limited","No 46/F, 46f, Barrackpore Trunk Road, Ramkrishna Pally, Panihati, Khardaha","22.696963","88.374676","true"
"ChIJHfRuNgCd-DkRcbiRBlx8hvA","Hp Petrol Pump","46f, Barrackpore Trunk Road, Ramkrishna Pally, Panihati, Kolkata","22.6969451","88.3746906",""
"ChIJi-vQCACb-DkRH6KPV6FBbMM","Petrol pump","102b, Barrackpore Trunk Road, Titagarh, Kolkata","22.7340935","88.37308829999999",""
"ChIJi_eEEUCd-DkRDMdVOD_nRiw","CESC power distribution Panihati","M9RF+9XH, Panihati, Khardaha","22.6909341","88.3749867",""
"ChIJDet3uqGb-DkRH59sJszUsbw","Biswajit enterprises","7 no goli, dhan math, Milangarh Road, Sodepur, Kolkata","22.7114409","88.3965316","true"
"ChIJeX_PAuCb-DkRHlNRVK1SHeQ","Hindustan Petroleum Corporation Limited","Ground Floor, Bandipur, Doperia Village, Khardaha","22.730401","88.40150100000001","true"
"ChIJicuP9k2b-DkRPFdphTRtbH4","Bharat Petroleum, Petrol Pump -Haricharan S/Stn","1,BARRACKPORE, Talpukur, Titagarh, N24","22.7498906","88.3716675","true"
"ChIJO12IBgCb-DkRcPR5ihdRerM","Petrol Pump","2, Shitalatala Road, Titagarh, Kolkata","22.7501043","88.37220649999999",""
"ChIJL_kYioKd-DkRLGd_mZpI6c4","Fine Oil","Fine Tark Road, Murshidabad","22.676444","88.37629629999999",""
"ChIJjTpDMwCZ-DkRjeeHl-hXAU8","H.P petrol pump","PCM2+JM6, Kalyani Expressway, Ishwarpur Village, Iswaripur","22.7342001","88.40202769999999",""
"ChIJyeDc4-Cb-DkR-zTLKabrfow","Hindustan Petroleum Corporation Limited","Ground Floor, near Khardah, Kalyani Expressway, Bandipur, Khardaha","22.7342926","88.4025727","true"
"ChIJbydohRKb-DkRZik8zjg52og","Madhabi Vandar","Harikati, Talpukur, Titagarh","22.7518466","88.3748935",""
"ChIJzzNBHVSa-DkRFrLjZfzsmnE","Hindustan Petroleum Corporation Limited","Ground, Chiriakhana, Barrackpore","22.760611","88.367031","true"
"ChIJX9YfTbee-DkR-6PsWMn7XJ8","Hindustan Petroleum Corporation Limited","Ground Floor, Sodepur Madhyamgram, Road, Ghola, Jugberia, Muragachha","22.6964314","88.41623609999999","true"
"ChIJ9X2Kae-d-DkRgq8Ib3qeIKE","Bharat Petroleum, Petrol Pump -Belghoria S/Stn","Barrackpore Trunk Road, Belghoria, Kolkata","22.6648821","88.37692849999999","true"
"ChIJ2evtlxSb-DkR4HXgsH2p_J8","Little Flower Shop","49 Lakri Mahal Orderly Bazar, Area, Barrackpore","22.7665851","88.3635125","true"
"ChIJHW3q8J2d-DkREY5RvCuA5Lc","Suraj Store","39, Ghola Road, Nandan Nagar, Belghoria, Kolkata","22.6653422","88.393101",""
"ChIJr-IeteGf-DkRH8urYnitnsc","Maa Jagadhatri Fuels","MCWF+V85, Muragachha","22.6971444","88.42325009999999",""
"ChIJJ9I6r7Sd-DkRxTukgyvmnmA","Renaissance Auto LPG Private Limited","M95H+J5R, Beehive Garden, Belghoria, Kolkata","22.65910329999999","88.3778882",""
"ChIJY5dNFwCf-DkRXl-2HEy7x8Y","Bharat petroleum Nimta (Shree Sai service station)","MCF7+RFV, Fatullahpur, Nimta, North Dumdum","22.674614","88.413562","true"
"ChIJE5A5IwCf-DkRcqkDTEt5mYo","Petrol pump","toto stand, Uttar pratapgarh, Kalyani Expressway, Fatullahpur, Nimta, North Dumdum","22.6741685","88.41371819999999",""
"ChIJ26BvSrGd-DkRJjLO9Ywuc_Q","Dunlop Filling Station","M93G+3RP, Barrackpore Trunk Road, Dunlop, Bonhooghly Government Colony, Kolkata","22.6527185","88.37706709999999",""
"ChIJJbA3Ocud-DkRQ_32pJFolUE","Hindustan Petroleum Corporation Limited","201, Barrackpore Trunk Road, Kolkata","22.652321","88.37771099999999","true"
"ChIJNe-6Uzmd-DkRsf9kkT0FvHA","IndianOil","No 7/2/A, 1, Vivekananda Rd, U B Colony, Jorasanko, Baranagar","22.651476","88.368645","true"
"ChIJ4csmnEWf-DkRTWfj3Dx1tng","IndianOil","Ground Floor, Madhyamgram, Kolkata","22.694768","88.466719","true"
"ChIJxw1BfZaY-DkROpHd0ez6odE","IndianOil","Ground Floor, Barrackpore Road Barasat, Baluria, Nabapally, Bodai","22.734364","88.4650879","true"
"ChIJ-djiHUSf-DkRcHevJ6zMri0","Bharat Petroleum Corporation Ltd - Pal Chowdhury Bros","MFR7+7Q5, Jessore Road, Purbalaya, South Bankimpally, Madhyamgram, Kolkata","22.6906338","88.4644907","true"
"ChIJV0Ga1Wqf-DkRpb7gXeFt9UQ","IndianOil","Ground Floor, Doltala Road, Doharia, Madhyamgram, Ganganagar","22.681008","88.459807","true"
"ChIJ1elkpByf-DkRYcOpY6v1cuA","HP Petrol Pump - Giani Service Station","NEW Jessore Road, Michel Nagar, Kolkata","22.673014","88.444805","true"
"ChIJjSUdCAqi-DkRWpzD-qdrUuo","IndianOil","near Lali Cinema Hall, 730, Krishnanagar Road, Barasat, Kolkata","22.726685","88.47917699999999","true"
"ChIJ1crE4gmi-DkREqj06PISNEg","Hindustan Petroleum Corporation Limited","Ground Floor, NH 34, Krishnanagar Road, Barasat, Kolkata","22.7269987","88.4798244","true"
"ChIJR4BjXQGf-DkR-q965KjStcE","IndianOil","Ground Floor, NH 34, Gouripur Road, Birati, Kolkata","22.665588","88.443965","true"
"ChIJH_MZfKqf-DkR6I5CToseKTQ","Indian Oil","MC5V+R6V, Madhusudan Banerjee Road, Majumder Pada, Motilal Colony, Dum Dum, North Dumdum","22.6596036","88.4430555",""
"ChIJwWPnpZqh-DkR5QMo54dkThg","IndianOil","Ground Floor, Thakurpukur Rd, Barasat, Badu","22.695503","88.508667","true"
"ChIJ02Q7s0ie-DkRfShsh7k5Jo0","Bharat Petroleum Corporation Ltd Neoti Highway Service","1 no. airport, National Highway 12, Dum Dum, Kolkata","22.6423705","88.43165809999999","true"
"ChIJMVm1tEii-DkRhI4kU8B6DPo","Hindustan Petroleum Corporation Limited","Ground Floor, NH 35, Jessore Road, Murali, Bamangachi","22.738171","88.50912100000001","true"
"ChIJS_dGGV6f-DkRcc0yyJFVP-s","Abhijit","340/3/1, NS Road, Kolkata","22.690841","88.4352734",""
"ChIJD1RLkhif-DkRO0Sy68NNmyk","NNPC","171/1, Nabapally, East Kodalia, New Barrakpur, Kolkata","22.6826526","88.44690039999999","true"
"ChIJqZ-MRACf-DkRjuIgPPZfXn8","Madhyamgram Petrol Pump","MFV8+XQ8, Madhyamgram, Kolkata","22.6949125","88.4669531",""
"ChIJPcW8UKuY-DkRipJeQdz9vfI","Hindustan Petroleum Corporation Limited","Ground Floor, Rathtala, Barasat, Kolkata","22.708751","88.47459099999999","true"
"ChIJEbTdHj2f-DkRKr1p-l9DG5E","Bharat Petroleum, Petrol Pump -Pal Chowdhury Bros","NH-34, N24PARGA, MADHYAMGRAM, Kolkata","22.6816032","88.4586288","true"
"ChIJLY2wq2iZ-DkRm7pTifTrtTU","Bharat Petroleum Petrol Pump , AZAD SERVICE STATION","VILL : KOKAPURBARASAT, Barrackpore - Barasat Road","22.7510697","88.4434943","true"
"ChIJ0zycRwCZ-DkRYwfFuH0Pu64","Kokapur Petrol Pump","QC3R+299, Kokapur","22.7525375","88.44098439999999",""
"ChIJXUV00v-Y-DkR0cVWIH1J4PQ","IndianOil","Ground Floor, Barasat Kokapur, Nilgunge, Beraberia","22.752792","88.44089799999999","true"
"ChIJ-7r9bZKZ-DkRbh_afSU0ewM","Indian safety fire solution","PFFH+WH3, Barasat, Kolkata","22.7247556","88.4789351",""
"ChIJaUBZZgCf-DkRITm_EMMY0b8","Hindustan Petroleum Corporation Limited","Ground Floor, New Jessore Road, Michael Nagar, Kolkata","22.6732101","88.4449501","true"
"ChIJ5bkdpuOZ-DkRQMTMf-e8enY","Bharat Petroleum Petrol Pump","PFGH+9MC, Krishnanagar Road, Noapara, Kolkata","22.7259348","88.4791345",""
"ChIJIfx0UQCj-DkRQdLsmhkWgHo","Barasat Petrol Pump","PF9M+9RC, Barasat, Kolkata","22.7184375","88.4845156",""
"ChIJsZdUHZmj-DkR_2c1dSSXxRA","IndianOil","Lock No 500, 55 & 56, Jessore Road, Sethpukur, Kolkata","22.7182556","88.4845859","true"
"ChIJEVBT7AWi-DkRHljHG7wZm_g","Hindustan Petroleum Corporation Limited","Ground Floor, Police Station, near Barasat, More, Champadali, Kolkata","22.7188599","88.4850549","true"
"ChIJ3UHoFgWi-DkRvJCxaYYn5PM","Piyali Gas Service Center","Sumitra abason, 6, Swami Vivekananda Road, Kolkata","22.71802","88.487388","true"
"ChIJG_gT1HKh-DkR3Vyw4YHOFF8","Bharat Petroleum Petrol Pump , AUTO ENERGY","Badu Road","22.6937324","88.4871704","true"
"ChIJR3D6lmaf-DkRvEhG2khibDk","Uncle Fuel Center (Aegis Autogas)","Badu Road, Madhyamgram, Kolkata","22.6942541","88.4888015","true"
"ChIJ4UNLUwCf-DkRxYY553OnM_I","Bijan shil","MFFF+9GM, Madhyamgram, Dariala","22.6724844","88.47363229999999",""
"ChIJL6oxOv2Z-DkRMhuHVaYicKI","Bharat Petroleum Petrol Pump , SINGH SERVICE STATION","VILL & PO BERABERIAPS, Amdanga","22.7677","88.445","true"
"ChIJLZUVAuaj-DkR4Afd_iPh6Nk","Output rtx","Gengimale, Barasat, Barasat","22.725821","88.49469400000001",""
"ChIJ4YyDjWMLAjoRTmr2CdZ1pxo","IndianOil","Ground Floor, Kalikapur, Rajarhat, Kashinathpur","22.6492431","88.43355439999999","true"
"ChIJM6E2WACj-DkRbpFlX6JgSxk","GO GAS AUTO LPG STATION BARASAT","N 65, Jessore Road, Kazipara, Barasat, Kolkata","22.7327776","88.504978","true"
"ChIJbVK7TYii-DkRn8jxLIZBdcI","IndianOil","Ground Floor, NH 34, Barasat, Khilkapur","22.757762","88.491137","true"
"ChIJJROUIACh-DkRdEQuRgPDDHY","Subhashis","MGW5+8GJ, Madhyamgram, Badu","22.6957226","88.5087551",""
"ChIJ6ysyY3mP-DkRyvmhrshcuk4","IndianOil","Ground Floor Deshapara, Singur, Antisara","22.809595","88.280304","true"
"ChIJbwIQC9uP-DkRMjYre7PDjEs","IndianOil","Delhi Road, Bhadreswar","22.8332783","88.3166705","true"
"ChIJSbIyDSuO-DkR3kG-JwDI8Es","MAA MANGALCHANDI FILLING STATION","Old, Delhi Road, Nowapara, Bagdanga","22.8517735","88.3202874","true"
"ChIJrWT9NlmF-DkRMK8RKlPSPkU","EDS বাচ্চার বাজ","India","22.7973988","88.309806",""
"ChIJNTyiME2F-DkRSut3EcFLe5A","Chowmatha Petrol Pump","Q8QF+58G, Grand Trunk Road, Baidyabati","22.7879398","88.3233425","true"
"ChIJ26y4pC-P-DkR4VXJ0o24jFo","SASHADHAR FILLING STATION(INDIAN OIL)","Bighati","22.8131852","88.31465109999999","true"
"ChIJ1S5y312P-DkRL2mCLSyxrTk","Hindustan Petroleum Corporation Limited","Ground Floor, Desha Para, Diara, Hooghly","22.8110154","88.2730924","true"
"ChIJt6lJceOF-DkRMpPwRTHYWa8","IndianOil","Ground Floor Ajabnagar, Mollasimla, Singur","22.7865386","88.2499223","true"
"ChIJEYpK5liJ-DkR3vw6O6CrBx4","Nivedita Fill in centre","Ghanashyampur, Singur","22.8040847","88.2434461","true"
"ChIJT7itIKGP-DkR1ewQaW8koD8","IndianOil","Ground Floor, Purushottampur, Singur, Singur","22.8169368","88.24571619999999","true"
"ChIJZQ_IdwCJ-DkRJYE9pr-RLxs","Malikpur pamp","R69W+28P, Malikpur, Singur, Jamirberia","22.817535","88.24607329999999",""
"ChIJBfgXCmmP-DkREnpR13vDSXc","Hindustan Petroleum Corporation Limited","Ground Floor, Old, Delhi Road, Garji More, Mankundu, Chandannagar","22.8430765","88.3193614","true"
"ChIJd7kf5UCJ-DkRy2QD_GOXYJk","Bharat Petroleum, Petrol Pump -Aditya Fuel Centre","Singur","22.81494709999999","88.23450249999999","true"
"ChIJOZpiLaCJ-DkRS9DZgOXkcu0","Bharat Petroleum Petrol pump","R6CP+QRR, Malikpur, Singur, Singur","22.8219839","88.2370165","true"
"ChIJ98t87BCa-DkRS0NnC-ln3Ek","IndianOil","Lock No 411, T/T, Babanpurp, Kalyani Express Highway, Bengal","22.7870283","88.39070099999999","true"
"ChIJy1s6_pCQ-DkRrnZjnsKGo0Q","IndianOil","Ground Floor, Barrackpore, Pinkal","22.8171048","88.3752075","true"
"ChIJG0_WuqyQ-DkR80fjMlRuctY","IndianOil","Ground Floor, Jagaddal, Gurdah, Shyamnagar, Hansia","22.809161","88.401085","true"
"ChIJIa6IBUqX-DkRDCzuocV-fQs","Hindustan Petroleum Corporation Limited","Ground Floor, Jagatdal, Shyamnagar, Rahuta P","22.8258745","88.4060805","true"
"ChIJp9_3Tymb-DkRMceCjTNlOog","Dev SOLUTION","189, Bhim Rao Ambedkar, Sreepally, North Barrackpur","22.7847144","88.3760113",""
"ChIJfxhHepCQ-DkROA6vvt0SOhY","Bharat Petroleum, Petrol Pump -Balaji Energy Station","NOAPARA,GARULIA,N24PARGANA, NORTH 24 PARGANAS","22.8148219","88.374517","true"
"ChIJAYSBHuuR-DkR1zp3qWtP6Ts","NRL PUMP","Hansia","22.8053364","88.39892569999999",""
"ChIJEVgrErWR-DkRoCYoe5xV2Vo","Omni Agency Pvt Ltd IOCL","Hansia","22.8092164","88.4010598","true"
"ChIJBXhI-eqQ-DkRiDg4UxoWJpk","Lala Service Station","20, Ghosh Para Road, Noapara, Shyamnagar, Kolkata","22.828738","88.3800181",""
"ChIJ8_1YyEuX-DkReKftdCf4AtM","Bharat Petroleum, Petrol Pump -Poddar Filling Station","RCF3+CXX, Shyamnagar, BASUDEVPUR","22.822944","88.4055666","true"
"ChIJWy804VWQ-DkRyOoCCOyF1oI","Hindustan Petroleum Corporation Limited","Ground Floor, Grand Trunk Road, Mankundu, Chandannagar","22.8441001","88.3618901","true"
"ChIJPYdIXOeQ-DkRQ9GDfah3QpA","Authpur Petrol Pump","West Ghosh Para Rd, State Highway 1, Authpur, Shyamnagar, Bhatpara","22.8428244","88.3817819","true"
"ChIJw1l8ajeX-DkRF8XQCXVIqsQ","Reliance Pump","RCJ6+84J, Kolkata, Gurdah, Shyamnagar","22.8308403","88.4102631","true"
"ChIJL4zOSuyb-DkRQEmB3W3FlnM","Reliance Petroleum","1313 & 1310, Barackpore Kalyani Hwy, 17, Ucchagarh, Bidyadharpur, Jagatdal, Kolkata","22.830912","88.4102468","true"
"ChIJv1KJYlWQ-DkRrBcQBLRwaaA","পাঞ্জাব ন্যাশনাল ব্যাংক","India","22.8459812","88.362179",""
"ChIJQ-96IwCX-DkRYMJ157hjIDA","SWASTIKA ENERGY HUB (HP PETROL PUMP)","VC2G+CWG, Bhatpara","22.8510687","88.4273189",""
"ChIJX4kTXl2X-DkRKwce_Wv6HYo","Ganesh enterprises","Ganesh Cyber, Jagatdal, Bhatpara","22.8462303","88.405191",""
"ChIJf46cOR2S-DkRKZZok2Qil28","BABA PANCHANAN SERVICE STATION","Kamdebpur","22.8989471","88.3343354","true"
"ChIJn2zI1tyI-DkRYTYImp99wYc","IndianOil","Ground Floor, Harris, NH 2, Durgapur Expressway, Gopal Nagar, Singur, Sinher Bheri","22.83682599999999","88.229385","true"
"ChIJuYVE9x6P-DkRX9sLpfSVYd0","Souvik Oil And fuel","R7V9, GQF","22.8680591","88.27921610000001",""
"ChIJ4Rbo3WiP-DkRY2VXoXEy66I","Hindustan Petroleum Corporation Limited","Ground Floor, SH 13, Old, Delhi Road, Hooghly","22.861717","88.32346799999999","true"
"ChIJ22pu_wCR-DkR3dqHZWEELtc","IndianOil","Monarchy highway servicveErenga, Delhi Road, Khalsani, Jarura","22.891487","88.33019300000001","true"
"ChIJ74H3A5iN-DkRKgT8uFeoQt4","IndianOil","Ground Floor Alinagar, Polba, Kaswara, Kamdebpur","22.91384","88.3048001","true"
"ChIJJzYmPACR-DkRIxhUOoA7r_4","Chandannagar Auto house","V968+9PM, Bagbazar, Sukhsanatantala, Chandannagar","22.8610133","88.3669273",""
"ChIJR2NAqwiR-DkRNffr9vQvXCg","Hindustan Petroleum Corporation Limited","Ground Floor, Grand Trunk Road, Chandannagar","22.86204009999999","88.36774009999999","true"
"ChIJg8_hB2eR-DkR8VJ9K52i25k","Bharat Petroleum Fuel Station (Bansi Service Station)","Grand Trunk Road, Chinsurah R S, Chinsurah","22.8888218","88.38037609999999","true"
"ChIJSTl3GxKR-DkRnt--jqXx6bI","IndianOil","Ground Floor, Kundughat Road, Chandannagar","22.86833","88.373289","true"
"ChIJqcHX9BKR-DkRE4KmSECw2p4","Hindustan Petroleum Corporation Limited","Ground Floor, Grand Trunk Road, Chandannagar","22.8705601","88.3739501","true"
"ChIJccts21KR-DkR2BR8owWcFyU","Hindustan Petroleum Corporation Limited","Ground Floor, Chinsurah R S, Chinsurah","22.8883401","88.4007401","true"
"ChIJCebjlOSW-DkRsYSJV1spLAE","Hindustan Petroleum Corporation Limited","No 200, Barrackpore - Kalyani Expressway, Bhatpara","22.857951","88.42938099999999","true"
"ChIJ7QRdO-uT-DkRHIPhI1ko890","Bharat petroleum Petrol Pump","State Highway 6, Keota, Bandel","22.9204841","88.3851358","true"
"ChIJFwIfKtGR-DkR4lY1WLrauyI","Rohit Petrol Supplier","East Ghoshpara Road, Kankinara, Bhatpara","22.8653717","88.3981274",""
"ChIJx2pwwc6R-DkRZpKHgYNAY3w","BPCL Petrol Pump","Shop Number 1, Ghoshpara Road, Bhatpara","22.865761","88.39888549999999",""
"ChIJ4d8wR6yR-DkRb3BwYqdOnLc","BHARAT FUEL","H/N 31, East Ghoshpara Road, Kankinara, Bhatpara","22.8664446","88.4002507",""
"ChIJo7yguCSR-DkRikKqEijPE9Y","Hindustan Fuel","Line 11, East Ghoshpara Road, Kankinara, Jagatdal, Bhatpara","22.8665832","88.40059989999999",""
"ChIJkwhppMyW-DkRwKUE8DFsFBY","Hindustan Petroleum Corporation Limited","7, East Ghoshpara Road, Kankinara, Bhatpara","22.8677346","88.40239","true"
"ChIJvT4qjmRnAjoRykAFNjmXI2c","Jio-bp","DAG NO 648, 649, 651, JL NO 2, SH-1, VILLAGE RAJARHAT, MOUZA AYODHYANAGAR PS US Amtala II","22.871502","88.40532499999999","true"
"ChIJhbfkBeCT-DkRM2m-civHLdg","IndianOil","Ground Floor, Rabindranagar Bazar, Debi Das Tala, Grand Trunk Road, Chinsurah R S, Chinsurah","22.8982786","88.38258379999999","true"
"ChIJh09WwVKR-DkRn4eeWB55msI","BP Petrol Pump","VCQ2+FFC, Chinsurah R S, Chinsurah","22.8886998","88.40114729999999","true"
"ChIJd5O4KgCX-DkRK7iICkLBkZg","Toilet","VCW3+JJP, River Side Main Road, Chinsurah R S, Chinsurah","22.8965806","88.40409129999999",""
"ChIJqVNLasWX-DkRp8BplMcPc2Y","IndianOil","Ground Floor, Bhatpara, Madrail","22.8663682","88.43158729999999","true"
"ChIJe4s6OKKW-DkRBeVDCXVDleI","Bharat Petroleum, Naihati Filling Station","Rishi Bankim Chandra Road, Naihati","22.8909883","88.4193119","true"
"ChIJr6acMhKT-DkRv59e2JKr1Ts","MULLICK AUTO SERVICE","More, Grand Trunk Road, Bandel","22.9190297","88.38500979999999","true"
"ChIJu5k_4SGX-DkRkkgyHJY5VZU","Nigam Go Gas","VCPM+4JM, 743165, Naihati - Habra Road, Kultala, Naihati, Kolkata","22.885348","88.434043",""
"ChIJwSbRA-2V-DkR1U55uXPXnxM","Irfan General Store","14, Ishaque Sardar Road, Kolkata","22.9096857","88.4124044","false"
"ChIJIyuubsaV-DkR6JstQ2NT5hk","Hindustan Petroleum Corporation Limited","P.o & Vill:, Chandua Road, Ps, Jetia","22.9172343","88.4517079","true"
"ChIJy8KS4g6X-DkRBdictL17pho","M/S DIAMOND K S K","73 Habra Road, ROAD, Adhata","22.8821261","88.4458014",""
"ChIJS1rthbOX-DkREES02Dq_RK8","IndianOil","Ground Floor Mamudpur, Naihati, Bora","22.8824196","88.4458104","true"
"ChIJfcEbRC-X-DkRpOtHnSfqG3w","BHARAT PETROLEUM DEVOKE","ON 73 BUS ROUTE , NAIHATI, TO, HABRA ROUTE, Mamudpur","22.8822789","88.45045999999999","true"
"ChIJ6zAIlG6W-DkRECzD2o5ZwLE","পূজা ভ্যারাইটিসাটাল","India","22.8823905","88.4539698",""
"ChIJTWwBoIiX-DkRpQfaGCL_XlY","SUDHA NARAYAN SERVICE STATION","VCWP+79V, Naihati","22.8957454","88.4359251","true"
"ChIJLb2NH8eV-DkRzTMdqD1d4Mo","IndianOil","Ground Floor, Bijpur Chendua, Barajonepur, Kanchrapara","22.919486","88.453637","true"
"ChIJb5u9F7K9-DkRq7bUEsP7xqQ","Shikra BHARAT Petrol Pump","Shikra, R.O.P, Fulkalmi Road, Sikra","22.86459259999999","88.51369749999999",""