place_id,name,address,latitude,longitude,open_now
"ChIJHf8lxlAD4zkRvTerUWozO1o","Bharat Petroleum","Chandamari","26.2392861","89.32723659999999","true"
"ChIJSXfGRmIC4zkR5De-nMPssd4","Rai Mustard Oil","79HP+878, Chilkirhat Road, Ekmukha","26.2782999","89.3857093",""
"ChIJTywiQCD94jkR2USbGeoemSU","IndianOil","Rasidanga 1 & 2, No 819 & 222 No 1677 & 1697, Cooch Behar","26.2376361","89.4076171","true"
"ChIJHRzrUQD94jkRengTW9Mwec0","Pakurtola Petrol Pump","6CM4+XH, Rasidanga Pratham Khanda","26.2349895","89.4063896",""
"ChIJZetmeI0D4zkRRjwWpzbf2no","Hindustan Petroleum Corporation Limited","Ground Floor, SH 16, 7th Mile, Ghughumari, Elejanerkuthi","26.2845655","89.3535636","true"
"ChIJJUDkJt8D4zkRpNRry5FiQE0","IndianOil","Ground Floor, Chandamari,Akrarhat Bandar, Chandamari","26.237165","89.327431","true"
"ChIJUTlzwMEb4zkRf-h6X8rIYtw","Bharat Petroleum, Petrol Pump -Mahakal Service Station","AKRAHAT, NISHIGANJ, COOCHBEHAR","26.2946741","89.3360076","true"
"ChIJFRqPTwAD4zkRn3-Jpy-CGSY","Kanibil Kankanguri, Akrarhat","78XQ+86Q, Kanibil Kankanguri","26.298332","89.3381105",""
"ChIJ7VIbzLID4zkRyGX2PG7DGHM","Hindustan Petroleum Corporation Limited","Ground Floor, Akrarhat Hat, Phalimari","26.2964758","89.32713","true"
"ChIJsRyyHVMD4zkR8DFyW1-N0Bw","Akrahat","78WG+JV7, Falimari","26.2965372","89.3271615","true"
"ChIJhc7rI1f84jkRU4kwliULZ08","IndianOil","Ground Floor, Ghugumari, Kotwali,Akrarhat Bandar, Sutkabari Road, Cooch Behar","26.281237","89.443703","true"
"ChIJ64duI1f84jkRuazbsz6R2DQ","Jamtala Petrol Pump","7CJV+GHX, Cooch Behar","26.28136739999999","89.4439761","true"
"ChIJCzjSggsE4zkRsuwLiiMZx-o","IndianOil","Ground Floor, Akrarhat, Bandar, Phalimari","26.302787","89.318787","true"
"ChIJPWsvp9394jkRg0PFI4ANclY","Residual Islam","11, Fasirghat Rode Tapurhate Chupptti, Cooch Behar","26.3030662","89.4338152","true"
"ChIJGage5qD-4jkRL_dGZOO5qqk","IndianOil","Ground Floor, Nripendra Narayan Road, Rail Ghumty, Cooch Behar","26.325925","89.4586247","true"
"ChIJHWdCUFf74jkR7RIAT76-nnA","IndianOil","Ground Floor, Kotwali Nawabganj Balashi, Dewanhat, Bhetaguri","26.2529595","89.4856834","true"
"ChIJ6zAJzVn74jkRkj8jz-wYAlI","SUKHLAL FILLING STATION, BPCL PETROL PUMP CNG STATION","near KALACHAD MORE, Shishabguri","26.2485867","89.4851147",""
"ChIJPw9s_x3l4jkRgRmKEcEvP0M","Hindustan Petroleum Corporation Limited","536, 537, Plot No 523, Dinhata Main Road, Singimari Bhetaguri","26.2212875","89.48332769999999","true"
"ChIJ3TFxOK394jkRNIcUyqSU6tw","IndianOil","Plot No 2598, J L No 71, Sahebganj, Bhulki","26.3170661","89.4442296","true"
"ChIJOWK76SH84jkR6e3n5ro-HXE","Hindustan Petroleum Corporation Limited","Ground Floor, Nara Narayan Road, Cooch Behar","26.319331","89.454543","true"
"ChIJ0WUUulr74jkRZediCC9AKM4","Anima gas service","8F8F+VVF, Pilkhana Road, Cooch Behar","26.3171965","89.47467639999999",""
"ChIJjcTsNKf-4jkRMoEhWoXI93E","NARPAT AUTOMOBILES Railghumti Petrol Pump","8FG5+7VR, Rail Ghumty, Cooch Behar","26.325736","89.45964719999999","true"
"ChIJ7x5rbsH_4jkRGfyqTMudmI0","Bharat Petroleum, Petrol Pump -Narpat Automobiles","N N ROAD COOCHBEHAR, Cooch Behar","26.32572","89.460043","true"
"ChIJUaTpXy3w4jkRUhwbffi64BQ","IndianOil","Ground Floor, Balarampur,Balairhat, Balarampur","26.240072","89.583954","true"
"ChIJP4TzIUzv4jkRgUlRRI378uA","MR SUBRATA BARMAN","Balarampur, Glakata Birish Chakadara","26.21904079999999","89.5678257",""
"ChIJGXT6Egn74jkRqf03VZd9vco","Reliance Petroleum","2681P, 2685P, Jl No 119, Plot No 2672P, Kotwali, Dawaguri","26.31769439999999","89.51733689999999","true"
"ChIJnWQMitT74jkR82XxfJ6ivys","IndianOil","Ground Floor NH 31, Dawaguri","26.3189068","89.5100243","true"
"ChIJmU2j_i3x4jkRO9a1BS9nFfw","Hoque Digital Seva","6HPP C5J, Balarampur","26.2363715","89.5854071","true"
"ChIJp4ngi-nx4jkRrTQHU6cXSH4","Maruganj Petrol Pump","Unnamed Road, Airani Chitalia","26.3161381","89.556946","true"
"ChIJoxVFD48B4zkR6rwzkgjV8IM","Sanjay Store","Shop No 1, Nishiganj Road, near Harimandir, Bajar, Cooch Behar","26.3497353","89.3552821",""
"ChIJB6YtAgD_4jkRRcleBEVi3ko","ARIYAN ENERGY STATION (Indian Oil)","Rajarhat, Cooch Behar","26.3506997","89.41577529999999","true"
"ChIJmaG8SAD_4jkRIbW5vkCS8zE","Hindustan Petroleum Corporation Limited","Ground Floor, Madhupur, Pundibari, Matikata","26.366055","89.3994227","true"
"ChIJjePqNn8B4zkRwarH7-IGkho","Highway Queen BPCL Ro","Bharat Petroleum, Road, Pundibari","26.3846104","89.3893318","true"
"ChIJFwBCMCUA4zkR_NeB54ePGgY","Highway Queen BPCL Petrol Pump","Digha Pul, Danapur Main Road, Mithila Colony, Patna","26.3847798","89.38957479999999","true"
"ChIJnzwnOM3_4jkR16V0rgqJUNw","IndianOil","Ground Floor, Keshav Road, Gunjwadi, Cooch Behar","26.331812","89.444267","true"
"ChIJl_xIw1sF4zkRqaukTC2BfJs","Nur Hp Gas Gramin Vitrak","SH12, Chakiar Chhara","26.31504899999999","89.3035688",""
"ChIJdy2Yl5L-4jkR8mZGAAon83g","Fuel Station with CNG gas","Khagrabari, Cooch Behar","26.34576779999999","89.4464603","true"
"ChIJhWiEqpP-4jkRob2u656M_so","IndianOil","Ph No 22605, Rtkm 106 Kms,Bangchatra, Cooch Behar","26.344734","89.448312","true"
"ChIJ5UcuShD_4jkR3JYdh0LB7iQ","IndianOil","Ground Floor, East Khagrabari, Kharija Kakribari","26.3431564","89.45349569999999","true"
"ChIJ8Q0C4pr_4jkRSo3nUWt6a_E","LALJI MOHAN KSHITISH CHANDRA SAHA & SONS","LALJI COMMERCIAL COMPLEX. PHASE - I EAST, Khagrabari, Cooch Behar","26.3431438","89.45399239999999","true"
"ChIJBcZJNwD54jkRo92672ECz4Y","ড্রাইভার পাড়া","8GR8+PMQ, Khapaidanga","26.3418447","89.5167298",""
"ChIJoxYZYxD54jkRgSFgKhcJBxw","IndianOil","Ground Floor, Khapaidanga Toward, Chakchaka Indl Estate,Bangchatra","26.362906","89.520198","true"
"ChIJk1gTeMTw4jkReTyLbfsVJa8","IndianOil","Lr No 892865896897898903 Bhelakopa 2, Tufanganj","26.306993","89.57471900000002","true"
"ChIJY32IXI7x4jkRaEev52Mcc5k","Eyanur Hossain","Indian Oil, Chhat Bhelakopa","26.3065911","89.57516559999999",""
"ChIJ08J8mLf54jkRwMPvpOhGmC4","Kabita Roy Shop","9GVP X5J, Rode, Ambari","26.3933818","89.53870599999999",""
"ChIJLU0yQvQB4zkRYRIm5S5mIeQ","Petrol Pump","Kalarayerkuthi","26.4053295","89.3806199",""
"ChIJR2OLFUIB4zkRjx_qzWGNJDw","Hindustan Petroleum Corporation Limited","Ground Floor NH 17, Kalarayerkuthi, Pundibari","26.4100039","89.3688519","true"
"ChIJkzJS2Sur4zkRslaPro8KV9A","IndianOil","Ground Floor, Chandanchaura, Kalarayerkuthi","26.4286","89.3762419","true"
"ChIJXxl3AgD54jkR1Z906KApzNo","Baneswar M L Roy Energy Station","9FWV+RCH, Baneswar","26.3970554","89.4936127",""
"ChIJH-hSu6z54jkRAPZXMiby6GE","IndianOil","Ground Floor Kutipara, Kotwali, Baneswar","26.4063407","89.49959799999999","true"
"ChIJm-TZsW734jkRVGeuFU6pHtE","Bharat petroleum","9HVJ+VV5, Debottar Charaljani","26.3946479","89.5822324","true"