place_id,name,address,latitude,longitude,open_now
"ChIJx6rBCD909zkRE4MraI5WK9A","Hindustan Petroleum Corporation Limited","Bankura, Ground Floor Durgapur Bankura Road Near Barjora More","23.4266154","87.28327879999999","true"
"ChIJURz6O3Jx9zkRiZvUuDrEiFo","IndianOil","Lock, 11006, Durgapur Station Road, Durgapur","23.492565","87.317651","true"
"ChIJeaqZBoNx9zkRKJ9vmD__J0I","Bharat Petroleum Petrol Pump","BC ROY AVE,DURGAPUR,BURDWA, BARDHAMAN","23.5053038","87.30914430000001","true"
"ChIJX4Bktad19zkR-C0pEGpvXtQ","IndianOil","Ground Floor Durgapur, Bankura Road, Jambediap, Barjora","23.392696","87.264231","true"
"ChIJUVd7ypx09zkRFhZlcAIbsZ8","IndianOil","Ground Floor, Durlabhpur Road Shraboni, Ghutgoria, Barjora","23.449432","87.251717","true"
"ChIJnS0_vkd19zkRR84QeaPX2CU","Bharat Petroleum Corporation Limited (BPCL)","Barjora, Ghutgoria Durlavpur, Road, Barjora","23.4387766","87.2586127","true"
"ChIJw95Z5vpz9zkRZtzwa8j5zJ4","Petrol Pump","Building Name, Barrage, Durgapur","23.4707421","87.2928987",""
"ChIJvwbQRaZz9zkRsDHKJt81NCA","PSBrightSolutionPvtLtd","near Bus Stopage, Barjora, near Bus Stopage, Pratappur","23.4669532","87.29674539999999",""
"ChIJmdgYyrNz9zkRynDi0SxFDRE","AD Food Store","Durgapur - Purulia - Raghunathpur Road, Pratappur","23.4667662","87.29679770000001",""
"ChIJC4Lj-BB09zkRyoO17X953PQ","Hindustan Petroleum Corporation Limited","Bankura, Ground Floor Durgapur Bankura Road, Ronalejora Near Barjora More","23.4391044","87.28967349999999","true"
"ChIJ_xAiAAB19zkRBi7iQQAhsRA","Ray colony","Barjora","23.42585679999999","87.2854565",""
"ChIJS9dmcABz9zkR5pNXicuTZgA","Dibya Rishi mini fuel centre","G73P+VM9, DCL Colony, Industrial Area, Durgapur","23.5046627","87.28674370000002","true"
"ChIJoxONyVlx9zkR-jqycvONnRk","Sujayjee","Labour Hut, Dr, Doctor Bidhan Chandra Roy Avenue, Durgapur","23.5052574","87.3086024",""
"ChIJz9ciq4Nx9zkR18BI3nJ3Vxs","Shark Petroleum","G845+3H6, Doctor Bidhan Chandra Roy Avenue, Industrial Area, Durgapur","23.505158","87.30887609999999",""
"ChIJz1eCZLV19zkR_hD5gptKzsc","Bharat petroleum","C73C+FM9, Dejuri","23.4036658","87.27173680000001",""
"ChIJHZjIi18N9zkR_G1ErOEpJdg","IndianOil","J L No 17, Khatian 442/4 Plot No 157P, Ghanashyampur, Krishnanagar","23.47107399999999","87.197734","true"
"ChIJdd48XoNx9zkRGKg4o0g9_ZM","Hindustan Petroleum Corporation Limited","Ground Floor, Coke Oven, near Doctor Bidhan Chandra Roy Avenue, PCBL More, Durgapur","23.5077431","87.3103237","true"
"ChIJnRklJwBx9zkRU655bsVms3o","D P L","L Housing Complex, D.P, Industrial Area, Durgapur","23.5115595","87.3114258",""
"ChIJSYLlbYNx9zkR6hOSPxVKdUs","IndianOil","Lock No 11013, Dr BC Roy Avenue Paschim Bardhaman, Industrial Area","23.512094","87.3110125","true"
"ChIJH8xLhJpx9zkR1kBDbDZ0xwM","Indane Bottling Plant","G877+CFC, Lenin Sarani, Industrial Area, Durgapur","23.5135615","87.313651","true"
"ChIJE5QTMQlx9zkR6B0XwDu3MKo","IndianOil","GF, JP Avenue, Sagarbhanga, NH 60 Zonal Centre,Durgapur, Sagarbhanga, Col","23.496804","87.328171","true"
"ChIJX86CmAhx9zkRLZ9fSDs2vlg","Hindustan Petroleum Corporation Limited","Ground Floor, Zonal Centre, Jadabendra Panja Avenue, Sagarbhanga, Durgapur","23.497931","87.33078100000002","true"
"ChIJkxnCqq1x9zkRuBr9VFaBlG8","IndianOil","No 112, Lock No 12006, HP GT Road, Barddhaman, Khayrasole, Durgapur","23.511513","87.338753","true"
"ChIJYSVp001w9zkRQGMEwSauZIY","IndianOil","C 415, Ssb Sarani, Bidhannagar, Durgapur","23.5173718","87.3458909","true"
"ChIJU1RlUT569zkRtlOlaxVrZlo","IndianOil","","23.476452","87.4029558","true"
"ChIJuddLiVhw9zkRa755PA1gBQw","Hindustan Petroleum Corporation Limited","Ground Floor, Muchipara, Grand Trunk Road, Durgapur","23.503911","87.354061","true"
"ChIJfQf8EPZx9zkRVP6KFpcKxYc","IndianOil","Lock No 11009 Bamunara, Bidhannagar, Banskopa","23.492351","87.37308349999999","true"
"ChIJH0qjoI5x9zkRVpC1SQy5I_4","Surya Lakshmi Service Station","NH-02, Banskopa","23.4919176","87.3748863",""
"ChIJzVWYx4Rw9zkRc2j_fiaWwSE","HP Petrol Pump - Gorai Fuel Centre","Ground Floor, Bamunara Industrial, More, Estate, Banskopa","23.4922194","87.3748016","true"
"ChIJkTdVDcd79zkRY6VKaFUsKOM","BHARAT PETROLEUM - MAA KAMAKSHA SERVICE STATION","Chatty, Rajbandh","23.4873816","87.38266999999999","true"
"ChIJA5RuELBx9zkRnyuXv9VSmSA","HP Petrol Pump - Auto Care Centre","Indo American More, Ground Floor NH 2, Durgapur","23.51517309999999","87.33213839999999","true"
"ChIJq6J40lV39zkRcIN-RlxRkQA","Jharna Fuel Services","C9JH+3F, Pakhanna Bhairabpur","23.4301771","87.3786956",""
"ChIJjQWKMQBx9zkRJfB_jX_I8vg","durgapur city center","G8C6+5QF, Durgapur","23.5204443","87.3119227",""
"ChIJ2XKCKMJ39zkRzfr6dzCgVik","IndianOil","Plot No 438, Barjora Pakhanna, Palashbani","23.4046973","87.3695043","true"
"ChIJ4bTUDNF39zkRkj5kj86NzRI","IndianOil Petrol Pump","Pakhana ,Palashbani, Natungram, Para","23.4042748","87.36889839999999",""
"ChIJv71vcQB39zkRDQs77LotKkM","Bharat Petroleum (Fual Plaza)","99X3+H79, Suratpur","23.3982741","87.35418729999999",""
"ChIJgQ9vjxN79zkRcd-khPR9SRk","Bharat Petroleum, Petrol Pump -Rajlaxmi Auto Filling Stn.","opp. DITM, Grand Trunk Road, RAJBANDH","23.4741908","87.40853349999999","true"
"ChIJ6UjsLYJ79zkRBGFssC5KDPo","IndianOil","GF, Trilokchandrapur, Kanksha Near Barddhaman, NH 60 4 Mile More, Gram Exp Hwy, Bidhannagar, Durgapur","23.503185","87.454765","true"
"ChIJ_XwHXNZ79zkRPLKtZrIrdk0","Maa Sarada Service Station","FC97+VWM, National Highway 19","23.4697174","87.4147887","true"
"ChIJecP-jjF69zkRlvv5h5lL8EA","Hindustan Petroleum Corporation Limited","Ground Floor, near KM Stone 511, NH 2, Birudiha","23.4703912","87.4153097","true"
"ChIJRRnnRQ579zkRT-pWKi3k4ZQ","IndianOil","Lock No 13014, RTKM 8 GT Road, Burdwan, Birudiha","23.4619358","87.4308599","true"
"ChIJ50RMqFp59zkRIdD5wM-ss5A","Akash Lohani","Panagarh Bazar, Panagarh","23.4535712","87.4475143",""
"ChIJ1RJ9TY179zkRaoebI2JragY","IndianOil","Ground Floor, Kanksa","23.4600341","87.4555817","true"
"ChIJJ2Xv0ap59zkRX-kUDtf_Jh0","Bharat Petroleum Petrol Pump , MAA ANNAPURNA FILLING STATION","SHILAMPUR, KANKSA, Paschim Gangarampur","23.426611","87.44024","true"
"ChIJzZHqqFJ59zkRShL_HAwdBVg","Panagarh Petrol Pump","Panagarh Bazar, Kanksa","23.4454119","87.45986219999999","true"
"ChIJGS4qMAB99zkRnPNslfRRSTE","COCO KANKSA","FF58+724, Kanksa","23.4581396","87.46508349999999",""
"ChIJp8MK_Ot99zkRteEzklTLDJQ","IndianOil","Ground Floor, NH 2, Bypass, Panagarh","23.4589409","87.465797","true"
"ChIJa5n7ALp-9zkRxqMXebROSuk","IndianOil","Lock No 11019, Grand Trunk Road, Panagarh Bazar, Bidhannagar, Durgapur","23.43997599999999","87.469915","true"
"ChIJi5jx4Lt-9zkR9t5xSwLPyws","IndianOil","Ground Floor, Matix Road, Panagarh Bazar, Natunpara, Panagarh","23.439749","87.474159","true"
"ChIJd71V9zJ_9zkRJ7IdrLnr-mU","Hindustan Petroleum Corporation Limited","Ground Floor Sonai, Pondali","23.4420216","87.4775602","true"
"ChIJBeAuLPxt9zkRF2Z9em9fJV4","IndianOil","Lock, 11010, Mahatma Gandhi Road, Durgapur","23.555965","87.299469","true"
"ChIJ_1VvQnZy9zkR3kV9Qe_xo2w","Raja Service Station Bharat Petroleum","Delhi - Kolkata Highway, Benachity, Durgapur","23.547108","87.275454","true"
"ChIJr3_3oQxy9zkRxq9Lg3HLmEk","Hindustan Petroleum Corporation Limited","Ground Floor, Grand Trunk Road, Bhiringi, Bardhaman","23.543031","87.282911","true"
"ChIJg9lRkERz9zkRbDgiS3lV3Hw","Bharat Petroleum, Petrol Pump -Paul Auto Services","DSP GATE,NH2,DURGAPUR,BURD, BARDHAMAN","23.560404","87.2552788","true"
"ChIJfXUcbuxt9zkRL4GeCrGrarc","IndianOil","Lock No 12016, Rtkm/38, Akbar Road, Benachity, Durgapur","23.566603","87.284988","true"
"ChIJI_NBiWpt9zkR71GW6OrN1hM","HP Petrol Pump","H69V+V43, Delhi - Kolkata Highway, Main Gate, Durgapur","23.569633","87.242803","true"
"ChIJEx8goedt9zkRhL57OApa3G8","Bharat Petroleum, Super Service Station","A-Zone, Durgapur","23.5717582","87.2941827","true"
"ChIJJVAfeUBt9zkRNK5rcwnS40E","IndianOil","Ground Floor Gopalmath Durgapur, Oyaria","23.571998","87.239786","true"
"ChIJNwjXSXZy9zkR99y5ZJYW814","Hindustan Petroleum Corporation Limited","Ground Floor, Grand Trunk Road, Bhiringee More, Durgapur","23.5476305","87.27457419999999","true"
"ChIJQ04uJ7Nz9zkRyX15dbpnNoo","SUJOY","Faridpur, 713213, School Para, Durgapur","23.5401392","87.28318879999999",""
"ChIJY1q0UABt9zkRSKhxmeweWkk","G D ENERGIES, HP PETROL PUMP","Old Court, Grand Trunk Road, Industrial Area, Durgapur","23.5570615","87.25969669999999","true"
"ChIJBy48D5Zz9zkR_wX3K_y6zjQ","IndianOil","JL No 74, Touzi No 20, Kh No 737128, Plot No 854 & 856, Faridpur Road, Bardhaman","23.538063","87.28931399999999","true"
"ChIJTaFx-6Vz9zkRlHBWnQcJARo","IndianOil","Ground Floor, NH 2, Gandhi More, Durgapur","23.5380461","87.28983","true"
"ChIJz_MOSFdt9zkRC3B2zjXSoL0","Durgapur Highway Service","116, Grand Trunk Road, Faridpur, Durgapur","23.55944749999999","87.25604899999999","true"
"ChIJ9cXA0Rpy9zkRLYx8hI1mUMk","IndianOil","Saheed, Shahid Khudiram Sarani, City Center, Durgapur","23.536922","87.29356399999999","true"
"ChIJb8ZdsuFt9zkRiC-ET9cH2xk","Bharat Petroleum, Petrol Pump -Raja S/Station","Main Gate, Durgapur","23.5651823","87.2488468","true"
"ChIJ9XsVC79t9zkRnoyGZzPIQyU","Jio BP Filling Station","H77P+CHW, Prantika, Michael Sarani, Bhiringi, A-Zone, Durgapur","23.5636008","87.2864417",""
"ChIJlW-EOQBt9zkRBl8S4eFcMhA","Reliance petrol pump","Fine Arts Club, Tagore Avenue, Tagore Place, A-Zone, Durgapur","23.5636067","87.28644299999999",""
"ChIJG1UvSABt9zkR6cPoT5-48Zs","Mini petrol pump (Afjol fuel centre)","125, SN Banerjee Road, Rishi Aurobindo Nagar, Durgapur","23.5744549","87.275976",""
"ChIJXQy6m11x9zkRsjlPTE-oUWk","Bharat Petroleum, Petrol Pump -Super Filling Station","Kabiguru Sarani, SAIL Co-operative, City Center, Durgapur","23.5474437","87.31094900000001","true"
"ChIJXyHxaT9t9zkRHWxuw8V7sGM","Hindustan Petroleum Corporation Limited","Ground Floor, Gopalmath, Andal Gram","23.57311099999999","87.23811099999999","true"
"ChIJM1-KFDhx9zkRrLPMhl9iHfA","Indianoil-Adani Gas Pvt Ltd CNG Station","G8W6+XCM, Kabiguru Sarani, City Center, Durgapur","23.5474657","87.31104599999999",""
"ChIJnylAqeJx9zkRrqh5h0UDwV4","Hindustan Petroleum Corporation Limited","Ground Floor Bhagatsingh, Chowk, Kabiguru Sarani, Durgapur","23.5494585","87.31193329999999","true"
"ChIJhSh8E_Bx9zkRo933qKC6lJg","Oil Co Service centre","G8X7+JGW, Jawahar Lal Nehru Road, City Center, Durgapur","23.5491062","87.31383199999999","true"
"ChIJfdDsr9Nt9zkRVXth39WBFKs","Vai Vai Petrol service","AMRAI JABUNA ROAD, 3, Durgapur","23.5874497","87.260224",""
"ChIJkd3-6_5t9zkRujHUpt7Afdg","S. S. FUEL SERVICE (Gov. Reg.) এস এস ফুয়েল সা্রবিস -পেটোল পাম্প","Raghunathpur, Durgapur","23.5804682","87.2971626","true"
"ChIJJerjNRFu9zkRr2kl3AA3SWE","Anjali Filling Station","H888+CFX, Sarath Chandra Avenue, B-Zone, Durgapur","23.5661017","87.3162266",""
"ChIJHR2JdUJt9zkR-tJUFjPpmVc","Bharat Petroleum, Petrol Pump -Saikat Automobile","ANDAL ON NH-2 LHS TOWARDS, BARDHAMAN","23.5826482","87.22352629999999","true"
"ChIJsXNP2m9t9zkROWfjQyvj1Xs","IndianOil","No 3056, Lr Khatian, Plot No 5126 5127 & 5128, Andal","23.58317","87.22317","true"
"ChIJe926TnJl9zkRwMoRO-3IiMY","Rajat Store","Akandara More, Road, More, Akandara","23.5719824","87.3874104",""
"ChIJFYXrRCJv9zkRlvjC_7d0u2M","Hindustan Petroleum Corporation Limited","Ground Floor, Parulia","23.5990236","87.3200226","true"
"ChIJ_xPBGQBv9zkRg6l-3IC3pM0","Chatterjee Filling Centre","H9V8+958, Dhabani","23.5937289","87.3653975",""
"ChIJb4O9BDll9zkRrYwnVJkJnvo","IndianOil","Ground Floor Shivpur Road, Kanksa, Malandighi, Durgapur","23.566881","87.40386199999999","true"
"ChIJ76sFhjxl9zkRwuy9l5P3ops","Essar Oil, Durgapur","Durgapur","23.5699175","87.4087411","true"
"ChIJoWxhu8p79zkR9AccwCCiLDk","IndianOil","Domra","23.5256875","87.45531249999999","true"
"ChIJo3EYbkd79zkRilJ1o6PGii4","Bharat Petroleum, Petrol Pump -Balaji S/Station","DOMRA,SH-5,BURDWAN DIST, BARDHAMAN","23.5277332","87.455646","true"
"ChIJB9YFs1N79zkRa9GQ0gU94D4","IndianOil","Ground Floor, Kanksa, Panagarh Moregram Expressway, Domra, Bidhannagar, Durgapur","23.530941","87.45819499999999","true"
"ChIJ862rXl979zkR0rul6K8x3-w","Hindustan Petroleum Corporation Limited","Ground Floor, near Panagarh, Illambazar Road, Trilokchandpur, Domra","23.5334238","87.45996679999999","true"
"ChIJEU-LY1ls9zkRtWqlQenCoD8","IndianOil","Ground Floor, Hattala, Icchapur, Laodoha","23.61213","87.266621","true"
"ChIJN26DIuIS9zkRcE-CaduzSyE","IndianOil","Ground Floor, Bhadur Gram, NH 2, Andal","23.593966","87.196739","true"
"ChIJOz9mZVls9zkRth5Fsjaz-84","Laxmi Narayan Pump","J768+VFX, Ichapur","23.6122418","87.2662198",""
"ChIJl7OJgExt9zkRcTevxPH-ry0","IndianOil","45, 64, Plot No 44, 65, Tamla Road, Andal","23.5982884","87.2293955","true"
"ChIJRZ-vYABt9zkRf9EHchnZRD4","TEWARY PETROL PUMP","J7QG+H2, Sorpi","23.6388799","87.2750835","true"
"ChIJf7TnK40T9zkRO7fbeK0Ol68","Manish Automobiles","Indianoil petrol pump, DakshinKhand","23.6110394","87.2178797","true"
"ChIJq7ACzzMT9zkRkztJ2bJwVXU","IndianOil","Ground Floor Dakshin Khanda, Andal","23.611049","87.21746499999999","true"
"ChIJcSXgfXVr9zkRPUPSq0wJ4bw","IndianOil","Plot No 1686/3770/P, Ukhra","23.6468596","87.2604459","true"
"ChIJSakIaKJr9zkRb9ILn0dNkYI","B M Fuel Station","J7W6+W49, Pandaveswar Road, Ukhra","23.6472963","87.2603515","true"
"ChIJZQxbI1ET9zkR1zboW48LtGQ","Dakshin khanda Mini Petrol pump","Dakshin khanda, kalibari more Paschim","23.6179736","87.21750349999999","true"
"ChIJaTR-Zatt9zkRhmxR8C_N1rQ","Hindustan Petroleum Corporation Limited","Ground Floor, near Masjid, Andal","23.6288865","87.2226979","true"
"ChIJT6CiXsdr9zkRnGO7zTiedB8","SUNRISE SERVICE STATION সানরাইজ সার‌ভিস স্টেশন Petrol Pump","J7XG+FGG, Sarpi","23.6486875","87.2763281","true"
"ChIJ14lAFcAT9zkRy7LR6KR8PwE","Fast Food Corner","ANDAL MORE, Hospital Rd, Grand Trunk Road, Durgapur","23.5873238","87.2112369",""
"ChIJS4dAHdwS9zkR9r0RsStNuHM","Bharat Petroleum","India","23.5894246","87.2063893",""
"ChIJ81LYHNwS9zkRanavB3MNVhU","National Highway service station","Andal","23.5893194","87.2064106","true"
"ChIJy9UAGTlr9zkROcguvzJJ9nM","IndianOil","Lock No 12015 Rtkm 64, Ukhra, Balijuri","23.652859","87.23612299999999","true"
"ChIJvT3W0d0S9zkRw8gkn7w8bN4","LPG Supplier (BP)","H6Q3+FMR, Dighnala, Andal","23.58873629999999","87.2041471",""
"ChIJWRhiEdJr9zkRZpBY6r57-Fk","Hindustan Petroleum Corporation Limited","Ground Floor, Khandra, Ukhra","23.6521778","87.2326508","true"
"ChIJ6c4Mcf4T9zkR0JLYyb1sOcA","Reliance Petroleum","National Highway 19, Andal","23.5943082","87.19535069999999",""
"ChIJ9XA8N41v9zkRk6L7NfxUjcs","Tara Maa Enterprises","J96C+C29, Unnamed Road, Kataberia","23.6110329","87.37012089999999",""
"ChIJux9GH2Nv9zkR2QOkFUAyVak","Essar maintenance Workshop","J96H+R7V, Chak Bishnupur","23.6121223","87.37816049999999","true"
"ChIJlajcd6xp9zkRfs7B89SONhY","IndianOil","Ground Floor, Jamgara, Faridpur, Madhaiganj","23.65243","87.336163","true"
"ChIJ7R1DucZl9zkRhmgVjhSYGvA","IndianOil","Ground Floor, Durgapur- Bamunara- Arra- Malandighi- Shibpur- Joydev Kenduli- Khagra Road, Bidhannagar, Shibpur","23.627522","87.406554","true"
"ChIJeeTUA5Bm9zkRpeYH5D3BrNw","Petrol Pump","Tikarbeta","23.659175","87.4308277","true"