place_id,name,address,latitude,longitude,open_now
"ChIJRRt6lxV5AjoRQHJf9CYl7-o","Bartala Pertol Pump","G7V8+4G2, SA Farooquie Road, Bartala, Metiabruz, Kolkata","22.5427681","88.2662505","true"
"ChIJGT-xzJ1hUjoR2U22DdQNjGA","IndianOil","Budge Budge Trunk Road, Sarkarpool, Gopalpur","22.5152863","88.2890261","true"
"ChIJu3qzbIR5AjoRkgamnjHk12I","IndianOil","opposite Nature Park, Plate No D/832, Taratala Road, Makalhati, Kolkata","22.522939","88.290745","true"
"ChIJ8YwhW455AjoRhbccDFgsYrs","IndianOil","Plot No D/167, Sonarpur Road, Paharpur, Kolkata","22.524888","88.29830109999999","true"
"ChIJgQjykZd5AjoR1nlC1xZdjio","Bharat Petroleum Petrol Pump, BP Garden Reach","KPT,CIRCLR GARDENREACH RD,, Kolkata","22.5377427","88.29527069999999","true"
"ChIJvc93X-d4AjoRiozv5EKtKbs","IndianOil","Ground Floor, mouri, Panchpara, Andul, Radhadasi","22.57020009999999","88.26580009999999","true"
"ChIJFZdMwx96AjoRuUqtkfitZsQ","Spice Gas","G884+6GR, 14, Taratala Road, CPT Colony, Taratala, Kolkata","22.5148564","88.3059719","true"
"ChIJi6dO5vJ5AjoRHV9TO2roNBw","Hindustan Petroleum Corporation Limited","Ground Floor, Hide Road, Kolkata","22.525161","88.306201","true"
"ChIJUwMru1R4AjoRNquLf2FxoNs","Hindustan Petroleum Corporation Limited","15, Andul Road, Howrah","22.564121","88.288821","true"
"ChIJv_eUxm16AjoRBORnf-OuUgg","IndianOil","No 122/A3, Diamond Harbour Road, Sanjib Pally, Behala, Kolkata","22.4865761","88.3113588","true"
"ChIJUTNai1p5AjoRK9SacvcHFew","KEROSENE OIL SHOP","Dakhin, Kankhuli, Kolkata","22.5244101","88.2570217",""
"ChIJXSbtXOR7AjoRWjdEYnpWSpQ","IBP Petrol Pump","Budge Budge Trunk Road, Gauripur, Maheshtala","22.507267","88.25880409999999",""
"ChIJdceSDDl8AjoR7baMGZOGDgo","Suporna filling station BPCL Petrol Pump","F6W9+3WF, opp. ESI Hospital, Parbangla, Budge Budge, Maheshtala","22.4951984","88.2197893","true"
"ChIJ9f7LJ-t7AjoRQqVhFkTltqw","HP Petrol Pump - Central Service Station","27, Jatindra Mohan Avenue Road, Sova Bazar, Darjipara, Maheshtala","22.492176","88.263018","true"
"ChIJt_6OnTd8AjoRMBeWDHwSdlo","Hindustan Petroleum Corporation Limited","Ground Floor, Budge Budge Trunk Road, Maheshtala","22.4937327","88.2162072","true"
"ChIJbc_bDr97AjoRCJne2WR4xJ8","IndianOil","80, Ho Chi Minh Sarani, Sarsuna, Kolkata","22.48941","88.26837","true"
"ChIJJRj4oUp8AjoRQ46RCXZI7TA","Hindustan Petroleum Corporation Limited","Ground Floor, Road, Sarangabad, Budge Budge, Kolkata","22.4903983","88.2083429","true"
"ChIJk7ZAdCB5AjoRONMcPZIi03A","Bharat Petroleum, Petrol Pump -Gill Service Station","Z.3/151, DR. A.K. ROAD, RAJABAGAN, Badartala, Kolkata","22.5529019","88.2601201","true"
"ChIJeyi_qrd9AjoRxU0O_RwwHQQ","K.C Paul Service Station","58, 1, Ashutosh Mukherjee Road, Shyampur, Budge Budge, Maheshtala","22.4878213","88.19994679999999","true"
"ChIJb4q75XV5AjoRBwvA4x0XOKs","Sakina Service Station","S.N, Satyen Bose Road, Panchpara, Howrah","22.5657742","88.2552283",""
"ChIJ5TJQ8Xl5AjoR2HsqPddPkOY","IndianOil","No 1/14, Regent Park, Azadgarh, Paharpur, Kolkata","22.5360961","88.2960216","true"
"ChIJiytiGgB5AjoRxeo5zO6IuP0","NSD","G321, Garden Reach Road, Alif Nagar, Ramnagar Lane Basti, Garden Reach, Kolkata","22.54481999999999","88.29213",""
"ChIJI_nlq056AjoR67ezhtjkm04","IndianOil","545, Ho Chi Minh Sarani, New Shakuntala Park, Kolkata","22.485439","88.29045099999999","true"
"ChIJkQD0DIB5AjoRezsdAyaf2TA","Bharat Petroleum, Petrol Pump -Md. Sharif Service Station","GARDEN REACH ROAD,KOLKATA, Kolkata","22.5474888","88.2913688","true"
"ChIJhQLnGxZ5AjoRc3tecagW65Q","HPCL Ramnagar Terminal","G7RW+H68, Netaji Subhas Dock, Garden Reach, Kolkata","22.5414102","88.2955688",""
"ChIJx2I1F715AjoROEurWa084kg","Hindustan Petroleum Corporation Limited","1, Hari Mohan Ghosh Road, Kolkata","22.541521","88.296201","true"
"ChIJhzaAFc15AjoR8QryN_HHvJM","Hindustan Petroleum Corporation Limited","E1/1, Garden Reach Road, Kolkata","22.546024","88.29469759999999","true"
"ChIJYdskIvN5AjoR6eLvCutvxck","28.No Petrol Pump","63-77, Garden Reach Road, Ramnagar Kumar Para Basti, Garden Reach, Kolkata","22.5459538","88.2947444","true"
"ChIJbbwz8v17AjoREbG0T2mErpg","Surbhi BPCL Petrolpump","7, Ho Chi Minh Sarani, Sarsuna, Kolkata","22.485042","88.293185","true"
"ChIJf6NfeQB5AjoRt146zqFwGfQ","Loading gate","H7C7+FWW, Duillya, Howrah","22.5712482","88.2648143",""
"ChIJ6xRfrTd5AjoRCz0gJfaQYuQ","Hindustan Petroleum Corporation Limited","Jl No 37, 1008 & 1010, Plot No 1007, Andul Road, Panchpara, Sankrail, Howrah","22.573032","88.263346","true"
"ChIJ90OIZPV5AjoRp3QcX7WlV0o","IndianOil","16, Taratala Road, Taratala, Kolkata","22.516106","88.306007","true"
"ChIJMeroHt14AjoRudFkZkRYZuk","HP Petrol Pump Adhoc Shroff Brothers Mourigram","H79C+33H, Panchpara, Andul Road, Panchpara, Mourigram, Howrah","22.5735246","88.26330349999999","true"
"ChIJCfysW5N9AjoRayu08DIes0M","Mundial Export Import Finame Pvt Ltd","F5QJ+RW9, Joychandipur, Budge Budge, Kolkata","22.4895349","88.1823635","true"
"ChIJ963HCpR9AjoRdSZPJPWZW9g","RADHARANI FILLING STATION","165, Mahatma Gandhi Road, Budge Budge, Kolkata","22.4862323","88.1830227","true"
"ChIJDd9mwOx5AjoRXqSOd96sXKQ","Sibaprasad Jana","4th Bye Lane, Mourigram, Howrah","22.5645513","88.284815",""
"ChIJq2hO5LV7AjoRTSNDwgnFaUk","Indane Gas Godown (Cooking Gas)","F7JW+3WF, Badam Tala, Sarsuna, Kolkata","22.480187","88.297291","false"
"ChIJscNSjup5AjoRPNTtU404vEs","Hindustan Petroleum Corporation Limited","No 3, Nimak Mahal Road, Khidirpur, Kolkata","22.538299","88.3064293","true"
"ChIJIxoD1ZN9AjoRL0-yvjUXb7A","BPCL Budge Budge Installation","No 04, near KPT Gate, 2, Graham Road, Budge Budge, Kolkata","22.4845752","88.18052399999999","true"
"ChIJk4G7IOp5AjoRih6ZF2t65Ws","Hide Road Petrol Pump","94, Garden Reach Road, BNR South Colony, Khidirpur, Kolkata","22.5379364","88.30937349999999",""
"ChIJb0Hmg5Z5AjoRMAx7Mk-idsM","Mini World","2, Andul Road, Andul Mauri, Andul, Howrah","22.5835945","88.249265",""
"ChIJuVExpDV_AjoRhtI89kz98g0","Hindustan Petroleum Corporation Limited","Ground Floor, Andul Road, Duillya, Howrah","22.584351","88.24326099999999","true"
"ChIJb-bZOwB_AjoRGJ96lYGFstY","Andol bus stop, HP petrol pump","H6MV+W77, Andul Road, Andul Bus Stop, Kamrangu, Duillya, Howrah","22.58470329999999","88.2431233",""
"ChIJx-7_1bF5AjoRXoLvIUWPdnk","Indian Oil Petrol Pump","G8Q6+6HM, Dumayne Avenue, Tikiapara, Garden Reach, Kolkata","22.5379556","88.3113965","true"
"ChIJzXDodQCHAjoRjrDfgPd1yKQ","Bappa oil services","G548+XXH, Bauria Railway Level Crossing, Chakmadhu, Bauria, Howrah","22.5074332","88.1674965",""
"ChIJEcXZ7zd_AjoRjQfDzx-aTUs","SADHUKHAN BROTHERS","Andul Road, Andul Mauri, Andul, Mahiari","22.585521","88.2370286","true"
"ChIJa11gYQx_AjoR4WPn8TIph50","IndianOil","Ground Floor, NH 6, Korela, Alampur","22.5828757","88.2125894","true"
"ChIJj3U59wx_AjoRRB3kyPQjSYE","Alampur Service Station","Andul, Alampur","22.583485","88.2137671","true"
"ChIJ2549DFt3AjoRd1P0v8oKJXk","Hindustan Petroleum Corporation Limited","8/1, Alipore Road, Alipore, Kolkata","22.532311","88.33166100000001","true"
"ChIJMfWzA1l3AjoRe7D0L65mVIk","Bharat Petroleum Ladies COCO Pump Alipore","3, Alipore Road, Alipore, Kolkata","22.5293592","88.33179109999999","true"
"ChIJGXlk8D53AjoRSu5WyW8L1Ts","Hindustan Petroleum Corporation Limited","No 1C, Ashutosh Mukherjee Road, Kolkata","22.5373045","88.3466395","true"
"ChIJ67JWQ-d5AjoRwWtaqUGyt80","Hindustan Petroleum Corporation Limited","No 77B, 43, Garden Reach Road, Kolkata","22.54412899999999","88.31329199999999","true"
"ChIJk1U7fAB6AjoRSGz96pqq__Y","IndianOil","No 39, B Block, New Alipore, Kolkata","22.51318719999999","88.3236347","true"
"ChIJ6QVyoxd3AjoRQJbPiTCFJ9Y","IndianOil","12B, Camac Street, Kolkata","22.54196349999999","88.35150379999999","true"
"ChIJUyk_ae9wAjoRh8LzbPX33wc","Hindustan Petroleum Corporation Limited","No 1, Netaji Subhas, Netaji Subhash Chandra Bose Road, Tollygunge, Kolkata","22.492391","88.345491","true"
"ChIJueElZM1wAjoRtXXInwwQKHI","Hindustan Petroleum Corporation Limited","21, Sarat Bose Road, Kolkata","22.513741","88.35280100000001","true"
"ChIJ6eBOGa5wAjoRoDE0sNEX4kw","New Alipore Petrol Pump - HP","P-540, Tollygunge Circular Road, Block N, New Alipore, Kolkata","22.5088218","88.333333","true"
"ChIJwac1AxR3AjoRN19msjfCScY","IndianOil","46/1 Chowringhee Road, Elgin Road, Kolkata","22.54529699999999","88.34798119999999","true"
"ChIJfQv_8AB6AjoRa0kJFAKSj7g","Hindustan Petroleum Corporation Limited","Plot No 46, Block C, New Alipore, Kolkata","22.512301","88.322301","true"
"ChIJ5SO2W0t3AjoRc5ug4P9lJ3E","IndianOil","CGR Road, opposite Dumayune Avenue, Plot No A70, Chetla Central Road, Kolkata","22.5167716","88.3390452","true"
"ChIJ00qAA1l3AjoRK6qGKQGeFvU","IndianOil","58, Diamond Harbour Road, Mominpore, Kolkata","22.5313484","88.32661039999999","true"
"ChIJA4F7dFJ3AjoRTej2ZqZUYRM","IndianOil","18, Chetla Hat Road, Alipore, Kolkata","22.5202235","88.3335328","true"
"ChIJ1wGt--Z5AjoR5wC_Ia7s0bI","IndianOil","Plate No D, 709, Dock Eastern Boundary Road, Khidirpur, Kolkata","22.538174","88.31719199999999","true"
"ChIJozQoXed5AjoRMM2qdEO6sck","Bharat Petroleum","99, Karl Marx Sarani Road, Andaman Dock, Khidirpur, Kolkata","22.5389054","88.3183093","true"
"ChIJjfY-g0V3AjoR5vEEgG9eHQ0","IndianOil","7, Belvedere Road, Alipore, Kolkata","22.528481","88.3363801","true"
"ChIJrVauS0N3AjoRfNVRKhWtIRU","IndianOil","No 34, 1, Belvedere Road, Alipore, Kolkata","22.53484","88.333839","true"
"ChIJzeRq-7lwAjoREgg7mmoBAzg","Bharat Petroleum cng","No.36, Tollygunge Circular Road, Tollygunge Phari, Ajoy Nagar, Block O, Behala, Kolkata","22.5036635","88.3387413","true"
"ChIJc9lgHzR3AjoRW73Pk-vBNhw","Hindustan Petroleum Corporation Limited","77, Shyama Prasad Mukherjee Road, Kolkata","22.521421","88.34713099999999","true"
"ChIJKYeENDt3AjoRg1pEtrEwv0Q","Hindustan Petroleum Corporation Limited","72/1A, Sarat Bose Road, Kolkata","22.528871","88.352921","true"
"ChIJ3REGLspwAjoRHfU3T9_ekyY","Bharat Petroleum, Petrol Pump","India","22.5262697","88.3462155","true"
"ChIJ3WtqUT93AjoR6ASwN8URTBk","Bharat Petroleum, Petrol Pump -Harish Motors","HARISH MUKHERJEE RD., KOLK, Kolkata","22.534473","88.3437718","true"
"ChIJoQ7JYDJ3AjoRoXOuFe6AFd0","Car-Fil","170, Sarat Bose Road, Manoharpukur, Ballygunge, Kolkata","22.5164926","88.3526831","true"
"ChIJCRcif81wAjoRa7ZWsL2Agow","Hindustan Petroleum Corporation Limited","99, Southern Avenue, Kolkata","22.513361","88.352851","true"
"ChIJz2ES8T53AjoR_2Tc8xv6Dx0","United Service Station","1C, Ashutosh Mukherjee Road, Bhowanipore, Kolkata","22.537695","88.3468223","true"
"ChIJ82A9IzJ3AjoRFmio2fxCUJU","Bharat Petroleum Petrol Pump","22A, Sarat Bose Road, Hazra, Bhowanipore, Kolkata","22.5246599","88.3526146",""
"ChIJE9TJPxZ3AjoRfSeM1Cfzmnw","Hindustan Petroleum Corporation Limited","236, Acharya Jagdish Chandra Bose Road, Kolkata","22.541081","88.349571","true"
"ChIJ1yIv3SJ3AjoRz3vZi-bPVtg","IndianOil","No 15/1 Elgin Road, Sarat Bose Road, Bhowanipore, Kolkata","22.537596","88.354057","true"
"ChIJ-ZevciR3AjoRpoIFN4V7E3w","Hindustan Petroleum Corporation Limited","19, Ballygunge Circular Road, Kolkata","22.533261","88.356661","true"
"ChIJYU-tlCN3AjoR-kdKKSU_LP8","Hindustan Petroleum Corporation Limited","13, Ballygunge Circular Road, Kolkata","22.535331","88.356741","true"
"ChIJKyVlLdR2AjoRazGA4rBAQjU","IndianOil","No 14/9A Gariahat Road, Ballygunge, Gariahat, Kolkata","22.521512","88.365291","true"
"ChIJa2WU9iF3AjoRdjrryWxPPlo","Hindustan Petroleum Corporation Limited","opp. Bank of India, 1B, Ballygunge Circular Road, Ballygunge, Kolkata","22.538911","88.35833099999999","true"
"ChIJky2IjydxAjoReVNbd7Odhb8","IndianOil","No 377/B, Prince Anwar Shah Road, Jadavpur, Jodhpur Park, Kolkata","22.5022639","88.3630058","true"
"ChIJNazYsB53AjoRf1eh87LqHis","Bharat Petroleum","G9V5+X9C, Sarojini Naidu Sarani, Mullick Bazar, Park Street area, Kolkata","22.54493","88.358387","true"
"ChIJt6Godht3AjoRTSndzw3QQcg","Hindustan Petroleum Corporation Limited","69, Park Street, Kolkata","22.551411","88.35416099999999","true"
"ChIJa9HlVh53AjoRvdI7h-XWNvg","T & S Station","208/1A, 208, Acharya Jagdish Chandra Bose Road, Hobdypur, Elgin, Kolkata","22.5435622","88.3600982","true"
"ChIJhex19g93AjoR4fTfM3AloCg","IndianOil","No 57, Taltala, Kolkata","22.553003","88.353073","true"
"ChIJGTHVf4x6AjoRAxKej-ARMms","Hindustan Petroleum Corporation Limited","Ground Floor, Diamond Harbour Road, Thakurpukur, Kolkata","22.462021","88.307261","true"
"ChIJs0S1GPtwAjoRxuGW9HwTko8","IndianOil","Indian Oil Petrol Pump-Gachtala, 178, Netaji Subhash Chandra Bose Road, Netaji Nagar, Kolkata","22.4788135","88.3556878","true"
"ChIJr3verj53AjoRLWlUkVyh2LQ","Bharat Petroleum, Petrol Pump","Syed Amir Ali Avenue, Lower Range, Beck Bagan, Ballygunge, Kolkata","22.5427588","88.3662883","true"
"ChIJ59sZF6J3AjoRcPeSrOOu0IE","Hindustan Petroleum","Hindustan Petroleum Retail Regional Office (2nd Floor), 6, Church Lane, Kolkata","22.570225","88.3447076","true"
"ChIJLbra0AB3AjoRg6GIMc_SWEQ","Bharat Petroleum","H965+G9Q, Surendra Nath Banerjee Rd, Rani Rashmoni Road, Wellington, Taltala, Kolkata","22.5613355","88.358486","true"
"ChIJ9RgYsqh3AjoRZPzxgHJu7Co","Central Services","3 & 5, Ganesh Chandra Avenue,, Kolkata","22.568523","88.352651","true"
"ChIJ64X5Jvx2AjoRGizedc7NOlc","IndianOil","160, Acharya Jagdish Chandra Bose Road, Maula Ali, Bowbazar, Kolkata","22.55801599999999","88.366013","true"
"ChIJCahR8TVxAjoRZXzS4TUwimM","IndianOil","2, Kasba Road, Kolkata","22.5114936","88.3819366","true"
"ChIJT4ASrqh3AjoRh1oTMSIcjeE","Bharat Petroleum","2, Ganesh Chandra Avenue, Bara Bazar, Bowbazar, Kolkata","22.5694513","88.3537875","true"
"ChIJF_-8TOV2AjoRif_RxnmakCI","Bharat Petroleum Petrol Pump","120, CIT Road, Paddapukur, Entally, Kolkata","22.552089","88.37177","true"
"ChIJOz6EL_l2AjoRvSO7qJmy-8Y","IndianOil","P9, Doctor Suresh Sarkar Road, Scheme 4, Maula Ali, Raja Bazar, Kolkata","22.5604338","88.3681656","true"
"ChIJSdySCrF3AjoRMR2ogWwAx3Q","Petrol Pump","H9F3+P56, India Exchange Place Road, Chitpur, Barabazar Market, Kolkata","22.5742931","88.352904",""
"ChIJiVZkCFVxAjoRcMp1be5iLFo","Fuel point- Bharat petroleum","46, Rash Behari Avenue, Sector C, Kasba, Kolkata","22.5138095","88.3999584","true"
"ChIJA3U0ylh2AjoR9g8oN6ExopA","Lakshman Trading Co","Beleghata Main Road, Subhas Sarobar Park, Phool Bagan, Beleghata, Kolkata","22.5625096","88.3980888","true"
"ChIJH_l42EVxAjoRCipokOfOimE","IndianOil","Prince Anwar Shah Road, Naskar Para, Garfa, Kolkata","22.502481","88.386871","true"
"ChIJg6h0G1pxAjoRyoxZFz1jdag","Bharat Petroleum Petrol Pump","G93W+GG5, Prince Anwar Shah Road, Shrihari Pally, North Purbachal, Haltu, Kolkata","22.5037697","88.39636650000001",""
"ChIJaZIH0Ox2AjoRFMOOZqqL2C0","IndianOil","No 37, 1, Christopher Road, Seal Lane, Tangra, Kolkata","22.548599","88.381699","true"
"ChIJXbdF3wpxAjoRJ7iipaktxbI","IndianOil","No 970 & 971, Baroda Avenue, Connector, Baishnabghata, Patuli, Kolkata","22.471603","88.381203","true"
"ChIJaZL-Fw5xAjoR-oWbKpgY-EE","IndianOil","3, Gouranga Mandir Road, Kolkata","22.479843","88.376106","true"
"ChIJOR-ihwlxAjoR-lqPAd5xJHY","Bharat Petroleum Pump- Digbijoy Energy","Raja Subodh Chandra Mullick Rd 45 No. More, Baishnabghata, Dskshin Raipur, Baishnabghata Patuli Township, Kolkata","22.4711192","88.3771821","true"
"ChIJ5a-TFn12AjoRH2Ntuux9_as","Hindustan Petroleum Corporation Limited","No 9, 1/1A, Surah East Road, Beleghata, Kolkata","22.566051","88.39298099999999","true"
"ChIJYx6GO6JxAjoRbzE919HXbqQ","IndianOil","Ground Floor, Garia, Kolkata","22.461884","88.38054699999999","true"
"ChIJtfNXPqJxAjoRCM-vdOgQc6s","Hindustan Petroleum Corporation Limited","Ground Floor, Mathurapur Rd, Garia, Diamond Harbour","22.4616901","88.380901","true"
"ChIJyW5Qknt2AjoR1D4RSh_8jGc","Bharat Petroleum Fuel Station","S, 73, 1, Narkeldanga Main Road, Subhas Sarobar Park, Phool Bagan, Beleghata, Kolkata","22.5710201","88.3953066","true"
"ChIJC-xhwUV2AjoRIMNW91an8Qs","Bharat Gas","H9HF+FGG, Acharya Prafulla Chandra Road, Rajabazar, Garpar, Machuabazar, Kolkata","22.5786873","88.37383679999999","true"
"ChIJlfAnrm92AjoRzhdyUpQe6wk","Bharat Petroleum, Kankurgachi","P, 327, CIT Road, Scheme VI-M, Kankurgachi, Kolkata","22.578695","88.3900275","true"
"ChIJT7WCOF1_AjoRNpamjdbk2Xc","Hindustan Petroleum Corporation Limited","Ground Floor, NH 6, Mahiari","22.599201","88.2278601","true"
"ChIJ21NPsG1_AjoRBONoeSWKlvU","IndianOil","Lock No 516, NH 6, Biparnna Para, Jangalpur","22.5900351","88.2187953","true"
"ChIJEdzt5Kh4AjoRu-S58bmFB5A","Hindustan Petroleum Corporation Limited","Ground Floor, NH 6, Kolkata - Mumbai Highway, Domjur, Nibra","22.6067701","88.2537301","true"
"ChIJW2ZMsfJ4AjoRVSYG8r64hkI","Hindustan Petroleum Corporation Limited","No 01, Unsani, Moukhali, GIP Colony, Jagacha, Howrah","22.5863911","88.276215","true"
"ChIJZ_dcuu6B-DkRfftIaVqCnXo","IndianOil","Lock No 439, Domjur, Baluhati","22.6268105","88.2321552","true"
"ChIJ1RdxSNCB-DkRQyk3KNurfvM","IndianOil","Ground Floor, Domjur Begri Road, Domjur, Howrah","22.619078","88.21314199999999","true"
"ChIJ0yCO_rOB-DkRX5V8DdKWoos","IndianOil","Ground Floor South Japardah, Motijheel, Domjur, Baluhati","22.640005","88.21171009999999","true"
"ChIJi05zLbOB-DkRW3eJ34A3VxE","Hindustan Petroleum Corporation Limited","Ground Floor, Dakshin, Domjur, Jhapardah","22.642021","88.207291","true"
"ChIJ17S6hniAAjoRMUKSHrGbw70","IndianOil","Lock I 468 NH 6, Mouri, Andul, Howrah","22.5703728","88.1678316","true"
"ChIJ0Sfu7-qC-DkRX5wAMvxucqs","IndianOil","Ground Floor, NH 6, Bombay Road, Chamrail, Howrah","22.631577","88.300722","true"
"ChIJQb8WgVB_AjoRs1Xak9V_Vac","IndianOil","Ground Floor, Ankurhati Road, Andul, Howrah","22.6016254","88.2365041","true"
"ChIJVYpPMzV_AjoRs-3Jfh_Lrm8","Gill Service Station Bharat Petroleum petrol pump â›½","NH 6, Jangalpur","22.5940461","88.22354109999999","true"
"ChIJc4jAa6l4AjoRC53ofa8FKR4","IndianOil","J64W+9R3, Ground Floor Andul, Mouri, Prasastha, Domjur, Ankurhati, Howrah","22.605813","88.247009","true"
"ChIJ-xVxgwt5AjoRwu35wFp6izQ","IndianOil","Unsani, On, Kona Expressway, Howrah","22.59407939999999","88.263464","true"
"ChIJ7_pEUNV_AjoRS6y8df3yZ0o","IndianOil","Ground Floor NH 6, New Korola, Mouri, Andul, Howrah","22.581258","88.204382","true"
"ChIJm8haNAB5AjoRHAeqaIkA9Pg","Bharat Petroleum, Petrol Pump -Atulanand S/S","SALAP, HOWRAH, Howrah","22.6110415","88.2684312","true"
"ChIJNc-Wk_CB-DkRWla373PeS9k","Hindustan Petroleum Corporation Limited","Ground Floor, Domjur, Makardah, Howrah","22.623421","88.239671","true"
"ChIJ03HqRReD-DkRUwrSf2fvD3U","BGCL LCNG cum Mother Station, Salap More","J76C+P5F, Salap, Howrah","22.61180539999999","88.2704342",""
"ChIJ0aaq5rp_AjoRnGvElkEA8Cw","Hindustan Petroleum Corporation Limited","Ground Floor, NH 6, Kolkata - Mumbai Highway, New Korolla, Howrah","22.5765601","88.19591009999999","true"
"ChIJa5-Mg_9_AjoRJ36BlviD_30","IndianOil","Lock No 1009 Dhulagarh, mouri, Andul, Howrah","22.573661","88.19209699999999","true"
"ChIJrcIoQ6R5AjoRqjHVwjs8ZfU","Hindustan Petroleum Corporation Limited","Dag No 1085, Amta Road, Dasnagar, Balitikuri, Howrah","22.6058454","88.2896641","true"
"ChIJbX2lrpJ5AjoRGJOpdY7fa2Y","Kumar Shop","Dashnagar, Balitikuri, Howrah","22.610594","88.2874843",""
"ChIJd0GGHw5_AjoRVqQDBjAyuIE","IndianOil","Ground Floor Mallikpara, Panchla, Andul, Jujarsaha","22.5786145","88.18846099999999","true"
"ChIJz7pUqGd_AjoR0jkK4s0oJ6M","Bharat Petroleum, Petrol Pump -Raibarielly Service Station","DHULAGORI,NH-6, Howrah","22.5750983","88.188189","true"
"ChIJ7UlcW5OB-DkROCwWDGrqkME","Maa Annapurna Service Station","South Jhapordah, Garbagan, Domjur, Howrah","22.6323969","88.2144101",""
"ChIJ72N1gsh_AjoR6NMVEvPBKzk","IndianOil","Jaladhulagori Toll Plaza, Lock No 539 NH 6, Andul Mouri Road, Howrah","22.57375499999999","88.184803","true"
"ChIJaTL7P3F4AjoR2jEmhwLdszo","Total Oil Depot - C.O.D. - Das Enterprise","J73X+99R, Howrah Amta Road, Balitikuri, Howrah","22.6034787","88.2983768",""
"ChIJSRDPZEh4AjoRp-wbvBTEX_s","Aparna Energy Station","H8F2+QX3, KONA EXP. II, Chatterjihat, Shibpur, Howrah","22.5744149","88.302447","true"
"ChIJ4ZOBtRiD-DkRKi-QNG8hmT0","IndianOil","Lock No I/485, NH 6, Pakuria - Laxmanpur Road, Howrah","22.6236858","88.2896713","true"
"ChIJjyB9VWN_AjoR7T-WDnmQrlI","Bharat Petroleum, Petrol Pump -Bhambra Auto Centre","JALADHULAGORI,HOWRAH, Howrah","22.5740138","88.1793618","true"
"ChIJFcFG-nJ4AjoRsFlzNLipgjc","IndianOil","Makardah Road, Balitikuri, Amta","22.601564","88.302498","true"
"ChIJGTm8aUh4AjoRA5_YOh7S2qg","IndianOil","Plot No 28, Kona Expressway, Jagacha, Chatterjihat, Shibpur, Howrah","22.5738286","88.30307049999999","true"
"ChIJb9nSOY-C-DkRhfjACc3F1hY","IndianOil","Ground Floor NH 6, Kona, Chamrail, Howrah","22.6240673","88.2906393","true"
"ChIJCcAjXj54AjoRL8qM-ejtXSk","IndianOil","Doctor Bholanath Chakraborty Sarani, Bantra, Shibpur, Howrah","22.5844487","88.30811279999999","true"
"ChIJRStpO-yD-DkRkFgcFzp-NH4","Hindustan Petroleum Corporation Limited","Ground Floor, Liluah, Chamrail, Eksara","22.627325","88.291949","true"
"ChIJO3IZdhJ4AjoRl_78o_Ihrz4","Hindustan Petroleum Corporation Limited","Ground Floor, Dasnagar, Howrah","22.5990854","88.3078839","true"
"ChIJi8fy1DV4AjoRk3eQht-ZmXU","Bharat Petroleum, Petrol Pump -Harisadhan Service Station","31/1SHAIKPARA LANE SHIBPUR, Howrah","22.5689594","88.3068421","true"
"ChIJ1ejIBCqB-DkRBpfrbFf-QpI","Quadink Media","Hp Petrol Pump, opposite Domjur, Howrah - Amta Road, Domjur, Howrah","22.64280399999999","88.2074382","true"
"ChIJZ8setmh5AjoRy2HwkwoxT9U","Karunamoyee Service (BPCL)","159, Andul Road, Area, Shalimar, Howrah","22.5621843","88.3053436","true"
"ChIJe4xIpvt3AjoRaOXiBqF9TQ8","Bharat Petroleum - Balaji Enterprise","94, Benaras Road, Bamangachi, Salkia, Howrah","22.6029966","88.33102889999999","true"
"ChIJP2KxXR94AjoRLPAI4RqJeBE","Hindustan Petroleum Corporation Limited","No 126/2, Narasinha Dutt Road, Howrah","22.5878101","88.3201201","true"
"ChIJTZ2D9cF3AjoRhljtTw8WvWI","IndianOil","No 135/2, Road, Salkia, Howrah","22.59338730000001","88.34423249999999","true"
"ChIJx8BKArh3AjoRrBnAEf33U98","Posta Petrol Pump","207, Maharshi Debendra Road, Jorabagan, Kolkata","22.58725","88.3528043",""
"ChIJvzCmQrF3AjoRKxzN-JV9AY0","Hindustan Petroleum Corporation Limited","116B, Rabindra Sarani, Bara Bazar, Kolkata","22.580241","88.35720099999999","true"
"ChIJpVpFpzN2AjoRcJmPbVjETPo","Bharat Petroleum, Petrol Pump -B D Auto Corner","62, Jatindra Mohan Avenue, Ward Number 10, Kolkata","22.595603","88.36527","true"
"ChIJLxnC6TV2AjoR1x30qMpTQNA","Hindustan Petroleum Corporation Limited","17, Abhedananda Road, Kolkata","22.589131","88.366861","true"
"ChIJgWP8ZjJ2AjoRCDRtHRz5o1g","Hindustan Petroleum Corporation Limited","69, Jatindra Mohan Avenue, Bankura","22.598391","88.365641","true"
"ChIJi0pH4DN2AjoRA1al7hH7cao","The Bengal Petroleum Company","65, Sri Arvind Sarani, Kolkata","22.5950398","88.3675347",""
"ChIJ21MbKDd2AjoRkBbXd4TqSRw","IndianOil","151, Bidhan Sarani Road, Hati Bagan, Shobhabazar, Kolkata","22.5933047","88.37030349999999","true"
"ChIJU5spNy52AjoRa90qR16JHek","Super Avenue Service Station","Shyambazar Metro, 80/1, Bhupendra Bose Avenue, Station Gate 4, Kolkata","22.600708","88.3696182","true"
"ChIJa6ihMyl2AjoRYy2GxmXW94Y","IndianOil","P - 38, Khirode Bidya Binode Avenue, Baghbazar, Kolkata","22.6058454","88.36925389999999","true"
"ChIJnVxuTEV2AjoRIXj0vVZZONU","IndianOil","120/2, Acharya Prafulla Chandra Road, Machuabazar, Kolkata","22.5834643","88.3742357","true"
"ChIJA5lvUEZ2AjoRbOdPFHL9_FU","Hindustan Petroleum - Manicktola Service Station","near IndianOil, 120/2, Acharya Prafulla Chandra Road, Manicktala, Goa Bagan, Machuabazar, Kolkata","22.5842788","88.374386",""
"ChIJP4PZjTB2AjoRxIlIhPyALeY","Bharat Petroleum Pump Manasa Sree Autocrafts","182, Acharya Prafulla Chandra Road, Fariapukur, Shyam Bazar, Kolkata","22.5990909","88.37424279999999","true"
"ChIJKwipmiV2AjoRQsfpJLOfX5Y","IndianOil","122, Bidhan Sarani Road, Shyambazar, Baghbazar, Bankura","22.603439","88.373161","true"
"ChIJ37Kz2Dp2AjoRE8a5oWQeoJE","HP PETROL PUMP - M. M. BISWAS","229, Acharya Prafulla Chandra Road, Shyambazar, Fariapukur, Kolkata","22.5984829","88.3747717","true"
"ChIJDYF-Bjt2AjoRjXaO0zQG_oc","Hindustan Petroleum Corporation Limited","1, Ultadanga, Kolkata","22.5972193","88.3754534","true"
"ChIJnz7OGd2C-DkRecHl-0VY5t4","IndianOil","Ground Floor, NH 6, Jaipurbill, Liluah, Anandanagar","22.648166","88.3060982","true"
"ChIJ8e6Qm-d1AjoRszmhN8MSEfQ","IndianOil","No DD/29, Salt Lake Bypass, Sector 1, Kolkata","22.58909","88.409218","true"
"ChIJARglf3J2AjoRYHTia2GePn0","IndianOil","CIT Scheme 7/M, 91A, Bagmari Road, Ghose Bagan, Kolkata","22.584852","88.392067","true"
"ChIJYepCGBae-DkRL2OQ91G2ZMg","Hindustan Petroleum Corporation Limited","Ground Floor 470, 1 Jessore Road, Kolkata","22.611511","88.409301","true"
"ChIJG3WY2f91AjoRo_dCPb9aIMs","IndianOil","281, Jessore Road, Lake Town, Kolkata","22.609879","88.401772","true"
"ChIJyVNIkxx2AjoRQphZ7ZbQxlM","Gopal Auto Service","Belgachia Road,Dutta Bagan, 38/D/H, Khudiram Bose Road, Tala, MIG Housing, Kolkata","22.6074222","88.39026129999999","true"
"ChIJq_ZdNoqd-DkREq4gTB3VlPo","Bharat Petrol Pump","61, Barrackpore Trunk Road, Rishi, Paikpara, Kolkata","22.6143474","88.3785199",""
"ChIJxeCMnIud-DkRL4y_1FRfshU","Hindustan Petroleum Corporation Limited","59B, Barrackpore Trunk Road, Kolkata","22.616791","88.37954099999999","true"
"ChIJhQQSXZKd-DkRgb77Kb5-MnE","Gujral Service Station and Pollution Testing Center","beside Rabindrabharti University, Barrackpore Trunk Road, Kolkata","22.625399","88.3789","true"
"ChIJTQl6FZqd-DkRSx7scAKdL6Q","IndianOil","36B, Cossipore Road, Satchasi Para, Kolkata","22.62817799999999","88.37140699999999","true"
"ChIJJ0YTB7B1AjoR21g9tlrvnw8","Hindustan Petroleum Corporation Limited","No DN/60, Sector V, Bidhannagar, Kolkata","22.5763878","88.4302947","true"
"ChIJoSi2VGCd-DkRYoKGtn3bUZM","Bharat Petroleum, Petrol Pump -Amar Service Station","Barrackpore Trunk Road, Sinthi More, Kolkata","22.6337109","88.37807099999999","true"
"ChIJIw3dGRae-DkR9sN2ih3Xur0","Bharat Petroleum","JCH9+6P7, Vivekananda Road, Girish Park, Golpark, Dum Dum, North Dumdum","22.6280406","88.4193099",""
"ChIJ4_GXcLmd-DkRdcXrB-wA-d8","IndianOil","101/2A, Barrackpore Trunk Road, Baranagar, Kolkata","22.643871","88.37820099999999","true"
"ChIJoRCWUPqD-DkR_tEII-QoCC4","IndianOil","Ground Floor Kalachara, Mahesh 1, Serampore, Chanditala","22.6972001","88.2539001","true"
"ChIJtbITcheD-DkRFuAxll9NO5I","Hindustan Petroleum Corporation Limited","Ground Floor, NH 2, Durgapur Expressway, Dankuni","22.6716987","88.30133699999999","true"
"ChIJLbUZ-3CD-DkRz8KAhwvLMTU","Hindustan Petroleum Corporation Limited","Ground Floor, NH 2, Durgapur Expressway, Dankuni","22.6917689","88.291815","true"
"ChIJOwzq8I6B-DkRCpkA-Gux-q4","Amiya Travels","13, no. Rail Gate, Allikhoja, Mogra","22.6735452","88.2272952",""
"ChIJU0si9qyD-DkRn0H0-nl_qgA","IndianOil","Ground Floor Baigachi, Jagadishpur, Howrah","22.6613395","88.2785787","true"
"ChIJQROPCgCD-DkRGdfrsfm-Q3c","Annapurna Service Station","Baigachi, Jagadishpur, Howrah","22.6621614","88.2786417","true"
"ChIJl9YweayD-DkRZunjsQvCZeM","G.S. Engineering","M76J+P27, Bhaighachi, Jagadishpur, Howrah","22.6617972","88.2800338",""
"ChIJKe5TBmuB-DkRBulrbyka6dE","Bharat Petroleum Petrol Pump (HALDAR SERVICE STATION)","P.O - SOUTH JHAPORDAH, P.S - DOMJURON, Amta Road, DIST, Howrah","22.6437","88.20349999999999","true"
"ChIJUVFkRJOD-DkRHIsMah0hiqM","Chandimata Auto Service","M7Q8+HHP, Kalipur Garal Gacha Chanditala Near Auto Palace, Station Pally, Dankuni,Hooghly","22.688964","88.266448","true"
"ChIJOa3MopeD-DkRAPmpa1ZBUwU","IndianOil","Ground Floor Ahalyabai Road, Kalipur, Garalgacha","22.684361","88.27402599999999","true"
"ChIJbWqhF4yD-DkROXy8X9CXTA8","IndianOil","Ground Floor, SH 15, Chanditala","22.6945316","88.25872489999999","true"
"ChIJP7PQhKKB-DkRD1Ono5vf2TA","BHARAT PETROLEUM PUMP","M6Q6+X8, Ramanathpur","22.689987","88.2107523",""
"ChIJ-dSlzrKG-DkRFf6iTLaWHDI","IndianOil","Ground Floor, Ahilyabai Holkar Road, Chanditala","22.705954","88.234901","true"
"ChIJrei-pNiH-DkR6BrvyvaQaD8","Bharat Petroleum Petrol Pump , APNA GHAR","KOTULPUR-ARAMBAG ROADOLD, Benaras Road","22.7063","88.2325","true"
"ChIJDWIntCGD-DkR6vTtjdR5K98","Akash filling station","M7GW+7HW, Dankuni","22.6757457","88.296463","true"
"ChIJp76Kz3-H-DkR8xKZLUPyE24","Hindustan Petroleum Corporation Limited","Ground Floor, SH 15, Janai","22.7112293","88.2277948","true"
"ChIJA46DOQCD-DkR6h86NB5B5cc","Dankuni fill-ni centre","NH19, Monoharpur, Gobra, Dankuni","22.6920768","88.2910141","true"
"ChIJ298jfnGD-DkR9AA-8KZ5ows","Dankuni Fill In Centre","Ground Floor, NH 2, Durgapur Expressway, Dankuni","22.6919546","88.29131919999999","true"
"ChIJzfwCJf2D-DkRpxCqe6-jxtY","Morcha Pump Dankuni","M7RR+RM5, Monoharpur, Gobra, Dankuni","22.6920014","88.29174359999999",""
"ChIJB8d7BSCD-DkRz3p9qM1NJ4E","Iocl","J8P3+Q32, Grand Trunk Road, Chamrail, Howrah","22.6368822","88.3026366",""
"ChIJA0PG5BSD-DkRKsMSkb1WcBA","IndianOil","Ground Floor, Delhi Road, Dankuni","22.680571","88.3018201","true"
"ChIJMUo9VvGH-DkRTC5iHWc-uZ8","Hindustan Petroleum Corporation Limited","Ground Floor, SH 15, Baksha","22.7155647","88.22248139999999","true"
"ChIJUeO1JNaD-DkRp0_VBgehIYg","PRADIP","Belanagar, Howrah","22.6696704","88.3066953",""
"ChIJTYriPkqF-DkRGoO-VSITJsM","Krishna Bhavan","Unnamed Road, Chikrand","22.71601060000001","88.2615125",""
"ChIJBeziJgCF-DkR8r5Sn3ZZTIU","TATA GENUINE DEF STATION","toll plaza, Durgapur Expressway, Gobra, Dankuni","22.7062724","88.2851508","true"
"ChIJr8FnoWWD-DkRyJeyyqnu2_0","IndianOil","Ground Floor, Delhi Road, Chakundi, Pardankuni","22.69591","88.297234","true"
"ChIJU6OzLgCD-DkRJ5CZJN5I0T4","TATA. AD BLUE DEF (URIA)","M8P3+HF3, Housing Estate Colony, Dankuni","22.6863056","88.30391519999999",""
"ChIJu-aCggR_AjoRHTz4b6DEngQ","Ankur Filling Station","J65V+7W8, Ankur Filling Station HP Petrol Pump Retail Outlet Ankurhati Battala near Axis Bank Ankurhati Branch, PO-Salap, PS, Domjur, Howrah","22.6081538","88.2448137",""
"ChIJ7Zw8Camd-DkRq3FUxCpgpxY","Onkar Service","58, BARANAGAR, KOLKATA","22.651363","88.36550989999999","true"
"ChIJh_fQIY-c-DkR798F4iOHhDg","Bharat Petroleum Dharsa Petrol Pump","Hindmotor, Konnagar","22.6922277","88.3566973","true"
"ChIJ3cgDUrGd-DkR43xGfu54wmM","IndianOil","near Dunlop, No 200B T Road Ashokgarh, near Dunlop, More, Kolkata","22.6526914","88.3771165","true"
"ChIJp_xFd0yc-DkR98uhguhtggM","Hindustan Petroleum Corporation Limited","16, BT Road, Belghoria, Kolkata","22.663171","88.377101","true"
"ChIJlSCkOk-c-DkRCCgfZzkPgVI","IndianOil","M98H+RV8, 30/2, Barrackpore Trunk Road, Kamarhati, Belghoria, Kolkata","22.6691306","88.37667859999999","true"
"ChIJRW00kmed-DkRZZwWaNGzGTs","Shyamol petrol shop","M82H+52F, Nischind, Madhyapara, Bally, Howrah","22.6504328","88.32754039999999","true"
"ChIJsbYMjoad-DkRHzqSOzQfpis","IndianOil","Ground Floor, NH 2, Bypass Delhi Road, Bally, Howrah","22.653051","88.32951399999999","true"
"ChIJXxg4ydqc-DkRnJHg85yc7nw","Hindustan Petroleum Corporation Limited","Ground Floor, near Birla More, Makhla","22.6700978","88.33516089999999","true"
"ChIJRchZXgCd-DkRGOllfCyXV-Q","Joypur Bill","J8GH+5P3, Liluah, Howrah","22.6253823","88.329307",""
"ChIJWz9GTBKd-DkRZ6slOOAswfs","Badamtalla Petrol Pump","Grand Trunk Road, Belur, Bally, Howrah","22.6392855","88.3508717","true"
"ChIJETWu4Jid-DkRL0tEiwK5iP8","Md Company Pvt Ltd","130/C, Grand Trunk Road, Liluah, Howrah","22.6307717","88.34788669999999",""
"ChIJvbi6_u2c-DkR74fTIGQHVEg","Hindustan Petroleum Corporation Limited","Ground Floor, near Bhadrakali High School, ST Road, Bhadrakali, Hooghly","22.677401","88.352901","true"
"ChIJ88u9aG-d-DkRLmFYIvGSOUM","Sur Petrol Pump","286, 1, Grand Trunk Road, Belur, Liluah, Howrah","22.6247166","88.3499113","true"
"ChIJZ2zj0S6d-DkRgNL3f1_K2KQ","Hindustan Petroleum Corporation Limited","Old No 44, No 286/1, 1, Grand Trunk Road, Liluah, Howrah","22.6247201","88.3500601","true"
"ChIJV9ILRWad-DkR25PpGBT_o5c","Bengal Pump Factory","J8CW+FM7, Liluah, Howrah","22.6211722","88.3466657",""
"ChIJP0vPA_53AjoRh6uaFuqGUPo","Raha Gas Oil Service","India","22.6109801","88.3284292",""
"ChIJr2RAcZKd-DkROpd4rjpQUrs","Arush Service Centre","83, Naity Road, Chakraborty Nagar, Hooghly","22.7021251","88.33039289999999",""
"ChIJczrcfQB5AjoRs2t9BdUKXTc","Mahadev Talab Temple","37/2, Diamond Harbour Road, Majherhat, Mominpore, Kolkata","22.6076202","88.32340429999999",""
"ChIJ8zcA352E-DkRyiuRLmYFnW0","Hindustan Petroleum Corporation Limited","Ground Floor, Primary School, near Bhadua, Delhi Road, Mollaber Village, Hooghly","22.70804009999999","88.2995301","true"
"ChIJm0rBWACF-DkRp06SgWVv9uI","Bharat Petroleum","P852+FCQ, Chakundi, Konnagar, Satghara","22.708628","88.30098",""
"ChIJNe-6Uzmd-DkRsf9kkT0FvHA","IndianOil","No 7/2/A, 1, Vivekananda Rd, U B Colony, Jorasanko, Baranagar","22.651476","88.368645","true"
"ChIJL0Cbpmed-DkRbif68cFxQ3A","Bharat Kanta","J9C3+CP2, HK Chatterjee Lane, Bhot Bagan, Belur Math, Howrah","22.62100539999999","88.3542542",""
"ChIJT7I-NwJ4AjoRqjyYhuGCAZM","Bhabani Petrol Pump","P/61, Benaras Road, Belgachia, Liluah, Howrah","22.6039341","88.3220066","true"
"ChIJ60yzbACF-DkRc3Wx-t2z8kY","Petrol Pump","P862+7MQ, Delhi Road, Rishra, Simla","22.7107091","88.30174029999999",""
"ChIJL_W-yWGd-DkR4tjO15GuFvc","Hindustan Petroleum Corporation Limited","212, Grand Trunk Road, Salkia, Howrah","22.6127701","88.3461801","true"
"ChIJwUVjunN3AjoRdxeM7CaweiI","IndianOil","No 68, Varanasi Road, Belgachia, Liluah, Howrah","22.603426","88.325188","true"
"ChIJydD2S0-e-DkR-yHYGKFpxlo","IndianOil","Gate No 1, near Airport, No 30, Jessore Road, Bankura","22.6414416","88.4309498","true"
"ChIJ02Q7s0ie-DkRfShsh7k5Jo0","Bharat Petroleum Corporation Ltd Neoti Highway Service","1 no. airport, National Highway 12, Dum Dum, Kolkata","22.6423705","88.43165809999999","true"
"ChIJH_MZfKqf-DkR6I5CToseKTQ","Indian Oil","MC5V+R6V, Madhusudan Banerjee Road, Majumder Pada, Motilal Colony, Dum Dum, North Dumdum","22.6596036","88.4430555",""
"ChIJR4BjXQGf-DkR-q965KjStcE","IndianOil","Ground Floor, NH 34, Gouripur Road, Birati, Kolkata","22.665588","88.443965","true"
"ChIJ1elkpByf-DkRYcOpY6v1cuA","HP Petrol Pump - Giani Service Station","NEW Jessore Road, Michel Nagar, Kolkata","22.673014","88.444805","true"
"ChIJPZ4Mt9ee-DkRWrf7roow9lk","IndianOil","Ground Floor, Sajirhat Jugberia Madhyamgram, Sodepur Road, New Barrakpur","22.6980072","88.43909599999999","true"
"ChIJJ9I6r7Sd-DkRxTukgyvmnmA","Renaissance Auto LPG Private Limited","M95H+J5R, Beehive Garden, Belghoria, Kolkata","22.65910329999999","88.3778882",""
"ChIJJbA3Ocud-DkRQ_32pJFolUE","Hindustan Petroleum Corporation Limited","201, Barrackpore Trunk Road, Kolkata","22.652321","88.37771099999999","true"
"ChIJ26BvSrGd-DkRJjLO9Ywuc_Q","Dunlop Filling Station","M93G+3RP, Barrackpore Trunk Road, Dunlop, Bonhooghly Government Colony, Kolkata","22.6527185","88.37706709999999",""
"ChIJPdr8YIyd-DkRzFaVJ25lL6A","Dunlop Petrol Pump","201, State Highway 1, Dunlop, Bonhoogly, Bonhooghly Government Colony, Baranagar","22.6518304","88.3769655","true"
"ChIJX8IsM7Kd-DkRsN2gjmEaH90","Hindustan Petroleum Corporation Limited","131, Barrackpore Trunk Road, Baranagar, Kolkata","22.65127099999999","88.377731","true"
"ChIJeScOSsOd-DkRCr_rRJQnvhs","Dunlop HP Petrol Pump","131/9, Barrackpore Trunk Road, Dunlop, Saket Nagar, Bonhooghly Government Colony, Ariadaha, Baranagar","22.6510736","88.3777842","true"
"ChIJ9X2Kae-d-DkRgq8Ib3qeIKE","Bharat Petroleum, Petrol Pump -Belghoria S/Stn","Barrackpore Trunk Road, Belghoria, Kolkata","22.6648821","88.37692849999999","true"
"ChIJHW3q8J2d-DkREY5RvCuA5Lc","Suraj Store","39, Ghola Road, Nandan Nagar, Belghoria, Kolkata","22.6653422","88.393101",""
"ChIJ_0Ayc16d-DkRICcMgrrNFVA","IndianOil","239, Barrackpore Trunk Road, Baranagar","22.640622","88.377729","true"
"ChIJL_kYioKd-DkRLGd_mZpI6c4","Fine Oil","Fine Tark Road, Murshidabad","22.676444","88.37629629999999",""
"ChIJUVQeI6Kd-DkRk8DAYLZ-4m0","HP Fuel Pump","133 & 134, Barrackpore Trunk Road, Baranagar, Kolkata","22.637132","88.36815999999999",""
"ChIJ1ZieoLud-DkRWVuOY6fAbuE","energy point","277/2, Barrackpore Trunk Road, Kolkata","22.6335036","88.37802669999999",""
"ChIJownxgSSd-DkRU1HftCVvSPg","Bharat Petroleum, Petrol Pump -Swampurna Energy Station","Gopal Lal Tagore Road, Baranagar, Kolkata","22.6335642","88.3713047","true"
"ChIJtzx49rOd-DkRAPFPFCnWppY","Midland Oil Company","165, Barrackpore Trunk Road, Satchasi Para, Baranagar","22.6304615","88.3785783",""
"ChIJO2vaDZSd-DkRYpe0edm_owo","Hindustan Petroleum Corporation Limited","No 47/1, Barrackpore Trunk Road, Kolkata","22.630201","88.378281","true"
"ChIJO_hB-I-d-DkRtNUDCoBqxK4","IndianOil","33/2, Barrackpore Trunk Road, Satchasi Para, Kolkata","22.6235325","88.3786354","true"
"ChIJCffOBgWd-DkRqv_DGmrf_Ds","Hindustan Petroleum Corporation Limited","No 95/1/3A, Cossipore Road, Kolkata","22.6237133","88.3732679","true"
"ChIJi_eEEUCd-DkRDMdVOD_nRiw","CESC power distribution Panihati","M9RF+9XH, Panihati, Khardaha","22.6909341","88.3749867",""
"ChIJE5A5IwCf-DkRcqkDTEt5mYo","Petrol pump","toto stand, Uttar pratapgarh, Kalyani Expressway, Fatullahpur, Nimta, North Dumdum","22.6741685","88.41371819999999",""
"ChIJY5dNFwCf-DkRXl-2HEy7x8Y","Bharat petroleum Nimta (Shree Sai service station)","MCF7+RFV, Fatullahpur, Nimta, North Dumdum","22.674614","88.413562","true"
"ChIJr7r4PgCd-DkRA8Qwnj72uIk","Mallikpur","7MJCJ99J+W7X4, Sobji Bagan, Ward Number 2, Kolkata","22.6199397","88.3807415",""
"ChIJw4t_o9Sd-DkRp-ZoK-VCHSg","HPCL Cossipore COD","J99G+V8V, Cossipore, Kolkata","22.6197396","88.3757947",""