place_id,name,address,latitude,longitude,open_now
"ChIJL13L-OV95DkR3qtU3y0qmFo","IndianOil","Garalbari","26.4308522","88.7013569","true"
"ChIJKWoP0ux85DkRZUuzen5n4bc","IndianOil","Bahadur","26.48370659999999","88.65972599999999","true"
"ChIJ73JaQdBj5DkR8AkpufhCQYQ","মুসাফা নার্সারী","CJ9G+44Q","26.4178413","88.6253732",""
"ChIJmcX688F95DkRuSzvmM5CaLg","IndianOil","Ground Floor Charakdangi, Bahadur","26.494001","88.64590009999999","true"
"ChIJbVkCpzh95DkRiZS6d5VuDYk","IndianOil","Ground Floor, Total Para, Brajapur, Dhapganj","26.48174","88.70828999999999","true"
"ChIJoVvvI8h_5DkRpxFcTbs7iPM","Sipai Para Petrol Pump","CP78+J2F, Garalbari","26.4140555","88.71505259999999",""
"ChIJ8XqLGYZ_5DkR4elqUvAD_iE","IndianOil","Ground Floor, Sipaipara Kharija Beribari, Bara Haldibari P","26.4143001","88.71560009999999","true"
"ChIJRTzEF6R_5DkR3ErktKC6gc8","Chatterjee Fuel Station","Haldibari Road, Jalpaiguri","26.5004049","88.7138774","true"
"ChIJIcDUTAB_5DkR6yAb-jSpc78","MondalGhat petrol pump ⛽","CQQ3+VQ3, Station Road, Banshkanthia","26.4396417","88.75442939999999",""
"ChIJH97_9veB5DkRw0m552sfd74","IndianOil","Ground Floor, Kotwali, Kharija Berubari","26.395542","88.747581","true"
"ChIJB3lRyiKB5DkR5L9byP4rlIc","Param Shanti K.S.K","Jalpaiguri","26.39493419999999","88.7468438",""
"ChIJqS3ULZt55DkRX6Z85l7SO5Q","IndianOil","Kh Lr 11221123&1124, Jl 7, Plot Lr Kharia, Banarhat","26.510469","88.71815099999999","true"
"ChIJa4fQELd55DkRrhSK7tZwQ2g","Tulshi and Shukla enterprise petrol pump","Pandapara Road, Jalpaiguri","26.5111769","88.71836069999999","true"
"ChIJ-T80ZgCB4zkR_mw3sFbUJ8w","Indian Oil (Rajarhat Petrol Pump)","FRCC+RV, Penchahahi","26.4720211","88.82213209999999",""
"ChIJw5TMIgCB4zkR0ld9P9cF1p8","Garib Nawaz kishan seva kendra Rajarhat","FRFC+HRW, Penchahahi","26.4739753","88.82208899999999",""
"ChIJLR2y3niB4zkR3usqiW3Uz8Q","IndianOil","Ground Floor Helapakri, Baikur Gourgram","26.440281","88.85739099999999","true"
"ChIJbfURbVOB4zkRaPwr7Nd86Io","Tirupati Baba","Helapakri, NOPE","26.4398122","88.8574014",""
"ChIJ-7Ao1n2B4zkROt08ikQcGnk","IndianOil","Ground Floor, Bhotepatti, Mainaguri,Bakali, Maynaguri","26.468001","88.8626001","true"
"ChIJlz2IVmWB4zkRdbnzWL0ClmU","Hindustan Petroleum Corporation Limited","Ground Floor, SH 12A, Bara Kamat, Jalpaiguri","26.4972308","88.84206499999999","true"
"ChIJ5b3cUSV75DkRcPyxASjujJI","IndianOil","Ground Floor, Patkata, Raninagar, Jalpaiguri","26.536181","88.64813099999999","true"
"ChIJWQlwcPF75DkR-4U29uXNpqc","IndianOil","Ground Floor, 73, More, Nayapara","26.5162001","88.697001","true"
"ChIJM6KcEUR55DkRVV889-tyQaA","IndianOil","Ground Floor, DVC Road, Rt 94Km, Banarhat","26.525001","88.7244001","true"
"ChIJf9EFtJ155DkRUV7gRKRJENg","Paharpur Bharat Petroleum Petrol Pump","HP5F+5HG, Paharpur","26.5579375","88.7239531","true"
"ChIJ8QkUzGx75DkRTbusk1kptrs","Nandy Automobiles","Haldibari More, Jalpaiguri","26.5346422","88.6623975",""
"ChIJC-bDsb575DkRJPmtn2bIoDM","Shivaco Associates LPG Bottling Plant","GJQX+CX2, Raninagar, Jalpaiguri","26.5385117","88.64988579999999",""
"ChIJq_Cw7TB75DkRZHBE0va5FAM","IndianOil - SWAGAT","Industrial Growth Centre, beside Raninagar CocaCola Factory, Raninagar, Belacoba","26.5389743","88.641806","true"
"ChIJB7N8bqd75DkR9lqZrtNzQgo","IndianOil","Khatian Lr 1222, JL 7, Plot No Lr 179 Kharia, Kotwali, Debnagar, Jalpaiguri","26.5142257","88.70063590000001","true"
"ChIJzTZwzZd75DkRTGCkctAEzU0","Reliance Petroleum","Ground Floor, Pangabattala, Karjeepara, Kotwali, Raningr, NH, 31D, Jalpaiguri","26.5409177","88.63103180000002","true"
"ChIJrTMGXRB75DkRQn27TxKnl9c","Mousumi","patkata colony, Jalpaiguri","26.5214579","88.7195567",""
"ChIJo0dFNUV55DkRoeeFw9OPzCQ","IndianOil","Station Road, Nutan Para, Jalpaiguri","26.52135969999999","88.7205424","true"
"ChIJi_TMGgBj5DkRE8_GfGGBD5E","BPCL Bani service station","FJX3+9R, Satkhamar","26.498485","88.604615",""
"ChIJZW7JyUN55DkRr_UVfiQp_lE","K.S. & Company (S Kumars) - SCHOOL, COLLEGE AND ALL TYPES OF UNIFORM SHOP","Backside of LMB, Besides GlassHouse, Dinbazar Road, Jalpaiguri","26.52833979999999","88.7241667","true"
"ChIJ7ZbbQ1J55DkRk5FwFTYiJRY","Bharat Petroleum Petrol Pump","Thana Road, Jalpaiguri","26.5248347","88.7260914",""
"ChIJDyjd1nVl5DkR3kMzrd5AAeg","Bharat Petroleum, Mohuya Service Station","National Highway 27, Doshdorga","26.5476298","88.60643549999999","true"
"ChIJmVFH_xF75DkRpFyCv3H9MR4","BGPL Gail pipeline sv-14","HP84+VC, Paharpur","26.567153","88.706062",""
"ChIJkaEZ6qVl5DkRuT-Xbd8uVPI","IndianOil","Ground Floor, Belacoba","26.5506537","88.5974248","true"
"ChIJo1dDc3975DkR9GKTI8aEsnk","IndianOil","Ground Floor Nowapara, Denguajhar, Jalpaiguri","26.5780085","88.7015491","true"
"ChIJ45hR4aF55DkR7_STvhWZuVo","Bharat Petroleum","HP6J+34H, Jalpa, Highway, Jalpaiguri","26.5601149","88.7304303","true"
"ChIJWYqp03OH4zkR4PGJGep4JIo","Bharat Petroleum","GRW3+X46, State Highway 12A, Madhabdanga","26.5474048","88.8027762",""
"ChIJq6qqqiZ75DkRWZJ7Nt7CY-o","IndianOil","Patkata, Nh 31D, Raninagar, Jalpaiguri","26.5593267","88.73061419999999","true"
"ChIJd05pgg955DkRX8aNvd1Bckg","IndianOil","near Teesta Bridge, Ground Floor Approach Road, Paharpur, Banarhat, near Teesta Bridge, Jalpaiguri","26.55934899999999","88.730616","true"
"ChIJ-5tHq3Na2jsRYc5yf8I83Wg","Indian Oil","Ground Floor, Badaitari, Barnish, Maynaguri","26.5415515","88.7921956","true"
"ChIJn0FxPwqH4zkRlP60b3aPP88","Bharat Petroleum Sainath Fuel Station","HR36+P7X, Uttar Madhabdanga","26.5543625","88.8107441","true"
"ChIJl9w00q2H4zkRNlqZP9Iflbc","IndianOil","Ground Floor, Maynaguri","26.5630035","88.81919429999999","true"
"ChIJ8xBL0q2H4zkRjW8BvsE1Raw","Bharat Petroleum","HR8C+3QW, Puraton Bazar, Maynaguri","26.5652493","88.821955","true"
"ChIJfVCHbCOH4zkRB5N3NiFM-GM","Bharat Petroleum, Petrol Pump -Mousumi Serivce Station","MATHABHANGA, COOCHBEHAR","26.548607","88.805968","true"
"ChIJ8xlFLgCH4zkRBOn3GfFXpzM","Jio-bp Mobility Station (Jio Petrol Pump)","GRCR+Q8W, Uttar Bhuskadanga","26.521442","88.8415811",""
"ChIJg1yGe9mH4zkR8WygiJvPzQE","IndianOil","Ground Floor, Madhabdanga- Mainaguri Road, Maynaguri","26.548087","88.820004","true"
"ChIJQ6x0Kr-H4zkR8iy3zTCcjyU","Bharat Petroleum","GR7V+32G, Dakshin Bhuskadanga","26.5122021","88.8425551","true"
"ChIJ-UPrJwCH4zkRRZUzrbsNgbQ","MAYNAMATA FUEL STATION HP PUMP","Uttar Madhabdanga","26.5497537","88.8206257","true"
"ChIJiV58kF2G4zkRX2M9v6B7LTc","IndianOil","Ground Floor, Near BD Office, NH-31, Maynaguri","26.564366","88.84482009999999","true"
"ChIJVxXvWHmG4zkRbPSIxgPBuAI","Hindustan Petroleum Corporation Limited","Ground Floor, Jhajhangi, Tekatully, Maynaguri","26.562595","88.855436","true"
"ChIJuR7hZgCH4zkRdBT9a26jECw","CNG PUMP","HV73+3XW, Tekatali","26.5628519","88.8555427",""
"ChIJPTADqHxw5DkRrTpUz2F6Tcc","IndianOil","Ground Floor, Rangdhamali Main Road, Kotwali, Vivekanandapalli","26.6130758","88.6671755","true"
"ChIJx-zQ8oRl5DkRmitTwW5y2Sk","IndianOil","Ground Floor, Prasanna Nagar, Belacoba","26.5941001","88.589001","true"
"ChIJhxIZjANx5DkR943ovf34600","Chowdhury Filling Station","JM53+9PJ, Patkata Colony, Denguajhar, Jalpaiguri","26.6084502","88.6542556","true"
"ChIJ3cZquk1v5DkR4B--0RMn9S4","Chowdhury Filling Station","Rangdhamali Main Road, Natun Basti, Patkata","26.609166","88.62590349999999","true"
"ChIJOUp3RgNv5DkR01baWkRYSXw","IndianOil","Plot No Lr164164, Jl 8, Kh No Lr335, Rajganj, Gujrimari,Belocoba","26.607035","88.60228099999999","true"
"ChIJUUM8mst35DkRa1gdecV_384","IndianOil","Ground Floor, Bagjan, Singimari","26.610605","88.78556600000002","true"