place_id,name,address,latitude,longitude,open_now
"ChIJ2549DFt3AjoRd1P0v8oKJXk","Hindustan Petroleum Corporation Limited","8/1, Alipore Road, Alipore, Kolkata","22.532311","88.33166100000001","true"
"ChIJMfWzA1l3AjoRe7D0L65mVIk","Bharat Petroleum Ladies COCO Pump Alipore","3, Alipore Road, Alipore, Kolkata","22.5293592","88.33179109999999","true"
"ChIJk1U7fAB6AjoRSGz96pqq__Y","IndianOil","No 39, B Block, New Alipore, Kolkata","22.51318719999999","88.3236347","true"
"ChIJ67JWQ-d5AjoRwWtaqUGyt80","Hindustan Petroleum Corporation Limited","No 77B, 43, Garden Reach Road, Kolkata","22.54412899999999","88.31329199999999","true"
"ChIJFZdMwx96AjoRuUqtkfitZsQ","Spice Gas","G884+6GR, 14, Taratala Road, CPT Colony, Taratala, Kolkata","22.5148564","88.3059719","true"
"ChIJGT-xzJ1hUjoR2U22DdQNjGA","IndianOil","Budge Budge Trunk Road, Sarkarpool, Gopalpur","22.5152863","88.2890261","true"
"ChIJu3qzbIR5AjoRkgamnjHk12I","IndianOil","opposite Nature Park, Plate No D/832, Taratala Road, Makalhati, Kolkata","22.522939","88.290745","true"
"ChIJ8YwhW455AjoRhbccDFgsYrs","IndianOil","Plot No D/167, Sonarpur Road, Paharpur, Kolkata","22.524888","88.29830109999999","true"
"ChIJv_eUxm16AjoRBORnf-OuUgg","IndianOil","No 122/A3, Diamond Harbour Road, Sanjib Pally, Behala, Kolkata","22.4865761","88.3113588","true"
"ChIJi6dO5vJ5AjoRHV9TO2roNBw","Hindustan Petroleum Corporation Limited","Ground Floor, Hide Road, Kolkata","22.525161","88.306201","true"
"ChIJfQv_8AB6AjoRa0kJFAKSj7g","Hindustan Petroleum Corporation Limited","Plot No 46, Block C, New Alipore, Kolkata","22.512301","88.322301","true"
"ChIJ6eBOGa5wAjoRoDE0sNEX4kw","New Alipore Petrol Pump - HP","P-540, Tollygunge Circular Road, Block N, New Alipore, Kolkata","22.5088218","88.333333","true"
"ChIJUyk_ae9wAjoRh8LzbPX33wc","Hindustan Petroleum Corporation Limited","No 1, Netaji Subhas, Netaji Subhash Chandra Bose Road, Tollygunge, Kolkata","22.492391","88.345491","true"
"ChIJgQjykZd5AjoR1nlC1xZdjio","Bharat Petroleum Petrol Pump, BP Garden Reach","KPT,CIRCLR GARDENREACH RD,, Kolkata","22.5377427","88.29527069999999","true"
"ChIJA4F7dFJ3AjoRTej2ZqZUYRM","IndianOil","18, Chetla Hat Road, Alipore, Kolkata","22.5202235","88.3335328","true"
"ChIJzeRq-7lwAjoREgg7mmoBAzg","Bharat Petroleum cng","No.36, Tollygunge Circular Road, Tollygunge Phari, Ajoy Nagar, Block O, Behala, Kolkata","22.5036635","88.3387413","true"
"ChIJ1wGt--Z5AjoR5wC_Ia7s0bI","IndianOil","Plate No D, 709, Dock Eastern Boundary Road, Khidirpur, Kolkata","22.538174","88.31719199999999","true"
"ChIJ00qAA1l3AjoRK6qGKQGeFvU","IndianOil","58, Diamond Harbour Road, Mominpore, Kolkata","22.5313484","88.32661039999999","true"
"ChIJGTHVf4x6AjoRAxKej-ARMms","Hindustan Petroleum Corporation Limited","Ground Floor, Diamond Harbour Road, Thakurpukur, Kolkata","22.462021","88.307261","true"
"ChIJozQoXed5AjoRMM2qdEO6sck","Bharat Petroleum","99, Karl Marx Sarani Road, Andaman Dock, Khidirpur, Kolkata","22.5389054","88.3183093","true"
"ChIJ5SO2W0t3AjoRc5ug4P9lJ3E","IndianOil","CGR Road, opposite Dumayune Avenue, Plot No A70, Chetla Central Road, Kolkata","22.5167716","88.3390452","true"
"ChIJjfY-g0V3AjoR5vEEgG9eHQ0","IndianOil","7, Belvedere Road, Alipore, Kolkata","22.528481","88.3363801","true"
"ChIJRRt6lxV5AjoRQHJf9CYl7-o","Bartala Pertol Pump","G7V8+4G2, SA Farooquie Road, Bartala, Metiabruz, Kolkata","22.5427681","88.2662505","true"
"ChIJrVauS0N3AjoRfNVRKhWtIRU","IndianOil","No 34, 1, Belvedere Road, Alipore, Kolkata","22.53484","88.333839","true"
"ChIJc9lgHzR3AjoRW73Pk-vBNhw","Hindustan Petroleum Corporation Limited","77, Shyama Prasad Mukherjee Road, Kolkata","22.521421","88.34713099999999","true"
"ChIJ3REGLspwAjoRHfU3T9_ekyY","Bharat Petroleum, Petrol Pump","India","22.5262697","88.3462155","true"
"ChIJueElZM1wAjoRtXXInwwQKHI","Hindustan Petroleum Corporation Limited","21, Sarat Bose Road, Kolkata","22.513741","88.35280100000001","true"
"ChIJCRcif81wAjoRa7ZWsL2Agow","Hindustan Petroleum Corporation Limited","99, Southern Avenue, Kolkata","22.513361","88.352851","true"
"ChIJ3WtqUT93AjoR6ASwN8URTBk","Bharat Petroleum, Petrol Pump -Harish Motors","HARISH MUKHERJEE RD., KOLK, Kolkata","22.534473","88.3437718","true"
"ChIJoQ7JYDJ3AjoRoXOuFe6AFd0","Car-Fil","170, Sarat Bose Road, Manoharpukur, Ballygunge, Kolkata","22.5164926","88.3526831","true"
"ChIJGXlk8D53AjoRSu5WyW8L1Ts","Hindustan Petroleum Corporation Limited","No 1C, Ashutosh Mukherjee Road, Kolkata","22.5373045","88.3466395","true"
"ChIJ82A9IzJ3AjoRFmio2fxCUJU","Bharat Petroleum Petrol Pump","22A, Sarat Bose Road, Hazra, Bhowanipore, Kolkata","22.5246599","88.3526146",""
"ChIJz2ES8T53AjoR_2Tc8xv6Dx0","United Service Station","1C, Ashutosh Mukherjee Road, Bhowanipore, Kolkata","22.537695","88.3468223","true"
"ChIJKYeENDt3AjoRg1pEtrEwv0Q","Hindustan Petroleum Corporation Limited","72/1A, Sarat Bose Road, Kolkata","22.528871","88.352921","true"
"ChIJs0S1GPtwAjoRxuGW9HwTko8","IndianOil","Indian Oil Petrol Pump-Gachtala, 178, Netaji Subhash Chandra Bose Road, Netaji Nagar, Kolkata","22.4788135","88.3556878","true"
"ChIJUwMru1R4AjoRNquLf2FxoNs","Hindustan Petroleum Corporation Limited","15, Andul Road, Howrah","22.564121","88.288821","true"
"ChIJky2IjydxAjoReVNbd7Odhb8","IndianOil","No 377/B, Prince Anwar Shah Road, Jadavpur, Jodhpur Park, Kolkata","22.5022639","88.3630058","true"
"ChIJE9TJPxZ3AjoRfSeM1Cfzmnw","Hindustan Petroleum Corporation Limited","236, Acharya Jagdish Chandra Bose Road, Kolkata","22.541081","88.349571","true"
"ChIJwac1AxR3AjoRN19msjfCScY","IndianOil","46/1 Chowringhee Road, Elgin Road, Kolkata","22.54529699999999","88.34798119999999","true"
"ChIJ6QVyoxd3AjoRQJbPiTCFJ9Y","IndianOil","12B, Camac Street, Kolkata","22.54196349999999","88.35150379999999","true"
"ChIJ-ZevciR3AjoRpoIFN4V7E3w","Hindustan Petroleum Corporation Limited","19, Ballygunge Circular Road, Kolkata","22.533261","88.356661","true"
"ChIJ1yIv3SJ3AjoRz3vZi-bPVtg","IndianOil","No 15/1 Elgin Road, Sarat Bose Road, Bhowanipore, Kolkata","22.537596","88.354057","true"
"ChIJYU-tlCN3AjoR-kdKKSU_LP8","Hindustan Petroleum Corporation Limited","13, Ballygunge Circular Road, Kolkata","22.535331","88.356741","true"
"ChIJKyVlLdR2AjoRazGA4rBAQjU","IndianOil","No 14/9A Gariahat Road, Ballygunge, Gariahat, Kolkata","22.521512","88.365291","true"
"ChIJa2WU9iF3AjoRdjrryWxPPlo","Hindustan Petroleum Corporation Limited","opp. Bank of India, 1B, Ballygunge Circular Road, Ballygunge, Kolkata","22.538911","88.35833099999999","true"
"ChIJXcMx-Nl6AjoRt47v9utLjO4","Hindustan Petroleum Corporation Limited","Ground Floor, Sarmaster Chowk, Pailanhat, Bishnupur","22.432861","88.289791","true"
"ChIJI_nlq056AjoR67ezhtjkm04","IndianOil","545, Ho Chi Minh Sarani, New Shakuntala Park, Kolkata","22.485439","88.29045099999999","true"
"ChIJ90OIZPV5AjoRp3QcX7WlV0o","IndianOil","16, Taratala Road, Taratala, Kolkata","22.516106","88.306007","true"
"ChIJbbwz8v17AjoREbG0T2mErpg","Surbhi BPCL Petrolpump","7, Ho Chi Minh Sarani, Sarsuna, Kolkata","22.485042","88.293185","true"
"ChIJ6ck3c2x7AjoR3EvVNYEykD8","Bharat Petroleum, Petrol Pump -Anupam","555, Diamond Harbour Road, Behala, Kolkata","22.4973835","88.3173826","true"
"ChIJq2hO5LV7AjoRTSNDwgnFaUk","Indane Gas Godown (Cooking Gas)","F7JW+3WF, Badam Tala, Sarsuna, Kolkata","22.480187","88.297291","false"
"ChIJ98f8v_d7AjoRKvhpGfdeZO0","Vehicle Pollution Certificate","F8Q7+JMH, Jadu Colony, Sarada Pally, Kolkata","22.4890661","88.3142352","true"
"ChIJnfKtgXJ6AjoRcmg24TGiJwA","IndianOil","709/A, Diamond Harbour Road, Behala, Kolkata","22.48918","88.314514","true"
"ChIJ0ZkVNQB7AjoRoVuN0uVVA4c","Behala","G85C+24G, Chowrasta, Behala, Kolkata","22.5075715","88.320342",""
"ChIJb1YREm96AjoRu1RIQM71mLc","Hindustan Petroleum Corporation Limited","94, Diamond Harbour Road, Kolkata","22.482141","88.311461","true"
"ChIJ2VhQ1wZ6AjoRjaEdAfWMZUc","Hindustan Petroleum Corporation Limited","69/1, Diamond Harbour Road, Kolkata","22.509111","88.321311","true"
"ChIJr3wrGwd6AjoR8nvo2kPQkbM","Madhumita Gas Oven Servicing Centre","2, Beltala Road, Behala, Kolkata","22.5076304","88.321939","true"
"ChIJbc_bDr97AjoRCJne2WR4xJ8","IndianOil","80, Ho Chi Minh Sarani, Sarsuna, Kolkata","22.48941","88.26837","true"
"ChIJ6f4P8vR7AjoRU0QCCGY7fAQ","Council Service Station","11, Diamond Harbour Road, Alipore, Kolkata","22.4985996","88.32356589999999",""
"ChIJ9f7LJ-t7AjoRQqVhFkTltqw","HP Petrol Pump - Central Service Station","27, Jatindra Mohan Avenue Road, Sova Bazar, Darjipara, Maheshtala","22.492176","88.263018","true"
"ChIJiVZkCFVxAjoRcMp1be5iLFo","Fuel point- Bharat petroleum","46, Rash Behari Avenue, Sector C, Kasba, Kolkata","22.5138095","88.3999584","true"
"ChIJH_l42EVxAjoRCipokOfOimE","IndianOil","Prince Anwar Shah Road, Naskar Para, Garfa, Kolkata","22.502481","88.386871","true"
"ChIJXbdF3wpxAjoRJ7iipaktxbI","IndianOil","No 970 & 971, Baroda Avenue, Connector, Baishnabghata, Patuli, Kolkata","22.471603","88.381203","true"
"ChIJg6h0G1pxAjoRyoxZFz1jdag","Bharat Petroleum Petrol Pump","G93W+GG5, Prince Anwar Shah Road, Shrihari Pally, North Purbachal, Haltu, Kolkata","22.5037697","88.39636650000001",""
"ChIJCahR8TVxAjoRZXzS4TUwimM","IndianOil","2, Kasba Road, Kolkata","22.5114936","88.3819366","true"
"ChIJaZL-Fw5xAjoR-oWbKpgY-EE","IndianOil","3, Gouranga Mandir Road, Kolkata","22.479843","88.376106","true"
"ChIJOR-ihwlxAjoR-lqPAd5xJHY","Bharat Petroleum Pump- Digbijoy Energy","Raja Subodh Chandra Mullick Rd 45 No. More, Baishnabghata, Dskshin Raipur, Baishnabghata Patuli Township, Kolkata","22.4711192","88.3771821","true"
"ChIJr3verj53AjoRLWlUkVyh2LQ","Bharat Petroleum, Petrol Pump","Syed Amir Ali Avenue, Lower Range, Beck Bagan, Ballygunge, Kolkata","22.5427588","88.3662883","true"
"ChIJa9HlVh53AjoRvdI7h-XWNvg","T & S Station","208/1A, 208, Acharya Jagdish Chandra Bose Road, Hobdypur, Elgin, Kolkata","22.5435622","88.3600982","true"
"ChIJYx6GO6JxAjoRbzE919HXbqQ","IndianOil","Ground Floor, Garia, Kolkata","22.461884","88.38054699999999","true"
"ChIJNazYsB53AjoRf1eh87LqHis","Bharat Petroleum","G9V5+X9C, Sarojini Naidu Sarani, Mullick Bazar, Park Street area, Kolkata","22.54493","88.358387","true"
"ChIJtfNXPqJxAjoRCM-vdOgQc6s","Hindustan Petroleum Corporation Limited","Ground Floor, Mathurapur Rd, Garia, Diamond Harbour","22.4616901","88.380901","true"
"ChIJaZIH0Ox2AjoRFMOOZqqL2C0","IndianOil","No 37, 1, Christopher Road, Seal Lane, Tangra, Kolkata","22.548599","88.381699","true"
"ChIJt6Godht3AjoRTSndzw3QQcg","Hindustan Petroleum Corporation Limited","69, Park Street, Kolkata","22.551411","88.35416099999999","true"
"ChIJF_-8TOV2AjoRif_RxnmakCI","Bharat Petroleum Petrol Pump","120, CIT Road, Paddapukur, Entally, Kolkata","22.552089","88.37177","true"
"ChIJhex19g93AjoR4fTfM3AloCg","IndianOil","No 57, Taltala, Kolkata","22.553003","88.353073","true"
"ChIJ64X5Jvx2AjoRGizedc7NOlc","IndianOil","160, Acharya Jagdish Chandra Bose Road, Maula Ali, Bowbazar, Kolkata","22.55801599999999","88.366013","true"
"ChIJOz6EL_l2AjoRvSO7qJmy-8Y","IndianOil","P9, Doctor Suresh Sarkar Road, Scheme 4, Maula Ali, Raja Bazar, Kolkata","22.5604338","88.3681656","true"
"ChIJLbra0AB3AjoRg6GIMc_SWEQ","Bharat Petroleum","H965+G9Q, Surendra Nath Banerjee Rd, Rani Rashmoni Road, Wellington, Taltala, Kolkata","22.5613355","88.358486","true"
"ChIJA3U0ylh2AjoR9g8oN6ExopA","Lakshman Trading Co","Beleghata Main Road, Subhas Sarobar Park, Phool Bagan, Beleghata, Kolkata","22.5625096","88.3980888","true"
"ChIJjx0PACJyAjoR5-Yxz-IChC0","IndianOil","140, Sonarpur Station Road, Kusumba Road, Karbala More, Bonhooghly","22.4452865","88.4064736","true"
"ChIJpyOkJe1zAjoRgPWSw-_T-ks","Jio-bp pulse","No 783, Urbana NRI Complex, Anandapur Road, Nazirabad, Kolkata","22.5124082","88.41196049999999","true"
"ChIJqYkhtgRzAjoRnBSui2RaUcw","IndianOil","Ground Floor, Nayabad, Rajpur Sonarpur","22.4767606","88.4498349","true"
"ChIJrTqxb_ZxAjoReAMwHTiPZjs","IndianOil","Lock No 947, Purbachal, Garfa, Kolkata","22.5041688","88.3991898","true"
"ChIJdT9zh5VxAjoRJw2SPJBqyX4","Matrimandir petrol pump","85, Kalikapur Road, Purbachal Kalitala, Kalikapur, Haltu, Kolkata","22.5042057","88.39901979999999","true"
"ChIJazEqXwBxAjoRHagdU8eCGZs","BGCL C N G pump","G97X+RWC, Sector C, East Kolkata Township, Kolkata","22.5145695","88.399768",""
"ChIJCxFsFtpxAjoRCOGoVsO1Zvg","Bengal Gas Company Limited CNG REFILL STATION","G97X+RWR, Sector C, East Kolkata Township, Kolkata","22.5146124","88.399755","true"
"ChIJQwT7ce13AjoRCpAmaI3U01Q","IndianOil","Ground Floor, Laskarhat Kasba, East, Haltu, Kolkata","22.517645","88.4000432","true"
"ChIJ-Rp8yIFxAjoRXwujGhO28Wo","Unique service","F9QW+8PW, 4th Road, Ajoy Nagar, Mukundapur, Kolkata","22.4883691","88.3968435",""
"ChIJsyM_dZF1AjoRLEmFIiKBrRk","Priyanka petrol shop","near bonbibi than monder, C12, chhabi chingregata, Kolkata","22.54001779999999","88.4290098","true"
"ChIJWcl3-VJxAjoR_Vy3q5UpnPg","IndianOil","Plot No 3B, Rash Behari Avenue, Rajdanga Nabapally Lane, Sector E, Kolkata","22.5139278","88.3936956","true"
"ChIJsfkgVbR2AjoR_ssKhZKdmpM","IndianOil","39, Bose Pukur Road, Kasba, Kolkata","22.5196018","88.3846305","true"
"ChIJcWLxxDxxAjoRQ4kj6ZrcGe4","Bharat Petroleum, Petrol Pump -Sunny Fuel Services","Baishnabghata Patuli Township, Patuli, SOUTH 24 PARGANAS","22.4675817","88.3924241","true"
"ChIJbZWqiZ13AjoRXKz2GQZiPK4","Zishan","Noor Plaza, Kolkata","22.5364258","88.3866774",""
"ChIJ28zKM8pxAjoRbiPMml2zLjc","Krishna Sathi Service Station","No 622, North East, Fartabad, Garia, Rajpur Sonarpur","22.45635850000001","88.3962687","true"
"ChIJs67iBBhxAjoRr6hKDDDyPs0","IndianOil","30, Raja Subodh Chandra Mallick Road, Jadavpur, Kolkata","22.491854","88.37205499999999","true"
"ChIJPZRWGeJxAjoRSUARdZQrl3Q","JaY LakRA","1 Number Road, Salt Lake, Kolkata","22.4955085","88.3708906",""
"ChIJQ3FzbgBxAjoRYka26YOH2k8","Sreerampura reod garia kolkata","F98M+J47, Sreerampur, Garia, Kolkata","22.4665318","88.3828054",""
"ChIJO-Kw1NV2AjoRLUqlKzLACqc","Autolife Petrol Pump","40, 1, Gariahat Road South, Jodhpur Park, Kolkata","22.50441889999999","88.3673748",""
"ChIJf0pp5NR2AjoRgcSIsWrFvzk","IndianOil","1/1/1, Gariahat Road, Jodhpur Park, Kolkata","22.5068261","88.3670327","true"
"ChIJlVx-hhhyAjoRErfkUC2ylZo","Hindustan Petroleum Corporation Limited","Ground Floor, Sonarpur Station Road, Kusumba, Rajpur Sonarpur","22.4445412","88.4085036","true"
"ChIJYQ72NNJ2AjoRCa4u6t-2lR4","Bharat Petroleum - H.P. Mitra & Sons","228A, Rash Behari Avenue, Ballygunge, Kolkata","22.5206194","88.36821909999999","true"
"ChIJDWTqV0l3AjoRCjNkdKV5f2U","Bharat Gas (Central Gas Supply)","7MJCG9XQ+X8C3, Ward Number 58, Kolkata","22.5499422","88.3881917",""
"ChIJk8cdnsRxAjoR_dubRVwgdoE","CNG Garia","1530, Netaji Subhash Chandra Bose Road, Garia Place, Garia, Kolkata","22.4598119","88.38226619999999","false"
"ChIJ-xtUBABxAjoRclZOIc-GuR0","BPCL petrol pump PUC CENTRE","1530, Netaji Subhash Chandra Bose Road, Ramkrishna Nagar, Garia Place, Garia, Kolkata","22.459782","88.382277",""
"ChIJGTrk09R2AjoRT9tTtBEcEec","Bharat Petroleum, Petrol Pump -Golpark Service Station","Purna Das Road, Gol Park, Opposite, Ballygunge Gardens, Gariahat, Kolkata","22.5164951","88.3658688","true"
"ChIJ2VNk35BxAjoRsjRcerw9cRU","Hindustan Petroleum Corporation Limited","Ground Floor, Mathurapur Road, Garia, Kolkata","22.453961","88.388061","true"
"ChIJ1ajkbjcLAjoR_4a-MgB5WO0","বুষালি ফিল্ম ফিড","India","22.545243","88.48804299999999",""
"ChIJq9OMz1x3AjoR0zyFa4G6Nv0","TIRUPATI TRADERS GASES","India","22.5322718","88.3696555","true"
"ChIJT5midNd2AjoRRP74zZGCsQA","Shyama Trading Co","56/1, Gariahat Road, Ballygunge, Kolkata","22.5262488","88.3661375","true"
"ChIJN-kyDwdxAjoRlGLAzTphCxg","Hindustan Petroleum Corporation Limited","362, Netaji Subhash Chandra Bose Road, Kolkata","22.4707101","88.36970099999999","true"
"ChIJKUcVY9d2AjoRf5rtyupB_aY","Bharat Petroleum","Ballygunge Circular Road, Kolkata","22.5274667","88.36587139999999","true"
"ChIJfwEIuNl2AjoRxE-py_N2mOg","Hindustan Petroleum Corporation Limited","7, Old Ballygunge Road, Kolkata","22.529701","88.365891","true"
"ChIJFXCj11V1AjoRwfEKPMCfQVw","Bharat Petroleum Petrol Pump - Bharat Motor Company","JC Block, Sector 3, Bidhannagar, Kolkata","22.567981","88.4116166","true"
"ChIJr3T3g-d2AjoRy0ELQQcj5YY","Ration Kerosene Oil","40A, Darga Road, Park Circus, Ballygunge, Kolkata","22.540566","88.370359",""
"ChIJS8mNWNpzAjoRnnfulbmSoKM","Bharat Petroleum Petrol Pump","CFP4+3CV, Jagadishpur","22.4352338","88.45604709999999","true"
"ChIJKWkh9fNxAjoRKHOTyBr9gdg","HP PETROL PUMP - MULLICKS SERVICE CENTRE","PO 24, PGN, Narendrapur, Rajpur Sonarpur","22.440523","88.39661799999999","true"
"ChIJ891Y2ux2AjoRFG5DUCYRqcg","Swati Auto Service","37, 1, Christopher Road, Tangra, Kolkata","22.5510333","88.37693929999999",""
"ChIJixQ1uoUMAjoRlusPAVuLp3U","IndianOil","Leather complex, Bantala, Kolkata","22.507691","88.51145500000001","true"
"ChIJW2ZMsfJ4AjoRVSYG8r64hkI","Hindustan Petroleum Corporation Limited","No 01, Unsani, Moukhali, GIP Colony, Jagacha, Howrah","22.5863911","88.276215","true"
"ChIJvc93X-d4AjoRiozv5EKtKbs","IndianOil","Ground Floor, mouri, Panchpara, Andul, Radhadasi","22.57020009999999","88.26580009999999","true"
"ChIJP2KxXR94AjoRLPAI4RqJeBE","Hindustan Petroleum Corporation Limited","No 126/2, Narasinha Dutt Road, Howrah","22.5878101","88.3201201","true"
"ChIJe4xIpvt3AjoRaOXiBqF9TQ8","Bharat Petroleum - Balaji Enterprise","94, Benaras Road, Bamangachi, Salkia, Howrah","22.6029966","88.33102889999999","true"
"ChIJ59sZF6J3AjoRcPeSrOOu0IE","Hindustan Petroleum","Hindustan Petroleum Retail Regional Office (2nd Floor), 6, Church Lane, Kolkata","22.570225","88.3447076","true"
"ChIJEdzt5Kh4AjoRu-S58bmFB5A","Hindustan Petroleum Corporation Limited","Ground Floor, NH 6, Kolkata - Mumbai Highway, Domjur, Nibra","22.6067701","88.2537301","true"
"ChIJTZ2D9cF3AjoRhljtTw8WvWI","IndianOil","No 135/2, Road, Salkia, Howrah","22.59338730000001","88.34423249999999","true"
"ChIJSdySCrF3AjoRMR2ogWwAx3Q","Petrol Pump","H9F3+P56, India Exchange Place Road, Chitpur, Barabazar Market, Kolkata","22.5742931","88.352904",""
"ChIJ9RgYsqh3AjoRZPzxgHJu7Co","Central Services","3 & 5, Ganesh Chandra Avenue,, Kolkata","22.568523","88.352651","true"
"ChIJT4ASrqh3AjoRh1oTMSIcjeE","Bharat Petroleum","2, Ganesh Chandra Avenue, Bara Bazar, Bowbazar, Kolkata","22.5694513","88.3537875","true"
"ChIJx8BKArh3AjoRrBnAEf33U98","Posta Petrol Pump","207, Maharshi Debendra Road, Jorabagan, Kolkata","22.58725","88.3528043",""
"ChIJvzCmQrF3AjoRKxzN-JV9AY0","Hindustan Petroleum Corporation Limited","116B, Rabindra Sarani, Bara Bazar, Kolkata","22.580241","88.35720099999999","true"
"ChIJ0Sfu7-qC-DkRX5wAMvxucqs","IndianOil","Ground Floor, NH 6, Bombay Road, Chamrail, Howrah","22.631577","88.300722","true"
"ChIJT7WCOF1_AjoRNpamjdbk2Xc","Hindustan Petroleum Corporation Limited","Ground Floor, NH 6, Mahiari","22.599201","88.2278601","true"
"ChIJLxnC6TV2AjoR1x30qMpTQNA","Hindustan Petroleum Corporation Limited","17, Abhedananda Road, Kolkata","22.589131","88.366861","true"
"ChIJpVpFpzN2AjoRcJmPbVjETPo","Bharat Petroleum, Petrol Pump -B D Auto Corner","62, Jatindra Mohan Avenue, Ward Number 10, Kolkata","22.595603","88.36527","true"
"ChIJgWP8ZjJ2AjoRCDRtHRz5o1g","Hindustan Petroleum Corporation Limited","69, Jatindra Mohan Avenue, Bankura","22.598391","88.365641","true"
"ChIJ21NPsG1_AjoRBONoeSWKlvU","IndianOil","Lock No 516, NH 6, Biparnna Para, Jangalpur","22.5900351","88.2187953","true"
"ChIJi0pH4DN2AjoRA1al7hH7cao","The Bengal Petroleum Company","65, Sri Arvind Sarani, Kolkata","22.5950398","88.3675347",""
"ChIJSRDPZEh4AjoRp-wbvBTEX_s","Aparna Energy Station","H8F2+QX3, KONA EXP. II, Chatterjihat, Shibpur, Howrah","22.5744149","88.302447","true"
"ChIJ8e6Qm-d1AjoRszmhN8MSEfQ","IndianOil","No DD/29, Salt Lake Bypass, Sector 1, Kolkata","22.58909","88.409218","true"
"ChIJARglf3J2AjoRYHTia2GePn0","IndianOil","CIT Scheme 7/M, 91A, Bagmari Road, Ghose Bagan, Kolkata","22.584852","88.392067","true"
"ChIJU5spNy52AjoRa90qR16JHek","Super Avenue Service Station","Shyambazar Metro, 80/1, Bhupendra Bose Avenue, Station Gate 4, Kolkata","22.600708","88.3696182","true"
"ChIJyW5Qknt2AjoR1D4RSh_8jGc","Bharat Petroleum Fuel Station","S, 73, 1, Narkeldanga Main Road, Subhas Sarobar Park, Phool Bagan, Beleghata, Kolkata","22.5710201","88.3953066","true"
"ChIJ5a-TFn12AjoRH2Ntuux9_as","Hindustan Petroleum Corporation Limited","No 9, 1/1A, Surah East Road, Beleghata, Kolkata","22.566051","88.39298099999999","true"
"ChIJ21MbKDd2AjoRkBbXd4TqSRw","IndianOil","151, Bidhan Sarani Road, Hati Bagan, Shobhabazar, Kolkata","22.5933047","88.37030349999999","true"
"ChIJC-xhwUV2AjoRIMNW91an8Qs","Bharat Gas","H9HF+FGG, Acharya Prafulla Chandra Road, Rajabazar, Garpar, Machuabazar, Kolkata","22.5786873","88.37383679999999","true"
"ChIJnVxuTEV2AjoRIXj0vVZZONU","IndianOil","120/2, Acharya Prafulla Chandra Road, Machuabazar, Kolkata","22.5834643","88.3742357","true"
"ChIJA5lvUEZ2AjoRbOdPFHL9_FU","Hindustan Petroleum - Manicktola Service Station","near IndianOil, 120/2, Acharya Prafulla Chandra Road, Manicktala, Goa Bagan, Machuabazar, Kolkata","22.5842788","88.374386",""
"ChIJlfAnrm92AjoRzhdyUpQe6wk","Bharat Petroleum, Kankurgachi","P, 327, CIT Road, Scheme VI-M, Kankurgachi, Kolkata","22.578695","88.3900275","true"
"ChIJDYF-Bjt2AjoRjXaO0zQG_oc","Hindustan Petroleum Corporation Limited","1, Ultadanga, Kolkata","22.5972193","88.3754534","true"
"ChIJ37Kz2Dp2AjoRE8a5oWQeoJE","HP PETROL PUMP - M. M. BISWAS","229, Acharya Prafulla Chandra Road, Shyambazar, Fariapukur, Kolkata","22.5984829","88.3747717","true"
"ChIJP4PZjTB2AjoRxIlIhPyALeY","Bharat Petroleum Pump Manasa Sree Autocrafts","182, Acharya Prafulla Chandra Road, Fariapukur, Shyam Bazar, Kolkata","22.5990909","88.37424279999999","true"
"ChIJKwipmiV2AjoRQsfpJLOfX5Y","IndianOil","122, Bidhan Sarani Road, Shyambazar, Baghbazar, Bankura","22.603439","88.373161","true"
"ChIJa6ihMyl2AjoRYy2GxmXW94Y","IndianOil","P - 38, Khirode Bidya Binode Avenue, Baghbazar, Kolkata","22.6058454","88.36925389999999","true"
"ChIJyVNIkxx2AjoRQphZ7ZbQxlM","Gopal Auto Service","Belgachia Road,Dutta Bagan, 38/D/H, Khudiram Bose Road, Tala, MIG Housing, Kolkata","22.6074222","88.39026129999999","true"
"ChIJq_ZdNoqd-DkREq4gTB3VlPo","Bharat Petrol Pump","61, Barrackpore Trunk Road, Rishi, Paikpara, Kolkata","22.6143474","88.3785199",""
"ChIJxeCMnIud-DkRL4y_1FRfshU","Hindustan Petroleum Corporation Limited","59B, Barrackpore Trunk Road, Kolkata","22.616791","88.37954099999999","true"
"ChIJG3WY2f91AjoRo_dCPb9aIMs","IndianOil","281, Jessore Road, Lake Town, Kolkata","22.609879","88.401772","true"
"ChIJhcS-lxZ1AjoRCSTocbzztwo","IndianOil","Plot No 2, AH Block, Action Area I, Rajarhat, Kolkata","22.5819267","88.4562419","true"
"ChIJ1y5EJi11AjoRRyJjGDL0F4g","BP Rajarhat","DJ/15, Street Number 326, Newtown, Kolkata","22.574246","88.47839359999999","true"
"ChIJJ0YTB7B1AjoR21g9tlrvnw8","Hindustan Petroleum Corporation Limited","No DN/60, Sector V, Bidhannagar, Kolkata","22.5763878","88.4302947","true"
"ChIJ5QC3Jz11AjoREOpmBpyxO8Q","IndianOil","Premises No 5, Plot No CF/19, 240, Action Area I, Newtown, Kolkata","22.5776502","88.4620843","true"
"ChIJYepCGBae-DkRL2OQ91G2ZMg","Hindustan Petroleum Corporation Limited","Ground Floor 470, 1 Jessore Road, Kolkata","22.611511","88.409301","true"
"ChIJIw3dGRae-DkR9sN2ih3Xur0","Bharat Petroleum","JCH9+6P7, Vivekananda Road, Girish Park, Golpark, Dum Dum, North Dumdum","22.6280406","88.4193099",""
"ChIJydD2S0-e-DkR-yHYGKFpxlo","IndianOil","Gate No 1, near Airport, No 30, Jessore Road, Bankura","22.6414416","88.4309498","true"
"ChIJ02Q7s0ie-DkRfShsh7k5Jo0","Bharat Petroleum Corporation Ltd Neoti Highway Service","1 no. airport, National Highway 12, Dum Dum, Kolkata","22.6423705","88.43165809999999","true"
"ChIJYcI8g2R2AjoR35vAg3qbCFs","Maruti Suzuki Authorised Service, Deluxe Service Station (Beleghata, Phoolbagan)","Opp Kali Mandir, 110, Hem Chandra Naskar Road, Phool Bagan, Beleghata, Kolkata","22.5704737","88.38992189999999","true"
"ChIJI27VmH11AjoRY4AxdvEXKc4","Bharat Petroleum, Petrol Pump -Kishore Service Stn","SECTOR2, SALT LAKE, KOLKATA","22.5796361","88.4257951","true"
"ChIJhc_0b-J1AjoRFJhwcufXDGE","A-B-C Company","Ramdhanu, Block Ad, Biswa Bangla Sarani, Kolkata","22.5799336","88.4460766","true"
"ChIJHQS3Qb51AjoRCd4AZ_1ydKw","Hindustan Petroleum Corporation Limited","Ground Floor, Saltlake, Sector II, Kolkata","22.5866355","88.42452639999999","true"
"ChIJq-YboNF1AjoRG_c2iIqQ9Hk","Bharat Petrol Pump","252, Salt Lake Stadium Road, IA Block, Sector 3, Bidhannagar, Kolkata","22.5718333","88.40893439999999","true"
"ChIJd-OPCid1AjoR49ZxR_i0tUI","Jio-bp pulse","Wonderland Park, Street Number 106, Action Area I, Newtown, Kolkata","22.5798366","88.4601756","true"
"ChIJ-ZBKWwB1AjoRryJrhbS0jao","Puncture Man","Premises No 5, Plot No CF/19 240, Action Area I, Newtown, Kolkata","22.5776257","88.46212059999999",""
"ChIJDaeMmgd1AjoRj7G8WmtgLbw","Jio-bp pulse","No CF 12, BG Block(Newtown), Action Area 1C, Newtown, Kolkata","22.5815293","88.46135450000001","true"
"ChIJHxI72nZ2AjoRNsE51e1vTw8","Gas Station","156C, Maniktala Main Road, Kadapara, Phool Bagan, Kankurgachi, Kolkata","22.5795671","88.3974606",""
"ChIJV6EubX12AjoRaoMU-R1naeg","IndianOil","9, CIT Road, Surah East Road, Subhas Sarobar Park, Phool Bagan, Beleghata, Kolkata","22.5656961","88.39365029999999","true"
"ChIJEW4xsH11AjoRtMtsLkttYpo","IndianOil","Ground Floor, Bus Stand, Hatiara, Baguiati, Ghuni","22.610071","88.447041","true"
"ChIJS9ecOIx3AjoRJP50ZWSRJzw","Shree Shyam Oil Enterprises","16 Bagmari Lane, Kankurgachi Road, Kolkata","22.5794782","88.3911272",""
"ChIJD7V2BmV2AjoRPkPieWEQUMU","Hindustan Petroleum Corporation Limited","No P, 20, CIT Road, Phool Bagan, Kolkata","22.573411","88.39006100000002","true"
"ChIJYb1FhGR2AjoRink_68JJSFk","IndianOil","110 CIT Road, Hem Chandra Naskar Road, Beleghata, Kolkata","22.570637","88.389816","true"
"ChIJAzw2fmJ2AjoRpvAGSvblXyI","IndianOil","16, Main Road, Beleghata, Kolkata","22.564386","88.389412","true"
"ChIJiSMrbgB3AjoRnoidFeE7QIw","Alochaya More","16, Beleghata Main Road, Kulia, Beleghata, Kolkata","22.5643379","88.38888419999999","true"
"ChIJyUf07hZ3AjoRWRxSKLVLQhs","IndianOil","Ground Floor, Narkeldanga Main Road, Phool Bagan, Beleghata, Kolkata","22.5729508","88.38611449999999","true"
"ChIJnaRVw8B1AjoRMgB5vmRC8PE","Hindustan Petroleum Corporation Limited","No 292, 1, Jessore Road, Bangua Avenue, Kolkata","22.611401","88.408401","true"
"ChIJnz7OGd2C-DkRecHl-0VY5t4","IndianOil","Ground Floor, NH 6, Jaipurbill, Liluah, Anandanagar","22.648166","88.3060982","true"
"ChIJtbITcheD-DkRFuAxll9NO5I","Hindustan Petroleum Corporation Limited","Ground Floor, NH 2, Durgapur Expressway, Dankuni","22.6716987","88.30133699999999","true"
"ChIJLbUZ-3CD-DkRz8KAhwvLMTU","Hindustan Petroleum Corporation Limited","Ground Floor, NH 2, Durgapur Expressway, Dankuni","22.6917689","88.291815","true"
"ChIJZ_dcuu6B-DkRfftIaVqCnXo","IndianOil","Lock No 439, Domjur, Baluhati","22.6268105","88.2321552","true"
"ChIJoRCWUPqD-DkR_tEII-QoCC4","IndianOil","Ground Floor Kalachara, Mahesh 1, Serampore, Chanditala","22.6972001","88.2539001","true"
"ChIJ7Zw8Camd-DkRq3FUxCpgpxY","Onkar Service","58, BARANAGAR, KOLKATA","22.651363","88.36550989999999","true"
"ChIJB8d7BSCD-DkRz3p9qM1NJ4E","Iocl","J8P3+Q32, Grand Trunk Road, Chamrail, Howrah","22.6368822","88.3026366",""
"ChIJRStpO-yD-DkRkFgcFzp-NH4","Hindustan Petroleum Corporation Limited","Ground Floor, Liluah, Chamrail, Eksara","22.627325","88.291949","true"
"ChIJb9nSOY-C-DkRhfjACc3F1hY","IndianOil","Ground Floor NH 6, Kona, Chamrail, Howrah","22.6240673","88.2906393","true"
"ChIJ4ZOBtRiD-DkRKi-QNG8hmT0","IndianOil","Lock No I/485, NH 6, Pakuria - Laxmanpur Road, Howrah","22.6236858","88.2896713","true"
"ChIJl9YweayD-DkRZunjsQvCZeM","G.S. Engineering","M76J+P27, Bhaighachi, Jagadishpur, Howrah","22.6617972","88.2800338",""
"ChIJU0si9qyD-DkRn0H0-nl_qgA","IndianOil","Ground Floor Baigachi, Jagadishpur, Howrah","22.6613395","88.2785787","true"
"ChIJQROPCgCD-DkRGdfrsfm-Q3c","Annapurna Service Station","Baigachi, Jagadishpur, Howrah","22.6621614","88.2786417","true"
"ChIJUeO1JNaD-DkRp0_VBgehIYg","PRADIP","Belanagar, Howrah","22.6696704","88.3066953",""
"ChIJRW00kmed-DkRZZwWaNGzGTs","Shyamol petrol shop","M82H+52F, Nischind, Madhyapara, Bally, Howrah","22.6504328","88.32754039999999","true"
"ChIJbX2lrpJ5AjoRGJOpdY7fa2Y","Kumar Shop","Dashnagar, Balitikuri, Howrah","22.610594","88.2874843",""
"ChIJDWIntCGD-DkR6vTtjdR5K98","Akash filling station","M7GW+7HW, Dankuni","22.6757457","88.296463","true"
"ChIJsbYMjoad-DkRHzqSOzQfpis","IndianOil","Ground Floor, NH 2, Bypass Delhi Road, Bally, Howrah","22.653051","88.32951399999999","true"
"ChIJRchZXgCd-DkRGOllfCyXV-Q","Joypur Bill","J8GH+5P3, Liluah, Howrah","22.6253823","88.329307",""
"ChIJrcIoQ6R5AjoRqjHVwjs8ZfU","Hindustan Petroleum Corporation Limited","Dag No 1085, Amta Road, Dasnagar, Balitikuri, Howrah","22.6058454","88.2896641","true"
"ChIJ03HqRReD-DkRUwrSf2fvD3U","BGCL LCNG cum Mother Station, Salap More","J76C+P5F, Salap, Howrah","22.61180539999999","88.2704342",""
"ChIJA0PG5BSD-DkRKsMSkb1WcBA","IndianOil","Ground Floor, Delhi Road, Dankuni","22.680571","88.3018201","true"
"ChIJaTL7P3F4AjoR2jEmhwLdszo","Total Oil Depot - C.O.D. - Das Enterprise","J73X+99R, Howrah Amta Road, Balitikuri, Howrah","22.6034787","88.2983768",""
"ChIJm8haNAB5AjoRHAeqaIkA9Pg","Bharat Petroleum, Petrol Pump -Atulanand S/S","SALAP, HOWRAH, Howrah","22.6110415","88.2684312","true"
"ChIJFcFG-nJ4AjoRsFlzNLipgjc","IndianOil","Makardah Road, Balitikuri, Amta","22.601564","88.302498","true"
"ChIJczrcfQB5AjoRs2t9BdUKXTc","Mahadev Talab Temple","37/2, Diamond Harbour Road, Majherhat, Mominpore, Kolkata","22.6076202","88.32340429999999",""
"ChIJU6OzLgCD-DkRJ5CZJN5I0T4","TATA. AD BLUE DEF (URIA)","M8P3+HF3, Housing Estate Colony, Dankuni","22.6863056","88.30391519999999",""
"ChIJP0vPA_53AjoRh6uaFuqGUPo","Raha Gas Oil Service","India","22.6109801","88.3284292",""
"ChIJO3IZdhJ4AjoRl_78o_Ihrz4","Hindustan Petroleum Corporation Limited","Ground Floor, Dasnagar, Howrah","22.5990854","88.3078839","true"
"ChIJOa3MopeD-DkRAPmpa1ZBUwU","IndianOil","Ground Floor Ahalyabai Road, Kalipur, Garalgacha","22.684361","88.27402599999999","true"
"ChIJT7I-NwJ4AjoRqjyYhuGCAZM","Bhabani Petrol Pump","P/61, Benaras Road, Belgachia, Liluah, Howrah","22.6039341","88.3220066","true"
"ChIJXxg4ydqc-DkRnJHg85yc7nw","Hindustan Petroleum Corporation Limited","Ground Floor, near Birla More, Makhla","22.6700978","88.33516089999999","true"
"ChIJwUVjunN3AjoRdxeM7CaweiI","IndianOil","No 68, Varanasi Road, Belgachia, Liluah, Howrah","22.603426","88.325188","true"
"ChIJ298jfnGD-DkR9AA-8KZ5ows","Dankuni Fill In Centre","Ground Floor, NH 2, Durgapur Expressway, Dankuni","22.6919546","88.29131919999999","true"
"ChIJzfwCJf2D-DkRpxCqe6-jxtY","Morcha Pump Dankuni","M7RR+RM5, Monoharpur, Gobra, Dankuni","22.6920014","88.29174359999999",""
"ChIJA46DOQCD-DkR6h86NB5B5cc","Dankuni fill-ni centre","NH19, Monoharpur, Gobra, Dankuni","22.6920768","88.2910141","true"
"ChIJETWu4Jid-DkRL0tEiwK5iP8","Md Company Pvt Ltd","130/C, Grand Trunk Road, Liluah, Howrah","22.6307717","88.34788669999999",""
"ChIJWz9GTBKd-DkRZ6slOOAswfs","Badamtalla Petrol Pump","Grand Trunk Road, Belur, Bally, Howrah","22.6392855","88.3508717","true"
"ChIJUVFkRJOD-DkRHIsMah0hiqM","Chandimata Auto Service","M7Q8+HHP, Kalipur Garal Gacha Chanditala Near Auto Palace, Station Pally, Dankuni,Hooghly","22.688964","88.266448","true"
"ChIJV9ILRWad-DkR25PpGBT_o5c","Bengal Pump Factory","J8CW+FM7, Liluah, Howrah","22.6211722","88.3466657",""
"ChIJr8FnoWWD-DkRyJeyyqnu2_0","IndianOil","Ground Floor, Delhi Road, Chakundi, Pardankuni","22.69591","88.297234","true"
"ChIJNc-Wk_CB-DkRWla373PeS9k","Hindustan Petroleum Corporation Limited","Ground Floor, Domjur, Makardah, Howrah","22.623421","88.239671","true"
"ChIJ88u9aG-d-DkRLmFYIvGSOUM","Sur Petrol Pump","286, 1, Grand Trunk Road, Belur, Liluah, Howrah","22.6247166","88.3499113","true"
"ChIJZ2zj0S6d-DkRgNL3f1_K2KQ","Hindustan Petroleum Corporation Limited","Old No 44, No 286/1, 1, Grand Trunk Road, Liluah, Howrah","22.6247201","88.3500601","true"
"ChIJ-xVxgwt5AjoRwu35wFp6izQ","IndianOil","Unsani, On, Kona Expressway, Howrah","22.59407939999999","88.263464","true"
"ChIJL_W-yWGd-DkR4tjO15GuFvc","Hindustan Petroleum Corporation Limited","212, Grand Trunk Road, Salkia, Howrah","22.6127701","88.3461801","true"
"ChIJc4jAa6l4AjoRC53ofa8FKR4","IndianOil","J64W+9R3, Ground Floor Andul, Mouri, Prasastha, Domjur, Ankurhati, Howrah","22.605813","88.247009","true"
"ChIJX_7vu-d3AjoRGf8bBIx8rkY","IndianOil","No 194/1, Grand Trunk Road, A Road, Howrah","22.609675","88.34498099999999","true"
"ChIJwSveTbF3AjoRmY8TgTuweCU","Hindustan Petroleum Corporation Limited","181, Grand Trunk Road, Salkia, Howrah","22.6040917","88.3429874","true"
"ChIJoZXKXed3AjoRwFXUi-jIRjU","Hindustan Petroleum Corporation Limited","Howrah, 181, Grand Trunk Road, Salkia, Kolkata","22.6040917","88.3429874","true"
"ChIJCcAjXj54AjoRL8qM-ejtXSk","IndianOil","Doctor Bholanath Chakraborty Sarani, Bantra, Shibpur, Howrah","22.5844487","88.30811279999999","true"
"ChIJL0Cbpmed-DkRbif68cFxQ3A","Bharat Kanta","J9C3+CP2, HK Chatterjee Lane, Bhot Bagan, Belur Math, Howrah","22.62100539999999","88.3542542",""
"ChIJbWqhF4yD-DkROXy8X9CXTA8","IndianOil","Ground Floor, SH 15, Chanditala","22.6945316","88.25872489999999","true"
"ChIJ6wmmCil5AjoRpxUf2COE4g0","Hindustan Petroleum Corporation Limited","200, Netaji Subhash Road, Santragachi, Howrah","22.583461","88.316301","true"
"ChIJ4_GXcLmd-DkRdcXrB-wA-d8","IndianOil","101/2A, Barrackpore Trunk Road, Baranagar, Kolkata","22.643871","88.37820099999999","true"
"ChIJ3cgDUrGd-DkR43xGfu54wmM","IndianOil","near Dunlop, No 200B T Road Ashokgarh, near Dunlop, More, Kolkata","22.6526914","88.3771165","true"
"ChIJoSi2VGCd-DkRYoKGtn3bUZM","Bharat Petroleum, Petrol Pump -Amar Service Station","Barrackpore Trunk Road, Sinthi More, Kolkata","22.6337109","88.37807099999999","true"
"ChIJTQl6FZqd-DkRSx7scAKdL6Q","IndianOil","36B, Cossipore Road, Satchasi Para, Kolkata","22.62817799999999","88.37140699999999","true"
"ChIJhQQSXZKd-DkRgb77Kb5-MnE","Gujral Service Station and Pollution Testing Center","beside Rabindrabharti University, Barrackpore Trunk Road, Kolkata","22.625399","88.3789","true"
"ChIJp_xFd0yc-DkR98uhguhtggM","Hindustan Petroleum Corporation Limited","16, BT Road, Belghoria, Kolkata","22.663171","88.377101","true"
"ChIJlSCkOk-c-DkRCCgfZzkPgVI","IndianOil","M98H+RV8, 30/2, Barrackpore Trunk Road, Kamarhati, Belghoria, Kolkata","22.6691306","88.37667859999999","true"
"ChIJh_fQIY-c-DkR798F4iOHhDg","Bharat Petroleum Dharsa Petrol Pump","Hindmotor, Konnagar","22.6922277","88.3566973","true"
"ChIJUVQeI6Kd-DkRk8DAYLZ-4m0","HP Fuel Pump","133 & 134, Barrackpore Trunk Road, Baranagar, Kolkata","22.637132","88.36815999999999",""
"ChIJNe-6Uzmd-DkRsf9kkT0FvHA","IndianOil","No 7/2/A, 1, Vivekananda Rd, U B Colony, Jorasanko, Baranagar","22.651476","88.368645","true"
"ChIJownxgSSd-DkRU1HftCVvSPg","Bharat Petroleum, Petrol Pump -Swampurna Energy Station","Gopal Lal Tagore Road, Baranagar, Kolkata","22.6335642","88.3713047","true"
"ChIJ_0Ayc16d-DkRICcMgrrNFVA","IndianOil","239, Barrackpore Trunk Road, Baranagar","22.640622","88.377729","true"
"ChIJPdr8YIyd-DkRzFaVJ25lL6A","Dunlop Petrol Pump","201, State Highway 1, Dunlop, Bonhoogly, Bonhooghly Government Colony, Baranagar","22.6518304","88.3769655","true"
"ChIJeScOSsOd-DkRCr_rRJQnvhs","Dunlop HP Petrol Pump","131/9, Barrackpore Trunk Road, Dunlop, Saket Nagar, Bonhooghly Government Colony, Ariadaha, Baranagar","22.6510736","88.3777842","true"
"ChIJX8IsM7Kd-DkRsN2gjmEaH90","Hindustan Petroleum Corporation Limited","131, Barrackpore Trunk Road, Baranagar, Kolkata","22.65127099999999","88.377731","true"
"ChIJ26BvSrGd-DkRJjLO9Ywuc_Q","Dunlop Filling Station","M93G+3RP, Barrackpore Trunk Road, Dunlop, Bonhooghly Government Colony, Kolkata","22.6527185","88.37706709999999",""
"ChIJ1ZieoLud-DkRWVuOY6fAbuE","energy point","277/2, Barrackpore Trunk Road, Kolkata","22.6335036","88.37802669999999",""
"ChIJJbA3Ocud-DkRQ_32pJFolUE","Hindustan Petroleum Corporation Limited","201, Barrackpore Trunk Road, Kolkata","22.652321","88.37771099999999","true"
"ChIJO2vaDZSd-DkRYpe0edm_owo","Hindustan Petroleum Corporation Limited","No 47/1, Barrackpore Trunk Road, Kolkata","22.630201","88.378281","true"
"ChIJtzx49rOd-DkRAPFPFCnWppY","Midland Oil Company","165, Barrackpore Trunk Road, Satchasi Para, Baranagar","22.6304615","88.3785783",""
"ChIJCffOBgWd-DkRqv_DGmrf_Ds","Hindustan Petroleum Corporation Limited","No 95/1/3A, Cossipore Road, Kolkata","22.6237133","88.3732679","true"
"ChIJJ9I6r7Sd-DkRxTukgyvmnmA","Renaissance Auto LPG Private Limited","M95H+J5R, Beehive Garden, Belghoria, Kolkata","22.65910329999999","88.3778882",""
"ChIJH_MZfKqf-DkR6I5CToseKTQ","Indian Oil","MC5V+R6V, Madhusudan Banerjee Road, Majumder Pada, Motilal Colony, Dum Dum, North Dumdum","22.6596036","88.4430555",""
"ChIJR4BjXQGf-DkR-q965KjStcE","IndianOil","Ground Floor, NH 34, Gouripur Road, Birati, Kolkata","22.665588","88.443965","true"
"ChIJ1elkpByf-DkRYcOpY6v1cuA","HP Petrol Pump - Giani Service Station","NEW Jessore Road, Michel Nagar, Kolkata","22.673014","88.444805","true"
"ChIJLYOGQh6g-DkRBwD9O4DuLh8","Hindustan Petroleum Corporation Limited","Ground Floor, Rajarhat, Reckjoani, Kolkata","22.6321101","88.4808201","true"
"ChIJV0Ga1Wqf-DkRpb7gXeFt9UQ","IndianOil","Ground Floor, Doltala Road, Doharia, Madhyamgram, Ganganagar","22.681008","88.459807","true"
"ChIJPZ4Mt9ee-DkRWrf7roow9lk","IndianOil","Ground Floor, Sajirhat Jugberia Madhyamgram, Sodepur Road, New Barrakpur","22.6980072","88.43909599999999","true"
"ChIJ-djiHUSf-DkRcHevJ6zMri0","Bharat Petroleum Corporation Ltd - Pal Chowdhury Bros","MFR7+7Q5, Jessore Road, Purbalaya, South Bankimpally, Madhyamgram, Kolkata","22.6906338","88.4644907","true"
"ChIJ4csmnEWf-DkRTWfj3Dx1tng","IndianOil","Ground Floor, Madhyamgram, Kolkata","22.694768","88.466719","true"
"ChIJtcF4IACf-DkRMPrCcWzrQQ0","Airport 1 No Gate Petrol Pump","JCRJ+WPV, Dum Dum, Kolkata","22.64236249999999","88.4317969",""
"ChIJ4YyDjWMLAjoRTmr2CdZ1pxo","IndianOil","Ground Floor, Kalikapur, Rajarhat, Kashinathpur","22.6492431","88.43355439999999","true"
"ChIJ3TAySACf-DkR4T9juYqLQxU","Dum Dum Petrol Pump","JCJC+7JJ, North Dumdum","22.6307125","88.42151559999999",""
"ChIJre16BD6e-DkRZPtQWHx6Cp0","IndianOil","No 11A, Rishi Bankim Chandra Road, Bhagwaghar Layout, Kolkata","22.6308932","88.4209417","true"
"ChIJ7c1YBBae-DkRaZen_91g4Vs","Hindustan Petroleum Corporation Limited","No 1/4 Church Road, Jessore Road, Dum Dum, Kolkata","22.6294501","88.4205801","true"
"ChIJCcHwEuef-DkR4Ic9WDdVGuM","Goutam Sarkar","AH/7, Mallroad, 15, North K.B.Sarani, K.B.Sarani, Golpark, Kolkata","22.62867689999999","88.4207922",""
"ChIJWduXHQCf-DkRwctxi1HuFBg","Chinarpark atghara bp petrol pump","JCGV+42J, Rajarhat Main Road, Chinar Park, Tarafder Para, Tegharia, Kaikhali, Kolkata","22.6253306","88.4425254","true"
"ChIJr0iW9f2f-DkRg-79jihdWF0","Bharat Petroleum Petrol Pump , MANICK TRADERS","GOPALPURP.S, ATGHARA, P.O. RAJARHAT, Baguiati","22.6253","88.4425","true"
"ChIJDwZsXwCf-DkRV0pAg0Q7m_M","Lpg Gas Refill Shop(Mini Cylinder)","JCFV+WG3, Chinar park rajarhat, Zakaria Street, Atghara, Newtown, Kolkata","22.62477419999999","88.4438018",""
"ChIJEZ1oCGef-DkR_VLwu8Mbwt0","Nayara Petrol Pump - Pioneer Petroleum","JFP4+Q4, 1, Natunpara, Bablatala, Gopalpur I, Kolkata","22.6369202","88.4553581","true"
"ChIJP2DtV72f-DkR8Nkif1BSn7w","Unigas gopalpur","6-53, Natunpara, Bablatala, Gopalpur I, Kolkata","22.6372856","88.4555204","true"
"ChIJ3aFfshCe-DkRfHKFoJXz0Lk","Hindustan Petroleum Corporation Limited","No 556, Jessore Road, Dum Dum, Kolkata","22.6274301","88.41842009999999","true"
"ChIJzQq-1S2e-DkRFO_IaNIhkR0","Hpmi","JCCP+H6X, Teghoria Main Road, Tegharia, Kaikhali, Kolkata","22.6214761","88.4356226",""
"ChIJsyahG3Of-DkREHZV-qrNiQE","IndianOil","Bus Stand, Rajarhat Gopalpur, near 46B, Atghara, Sukanta Pally, Baguiati, Kolkata","22.6229567","88.4432789","true"
"ChIJTwNVjrmf-DkRZ2nysvmoFRY","Bharat Petroleum, Petrol Pump -Dum Dum Super S/Stn","Jessore Road, Kolkata","22.6259743","88.4180519","true"
"ChIJ__9POtKf-DkR2ZXgD9O3VNk","Assam Oil Petrol Diesel Station (Now Indian Oil)","JCCV+WQW, Sukanta Pally, Kolkata","22.6223594","88.4444619",""
"ChIJcwhsZgCf-DkRb7cUTRibi4c","Puc centre","JCCV+RQX, Nawpara Road, Atghara, Newtown, Kolkata","22.622122","88.4444814","true"
"ChIJmyBjHHGf-DkRq5vsGbYdCnM","S. N Fuel Centre","C1, Chinar Park, Action Area I, AF Block, Newtown, Kolkata","22.6221009","88.4450859","true"
"ChIJNS6dVOqf-DkR9UwzTq_Lhoo","IndianOil","opposite City Centre 2, Plot No IIE/56 New Town, opposite City Centre 2, Mall, Sukanta Pally, Rajarhat, Kolkata","22.6217092","88.4489992","true"
"ChIJf5jXXACf-DkRytigtFd9T0M","Nagerbazar Petrol Pump","JCF7+3M2, Amarpalli, Kolkata","22.6226375","88.4141406",""
"ChIJD90Ko06f-DkRrgtfugnvE4E","Bharat Petroleum","JCF7+3HH, Nagerbazar, Kamardanga, Kolkata","22.6226873","88.413985","true"
"ChIJqzfEbqCf-DkRfxZCCocw1r8","SIPRA FUEL STATION","181 SAHID SUNIL SEN SARANI NAGERBAZAR, Satgachi, KOLTALA, Kolkata","22.6170263","88.4191469",""
"ChIJaUBZZgCf-DkRITm_EMMY0b8","Hindustan Petroleum Corporation Limited","Ground Floor, New Jessore Road, Michael Nagar, Kolkata","22.6732101","88.4449501","true"
"ChIJE5A5IwCf-DkRcqkDTEt5mYo","Petrol pump","toto stand, Uttar pratapgarh, Kalyani Expressway, Fatullahpur, Nimta, North Dumdum","22.6741685","88.41371819999999",""
"ChIJY5dNFwCf-DkRXl-2HEy7x8Y","Bharat petroleum Nimta (Shree Sai service station)","MCF7+RFV, Fatullahpur, Nimta, North Dumdum","22.674614","88.413562","true"