place_id,name,address,latitude,longitude,open_now
"ChIJc_CuRShW-jkREp2RhIgZWiA","Bharat Petroleum Petrol Pump","V3Q5+VJ7, Natibpur","24.8896573","88.05905","true"
"ChIJm_0Pr535-jkRVd5170mcIeQ","Fuel Petroleum","Charaktala Road, Gangaprasad","24.9416168","88.0703022",""
"ChIJv-gg5Gr_-jkRExOqNmCJerk","M/S GOUR BANGA REFILLING CENTRE","BYASPUR, KAMLABARI, Malda","24.9301111","88.1031874","true"
"ChIJlTRlxCj5-jkR3qZFiG3amMk","JUHI ENGINERING WORKS","near Sujapur, Sujapur Main Road, Kaliachak","24.9140089","88.08898579999999",""
"ChIJ71kRYyn_-jkR1Tq5MxeSpLM","IndianOil","Ground Floor NH 34, Farakka, near RHS Km Stone, 318 to 323, Road, Malda","24.935307","88.10662099999999","true"
"ChIJbeWhIwD5-jkRJ0_oyq55oWc","Hindustan Petroleum Corporation Limited","Ground Floor, PWD Road, Mothabari","24.926283","88.0383074","true"
"ChIJRStXc0r_-jkR_NstcBvQuuI","IndianOil","Ground Floor Soudalapur, Baluchar, Malda","24.960249","88.10118899999999","true"
"ChIJQchmDSH_-jkRsawhBUS0uVA","IndianOil","Ground Floor, Kamalabari, Gour, Malda","24.9414016","88.10879849999999","true"
"ChIJaVjLe1v_-jkRKXiw52dmDX8","Reliance Petroleum","Ground Floor, Gourbanga, Kamalabari, Malda","24.9423572","88.109692","true"
"ChIJD2WrWKH_-jkRtW4DFrjwIbw","Fuel Payment","Modhughat, Sujapur","24.9098393","88.0905733",""
"ChIJvyxg5Lf5-jkRxHJWkt3Rdho","Dolphin Enterprise ,Meherapur","Meherapur","24.9497125","88.0318906","true"
"ChIJgbDYGQD_-jkR2rXtPqQ8Wm0","Kamalpur Petrol pump","W4X6+HM4, Gour Malda Station Road, Purana Guamalati","24.9488966","88.1117",""
"ChIJxexQfpz5-jkRMjwyeagCcug","Bharat Petroleum, Petrol Pump -Babla Fuel Service Centre","KAMALAPUR, PO-MEHERAPUR, Babla","24.9591948","88.028183","true"
"ChIJIzzKSAD_-jkR06QIGN--jtQ","Maa Draupadi Filling Station","X428+MV, Arazi Phulbari","24.9521067","88.1172988",""
"ChIJ0SmbUOH5-jkRaTI1z3qBgV4","IndianOil","Lock No 21003/93040 Mothabari, Hamidpur","24.910772","88.033959","true"
"ChIJmUIa5Jb5-jkRNKodkoh-5L4","POLLUTION KENDRA","Gita More Road, Jot Gopalkagmari","24.9772915","88.0337268","true"
"ChIJ9416Jon5-jkRoOkGhZ3qprI","IndianOil","L/No 11013, 93429 Kagmari, Hamidpur","24.981373","88.03826099999999","true"
"ChIJTaGVSypW-jkRlhsA42qKLBU","IndianOil","Lock No 12018, 93692, NH 34, Jadupur","24.8885771","88.05440639999999","true"
"ChIJ7_J-eHv7-jkRKbEgZ8Iggeo","ALEM MIA","NUTUNPARA SATTARI MALDA NH-81, Malda","24.9932226","88.0379755","true"
"ChIJhxxQIZH7-jkRfbHEtnHDgXQ","S Mobile Centre","Mathurapur","24.9936376","88.0379121","true"
"ChIJrdiLw_r_-jkRwU6GplgSgNA","IndianOil","Ground Floor Khasimari, Kanchantar, Gour, Malda","24.912741","88.13188199999999","true"
"ChIJt8wwv_v_-jkRy6nUQo5wQIQ","IndianOil","Ground Floor, Kamalabari, Gabgachhi","24.971556","88.133652","true"
"ChIJ57fuIH3--jkRR4qLBMzVQ30","IndianOil","Lock No 21010, 93040, NH 34, Jadupur","24.97693599999999","88.131485","true"
"ChIJnTYMOIZX-jkRn3XFilfPxe4","IndianOil","Ground Floor, Maksudpur","24.8727957","88.0841902","true"
"ChIJwdpaoIhX-jkRMq9R18jHdWs","IndianOil","Kh No 3206320732083209, PN 1446 & 1447, Bahadurpur","24.8848285","88.0215121","true"
"ChIJs2AdHdn9-jkRy0hWeBDx0HQ","Bharat Petroleum","X4RR+CQC, Gour Road, Mokdumpur, Malda","24.9906571","88.1420476","true"
"ChIJOYxzXrv_-jkRL9oQqd1lSgg","Sumon Stor","W5M8+82M","24.9333369","88.1650545",""
"ChIJP4qk-CX_-jkRmh-9Y24vbeU","Max Sen","near Kashipal House, New, Maheshpur","24.9769097","88.1524445",""
"ChIJqfsOFrMB-zkREWckkRefC2g","IndianOil","73, Jl 120 Khatian, Ajmatpur, Plot No Lr, Old Malda","24.9700775","88.1719572","true"
"ChIJk_bA7DL_-jkRxvnqWDzaGWY","Bharat Petroleum- SAHODARI FILLING STATION","X5H7+25F, Nalagola - Pakuahat - Malda Road, Char Kadir Pur","24.9775583","88.1629299",""
"ChIJxzi-FHn--jkRvwM_Zbz30TA","IndianOil","Lock No, 21001, 93040, Godraipally Baluchar, Mokdumpur, Malda","24.9829965","88.13570759999999","true"
"ChIJ-SQ3KS__-jkRejgRXdXy3L0","Bharat Petroleum, Petrol Pump -Bengal Oil Company ( Narayanpur)","GUAR ROAD MALDA ( NARAY, Malda","24.9832448","88.13635","true"
"ChIJH24NCnj--jkRnoMvtIkbFEQ","IndianOil","L No 13016/93429 NH 34, Mukdumpurmalda, Gour, Malda","24.987636","88.138018","true"
"ChIJh7eFbVb9-jkRLW6E7jeD3A8","IndianOil","Kh No LR 784 & 785, PN 210, 213 & 214, Jl No 112, Nityanandpur, Bachamari","24.9914058","88.16350539999999","true"
"ChIJGR1B-0X9-jkRVUQWBuefvRg","Hindustan Petroleum Corporation Limited","Ground Floor, NH 34, Malda Bypass Road, Nityanandapur","24.996503","88.165019","true"
"ChIJKZ5oaMX9-jkRMHEnMM3gTk4","Hindustan Petroleum Corporation Limited","Ground Floor, Rabindra Avenue, Malda","25.001107","88.139629","true"
"ChIJGUi_osEB-zkRed_ZTHTcmmo","IndianOil","Ground Floor, Muchia","24.9631001","88.2041001","true"
"ChIJqbyWIM_9-jkRkGH_rLx1OXU","IndianOil","Lock No 21055, 93040, Rathbari, Baluchar","25.0039778","88.136556","true"
"ChIJLUIowcj9-jkRw_AnpIODmQE","Asish DD","Nh34, Rathbari, Malda","25.0042085","88.1364766",""
"ChIJ96yOKQD9-jkRCWjzonNMmSM","Malda","246R+8CQ, Malda","25.0108408","88.14109669999999",""
"ChIJW-ydFhUH-zkRNh-VoMtjQ9o","IndianOil","Plot No 1429 Jl No 249, Rishipur, Khatian No Lr 924931932934 Gouramari","24.93771630000001","88.2536166","true"
"ChIJF-2xZ1IB-zkRyrrFJkfkoYs","IndianOil","Nalagola - Pakuahat - Malda Road, Bulbulchandi","24.9782239","88.2429305","true"
"ChIJc5LYcQCr-zkRDU5rYwTHKJ0","Mahananda filing station limited","V6Q6+J73","24.88901929999999","88.21065779999999",""
"ChIJe67WMmxZ-jkRqRgFiD7EtSg","IndianOil","Malda, Ground Floor Lakshmipur, English Bazar, Amrity","25.017672","88.0952101","true"
"ChIJE_Tx03P8-jkRXjh2Gt4NVt4","Bharat Petroleum","Pally Teknik, SH-10, Malda","25.01628","88.097154","true"
"ChIJF-ZvOpb9-jkRMj9r3snGUr4","Bharat Petroleum, Petrol Pump","249X+RQ4, Mangalbari","25.0195236","88.14946119999999","true"
"ChIJ0d3Q0HP8-jkRZk7-iZm0fMY","Lakshmipur Petrol Pump","238W+R2Q, Daulatpur","25.0170973","88.0951123",""
"ChIJnRib95n7-jkRqXobZZaFjRw","Baniagram Petrol Pump","23H3+HVW, Bania Gram","25.0289773","88.05471519999999",""
"ChIJsYj5-_D7-jkRtv9ZtoKSJcU","IndianOil","Kh No 619765921, JL No 29, Sonatala, Plot No 243, Amrity, Malda","25.02926709999999","88.05498089999999","true"
"ChIJIwFHRWz8-jkRQsHoBj6fvnw","IndianOil","Lock No 12011/93429 Manikchawk Road, Baghbari, Bahirgachhi","25.014653","88.102942","true"
"ChIJ_QIi6vn8-jkRY_4aE8m1qNc","IndianOil","Lock No 21006, 93429, Jote, Arapur","25.039541","88.12041500000001","true"
"ChIJdy5pOpb9-jkR-AaFERmk6Ko","IndianOil","Lock No 21037/93040, Baluchar","25.021132","88.15331599999999","true"
"ChIJN68XIYP9-jkRrC16SxE1zDg","Bharat Petroleum - Bengal oil Petrol Pump","25J5+QRV, National Highway 12, Malda","25.0319922","88.159559","true"
"ChIJF2Q3CWz9-jkRD-rbOTgAkfw","Hindustan Petroleum Corporation Limited","Ground Floor, Narayanpur, Aradpur","25.0528449","88.1528244","true"
"ChIJ4y2Yyzn9-jkRHRPXW9njZp4","IndianOil - SWAGAT","Ground Floor Narayanppur, Jatradanga","25.069709","88.145772","true"
"ChIJt2nR1vj5-jkR-SBM7J1fMMo","IndianOil","Ground Floor, Byepass Road, NH34, Sujapur","25.0106662","88.1699144","true"
"ChIJFU848XD9-jkRrbFjzKH6P-g","Behani Brothers","Narayanpur PO & DT, Gauhati","25.0433415","88.15680499999999","true"
"ChIJyWCRsTj9-jkR43G07npqAJE","COCO Narayanpur (IOCL Jubilee Pump)","National Highway 12, Mandilpur","25.0695962","88.1460821","true"
"ChIJs70DHAsF-zkRCl8j8XmU_t4","Anail Petrol Pump (BPCL)","X7W8+WFR, Nalagola - Pakuahat - Malda Road, Anail","24.9973689","88.2661524","true"
"ChIJNZV2qO3k-jkRJ-fjTqnRak0","IndianOil","Ground Floor Kharbari, to, Jhamuria Road, Budhia, Barkol","25.117409","88.06642900000001","true"
"ChIJ4-8jbrvl-jkR_NJy6ePM7Es","Mamtaj Fuel Service","Kuchiahi Mamtaj Fuel Service, Pirganj, Pukhuria","25.1176632","88.066183","true"
"ChIJiVRkfSnj-jkRXFJkUX9OTMg","IndianOil","Ground Floor, Kaluadighi, Narayanpur, Malda","25.08622","88.139702","true"
"ChIJjUEvUlzl-jkRBOdAz8W8fiU","IndianOil","Ground Floor, Kutubganj, Pukhuria","25.1309869","88.01967169999999","true"
"ChIJgUKfKTvx-jkRS9JBoFvbzQo","Haripur Petrol Pump","Haripur Hatkhola Bus Stop, Haripur, Ekbarna, Ratua, Malda, Pin-732204, NH 81, Chand Para","25.0733879","87.99504669999999","true"
"ChIJMV3emp_9-jkRo6nGDyky7Cc","IndianOil","Ground Floor, Kaluadighi, Narayanpur, Old Malda","25.10627","88.1486999","true"
"ChIJuX3PpePj-jkRtrKTdpfyowc","M/S Shuvra Fuel Station","446V+6V2, National Highway 12, Gungaon","25.1105064","88.1446315",""
"ChIJBS8Dlyvj-jkRC2OIiLP6Mn8","Hindustan Petroleum Corporation Limited","Ground Floor, NH 34, Pandua","25.115241","88.146273","true"
"ChIJGTcvcIri-jkRubo884X6Ptk","Reliance Petrol Pump","45H3+M53, Pandua","25.129136","88.1529192",""