place_id,name,address,latitude,longitude,open_now
"ChIJcdnLLKfR-jkR2tuTKL1GUiI","A K AzAD Service Sentar","Shop No 2 Ward 6, Balukhada Balukhada, Mathurapur Road, Katihar","25.53355","88.03838999999999","true"
"ChIJHRpeXoHM-jkRgSVsYGMANEw","IndianOil","Ground Floor, Chhoghara Harnaroi, Abadpur, Barsoi","25.5332974","88.0382621","true"
"ChIJ5x8gD8PW-jkR_YDsZN9jHME","Bharat Petroleum","India","25.52290709999999","88.10641179999999",""
"ChIJr5fMWF_P-jkRtYo3yvtbiSY","Quazi Firoaz","Kapde Ka Dukaan Plot Number 19","25.5429088","87.98234579999999",""
"ChIJ6-UeTtXV-jkRejpknF1Yq80","IndianOil","Ground Floor, South Debinagar, Debinagar, Berail","25.58604","88.1172251","true"
"ChIJq7XDvnLW-jkRK7AJWsT-GN4","IndianOil","Ground Floor Raiganj, NH 34, Bhupalpur, Raiganj","25.546001","88.1474001","true"
"ChIJqRsMkTjV-jkRqUo6RHiKYtk","Bajla Fuels-BPCL","H44R+RPX, Pachim Mahadebpur","25.5579957","88.14137900000001",""
"ChIJhUxNNhvV-jkRCp5HL163_NE","s b","Piplan","25.56099379999999","88.14901119999999",""
"ChIJpTEDarPV-jkRAQLJoI05W-w","IndianOil","Lock No 21047, 93040, Raiganj","25.5870163","88.1305021","true"
"ChIJz-7Bc5zX-jkRV6wQlImHATs","M/S ASHAPUR FUEL CENTRE","ASAPUR 086, Asapur Bot Tola, North Dinajpur","25.4950348","88.13158659999999","true"
"ChIJGx3knk7X-jkR3NwiDNfgAqM","Hindustan Petroleum Corporation Limited","Ground Floor, Bekidanga, itahar","25.5095202","88.1655627","true"
"ChIJ7wD5aeYr-zkRwTATgC2fOPI","Birghai petrol pump","H57G+Q3F, Birghai","25.5644321","88.17574049999999","true"
"ChIJtWMpQokf-zkRaqB-ugyFueY","SB Dev Fuel Services","Araddha Mess, College Para, Raiganj","25.6045142","88.1291959",""
"ChIJLZ0JdgDV-jkRrQFO3Wl6sc4","Sarada Petrol Pump","J44P+XMW, College Para, Raiganj","25.60749089999999","88.1367033",""
"ChIJ_4AaWgbV-jkRkc3aRZqNhE4","IndianOil","Lock No 21014, Rt KM 147, 93429, College Road, Baharail, Raiganj","25.6074642","88.1369445","true"
"ChIJuWJTN0vV-jkReThxt0mkAMg","PATIRAJ FILLING STATION","Rashbihari Market, Raiganj","25.609575","88.12330159999999",""
"ChIJK1ivqJ3X-jkRfOzzXj2kZuA","Petrol Pump Pvt Ltd","Kumar Pur, Kumedpur","25.4723552","88.1244104",""
"ChIJc4w7M-sp-zkRJsFGxzMP3vk","IndianOil","Ground Floor, Sahebghata, Kaliyaganj","25.5472898","88.205924","true"
"ChIJBfig5cQr-zkRL3j_Nuqw2GE","JS-Full","H65M QQC, Jingaon","25.5592782","88.2344751",""
"ChIJYd4lud8r-zkRK_MV2BlRLRY","S & R Filling Station ( BPCL ) Ô∏è","H68V+VQ, Mukundapur","25.567145","88.244456","true"
"ChIJa5EyzZcr-zkRr2P8BQpzXls","Noor Pvt Ltd","Kachimuha","25.5953929","88.1935611",""
"ChIJxS8VSwUt-zkReX_8SmoirxQ","Bharati Fuel Station","H7H4+JMV, Kunore","25.578566","88.256873","true"
"ChIJjd8o8aks5TkRgZ6jH5YYwLQ","IndianOil","","25.6568759","88.0889442","true"
"ChIJt3qAmD3T-jkRkCIYE5roX9Q","Indianoil","India","25.6278589","88.0636565",""
"ChIJWT1gHELT-jkR8MtB0GnEDDY","IndianOil","Ground Floor Raiganj, Jhitkia,Baharail, Raiganj","25.6280097","88.0635739","true"
"ChIJJ7ZyoVXT-jkR2wxr3F1jePg","Bharat Petroleum Petrol Pump , ANILA ENTERPRISE","VILL - CHAKDUARPO, West, Subhasganj, PS, Raiganj","25.629071","88.089507","true"
"ChIJO6HaLYbN-jkRl6hzoJSNXm0","Gotham LPG Gassed Center","55","25.6210554","88.010165",""
"ChIJezM0XQDN-jkRvVOumyj4bAU","M.S.R BIOFUEL CENTER","Nayartala pirasan enghor beat Bri, Katihar","25.6221223","88.0026944","true"
"ChIJAVYaCLLU-jkRHrgrYA4Tb8E","IndianOil","Lock No 21015/9342 NH 34, Madhupur, Dinajpur,Baharail, Raiganj","25.645083","88.10029399999999","true"
"ChIJEQ0pAbjU-jkRgx5P6XqiAOI","IndianOil","Lock No 22026/93040 & 12015/93429 NH 34, Raiganj, Kulik, Rt 158 Km,Baharail, Raiganj","25.6384298","88.10939599999999","true"
"ChIJi9QFV5At5TkRBJnBZMl9eqI","IndianOil","Ground Floor, Panishala, Tetultola Nh34, Raiganj, near Barai Toll Plaza, Raiganj","25.6612474","88.0868122","true"
"ChIJAeEUaAjV-jkR0f3hvW5FliE","Loknath Roy","Shop No 45, Central Market, Raiganj","25.6185438","88.1262809",""
"ChIJjU9Dp57V-jkRCWTG3H0Ar5E","IndianOil","Netaji Subhas Road, South Sudarsanpur, Raiganj","25.6269654","88.1306938","true"
"ChIJM7O2-lDV-jkR3sDzpwONW10","IndianOil","Lock No 21030/93040, Raiganj","25.634088","88.129486","true"
"ChIJcaJf3-ws5TkR2eaEWTkENhk","BPCL Petrol Pump","M3M9+3XF, Panisalahat, Dwipnagar","25.6826952","88.0699096","true"
"ChIJ4Qcf7Kgq5TkRq-h8NM5R1VE","Hindustan Petroleum Corporation Limited","Ground Floor, PS, Raiganj","25.661239","88.165159","true"
"ChIJJ9KptL7U5DkRFjJU4tvJERE","IndianOil","Lock No 13014/93429 Ranhatta, Hemtabad,Bhikahar, Near Bangal Bari More","25.6704631","88.2301166","true"
"ChIJDzAT5Ikr-zkRWIl8uFxwvNM","Petrol And Fuel","Bhatsia Rd Bangal Bari To, Road, Raiganj","25.63798839999999","88.204876",""
"ChIJ2Qd_okAr-zkRWnNz8SoGvyk","IndianOil","Ground Floor Baharail, Raiganj, Bangalbari","25.6328711","88.2270515","true"
"ChIJYWhw_hjV5DkRVBF0fZSyfTY","Bharat Petroleum","India","25.6782873","88.2001246",""
"ChIJwdqVUv_V5DkR2KfokFfb7p0","Bharat Petroleum, Petrol Pump -Rishi Filling Station","Bindol - Thakurbari Road","25.6743252","88.22572009999999","true"
"ChIJE9T3k6Yr5TkRc9YQDsY-rjg","Hindustan Petroleum Corporation Limited","Ground Floor, Raiganj, Maharajahat","25.7028229","88.1160218","true"
"ChIJPXVYgAwt5TkRWZ9F-EPe2d8","RELIANCE JIO BP PETROL PUMP RAIGANJ","National Highway 12, Krishnamuri","25.69376819999999","88.0564369","true"
"ChIJ2ddKjQUt5TkR5V0f2OrHfDE","IndianOil","Ground Floor, Magar Brige, Paikpara","25.69467299999999","88.0562772","true"
"ChIJgcooRrMt5TkR17sHppr4zBk","Jayanta Das","Arthagaon to NH-34 Road, Dwipnagar","25.6851239","88.0725173",""
"ChIJ0-4eGZ4t5TkR7VHEYtziNhA","Maa Manasa Fuel Centre","Bilaspur","25.7091875","88.03756249999999","true"
"ChIJ42bRx9ot5TkRIf7fkHEE124","Hindustan Petroleum Corporation Limited","Ground Floor, Karandighi, Bilaspur","25.7134759","88.02611429999999","true"
"ChIJC_UiXgAt5TkRDA1i5GsCHtU","M/S SARKAR PETROLEUM (BAPI SARKAR)","Botolbari, Nakol","25.7165366","88.02168999999999","true"
"ChIJIQibNQor5TkREPrwhff392w","MAHARAJA FILLING STATION","BINDOL ROAD, Rampur","25.695388","88.11338549999999","true"
"ChIJB9Z6eAAr5TkRvBQGm3CMlKs","MAA BHARATI ENERGY STATION","P493+VV7, Nazirpur","25.7198927","88.1037175",""
"ChIJRRgPWNUt5TkRFIsYO28miko","IndianOil","Ground Floor, Mazgaon, Altapur","25.73428","88.02155669999999","true"
"ChIJ4a88EVst5TkRaf3XbfLRSs4","IndianOil","Khatian No 1174, JL No 59, Plot No 1780, Basian, Runia","25.736185","88.085413","true"
"ChIJmVSw7KMz5TkRKp_FBBYS0t0","Bharat Petroleum Petrol Pump","Bharat Petroleum Petrol Pump, Altapur","25.7299806","87.9963404",""
"ChIJX4E-eAzT5DkRtNIqXCEFgKs","PETROL PUMP","Ramnathpara","25.6939312","88.2685674","true"
"ChIJNwP7IwDV5DkR2VJjm8ApPoY","Kashimpur lovely petrol pump","M6JG+77V, Kasimpur","25.6807463","88.2256872","true"
"ChIJn5iSpiHV5DkRbXRju57lRI0","Durlav Store","1","25.7375615","88.18325",""
"ChIJgwdFnTbT5DkRF8pmauthZbQ","HP PETROL PUMP - JOY GURU FUEL SERVICE","Ground Floor, Hemtabad","25.6585941","88.2686717","true"