place_id,name,address,latitude,longitude
"ChIJSbFJOlsBDTkRElSokgEoE5c","IndianOil","District Centre 1, Plot No 1/A/3, Sector 10, Rohini, New Delhi","28.7162842","77.1176122"
"ChIJjd8bRk4BDTkR_l-47flCpiM","Bharat Petroleum, Petrol Pump -M.L.Sethi Service Station","Sector 5, Rohini, Delhi","28.7181079","77.1104007"
"ChIJI4VqQ_YDDTkRc_ySOb8zUoM","IndianOil","S18, Site No 2, Road No 43, Service Centre, Road, Pitampura, New Delhi","28.6887307","77.1047244"
"ChIJUVxaIvsDDTkROdYA4ANhRF8","IndianOil","near JAIPUR GOLDEN HOSPITAL, Outer Ring Road, Mangol Puri, near JAIPUR GOLDEN HOSPITAL, Rohini, New Delhi","28.6970115","77.11263509999999"
"ChIJLfZKwQIEDTkRvuesI7qJ-U8","IndianOil","Mongolpur, Sector 1, Rohini, Khurd","28.7013349","77.0919067"
"ChIJE-ZKt04BDTkRIv1JAozAQwE","IndianOil","Metro Station, No 3/B4, Distict Centre 1, near Rithala, Rohini, New Delhi","28.71961","77.1003616"
"ChIJafh5Bv4DDTkRTz2U7fB5GCE","Hindustan Petroleum Corporation Limited","Ground Floor, Community Centre, Sector 3, Rohini, New Delhi","28.7039993","77.1079105"
"ChIJdT4t06wGDTkRqMKkkY5ABcM","IndianOil","No A2, Local Community Centre, Sector 5, Rohini, New Delhi","28.7121742","77.1025433"
"ChIJKcu6C_gDDTkRoIwK7Tz4RJg","IndianOil","near marble Market, Ground Floor, Outer Ring Road Mangolpuri, near marble Market, Sector 2, Rohini, Delhi","28.6940717","77.102746"
"ChIJcTmCXJUDDTkR4xDCGIjtrHc","Bharat Petroleum, Petrol Pump -Sanjeev Filling Station","Mangalam Place, Delhi","28.7007988","77.115183"
"ChIJ8U5zuxoEDTkRTpFS3XIt0Ws","Indraprastha Gas Limited CNG Station","adjoining IBP Petrol Pump, Outer Ring Road, adjoining IBP Petrol Pump, near Mangolpuri Crossing, New Delhi","28.6905472","77.0975954"
"ChIJiR1qfAkEDTkRmADseX-jTFQ","Delta Petroleum","Ba-64, Pitampura, Outer Ring Road, Mangolpuri Industrial Area Phase II, Phase 2, Pocket A, Industrial Area, Mangolpuri, Delhi","28.6868129","77.0991409"
"ChIJAcjyLhEEDTkRLNDEk39np1k","IndianOil","Lock, 650, Mangolpuri Road, Industrial Area, New Delhi","28.6876856","77.0854864"
"ChIJZcI-bbUGDTkRDerttQMW9B0","igl cng pump","P3HX+362, Paul Colony, Rithala, Rohini, Delhi","28.72763309999999","77.0980131"
"ChIJ-fdPC2gBDTkRK6CPsJvC_Uw","Hindustan Petroleum Corporation Limited","Community Centre, near Telephone Exchange, Sector 9, New Delhi","28.7182071","77.1268388"
"ChIJ8SUmzRIEDTkRGbtQlYUOJjg","IndianOil","No 8/1, Mile Stone, Rohtak Road, Mianwali Nagar, New Delhi","28.6798355","77.08897019999999"
"ChIJwc8x5HcEDTkR_X0Ai1RnD8k","Bharat Petroleum Anil filling station","F-15,22,1st Floor,Ansal Utility Commercial Centre,Opp Jwala Heri, Market, Road Number 30, Friends Tower, A 2B Block, Paschim Vihar, Delhi","28.6705188","77.1023277"
"ChIJd1xboDABDTkRTmR04x4jdI4","IndianOil","No E4, Lock, Code I/379, near Garg Trade Centre, Sector 11, Rohini, New Delhi","28.7349274","77.1138939"
"ChIJ6YQadWoBDTkRYUQwniZqty8","IndianOil","Ground Floor, District Center, opposite White House Apartment, 2, Sector 13, New Delhi","28.7248505","77.12600069999999"
"ChIJB_QM44UDDTkR1E4RRQOaiyE","Indraprastha Gas Limited CNG Station","Out Ring Road, Near Milansaar Appartment, Dda Mig Flats, New Delhi","28.6759886","77.0944815"
"ChIJ905totv9DDkRb4sro-HE96U","IndianOil","Police Station, next to Timarpur, Majnu-ka-tilla, Timarpur, New Delhi","28.7075929","77.2247033"
"ChIJ_XP1ucX9DDkRGx9Sna-mT80","IndianOil","Outer Ring Road, Majnu-ka-tilla, New Delhi","28.7010931","77.2268668"
"ChIJYRgCh8D9DDkRrOevwMou4OI","Hindustan Petroleum Corporation Limited","Ground Floor, Khyber Pass, New Delhi","28.69300190000001","77.220766"
"ChIJaRABmQsCDTkRivmPKP28T9I","Singh Service Station","opp. GURUDWARA NANAK PIAO SAHIB, Main, GT Karnal Road, Delhi","28.6934111","77.189357"
"ChIJYfsyAx_-DDkR2ABojHd8IXM","Indian Oil petrol pump and cng station burari (Risal Petro)","ट्रांसपोर्ट अथॉरिटी, संत नगर मार्ग, लालडोरा, झारोड़ा माजरा बुरारी, दिल्ली","28.73279059999999","77.1984609"
"ChIJESRyGgsCDTkRzkl8WmJ4pv0","IndianOil","Lock 122, 3/1, opposite SB Colony, 901, GT Karnal Road, Ashok Vihar, New Delhi","28.6824306","77.1978111"
"ChIJVV8-d3cCDTkRhZzYCGw-IOE","IGL NANAK PIAO","opp. Gurudwara Nanak Piao, Rana Pratap Bagh, opp. Gurudwara Nanak Piao, New Delhi","28.691186","77.191135"
"ChIJB4_mAh_-DDkRy3j8PpQFA-I","Hindustan Petroleum Corporation Limited","opposite Delhi, Main Burari Road, opposite Delhi, Transport Authority Road, Jharoda Majra, New Delhi","28.7335437","77.198324"
"ChIJYe_THJz_DDkRbyDHqzEwPig","Bharat Petroleum, Petrol Pump -Sai Filling Station","BP BURARI, New Delhi","28.7340611","77.19807949999999"
"ChIJ0SudgKf9DDkRPmgwOUhbl6A","Hindustan Petroleum Corporation Limited","Sham Nath Marg, Ludlow Castle, Civil Lines, New Delhi","28.67008","77.22636"
"ChIJJx9f1Gz8DDkRPgLa5JIHgpI","BHARAT PETROLEUM, Petrol Pump - PAM FILLING STATION","MTNL ground, C, Block Community Centre, opposite DTC Bus Depot, B4/48, Block B, Yamuna Vihar, Shahdara, Delhi","28.6970234","77.2718106"
"ChIJj_lpCFj8DDkRJC7_PcBI_14","Hindustan Petroleum Corporation Limited","near ISBT, G T Road, SHASTRI PARK, New Delhi","28.67265819999999","77.2527892"
"ChIJC6si-3X9DDkRljpjxmaZ3uY","Hindustan Petroleum Corporation Limited","Ground Floor, Boulevard Road, Civil Lines, New Delhi","28.6681204","77.2122771"
"ChIJ22DFngz9DDkR_IsZTbaYiJU","Bharat Petroleum","M679+CGV, Tis Hazari, New Delhi","28.6636048","77.21879299999999"
"ChIJcaC9G-YBDTkRJuwhQbN_lXY","IndianOil","near Mukudpur, Ring Road, Dheerpur, Chandni Chowk, New Delhi","28.73002","77.18339"
"ChIJGVbJHbr9DDkRihlotZbZIiw","MD AIR SERVICE","Shop No 1, near Indian Oil, Majnu-ka-tilla, New Aruna Nagar, New Delhi","28.7010543","77.2274913"
"ChIJ_XP1ucX9DDkRRFYoaeejTg0","Delhi Cantt Filling Station","filling station near, Delhi Cantonment, New Delhi","28.7006274","77.22694539999999"
"ChIJmXODqDb_DDkRKsWPd8IQXHM","Akash Gas Wazirabad","P6CG+RPG, Wazirabad, New Delhi","28.7220512","77.22683119999999"
"ChIJTQQsrQz-DDkRB_RJhFL2h-Q","IGL CNG Station Dheerpur","Outer Ring Road, Gandhi Vihar, Gopalpur Village, Delhi","28.7211615","77.2174045"
"ChIJG5FTC3b-DDkRBQRYFU5XCGM","IGL for commercial vehicle","Unnamed Road, Gandhi Vihar, Wazirabad, Delhi","28.721257","77.2174156"
"ChIJn6lyFZPkDDkR69369mErvCo","IGL CNG Station Chilla1","IGL CNG Station, Ghazipur Road, Mayur Vihar Phase I, Chilla 2, Trilokpuri, New Delhi","28.6017262","77.30816709999999"
"ChIJZQTpC1_kDDkR1EvupxrRE6g","IndianOil","Plot No, Pp 1, Sector 15, Noida","28.5837595","77.3120671"
"ChIJ5dyEl_rkDDkRvJRx9OQa05U","Delta","f 19, F-19, Sector 8, Noida","28.597278","77.3217136"
"ChIJIZihX-TkDDkRmwqvifJASjc","Bharat Petroleum classplus","H-16/74, Dallupura Road, New Kondli, Vasundhara Enclave, New Delhi","28.6041735","77.3233951"
"ChIJB72-nwvjDDkR2nn3LrsTPW4","IndianOil","Sarai Kale Khan Bus Terminal, Outer, Ring Road, Behlolpur, New Delhi","28.58591019999999","77.26037029999999"
"ChIJKxIIoQ7jDDkRBx1GQULoy4Q","Indraprastha Gas Limited CNG Station","Near Veer Haqiat Rai Bus Terminal, Sarai Kale Khan Road, ISBT Sarai Kale Khan, Sarai Kale Khan, New Delhi","28.584825","77.260122"
"ChIJayqTPKPjDDkRoDr9gMshNAA","Hindustan Petroleum Corporation Limited","Ground Floor, near Ashram Chowk, NH 19, Mathura Road, New Delhi","28.5712122","77.25962969999999"
"ChIJ35Nxih7lDDkRePtobSvDI_U","Bharat Petroleum Petrol Pump - Vij Auto Centre","Community Centre, Kondli, Gharoli, 26, Pragati Marg, Mayur Vihar Phase III, Delhi","28.6072714","77.335396"
"ChIJ3xHNhQTjDDkRl8UpWgrN9CQ","Hindustan Petroleum Corporation Limited","Ground Floor, Mathura Road, Nizamuddin West, New Delhi","28.5891943","77.2466458"
"ChIJGbkoi2zjDDkRQGJiqqk1VNI","Bharat Petroleum, Petrol Pump -Okhla Service Centre","Mathura Road, New Friends Colony, New Delhi","28.5632322","77.26466839999999"
"ChIJgwiMfzP7DDkRTpvh7YT35G0","Bharat Petroleum Ghazipur Border","J8M8+R6R, Main Road, near Flyover, Chaudhary Charan Singh Marg, Ghazipur Village, Ghazipur, Delhi","28.63461509999999","77.31551449999999"
"ChIJ60bnfYXkDDkRa2484SdlOo8","Indraprastha Gas Limited CNG Station","Kirti Apartments Club Avenue Rd Opp, Mayur Place, Phase 1, Mayur Vihar, New Delhi","28.5942746","77.2981535"
"ChIJOSNyjLzlDDkR5l_v9wQ3Zc4","IndianOil","Lock No I332, District Centre, Phase 1, Mayur Vihar, New Delhi","28.593695","77.29680019999999"
"ChIJAcJnVm3lDDkR3wjfiuGOM-8","Cng pump","19/275, Block 19, Part 2, Trilokpuri, Delhi","28.6015891","77.3078373"
"ChIJEcUbPpPkDDkR_zs7a_B7MBc","Indraprastha Gas Limited CNG Station","19/496, Ghazipur Road, Block 30, Himmatpuri, Trilokpuri, New Delhi","28.6017262","77.30816709999999"
"ChIJlSLflI_lDDkR953iW1AfjJ4","Petrol Pump","20/384, Block 20, Part 2, Trilokpuri, New Delhi","28.604149","77.307307"
"ChIJg6fqqKbkDDkREACXKKnLFp8","Hindustan Petroleum Corporation Limited","Patparganj, Mayur Vihar, New Delhi","28.6138678","77.2919442"
"ChIJl__KaPTlDDkRdKCJmxEtma0","Indraprastha Gas Limited CNG Station","B, near Temple, 9, Patparganj Road, South Extension I, Mayur Vihar, New Delhi","28.6138691","77.2919539"
"ChIJBbt4xwblDDkRnNN2bvdq7Fc","Sevendra Traveling","Sector 1, Noida","28.5900173","77.3116215"
"ChIJMWSQXvXkDDkR-HoO6Do3thA","IndianOil","Ground Floor, Sector 14, Noida","28.5858036","77.3093111"
"ChIJ44C_5rroDDkRGwJTnvYJ8b8","Hindustan Petroleum Corporation Limited","Ground Floor, near IGL Station, Bhangel Road, Noida","28.5341445","77.3914508"
"ChIJRZURgf7lDDkR9UKnvWHx7bo","Planners Koncept","D-285, Block, 285-D, Sector 47, Noida","28.5477966","77.3652401"
"ChIJy5-CAhnmDDkRdcCZoHfKqV4","Indraprastha Gas Limited CNG Station","G9GC+C4F, Service Lane, Noida Gr, Noida-Greater Noida Expressway, Sector 105, Noida","28.5260608","77.3703037"
"ChIJYcddrBDmDDkR7H4D_wxBP6s","IndianOil","G9M8+565, No PP/1, Noida-Greater Noida Expressway, Sector 105, Noida","28.5284837","77.3662725"
"ChIJpy-zQgDpDDkRdA5eVQ5UE20","PUC","On the way, Noida","28.5034396","77.385583"
"ChIJyfUyHVTnDDkRDMNgpqakaGA","IndianOil","J Jaypee, Wish Town Klassic, No C1, Sector 133, Noida","28.5041953","77.377276"
"ChIJy6gIJm3nDDkRS5JIUf53Wxw","CNG and Petrol pump","G93H+P4, Sector 133, Noida","28.5043275","77.3769587"
"ChIJV-98lWbnDDkRPTJ4skySn2Y","Petrol Pump HMEL 108","PP-01, Sector 108, Noida","28.5237653","77.3731821"
"ChIJH6kNYPDnDDkR4X1JiMOxdB8","Bharat Petroleum","Wish Town Klassic, Jaypee, Near, Jaypee Hospital Road, Asgerpur, Sector 133, Noida","28.5058035","77.3654048"
"ChIJ8be-nLvpDDkRzMzZvN9lzhg","HMEL Petrol Pump - Sector 137","PP-01, Paras Tierea, Sector 137, Noida","28.5040109","77.4108397"
"ChIJxcmaYwDpDDkRUGLkdX_f-fs","CNG pump","Bhangel Road, Sector 82, Noida","28.5344683","77.3912945"
"ChIJuUorAwHlDDkRbXCmadOZXiI","Indraprastha Gas Limited CNG Station","Near Advant Building, Sector 142, Noida","28.4996109","77.41211299999999"
"ChIJ0SlveQDpDDkRrPZmA8Zw8oo","BP -GNA Sector 20","G9PR+6C2, Noida","28.5355161","77.3910265"
"ChIJx0NxKe7lDDkRFLppq9Vxcsg","New Indian Diesel Service","near Amar Singh Palace, Dadri Main Road, Bhengal, Phase 2, Noida","28.5379964","77.3894512"
"ChIJK4c3_sboDDkRwio-QS8zjl8","IndianOil","Green Belt, P2, DSC Road, Hosiery Complex, Block B, Phase-2, Noida","28.5348657","77.4043162"
"ChIJd6ee4PPnDDkRKvj6ZVOUdQ4","Paras Fuels","Plot Flat No. PP-1, Block A, Sector 105, Noida","28.5329683","77.3642715"
"ChIJgSBfLQDpDDkR84FFIY1S_OU","Urea pump","G9WQ+78C, Salarpur, Noida","28.5456897","77.3882686"
"ChIJDy7VcADlDDkRXTTFJYvoA-w","Bharat Petrolium","park, Sector 48 Road, Block A, Sector 47, Noida","28.5520132","77.3758537"
"ChIJySIZjTTnDDkRIAtyPMLJySE","Momo Point","C-102/5, Basantpur Colony, Faridabad","28.5054947","77.3392748"
"ChIJwZJmhXrpDDkREl-TFSI-9RU","IGL CNG STATION -SECTOR 88","Dadri Main Road, Block A, Sector 88, Noida","28.5346283","77.4271875"
"ChIJfehSG9fBDDkRiocsWoyAHg4","Bharat Petroleum Fuel Station","EXPRESS WAY, 6th Lane, Sigma III, Greater Noida","28.4628079","77.5065831"
"ChIJV3QIwrnBDDkR6n5H1mOvoKI","Hindustan Petroleum Corporation Limited","Ground Floor, near Yamuna Expressway, Sadar, Chuharpur Khadar","28.4406183","77.5026254"
"ChIJ0X62yl7BDDkRbUmqz82usbw","Satsav Filling Station","CFVH+7VR, Shafipur Road, Sector 152, Noida","28.4432389","77.4796284"
"ChIJ76AHvkbBDDkRWn4EQZLqWPI","Chimkandi","Pari Chowk, 27 A, Pari Chowk, Greater Noida","28.4603459","77.5045213"
"ChIJ3UflFJXBDDkRiYCfVUHZ_Sk","AASHIK PHOTOGRAPHY","Tugalpur Main Market Road, Tugalpur, Greater Noida","28.4652364","77.50362679999999"
"ChIJzfKBpdfBDDkRQge_IaqjSSY","Siddh Laxmi Hp Gas","1, Tugalpur, Greator Noida","28.4645997","77.5067405"
"ChIJW655-dfBDDkRzmISUvnsooE","Sai Vinay Bharat Gas","NCR Region, 3, Tugalpur Market, Park, Greater Noida","28.4664346","77.5046764"
"ChIJPyIla4vBDDkRbh3o8MA8ISE","Bharat petroleum","CGG7+V2J, Cassia Fistula Estate, Chi IV, Greater Noida","28.4272041","77.5125267"
"ChIJ1zAv0-rrDDkRVYqQcigiaGA","Blue Planet Integrated Waste Management Facility","FFGJ+97H, Knowledge Park III, Greater Noida","28.475929","77.4807469"
"ChIJLwdJDADrDDkRVendmY1-T9E","IGL CNG STATION -KNOWLEDGE PARK 3","FFGJ+MW2 DRONACHARYA GROUP OF INSTITUTIONS, Knowledge Park III, Greater Noida, Uttar Pradesh 201310 GRETER, Noida","28.4765156","77.48240980000001"
"ChIJnXBhCDLADDkR33sDynjqo9c","Hindustan Petroleum Corporation Limited","Ground Floor, Block-B, Gol Chakkar, near Golf Course, PHI 3, Noida","28.45670709999999","77.521103"
"ChIJWaFCcgDBDDkRJ1pNZ2xO_yM","Global Oorja Fuel Station","1377, Block C, Phi III, Greater Noida","28.4514975","77.5248876"
"ChIJQ8hFBgDBDDkRTTW5wk1cCPo","Indian Oil","FG2G+J3V, Kasna Road, Block B, Phi III, Greater Noida","28.4516092","77.52515679999999"
"ChIJecssNTfADDkRiwEcTm3O5Sg","Hindustan Petroleum Corporation Limited","No A1 Site, 4, Industrial Area, Noida","28.451719","77.526039"
"ChIJZ1oP0hDBDDkRknN0C_tHgNg","CNG and Petrol pump","Venice Mall, Block C, Industrial Area, Surajpur Site 4, Greater Noida","28.4512458","77.5264716"
"ChIJ-2f2BOvHDDkRb2vNvqfM1ZY","IndianOil","Rabupura Road, Dankaur","28.3426265","77.55556419999999"
"ChIJhzYC-IzHDDkRwvfUFcg0LMk","IndianOil","Rabupura Road, Dankaur","28.3453658","77.5498514"
"ChIJ92gQu0HHDDkRTaL8o6yuThA","Gyani Madan Indian Oil petrol pump","8HV4+3RW, Dankaur","28.34291559999999","77.5572327"
"ChIJaTPTg6jHDDkRQJp8vpnmlh0","Indian oil Petrol Pump","8H92+FPW, Taj Express Highway","28.31872559999999","77.5518142"
"ChIJNVsc2UTHDDkRSJ2mGQalVtc","IndianOil","Ground Floor, Near Formula One Racing Track, Dankaur","28.3535463","77.5565262"
"ChIJoRvPNkPHDDkR50ONcNVHhzM","CP Fuels - Diesel Delivery","Indian oil petrol pump, Indian oil petrol pump, CP Fuels, Behind CP sons Petrol Pump, Bus Stand, near Chandraprakash and sons, Dankaur","28.3536243","77.5566601"
"ChIJCVEkI564DDkR2dc-nK5PJpA","Ch Dalgir Petrol Pump","9H37+44J","28.3528255","77.562767"
"ChIJbR7ey37HDDkRpy4bkFL865U","Path India limited. Ilex projects Pvt Ltd","8GW8+F34, Eastern Peripheral Expressway, Bela Khurd","28.347028","77.51593299999999"
"ChIJJZLYw77HDDkRAdKMkoWfOwI","Hindustan Petroleum Corporation Limited","EPE, 2, Aurangpur","28.3451355","77.5143925"
"ChIJpYMpLQDHDDkRG09htlgyWIQ","Kmp petrol pump","8GV7+WM7, Bela Khurd","28.344915","77.5141833"
"ChIJB7r6dSG5DDkR3EZ9xIPuZWI","Hindustan Petroleum Corporation Limited","Ground Floor, Sikandrabad Road, Dankaur","28.3603532","77.5677631"
"ChIJ8VgVZ7zHDDkRHm7gC6UivY4","IndianOil","Ground Floor, Aura, near KM Stone, 95/6, Eastern Peripheral Expressway, Dankaur","28.3458257","77.5139511"
"ChIJ0UJDETjHDDkRZTDdKQfCH7Q","Reliance Petroleum","Indian Oil Petrol Pump, Khasra No 513, 526, 525 & 420, On chainage 95-575 to 95-62, Aurangapur","28.346069","77.513667"
"ChIJEeDP5bi5DDkRCzQVRa4a9HY","Naushad jaiswal bsnl tavar","Usmanpur","28.3296295","77.5869596"
"ChIJqd8Y8rHHDDkRdA9qCYRSHBU","IndianOil","18 KM Stone Mirzapur, Noida","28.29484","77.56175"
"ChIJ-4g7qdy5DDkRPVRY0MKKkno","IndianOil - SWAGAT","KM Stone 16, Rhsyamuna Expressway, Sadar, Salarpur","28.294796","77.56221099999999"
"ChIJp2FpDwC3DDkRyPyxLofN_uw","Shree Venkateswara Power Point (Petrol Pump and CNG Station)","Medical device park, YEIDA City Road, Sector - 28, Rabupura","28.2269375","77.5861875"
"ChIJgVdcSRjKDDkRyVUMeLnjyX0","Nayara Petrol Pump","5GMR+QH9, Palwal","28.1844043","77.5414878"
"ChIJkXdrbJjJDDkRJXfkWvriFIo","Nayara Petrol Pump","6G7G+W85, Bagpur Khurd","28.2147564","77.5258549"
"ChIJZ-3wvTPIDDkRcsiu3OUievQ","Nayara Petrol Pump","6GVW+RFG, Nagalia","28.24455439999999","77.54620919999999"
"ChIJEX5-0GJKczkRE8v2N5Ay-7s","IndianOil","Tappal","28.0567139","77.5741568"
"ChIJJ49GUmA1czkRw1etuwsnadk","Hindustan Petroleum Corporation Limited","Ground Floor, Aligarh - Palwal Road, Hamidpur","28.078767","77.559899"
"ChIJ9XhQLAA1czkRthKmQ5sQ0ws","Cng pump hp petrolium","3HJ5+Q3R, Hamidpur","28.0819948","77.557643"
"ChIJW5y1b79PczkRqHifawJ9fYg","Chandrakanta Filling Station","Aligarh - Palwal Road, Tappal","28.0567485","77.5741759"
"ChIJk-c_shJLczkR4gklmxqFPvM","Pt Nekram essar oil","Aligarh - Palwal Road, Tappal","28.0513641","77.5753064"
"ChIJBc1G5KvKDDkR6sABPHU2anQ","Gaurav Filling Station","Jewar Road, Jewar","28.1088271","77.5571807"
"ChIJb1U9prZLczkRuqpYqEi9hMU","IndianOil","Khasra No 3790, Tappal","28.0396096","77.58707609999999"
"ChIJU4-ZAqbKDDkRDYK8ZLuTMkk","Hindustan Petroleum Corporation Limited","Ground Floor, Tappal Road, Jewar","28.1150601","77.5568164"
"ChIJ8XGYmIFIczkRxKcJk7DNaVk","Petrol Pump","WJG6+MR9, Connector Road, Managarhi","27.9266541","77.6121211"
"ChIJA19Ero1JczkRb6OgCN4XNQ8","M/s Rama Filling Station","Plot No 01 Near Tiraha Jattari, Road Fauzuaka, Managarhi","27.9773528","77.6242383"
"ChIJF24h78hJczkRq9O3gdS5-oA","Shiv sahay Kisan Sewa Kendra","WJJ4+JR3, Managarhi","27.9315063","77.6070336"
"ChIJP4XhA71JczkRW43AWak97M4","IndianOil","Ground Floor, Bena, Khair, Simrauthi","27.9849369","77.5961982"
"ChIJrwrTkX1IczkRBWsAmmJ11CA","IndianOil","Ahamadpur, Managarhi","27.929815","77.60865799999999"
"ChIJkSgXYp1JczkRpsFYiqI8Afo","Bharat Petroleum","XJV4+54, Simrauthi","27.9929055","77.6053053"
"ChIJO2mS7QZJczkRDFESA6Lbfnk","Tiger Filling Station","Jattari Road, Palar","27.9816513","77.6457515"
"ChIJYRW_GgVPczkR2TRJOl2l2gg","Petrol Pump","WMW4+Q6G, Unnamed Road, Bajna","27.9469459","77.6555779"
"ChIJx_AyFgBFczkR4O34dSk8Tcs","Chandpur kalna","VPF7+5F5, Chandpur Kalan","27.8728801","77.71373059999999"
"ChIJEeRP5ChFczkReARdyg_wo-Y","Vishnu Shop","near by Petrol Pupm Chandpur, 01, Road, Bajna","27.8690322","77.7207063"
"ChIJoWK1ES1FczkRdYI11gtrZhM","Vikash Kumar","1 Chandpur, Bajna","27.8625782","77.7268184"
"ChIJf1doPjhFczkRmu1-AlntdcQ","Madhav Filling Station","1 1, New Delhi","27.8625746","77.7268194"
"ChIJaX2AE-BFczkRqWePfsA3ZH4","Rambabu Petrol","VPPC 6H7, Shall","27.8858446","77.7216883"
"ChIJdfzRYclFczkRFrVKRRscSbU","Hindustan Petroleum Corporation Limited","Ground Floor, Mant, Bajna","27.8893819","77.6724272"
"ChIJL-6FCJJFczkRok8LDXXW958","Bharat Petroleum Petrol Pump , SUNIL YOGESH FILLING STATION","BAJNA-NAUJHEEL, ROAD, Bajna","27.888146","77.671148"
"ChIJywjGhYpDczkRWuMIRazl1Oc","HP PETROL PUMP - HAMARA PUMP BAGHARRA","Ground Floor, Maant Road, Maant, Bagharra, Naujhil","27.837439","77.678955"
"ChIJP7DPxDhFczkRfXCFPVyFiGU","Ajay Govind Filling Station","WM2X+PPR, Bajna - Aligarh Road, Aligarh","27.9018614","77.6992724"
"ChIJ2e2uvARFczkRxSq_eZh1Coo","IndianOil","Ground Floor, Naujheel Road Gomat, Sultan Patti","27.9031493","77.7031374"
"ChIJHxNT8zhvdDkRRcQAKvqtbTg","Shri Sai Motors Car Repairing Centre","RPHG+HWV, Yamuna Expressway Parmar market, Agra Road, Kuberpur","27.8289985","77.72729489999999"
"ChIJ5SY6z6BGczkRn1d-CGeflgY","IndianOil","Ground Floor, Bajna Road Toli Khader, Naujheel, Chhinparai, Mathura","27.853962","77.651382"
"ChIJDbCLWuhCczkRmqvEzQMUrdw","IndianOil","Ground Floor, Raya Nauhjhil Road,, Chhinparai, Naujhil","27.7819682","77.7201419"
"ChIJiesVNgBDczkRhUXHWAqDfxI","Cng pump","QPCC+F92, Surir","27.7711334","77.72088529999999"
"ChIJR0dz8NZDczkRdhrLx3dkB-s","vivek varshney","QPCC+3V8, Surir","27.7701674","77.7222177"
"ChIJp7w284RDczkRzS6df8OHYG4","Hindustan Petroleum Corporation Limited","Ground Floor, Khawal","27.753633","77.728965"
"ChIJ2dafjkJpczkRj_7QWqIt4Vk","Bharat Petroleum, Petrol Pump -P G Filling Station","TENTIGAON, MATHURA","27.7297509","77.7367129"
"ChIJY_-sdgBpczkR8Kc45VxD06g","Avni filling station syarha","PMPG+2H, Siyaraha Bangar","27.7343483","77.6774083"
"ChIJefO6IXJoczkREUO-XK2D5fM","IndianOil","Arrua, Tentigaon","27.7222052","77.73514050000001"
"ChIJCU76-2xvczkRZVGtqHIQ_jY","Hindustan Petroleum Corporation Limited","Ground Floor, Gonda Road, Mant","27.638508","77.729693"
"ChIJsRg2uENvczkRPLBHqJFz_rU","Hamara Pump Maant(krishan Kant Sharma)","Unnamed Road, 281202 Mat","27.6385239","77.7296216"
"ChIJNe_5oqJvczkRLpaZtodXR14","IndianOil","Ground Floor, Math Raja, Mant Road, Raya","27.629751","77.71942299999999"
"ChIJv0hnPABvczkRhPti9rDXp3w","Swagat indian Oli CNG pump","JP7R+6WP, Arruwa Banger","27.6130849","77.7423269"
"ChIJFWSL1YFvczkRIJPKdXecqnU","IndianOil - SWAGAT","Ground Floor Arya Samaj Road, Manth, Bheem Banger Near 100 Km RHS Noida To, Mathura","27.6128555","77.7419449"
"ChIJm2UI2j1vczkRoCC--gABDTM","Jawara Road Petrol Pump","JPP8+8F7, Mant","27.6357815","77.71618649999999"
"ChIJGwK7_9xvczkRA53x_Ki_PzU","Banke bihari feeling station","MP26+H6R, Mant Mula Bangar","27.6514971","77.7105277"
"ChIJH7Qxv916czkRQa8BZkKAVPg","Bharat Petroleum","Shivpuri, SH-80, Hathras Mathura Road, Mathura","27.549","77.7837"
"ChIJIQLbU2JwczkRwD0H4IAl4z4","Hindustan Petroleum Corporation Limited","Ground Floor, Mat, Shahpur Gausana","27.5219401","77.7304218"
"ChIJPSamUmJwczkROFsSwwkNgpw","Hindustan Petroleum","GPCJ+P35, Raya Road, Shahpur Gausana","27.5217508","77.7302351"
"ChIJ8Zy7Uup7czkRNM8epXLJ3qQ","PREM SINGH KSK","BAHADURPUR, Karab","27.49653229999999","77.7959122"
"ChIJS2sDOap7czkR-YMQTKMyNe8","Mohankumar","Mohankumar Karab, A, Vellalapatti","27.4821764","77.7995572"
"ChIJJzsxfgB7czkRhiEWcV2K3j8","Malhe cut","NH 530B, Bhainsara","27.5400314","77.7725682"
"ChIJPVtoJgh7czkRKyDLC7xZweQ","IndianOil","Mathura - Aligarh Road, village malhe, Raya","27.5402796","77.77078279999999"
"ChIJR1EAawBxczkRIzh0VZrLQ4M","अंबेडकर पार्क दीवाना खुर्द हनुमान बगीची","GPQR+GMX, Diwana","27.5388518","77.74172949999999"
"ChIJ7ZBii4d5czkRpEGXFXXJ0Ps","Jay Mata Di filling station","9RRG+G5V, Kailash Marg, Nagla Girdhar","27.3913736","77.8254065"
"ChIJgYQ4U1Z_czkRIsBvqWxGEEE","Shri Bauhre Jagan Singh Filling Station","Khandauli - Baldeo Road, Kilauni","27.3919883","77.846734"
"ChIJnbNYlsx5czkR86C5_jobe5Y","Shri dauji filling station","Sadabd road, Jataura, Baldeo","27.413021","77.8349029"
"ChIJbenKsrt5czkRqvXIx6wpRd4","IndianOil","Ground Floor Arya Samaj Road, Jatora, Mahaaban, Mathura","27.413214","77.83487699999999"
"ChIJFbbZlux_czkRjliOwxzmP_4","Hindustan Petroleum Corporation Limited","Khasra No, 1770M Mahavan, Averni, Mathura","27.41210699999999","77.849358"
"ChIJ93BOY555czkRCge9SjP5__E","Bharat Petroleum, Petrol Pump -Shri Badam Singh Filling Station","BALDEV, Mathura","27.415801","77.81976259999999"
"ChIJuVI8Im-DczkRpxrwUr_WlzM","Petrol","8RQM+FM6, Madaura","27.338654","77.8341467"
"ChIJ4X-bdAF8dDkRn3LbRhJkCSg","Essar Petrol Pump","829C+CM7, Agra","27.3185494","78.02166729999999"
"ChIJO3o5fQV8dDkRqM4GCc0NpVc","Hindustan Petroleum Corporation Limited","Ground Floor Agra Hathras Road, Etmadpur Road, Khandauli","27.3232417","78.0300896"
"ChIJD1ZyWR59dDkRjzM_neW_Uuc","Hindustan Petroleum Corporation Limited","Ground Floor Khandauli Baldeo Road, Etmadpur Road, Khandauli","27.3171383","78.02686400000002"
"ChIJY1SmkTB7dDkRjvxVd-On0S4","Ramnath filling station bpcl","827P+3MQ, Etmadpur Road, Khandauli","27.312709","78.03673739999999"
"ChIJGdKAEcJ7dDkR9ie7Yx80iu4","IndianOil","Ground Floor, Agra Aligarh Road NH 93B, Ujrai, Khandauli, Bamrauli Katara","27.290694","78.035505"
"ChIJHQc4csF7dDkRmdZtoyEaqoc","IndianOil","near Agra, Ground Floor Khandauli Etmadpur Road, near Agra, University, Ramnagar, Agra","27.309901","78.040401"
"ChIJuZtmcQ1wdDkR6CysgFe8UGQ","Hindustan Petroleum Corporation Limited","Ground Floor NH 2, Kanpur Rd, Chhalesar, Agra","27.2163927","78.09042149999999"
"ChIJvTQcpYBwdDkRxksZKhOjANI","Nayara Oil Petrol Pump","63C7+2Q2, Tedi Bagiya Road, Nagla Rambal, Kalindi Vihar, Agra","27.2200002","78.06438279999999"
"ChIJh80mmEF6dDkRIIvw7YuWmqI","Bharat Petroleum, Petrol Pump -Kusum Autos","Nagla, Agra","27.2489536","78.0462953"
"ChIJr4rr0wNwdDkRqnGr91AIfMw","Reliance Petrol Pump","NH-2 Kuberpur, Agra","27.2231024","78.11011189999999"
"ChIJvyw1hQ9wdDkR5s-orO4o_wU","NRL Mahindra Aamir Cng Petrol Pump","2, National Highway 2, Kuberpur","27.218352","78.09936379999999"
"ChIJdSMx1nNvdDkRTQtqDogM6fs","Bharat Petroleum, Petrol Pump -Narendra Filling Station","KUBERPUR, Agra","27.2183352","78.0993408"
"ChIJWzkPCQBxdDkRBPgeG-71LD8","CNG point","2, National Highway 2, Kuberpur","27.2182593","78.0994559"
"ChIJe_4uwnd7dDkRNDHO7K5-q7E","Megh singh filling station Nayara pump","Agra Jalesar road mudi, chauraha, Agra","27.2840115","78.0842837"
"ChIJ9Z8207V7dDkR0tetd2yAiTw","Hindustan Petroleum Corporation Limited","Ground Floor, near Agra - Jalesar Road, Etmadpur Road, Mundi Jahangirpur","27.284308","78.083863"
"ChIJsfEi8h57dDkR1rjxpFKKi04","Shree Shree Ramdas Ji Filling Station","Agra - Jalesar Road, Mundi Jahangirpur","27.2851175","78.08505020000001"
"ChIJZ-oIzTF7dDkRSaH1d7dxZtM","Hindustan Petroleum Corporation Limited","Ground Floor, near Tehri Bagiya, Agra - Jalesar Road, Naraich, Agra","27.23756509999999","78.0511449"
"ChIJKW9drG96dDkR9vX0qFcgA-c","HP PETROL PUMP -Yadav petrol pump","63H2+C38, Mauza Naraych Mustaqil Agra Jalesar Road, near Tehri Bagiya, Tedi Baghia, Agra","27.237565","78.051144"
"ChIJ45VNh8B7dDkR3G9y5FmlCYg","IndianOil","Khasra No 76, Etmadpur Road, Mundi Jahangirpur","27.2858154","78.0777694"
"ChIJW3--FxF7dDkRDdqBYjulRmY","IndianOil","Gata 628 NaraichMustkil, Khandauli Nh 509, Nandlalpur, Rambagh","27.2440463","78.0479301"
"ChIJMTE7ZvdvdDkRu69lGqqMpYU","IndianOil","Ground Floor, NH 2, Kuberpur","27.2254826","78.1228924"
"ChIJ_b27zi97dDkR238FjWkx9Zg","Mithlesh Telecom","1 Om Market, Jalesar Road, Tedi Baghia, Agra","27.23071","78.04907"
"ChIJSwre-KBxdDkRf3zaQkWwmeU","Kuberpur mandir","635W+FMX, mandir Road, Kuberpur","27.208737","78.096723"
"ChIJfzmsJ1RxdDkR9DgrGFmtS8w","Bharat Petroleum, Petrol Pump -R A Nariman & Co ( P) Ltd","SHAHADRA CHUNGI, NH 2 Agra Bypass, Agra","27.2121104","78.06763769999999"
"ChIJEZ-bxGJwdDkR_Fdip6kMkLU","IndianOil","NH 2, Agra Firozabad Road, Shahdara, Agra","27.2122042","78.0672313"
"ChIJ85JOBWNwdDkRvOmRtBGh3tQ","IndianOil","Firozabad Road, Sahadra, Agra","27.211382","78.068497"
"ChIJe7pT6I1xdDkR6IeRnCAbqZk","Hindustan Petroleum Corporation Limited","Ground Floor, Fatehabad Road, Agra","27.1437777","78.0831844"
"ChIJH3UblG9udDkRAZzPHvYtZYU","ESSAR","India","27.15217549999999","78.14391719999999"
"ChIJTTWS7QZydDkRIqkhi3lSaT8","G K Filling Station","Fatehabad Road, Bamrauli Katara","27.1277602","78.1068178"
"ChIJh4LQNItxdDkRrujIf_HglRQ","IndianOil","near D Marques Marriage Hall, Khasra 31MI 32MI, near D Marques Marriage Hall, Kalal Kheria, Fatehabad","27.1484438","78.0773152"
"ChIJ9fP5euxtdDkRlGUujXcQZmo","Metro Filling Station(CNG,Petrol Pump)","Fatehabad Road, Navameal, Nagla Garey, State Highway 62, Agra","27.1176219","78.1273594"
"ChIJQ3HAcxALwTsR33xhMJUzv8I","IndianOil","Ground Floor, SH 62, Fatehabad Road, Nagla Garhu, Agra","27.1175612","78.12734669999999"
"ChIJIXelidpxdDkRES2UW4rRXv4","Bharat Petroleum, Petrol Pump -Touraids (I) Travel Service","BASAI,VIP ROAD, Agra","27.1500398","78.0738437"
"ChIJ9QmDSZlxdDkRAd2aZ_H2V98","Madhu Highways Petrol Pump","147, Fatehabad Road, Tora","27.1512589","78.07128879999999"
"ChIJq3UsW7BvdDkR4kV4iR7Jr4E","Shri Gopal Energy Point (Indian Oil)","near Jheel Bhagel, Kabis, AGRA","27.1484566","78.16637349999999"
"ChIJYRd0VkEVdDkRSAbMUmZO4OI","Hindustan Petroleum Corporation Limited","Ground Floor, Fatehabad Road, Paliya","27.0394547","78.2759811"
"ChIJ3SEw559sdDkR7QUWtAHN-_0","Essar","36G2+5MJ, Mewali Kalan","27.075468","78.2016438"
"ChIJw-JMTgBrdDkRC1mLfJjR4c0","Bittu","369V+JWR, Sikrara","27.0691002","78.24476670000001"
"ChIJOwAAmTdrdDkR9V1gFoEpp3o","IndianOil","Ground Floor, Fatehabad Road, Wazidpur","27.0616005","78.2274853"
"ChIJEbIXiS4VdDkR7R0YmWkMZPc","IndianOil","Ground Floor, Fatehabad Road, Wazidpur","27.0616005","78.2274853"
"ChIJoeKHCgAVdDkRK8ziRZloXOY","EV STATION","21, Agra - Lucknow Expressway, Paliya","27.052187","78.279624"
"ChIJj1g9-hYVdDkREdYGbRsL3FE","Shri Bihari Ji Filling Station Paliya","27RC+H22, Agra - Bah Road, Paliya","27.0413757","78.270022"
"ChIJaSh-CgBrdDkRn9UiD5fowrg","Kanauj","36H9+85, Mewali Khurd","27.078059","78.21916999999999"
"ChIJC849qcBrdDkR0swodASoVnA","Ashok Yelar","Na Tanki Nagar","27.0735512","78.210123"
"ChIJ9V8w4TgVdDkRBzBxDBHGXh4","bjp Office","26HX+47M, Jagraj Pura","27.0278251","78.24815799999999"
"ChIJb5jHTSgVdDkRcemt9hL3hNY","Bansi Wale Filling Station (BP)","Mauza 217, Paliya Pratapura, Fatehbad","27.0376401","78.2789991"
"ChIJsePD2aAVdDkR0-AySX8Lj5Q","IndianOil","Ground Floor Block Fatehabad, Maharajpur, Barauli Gujar","27.0255555","78.2439784"
"ChIJCWwH2OMUdDkRrKiRA86xyFA","Indian oil","India","27.0255427","78.24402549999999"
"ChIJT-KWfQAVdDkRBJXZBVWqycI","Bharat petroleum,petrol pump-SS filling station","on, Shamshabad - Fatehabad Marg, Jagraj Pura","27.0257355","78.2583035"
"ChIJkVqmOBoVdDkRCHAnefMGkhQ","Karamraj petrol pump","fatehabad, State Highway 62, Agra","27.036403","78.2816794"
"ChIJH0yp9zQVdDkR8mrx6OdY794","IndianOil","Ground Floor, Fatehabad Road, Barauli Gujar","27.036087","78.281549"
"ChIJAQAAAP9HdDkRNNnx5yOL8bI","IndianOil","Datawali Road, Matsena","27.068981","78.47771399999999"
"ChIJqaxoWwA5dDkRF-fItg1XtAs","Lambardar Filling Station Bharat petroleum","3FFF+784, Matsena Road, Firozabad","27.0731451","78.4733258"
"ChIJ0aqvCdE3dDkRFpO3Wo108II","Hindustan Petroleum Corporation Limited","Ground Floor, Vijaypur Bheekanpur, Datauli","27.029195","78.5061039"
"ChIJdYanEADNdTkRPsu9Pu8xMDA","Munish Kumar kirana store","XM9J+5XP, Nagla Maharam Main Entrance Road, Urawar Hastarf","26.9678117","78.6826317"
"ChIJ9RDwMqPNdTkRFnWEVU7OGK4","Aman","Nagla Hari-Singh, Hastraf, Urawar Hastarf","26.951671","78.67445590000001"
"ChIJgQ7wf3fNdTkRNP7jbO8ykt8","भारत गैस एजेंसी","WMWG+M4J, Urawar Hastarf","26.946716","78.675281"
"ChIJ4QfcZ47NdTkRJWtXJLGhAYA","Hindustan Petroleum Corporation Limited","Ground Floor, Madanpur, Bhadhan Road, Urawar Hastarf","26.943859","78.67637599999999"
"ChIJvwbEdgDNdTkRwokgcYykrWk","Bharat Petroleum Petrol Pump Shala Haar Urawar","WMQ9+58, Urawar Hastarf","26.937979","78.66834399999999"
"ChIJ42m26Is1dDkR_rkonOlpHvU","Hindustan Petroleum Corporation Limited","Khasra No 0035 Shikohabad, Atapur Marg, Madanpur","27.007916","78.6348199"
"ChIJx4AJa-vNdTkRStXTGBsAqVU","Om Filling Station","Shop No Nr, Urawar","26.9367236","78.66755289999999"
"ChIJudTXihrPdTkRjAID1uB9X0Y","Hindustan Petroleum Corporation Limited","Firozabad, Ground Floor Agra Kanpur Road, Kathaphori, Shikohabad","26.975696","78.80303599999999"
"ChIJXdVXPhDPdTkRjZFNU9tvOsA","Jio-bp","Ground Floor, Bachela Bacheli Nh 2, Agra Kanpur, Near Milestone 287, Rd, Kathpori","26.9749345","78.8052225"
"ChIJuc74jQbPdTkR3rNmndOo9mI","Green Express Way","XR96+JGQ, National Highway 19, Gotpur","26.9690963","78.8113632"
"ChIJc1RucwDPdTkRZ8i-YeTSWZU","Ms/Hsd Panchsheel HP CNG Station","Normai","26.9644839","78.8164745"
"ChIJDSUwED7PdTkR5kgJv7KnaH4","M/s Laxmi traders filling station","Bauth","26.9390474","78.77611279999999"
"ChIJ3V2rrPLPdTkRQhwicvoftPM","Bharat Petroleum petroland cng pump","XR5F+P9G, Kumheri","26.9593246","78.82346749999999"
"ChIJ02RVbfPPdTkRKHf-B9OWcHo","Hindustan Petroleum Corporation Limited","Khasra No 13 & 15, NH 19, Agra Kanpur Road, Kumheri","26.957801","78.824901"
"ChIJt1h1n1_BdTkRZg_jkSTpkmQ","Hindustan Petroleum Corporation Limited","Ground Floor, Karhal Mainpuri Road, Kutukpur Buzurg","27.0206124","78.94873989999999"
"ChIJqXaXnvfDdTkRccLP2B14xjE","Hindustan Petroleum Corporation Limited","Ground Floor, Sirsaganj Road, Karhal","27.0052169","78.9313456"
"ChIJt9eGye_DdTkR5ATBFR9hD44","IndianOil","Ground Floor, Atirajpur,Karhal, Rajpur","27.004561","78.941116"
"ChIJ05vNJOrDdTkRVFt20_6zlVg","Bharat Petroleum, Petrol Pump -Mahendra & Company","KARHAL, MAINPURI","27.0028983","78.94227339999999"
"ChIJN7fa2wHBdTkR7n3Gy5iSLnk","CHHABILE FILLING STATION","Kurawali - Mainpuri - Etawah Road, Andani","27.0294491","78.9521802"
"ChIJ7aCEaEfBdTkRrVRqNPkga6o","IndianOil","Ground Floor, SH 83, Etawah, Road, Kutubpur Buzurg, Karhal","27.0298161","78.95210809999999"
"ChIJI5TAvMPDdTkRQFR0ByNV0jw","Bharat Petroleum","India","27.0044329","78.9554321"
"ChIJveIxTHPDdTkRvavGQEUHizE","Raavan Filling Station","New Bypass Road, Karhal","27.0190456","78.961906"
"ChIJfaYwHZrDdTkRqf8KjzgS4VQ","IndianOil","Ground Floor, SH 83, Karahal Dehat, Karhal Bypass Road, Etawah","26.9875402","78.94452679999999"
"ChIJA5P6wZDDdTkRxNw2RccBaGk","Nayara Petrol Pump-Shubh FC","XWPV+9V4, Karhal","26.98589309999999","78.9447101"
"ChIJCdP8P6TDdTkREkio5bax_-0","Petrol pump Karhal","2X4C+7XF, Manpur - Sauj Road, Kirthua","27.0059924","78.9727169"
"ChIJ27RnquXDdTkRfShGctbIpTU","IndianOil","Ground Floor, Kishni Road, Atirajpur","27.0061886","78.972949"
"ChIJP3-5BaDpdTkRrTJQeF64n_g","IndianOil - SWAGAT","Ground Floor, Km Stone, 101/2, Akbarpur Aunchha, Mainpuri","26.9682779","79.0192981"
"ChIJ-WjGuw_pdTkRm9cyRV-kmHM","CNG PETROL PUMP","X26W+FW, Agra - Lucknow Expressway, Kathua","26.95848039999999","79.0466878"
"ChIJm184kePpdTkRbIu2sP4YzDQ","IndianOil - SWAGAT","near Agar, Ground Floor Km Stone 104/3, near Agar, Agra - Lucknow Expressway, Basrehar","26.9581983","79.04678899999999"
"ChIJoSSFWwDpdTkRM53AvOzTznc","Indian Oil Petrol pump","X25X+4JC, Kathua","26.9578143","79.0490194"
"ChIJm_Y5y13ldTkRlcDPoGYzpTs","IndianOil","Ground Floor Baralokpur, NH 92, Bakauli","26.937278","79.18021399999999"
"ChIJ1wusu-b5dTkRH3qWa_Jtgj8","Hindustan Petroleum Corporation Limited","Ground Floor, Bhartana, Usrahar","26.9474339","79.3078501"
"ChIJOeLqHRL5dTkRTBHAM027Hpg","IndianOil","Ground Floor Takha, Ushrar, Airwa Katra","26.884185","79.32188599999999"
"ChIJc5j0LRD7dTkRmW4TSoWLjp4","Shivratan filling station","W76Q+W3, Rudrapur Itauhar","26.9122722","79.2876557"
"ChIJId8R-035dTkR5UM8XZjezkE","Mathura singh filling station","V8GC+332, Sutyani Marg, Umrain","26.8751449","79.3201486"
"ChIJSSJXYfT5dTkR-d_nGg1Qsl8","Gupta Kisan Sewa Kendra","Shop No 01, near Indian Oil Petrol Pump, Bidhuna Road, Umrain","26.87423379999999","79.3277974"
"ChIJjyPN5Or5dTkRH0qKmWg_KM0","Bharat Petroleum, Petrol Pump -Umrain Sales","Umrain","26.9277099","79.3524121"
"ChIJh1MQFDb5dTkRj0qNQpyS5ZQ","Pradeep Bio Filling Station","W9H4+63V, Jai Singhpur Kanak","26.9281137","79.3551691"
"ChIJ35Ftvxf5dTkR-gTiyF_LBMg","Hindustan Petroleum Corporation Limited","Ground Floor, Bidhuna, Turakpur Yasin","26.924378","79.359837"
"ChIJFQSH_U_5dTkR8pE7kwF6k1g","M.R Filling Station","V88H+J44, Maderiya basti","26.8665004","79.32782259999999"
"ChIJG2QgQlQbnjkRhLXghZRXM68","Bharat Petroleum Petrol Pump , RAW BALVEER SINGH RANVEER SINGH","AUSER ROAD, Saurikh","27.022455","79.475376"
"ChIJYcS3JnQbnjkRg-jlcD8lRSY","Do Sawar Filling Station","CSB Road, Saurikh","27.0145751","79.4879347"
"ChIJ7xMTAZ0bnjkROapk4v6FA1Y","Kanhaiya Lal cng Filling Station","Bidhuna Road, Saurikh","27.0149155","79.4887808"
"ChIJ1beGLO4bnjkROo9hVtOeyz4","S S K K Energy Station","Shop No 02, Arwa Rod, Kannauj","27.0221503","79.4875247"
"ChIJtUBt2eAbnjkR11KKyLqbMI4","Arvind Misthan","Sakrawa Roud, Saurikh","27.02929169999999","79.48781"
"ChIJ3xRvkJcbnjkRCnPqptbtWVc","IndianOil","2FGR+J6F, CSB Road, Kannauj, Saurikh","27.0269849","79.4908365"
"ChIJvedK9cwbnjkRiQCiBtnCHU0","Bharat Petroleum, Petrol Pump -Kewal Ram & Sons","CHHIBRAMAU-KEWALRAM, KANNUJ","27.0333556","79.49029399999999"
"ChIJtYWCsLsbnjkROhsRE-JEVUY","Hindustan Petroleum Corporation Limited","Ground Floor, Tirwa Road, Chhibramau, Alipur","27.030931","79.50070099999999"
"ChIJ-SJqQaRlnjkRiuZ_mCu-FS0","IndianOil","Ground Floor, Saurikh Road, Chibramau, Gyaspur, Airwa Katra","26.9771525","79.4952186"
"ChIJG6XWbYcRnjkRndoOv2zZ50k","IndianOil","Ground Floor Amolar, Jai Nagar, Talgram","27.062201","79.64830099999999"
"ChIJc0IsAgARnjkRKgLsUHz7wms","Maa Vaishno Petrol Pump ⛽","3J7J+XV, Atrauli","27.0652969","79.63064229999999"
"ChIJj-4qCHYRnjkRGZllbVRGKQM","Hindustan Petroleum Corporation Limited","Gata No, 1709 Chhibramau, Talgram","27.0414006","79.6464043"
"ChIJPeFpmooRnjkRPw58mSF4OlY","Mohit Shopkeeper","1, Chhochata Road, Talgram","27.03614679999999","79.6423156"
"ChIJA2AEZOVtnjkRjzNdW4HtBOs","IndianOil","Ground Floor Raipuvi, Gagemau","27.014629","79.785974"
"ChIJTxMnHkRznjkRsdIJPyOXXR0","petrol pump","nagariya, Naurangpur N","26.9816903","79.7833751"
"ChIJofDqlsRsnjkREIW3Js8Z0Aw","IndianOil","Ground Floor Nadesia, Jalalabad, Anaugi","27.047701","79.75580099999999"
"ChIJGYiXFRJynjkRk68452M2bx4","Hindustan Petroleum Corporation Limited","Ground Floor, Kannauj Tirwa Road, Tirwaganj","26.9786259","79.8116838"
"ChIJ0xbKdm8ZnjkRfh4jtbTQByw","Hindustan Petroleum Corporation Limited","Gata No 1687, Thathiya - Tirwa Road, Paithana","26.928961","79.883781"
"ChIJ-UBN-2lxnjkRP0U_FNJNA_E","IndianOil","Ground Floor Thathia, Tirwa Road, Paithana","26.9288018","79.88582269999999"
"ChIJ06_gBQBxnjkRFYRUpmbQRQ0","Yadav nivas(gaurav)","WVFW+RVG, Thathiya - Tirwa Road, Thathiya","26.9245655","79.89718979999999"
"ChIJ7aTsVZN_njkR5FM8AlXdn6c","Jio-bp","Chainage 217, 900, Agra - Lucknow Expressway, Gujepur","26.9045712","80.0136084"
"ChIJ1ZzP0_17njkRVsfwH0Qw3c8","Hindustan Petroleum Corporation Limited","Ground Floor, Makanpur Road, Shekhupur, Bilhaur","26.91480099999999","80.002701"
"ChIJUe8yAo55njkR8Mn0vhUR1i8","Anandeshwar petrol pump","VXVQ+M6V, Makanpur","26.89424","79.98805999999999"
"ChIJdVxyGwB5njkRX2VBH430ZxE","Virmo","WX2H+QF2, Makanpur","26.9018779","79.97863269999999"
"ChIJ-djnXQB5njkRaCAR_ngXH5s","Babloo yadav house","WX2H+QF2, Makanpur","26.9018779","79.97863269999999"
"ChIJEXbAHwB9njkRU_TqJFtCWBo","Hindustan Petroleum Corporation Limited","Ghata No 414, National Highway 34, Medua, Bawan Jhala Muzaffarpur","26.893602","80.032425"
"ChIJ8_LC7XV_njkR80GQBVlCH18","Hindustan Petroleum Corporation Limited","Ghata No 414, National Highway 34, Medua, Bawan Jhala Muzaffarpur","26.893602","80.032425"
"ChIJaVyWGQB_njkRUwUEnfZeNzk","Hasimpura Deoband","W27P+64G, Manglore road, Hashimpur","26.9130559","80.03532849999999"
"ChIJKbFtFnJ5njkRGQYrReD0g1E","IndianOil","Ground Floor, Aakeen, Makanpur","26.8917091","79.973914"
"ChIJX5XGVDt_njkR8V9HY1IXtnw","Katiyar petrol pump","V2MP+QC3, National Highway 34, Bakothi","26.8843808","80.0360381"
"ChIJMxO3SOl-njkR7-AGTiM1hlY","IndianOil","Ground Floor, NH 91, Aakeen, Madwai, Bilhaur","26.8844188","80.036216"
"ChIJPWGhmFh_njkRh9zg97lcsOU","IndianOil","Bilhaur, Muhammadpur","26.8634997","80.01361899999999"
"ChIJLSsQ8eR-njkRPUXBFy4iqwo","IndianOil","Lock No IG13032/22046 Gt Road, Kannauj Road, Bilhaur","26.8757921","80.0398981"
"ChIJF5K105t5njkRmjEcEP1YHSE","PRATYANKAR FILLING STATION","VXJ8+R86, Bilhaur Makanpur Bishdhan Rasulabad Marg, Raugaon","26.8820263","79.9657749"
"ChIJgRVvCoV5njkRAHZWwPysPlA","Hindustan Petroleum Corporation Limited","Gata No 863, Vishdhan Road, Bilhaur, Makanpur","26.8812076","79.96455979999999"
"ChIJl_eGBAB9njkRnWWDQtbaPRE","Jio-bp","Chainage 227, No 100, Chainage 227, No 100, Agra - Lucknow Expressway, Sirdharpur, Unnao","26.936917","80.08947090000001"
"ChIJ5WhtUTV9njkRKsBwMiin58s","Jio-bp","Chainage 227, No 100, Chainage 227, No 100, Agra - Lucknow Expressway, Sirdharpur Gair Ahatmal","26.9364944","80.0893234"
"ChIJP4p5awCdnjkR2Cmbd4LTdYE","Gajikhera Sherpur kalan","V9J2+FQP, Sher Pur Kalan","26.8812169","80.3519443"
"ChIJVb0Yq3WfnjkRgZtq3Fz1Pmk","IndianOil","Ground Floor, Madar, Sandila,Behandar, Madar","26.931891","80.421071"
"ChIJxT9M6Z6hnjkRJ1rxZPYyERg","Hindustan Petroleum Corporation Limited","Gata No 680, 681 & 681KHA, Barra, Inayatpur, Hasanganj, Unnao","26.892032","80.495892"
"ChIJ_-B1RQCfnjkRJT2HQZDsIz4","Pancher shop","WC32+F7, Kursath Rural","26.90364599999999","80.400673"
"ChIJBxKHcAShnjkRxxCqZhiPg3M","Hindustan Petroleum Corporation Limited","Gata No 1132, to, Unchdwar Road, Hasanganj, Aoras","26.8984355","80.5412008"
"ChIJl-XHLQodnDkRIPqfkXn-j00","IndianOil","Gata No 1505, Shahpur Tonda","26.860184","80.602479"
"ChIJVfWdgqGhnjkR5QPnXQEKf3Y","IndianOil","Gata No 635, Hasanganj, Hajipur Gosha","26.90055","80.5371771"
"ChIJdX_uLQADnDkRXY-_GB2bkvU","Ravindra Filling Station","VM4F+J3F, Matriya","26.8565517","80.672685"
"ChIJZ8dGOEMBnDkRP8iKDMrOyTk","IndianOil","Ground Floor, Sakra, DM Road, Kakori","26.8230101","80.762501"
"ChIJoYVHMAD5mzkRcqNwIkrvVYU","SUSHMA FILLING STATION","Anora","26.7738635","80.8440408"
"ChIJQy58qfX5mzkRlbU_lhlAvU0","Shivam Filling Station","अमौसी स्टेशन रोड, Lucknow","26.7756904","80.8505002"
"ChIJIxbpDbf_mzkRAIObYx_lP8w","IndianOil","Ground Floor, Mohan Bypss Road, Amausi, Maunda","26.806353","80.823531"
"ChIJ-XKwFgD_mzkRV0OaJlcLo7E","B K FILLING STATION","RR58+G72, Maunda","26.8087663","80.8156466"
"ChIJFZYpA4X5mzkRkelgqScc5c8","Amar Jeet","001, Sadruna","26.7618149","80.8637524"
"ChIJFXFobCT5mzkRXku3obQF3s4","LUCKNOW TERMINAL GAIL INDIA LTD","QV98+7P8, Nadarganj, Amausi, Lucknow","26.7681532","80.8668369"
"ChIJkZTvQQD5mzkRNBXCOo4h9Fo","Buddha filling station","Village Anaura post amausi QRGX 8XM, Lucknow","26.7758368","80.849943"
"ChIJK6B04Ov6mzkR32suJMZROoA","Hindustan Petroleum Corporation Limited","Ground Floor, Raibareli Road, Kalli Pashchim","26.72581469999999","80.9607253"
"ChIJi-yxkPP7mzkR_6Z8fLMpgks","Nca Cg1","PXR7+MHW, Kalli Pashchim","26.7417441","80.963955"
"ChIJZUBRaeD6mzkR5S4PlwzuCWk","Green Gas Limited CNG Station","yojma mother station, sec 18, Vrindavan","26.741858","80.9639419"
"ChIJTxi8dwD7mzkRS8JgGWAJ-to","Puc check center","PXV6+97Q, SGPGI Rae Bareilly Road, Lucknow","26.743454","80.9607391"
"ChIJIfstyZH7mzkRVGR5PfO3b-M","IndianOil","Ground Floor, Padera - Raebareli Road, Mohanlalganj","26.7057121","80.9733524"
"ChIJAePBYQD7mzkR5V81waWDeHM","Bansis Fuels","PX4P+77H, Purseni","26.7056798","80.985726"
"ChIJSSIwqSb6mzkRa-nCjHVwDEs","Santosh filling station, Bharat petroleum","PWF3+4GX, Mati","26.7228517","80.90387319999999"
"ChIJwR_elYH7mzkRlwKk1BvUSeY","Sushil Gas Services","MXQJ+Q27, Topkhana, Topkhana, Nilmatha Bazar, Lucknow","26.6894058","80.98006"
"ChIJhUz_sHX7mzkRAMhN9s3-7JA","HP PETROL PUMP - RAMLAL & SONS","Plot No 439SA, New Defence Colony, Lucknow","26.7697284","80.94511609999999"
"ChIJa70fOgDxmzkRGPTfahDE32I","Aunrihar","MXVP+578, Mau Road, Mohanlalganj","26.6929161","80.9856997"
"ChIJXWsnX27kmzkR7ZDdKHuwPo0","Hindustan Petroleum Corporation Limited","Ground Floor, Sultanpur Road, Madhurmau Khurd, Lucknow","26.7812727","81.04619749999999"
"ChIJf4lxMQDlmzkRsAauf1YEwJQ","Rahi tent house dharma kataa bilding material and transport all India service.","Q2FW+R9X, Lucknow - Sultanpur Road, Pahar Nagar Tekareya","26.7742483","81.04540829999999"
"ChIJM2ZYg5LjmzkRE7cwS1dUEAM","IndianOil","Ground Floor, Lucknow - Sultanpur Road, Ahmamau","26.7989681","81.0089799"
"ChIJI9n8RwDDmzkR2Pc6l0eZpj0","Hindustan Petroleum Corporation Limited","Ground Floor, Mohanlalganj, Naubasta, Adampur","26.70347","81.180711"
"ChIJD-D6NwDDmzkRuj_fKSOn4lI","Jaid Qureshi","M5RM+VWR, Bahrauli","26.6922464","81.18475339999999"
"ChIJJRPsdQDDmzkRuuQxYhlsTWM","Airtel company tower","M5RP+59F, Bahrauli","26.6904375","81.1859219"
"ChIJQzXqVFLDmzkRZiEiRSz_u_s","Hindustan Petroleum Corporation Limited","Ground Floor, Nagram Road, Khawas Khera","26.684775","81.172525"
"ChIJsZaPdGrdmzkRkxfQ47NhLIQ","Hindustan Petroleum Corporation Limited","Ground Floor, NH 56, Sultanpur Road, Mohanlalganj, Rahmatnagar","26.7344767","81.1810623"
"ChIJJ8ehQQDdmzkRXn2CmFAYyqE","DARSHAN ENERGY STATION","P5JQ+2J6, National Highway 731, Salempur","26.7300278","81.18900579999999"
"ChIJYYId_D7dmzkRa0F3sJzju40","IndianOil","AP Sabha, Ground Floor Lucknow Sultanpur Rd, Gangaganj, Lucknow","26.731358","81.188737"
"ChIJ0c4Cm7_dmzkR3eyYrxdkS-8","IndianOil","Ground Floor Lucknow Sultanpur Rd, Rehmatnagar, Sultanpur","26.739152","81.169766"
"ChIJP6ZdYfDdmzkRhWDQS5ttSWc","Bharat petroleum, Darshan energy station","P692+VJQ, Gangaganj airtel, Gangaganj","26.7190246","81.2024505"
"ChIJgeKwpDPFmzkRGJT3UBL1rKg","IndianOil","Ground Floor, Crossing, Bhilwal","26.6789148","81.2683527"
"ChIJU9vxu0rFmzkRotPJeHzWDuI","Petrol","M7J8+JV3, Husainabad","26.6815101","81.26715829999999"
"ChIJU19_Si7FmzkRqMHMI_svGvY","Hindustan Petroleum Corporation Limited","Gata no749, NH 731, near Lucknow - Sultanpur Road, Haidergarh, Kakri","26.654884","81.292448"
"ChIJMxt4daXBmzkROQPiAtFOk_o","Hindustan Petroleum Corporation Limited","near CML Public School, Ground Floor Dahila Pokhra, near CML Public School, Road, Hasanpur","26.615466","81.24782499999999"
"ChIJNSMMM5_JmzkRbMSXwGPyU7U","IndianOil","Ground Floor Pechrua, Haidergarh, Road, Subeha","26.605984","81.380089"
"ChIJCzEZuOjJmzkRMi7RbvWdfpA","Bharat Petroleum, Petrol Pump -Aggarwal Auto Land","KHERSATIYA, BARABANKI, BARA BANKI","26.5927996","81.3863969"
"ChIJBa7RMCrJmzkRF-ZSkhQGInQ","Hindustan Petroleum Corporation Limited","Ground Floor, NH 731, Lucknow - Sultanpur Road, Gosupur","26.587932","81.396181"
"ChIJ3SZWAUHJmzkRiSXQYCgd63M","Jagjeevan fuel centre","J92F+F25, Koora, mohanganj-jais road, Mohanganj, Haidargarh","26.6011434","81.3726207"
"ChIJH4SyMNbJmzkR8DAsVjHkmGU","IndianOil","SH 13, Banda Bahraich Road, Ansari","26.6265639","81.36992819999999"
"ChIJ3-IO5czImzkR6oXmKSbbUAE","Indian oil Sita Filling station","Satrahi","26.6266835","81.3696183"
"ChIJgbnaQQDJmzkReEPZOvzOLPg","M/S Raj Karan Singh Filling Station -Indian Oil","Raj Karan Singh Filling Station Village And Post, Bhikhra","26.5845211","81.4113016"
"ChIJUbVaGwDJmzkRR4ZiSF0hXL4","Aaryaaarvibandanamonusingh cng haidergarh","J937+R8J, Haidargarh","26.6045812","81.3632674"
"ChIJX_5YW7_ImzkR-Hgx020d0TE","IndianOil","Ground Floor, Haidargarh","26.609664","81.361516"
"ChIJ3TjeojHPmzkRLG8bTFYL5JQ","Hindustan Petroleum Corporation Limited","Ground Floor, Subeha, Haidargarh","26.636197","81.370891"
"ChIJ4w8wojHPmzkRzxufz-nT2LQ","Online CNG Pump & MRF auth Tyre Dealer (Suresh Filling Centre)","J937+R8J, Near, Purvanchal Expressway, Haidargarh","26.6362738","81.37052539999999"
"ChIJIUruofTJmzkRfA3dPIT4Qi4","CNG STATION (MAIN)","HCGF+R4, Chaubeesi","26.5770711","81.4228538"
"ChIJHdxrJ6DImzkRENnTntkgfIQ","Hindustan Petroleum Corporation Limited","Ground Floor, Haidergarh Bachhrawan Marg, Jase Pur","26.604657","81.34924099999999"
"ChIJSXqCS2XJmzkRWq8uYTiSnNc","Reliance Petroleum","227301, Lucknow - Sultanpur Road, GRAM- GATAUNA, Haidargarh","26.6100109","81.34861800000002"
"ChIJXSK3M_PJmzkRAaDgeqsGIzk","Slp road Cng pump gotauna haidargarh","J89X+QQ4, Sultanpur Road, Gotauna","26.6193767","81.3494467"
"ChIJNcl0HwzJmzkRkIsc2YN-2Pw","IndianOil","Ground Floor, Haidergarh Road, Gatauna, Barabanki","26.619701","81.349381"
"ChIJN2YLTZI1mjkRc2PD7BlHUIs","SPSD FILLING STATION","Pure Ajitan, Unchgavon, Sujanpur","26.5614473","81.55259629999999"
"ChIJU5sDWpQ1mjkRtS7B_5DaapI","IndianOil","Ground Floor, Musafirkhana, Unch Gaon","26.56877699999999","81.5567983"
"ChIJv4f_d-01mjkRsPhlwa6mLUs","Jr kisan seva kendra unchgaon shukul bazar amethi","State Highway 31, Newaj Bhadar Garh","26.5688248","81.5574494"
"ChIJr97rfxVLmjkRQsoSEhxMaCc","Budhram Maurya Fuel Center","GGM9+Q8Q, State Highway 31, Chakdoma","26.5344723","81.5183462"
"ChIJs2Ad_TA1mjkRkGkJ-TUpVh0","Hindustan Petroleum Corporation Limited","Ground Floor, near Haidergarh Shukul Bazar Road, Subeha, Haidargarh, Zamin Husainabad","26.61794699999999","81.527206"
"ChIJ8dk4kTNJmjkRmq2fuhIHGNQ","Bharat Petroleum Petrol Pump , BHARAT FILLING STATION","VILL VISHAMBHAR PATTIDIST. CSM NAGAR AMETHI U.P","26.529226","81.656776"
"ChIJ84NT2w5BmjkR8UA9MJC9FR4","Hindustan Petroleum Corporation Limited","Ground Floor, Sultanpur Rd, Sadar, Haliyapur","26.511138","81.791692"
"ChIJ7Zx9edhBmjkRVLGeva5HeGo","Hindustan Petroleum Corporation Limited","Ground Floor, near Haliyapur - Kurwar Road, Isauli, Baldirai, Tirhut","26.482721","81.817582"
"ChIJq2tR8I9BmjkR2OuEb1p1tUU","IndianOil","Ground Floor, Dobhiyara","26.521762","81.819491"
"ChIJpXJ7OVRAmjkRLcJo-o76Hjk","Bharat Petroleum","India","26.5197259","81.82577049999999"
"ChIJ0S4xRfxrmjkRPKzgjhYtKqI","Hindustan Petroleum Corporation Limited","Gr Floor, Baldirai Kurebhar, Haliyapur Rd, Baraunsa, Dehli","26.478499","81.94911599999999"
"ChIJEYRj6I1rmjkRlQ1LgAG0gzs","Hindustan Petroleum Corporation Limited","Ground Floor, Haliyapur Kurebhar Road, Baldirai, Bahu Rawan","26.49145489999999","81.9053766"
"ChIJE3GJQrxpmjkRY6T3UpynAr0","Hindustan Petroleum Corporation Limited","Sultanpur, Gata No 45/A, Bindeswari Ganj Road Para Bazar, Nandauli, Baldirai","26.456532","81.888177"
"ChIJ5S00EpZvmjkRlzXveCpVK-4","IndianOil","Plot No 1015, Baldirai, Sadar, Dehli","26.47919109999999","81.9440439"
"ChIJOQBONIJrmjkR0Ucx0IpUlSM","Hamara Pump Baba Filling Station","Dehli Bazar","26.47863379999999","81.94893019999999"
"ChIJ4Y7brRJvmjkRNMSa14utL8s","Hindustan Petroleum Corporation Limited","Ground Floor Baldirai, KM Stone, near Purvanchal Expressway, 108 & 109, Bharsada","26.444471","82.007532"
"ChIJv7uOHKdvmjkR5w0-j9aLF9U","Bharat Petroleum Petrol Pump , SHAKTI PETROLEUM","VILLAGE MAJHWARA, PRAD","26.4288948","82.0372292"
"ChIJd2GA-tVxmjkRcEqvMjplM6A","Dinesh Diesel & Petrol Shop","C2QR+GC4, Lohgi","26.4387504","82.0410852"
"ChIJLSOrr0JvmjkRjFJeRiTgWNk","मां गैस चूल्हा रिपेयरिंग","बाजार, Haraura","26.4551701","82.00458809999999"
"ChIJjUlCAVVxmjkR8uNh8AyAKq8","Mahaveer agrahari koro tiraha","C3M3+WX8, Haliyapur Kudebhar Marg, Bahu Rawan","26.4347914","82.05496869999999"
"ChIJQSgfMOZxmjkRhN37ava3MCw","IndianOil","Koro","26.4319985","82.0637703"
"ChIJXb4ExK1wmjkRAwKMzY3rrLI","IndianOil","Ground Floor, Babhan Gawan","26.401299","82.12333699999999"
"ChIJSaJEmqlwmjkRETsuYL2ON60","Hindustan Petroleum Corporation Limited","Ground Floor, Chak Churavan Pur","26.393501","82.121501"
"ChIJOZY2dwBxmjkR_iZ9CZ4u85A","Jodh Mishra ka purwa haidnakurdh","C47C+4JJ, Haliyapur kurebhar rode, Phul Pur","26.4128273","82.1215072"
"ChIJ-4CS7Rh6mjkRDczoGwpLFIY","IndianOil","Ground Floor, Khedi,Bhadaiyan, Sultanpur","26.369329","82.120494"
"ChIJ9StHwqp3mjkRX6gXe5VtavI","IndianOil","Erul","26.4150746","82.1558754"
"ChIJe-tpOxl7mjkRGaekQEQRAaw","Kartik Indian gas agency","9469+XW9, Kheri Doda Pur","26.3624238","82.1198711"
"ChIJMcJ_9zJ3mjkRcVOBDmAehWk","Raj filling station","Katka khanpur, Semari Road, Sultanpur","26.4003961","82.17115609999999"
"ChIJ7-ASiHh8mjkR2s5dqz1Qa08","Petrol Pump","State Highway 34, Ratan Pur","26.2949375","82.0924375"
"ChIJZwe5PYx8mjkRj2to2tsH91I","HP Petrol Pump","73FH+W34, Faizabad - Sultanpur Road, Piri, Vallipur, Sultanpur","26.274755","82.07769259999999"
"ChIJVwgLEvB7mjkRgcaNV27K3yw","IndianOil","Ground Floor, Near Tantiyanagar Crossing, Byepass, NH 96, Bhadaiya","26.3077901","82.11632600000002"
"ChIJIXqJYJR7mjkRPUlTTHcTgSk","Hindustan Petroleum Corporation Limited","Ground Floor, SH 9, Tatya Tope Nagar, Sultanpur","26.31570829999999","82.1039766"
"ChIJHXGN2Vx9mjkRIYQYtSlDNBg","IndianOil","Ground Floor, Allahabad - Faizabad Road, Sadar, Odara","26.2802011","82.10678089999999"
"ChIJhaB0InZ8mjkRIhV7qNN8qA0","Reliance Petroleum","Ground Floor, near Sugar Mill, Kadipur Road, Kni, Basoudhi, Sultanpur","26.296112","82.09929699999999"
"ChIJob3cWAB7mjkR3m2IwVKwBfU","Gayatri filing station","Basaudhi, Sultanpur","26.3007575","82.0943167"
"ChIJ9Sf2RwB7mjkR_zWKtJ0m3sU","Hasan home","8434+HX7, Anganakol","26.3039119","82.1074293"
"ChIJkfv8vjl7mjkRIa2X-LE5noQ","IndianOil","Ground Floor, Panchopiran, Sultanpur","26.2747704","82.07765549999999"
"ChIJya61_P59mjkREkmhWAAHR40","Hindustan Petroleum Corporation Limited","Ground Floor, Civil Lines 1, Infront of District Industries Office, Sultanpur","26.26804139999999","82.07973199999999"
"ChIJTyLX5DB9mjkRiy4o6EaH7LQ","Ram Pyare Shukla","621, PWD Office Road Civil Line, 1 Ishi, Dayanand nagar, Sultanpur","26.2665294","82.08012579999999"
"ChIJnctRFwB7mjkR0NZzyYgRuvo","Power house Faridipur","8439+V42, Chandpur Saido Patti","26.3046444","82.1177605"
"ChIJR7KWCO58mjkRpW2Rg7L0xqQ","Hindustan Petroleum Corporation Limited","Ground Floor, Civil Lines, near Bus Depot, Sultanpur","26.2649266","82.0802635"
"ChIJfYNTja9-mjkR5shRq5nDe4M","Hindustan Petroleum Corporation Limited","Ground Floor Dandia Nagar to Gosaiganj Road, Itkauli","26.286482","82.137051"
"ChIJibHVEfJ8mjkRLQHMYRL20sc","Gomati Petrol Tanki","738F+GJP, Faizabad - Sultanpur Road, Badhaiyabeer, Civil Line, Sultanpur","26.2663445","82.0740885"
"ChIJ8UITwDN9mjkRoLdDPDIH2fM","IndianOil","Ground Floor, near Bus Stand, Civil Line, Bhadaiya","26.266202","82.07369249999999"
"ChIJVVSzu2h9mjkRncH4_G8tRLs","BABA FUELS","Pyare Patti Road, Sultanpur","26.2559753","82.0801898"
"ChIJU-HiJYV9mjkRL2aCw4OGUts","Petrol Pump (2024)","734J+92, Sultanpur","26.2559242","82.0800738"
"ChIJib1l9JR7mjkR-rctHYeaJTk","haji maqsood filling station","Ground Floor, SH 9, Tatya Tope Nagar, Sultanpur","26.31566","82.1038021"
"ChIJ7dk8On99mjkRUHW6oXLs5s4","IndianOil","Ground Floor, Sadar, Garhakalan, Bhadaiya","26.2519997","82.0780162"
"ChIJZUkLedqBmjkRO7n0SmR2BTs","IndianOil","Ground Floor, bikhar Lambhua, NH 56, Varanasi - Lucknow Road, Narharpur","26.1492906","82.2072862"
"ChIJBSqdp0qAmjkRIAIlUIhZGJk","IndianOil","NH-56, Madanpur, Rahayakpur","26.1613915","82.1930793"
"ChIJFxGQjh-BmjkRd0bihHU7em4","Reliance Jio BP Petrol Pump LAMBHUA Sultanpur","Khatauni no 2538 Village Bhadaiyan, Tahsil Lambhua, Sultanpur","26.1704942","82.18556000000001"
"ChIJ8aATFUV_kDkRzqxq3yJ6bTA","Virendra Filling Station(BPCL PUMP)","ON NH 731, LAMBHUA BYPASS, TO, Varanasi - Lucknow Road, Lucknow","26.14659619999999","82.2230107"
"ChIJCZfhvk1_kDkRXLZy4ipeWlE","Hindustan Petroleum Corporation Limited","Ground Floor, Garayen Road, Lambhua","26.1315116","82.2216066"
"ChIJ5a_gOwB_kDkRWffFLayI6aE","Hindustan Petroleum Corporation Limited","No 161 & 162, Varanasi - Lucknow Road, Sultanpur","26.131306","82.23789400000001"
"ChIJP3onfgB_kDkRKU_vI2Get0E","Parthivi filling station","46JP+RW, Shahpur Pooran","26.1311571","82.2379895"
"ChIJpYDbvN1_kDkRMfS1Bjc2IB4","IndianOil","Ground Floor, Mampur","26.1639982","82.2449604"
"ChIJxe98QgB_kDkRgb7uuET-VEA","PETROL PUMP MAMPUR SHOBHIPUR","567W+W43, Mampur","26.1647681","82.2452888"
"ChIJxSAvED57kDkRo1XIEhkIo_s","Bharat Petroleum, Petrol Pump -Saryu Filling Station","PARGANA-CHANDA, TEHSIL-LAMBHUA, Sonava","26.0209948","82.3633377"
"ChIJDS4gLwZ7kDkR1hOaw8-Qnpk","IndianOil","Ground Floor, Lucknow Varanasi Road NH 56, Gurahupur, Chanda, Bhua, Patkhauli","26.063997","82.320691"
"ChIJK-isl-5xkDkRpEhdenIiS2g","IndianOil","Ground Floor, NH 731, Babuganj, Dhakwa Bazzar","26.016767","82.366723"
"ChIJ5-hyZkB7kDkRHih9azW9d1o","Chaudhary filling station (Indian Oil)","3899+CM, Ghurahoopur","26.0685167","82.3192333"
"ChIJY3muh05xkDkRPPfbTPC9ExM","Rajesh Kumar Yadav","ward no.- 08, Nagar panchayat - Dhakwa, Sonpura","26.015407","82.3672742"
"ChIJzfFl_ndvkDkRLSeqoaTFp_8","IndianOil","Ground Floor, Badlapur, Singramau - Baharipur Link Road, Misrauli","25.948251","82.407102"
"ChIJZa7uYAdvkDkRMO0d48dG28w","Shree Heeralal and son's filling station singramau","Shree Heera Lal & son's filling station mishrauli, Singramau","25.9482377","82.4070995"
"ChIJ2TxR6NdxkDkRNnGz5i7NEwc","Hindustan Petroleum Corporation Limited","Ground Floor, near Karampur, NH 56, Badlapur, Chanda, Hariharpur","25.972491","82.387761"
"ChIJmRpZEm1vkDkRcmJgZEBew5s","IndianOil","Unnamed Road, Kaweli","25.9405109","82.4048943"
"ChIJD7TYCNJxkDkR2bTBmhq_TS4","Upadhyay Automobiles","Upadhyay Automobiles, Patti","25.9797038","82.38655539999999"
"ChIJrW2AB31xkDkRiBmODkb_t0A","IndianOil","Ground Floor, Nh 731, Patti, Diyawan","25.9812235","82.3840895"
"ChIJL6ToeXdvkDkR14-yOr5qBT4","IndianOil","Gata No, 422 to 425, Badlapur, Kushaha","25.9426775","82.4339407"
"ChIJlWLs0QBtkDkRbK75oS1GxAU","Hindustan Petroleum Corporation Limited","Ground Floor, Pargana, Badlapur, Pahitiyapur","25.924401","82.417501"
"ChIJ13SdP5NtkDkRc7FQLQgPkTg","Maa Vaishno Feeling Stations","WCF8+MWC, Pahitiyapur","25.9241798","82.4172597"
"ChIJH14kYJ1skDkRPIhVI5GTLuU","IndianOil","Ground Floor, Shahganj, Badlapur","25.8801366","82.475256"
"ChIJuZtud45rkDkRtTEuK848f2I","IndianOil","Ground Floor, Bami, Bataubeer Bazzar","25.911431","82.484011"
"ChIJQQca4sJtiDkRlTtNFdJIOkk","IndianOil","Ground Floor, NH 731, Badlapur Bypass, Sultan Rd, Sarokhanpur","25.8924429","82.46950799999999"
"ChIJyY442kVrkDkRoHP-wD1cDsU","Hindustan Petroleum Corporation Limited","Ground Floor, NH 56, Mirshadpur","25.861165","82.491441"
"ChIJjak2BPRtkDkRW2F9FwAdJBs","IndianOil","Ground Floor Badlapur, Sarokhanpur","25.8896459","82.46127729999999"
"ChIJjzHSXwBtkDkRW1eeKH0gvXs","Navisha Filling Station","VFQ6+XC8, Ramnathpuram, Badlapur","25.8899125","82.4610781"
"ChIJ6R96OPtskDkRdo6Yjy5DEyQ","IndianOil","Arazi No 822 Bangaon Patti, Badlapur","25.883491","82.44172499999999"
"ChIJXRWEZ8ltkDkRtnWCyxSHfco","Bharat Petroleum, Petrol Pump -Sarthak Filling Station","BADALPUR,GKP-ALLBD RD ,DST, JAUNPUR","25.88088340000001","82.4387521"
"ChIJE8IMU71rkDkRH4AaZKhOKFU","Pathak Fuels","On dhaniyamau, bypassing, Badari","25.8506702","82.5148586"
"ChIJoTo64RptkDkRSY30U2HZELo","IndianOil","Ground Floor, NH 56, Shahganj, Badlapur","25.901601","82.440501"
"ChIJm4z2MwAVkDkRbpAhVTCRFpI","Bharat petroleum, Sri Hari petroleum naupedwa","RG8W+QQ9, Udpur","25.8169086","82.54699839999999"
"ChIJT9oklm0VkDkR48oCjdFuIrU","Petrol Pump","RG8V+CGW, Mahmadpur","25.8161034","82.54381289999999"
"ChIJsaz5I-AVkDkRDPi5JookVwA","Bharat Petroleum, Petrol Pump -Mahendra Service Station","NEOPEDWA BAZAR,LKO RD,DST, JAUNPUR","25.8178059","82.54184409999999"
"ChIJnRKrY88VkDkRpOw97-_qxwY","IndianOil","Ground Floor, NH 71, Sadar, Baherwa, Lakhmipur","25.7995229","82.5592935"
"ChIJ5XskfgAVkDkRFbW19ZmfyeM","Niraj Filling station(Indian Oil)","RGGJ+R7Q, Kataka Chak English","25.8266003","82.5301746"
"ChIJ90YCuGg_kDkRUnurMwQatIU","IndianOil","National Highway 731, SAWANSHA, Baksha","25.7833485","82.57805030000002"
"ChIJHzcI_yoVkDkRqy9KB1iYaJI","IndianOil","Barpur, Pura Mohbbat","25.820602","82.504565"
"ChIJFyrpqZ47kDkRfGVAx_dxiOk","Hindustan Petroleum","PMC7+5R5, Jaunpur City Staion Road, Naiganj, Olandganj, Jaunpur","25.7204","82.6646"
"ChIJkXauIsA7kDkRERR6as7YcFo","Bharat Petroleum","NH-231, Badshahpur Jaunpur Road, Mahatma Gandhi Marg, Nayiganj, Jaunpur","25.7400737","82.6706805"
"ChIJ-8hQ27k7kDkRESg6Dmazazo","IndianOil","Ground Floor, Sunder Nagar, Jaunpur","25.735257","82.680072"
"ChIJmdW5L7c7kDkRG1SbvsvZy_I","Bharat Petroleum, Petrol Pump -Prime Allied Sevice Corp.","WAZIRPUR,JAUNPUR,DST JAUNP, Jaunpur","25.7342256","82.6828961"
"ChIJfUIJuUo6kDkRwEg4T0UvGQU","IndianOil","Ground Floor, Civil Lines Road, Jaunpur","25.73863709999999","82.6926684"
"ChIJfwig7fc6kDkR2v49qjCMb1Y","IndianOil","Ground Floor Jagdishpur,Sarai, Jaunpur","25.715649","82.702902"
"ChIJbxpjfKU8kDkRaQr1gXhCBuI","Nayara Petrol pump","MJHQ+FVQ, Unchani Kalan","25.6787113","82.6397479"
"ChIJMSrCNXY7kDkRK0i1LT1GpqQ","IndianOil","Ground Floor, Harbaspur","25.71345900000001","82.662183"
"ChIJ5_OcQMw7kDkR9Mvlgfn7phM","Hindustan Petroleum Corporation Limited","Ground Floor, Mirzapur Road, Jahangirabad, Jaunpur","25.708038","82.658866"
"ChIJb03wwFw7kDkRn-wvNexGmcs","Hindustan Petroleum Corporation Limited","Ground Floor, SH 5, Sadar, Raibhanipur","25.72830099999999","82.670501"
"ChIJ1V2SzmQ7kDkRwYWy-HJfY3k","Bharat Petroleum","India","25.702284","82.655554"
"ChIJ8Xxl4qs7kDkRAeaEqBPisPM","IndianOil","Ground Floor, Chandpur","25.730243","82.67191"
"ChIJEUPxzmQ7kDkRlJWZWaITE7c","Marat Petroleum","PM34+9J4, State Highway 5, Phoolpur","25.7022459","82.6555767"
"ChIJVz9gyYU7kDkRa9cVVjPqcn4","Baijnath Petro Mart Bharat Petroleum","Vill- Mustafabad, Van Vihar Road, Jaunpur","25.7233459","82.67887619999999"
"ChIJvfS5t7g7kDkRMeWrsnt0SLM","IndianOil","Ground Floor, Polytechnic Chauraha, Pukhta, Sarai","25.737409","82.675806"
"ChIJ-cjEkOY9kDkRRSnrs1U5j2k","Bharat Petroleum, Petrol Pump -Kumar Petro","NAIGANJ,JAUNPUR,DST JAUNPU, Jaunpur","25.7399845","82.64784970000001"
"ChIJCy3wErQ7kDkRSjJytWlfxgo","Naiganj kumar petrol pump","PMRC+6F4, Rajgarh Colony, Olandganj, Jaunpur","25.7405125","82.6712031"
"ChIJqREizgM7kDkRP1V4dkriRt0","Bharat petrol pump","PM5P+XM2, Jaunpur","25.7098999","82.68664299999999"
"ChIJSb_ziB07kDkRALlDCqymb3c","Bharat Petroleum Petrol Pump , GREENLAND FUELS","PMWC+HJ5, Sultanpur Road, Katghara, PARAGANA - HAVETEHSIL, SADAR, Jaunpur","25.7467524","82.6718408"
"ChIJE0kmFKM7kDkROT-TA8zfFNo","Bhagwan Das. & Sons , Ranjan Enterprises","PMGV+CWM, Vill - Jagadishpatti ,Matapur","25.72609079999999","82.6948063"
"ChIJSexLTVQlkDkRIDORXh1ebss","Bharat Petroleum","Sirkoni Jaunpur Varanasi road, NH56, Jaunpur","25.66748199999999","82.7322373"
"ChIJJaRpWwAlkDkRTjjFNtiWe28","Kgn car ac repair","MP9J+C6V, Sirkoni","25.6686153","82.7305524"
"ChIJuYzaJYQxkDkRadVKFYeef8U","Kisan Sewa Kendra Husepur Petrol Pump","Husepur, Kabulpur","25.6737626","82.76774859999999"
"ChIJ0QlghRkvkDkRjrsgYADavMI","IndianOil","Ground Floor, Durbeshpur, Jalalpur - Chawari Road, Bishunpur Majhwara","25.6077","82.7693"
"ChIJhwu2nRkvkDkRoXMI0YFamgA","Darbeshpur Petrol Pump","JQ49+WRX, National Highway 56, Jaunpur","25.6073627","82.7696244"
"ChIJDSqhgXIxkDkR0MWvAdJjFW4","IndianOil","Gata No 399 Amahit, Sadar, Husepur","25.679294","82.77688599999999"
"ChIJPYSJBHMpkDkRojFuACKdr_0","Bharat Petroleum","NH-56, INDUSTRIAL AREA, KARKHIYONKARKHIYON","25.541828","82.801476"
"ChIJLR0OIRMpkDkRUZ4PML3whqg","Hindustan Petroleum Corporation Limited","Ground Floor, NH 56, Kerakat, Rehati","25.586751","82.776265"
"ChIJkRJlVdkpkDkR6rNigFSzgmc","IndianOil","Ground Floor, Asbaranpur","25.5524299","82.7836214"
"ChIJdzMKegApkDkRSNmgUdXFpBU","Hindustan Petroleum Corporation Limited","Ground Floor, Upsidc Industrial Area, NH 56, Pindra, Kolsala, Karkhiyaon","25.548301","82.79780099999999"
"ChIJKa77NCUpkDkR00VuqekSl7A","IndianOil","Ground Floor Trilochan, Mahadev, Bishunpur Majhwara","25.566401","82.78850100000001"
"ChIJC0iyQfMpkDkRMsEaz7L7KeQ","Gail india pvt. Ltd. Cng pump","GRV2+253, Agro Park, Karkhiyaon","25.5425126","82.8004112"
"ChIJhzTqObspkDkRghG0d1kH1Pg","SP SIDDHARTH FEELING CENTRE","Trilochan Mahadev, Rehati, Chhatari","25.5726455","82.7803955"
"ChIJe141PQApkDkRzIxzelw4KWk","Bharat petroleum","HQFH+V6, Chhatari","25.5747148","82.7781177"
"ChIJc9DDbqEvkDkRRCjb2o1I8-Q","JIO-BP PETROL PUMP","Rehati","25.594652","82.7742265"
"ChIJjxpbeY4pkDkRXGZp5H7zgck","IndianOil","Ground Floor NH 56, Phulpur","25.516537","82.812409"
"ChIJrdZNg1HUjzkROQK5PJqA8Qg","Hindustan Petroleum Corporation Limited","Ground Floor, Varanasi - Lucknow Road, Babatpur, Sagunha","25.435101","82.85550099999999"
"ChIJ8RnftcHVjzkR3aSJ21KCGzI","IndianOil","Ground Floor Ajgara, NH 56, Pura Raghunathpur, Babatpur","25.462825","82.839315"
"ChIJoyaUW_rVjzkRepj1odmXiIQ","IndianOil","near Industrial Estate, Ground Floor basni rd,babarpur, near Industrial Estate, Pura Raghunathpur","25.4480297","82.84161379999999"
"ChIJc8bH5hTVjzkRnw7VNHOpOiI","IndianOil","Ground Floor, Babatpur Kapsethi Road, Pindra, Kavirampur","25.44108739999999","82.8278957"
"ChIJ-0dNl_PVjzkRQt91YlHbjDA","IndianOil","Ground Floor, 39 Gtd, Khuthana, Bhagwanpur","25.436818","82.82747599999999"
"ChIJs-LbtH7VjzkRXSvI_X735uM","GAIL CNG Sanchetana Filing Station","CVM4+RMC, near PNB BANK, Sagunha","25.4345684","82.8566302"
"ChIJeTjpXGvVjzkRBWNtW2ruc3g","JNG Feeling Station","NH-31 (Old NH -56, Airport Road, Babatpur","25.4312547","82.8595043"
"ChIJ_YK5VgDVjzkRhPP36gHLQZ4","GAIL CNG ,JNG FILLING STATION BABATPUR VARANASI.","CVJ5+CP5, Shishwa","25.4310044","82.8593447"
"ChIJjzX6Xk7VjzkRzTIJGzSKslc","Hindustan Petroleum Corporation Limited","Ground Floor, Airport Road, Babatpur","25.430831","82.859161"
"ChIJ9dRkXcrVjzkRyS0Ux2cxgGg","Hindustan Petroleum Corporation Limited","Survey No, 178, Kolasla, Pindra, Gangapur","25.464101","82.879701"
"ChIJcUO_8xTVjzkR-abHgLpVh-0","IndianOil","Gata No 173, Pargana Kolasala, Assi, Gangapur","25.4642668","82.88177309999999"
"ChIJ3xixUGvWjzkRb9Fj5uMXovg","IndianOil","Gata No 902, Babatpur, marg, Jamalpur, Pindra","25.4621756","82.80445379999999"
"ChIJ1a9iXPHUjzkRuYLs4h2fiHk","IndianOil","Ground Floor, NH 56, Airport Rd, Bamokhar","25.4253891","82.87050119999999"
"ChIJSXfVMvLUjzkRaUTcEEPLSgs","BBC petrol pump","CVFC+HR7, Jamaalpur","25.4239133","82.8720542"
"ChIJ4W9mYRnWjzkRz162hs6R7Jg","IndianOil","Ground Floor, Pindra, Kolasala,Belwan, Pindra","25.4788507","82.804578"
"ChIJ2ZOPlMnVjzkRCR0cB_SMEP4","IOCL BOTTLING PLANT VARANASI","CVCF+4J4, Bamokhar","25.4202592","82.8740637"
"ChIJEcotXcEsjjkRpKVAV_eTyVg","IndianOil","Tarna NH 56, Shivpur, Varanasi","25.369314","82.92450699999999"
"ChIJU4xE-1EsjjkRlQKgFWpYWKo","IndianOil","NH 31, Airport Road, Suddhipur, Varanasi","25.359163","82.960518"
"ChIJR4jYIlEtjjkRmCH2HCY7mZc","BP Petrol Pump","9WF9+7V8, National Highway 31, Wazidpur","25.3731657","82.91969809999999"
"ChIJD-50STktjjkRSOCrOvALsu0","Hindustan Petroleum Corporation Limited","Ground Floor, Phase 2, Ring Road, Koirajpur","25.373073","82.909649"
"ChIJD_XF1sYsjjkRXUorsuV7US8","PRIMAX HOSPITAL","India","25.371077","82.9228175"
"ChIJgyb6shctjjkRrIklF-c03A8","GAIL CNG Kesari Filling Station","Varanasi - Lucknow Road, Ganeshpur","25.369278","82.9245285"
"ChIJM5ujIcIsjjkRv-GF5epuDaU","BP Oil","9W9G+9V7, National Highway 56, Bharilayi, Varanasi","25.3684047","82.92715969999999"
"ChIJ4x_78DgsjjkRgx5yQ8VLitE","IndianOil","NH 56, Tarna, Shivpur, Varanasi","25.368377","82.9279846"
"ChIJ6TbgbWvTjzkRGM_Q-mylPlE","potrol fual","Varanasi Division, Mobile 786 Varanasi.Kotwan","25.3910139","82.901742"
"ChIJj-ctPmgtjjkRYQsIF69vPY4","GAIL CNG CGS Mother Filling Station","9WQM+XP7, Varanasi Ring Road","25.3899182","82.9342984"
"ChIJaXykqlnTjzkR3DkJOBNmyuA","IndianOil","Ground Floor NH 56, Birapatti, Harahua, Luchchepur","25.393397","82.893625"
"ChIJD6KZCqXTjzkR0r79RTEMTI0","Bharat Petroleum Petrol Pump , GAUTAM FILLING CENTRE","VILLAGE DUNIYAPURHARHUA, Rameshwar Road, Varanasi","25.39049","82.888361"
"ChIJw0jzZdQtjjkR39Gg-wAQFRE","IndianOil","near Lohta Police Station, Plot No 535 & 563, Kotwa Road, Sadar, Birapatti, Varanasi","25.3484213","82.91528830000001"
"ChIJ9VL-NuYtjjkRuWuzalU5iWY","Mahadev Indane Gas Agency","Chhataripur, Varanasi","25.3638759","82.9529428"
"ChIJLykO3NwtjjkRg5F4rO9Ar2M","Tausif Petrol","Road, Kotwa, Tariya","25.3453599","82.9310284"
"ChIJJ6wnMsAtjjkRyCwK0sWPW2o","Nadeer Husain Fuel Shop","Tadiya Rod, Tadiya, Kotwa, Varanasi","25.3448732","82.9317402"
"ChIJgzE7sPEtjjkR-fKdaE45W-s","JAINUL ABDIN","Madarsa Islamiyan, Kotwa, Gadhai","25.3425558","82.92803409999999"
"ChIJ0RlZVgDVjzkRzo2qaaNVn60","AJAY FILING STATION CNG","CV6P+M83, Sehmalpur","25.4116453","82.88578989999999"
"ChIJ0d8iiL3UjzkRu0UCHzgo1HY","Ajay Automobile","Sarayswami","25.4116934","82.88563300000001"
"ChIJd9l6ipctjjkROH59FNoGL9c","IndianOil","Ground Floor, Sadar, Dandoopur","25.3867692","82.96424189999999"
"ChIJn4X59_sujjkR3bTlrFyyGn4","IndianOil","NH 29, Ashapur Chauraha, Varanasi","25.3625549","83.0307862"
"ChIJb83zTQAvjjkRvzCMHSDo2YA","Sathwan pahariya bela roud","पेट्रोल पम्प, सतावन","25.3976943","83.0106234"
"ChIJj1kYLQAvjjkRXuPSVK-iU9A","M/से SHREE फिलिंग KSK","92H5+X37, Bela Road, PAHARIYA, Sathawan","25.3799146","83.00768529999999"
"ChIJ724GewAvjjkRabHsOACG6D0","Petrol pump","C226+P6C, Sathawan","25.4018238","83.010514"
"ChIJHygWrzwpjjkRaGXc_MaPbl0","IndianOil","Ground Floor, Ajgara, Damodarpur","25.4052998","83.02704659999999"
"ChIJr6KSBp4ujjkRTa5iYSJiNqQ","Hindustan Petroleum Corporation Limited","No 171/7 Azamgarh Road, Lalpur, Soyepur","25.372121","82.99362099999999"
"ChIJiVE58XkvjjkRahDiUikcA-Q","IndianOil","Sadar, Ashapur Road, Varanasi","25.3625724","83.0307569"
"ChIJoU9ZOYstjjkRXvvDWWOs_5Q","IndianOil","Ground Floor, Near, Ashapur Road, Tilmapur","25.3674045","83.0399094"
"ChIJgQXlB7AvjjkRxmYIg6dVjoU","Bharat Petroleum, Petrol Pump -Dhanwantri Filling Station (Adhoc)","TILMAPUR ON NH,SARNATH ,DS, Varanasi","25.36446459999999","83.035466"
"ChIJMyhi5eQvjjkRjsYzpqF27I4","Baba Vishwanath Auto Fuels","SA-6/125, M/5, Gautam Buddha Rajpath Road, Asapur, Varanasi","25.3597653","83.02070739999999"
"ChIJ0_r7a1wvjjkR698ZFTzSMBY","GAIL CNG Shankar Station Filling Station","LALPUR,VRNSI-AZMGD RD,DST, Varanasi","25.3694461","82.99372269999999"
"ChIJw0ACZAAvjjkRWN0UmeGeasY","Alok filling station","SA-15/232, Hiramanpur, Varanasi","25.3658333","83.0389766"
"ChIJW5PxW50ujjkRv_MGzwpPK8o","IndianOil","Azamgarh Road, State Highway 73, Lalpur Pandeypur, Varanasi","25.367018","82.993679"
"ChIJoQLva2EpjjkR0pkE2oJYRNA","DEO KSK","Jairampur","25.4190625","83.0343125"
"ChIJo33DkEcpjjkRZxuOkbYd7qU","IndianOil","Ground Floor, Sarnath - Munari Road, Jairampur","25.419391","83.0342034"
"ChIJZ6MTh4kujjkRLC4gm0DvvfI","IndianOil","NH 29, Ashapur Road, Pandeypur, Paharia, Varanasi","25.357128","83.00915499999999"
"ChIJOWOOgoIujjkRRO6_WE_KljU","Bpcl Petrol Pump","75, National Highway 28, Mawai","25.3635664","82.9932208"
"ChIJXWK_wWsvjjkRK8ObKdWY-Hs","Rajghat Gas Service","925Q+MJH, Lerhupur","25.3591941","83.03909569999999"
"ChIJedsxu74vjjkR4g6LuSOV_-0","Vinayaka Filling Station","Sa, opposite Union Bank of India, 20/170-B, Paigamberpur, Asapur, Varanasi","25.3536291","83.0250465"
"ChIJ684xwnArjjkRMk_Op6qQT4E","Badami Gas Agency","CX7Q+Q28, Unnamed Road, Chandapur","25.4144071","82.987563"
"ChIJ_xceAtk7jjkRhDK8R3EUO-g","JAIGURUDEV PETROL PUMP","244, Hanumanpur Road, Hanumanpur, Mughalsarai","25.28862489999999","83.1250199"
"ChIJ9TYWfDM7jjkRNk9SD9wxOT0","Bharat Petroleum, Petrol Pump -Shaheed Agyat Filling Station","CHANDASI,MUGHALSARAI,DST C, Chandauli","25.2901456","83.10480199999999"
"ChIJBa5aW-g6jjkRyOpLrAJ286U","Hindustan Petroleum Corporation Limited","Ground Floor, GT Road, Mughalsarai","25.28677099999999","83.109711"
"ChIJA-9ItLs6jjkRqD99ZfHtLSs","IndianOil","Ground Floor Chandauli,Alampur, Mughalsarai","25.296442","83.093322"
"ChIJBxDTfPs7jjkRdH4o49BQuHA","IndianOil","Ground Floor, Old, GT Road, Chandhasi","25.2976206","83.0906268"
"ChIJ0e-hqms7jjkRoWm_61fESSg","Gupta Service Station","96, Ganjkhwaja, Mughalsarai","25.2837754","83.1155672"
"ChIJmdiZ0Io7jjkRnIvvWpJqiLg","Kisan sewa kendra","843W+3RG, Jalalpur","25.3026809","83.1470643"
"ChIJ1S9DbgA7jjkRn_PxLzv_LbA","SK Petrol Palace BPCL Petrol Pump","73XQ+FR6, Chandhasi","25.2986704","83.0895144"
"ChIJiZkn4Ug7jjkRD_0ytrgtNb4","IndianOil","Plot No 66 MI & 8788/2, Patpara Crossing Jalalpur Chotu Sarai, Alampur","25.302769","83.147821"
"ChIJodHZcaU6jjkRKFtt4swjD1I","Hindustan Petroleum Corporation Limited","Ground Floor, Chandasi, Varanasi","25.298801","83.087801"
"ChIJn33z99I7jjkRuIdJ9oQUOmU","Sharib Husain","Satpokhari","25.3052122","83.084954"
"ChIJBy2xpMg7jjkRjSnU63dUHms","Bharat petroleum premium petro filling station","Alinagar Road, Mughalsarai","25.2776099","83.12809299999999"
"ChIJjbRDf547jjkReuHBZa1irys","Bharat Petroleum, Petrol Pump -Shree Neelkanth Filling Station","74PV+CC9, MUGHALSARAI, DST CH, Saresar","25.2843727","83.1444867"
"ChIJZQ07umw7jjkRWt6ZYWY2f7Y","Bpcl Mughal Sarai Installation","74MV+CM9, skaldiha highway, Mughalsarai","25.2835428","83.1442379"
"ChIJFc5UwWs7jjkRuf-twRf3PVw","Hindustan Petroleum Corporation Limited","Ground Floor, Alampur, Sakaldiha - Mughalsarai Highway, Saresar","25.286601","83.147801"
"ChIJ5a6gPxI7jjkRbozMhuK7buM","IOCL BKPL Pump Station","74JQ+3P4, indian oil tank, Mughalsarai","25.2801256","83.1393331"
"ChIJnTLoZQU7jjkRv36KBgsaTDg","Hindustan Petroleum Corporation Limited","Ground Floor, Alinagar Road, Mughalsarai","25.276581","83.13143099999999"
"ChIJE2UUOic7jjkRTxHh3ycPYfs","Indian oil Depo mugalsarai","74GQ+RW2, Alinagar","25.27750769999999","83.1396036"
"ChIJPbTWb4A7jjkRA57As6jvm6Y","IndianOil","Ground Floor, Mughalchak, Bilardih, Alampur","25.2738747","83.1391865"
"ChIJ0_tUGws7jjkRwIY-G1jC6GY","IndianOil","Ground Floor, Old, Grand Trunk Road, Alinagar","25.2739683","83.14003060000002"
"ChIJA4VGq5o9jjkRqWv17mJQFhI","Hindustan Petroleum Corporation Limited","Ground Floor, NH 2, Bichiya, Hinota, Chandauli","25.259811","83.239841"
"ChIJ_aNNi1k8jjkRyyq4zslmndU","Hindustan Petroleum Corporation Limited","Ground Floor, Ganj Khwaja, NH 2, Grand Trunk Road, Lauda","25.2637201","83.1957501"
"ChIJHe1brigWjjkRUl3e7gYNDHM","Chaurasia Service Station (Bharat Petroleum Corp. Ltd.)","7764+83H, NH_2, (G.T.Road), Ward No. 3, Nehru Nagar, Chandauli, Delhi - Kolkata Highway, Bichhiya Kala, Chandauli","25.2608958","83.2555988"
"ChIJp2n6CmI8jjkRtkpg2xwE0Do","IndianOil","Ground Floor, NH 2, Adsand, Rema","25.268626","83.179746"
"ChIJmfk3gi8WjjkRIAG8qnLIt3A","IndianOil","Ground Floor, near DM Office, NH 2, Barthara Kalan, Chandauli","25.2609286","83.25895299999999"
"ChIJbZolqIA8jjkRUYPuluB2CNM","IndianOil","Ground Floor, NH 2, Rewsa","25.268199","83.1697603"
"ChIJTbMDgq49jjkRW4AVmp1CuRY","KRISH AUTOMOBILES","India","25.2616183","83.2131483"
"ChIJ9wHvKgA9jjkR6nT4qIr4sOk","IndianOil","near Surya Rama Centre, Ground Floor Jhansi, near Surya Rama Centre, Mughalsarai","25.2615099","83.2126033"
"ChIJ-cgW8SQ9jjkRbTisEZDMYyE","Bharat Petroleum, Petrol Pump -Nk Pandey & Co.","JHANSI,ON NH, DST CHANDAUL, Chandauli","25.2618326","83.2121714"
"ChIJN7pkIQA9jjkRZxqpTEl4OpQ","Maa kamakhya uriya pump m.k.t hotal jhasi Chandauli","7665+WXR, Jhhansi","25.2623625","83.2098906"
"ChIJDbfCDQA9jjkRQ5ZGz8vUZ5A","Maa kamakhya uriya pump","7665+WXR, Jhhansi","25.262143","83.209642"
"ChIJ4xQGRFM8jjkRba5n0LeIL4A","Hindustan Petroleum Corporation Limited","Ground Floor, Lauda","25.262681","83.20664099999999"
"ChIJW-02PgA9jjkRa117lo86Vhw","MAMA BHANJA SYNERGY P.V.T. L.T.D.","7674+47H, Mohammadpur, Asian Highway 1, Rampur Urf Akabarpur","25.2627344","83.2055374"
"ChIJJTYj0V09jjkRh8hajJ5kCfQ","Hindustan Petroleum Corporation Limited","Ground Floor, NH 2, Grand Trunk Road, Lauda","25.26191099999999","83.20384299999999"
"ChIJn14H-1M8jjkRGONTDqdWmi8","HP PETROL PUMP - KISSAN SERVICE STATION","HP Dealers PO Launda Jhansi Chandauli, Varanasi","25.2622169","83.2037203"
"ChIJe67zVAA9jjkRbuL4Hr1kfes","Jai Mata Di Filling Station - Indian Oil","7673+54X, Mohammadpur","25.263439","83.202803"
"ChIJnWl6SlE8jjkRraCbtLjsaCI","Bharat Petroleum","7672+8FR, Service Rd","25.2633587","83.201128"
"ChIJrzw5j1k8jjkRV3U6lk43Nrw","Hindustan Petroleum Corporation Limited","Ground Floor, Mohammadpur","25.264543","83.192365"
"ChIJsQy15V48jjkRMamIMXiEwqM","Raja Service Station (IOCL)","Grand Trunk Road, Mohammadpur","25.2655048","83.1899303"
"ChIJsxNgB3Q9jjkRKyGDajg8-kI","IndianOil","NH 2, Ganj Khwaja","25.2663792","83.1897795"
"ChIJIftXeJkRjjkRwlgMKXkd7UQ","Hindustan Petroleum Corporation Limited","Arazi No 153 NH19, Delhi - Kolkata Highway, Varanasi","25.2490931","83.36771449999999"
"ChIJ-91dIwARjjkRvkawpBWH4-w","Abhishek Tour And Travels","69X9+M92, Saiyadraja","25.248065","83.3680133"
"ChIJfxPaWcgRjjkRJIB75-Mq9vA","Hindustan Petroleum Corporation Limited","Gat No 1340, NH 19, near Varanasi, Delhi - Kolkata Highway, Bagahi Kumhapur","25.248072","83.368371"
"ChIJsXIeJQARjjkRQppzMG8YFkU","Hindustan Petroleum Corporation Limited","Ground Floor, NH 2, Narwan, Bagahi Kumhapur","25.2495261","83.36672899999999"
"ChIJxd4NJXIRjjkRAzYtl8Qn5E8","IndianOil","Ground Floor, NH 2, Adsand, Bagahi Kumhapur","25.2481596","83.3701888"
"ChIJhc4AJwARjjkRDxfaw7Rhuz0","Amarrnath Fuels","AH1, Bagahi Kumhapur","25.2492019","83.3704078"
"ChIJG5-rMAARjjkRKPeH4CgHMrM","MAHADEV Energy Bharat Petroleum","AH1, Bagahi Kumhapur","25.2490494","83.37131769999999"
"ChIJXTz_AQARjjkRG3SW_W5BzyA","Bagahi service station BHARAT PETROLEUM","69X7+RP, Bagahi Kumhapur","25.2494448","83.3644379"
"ChIJoRUhQAARjjkRTYPadfjOZmA","भारत यूरिया पंप","Bharat Uria pump 19, near Bharat Petroleum, National Highway, Bagahi Kumhapur","25.2488497","83.3721052"
"ChIJzaRVSQARjjkRztcEF7WQ4H4","Bagahi kumbhapur","69XF+765, Bagahi Kumhapur","25.2481318","83.3731114"
"ChIJZb77fwARjjkRpwhD4D4jaDc","R.J Chandauli","69XF+2M5, National Highway 19, Bagahi Kumhapur","25.2474753","83.3745649"
"ChIJRQkdawARjjkRDvWjSi1lZxc","RPM FUELS Indian Oil Petrol Pump","69WG+XCG, Bagahi Kumhapur","25.2473952","83.3753296"
"ChIJS2d8r1sRjjkRq56OQan3Fhw","Baghai Kumhapur","69WG+XCG, Bagahi Kumhapur","25.247445","83.3760643"
"ChIJmVRUP7kRjjkR_sMzZKN78B4","Pahadi Mata Fuel Centre","Bagahi Kumhapur","25.2487145","83.3591684"
"ChIJ_zmtZVgRjjkRCbj1XEt56Ic","KAILASH FUELS JIOBP PETROL PUMP","Kailash Fuels, Delhi - Kolkata Highway, Barati Kamraura","25.2471468","83.37861939999999"
"ChIJk2WesEYRjjkR61BTO5HVbWM","Reliance Petrol Pump","Grand Trunk Road, Raghu Patti","25.24718399999999","83.37876279999999"
"ChIJR1TR7fkRjjkR_wjt0tRmIFw","Siyaram Energy station - BPCL","Plot no 833, Opp BP-Chandauli Saiyadraja bypass, GT Road, Saiyadraja","25.2480766","83.35647519999999"
"ChIJMebee0ERjjkRUoXEZ3Z8vzw","BP Petrol Pump","Grand Trunk Road, Bagahi Kumhapur","25.2474568","83.3548801"
"ChIJUWGPelYRjjkRnlhD_g2piXg","Hindustan Petroleum Corporation Limited","Arazi No 358, Syyedraja Zamaniya Road, Marui","25.26361199999999","83.366149"
"ChIJpRueUTwRjjkRWooJ-qmYzKc","IndianOil","Ground Floor, NH 2, Naubatpur","25.246382","83.3887963"
"ChIJH9h5XxAMjjkRNFI7L_SWp6s","बाबा बिल्डिंग","India","25.2220313","83.49373179999999"
"ChIJMXYfFAANjjkR4lJqJEQPgMQ","CNG Pump","6FFQ+5FH, Dhanichha","25.2229451","83.48872910000001"
"ChIJB2nHfBcMjjkRSi0jqj1VgMc","IndianOil","Ground Floor, NH 2, Akorhi, Khamidaura","25.2230273","83.488659"
"ChIJQfcrhLwLjjkRuOZoWMJ201g","ESSAR Petroleum","6G4J+JF6, Sarangpur","25.2065453","83.5311365"
"ChIJNWs2kmR1jjkRiUueObLslns","IndianOil","Ground Floor, Durgawati, Awarahiyananchal, Dumraith, Bhabua","25.1917013","83.51342249999999"
"ChIJVTowIQANjjkRxB9BSO3suN0","SNL motors Durgawati","6FG9+MC9, Kulharia","25.2280099","83.4688212"
"ChIJoThvrq8LjjkRqXUNkTnRsg8","Hindustan Petroleum Corporation Limited","Ground Floor, NH 2, Sonawan","25.2000243","83.5413641"
"ChIJ0XziIwDhjTkRqGv9yHLgME4","Jiobp Pump","5J98+3Q6, Mohania","25.1676631","83.61687870000002"
"ChIJ0VAAH-_ZjTkRZfAv_icWmdo","Bharat Petroleum Petrol Pump , JAY MAA MUNDESWARI DH","PARMARPURKESHRIGANJ","25.1676631","83.61687870000002"
"ChIJB-jJTVrhjTkRGIRca7ZRmYo","Maa Bhavani Petroleum","Parasia - Nabinagar Road, Barej","25.1538426","83.62255359999999"
"ChIJhwCrUQDhjTkRla9z2RWV3c4","Tirupati Balaji Service Station & CNG","5J94+GJM, Grand Trunk Road, Mohania","25.1688345","83.6065344"
"ChIJM8DYOxbgjTkRFYM1BlzFaJU","IndianOil","Baspurwa","25.1684958","83.60646229999999"
"ChIJFb7074jhjTkRCaopiSz1yLo","Hindustan Petroleum Corporation Limited","Ground Floor, Anwari","25.153178","83.621781"
"ChIJc4AnrWjgjTkRL1gBS7VNdGI","HP PETROL PUMP - SRI RAM PETROLEUM","HP Petrol Pump Awari P/o-mohania, Patna","25.1530988","83.62213969999999"
"ChIJo2ujpNDhjTkRLk0RNF1EM70","Maa Mundeswari Petroleum","Dadwa, Mohania - Ramgarh Road, Mohania","25.176572","83.63031199999999"
"ChIJNSwjc7PhjTkR9F_pvHI0qLM","Kisan filling station","Nh2 Devkli Mohania, Mohania","25.1703051","83.601592"
"ChIJL5bpJfThjTkRHHtnxRpXz8Y","IndianOil","Ground Floor Dewakali, Akorhi","25.17001999999999","83.600583"
"ChIJ1wweLDbhjTkRClO8sDNkVxc","IndianOil","Ground Floor Chechariya, Akorhi","25.19064000000001","83.630085"
"ChIJkZux49rhjTkRtXP9fSRwzT4","Hindustan Petroleum Corporation Limited","Khata No 105, Plot No 1172, NH 2, Barej","25.150718","83.648038"
"ChIJR2VUo8DFjTkRj-D3ug_sEeM","Prakash kumar","10 Nh2, Kudra","25.0247275","83.8066671"
"ChIJHcqU_bbFjTkRfomOe-rwvCg","Hindustan Petroleum Corporation Limited","Khasra No 31 Khata No 31 Sakri, near Maa Sharda Dharam Kata, Belbhadra, Kudra","25.009726","83.8116416"
"ChIJWXrxJF7EjTkR8TrjI5pg5yk","IndianOil","Ground Floor, Kudra, NG 2, Kaimur, Bhabua","25.035889","83.808332"
"ChIJ7X2jzdTFjTkRt8ZlCogAyZM","Rohtas service station","NH2, Sakri","25.0362958","83.8084337"
"ChIJIf4wLqfFjTkRBhDSQlFHq5U","Maa Saraswati Fuel Station-BPCL","Sakri","25.034056","83.8032315"
"ChIJO45NuWfFjTkRjwoDT7YC4Wg","Alpha","Bus Stand, 63, Mokaram","24.994173","83.812113"
"ChIJXxyOkH3FjTkRqRUnDA6AoXY","NITESH ENTERPRISES","01, Khudra","25.0456887","83.79625709999999"
"ChIJQQZ_Hj3FjTkR31q1FWwKQeE","Rampur Petrol pump","Village-rampur, Kudra","25.0423372","83.7886295"
"ChIJdwumbnvFjTkRUWnYvu7Mubs","Bharat Petroleum, Petrol Pump -Janakdulari Petro Point","CHENARI,ROHTAS, ROHTAS SASARAM","24.9963173","83.8469834"
"ChIJ89-8TTbHjTkRDYNZSLhdYNo","Hindustan Petroleum Corporation Limited","Ground Floor, NH 2, near Chenari, Post, Padari, Sabrabad","24.9957726","83.8478226"
"ChIJg0b_br3EjTkRlGLr9RZtpJQ","Bharat Petroleum","2QWM+347, Kudra - Bhabhua Road, Jahanabad","25.0451546","83.78279359999999"
"ChIJr97v4f23jTkR-aANWrHXih8","Hindustan Petroleum Corporation Limited","Plot No 62 & 63, Khata No 32 & 39 NH 2, Thanua, Shivsagar","24.964246","83.9335567"
"ChIJo4Vwh_u3jTkRAiwGp7_vtOU","Indian Oil Petrol Pump","2, Sasaram Rd, Dilia, Sasaram","24.962503","83.93741899999999"
"ChIJs1-jt_23jTkR8LwmmPpE1ns","ESSAR Oil Petrol Pump","2, Sasaram Rd, Dilia, Sasaram","24.963183","83.93416900000001"
"ChIJMVCcvWC3jTkR3U8Jsrdtq1U","IndianOil","Ground Floor, kaua Dehri","24.96112669999999","83.94466919999999"
"ChIJuVV8DwjIjTkRczoVfJ8GtSg","IndianOil","Ground Floor Shivsagar, NH 2, Gandhi Path, Rohtas","24.96966","83.92116999999999"
"ChIJt9OG-v3HjTkRATK7rwFA2FY","IndianOil","Ground Floor Grdhariya, Shivsagar","24.9712257","83.9136027"
"ChIJYyT3EqK3jTkRxE_MBzx08Ag","IndianOil","near Kumhau, Ground Floor NH 2, near Kumhau, Gate, Dalmianagar","24.947412","83.96790299999999"
"ChIJxfdTxNDHjTkRF6_PL8O0zPw","Hindustan Petroleum Corporation Limited","Ground Floor, NH 2, Bamhaur","24.9761554","83.89829900000001"
"ChIJI77yzSW3jTkRbTAmxpibESc","Bharat Petroleum, Petrol Pump -Mansarovar Service Station","SASARAM TOWN2,ROHTAS, ROHTAS SASARAM","24.9380812","83.9678512"
"ChIJX42O12O3jTkRpRDLNglvrvI","Bharat Petroleum, Petrol Pump -Prakash Petrol","SASARAM TOWN4,ROHTAS, ROHTAS SASARAM","24.9524438","83.98293509999999"
"ChIJfbhkYkKwjTkRFyQlS4PtWgc","Bharat petrolium (Karwandia Service)","Service, Grand Trunk Road, Karwandiya","24.951776","84.07231"
"ChIJPYXY0ku3jTkRWLUtB7bzl-A","New Jawahir Ram mohan Ram Petrol Pump","Ara - Sasaram Road, Navaratan Bazar, Laxkariganj, Sasaram","24.9532732","84.0120738"
"ChIJ239GkyyxjTkReUIf7Ytd0oM","Bharat Petroleum-maa Tarachandi Fuels","W2HP+6P, Kota","24.9280822","84.03682739999999"
"ChIJ83c14q-xjTkRIXDmERasNWw","BPC Sashi Fuel","Dhankarha","24.9180676","84.069441"
"ChIJL5nXBFCxjTkRfSXRgZi_cHg","Hindustan Petroleum Corporation Limited","Ground Floor, near Central Jail, Basantpur","24.9540576","84.0572126"
"ChIJm39V56WxjTkRDhsaJrxsE14","Girija Niwash","Canaodia Petrol Pump, Dilia, Sasaram","24.9548696","84.0302148"
"ChIJQSKq3LmwjTkRweevv-hYjLA","Bharat Petroleum","India","24.9549278","84.02795859999999"
"ChIJqyG43LmwjTkRTw6k0oa1qGY","Prakash Petrol","Opp- prakash petrol pump, Grand Trunk Road, Sasaram","24.9549694","84.0270482"
"ChIJET4XiEKwjTkR7lxJUX7nPEA","IndianOil","Ground Floor, Sasaram","24.9523232","84.07354"
"ChIJ_-ER5rawjTkRh5Bpv4XRd3U","IndianOil","Ground Floor, NH 2, Gandhi Path, Sasaram","24.954536","84.02403989999999"
"ChIJbXWhG3m3jTkRxFbLzYw_Csg","Bharat Petroleum, Petrol Pump -Maa Service Station","SASARAM TOWN1,ROHTAS, ROHTAS SASARAM","24.9497556","84.0158151"
"ChIJ1xQNQqSxjTkRC4RptzCBXOY","Hindustan Petroleum Corporation Limited","Ground Floor, Grand Trunk Road, Sasaram","24.954301","84.018231"
"ChIJR0yv6bSwjTkRWQOJDOjdqLY","Bahadur Brothers Petrol Pump","821115, Khilanganj, Laxkariganj, Sasaram","24.9543887","84.0182079"
"ChIJg6uM0ku3jTkRQPsZ_oVqhas","भारत पेट्रोलियम","India","24.9533356","84.0120335"
"ChIJCziO8LKujTkRRhssTefNT3w","Hindustan Petroleum Corporation Limited","Ground Floor, Dehri","24.9000201","84.1832201"
"ChIJuyLAYqOujTkR0qtdVFK56jw","IndianOil","Ground Floor, Road, Dalmianagar, Tilouthu East","24.8952135","84.1698839"
"ChIJv5gUPtCrjTkRs8ljVph-WOk","Petrol Pump","Khemda","24.8767805","84.2187348"
"ChIJty1gZu6ujTkRNpUjr5LFVmA","Hindustan Petroleum Corporation Limited","Ground Floor, near Coal Depot, Khairahi, Sakhara","24.9162223","84.15724929999999"
"ChIJhyVsSO6ujTkRNmeYlnGOwHA","Bharat Petroleum (Ram Service)","Sakhara, Rohtas, NH-2, Sasaram Akhori Gola Road, Dehri On Sone, Dehri","24.9170781","84.1554917"
"ChIJ83kJVvCujTkRwQaojcFIbV0","IndianOil","Ground Floor, NH 2, Grand Trunk Road, Sakhara","24.9178163","84.15149869999999"
"ChIJiV5E6EupjTkRSXDn9ye7B54","Bharat Petroleum","W54R+75X, Pali Road, Gandhi Nagar, Dehri","24.90573180000001","84.1904953"
"ChIJ4fFVQpCvjTkRWKqd39-Uyp4","Bharat Petroleum, Petrol Pump -Siddharth Petro Centre","DEHRI-ON-SONE3,ROHTAS, ROHTAS SASARAM","24.9085324","84.1855021"
"ChIJh2uO8LKujTkRPg4w7h4eC4s","HP PETROL PUMP - DAMODAR PRASAD SARAOGI DEHRI HP","HP Dealer, beside jagrup singh road, PO, DT, Shivganj, Dehri","24.9001319","84.183334"
"ChIJaTDPZJ2pjTkRHt2f5yY_u_I","Kitchen Appliances","Station Road, Jakhi Bigha, Dehri","24.9130723","84.18596889999999"
"ChIJeYTqUFSvjTkRzuQlX6AoThE","Kitchen","Kitchen Products, Station Road, Dehri","24.91320889999999","84.185625"
"ChIJIc9jLYWvjTkRVpcPEVNSg7s","Sunrays Trading","Ambedkar Chowk, near Bandhan Bank, Dehri","24.9046575","84.17684369999999"
"ChIJOQsXq86ujTkRoxW7MmZDWc8","IndianOil","Ground Floor Jakhi Bigha, Dalmianagar, Dehri","24.914392","84.179909"
"ChIJ4T29qs6ujTkR1UHFbQwDaEY","Hindustan Petroleum Corporation Limited","367/B, 369, New Area, Khata No 159, PN CS, 367/A, Canal Road, Jakhi Bigha, Dehri","24.9155603","84.1804808"
"ChIJt8_-OLiujTkRxuTVXHmG0cU","Ramarani Petrol Pump","W54F+WJV, New Dillian, Dehri","24.9073546","84.1740523"
"ChIJuwzZ7BuvjTkRIAZXHa16USw","Hindustan petroleum","W5CJ+2G3, Dalmianagar, Mathuri","24.9200389","84.1813485"
"ChIJgYqpKgCpjTkRFB-WbifGTuU","Makraen","W6F5+45R, Dehari","24.9228687","84.2078842"
"ChIJC8sNcxipjTkRijdCTQztK-w","IndianOil","Ground Floor, Dehri Nasriganj Road,Dalmianagar, Makrain","24.924133","84.20702399999999"
"ChIJu56QdACvjTkRUsgsw5Xs4Jo","Dehri on sone nh2","W55C+4G4, NH2Dehri","24.90775069999999","84.1713415"
"ChIJWxNZ98CujTkRGGJ431Oz9EI","Hp Petrol Pump - Adhoc Five Star Fuel Station","HP Petrol Pump Post Dehri-on-sone Dt- Bihar, Patna","24.911286","84.16752799999999"
"ChIJ7_0eHYaqjTkRaJtYJo0jt3k","IndianOil","Ground Floor, Shirpal Chak, Barun","24.8362123","84.2593984"
"ChIJhdZNkBQAjTkRD-mM5SXt-zs","Hindustan Petroleum Corporation Limited","Khata No 63, Plot No 443 NH 2, Barun, Tengara","24.817125","84.2866466"
"ChIJm263ay8AjTkR3Y-yPFfPjFE","S.Deo Filling Station,Bharat Petroleum","National Highway 2, Pirtampur","24.8034638","84.3026441"
"ChIJlVNuASsAjTkRnRVXRfF3Jz8","Bharat Petroleum","Bhupatpur, Aurangabad, NH-2, Grand Trunk Road, Aurangabad, Aurangabad","24.7994976","84.30975749999999"
"ChIJAUe4IMP57TkRJXDv2gYELPI","Reliance Petroleum","NH-2, PLOT NO 78, TOUZI NO 4854, MOUZA SIRPULCHAK, VILLAGE DAYALPUR, PS, DISTRICT:, Barun","24.8341895","84.2641756"
"ChIJ87iXegCrjTkRHUCiuWkIvnw","M/S Ritesh Petroleum","Touzi no 4854, Reliance Petroleum, Nh-2, Plot no -78, Village, Dayalpur, Barun, Sasaram","24.8342983","84.2642127"
"ChIJRRmKna4BjTkRLirODtm2nUc","Home","R79J+QWQ, National Highway 19, Bhopatpur","24.819463","84.28235749999999"
"ChIJ85PaP6yrjTkRuQsR0vJjN6U","Bharat Petroleum, Petrol Pump -Ram Nandan Prasad","SINDURIA,NH2,AURANGABAD, AURANGABAD","24.8430232","84.2522292"
"ChIJj5NgXQCrjTkRjlSjSJBDtUM","Cng Pump Station Indian Oil","NH 19, Sinuriya","24.8439942","84.2491762"
"ChIJQ2D6_OqrjTkRUaNKr5HFWGU","IndianOil","Ground Floor, NH 2, Barun","24.848896","84.24432"
"ChIJ24ssDS38jDkR969zpdYLOA4","Hindustan Petroleum Corporation Limited","Ground Floor, MG Road, Aurangabad","24.7485556","84.36440259999999"
"ChIJGZwjMTP8jDkR0-cji8hewVs","IndianOil","Ground Floor, New area, Maharajganj Road, Aurangabad","24.750669","84.368269"
"ChIJTwF99zD8jDkRodYF_vWnggE","BPC Petrol Pump","P9R9+J27, Ratanua","24.7415264","84.3675445"
"ChIJb3v7OHb-jDkRY0SiU5GB_m4","IndianOil","Ground Floor, Jasoia","24.766332","84.3530653"
"ChIJ-Xt7FTf8jDkR3VOZq3wvnzI","IndianOil","Ground Floor, NH 2, Ratanwa, Ramesh Chowk, Aurangabad","24.7410349","84.3712441"
"ChIJs7_G6HL-jDkRBguN_eIhMUA","Hindustan Petroleum Corporation Limited","Ground Floor, Jasuiya More, Aurangabad","24.772181","84.345551"
"ChIJLZSryFT9jDkRSlMjJv4W7RM","Om Service Station","near Overbridge, Bypass Road, Aurangabad","24.7489426","84.3615799"
"ChIJ39zJCQBf7TkR0uXqOyRrSFQ","Reliance Petroleum","Khatauni No 695 &560, National Highway 19, Hajipur, Bagh Tola, Jadhua","24.7623638","84.3578218"
"ChIJhWDvQ639jDkR6knJMxc90iU","Bharat Petroleum, Petrol Pump -Om Service Station","AURANGABAD TOWN1,AURANGABA, Aurangabad","24.753368","84.37311199999999"
"ChIJJbTkTwD9jDkR8XwtOit_2sk","Jaiprakash Singh more Ramabandh","P9W4+JC2, Rama Bandh","24.7427441","84.3552559"
"ChIJU67ttEr8jDkRIa_j9WWONLs","Nagmatiya Petrol Pump","Aurangabad","24.7513495","84.3763129"
"ChIJa62Dq7X9jDkRyfCdXgSyIAo","Bharat Petroleum, Petrol Pump -Aurangabad Service Station","PANDEYPUR,AURANGABAD, Aurangabad","24.7490238","84.37756430000002"
"ChIJz0BZ3vD8jDkRYo8gJP8s8ww","IndianOil","Grand Trunk Road, Aurangabad","24.7400602","84.3734597"
"ChIJm6nj9339jDkRUxkLtbVXAhM","Sohar bigha","P9XJ+F78","24.7486689","84.3807025"
"ChIJb2q8xl7_jDkR1qHKRcEHIrA","IndianOil","Ground Floor Kartaha, Gurmia Chowk, Dhobaul, Grand Trunk Road, Manjurahi","24.7700922","84.349625"
"ChIJ68rqZuf9jDkRu4dQUQcJ204","Fuel And Gas","Tiranga Lodge, Yamunanagar Road, Sahid Nagar, Aurangabad","24.7388331","84.37905719999999"
"ChIJw38JQWT_jDkRKdih5kWYd4g","IndianOil","Ground Floor, Bajauli, Chatra","24.7367543","84.34493429999999"
"ChIJb8g65XL-jDkRzZgpkXZbTsY","Hindustan Petroleum Corporation Limited","Ground Floor, Jasuiya More, Aurangabad","24.772181","84.345551"
"ChIJzbL8jwv-jDkRtVvOHWXY680","Jio","India","24.7778814","84.3495865"
"ChIJpcfmvnH_jDkRdrIOhIv-vzE","Ankit Sharma","Chatra","24.7336265","84.33617269999999"
"ChIJm5_v04PkjDkRRQ1l5H_EDF0","Hindustan Petroleum Corporation Limited","Ground Floor, Deo More, NH 19, Grand Trunk Road, Aurangabad","24.704571","84.474701"
"ChIJkXUsLwDjjDkRX0gUobVE6hU","Jio pump","PF82+V2W, Kanbehri","24.7172429","84.4500844"
"ChIJCT0IIZ1VjDkRRijCvfqKVWU","IndianOil","Ground Floor, Nh 2, Kanbehri","24.7134157","84.45491009999999"
"ChIJ1wp2ewDjjDkRxlzGbZ0rUn0","Indian tayr repering Kanbehari","PC9V+CJ, Kanbehri","24.718622","84.444075"
"ChIJK0xoFIrljDkRZ-fIfOjl3wM","Bharat Petroleum, Petrol Pump -Nagmatia Motor Works","SHEOGANJ, AURANGABAD, Aurangabad","24.7034499","84.47492849999999"
"ChIJHQHUoHz9jDkRPG9ar6vuoYg","Bharat Petroleum, Petrol Pump -Shivam Services","AURANGABAD TOWN2,AURANGABA, Aurangabad","24.7340574","84.41200479999999"
"ChIJD6BvOG7kjDkRlpN4dGk3I8s","Indian Oil Petrol Pump Sheoganj Auto Center","MFXR+2JH, Grand Trunk Road, Shivganj","24.6952503","84.4941491"
"ChIJZwEW66jnjDkRT6xbZeNndq4","Bharat Petroleum - Varsha Service Station","Madanpur 2Aurangabad, NH-2, Grand Trunk Road, Madanpur, Aurangabad","24.659848","84.57323199999999"
"ChIJi8vOrarnjDkRGGoby0l1uK4","Hindustan Petroleum Corporation Limited","Ground Floor, Ghatrain","24.6633324","84.5645619"
"ChIJsxfKrqrnjDkRhZdQ_7kj9y4","HP PETROL PUMP - VIVEK GRAMIN SADHAN MADANPUR HP","AT & PO Madanpur Ghatrain Bihar, Patna","24.6630472","84.5644654"
"ChIJG1RLdQjdjDkR-icZmUbGSac","petro pampu","NH 19, Jhari","24.6238565","84.64622639999999"
"ChIJ9Xrh6hzFjDkRyhkjn6QGGXg","Petrol pump","Bankat","24.5888143","84.7356039"
"ChIJ0apqWerEjDkR6xeh76hjPU4","Hindustan Petroleum Corporation Limited","Khata No 3, Plot No 12, Jairam Khap","24.5959661","84.7134712"
"ChIJwe4GjXjFjDkRyXtXfOAgQrM","Bharat Petroleum Raj Fuel Station","India","24.5774355","84.7660183"
"ChIJQW59OQDFjDkRKE8u1okjvxQ","Gaurav Fuel Station","SH-69 beside Sherghati to Imamganj via bankey bazar Bharari sthan, Chandpur","24.5535944","84.7390272"
"ChIJ_5Lk2I018zkRvrpqGHvSJck","Maurya Trade","Maurya Trade, Nh2, Patluka","24.50327639999999","85.0067953"
"ChIJGxRHdwA18zkRH05WRNMCt5g","शहवाजपुर","GX4V+C66, Bhat Bigha","24.50603749999999","84.99301559999999"
"ChIJ6Xp3YFw08zkR38q2KeNOJ0E","Bharat Petroleum, Petrol Pump -Maharani Fuel Service","BARACHATTI,GAYA, GAYA","24.5079485","84.9894025"
"ChIJw4JyAIA18zkR6o5WSOiIc5o","IndianOil","Ground Floor, Vishnupur, near Begusarai Court, Begusarai","24.509623","84.982305"
"ChIJcY_9Oas38zkREAHR5XRBKJ0","Rajasthan Jodhpur Hotel","F2WP+7RR, Nauagardan","24.4957256","85.03701079999999"
"ChIJn3SsSIk28zkRPNIYYZM6Ln8","IndianOil","Ground Floor Barachatti, Amarut","24.495232","85.039065"
"ChIJGcei0r5H8zkRNrnkeY6_98c","Hindustan Petroleum Corporation Limited","Ground Floor, Chouparan NH 2, Danua, Kenduahi alias Danua","24.43698669999999","85.17907799999999"
"ChIJ48vkb5048zkRSTnUOy5fvwY","jharkhand fuel station chordaha","Kenduahi alias Danua","24.4386989","85.1764491"
"ChIJQTHa8PdH8zkR_KQsku0poyg","IndianOil","Ground Floor, Danua, Chouparan,Lohandi, Singhrawan","24.446161","85.16535900000001"
"ChIJkdCaRABH8zkR9BHwOTneO9A","Jharkhand pump","C5W8+H55, NH 19, Chordaha","24.4467667","85.1651117"
"ChIJ4ztXsJQ58zkRwTK6SbgUrMs","Bihar fuel station","C5W6+WP9","24.4472763","85.1618542"
"ChIJCUwNL-g58zkRtPe8hhcD63E","IndianOil","Ground Floor, NH 2, Sabalpur","24.452038","85.146321"
"ChIJiQpqk4g58zkRDmdU3KaVNlc","Bhalua Petroleum Service","C4WV+V84, National Highway 2, Bhalua-II","24.44712669999999","85.14331609999999"
"ChIJhcFpaBdq8zkRebm-3xp7Wv0","Hindustan Petroleum Corporation Limited","Ground Floor, NH 2, Chouparan","24.3684036","85.2917147"
"ChIJPRQOu7JB8zkRkAl8tLWgWe0","IndianOil","Ground Floor, NH 02, Lohandi, Chauparan","24.391981","85.252112"
"ChIJHRZAyLpr8zkREgOcrObi600","IndianOil","Hazaribagh, NH 02, Chauparn, Lohandi","24.3630272","85.3057007"
"ChIJUw7b1i5q8zkRbdEinX3I6fI","Petrol Pump Jharkhand","Grand Trunk Road, Kamalbar","24.3632632","85.3061359"
"ChIJkxsUmYhr8zkRIdoQGe_-1mU","IndianOil","Plot No 161 No 07, Darjichakthana Chaupara, Lohandi","24.3999168","85.2970295"
"ChIJZz8E2yxB8zkRg11FLGyJQCY","Madhyagopali Petroleum","96FJ+QFM, Bigha","24.3748579","85.2313204"
"ChIJLRXmkOpp8zkRcdUefkHd2jc","Hindustan Petroleum Corporation Limited","Ground Floor, NH 2, Chauparan, Pawai","24.3567145","85.3208435"
"ChIJ_4ffhH1p8zkRPKA4Vj3_shQ","IndianOil","Pawai","24.3566137","85.32089140000001"
"ChIJR-KICLdu8zkRqxirIi9vX-Q","Hindustan Petroleum Corporation Limited","Ground Floor, NH 2, Singhrawan","24.3380607","85.363371"
"ChIJx2JCUgBv8zkRBwiwdC7I2Ko","Md Rijaul mistri","121, Gaya Road, Mallah Toli, Barhi","24.311623","85.405647"
"ChIJk55-wVdv8zkRRgBReMUu69Q","IndianOil","Ground Floor, Grand Trunk Road, Barhi","24.3117037","85.40619679999999"
"ChIJVVVVlbNu8zkRxX5XJIuUpQg","Indian Oil Petrol Pump","Grand Trunk Road, Singhrawan","24.3421295","85.3588393"
"ChIJE1uzQLNu8zkRwHDg9HRyVP4","Hindustan Petroleum Corporation Limited","No 251, Grand Trunk Road, Singhrawan","24.3417321","85.3558824"
"ChIJzw0owbpp8zkRQV3FU3GWTxc","BPCL Kamrun fuel station","89Q3+225, Keola","24.3375238","85.3526129"
"ChIJucHYdgBv8zkRiUZr_Ycx_B4","Shivagi shisha dukan","8C49+Q84, Patna Road, Barhi","24.3068927","85.4183267"
"ChIJPT1Bcstv8zkRGG-Uez0sguA","Hindustan Petroleum Corporation Limited","Ground Floor, NH 31, Barhi","24.310551","85.421021"
"ChIJL1wnh-5v8zkRvtQZizqoZKA","Bharat Petroleum, Petrol Pump -Gopichand Hiralal Jain","8C3C+J6P, Dhanbad Road, Barhi","24.3041551","85.42098910000001"
"ChIJuddEYnNp8zkRIbhjhSzAJxM","Bharat Petroleum, Petrol Pump -Deo Petroleum","PANDEYBERA(NH2),DIST HAZAR, HAZARIBAGH","24.3471733","85.3435805"
"ChIJM2bMSDdp8zkRx7kjVHsrc5g","Hindustan Petroleum Corporation Limited","Ground Floor, National Highway 19, Pandeybara, Chauparan, Hazaribagh","24.348896","85.342944"
"ChIJ5d0r2G5v8zkRRkRs9ObLjvo","IndianOil","Ground Floor, NH2, Pandeybara, Hazaribagh","24.3492787","85.3425857"
"ChIJofnsQiJ58zkRuEdvr7wcarA","IndianOil","Ground Floor, Jhumriteliya, Ghangri","24.19635199999999","85.55431399999999"
"ChIJ_Zd37SF58zkRB7SsgJvsYZs","Hindustan Petroleum Corporation Limited","Ground Floor, NH 2, Barkhatta, Ghangri","24.1967981","85.5563979"
"ChIJJWRBgEt78zkRKRvCNH8jxOw","Bharat Petroleum Petrol Pump , BP-BARSOT","NH-2, PS BARHI, BARSOT","24.22719","85.51496999999999"
"ChIJcTasVMV48zkRTWwJIgzUcsc","HPCL PETROL PUMP - RIYAZ KHAN SERVICE STATION","HP Petrol Pump NH 2, Konhara PO Barkatta","24.1867732","85.57351949999999"
"ChIJrW4zrOiH8zkREpaRTownJys","Bharat Petroleum, Petrol Pump -Zamzam Service Station","ATKADIH, NH2, DIST- GIRIDI, GIRIDIH","24.1033876","85.75588630000001"
"ChIJzQQ5VPOH8zkRsle_4c9_TNM","IndianOil","139, Atkadih, AOURA","24.1026431","85.76067520000001"
"ChIJc1VfzSCH8zkRPxXFGKNxfXw","Hindustan Petroleum Corporation Limited","Ground Floor, NH 2, Bagodar, Antkadih","24.1148511","85.7244533"
"ChIJp07RU-519DkRbtiCIwQ2xmE","Jai Hind Fuels - HP Petrol Pump","At NH2, Doriyo, Bagodar, PO, AOURA","24.0550272","85.89961989999999"
"ChIJgZu2UXl19DkR9GuHbS8xaOg","IndianOil","Ground Floor Bagodar, Dorio, AOURA","24.05611739999999","85.89838429999999"
"ChIJT6BnP0l19DkRN2ETLHQkJh8","IndianOil","Ground Floor Dorio, Grand Trunk Road, P S, Bagodar","24.049443","85.910215"
"ChIJyY7u-Ch19DkRMiEkRqyYLSM","Bharat Petroleum","India","24.0453805","85.9223605"
"ChIJF8UmDL119DkRHpXUEYLao2k","Hindustan Petroleum Corporation Limited","Ground Floor, NH 2, Hesla","24.0629901","85.87719009999999"
"ChIJ0-KwMykL9DkRHJDjvd1aQEg","Hindustan Petroleum Corporation Limited","Ground Floor, NH 2, Bagodar, Beko","24.037412","85.93740199999999"
"ChIJCTBemwYL9DkRWtEWowkqzwI","Prince Fuels","Ghuttibari","24.0421462","85.9435582"
"ChIJy70oIMcO9DkREqcubYYciBc","Hindustan Petroleum Corporation Limited","Ground Floor, Grand Trunk Road, Isri Bazar, Giridih","23.981401","86.0349901"
"ChIJvepdxqsO9DkR2xGBu3qcNmw","Hindustan Petroleum Corporation Limited","Ground Floor, Dumri","23.9925601","86.0155601"
"ChIJk2axUh4M9DkRT8bohPxj5RE","Hindustan Petroleum Corporation Limited","Ground Floor, Dumri, Jamtara","23.9760665","86.01038229999999"
"ChIJr6d2hlkL9DkR-IkNnSgD87o","IndianOil","Ground Floor, NH 2, Kulgo","24.000483","85.996535"
"ChIJCSVtNtQP9DkRKNd3onOdC6k","Hindustan Petroleum Corporation Limited","Khata No 8, Plot No 72/P, Phusro Road, Khaki Kalan, Dumri","23.9530605","86.0191767"
"ChIJ_arEoPQL9DkRgBSJVzT4OK8","Hindustan Petroleum Corporation Limited","Ground Floor, Dumri","24.002451","85.992761"
"ChIJv-nCbwAL9DkRBoH1bLO4bLk","Eco LPG","2X4Q+945, Dumri","24.0058812","85.9878619"
"ChIJyxCMLLEE9DkR_GYw2RPx3Cs","IndianOil","Ground Floor, Nh2, Pawapur, Brahmandiha","23.9140377","86.1598346"
"ChIJa9Qv7dgE9DkRu4yDKXd8f2s","IndianOil","Ground Floor, Singhdih, Amalkhori,Bhowra","23.921008","86.13575"
"ChIJcUCIc1MD9DkRl97-fF1xTEI","IndianOil","Ground Floor, NH 2, Dumu Dumi, Brahmandiha","23.908906","86.18136299999999"
"ChIJ5TwbI-Eb9DkRSbzWfq9FwRM","Dheeraj Patrol Pump","Chandrapura, H-72, Korkota","23.8924881","86.1355832"
"ChIJ4w_yg-wb9DkRu53uNQhqo74","ASJAD STORE","Hariharpur","23.8920423","86.1324018"
"ChIJPY34HrUc9DkRxroNLqr4iSs","Bharat Petroleum","Topchanchi - Gomoh Road, Topchanchi","23.9050205","86.1931383"
"ChIJ3bDqJf8b9DkRmsD-rOLiaFM","Ambika Fules","Ambika Fules, Gomoh, Dhanbad","23.8812858","86.1732445"
"ChIJlY_UdQAd9DkRneToY7gy-iw","IndianOil","Ground Floor, Bhagat, Topchanchi","23.8939166","86.1887392"
"ChIJO669NmEb9DkRs4SC7RIrZsU","IndianOil","Ground Floor Bhuiyachitro, Bhendra, Gomoh, Topchanchi","23.87963","86.17179"
"ChIJEU83Z5Ed9DkRNBenZFPQ3RM","Tofique","near Masjid, 35, near Masjid, Chitro","23.8819048","86.1775353"
"ChIJo2v3MTgd9DkRJDr-BI1iBas","Arhan Fule","near Masjid, 49, near Masjid, Chitro","23.8824315","86.1788315"
"ChIJ2wpRiJsb9DkR8hwe4pl21I0","Hindustan Petroleum Corporation Limited","Ground Floor, Block Topchanchi, Khesmi, Dhanbad","23.8748383","86.16703079999999"
"ChIJGXDv-UOm9jkRvWmdq5zs8ls","Bharat Petroleum, Petrol Pump -D C M Service Centre","RAJGANJ, NH-2, DIST DHANBA, Dhanbad","23.8793582","86.3125353"
"ChIJ4aNiBW-m9jkRbNNN5WwYpOc","IndianOil","Ground Floor NH 2, Rajganj, Angarpathar","23.876436","86.324452"
"ChIJm--nBDqn9jkRTpXz0Mnrqdw","Jio-bp","Plot No 443, 449 & 460, Topchanchi","23.8831886","86.2841254"
"ChIJPW_cCgCn9jkRjAmY_Khsuzk","CNG Gail Gas jio RMBL Rajganj","V7MM+9HH, Kotaldih","23.8834447","86.28399859999999"
"ChIJ209AyaCn9jkRTZrNQ70rDXw","IndianOil","Ground Floor Dayabansh, Pahar, Topchanchi, Brahmandiha","23.881376","86.293793"
"ChIJY-9hcUam9jkR7WtEio-eMTU","Hindustan Petroleum Corporation Limited","Daludih, Jarmunai, Ground Floor NH 2, Rajganj","23.880521","86.308891"
"ChIJa5U9vg2n9jkR6PzNMmPH15M","IndianOil","Ground Floor Bhimtand, Rajganj","23.878476","86.313118"
"ChIJARAVFTWl9jkRCnx36qNRZx4","IndianOil","Ground Floor, Grand Trunk Road, Rajganj","23.8773394","86.3216649"
"ChIJi_AbP9an9jkRQq9PuskkNPM","Hindustan Petroleum Corporation Limited","Ground Floor, NH 2, Daludih, Rajganj","23.8752175","86.3267209"
"ChIJiyrvqsun9jkReo3toBbxxRU","Hill View Fuels","Hill View Fuels, beside Kako Hill School, road, NH-32, Rajganj","23.8527025","86.3156557"
"ChIJt6VQ-sGn9jkR783RCBM2aew","IndianOil","Ground Floor Rajganj, Barwadih, Kankomath, Angarpathar","23.8483414","86.3091472"
"ChIJ_TO14vWn9jkRwdhxMi-0Lus","Hindustan Petroleum Corporation Limited","Ground Floor, NH 2, Topchanchi, Ledatanr","23.894677","86.241711"
"ChIJn-6zAi679jkRIRp5gSAfiso","IndianOil","Ground Floor, G T Road, More, Barwa, Kalyanpur","23.852882","86.424573"
"ChIJ2y26-dCk9jkRrVx2ZRUj5nQ","IndianOil","Ground Floor, Kalyanpur","23.8554751","86.4108017"
"ChIJBwAAAFWj9jkRkRKmuj168hs","Indian Oil Corporation","Jharudih, Dhanbad","23.8140428","86.4161998"
"ChIJExi3utuk9jkRrOEA2XSxJqk","Bharat Petroleum","India","23.8561574","86.40537719999999"
"ChIJS9tjSme79jkR0btDQd5CpXU","ABS Hazra Petrol Pump","VC8H+H3V, Murradi","23.8663929","86.4269673"
"ChIJA_qFsUyl9jkRzYP_afnGzrc","IndianOil","near Barwamore, Udaypur, Kalyanpur, near Barwamore, Dhanbad","23.85764500000001","86.39773799999999"
"ChIJzerAcq679jkR_0_BO1DCSO0","Bharat Petroleum, Petrol Pump -Maha Maya Filling Station","KHARIKABAD, NH2, DISTRICT, Dhanbad","23.85063","86.4355451"
"ChIJz0rTUVS79jkRas5rq7FO7bg","IndianOil","KASHITAND Barwadda, Dhanbad","23.84940439999999","86.4374168"
"ChIJeyPOWha79jkRYJXibZ6zJzM","IndianOil","Ground Floor, Barwadda, Dhanbad","23.849362","86.441237"
"ChIJi0FhCwC79jkRmmZ0YO8n92Q","VINDHYACHAL INDANE","MEMCO MORE, BARWADDA ROAD, Dhanbad","23.8323474","86.4313142"
"ChIJ7djsWkS79jkRp71SyERWzus","Bharat Petroleum, Petrol Pump -Hirak Point","Dhaiya, Dhanbad","23.8327877","86.43232669999999"
"ChIJr1CPOeOk9jkRCq1twmRTRmo","Hindustan Petroleum Corporation Limited","Ground Floor NH 2, GT Road, Kalyanpur, Udaypur","23.860212","86.387256"
"ChIJ8eRYjj6l9jkRbHHrCJuiCeE","Hindustan Petroleum Corporation Limited","Khata No 6, Plot No 9, Baromuri, Dhanbad","23.8258714","86.4163796"
"ChIJT8DAKgC79jkRNktpwptdN6E","Bharat Petrol Pump","01, Jainagar","23.8728689","86.4403908"
"ChIJs04XXEWl9jkRehT06zCS1K4","Lalita fuels","near Birsa munda park, Baramuri, near Birsa munda park, Dhanbad","23.82542","86.41646639999999"
"ChIJ24dbhKmk9jkRh30zSZ5447s","Bharat Petroleum Petrol Pump","RC97+V8F, Baromuri","23.8196916","86.4133018"
"ChIJCYbE8uC79jkRfN5L8n1v4-8","FUEL SERVICE","Bhelatand Rd, Dhaiya Road, Dhanbad","23.8254562","86.4418278"
"ChIJw3uMfrK79jkRhesC5Z6nO6w","FUEL STATION","Khatal Road, Dhaiya, Dhanbad","23.8214301","86.4389954"
"ChIJAwSg5Mm89jkRJGkMZWGAWmU","Hindustan Petroleum Corporation Limited","Ground Floor, near Rani Talab Road, Dhaiya, Dhanbad","23.8188311","86.4338502"
"ChIJB2mjHmej9jkRu8R7JjJ6bXw","Vikash Fuels","Vikash Fuels, Panderpala, Dhanbad","23.8119805","86.4098106"
"ChIJocEdZCDB9jkRKLcxVCKi2tg","IndianOil","Ground Floor,GTR Road Barbendia, Govindpur, Kharikabad","23.8002079","86.6217087"
"ChIJCSDs_CHB9jkR-48HdF3-UDE","IndianOil","Ground Floor NH 2, Govindpur, Kharikabad, Bagsuma","23.801038","86.61934699999999"
"ChIJp97SG9_A9jkRDPx3e1c2TBM","Bharat Petroleum - Mahamaya Filling Station","NH-2, Govindpur, Dhanbad District, Khariabad","23.8019049","86.6186044"
"ChIJt0pxn2rB9jkRjhaUp1_O2nA","IndianOil","Plot No 1187 P, 1188/1201, Khata No 18 Tetulia, Cmpf, Nirsa","23.7983561","86.6427509"
"ChIJsae4jMDD9jkR9ocu6nJwhGc","IndianOil","Ground Floor, Grand Trunk Road, Nirsa","23.7991274","86.6440875"
"ChIJz2WixyLB9jkRrC4ocUDlNqk","Hindustan Petroleum Corporation Limited","Ground Floor, Nirsa","23.7982667","86.6464426"
"ChIJXan4VwDB9jkRVuzjIVeYEtw","BABA LOKNATH SERVICE STATION","QMX3+94G, Tetulia","23.7984282","86.65283819999999"
"ChIJ2wPJziLH9jkRQ5ZV1eRDcI0","Anwar Ansari","RJGM 7PM, near Panchayat, Kaladabar, Dhanbad","23.8255841","86.63424479999999"
"ChIJeXK22RXH9jkRnKH9m2_B9sQ","Hasina","RJGP 3X3, Gh, Kaladabar","23.8251001","86.6369354"
"ChIJn4z-vN7D9jkRumMYwJqFQVs","Jio-bp","Ground Floor, Nh 2, Ramkanali","23.7943985","86.66509529999999"
"ChIJKTCJhq_A9jkRtffM-wwWUKA","Hindustan Petroleum Corporation Limited","Ground Floor, NH 2, Govindpur, Gahira","23.8093301","86.5884701"
"ChIJe9trphvB9jkRLzoOoQQWDRY","BPC MAA YASHODA MAHARANI FUELS","RH5M+PGH, Deuli","23.8093146","86.5838611"
"ChIJV2QtJRPD9jkR-SJJk6Q9xr8","IndianOil","Ground Floor Nirsa, Pandra","23.7990915","86.71443339999999"
"ChIJL49U3yvD9jkRp6kdImCupxY","Bharat Petroleum Petrol Pump , INDUSTRIAL CORPORATION","NIRSAG T ROAD, NH2, Dhanbad","23.7793","86.717427"
"ChIJL2vhnR7D9jkRZnXu78-LiVc","Hindustan Petroleum Corporation Limited","Ground Floor, Grand Trunk Road, Nirsa","23.780201","86.71655009999999"
"ChIJCR2jUdLC9jkRhK4i1KNZaqg","Hindustan Petroleum Corporation Limited","Ground Floor, opposite Chopra Colony, NH 2, Mugma","23.767162","86.738952"
"ChIJQcscSrzd9jkRPYXqmeLL7I4","Bharat Petroleum, Petrol Pump -Unique Service Station","KANCHANDIH,NH2,DISTRICT DH, Dhanbad","23.7670486","86.7418233"
"ChIJv3raCgDD9jkRW_tnsSsko4s","Jio Petrol Pump","QPG2+VJR, Nirsa","23.7772486","86.7015194"
"ChIJkdkHmT7d9jkRCwKsUvZEPG8","Hindustan Petroleum Corporation Limited","Ground Floor Nirsa, Grand Trunk Road, Mugma","23.75852099999999","86.758399"
"ChIJRX4ucgDd9jkRUuEBgRItWVQ","ECL KAPASARA INDIAN OIL CONSUMER PUMP","Mugma More, Kapasara","23.757785","86.7599067"
"ChIJNSHccg_D9jkRZ8f2xp4uJI4","SHIVAM FUELS","SHIVAM FUELS, MPL Jamtara road, Sambandhpur, Nirsha, Dhanbad","23.81398819999999","86.722804"
"ChIJ95m0WGbD9jkRnfL3ckIIffw","(BPCL)Maa Uma Shakti Filling Point(BPCL","QMQM+WCR, NH2, Gopalganj","23.7898679","86.6835297"
"ChIJfw43Gxrd9jkRcz43FS_PlJs","Hindustan Petroleum Corporation Limited","Ground Floor, NH 2, Mugma","23.766091","86.767181"
"ChIJl7Bm3hrd9jkRXvjOahx1K5I","Indian Oil Jagdamba Petroleum","Rajpura","23.7676481","86.7679844"
"ChIJab8UTy_D9jkRoktcwUiLhoY","IndianOil","NH2, Gopalganj","23.7905538","86.6805957"
"ChIJ_2zRkYvd9jkRfljws36chW4","KUNAL MAJI","Shop No 003, Kesar Kular, Kesar Kular Maithon Dhanbad, Maithon","23.7764243","86.76885209999999"
"ChIJoYEKrDTd9jkRh50ckyXn7fU","Siyar Kanali","QQ26+72G, Pani Tanki Road, Egarkunr","23.7506937","86.7600712"
"ChIJOeAZBGPd9jkRgqHLMd3R7yY","Shrabani Maji","Shop No 006, Kesar Kular, Kesar Kular Maitho Dhanbad, Maithon","23.7762725","86.7689678"
"ChIJSUQAHybC9jkR3JwHd-fpckg","Hindustan Petroleum Corporation Limited","Ground Floor, Ledaheria, Nirsa","23.74544260000001","86.6911227"
"ChIJbYU_eADd9jkRl4xBqTa8CWs","Maithan fuels⛽","QQ9C+67G, Rajpura","23.7680509","86.77069279999999"
"ChIJTwX6fQHe9jkRUPio5ilQLwI","IndianOil","Ground Floor, Grand Trunk Road, Barakar","23.734554","86.826653"
"ChIJ9a0cD_nd9jkRbNALkLfdQW8","Bharat Petroleum Petrol Pump","PRM8+P39, GT Road, Barakar","23.7336337","86.818829"
"ChIJTdQdqPTd9jkR9L75lmYLsXA","Hindustan Petroleum Corporation Limited","Ground Floor, Old, Grand Trunk Road, Chirkunda","23.73610099999999","86.80254099999999"
"ChIJo5DEVajf9jkRT-IIqS8uAkI","IndianOil","Ground Floor, Dendua Sitarampur, Rupnarayanpur Road, Salanpur","23.77651","86.870064"
"ChIJZczFotnd9jkR2eEDE0YQ1fg","Hindustan Petroleum Corporation Limited","Ground Floor, NH 2, Barh Jorh, Maithon","23.7640801","86.8183701"
"ChIJYzxUrHre9jkRXGBCpYJPPWk","Sitaram Auto Service","NH2, Byepass Road, Delhi - Kolkata Highway, Kalyaneswari","23.7671153","86.8319118"
"ChIJD6wcOS3f9jkRJP1Qm3pbE8U","IndianOil","Lock No 13016 NH 2, Bypass, Debipur","23.770297","86.84189099999999"
"ChIJYVpIaWff9jkRj1AV_shia1c","IndianOil","Khatian No 12791264, City Centre, Plot No 4066, JL 26, Nakrajuria, Salanpur","23.7771992","86.8425635"
"ChIJD92G5T_d9jkRdFYXgV2bvdE","Bharat Petroleum, Petrol Pump -Deepak Highway Service Station","KUMARDHUBI, NH2, DIST, DHAN, DHANBAD","23.7631049","86.7948404"
"ChIJQdVuWDDd9jkR5hPT8P7o-30","IndianOil","Ground Floor, Uphara, Rafiganj, Kumardhubi, Kalimati","23.75577","86.79379999999999"
"ChIJ02BqhFHe9jkR9uzgHe3bK-k","Amal Bikash Service Station.","Amal Bikash Service Station, NH2 Bye Pass Road, Jamaldhi","23.76955749999999","86.8568909"
"ChIJq-LDhVHe9jkRzfH81tJbomA","IndianOil","Ground Floor, Jamaldih NH 2, Kulti, Kalyaneshwari","23.769032","86.8576001"
"ChIJURwlD_nd9jkRvCsUSZVhvPs","Sreeji automobiles","PRM7+QWX, Asansol - Barakar Road, Barakar","23.7344946","86.8148647"
"ChIJoRutWtbd9jkRFxaWire9ZRg","Table","PRP6 5X8 67, Barakar","23.7350842","86.81258520000002"
"ChIJt5Pziqbd9jkRmF_SYi0-lCg","IndianOil","Ground Floor, Sanjay Chowk, near Maithon Dam, Merah, Chirkunda","23.762524","86.785629"
"ChIJMbiof5Dd9jkRx6tBPAlJmX0","IndianOil","Ground Floor, Kumardhubi, Chirkunda","23.74475279999999","86.7920177"
"ChIJAeEy_m_d9jkRfWvOrDjRb2o","Hindustan Petroleum Corporation Limited","Ground Floor, Kumar Dhubi, Grand Trunk Road, Dhanbad","23.745211","86.791011"
"ChIJ_ftbDAXd9jkRR-cvtz03zlk","JEEN MATA AUTOMOBILES","BCCL Quarter, New, Dishergarh Road, Begunia, Barakar","23.7296462","86.8156059"
"ChIJs0BK0dTn9jkRX4Zv7NEFgkw","Begunia Petrol Pump","PRG8+Q9H, New Colony Begunia","23.7269304","86.81597149999999"
"ChIJj_Y17ebn9jkRKVNoaQY7YGM","Hindustan Petroleum Corporation Limited","Purulia - Barakar Road, Barakar","23.7255567","86.81496820000001"
"ChIJm80IL24f9zkRa-jYCCK05Wk","Hindustan Petroleum Corporation Limited","33 & 34, Plot No 31, Asansol - Gourandi Road, Bardhaman","23.7179272","86.95284629999999"
"ChIJa0rYwdgh9zkRU7mCDyYLQMs","IndianOil","Ground Floor Nuni, Kanyapur, Barabani","23.73507","86.956268"
"ChIJD8XUsvUh9zkRXtSU0TDdEgU","Hindustan Petroleum Corporation Limited","Ground Floor, NH 2, Talberia","23.73313929999999","86.9183053"
"ChIJG6vl24gh9zkRddwVxrhShsw","IndianOil - SWAGAT","Ground Floor, Salanpur, Lalganj, Talberia","23.7342361","86.9146904"
"ChIJ44FZp5sh9zkRLIywEooJqT0","Jyoti Highway Plaza","Public School, opposite Delhi, NH2, Talberia","23.7354088","86.9139522"
"ChIJe6eirGgf9zkR5A5kx9SRy1k","M Auto petrol Station","PW47+JF6, Grand Trunk Road, Munshi Bazar, Asansol","23.7065273","86.9136556"
"ChIJc69QIfUf9zkR1bN7xRtI8zI","R N FILLING STATION","01, Dhemomain Dhemomain Road, Santinagar, Asansol","23.706349","86.91314349999999"
"ChIJ-4qsQssf9zkRlyJBq-Rz2Tg","Indian oil petrol pump-Tarakeswar Filling Station","PALASHDIHA Road Road, Panchgachia","23.7195088","86.9541988"
"ChIJhd7vBG4f9zkRa1O_Gt4j-cI","IndianOil","NH 2 Bypass, Kanyapur","23.716195","86.953141"
"ChIJCUNqXxUf9zkR1jDYCrjYVDE","Bharat Petroleum, Petrol Pump -Bharat Automobiles","NH2, ASANSOL BYE-PASS, Palasdiha","23.7164509","86.9557154"
"ChIJ39qPTjEh9zkRkC7GBlUgIY0","IndianOil","Ground Floor Asansol, Paschim Bardhaman, NH 2, Kanyapur, Raniganj","23.7437076","86.9525343"
"ChIJjQSNm8wf9zkRxHEOv8MN7F0","IndianOil","Ground Floor, NH 2, Bypass, Kanyapur, Asansol","23.7065923","86.94989179999999"
"ChIJbajG46Uf9zkRuXY7GZa8cts","Hindustan Petroleum Corporation Limited","Ground Floor, Grand Trunk Road, Gopalpur, Asansol","23.69843629999999","86.9370761"
"ChIJwTwvB_vf9jkRmKa1D3lHqUQ","Hindustan Petroleum Corporation Limited","Ground Floor, near Debjyoti Pulp And Paper Factory, NH 2, Miliakhola","23.7409501","86.8948715"
"ChIJD5P3rAUf9zkRnpcaXDCctg8","IndianOil","No 139Mp, Lock, 21002, Grand Trunk Road, Court More, Asansol","23.694914","86.94949299999999"
"ChIJ5RO2Gwcf9zkRuGKHTOhqZCQ","IndianOil","Grand Trunk Road, Burnpur, Asansol","23.694352","86.950628"
"ChIJeRyJ8RPg9jkRR9YNQBzFwZs","Hindustan Petroleum Corporation Limited","Ground Floor, Old GT Road, Neamatpur","23.7147974","86.88636199999999"
"ChIJGy6eTxDh9jkRsNEq9VK1TFE","Bharat Petroleum, Petrol Pump -Bengal Auto Stores","NEAMATPUR. BURDWAN DIST, BARDHAMAN","23.7157443","86.8856488"
"ChIJ88uG2gQf9zkR6xeYG04iSYg","Hindustan Petroleum Corporation Limited","Ground Floor, Shaheed Bhagat Singh Chowk, Asansol","23.6940883","86.9516072"
"ChIJyaUacwAf9zkRihecOWqOTno","Hindustan Petroleum Corporation Limited","Ground Floor, near Chitra Cinema, Burnpur, Asansol","23.6872056","86.94302979999999"
"ChIJf9cnfykX9zkRAVVnRY62aW4","Hindustan Petroleum Corporation Limited","Ground Floor, NH 2, Searsole, Rajbari","23.6473201","87.0996701"
"ChIJr7bWMhcR9zkR5JPbkJR_Odw","Hindustan Petroleum Corporation Limited","Ground Floor, Netaji Subhas Road, Raniganj","23.61141409999999","87.1136474"
"ChIJPYWPjTMR9zkRuzCdAEzoPXg","Jayswal Automobiles","2, National Highway 14, Searsole Rajbari, Raniganj","23.6387194","87.1133662"
"ChIJs28ijzIR9zkRE--gAZBAerY","IndianOil","Burdwan Division, Ground Floor, NH 2 Grand Trunk Road, Raniganj, Amrasota","23.6387359","87.11336039999999"
"ChIJl0fYIw0R9zkRQZj2XOmpz84","Bharat Petroleum, Petrol Pump -Prabhat Quick Auto Fillers & Eng.","near Punjabi More, NH2, Raniganj","23.6386251","87.1149124"
"ChIJRew3Ri0R9zkRGwiBf8uqYjw","Manoj Shaw Servicing Center","J4R6+5GM, Raniganj","23.6404697","87.1113005"
"ChIJs5UCoDYR9zkRA4NMFegYL58","Hindustan Petroleum Corporation Limited","Ground Floor, Punjab More, Old, Grand Trunk Road, Raniganj","23.6354501","87.11859009999999"
"ChIJlWjlR_ER9zkR9P_tNbEJLiQ","Hindustan Petroleum Corporation Limited","Ground Floor, Punjab More, Raniganj","23.6401158","87.1211039"
"ChIJQ4EdWgAR9zkRZ_9tCeQSxZo","HP Petroleum, CNG & EV Station","J4J6+4P4, Searsole Rajbari, Raniganj","23.6302744","87.1118134"
"ChIJ0xofbNYR9zkRE8_1VO7F3Us","IndianOil","Ground Floor, NSB Road, Raniganj","23.626634","87.114397"
"ChIJXXJLyToR9zkRqI_twtSq_uo","JAYSWAL AUTO SERVICE","near ANJANA CINEMA, 37, NSB Road, WEST, Raniganj","23.6177525","87.1137907"
"ChIJu4X-zLsW9zkRYFY9wcuuZUg","Toposi Hp Pump","near by colliery, Toposi gram, Kunustoria","23.6566415","87.12811620000001"
"ChIJmctXbvUR9zkRkv4Hdu4L9_Q","Hindustan Petroleum Corporation Limited","Ground Floor, Netaji Subhash Road, Raniganj","23.6158201","87.11322009999999"
"ChIJ-V1CDQAR9zkRpMyRPNu-eTU","Fatima Fuels","Dr, M.N.Ghose Road, Raniganj","23.6115164","87.118478"
"ChIJfcEMxV4R9zkRmCxTx1PPQoM","Bharat Petroleum","India","23.6231333","87.13904199999999"
"ChIJIVfHxV4R9zkRw_6muHOZkto","Aryan Fuels","Bardhaman","23.6231276","87.1390638"
"ChIJFfffdXQX9zkR5Nd-YU7uVJc","IndianOil","Floor 130/5 Mile, Ground, GT Road, NH 2, Satgram, Behala, Bardhaman","23.653492","87.08746599999999"
"ChIJ_zYiDQAR9zkRN4YOTR3Myf4","Fatima Fuels","J47H+GX2, Doctor MN Ghosh Road, Raniganj","23.6137569","87.1298989"
"ChIJtUtsbbkR9zkRFLBC1HjKsrQ","SHREE DURGA SERVICE CENTRE","J49Q+5X6, Raniganj","23.6179241","87.1398801"
"ChIJ3RK6c-AT9zkR-os7vQJoqvo","Hindustan Petroleum Corporation Limited","Ground Floor, Grand Trunk Road, Mangalpur, Raniganj","23.618691","87.14378099999999"
"ChIJJVAfeUBt9zkRNK5rcwnS40E","IndianOil","Ground Floor Gopalmath Durgapur, Oyaria","23.571998","87.239786"
"ChIJI_NBiWpt9zkR71GW6OrN1hM","HP Petrol Pump","H69V+V43, Delhi - Kolkata Highway, Main Gate, Durgapur","23.569633","87.242803"
"ChIJN26DIuIS9zkRcE-CaduzSyE","IndianOil","Ground Floor, Bhadur Gram, NH 2, Andal","23.593966","87.196739"
"ChIJg9lRkERz9zkRbDgiS3lV3Hw","Bharat Petroleum, Petrol Pump -Paul Auto Services","DSP GATE,NH2,DURGAPUR,BURD, BARDHAMAN","23.560404","87.2552788"
"ChIJsXNP2m9t9zkROWfjQyvj1Xs","IndianOil","No 3056, Lr Khatian, Plot No 5126 5127 & 5128, Andal","23.58317","87.22317"
"ChIJHR2JdUJt9zkR-tJUFjPpmVc","Bharat Petroleum, Petrol Pump -Saikat Automobile","ANDAL ON NH-2 LHS TOWARDS, BARDHAMAN","23.5826482","87.22352629999999"
"ChIJ14lAFcAT9zkRy7LR6KR8PwE","Fast Food Corner","ANDAL MORE, Hospital Rd, Grand Trunk Road, Durgapur","23.5873238","87.2112369"
"ChIJ81LYHNwS9zkRanavB3MNVhU","National Highway service station","Andal","23.5893194","87.2064106"
"ChIJl7OJgExt9zkRcTevxPH-ry0","IndianOil","45, 64, Plot No 44, 65, Tamla Road, Andal","23.5982884","87.2293955"
"ChIJS4dAHdwS9zkR9r0RsStNuHM","Bharat Petroleum","India","23.5894246","87.2063893"
"ChIJvT3W0d0S9zkRw8gkn7w8bN4","LPG Supplier (BP)","H6Q3+FMR, Dighnala, Andal","23.58873629999999","87.2041471"
"ChIJXyHxaT9t9zkRHWxuw8V7sGM","Hindustan Petroleum Corporation Limited","Ground Floor, Gopalmath, Andal Gram","23.57311099999999","87.23811099999999"
"ChIJ6c4Mcf4T9zkR0JLYyb1sOcA","Reliance Petroleum","National Highway 19, Andal","23.5943082","87.19535069999999"
"ChIJf7TnK40T9zkRO7fbeK0Ol68","Manish Automobiles","Indianoil petrol pump, DakshinKhand","23.6110394","87.2178797"
"ChIJq7ACzzMT9zkRkztJ2bJwVXU","IndianOil","Ground Floor Dakshin Khanda, Andal","23.611049","87.21746499999999"
"ChIJb8ZdsuFt9zkRiC-ET9cH2xk","Bharat Petroleum, Petrol Pump -Raja S/Station","Main Gate, Durgapur","23.5651823","87.2488468"
"ChIJ69D0NBwT9zkRGThbLunbIfs","Nityananad Fuel Center","Shop No, 1, Royalty More Road, Andal","23.5716588","87.1895646"
"ChIJKxmmOPMS9zkRhDqQZHAfy88","Sree Ganesh Fuel Centre","H5CQ+X97, অণ্ডান সাউথ বাজার, রয়েলটি মোড়, ওয়ার্ক শপ রোড, Ramprasadpur","23.5724199","87.1884146"
"ChIJZQxbI1ET9zkR1zboW48LtGQ","Dakshin khanda Mini Petrol pump","Dakshin khanda, kalibari more Paschim","23.6179736","87.21750349999999"
"ChIJfdDsr9Nt9zkRVXth39WBFKs","Vai Vai Petrol service","AMRAI JABUNA ROAD, 3, Durgapur","23.5874497","87.260224"
"ChIJYSVp001w9zkRQGMEwSauZIY","IndianOil","C 415, Ssb Sarani, Bidhannagar, Durgapur","23.5173718","87.3458909"
"ChIJkxnCqq1x9zkRuBr9VFaBlG8","IndianOil","No 112, Lock No 12006, HP GT Road, Barddhaman, Khayrasole, Durgapur","23.511513","87.338753"
"ChIJURz6O3Jx9zkRiZvUuDrEiFo","IndianOil","Lock, 11006, Durgapur Station Road, Durgapur","23.492565","87.317651"
"ChIJeaqZBoNx9zkRKJ9vmD__J0I","Bharat Petroleum Petrol Pump","BC ROY AVE,DURGAPUR,BURDWA, BARDHAMAN","23.5053038","87.30914430000001"
"ChIJuddLiVhw9zkRa755PA1gBQw","Hindustan Petroleum Corporation Limited","Ground Floor, Muchipara, Grand Trunk Road, Durgapur","23.503911","87.354061"
"ChIJfQf8EPZx9zkRVP6KFpcKxYc","IndianOil","Lock No 11009 Bamunara, Bidhannagar, Banskopa","23.492351","87.37308349999999"
"ChIJzVWYx4Rw9zkRc2j_fiaWwSE","HP Petrol Pump - Gorai Fuel Centre","Ground Floor, Bamunara Industrial, More, Estate, Banskopa","23.4922194","87.3748016"
"ChIJH0qjoI5x9zkRVpC1SQy5I_4","Surya Lakshmi Service Station","NH-02, Banskopa","23.4919176","87.3748863"
"ChIJX86CmAhx9zkRLZ9fSDs2vlg","Hindustan Petroleum Corporation Limited","Ground Floor, Zonal Centre, Jadabendra Panja Avenue, Sagarbhanga, Durgapur","23.497931","87.33078100000002"
"ChIJA5RuELBx9zkRnyuXv9VSmSA","HP Petrol Pump - Auto Care Centre","Indo American More, Ground Floor NH 2, Durgapur","23.51517309999999","87.33213839999999"
"ChIJE5QTMQlx9zkR6B0XwDu3MKo","IndianOil","GF, JP Avenue, Sagarbhanga, NH 60 Zonal Centre,Durgapur, Sagarbhanga, Col","23.496804","87.328171"
"ChIJkTdVDcd79zkRY6VKaFUsKOM","BHARAT PETROLEUM - MAA KAMAKSHA SERVICE STATION","Chatty, Rajbandh","23.4873816","87.38266999999999"
"ChIJH8xLhJpx9zkR1kBDbDZ0xwM","Indane Bottling Plant","G877+CFC, Lenin Sarani, Industrial Area, Durgapur","23.5135615","87.313651"
"ChIJnRklJwBx9zkRU655bsVms3o","D P L","L Housing Complex, D.P, Industrial Area, Durgapur","23.5115595","87.3114258"
"ChIJdd48XoNx9zkRGKg4o0g9_ZM","Hindustan Petroleum Corporation Limited","Ground Floor, Coke Oven, near Doctor Bidhan Chandra Roy Avenue, PCBL More, Durgapur","23.5077431","87.3103237"
"ChIJSYLlbYNx9zkR6hOSPxVKdUs","IndianOil","Lock No 11013, Dr BC Roy Avenue Paschim Bardhaman, Industrial Area","23.512094","87.3110125"
"ChIJz9ciq4Nx9zkR18BI3nJ3Vxs","Shark Petroleum","G845+3H6, Doctor Bidhan Chandra Roy Avenue, Industrial Area, Durgapur","23.505158","87.30887609999999"
"ChIJoxONyVlx9zkR-jqycvONnRk","Sujayjee","Labour Hut, Dr, Doctor Bidhan Chandra Roy Avenue, Durgapur","23.5052574","87.3086024"
"ChIJjQWKMQBx9zkRJfB_jX_I8vg","durgapur city center","G8C6+5QF, Durgapur","23.5204443","87.3119227"
"ChIJU1RlUT569zkRtlOlaxVrZlo","IndianOil","","23.476452","87.4029558"
"ChIJ6UjsLYJ79zkRBGFssC5KDPo","IndianOil","GF, Trilokchandrapur, Kanksha Near Barddhaman, NH 60 4 Mile More, Gram Exp Hwy, Bidhannagar, Durgapur","23.503185","87.454765"
"ChIJ50RMqFp59zkRIdD5wM-ss5A","Akash Lohani","Panagarh Bazar, Panagarh","23.4535712","87.4475143"
"ChIJ1RJ9TY179zkRaoebI2JragY","IndianOil","Ground Floor, Kanksa","23.4600341","87.4555817"
"ChIJRRnnRQ579zkRT-pWKi3k4ZQ","IndianOil","Lock No 13014, RTKM 8 GT Road, Burdwan, Birudiha","23.4619358","87.4308599"
"ChIJGS4qMAB99zkRnPNslfRRSTE","COCO KANKSA","FF58+724, Kanksa","23.4581396","87.46508349999999"
"ChIJp8MK_Ot99zkRteEzklTLDJQ","IndianOil","Ground Floor, NH 2, Bypass, Panagarh","23.4589409","87.465797"
"ChIJzZHqqFJ59zkRShL_HAwdBVg","Panagarh Petrol Pump","Panagarh Bazar, Kanksa","23.4454119","87.45986219999999"
"ChIJecP-jjF69zkRlvv5h5lL8EA","Hindustan Petroleum Corporation Limited","Ground Floor, near KM Stone 511, NH 2, Birudiha","23.4703912","87.4153097"
"ChIJ_XwHXNZ79zkRPLKtZrIrdk0","Maa Sarada Service Station","FC97+VWM, National Highway 19","23.4697174","87.4147887"
"ChIJa5n7ALp-9zkRxqMXebROSuk","IndianOil","Lock No 11019, Grand Trunk Road, Panagarh Bazar, Bidhannagar, Durgapur","23.43997599999999","87.469915"
"ChIJi5jx4Lt-9zkR9t5xSwLPyws","IndianOil","Ground Floor, Matix Road, Panagarh Bazar, Natunpara, Panagarh","23.439749","87.474159"
"ChIJJ2Xv0ap59zkRX-kUDtf_Jh0","Bharat Petroleum Petrol Pump , MAA ANNAPURNA FILLING STATION","SHILAMPUR, KANKSA, Paschim Gangarampur","23.426611","87.44024"
"ChIJgQ9vjxN79zkRcd-khPR9SRk","Bharat Petroleum, Petrol Pump -Rajlaxmi Auto Filling Stn.","opp. DITM, Grand Trunk Road, RAJBANDH","23.4741908","87.40853349999999"
"ChIJd71V9zJ_9zkRJ7IdrLnr-mU","Hindustan Petroleum Corporation Limited","Ground Floor Sonai, Pondali","23.4420216","87.4775602"
"ChIJAfz6-3HV-TkRlAf-1fz8yQQ","Hindustan Petroleum Corporation Limited","Ground Floor, Budbud","23.399561","87.554221"
"ChIJNSIFsebV-TkRsYOd8kqccA8","IndianOil - SWAGAT","Bagabanpur","23.3941875","87.5698906"
"ChIJLXUM71jV-TkR6Juri4oDPcY","Ghosh Auto Fuel","CHV2+MVR, Unnamed Road, Ramnagar","23.444245","87.55213499999999"
"ChIJqSTpErnV-TkRSl_DPXFoWeM","MAA MANASA FUEL STATION,AMARAR GARH","MAA MANASA FUEL STATION, Guskara Rode, Mankar","23.4288099","87.5754084"
"ChIJ5U0PePd_9zkRM6XGsP7OKsE","Hindustan Petroleum Corporation Limited","Ground Floor Kota Gram, Kota Chandipur","23.4338013","87.5080296"
"ChIJcUFXPbnU-TkRt3DSWKSOCAg","IndianOil","Ground Floor, NH 2, Grand Trunk Road, Gulsi, Paraj","23.380188","87.60197099999999"
"ChIJn06bIMss-DkROpxYgY1ShBo","IndianOil - SWAGAT","NH 2, Golgram, Galsi","23.3632568","87.6410205"
"ChIJr8ov3kgt-DkR3x_0TQBNgSE","Bharat Petroleum, Petrol Pump -Mandal Fuel Service Station","NH2,North-East of Bhasapul more,Galsi,Purba","23.3603381","87.6497435"
"ChIJbw6NfyYt-DkRWadgkhu1SdY","Jio BP - Tirupati Filling Station","Plot No 6837, 6838, JL No 54, Vill: Galigram, Golgram","23.3541648","87.660692"
"ChIJzzjoCCnV-TkRoAGRSJtav4I","JIO - BP Petrol Pump SHREE NIDHI SALES","9JH6+797, Paraj","23.3781593","87.61092959999999"
"ChIJ9ye1cwAz-DkRyZ1pjrBIF5g","Sahid DEF Point⛽⛽","7QVC+F6W, Belgram","23.2937257","87.7705814"
"ChIJQ3LdahA0-DkRgCyFxbdOWKU","Hindustan Petroleum Corporation Limited","Ground Floor, NH 2, Shyamsundarpur, Nala","23.2846853","87.7875212"
"ChIJrfp9agAz-DkRz1omGhPljlc","Nurtazz Xpress","8Q25+44P, National Highway 19, Sanko","23.3003371","87.75815639999999"
"ChIJI2tJ83U3-DkRzwuQttrRAuU","Hindustan Petroleum Corporation Limited","Ground Floor, Block Burdwan 1, Belkash","23.2587515","87.78552529999999"
"ChIJD74Xg1I1-DkRYYOpoHKdTKc","Bharat Petroleum, Petrol Pump -Friends Service Station","KESHABGANJ, Bardhaman","23.2735949","87.81132099999999"
"ChIJz1qj9_tI-DkRV_8RWz4_hoc","IndianOil","Lock No 13005, Bamchandipur, Joteram","23.219426","87.899829"
"ChIJH5d9g-hJ-DkRCyu9KF3Z6eI","Hindustan Petroleum Corporation Limited","Ground Floor, Mehdi Bagan, Grand Trunk Road, Bardhaman","23.252331","87.864961"
"ChIJKXbKGZ1J-DkRqVwa_kB9RLo","Alisha fuel station","BUS STAND, near ALISHA, Gopalnagar Avenue, Bardhaman","23.2169829","87.8878194"
"ChIJyzF-GVFI-DkROr7iOnGHck0","Hindustan Petroleum Corporation Limited","Ground Floor, Gopalnagar Avenue, Bardhaman","23.2173662","87.8878489"
"ChIJwQjv8MpJ-DkRiK-yj2O_098","Hindustan Petroleum Corporation Limited","Ground Floor, Grand Trunk Road, Police LIne Bazar, Bardhaman","23.227571","87.872991"
"ChIJRy7kUy5I-DkRxXmhvW05qsY","Bishalakshmi Petrol Pump","Rammudipally, Becharhat P","23.2164984","87.86271359999999"
"ChIJmQeDxIhI-DkR3iFmPZJZL88","শ্রীকৃষ্ণ বসালয়","5VRX+P7Q, Dhamas - Burdwan Road, Bamunia","23.191835","87.8982429"
"ChIJ2VJYYsVJ-DkRy8t8k1wovdc","Dholdighi Petrol Pump","Grand Trunk Road, Khosbagan, Bardhaman","23.2370779","87.8664744"
"ChIJySUDYcVJ-DkROJpQiCiNRuA","Hindustan Petroleum Corporation Limited","97, Grand Trunk Road, Bardhaman","23.237171","87.86621099999999"
"ChIJ5-eefrxJ-DkR9FWoq0YsoNo","Hindustan Petroleum Corporation Limited","JL No 71, Plot No 181, Kalna Road, Bardhaman","23.2396129","87.9036117"
"ChIJFYtNZwBJ-DkRXlRe1qmyUEI","Hindustan Petroleum Petrol Pump","6WR3+5R, Dangachha","23.2396693","87.90446349999999"
"ChIJLbkDrRBJ-DkRrENlpU14Toc","IndianOil","Lock No 13008, 48/1, Grand Trunk Road, Bardhaman","23.2439042","87.8685095"
"ChIJsUqH3M9J-DkR_6FNtzCIf7U","NARAYAN AUTO STORES - (BPCL)","BUS STAND, 66, GT, ROAD, OLD TINKONIA, opposite of SIDDHARTHA HOTEL, Bardhaman","23.2455567","87.86880470000001"
"ChIJlcBAT6RJ-DkR-IYOdt61fK0","Reliance Petroleum","NH-2, VILLAGE GANGPUR, POST OFFICE JOTHRAM, DISTRICT: BURDWAN Burdwan -1 (Rev 01","23.2165079","87.9293393"
"ChIJJx2wlcI3-DkRaa20zgcP4A4","Hindustan Petroleum Corporation Limited","Ground Floor, Machhkhara","23.201921","87.844031"
"ChIJ5-gd7TM2-DkRW2HCDKEM3H8","IndianOil","Ground Floor, NH 2, Nutanganj, Tejganj, Bardhaman","23.22906619999999","87.84115279999999"
"ChIJ4buJ4qJa-DkREOfU02aqzbg","IndianOil","Ground Floor Kanai Danga, Chanchai, Memari, Rasulpur","23.169632","88.029243"
"ChIJEWK4dx1Q-DkRaCH9flISoAU","IndianOil","Ground Floor, Palla - Rasulpur Road, Sheikhpura, Rasulpur","23.194067","88.012633"
"ChIJUQ_EWYlR-DkRmQRUow0otyg","Palsit Pure And Sure Filling Station","NH-19, Old NH-2, Sekhpur","23.1929902","88.01342009999999"
"ChIJ48nIPQ1Q-DkRnCi9LHjgtyw","Hindustan Petroleum Corporation Limited","Ground Floor, Grand Trunk Road, Rasulpur","23.189461","88.030451"
"ChIJ-REO1ZBP-DkRhEOuPCz6h-8","Hindustan Petroleum Corporation Limited","near 581 KM Stone, Ground Floor, Kalanabagram NH 2, Saktigarh, near 581 KM Stone, Bypass Road, Konarpara","23.1968955","87.9857978"
"ChIJzZuMMABb-DkRu1fEw81qX7M","TATA DEF STATION ⛽ টাটা ডেফ ষ্টেশন","52CH+5WC, Kanai Danga","23.1704431","88.0297636"
"ChIJ1SgOgg9P-DkRiM5CT9FB_A0","Mondal Auto Mobiles","Mondal Auto mobiles, Paschim Memari","23.186543","87.9830167"
"ChIJm7f3JKBP-DkR4bZHyBaraPI","Hindustan Petroleum Corporation Limited","Ground Floor, G T Road, Bardhaman","23.203381","87.974031"
"ChIJX7-MkLZR-DkRFY76ke4pEcY","Kalipada Service Center","Bishnupur bus stand, Rasulpur","23.1862985","88.05361309999999"
"ChIJidp8IDVb-DkRBBqImCZ-5_0","Rajat Bairagi GB","Nilkuthi Primary school, Ajhapur","23.150938","88.0176853"
"ChIJmY6r18Bf-DkRjBII-x0JqrI","IndianOil","Plot No 557/565566 Dumro, NH 2","23.0113333","88.1442067"
"ChIJD3bnL91f-DkRy_Hxek7ikNA","Bharat Petroleum, Petrol Pump -Bp- Gopalpur","Gopalpur","23.0018197","88.1465901"
"ChIJbb8ay8lf-DkRsHpG972lTE8","Bharat Petroliaam","23, Magra-Gurup Road, Bhastara","23.03043449999999","88.1389339"
"ChIJGX2N7G1f-DkRdn7cpG8eHcI","Bharat Petroleum","Kansaripur","23.0246274","88.1372809"
"ChIJt39y0YJf-DkRgxCUnG4yQ_w","HP petrol Pump","Mazinaan, Durgapur Expressway, Gurap","23.0369751","88.1291773"
"ChIJucVrcpdf-DkRSZBPrMAaR9M","Petrol Pump","24QG+QRM, National Highway 19, Gurap","23.0393589","88.1275773"
"ChIJw1QIWSRf-DkRYXsDRiY2Jf0","IndianOil","PL No 903/23 ,P, Khasra No 629643, Bombay Service Station, Dhaniakhali","23.02152","88.1392285"
"ChIJE2ejC_9e-DkRxcrUdPphR3w","Hindustan Petroleum Corporation Limited","Ground Floor, NH 2, Durgapur Expressway, Dhaniakhali, Gurap","23.03978009999999","88.1266801"
"ChIJ76UkAn1f-DkRagn8lp1Lnqk","Adhoc SREE KRISHNA SERVICE CENTRE GURAP (COCO)","GURAP bhastara, Nh2, Durgapur Expressway, Dulfa","23.0203836","88.1399138"
"ChIJ0aTRSKxf-DkRwu8euJHWg_U","IndianOil","Khatian No 1729/173, Dag No 630 JL No 126, Durgapur Expressway, Gurap","23.0412407","88.1252748"
"ChIJVdbK6tJf-DkRepbQpAHDd7c","Bharasa KSK Pump (IOC)","Magra-Gurup Road, Bhastara","23.0306604","88.1527758"
"ChIJ1wiXIydf-DkRmCTGExrhdJg","Bharat Petroleum, Petrol Pump -Shukla Service Station","GHOSLA, Gurap","23.0492818","88.1204288"
"ChIJTZtZG3Je-DkRXmWStSe4i5U","IndianOil","Hooghly, Ground Floor Dasghara, Birpur Balidaha, Jolekul","23.0239487","88.1043699"
"ChIJp3w1XwBf-DkRJF4XXBJ5S2M","M/S MAATARA K.S.K","239X+QH5, Gurap","23.019386","88.098985"
"ChIJHSHJ8t1f-DkRHboiNfYVKJg","Hindustan Petroleum Corporation Limited","Ground Floor, NH 2, Durgapur Expressway, Dhaniakhali","22.997901","88.148201"
"ChIJ5Xid-UaK-DkRs3vQklgJ0kc","Hindustan Petroleum Corporation Limited","Ground Floor, National Highway 19, Dadpur, Gobindapur","22.923334","88.19437599999999"
"ChIJo1aTgkSK-DkRfWD5brQlpaA","IndianOil","Ground Floor, Durgapur Expressway, Goyea, Alipur","22.928943","88.192492"
"ChIJv_y4gDqK-DkRlH1uapEMLjo","Hindustan Petroleum Corporation Limited","Ground Floor, NH 2, Dadpur, Danrpur","22.910644","88.19720199999999"
"ChIJ8-33dV2K-DkRtJhLoEUeMFE","IndianOil","Maheswarpur,Dadpur, Hooghly, National Highway, 2, Durgapur Expressway","22.9339625","88.1888048"
"ChIJfwaplmCK-DkRDHFy-T3qu3o","Petrol Pump","W5QP+JPR, Hooghly, Puinan","22.9391106","88.1867643"
"ChIJaZDHP4eJ-DkRT4i-1u4UCMs","BP Petrol Pump (Aditya Fuel)","NH19 LHS service lane, near radharani marble, to, Durgapur Expressway, Kolkata","22.894102","88.201169"
"ChIJ7wkg3B-L-DkRBm4BWI3j-Ls","Narayan Fuel","Gobindapur","22.9246898","88.1945478"
"ChIJT_34cwCL-DkRs8VDffF8_zk","HP COCO Petrol Pump Singur","W56W+FV, Mahishdanga","22.9105222","88.1970917"
"ChIJTXD3w1aK-DkR1xLCXnkAfhQ","IndianOil","Ground Floor Dadpur, Punian, Alipur","22.938517","88.20079009999999"
"ChIJsU9LFl6K-DkRk-fRaOsFKxQ","Hindustan Petroleum Corporation Limited","Chunchura-Dhaniakali Road, Jampur","22.9388515","88.1883117"
"ChIJW-TtaquL-DkRzZqutdKCz38","পার্থ লটারী এজেন্সি","W6Q5+H95, Chunchura-Dhaniakali Road, Banshdarun","22.9388805","88.2084714"
"ChIJt_GVNX6L-DkRoX5UFvZo_UA","Durgapur Expressway","W5RM+X39, NH-2, Puinan","22.9424014","88.1827239"
"ChIJNRzdm-WL-DkRZhPh0xrtAz8","Petrol pump","W5VJ+WRF, Chinsurah","22.9452842","88.18086459999999"
"ChIJS0Wi-oiK-DkREB5YWDx9he0","Hindustan Petroleum Corporation Limited","Ground Floor, Durgapur Expressway, Nh2, Hodla","22.946151","88.179521"
"ChIJTzViJQCJ-DkRqECBPyENDTY","Hari Ansh Fuels","V6P3+R5R, National Highway 19, Kangai","22.886766","88.20281299999999"
"ChIJkd6QfgCL-DkRZ6A47o7qiY4","ENTRY FOR OMM FUEL CAFE ⛽️","X52H+J4C, Samsara","22.9509854","88.1767067"
"ChIJdXoPegCJ-DkRQVnGATRCzPs","BHARAT ENERGY AND REFILLING STATION","V6J3+MX7, Mahisatikri","22.8816563","88.2049273"
"ChIJ0ReXr2Fh-DkRSRaIkcshm0Y","IndianOil","Ground Floor, Belmuri Dhaniakhali Road, Boso, Hooghly","22.94758","88.15898"
"ChIJLbUZ-3CD-DkRz8KAhwvLMTU","Hindustan Petroleum Corporation Limited","Ground Floor, NH 2, Durgapur Expressway, Dankuni","22.6917689","88.291815"
"ChIJtbITcheD-DkRFuAxll9NO5I","Hindustan Petroleum Corporation Limited","Ground Floor, NH 2, Durgapur Expressway, Dankuni","22.6716987","88.30133699999999"
"ChIJoRCWUPqD-DkR_tEII-QoCC4","IndianOil","Ground Floor Kalachara, Mahesh 1, Serampore, Chanditala","22.6972001","88.2539001"
"ChIJnz7OGd2C-DkRecHl-0VY5t4","IndianOil","Ground Floor, NH 6, Jaipurbill, Liluah, Anandanagar","22.648166","88.3060982"
"ChIJzfwCJf2D-DkRpxCqe6-jxtY","Morcha Pump Dankuni","M7RR+RM5, Monoharpur, Gobra, Dankuni","22.6920014","88.29174359999999"
"ChIJ298jfnGD-DkR9AA-8KZ5ows","Dankuni Fill In Centre","Ground Floor, NH 2, Durgapur Expressway, Dankuni","22.6919546","88.29131919999999"
"ChIJA46DOQCD-DkR6h86NB5B5cc","Dankuni fill-ni centre","NH19, Monoharpur, Gobra, Dankuni","22.6920768","88.2910141"
"ChIJU6OzLgCD-DkRJ5CZJN5I0T4","TATA. AD BLUE DEF (URIA)","M8P3+HF3, Housing Estate Colony, Dankuni","22.6863056","88.30391519999999"
"ChIJr8FnoWWD-DkRyJeyyqnu2_0","IndianOil","Ground Floor, Delhi Road, Chakundi, Pardankuni","22.69591","88.297234"
"ChIJA0PG5BSD-DkRKsMSkb1WcBA","IndianOil","Ground Floor, Delhi Road, Dankuni","22.680571","88.3018201"
"ChIJDWIntCGD-DkR6vTtjdR5K98","Akash filling station","M7GW+7HW, Dankuni","22.6757457","88.296463"
"ChIJOa3MopeD-DkRAPmpa1ZBUwU","IndianOil","Ground Floor Ahalyabai Road, Kalipur, Garalgacha","22.684361","88.27402599999999"
"ChIJUeO1JNaD-DkRp0_VBgehIYg","PRADIP","Belanagar, Howrah","22.6696704","88.3066953"
"ChIJBeziJgCF-DkR8r5Sn3ZZTIU","TATA GENUINE DEF STATION","toll plaza, Durgapur Expressway, Gobra, Dankuni","22.7062724","88.2851508"
"ChIJ8zcA352E-DkRyiuRLmYFnW0","Hindustan Petroleum Corporation Limited","Ground Floor, Primary School, near Bhadua, Delhi Road, Mollaber Village, Hooghly","22.70804009999999","88.2995301"
"ChIJm0rBWACF-DkRp06SgWVv9uI","Bharat Petroleum","P852+FCQ, Chakundi, Konnagar, Satghara","22.708628","88.30098"
"ChIJ60yzbACF-DkRc3Wx-t2z8kY","Petrol Pump","P862+7MQ, Delhi Road, Rishra, Simla","22.7107091","88.30174029999999"
"ChIJUVFkRJOD-DkRHIsMah0hiqM","Chandimata Auto Service","M7Q8+HHP, Kalipur Garal Gacha Chanditala Near Auto Palace, Station Pally, Dankuni,Hooghly","22.688964","88.266448"
"ChIJZ5b3OwCF-DkRxjAiLUGkpwc","Bharat Petroleum - Sanjay Energy Station","P872+2V6, Bhadua","22.7125348","88.30215299999999"
"ChIJQSk_NgCF-DkRwUzmANQe1kk","Bharst Petrolium","P872+4XM, Delhi Road, Mollaber Village, Bhadua","22.712503","88.302441"
"ChIJpVpFpzN2AjoRcJmPbVjETPo","Bharat Petroleum, Petrol Pump -B D Auto Corner","62, Jatindra Mohan Avenue, Ward Number 10, Kolkata","22.595603","88.36527"
"ChIJU5spNy52AjoRa90qR16JHek","Super Avenue Service Station","Shyambazar Metro, 80/1, Bhupendra Bose Avenue, Station Gate 4, Kolkata","22.600708","88.3696182"
"ChIJ21MbKDd2AjoRkBbXd4TqSRw","IndianOil","151, Bidhan Sarani Road, Hati Bagan, Shobhabazar, Kolkata","22.5933047","88.37030349999999"
"ChIJARglf3J2AjoRYHTia2GePn0","IndianOil","CIT Scheme 7/M, 91A, Bagmari Road, Ghose Bagan, Kolkata","22.584852","88.392067"
"ChIJKwipmiV2AjoRQsfpJLOfX5Y","IndianOil","122, Bidhan Sarani Road, Shyambazar, Baghbazar, Bankura","22.603439","88.373161"
"ChIJa6ihMyl2AjoRYy2GxmXW94Y","IndianOil","P - 38, Khirode Bidya Binode Avenue, Baghbazar, Kolkata","22.6058454","88.36925389999999"
"ChIJP4PZjTB2AjoRxIlIhPyALeY","Bharat Petroleum Pump Manasa Sree Autocrafts","182, Acharya Prafulla Chandra Road, Fariapukur, Shyam Bazar, Kolkata","22.5990909","88.37424279999999"
"ChIJ37Kz2Dp2AjoRE8a5oWQeoJE","HP PETROL PUMP - M. M. BISWAS","229, Acharya Prafulla Chandra Road, Shyambazar, Fariapukur, Kolkata","22.5984829","88.3747717"
"ChIJDYF-Bjt2AjoRjXaO0zQG_oc","Hindustan Petroleum Corporation Limited","1, Ultadanga, Kolkata","22.5972193","88.3754534"
"ChIJq_ZdNoqd-DkREq4gTB3VlPo","Bharat Petrol Pump","61, Barrackpore Trunk Road, Rishi, Paikpara, Kolkata","22.6143474","88.3785199"
"ChIJgWP8ZjJ2AjoRCDRtHRz5o1g","Hindustan Petroleum Corporation Limited","69, Jatindra Mohan Avenue, Bankura","22.598391","88.365641"
"ChIJxeCMnIud-DkRL4y_1FRfshU","Hindustan Petroleum Corporation Limited","59B, Barrackpore Trunk Road, Kolkata","22.616791","88.37954099999999"
"ChIJi0pH4DN2AjoRA1al7hH7cao","The Bengal Petroleum Company","65, Sri Arvind Sarani, Kolkata","22.5950398","88.3675347"
"ChIJyVNIkxx2AjoRQphZ7ZbQxlM","Gopal Auto Service","Belgachia Road,Dutta Bagan, 38/D/H, Khudiram Bose Road, Tala, MIG Housing, Kolkata","22.6074222","88.39026129999999"
"ChIJLxnC6TV2AjoR1x30qMpTQNA","Hindustan Petroleum Corporation Limited","17, Abhedananda Road, Kolkata","22.589131","88.366861"
"ChIJhQQSXZKd-DkRgb77Kb5-MnE","Gujral Service Station and Pollution Testing Center","beside Rabindrabharti University, Barrackpore Trunk Road, Kolkata","22.625399","88.3789"
"ChIJA5lvUEZ2AjoRbOdPFHL9_FU","Hindustan Petroleum - Manicktola Service Station","near IndianOil, 120/2, Acharya Prafulla Chandra Road, Manicktala, Goa Bagan, Machuabazar, Kolkata","22.5842788","88.374386"
"ChIJnVxuTEV2AjoRIXj0vVZZONU","IndianOil","120/2, Acharya Prafulla Chandra Road, Machuabazar, Kolkata","22.5834643","88.3742357"
"ChIJTQl6FZqd-DkRSx7scAKdL6Q","IndianOil","36B, Cossipore Road, Satchasi Para, Kolkata","22.62817799999999","88.37140699999999"
"ChIJG3WY2f91AjoRo_dCPb9aIMs","IndianOil","281, Jessore Road, Lake Town, Kolkata","22.609879","88.401772"