place_id,name,address,latitude,longitude,open_now
"ChIJ9dYp7yo-rjsREBm4keC1FN8","IndianOil Petrol Pump","near Rani Chennamma Circle, 281, 100 Feet Ring Road, Padmanabhanagar, Banashankari, Bengaluru","12.9222146","77.5600343","true"
"ChIJ0wLeTvcVrjsRu-8tKDtwW-w","Shell","opp. Ramaka Mandir, 127 Bull Temple Rd, opp. Ramaka Mandir, Channi Rd, Bengaluru","12.953503","77.56741","true"
"ChIJa4AmUsY_rjsRGEkesifhMjc","Hindustan Petroleum Corporation Limited","Survey No 113, near Veeranjaneya Temple, Uttarahalli Hobli, Bengaluru","12.9061966","77.5424532","true"
"ChIJmyebbW9ArjsR2hgLof72rDI","IndianOil","NH 209, Kanakapura Main Road, Talaghattapura, Bengaluru","12.8588467","77.52888999999999","true"
"ChIJVSOWow8_rjsRgX4LplTb4hE","IndianOil","Khata No 2563, Sy No 25/2/B1, 25B, Mylasandra, Kengeri, Reflex Housing Layout, Hemmigepura Ward 198, Rajarajeshwari Nagar, Bengaluru","12.904101","77.506783","true"
"ChIJFerJruU-rjsRezEC81kotNE","IndianOil","Sy No 36, Kengeri Pattanagere, Mysore Road, Hobli, Rajarajeshwari Nagar, Bengaluru","12.9260529","77.5017163","true"
"ChIJ9eTCL4rwrTsRo8QJuNDZAFM","IndianOil","Ward No 17, 366, Arehalli, Kolar","12.9114138","77.541045","true"
"ChIJ343sg1g-rjsRHkBWzp4Pz_g","IndianOil","Ground Floor, Javarandoddi, Rajarajeshwari Nagar, Bengaluru","12.9327287","77.51647419999999","true"
"ChIJbUvdYdY_rjsRJzeLUqjBA04","IndianOil","Sy No 27/1, Kadirenahalli Uttarahalli Hobli, Padmanabhanagar, Bengaluru","12.9134068","77.55969329999999","true"
"ChIJG23UvF0-rjsRgThobWnhVSE","Bharat Petroleum Corporation ltd","opposite Melody Apartment, Mysore Road, Nayanda Halli, Bengaluru","12.9382061","77.522193","true"
"ChIJoVMWuTw-rjsRtukvhfIRXoU","IndianOil","No 33/1, Seetha Circle, 80 Feet Road, SBM Colony, 3rd Stage, Banashankari, Bengaluru","12.9303458","77.5533755","true"
"ChIJVblKdy8-rjsR5Vxh_xKi4nw","Panchamukhi Fuel Station","125, Kathriguppe Main Road, Kathreguppe, Banashankari 3rd Stage, Bengaluru","12.9304759","77.55391310000002","true"
"ChIJYbbjC10VrjsRse5dkCoQ4A0","IndianOil","No 30 Yelchenahalli, NH 209, Kanakapura Main Road, Bengaluru","12.896609","77.570984","true"
"ChIJ4VE_djs-rjsRGH5NjllXMLw","Mamatha Petroleum - Nayara Oil Ltd.","near Seetha Circle, No 3989 & 3990, 80 Feet Road, Girinagar, Bengaluru","12.9357689","77.54765929999999","true"
"ChIJCxSFuXpBrjsRf8lYXDGKDkw","IndianOil","Survey No 307, 1308/1, Kanakapura Main Road, Pattareddy Palya, Bolare","12.8864567","77.56467339999999","true"
"ChIJ9fybSWk-rjsRRo6t9rsR_PY","IndianOil","Ground Floor, opposite Bhel Nayan, Mysore Road, Danahalli, Bengaluru","12.947197","77.5336708","true"
"ChIJHys44ic_rjsRLgP5h3CbIA0","Shell","15/3-15/4, Kengeri Ring Road, Kengeri Satellite Town, Bengaluru","12.91564","77.48171700000002","true"
"ChIJgy8hb3cVrjsRvHDEUfZzY-g","IndianOil","opposite Banashankari Temple, No 73 8Th KM, Kanakapura Main Road, Bengaluru","12.9171119","77.574135","true"
"ChIJq4W9y2o-rjsRvI7Ujcc8Ew4","Nayara Petrol Pump MC Fuels","25, 50 Feet Main Road, 1st phase Girinagar, Avalahalli, Banashankari 1st Stage, Banashankari, Bengaluru","12.9436627","77.5388138","true"
"ChIJi9aASsI-rjsR9GoPjM_Yr9g","IndianOil","40/6, Outer Ring Road, Nagdevanahalli, Bengaluru","12.9327646","77.4902615","true"
"ChIJL7oCF2UVrjsRGsKhtbLtW0Q","Bharat Petroleum Corporation ltd","Near, No 69/4 JP Nagar, Gangadhara Nagar, Sarakki Gate, Bengaluru","12.9078808","77.5711242","true"
"ChIJV2MAmAU-rjsR7dGWL8LrkHE","Shell","322, Mysore Road, Bengaluru","12.947168","77.53268","true"
"ChIJrX01Dsg4rjsR1jifn7cNytU","IndianOil","Khata No 6079, No 42/5, Nagadevanahalli Main Road, Kengeri Hobli, Bengaluru","12.9325795","77.4888093","true"
"ChIJJQtgiYA-rjsRoyRrZLNQr2Y","IndianOil","Sy No 55/2, Sri Lakshmi Vallabha Nilayam, Doctor Puneeth Rajkumar Road, Metro Lay Out, Nayanda Halli, Bengaluru","12.9483864","77.5230981","true"
"ChIJzc42dIIVrjsRSChRYQuZ3hk","IndianOil","Site No 6, opposite GK Convention Hall, 9th Main Road, Banashankari, Bengaluru","12.9209318","77.56940639999999","true"
"ChIJs6BvUsc_rjsR_fgMJn37S5w","ESSAR","WFQV+723, Devaraj Arash Layout, Sonnenahalli, Nagdevanahalli, Bengaluru","12.9381401","77.4925533","true"
"ChIJvQXL1JoVrjsRI6-JFEV510c","IndianOil","240243, Krishna Rajendra Road, Banashankari Stage II, Banashankari, Bengaluru","12.9297646","77.5735613","true"
"ChIJ-1GkbWUVrjsR-Vuajvf_PeY","Shell","100, Doctor Puneeth Rajkumar Road, Bengaluru","12.906554","77.57929","true"
"ChIJMdfEgPgVrjsRseX3kW_Sri4","IndianOil","No 147, Anantharamaiah Compound, Mysore Road, Azad Nagar, Bengaluru","12.9536735","77.5421449","true"
"ChIJm4eH54oVrjsRc0JCLrQaEh4","Hindustan Petroleum Corporation Limited","Survey No, 73/7, 3rd Cross Road, Mount Joy Extension, Hanumanthnagar, Bengaluru","12.9415087","77.5641517","true"
"ChIJu_uk7g0-rjsRuE8e4KeP7aA","Samriddhi Petro Products Pvt.Ltd Unigas","342/19, Mysore Road, New Guddadahalli, Bapuji Nagar, Bengaluru","12.9544434","77.543706","true"
"ChIJjVdSAEEVrjsRxOm3LRGo3XM","IndianOil","Ground Floor, Ramaiah Garden, Puttenahalli, J. P. Nagar, Bengaluru","12.896025","77.58185379999999","true"
"ChIJZ1m8b3k-rjsR7XbExWp0z_o","IndianOil","Sy No 976/956, 80 Feet Road, Chandra Layout, Bengaluru","12.95801","77.5239955","true"
"ChIJHfn0_ss4rjsR8GfDSo0rfdQ","Hindustan Petroleum Corporation Limited","Survey No 232, Mysore Road, Babusapalya, Hobli, Kengeri, Bengaluru","12.8985548","77.4646233","true"
"ChIJI5hGonY-rjsRFIvVPGwc-OQ","Bharat Petroleum Petrol Pump , GOWDAS","SY NO 329/3, ATTIGUPPE,VIJAYANAGAR, Chord Road, Attiguppe, Bengaluru","12.9599142","77.5326767","true"
"ChIJW7lxlA8-rjsRVeFMEK3h4Fc","Gopi Indane Gas Agency Godown","16/1, Pipeline Road, KB Nagar, Kasthuriba Nagar, Azad Nagar, Bengaluru","12.9553622","77.5493651",""
"ChIJ4SbroA8-rjsRom8h9ksXZKE","IndianOil","269/3, Mysore Road, Kasthuriba Nagar, Bengaluru","12.9557367","77.5489752","true"
"ChIJ_05AYps-rjsRmmiCMwvEzaM","Hindustan Petroleum Corporation Limited","Survey No 34/4, Plot No 1, Outer Ring Road, Kottigepalya, Kengeri, Mallathahalli, Bengaluru","12.9570313","77.5027401","true"
"ChIJdbmbJhUVrjsRSD0_t21GUwo","SUPERGAS Auto LPG Station","Site No-1,2& 3, 24th Main Road, JP Nagar 6th Phase, Bengaluru","12.901359","77.585672","true"
"ChIJ29IXwZYVrjsRNwZ47ylafp4","Bharat Petroleum Corporation ltd","Southend Circle, Jayanagar, Bengaluru","12.9365547","77.5805109","true"
"ChIJQULpUesVrjsRM6CUe5BNwG4","Hindustan Petroleum Corporation Limited","45, Vanivilas Road, Basavanagudi, Bengaluru","12.9480351","77.5733845","true"
"ChIJK43lk5QVrjsRMkYnPCA_KS0","IndianOil","Ground floor, Rashtriya Vidyalaya Road, Basavanagudi, Bengaluru","12.941932","77.580376","true"
"ChIJWxyv6RAVrjsRuW91BqR2kW4","IndianOil","Outer Ring Road, Sarakki Industrial Layout, Phase 2, J. P. Nagar, Bengaluru","12.9069855","77.59449099999999","true"
"ChIJW0rxz-M9rjsRceAZ6nyZPjU","IndianOil","Sy No, Gowripalya, 369 & 370, Sri Krishnadevaraya Road, Telecom Layout, Bengaluru","12.9674207","77.5462556","true"
"ChIJG0yR0L8VrjsRwx3OMQkH1_U","Sipani Total Gaz","10, T Mariappa Road, Jaya Nagar 1st Block, Jaya Nagar East, Jayanagar, Bengaluru","12.9420477","77.5854052",""
"ChIJe5bQlwU-rjsRjAIi6WyW6us","Shell","Mysore Road, Kengeri Hobli, Bengaluru","12.906804","77.473185","true"
"ChIJZ5Ce13FArjsRV8TqizGg8mM","Shell","Kanakapura Main Road, Uttarahalli Hobli, Bengaluru","12.862863","77.53117999999999","true"
"ChIJQd0zn_n6rTsRq71ISs0oNEY","Santosh Filling Station","Survey No 36, Vokkaleri, NH 4, Hobli, Medihala, Maderahalli","12.9019885","77.52698819999999","true"
"ChIJj6pJdRs_rjsRtzztB0WY-n8","Padmalaya Fuels","#209, behind Water tank, near, Dr.Vishnuvardhan Road, Poorna Prajna Layout, Katte, Bengaluru","12.9048964","77.5289863","true"
"ChIJk7n1t0k_rjsRuNgNURDbciE","Sri Ragavendra Medical","39, Channasandra Main Rd, 2nd Main Road, Channasandra, Rajarajeshwari Nagar, Channsandra","12.9030721","77.51672180000001",""
"ChIJx6ddcSk_rjsR9e95bQqz5Yw","Bharath Petroleum, Sri Nageshwar petrol station","VGVC+2FQ, Karnpalya Village, Bengaluru","12.892548","77.5215168","false"
"ChIJS-jMslM_rjsR95Q1AI9WqaQ","Kariyanna palya","VGRC+W9Q, Karnpalya Village, Bengaluru","12.8923372","77.5209974",""
"ChIJIWgUtHw_rjsRvv9hy5cpJ1w","USK Auto Gas","WG47+C2Q, Hemmigepura Ward 198, Rajarajeshwari Nagar, Bengaluru","12.9060846","77.5125978",""
"ChIJZxQhRQA_rjsR6Pc0IIL3FDw","cpil 237","WG56+MX9, Rajarajeshwari Nagar, Bengaluru","12.9090347","77.5124931",""
"ChIJW_YIwLY_rjsRT2PB1iImFSo","Anand Enterprises","3, 3Rd Cross Srinivasa Colony, Arehalli, AGS Layout, Bengaluru","12.9120452","77.5346606",""
"ChIJIb5ROmM_rjsRE6BV4iHv5zE","IndianOil","Sy No 247, opposite Meenakshi Public School, 769/16, Kenchena Halli Road, Rajarajeshwari Nagar, Bengaluru","12.9124212","77.5137977","true"
"ChIJL_aYJCg_rjsRPkhZC6p1OZg","IndianOil","Survey No 22/4B Uttrahalli, Hobli, Arehalli, Arch, Bengaluru","12.9087784","77.5386857",""
"ChIJM1kDKbA_rjsRUan7TZ8D0Wg","Essay Petroleum","1391, 43rd Main Road, Arehalli, Kodipur, Bengaluru","12.9090517","77.5388304",""
"ChIJpxPlHg8_rjsRWkF2pV7Igcc","Shell Petrol Pump","Uttarahalli Main Road, Bengaluru","12.903916","77.508434","true"
"ChIJMz1tJgA_rjsRY34tWwtZoaU","Panchamukhi Fuel Station","317, 80 Feet Road, VBHCS, 5th Stage, Rajarajeshwari Nagar, Bengaluru","12.9151111","77.5158333","true"
"ChIJwa_kgJkUrjsRzRYAfG7YFFM","IndianOil","No Ca/11, A19, Th Main Road, Sector 2, HSR Layout, Bengaluru","12.90729","77.644684","true"
"ChIJIxwztq4VrjsRPRcUCnyZQb4","IndianOil","No 43/1, Bannerghatta Road, Jayanagar, Bengaluru","12.928605","77.600731","true"
"ChIJqZyY1sgUrjsRd0_mGFZv5KQ","IndianOil","4, 6th Main Road, BTM 2nd Stage, Bengaluru","12.9163592","77.605283","true"
"ChIJm08CaQcVrjsRGmWcggq8ZRg","Total Energies","Bannerghatta Road, New Gurappana Palya, 1st Stage, BTM 1st Stage, Bengaluru","12.9213569","77.6004246",""
"ChIJq3NPE1YUrjsRRc7yY3L8wFc","SUPERGAS Auto LPG Station - Sapthagiri Enterprises","2/26, BEML Main Road, Maruthi Nagar, Madiwala, Bengaluru","12.924324","77.614532","true"
"ChIJGYhjFVEUrjsRErckHueGuFo","Hindustan Petroleum Corporation Limited","Ground Floor, next to St Johns Hospital, Hosur Road, Koramangala, Bengaluru","12.9300655","77.6150254","true"
"ChIJNc-4cFIUrjsR7kndzWu8emM","IndianOil","New Mental, Hosur Main Road, beside Bigbazar, Hospital Road, Bengaluru","12.933548","77.61142009999999","true"
"ChIJPaf9zL8UrjsRx2CA0u4t_pM","Shell","near Shell Petrol Pump, 137 20th Main, Hosur Road, Bommanahalli, Bengaluru","12.9005571","77.6335166","true"
"ChIJ1-MIrcZqrjsRzFby7mDaDRA","IndianOil","opposite Lakshmi Theatre, 23/1, Gottigere - Kengeri Road, Kalena Agrahara, Bengaluru","12.8601744","77.5899585","true"
"ChIJL4JG6ccVrjsRYyIKr0k7jv4","Bharat Petroleum Corporation ltd","opposite 10th Cross Road, 53, Hosur Main Road, Arekempanahalli, Wilson Garden, Bengaluru","12.9457943","77.5952751","true"
"ChIJK_ylv8cVrjsRMov1DipUcWo","Aegis Autogas","Reliance TimeOut Corner, Wilson Garden, Hosur Main Road, Arekempanahalli, Hombegowda Nagar, Bengaluru","12.9461189","77.5949792",""
"ChIJP0sKWY4UrjsRELVEEJYOlW4","Hindustan Petroleum Corporation Limited","opposite JSS Public School, CA Site No 1, 14th Main Road, Sector 4, HSR Layout, Bengaluru","12.9152997","77.6383182","true"
"ChIJXz0ZZ10UrjsReFsHgg7RaAA","Hindustan Petroleum Corporation Limited","No 7456, 4th Block, Koramangala, Bengaluru","12.9336115","77.63037949999999","true"
"ChIJeZ1kGMQVrjsR6y3GbpW6TP4","Shell","Hosur Road, Mavalli, Bengaluru","12.9496054","77.5928571","true"
"ChIJNV9Qw2MUrjsRPamWXVRqje4","Nayara Petrol Pump","1st Main Road, Koramangala, Bengaluru","12.9280599","77.6372119","true"
"ChIJgWmu8UMUrjsRy9zWhe4PTuU","IndianOil","6, 80 Feet Road, Koramangala, Bengaluru","12.9454928","77.6184968","true"
"ChIJl9gekMMVrjsR5swhlPHpHQg","IndianOil","No 2, Dr MH, Marigowda Road, Sudhama Nagar, Bengaluru","12.9521491","77.5892154","true"
"ChIJr7nwVIYUrjsRIO5kkegWuMM","IndianOil","Survey No 38, Ring Road, Sector 4, HSR Layout, Bengaluru","12.9210236","77.6448992","true"
"ChIJuSCRwk1rrjsRMit8cJkex6w","IndianOil","Sy No 65, next to Manipal County Road, Singasandra, Bengaluru","12.8741093","77.6411957","true"
"ChIJh7f9zL8UrjsR4bORFlPBtHI","IndianOil","13/1, Hosur Road, Singasandra, Bengaluru","12.8812099","77.64530169999999","true"
"ChIJMbnzA0gUrjsRag6SrLXkRCY","IndianOil","61, 80 Feet Road, Koramangala, Bengaluru","12.9496397","77.6209284","true"
"ChIJWTaEpt0VrjsRENUxu2byMSE","Gogas Auto LPG","5, Lal Bagh Main Road, Vinobha Nagar, Sudhama Nagar, Bengaluru","12.9586423","77.5868661","true"
"ChIJc9Hsd_JqrjsR5J6xbX6N-8c","Bharat Petroleum Corporation ltd","No 17, near Kolifarm Gate, 1A1, Bannerghatta Road, Basavanapura, Bengaluru","12.8426982","77.5884688","true"
"ChIJw-oNKn4UrjsRB7KutfyqOIg","IndianOil","Khata No 267, No 97, 6/1, Sarjapur Road, Agara Village, Bengaluru","12.9247825","77.65069319999999","true"
"ChIJ44s6Cd4VrjsRP1mBJiI7Ro4","TotalGaz LPG Station","9th Floor, G9, 1st Cross Road, Sampangi Rama Nagara, Sampangi Rama Nagar, Bengaluru","12.9615297","77.5856386",""
"ChIJb1hsjl4TrjsRrMoKvgpnQT0","IndianOil","Site No 3839 & 40, RRR Group, Haralur","12.8990184","77.6584068","true"
"ChIJsxM8vgkWrjsRz5F_o-Kaie8","MAHENDRA ASSOCIATES","54, Sadar Patrappa Road, Bengaluru","12.9648033","77.58095639999999","true"
"ChIJOSjGmh9rrjsR65H79G5Anvk","IndianOil","Sy No 76, 2 & 72/6, Begur Hobli, Mylasandra, Bengaluru","12.842356","77.618515","true"
"ChIJ7_yVpv0VrjsRKywZCmCeCAQ","Bharat Petroleum Corporation ltd","No.24, opposite CCB Office, 1, Mysore Road, Briand Circle, Bengaluru","12.9640549","77.57043829999999","true"
"ChIJBQJrlfVqrjsRiTnD11euAWc","IndianOil","No 36 & 37, Anekal Bannergatta Road, Bannerughatta, Kalkere","12.832959","77.589218","true"
"ChIJpZ7N3HkWrjsRoHK39_xMVH4","Shell","next to UB City, 24, Vittal Mallya Road, Bengaluru","12.971323","77.59702999999999","true"
"ChIJb-eKI3ATrjsRW3lacy-te3o","Hindustan Petroleum Corporation Limited","Sy No 23, Haralur Main Road, Ambalipura, Sarjapura, Bengaluru","12.914749","77.666963","true"
"ChIJ58Ll2f0UrjsRwF8fdK3QMLQ","Bharat Petroleum Corporation ltd","next to Madiwala, No 58, Hosur Road, Madiwala, Police Station, Bengaluru","12.92081","77.62083","true"
"ChIJ4T3nGBAVrjsRAPFWivOz14Q","IndianOil","No 52/A, 9th Cross Road, 2nd Phase, J. P. Nagar, Bengaluru","12.9103864","77.5948524","true"
"ChIJeVq-lEATrjsRrE6lRyUNM_A","Shell","Hosa Rd, Hobli, Srvyno25/1, Varthur","12.899336","77.675489","true"
"ChIJc9iyb7RsrjsRV2RKK0b2Vv4","IndianOil","Ground Floor, Junction, Naganathapura, Rayasandra, Bengaluru","12.8761804","77.67152200000001","true"
"ChIJt6I3BLMTrjsRfLrebdMRqKY","IndianOil","Survey No, 27 Varthur, Hobli, Kadubeesanahalli, Bengaluru","12.9411827","77.6957042","true"
"ChIJ10kdtY8TrjsRFfVAorPnzoY","Shell","Sarjapur - Marathahalli Road, Hobli, Varthur","12.895359","77.722931","true"
"ChIJC7xnbTMSrjsRZqVWEETjCwQ","IndianOil","Sy No 11/5, Hobli, Chikkabellandur, Varthur","12.9555501","77.6911326","true"
"ChIJyXjSvwUUrjsRv9Z69mV_s40","IndianOil","HAL Old Airport Road, Kodihalli, Bengaluru","12.960028","77.645752","true"
"ChIJ_VNWm_8TrjsRo1Qlt70FAFs","IndianOil","Ground Floor, HAL 3rd Stage, Jeevan Bima Nagar, Bengaluru","12.9673414","77.65438530000002","true"
"ChIJ9bIlOlURrjsRLqZB8ugsQS8","Bharat Petroleum Corporation ltd","next to Sri Ganesha Temple, 32, New Thippasandra Main Road, Annayappa Colony, New Tippasandra, Bengaluru","12.9718794","77.65444","true"
"ChIJE9QwXMATrjsRtm-xFqd5z5Y","Shell Select","Unnamed Road, Owners Court Layout, Eastwood Township, Junnasandra","12.8993544","77.6750277","true"
"ChIJ3wjkBZATrjsRSGlsbizEc-c","Shell Fuel Station","Plot No.6, Sy No.27/2, Haralur Road, Ambalipura Village, Varthur, Hobli, Bengaluru","12.9128775","77.6654308","true"
"ChIJ_451IMETrjsR7BWiKD19qiU","Parama - Essar & Aegis Petrol Bunk","VMR4+R8Q, opp. Lake, Haralur, Haralur Main Road, Bengaluru","12.892081","77.6558723","true"
"ChIJiZ4ugrcTrjsRBbKxPMlQDvI","RAJARAJESWARI EMISSION TESTING CENTRE","HP Petrol Pump, Haralur Main Road, Bengaluru","12.9146142","77.6668254",""
"ChIJWTsi1XMVrjsRXoNAGGhrGq4","IndianOil","Sy No 58, 4 Hobli, Kudlu Road, Hosapalaya, Sarjapura, Bengaluru","12.8933987","77.6507917","true"
"ChIJW9na1QQTrjsRv5izZEWbp0c","Bharat Petroleum Corporation Ltd","Survey No 45, 1, Sarjapur - Marathahalli Road, Kaikondrahalli, Bengaluru","12.9149276","77.6754833","true"
"ChIJJSzOHAAVrjsRqzZCVm5TwJ0","LPG AUTO GAS (Indian petrol)","WJ4W+W42, 25th A Cross Road, Garden Layout, Sector 2, HSR Layout, Bengaluru","12.9072747","77.64526760000001",""
"ChIJxd2WgvoTrjsR7Puz6gP1zcg","Kunal industries","VMMF+MP5, Meenakshi Layout, Bengaluru","12.8841469","77.6743712",""
"ChIJL7yQu5IVrjsR6dGia89EzR8","A1 Stop","382, 9th Main Hongasandra GB Palya Road, AECS Layout, Bengaluru","12.8856339","77.65232139999999",""
"ChIJZQjM0L8TrjsR_ni_cXxbBb4","Shell Wipro Gate","Ambalipura - Sarjapur Rd, Hobli, Varthur","12.9111052","77.6831261","true"
"ChIJoRZ_sxkVrjsRV9rUGC_o1XI","Shell Petrol Pump HSR Layout","29a, 23rd Cross Road, HSR Layout, Bengaluru","12.909029","77.644367","true"
"ChIJze5D3IwUrjsRK6VegOfqlsg","Bharat Petroleum Corporation ltd","CA Site 29/A 27th Main Road, 80, Feet Road, Bengaluru","12.9198926","77.65143189999999","true"
"ChIJM7ZxwVgVrjsRKDFssWlISdE","Emission Test","WM92+XH6, 1st Sector, HSR Layout, Bengaluru","12.919901","77.6513786",""
"ChIJmYcPsBQTrjsR8bTcynzfMo8","IndianOil","Survey No 81/2, opposite NTR College, Bda, Outer Ring Road, Bellandur, Doddabanahalli","12.9234712","77.6698976","true"
"ChIJYxaa0XUTrjsRoYx61OVfz34","Shell","80/2, Outer Ring Road, 80/2, Bengaluru","12.923162","77.67138","true"
"ChIJyWnMznUTrjsRyBPOmkGRrpg","Propel Auto LPG Gas Station","80, near Citrus Hotel, 3, Outer Ring Road, Bellandur, Bengaluru","12.9233972","77.67188949999999","true"
"ChIJ9wejXwAVrjsR7oZFbCYiVkM","lpg auto gas bunk","1, Kudlu Main Road, Krishna Reddy Industrial Area, Hosapalaya, Muneshwara Nagar, Bengaluru","12.8903348","77.6436655","true"
"ChIJR3QKqxATrjsRZm707Ff1wFk","Hindustan Petroleum Corporation Limited","No 83/12 Dodkanhalli Sarjapur Road, Varthur, Hobli, Bengaluru","12.90967","77.68771699999999","true"
"ChIJsScIaEATrjsR2_53yYMkBNc","Jio-bp pulse","Embassy Pristine Aster, Ibbaluru, Bellandur, Bengaluru","12.927016","77.66180399999999","true"
"ChIJzY4jU6psrjsRSyg5M_hAi-U","Sri Ram Enterprises","1, Hosa Road, Bengaluru","12.8764396","77.6564074","true"
"ChIJuxof4a9trjsRd-AKxLzKze0","Nayara Petrol Pump","Rayasandra Main Road, Choodasandra, Bengaluru","12.8764892","77.6742093","true"
"ChIJwRoQxNsVrjsR4zWH9RfEAN8","GAIL Gas CNG Station","Sterling Infinia Block-1, STERLING INFINIA, Sarjapur - Marathahalli Road, Agara Village, Jakkasandra Extension, HSR Layout, Bengaluru","12.9247851","77.65049379999999",""
"ChIJY0S4ahoVrjsRj4FKKuhJIVs","IndianOil","Survey No 82/2, Singasandra, Bengaluru","12.8854131","77.6418443","true"
"ChIJ186IYAAVrjsR3jUtAG6q1o0","FASTAG Activation Point","C/O SOWBHAGYA &CO,IOC PETROL PUMP,OPP TO NANDAS HOTEL-38,19 TH MAIN, Outer Ring Road, Agara Village, 1st Sector, HSR Layout, Bengaluru","12.9212873","77.6447554","true"
"ChIJZSpwpqgTrjsR6bcO5a5Fw7g","Essar aegis petrol Station","Bellanduru Junction City Light Apartment, Bellandur, Bengaluru","12.9265727","77.6771224",""
"ChIJ2-p-QBkTrjsRHaBlWXMNtdw","IndianOil","near Wipro Office, 20, Sarjapur Main Road, Carmelaram, Doddakannelli, Bengaluru","12.908346","77.692337","true"
"ChIJW4tDPkEVrjsR9psowcBuaMA","Shell petrol pump","49 Hosur Road Begurhobli, Situated at, Singasandra, Bengaluru","12.883492","77.642851","true"
"ChIJtXbdvNwVrjsR5VrO1se1sIU","Goutam Mahakur Fuels","82, 2nd Cross Road, Bommanahalli, Bengaluru","12.8985033","77.63603069999999",""
"ChIJ4YVgnlQVrjsRVAy_9WrgI3E","Mataji gas ajency","Muniyappa Complex Old, 27th Cross Road, 7th Sector, HSR Layout, Bengaluru","12.9071363","77.6353199","true"
"ChIJlY_u1pUVrjsR2ZEsOmEoCWo","Kanthraj G R Service","68, Manganpalya, Main Road, Manganpalya, Bengaluru","12.9000168","77.6345772",""
"ChIJ7XRcSwAVrjsRBCO7yNaGk7Y","GAIL CNG PUMP","267, Mico Layout, Garvebhavi Palya, Bengaluru","12.8965042","77.6349718",""
"ChIJDemoQe89rjsRevDoAekb7Lg","Hindustan Petroleum Corporation Limited","Survey No 78/1, opposite Veeresh Theatre, Magadi Main Road, Bengaluru","12.9772832","77.5464879","true"
"ChIJ-R5R65M9rjsRCulPensZcxY","Indian Oil Petrol Bunk","7th Main Road, Saneguruvanahalli, Basaveshwar Nagar, Bengaluru","12.9917664","77.5458601",""
"ChIJc2zhb-U9rjsRL3RomtGd2FA","IndianOil","No 93 WC Road, Junction, Magadi Main Road, Bengaluru","12.9755324","77.5483163","true"
"ChIJH9EiPcI9rjsRI3tzL6BSBpo","IndianOil","Plot No 8, Magadi Main Road, Gandhi Layout, Agrahara Dasarahalli, Bengaluru","12.9806252","77.5376197","true"
"ChIJBRGQa8QQrjsR16GIvG6C9Hw","Bharat Petroleum Corporation ltd","93 5th Cross, near Central School, Dr, Doctor Rajkumar Road, SSI Industrial Area, Bengaluru","12.9805953","77.5571782","true"
"ChIJMwOwz1o8rjsRvv1RT9a5UmA","IndianOil","No 16/12 Yeshwanthpura, Hobli, Hegganahalli, Bengaluru","12.9967501","77.5020146","true"
"ChIJrWcm6sk9rjsRXax9ngwJj4g","IndianOil","Sy No 50, Magadi Main Road, Kamakshipalya, Bengaluru","12.985241","77.523315","true"
"ChIJ6TQlB8o9rjsRajL5y_aOF5o","Bharat Petroleum Corporation ltd","No.50, Sy, No 17, Magadi Main Road, Kamakshipalya, Bengaluru","12.9861826","77.52152749999999","true"
"ChIJhxeueus9rjsRrZgWRehZCs4","IndianOil","Havanur Complex, No 99, 3rd State, 2nd Block, Main Road Chord Rd, Circle, Basaveshwar Nagar, Bengaluru","12.9877797","77.5372659","true"
"ChIJQZ49eLE9rjsREDa1ekuZH8Q","IndianOil","Sy No 48 & 49 Laggere, Hobli, Sumanahalli Flyover, Yeshwanthpur, Bengaluru","12.9946226","77.52262929999999","true"
"ChIJ_7yYhOw9rjsRtrybphYFn8k","SUPERGAS Auto LPG station - PP Auto SUPERGAS","84, Chord Road, 3 Stage, 2nd Block, 3rd Stage, Basaveshwar Nagar, Bengaluru","12.9852491","77.5450893","true"
"ChIJ-Ug8qvE9rjsRmG7nP01mbnw","IndianOil","10, 3rd Cross, Doctor Rajkumar Road, S.S.I.Area, 6th Block, Rajajinagar, Bengaluru","12.981062","77.55828009999999","true"
"ChIJYyxF0Ww8rjsRK0AQ1jfG8Go","Hindustan Petroleum Corporation Limited","Ground Floor, Magadi Main Road, Bengaluru","12.9848911","77.4849502","true"
"ChIJNXBKZ_k8rjsRF8w1iHYugR4","HP Petrol Bunk","Bus Stop, Rd, 2nd Stage, Peenya Industrial Area Phase IV, Peenya, Bengaluru","13.0135373","77.5088239",""
"ChIJw-rUwXI8rjsRN9irINTu608","Shell","Magadi Main Road, Bengaluru","12.98565","77.48004999999999","true"
"ChIJv9EWceQ8rjsRQIK9efAHo9w","IndianOil","Plot No 460B, 4th Phase, Peenya, Nelagadaranahalli","13.023345","77.51020330000001","true"
"ChIJo5RIF3M8rjsRMgoL4K0XzP4","Balaji Petro Services ( Nayara Energy ltd. )","Survery No 76, Kempegowdanagar, Byadarahalli, Bengaluru","12.9858507","77.4779866","true"
"ChIJs_6bDnM8rjsRKOtesUBQLeI","IndianOil","11/4A, Magadi Main Road, Gollarapalya, Hosahalli, Bengaluru","12.986421","77.47758499999999","true"
"ChIJu0CYXMP_wDsRW0CpCS1QwoU","SUPERGAS Auto LPG Station - Vijayshree Auto Gas","473-474, Thimmaiah Road, 3 Stage, 2nd Block, Mahaganapathi Nagar, Rajajinagar, Bengaluru","13.0177881","77.54254139999999","true"
"ChIJsasu5iIWrjsRfBw0Fp_v8kw","IndianOil","Sirur Park Road, Seshadripuram, Bengaluru","12.990829","77.571579","true"
"ChIJHRc-Tw09rjsRBkzsQVA-G6M","IndianOil","Devaraja Truck Terminal, Site No P2, Kanteerava Studio Road, Road, Yeswanthpur, Bengaluru","13.0201825","77.5382925","true"
"ChIJgcPo8Hg9rjsRQrW91HQ3KPU","Shell","Doctor Rajkumar Road, Rajajinagar, Bengaluru","13.01243","77.55381","true"
"ChIJM7E6pSIWrjsRdC2tFGBqCXY","Hindustan Petroleum Corporation Limited","136, Subedar Chatram Road, Seshadripuram, Bengaluru","12.9896829","77.57260649999999","true"
"ChIJt7w25Xo9rjsRmrtoM8cMaI4","DARS AUTO LPG, Yeshwanthpur","Bus Stop, Nelamangala - Majestic Service Road, Yeshwanthpur Industrial Suburb, Yeswanthpur, Bengaluru","13.0195701","77.5527383","true"
"ChIJa9_Sxno9rjsRlQchsh_jALI","Hindustan Petroleum Corporation Limited","near Govardhan Theater, Tumkur Road, Yeswanthpur, Bengaluru","13.020632","77.552097","true"
"ChIJuU_OAXY8rjsRpVe_MScJPcs","Hindustan Petroleum Corporation Limited","Sy No 21 Magadi Main Road, Golharhatti, Hosahalli, Bengaluru","12.9896349","77.4702506","true"
"ChIJQ165Gmw9rjsRL3nrfcOkiwQ","IOC - Namrata Agency","Nelamangala - Majestic Service Road, Yeshwanthpur Industrial Area, Yeshwanthpur Industrial Suburb, Yeswanthpur, Bengaluru","13.0260475","77.5442989","true"
"ChIJ8xko_W49rjsR7TKZxdwH2aQ","Shell","62339, Shell Petrol Pump 099009, 36, Tumkur Road, Yeshwanthpur Industrial Area, Phase 1, Yeswanthpur, Bengaluru","13.024924","77.54742999999999","true"
"ChIJV9GcWDkWrjsRgRNxbJvMTEs","Total Gas","1st Main, DN Ramaiah Layout, 135, Seshadripuram Main Road, Seshadripuram, Bengaluru","12.9951274","77.5791017","true"
"ChIJd3jSpj09rjsRrah_ZzzVF3I","Hindustan Petroleum Corporation Limited","Ground Floor, Bengaluru Tumkur Rd, NH 4, CA Site, Bda Indl, Peenya, Bengaluru","13.0335884","77.5309427","true"
"ChIJ0Y9u9XoWrjsRB0_j1PSoQl8","Hindustan Petroleum Corporation Limited","6, Kasturba Road, Bengaluru","12.975903","77.5978703","true"
"ChIJVVqFEG8WrjsR_MNU-VrDwXI","Hindustan Petroleum Corporation Limited","5, Raj Bhavan Road, Bengaluru","12.982293","77.59411589999999","true"
"ChIJufOPnvYWrjsRm7aYn4c_UiU","Hindustan Petroleum Corporation Limited","No 87, Coles Road, Frazer Town, Bengaluru","12.9965","77.61183","true"
"ChIJ293jKOUWrjsRYAsaAegfpHI","IndianOil","Sagaya Madha Church Compound, Clarke Road, Sagayapura, Lingarajapuram, Bengaluru","13.004795","77.6196803","true"
"ChIJYeJ-pv4WrjsRvWJCeydI8Q4","IndianOil","Ground Floor, behind Mediscan Home, Tannery Road, Bengaluru","13.0113577","77.6159727","true"
"ChIJAQw_vcIWrjsRm9Rq-aDR650","Bharat Petroleum Corporation ltd","No 33, 33, near Orion East Mall, 6 & 33/7, Dodda Banaswadi Main Road, Bengaluru","13.001598","77.6315347","true"
"ChIJK1twJcgXrjsRO65H1cOzN-g","Shell","9, Bellary Road, Bengaluru","13.021147","77.58429","true"
"ChIJ-_T6F68XrjsR81ZLZVDoyV8","IndianOil","1, Adi Kabir Ashram Main Road, Narayanappa Garden, RT Nagar, Bengaluru","13.022407","77.6005194","true"
"ChIJP_4WhgcXrjsRiwu38wQY5e4","IndianOil","9 1, LR Bande Road, Bengaluru","13.0221876","77.6080673",""
"ChIJc3Qfu8IWrjsRCm-HEISJ3Ok","IndianOil","No 1, 1, Hennur Main Road, Kachamaranahalli, Lingarajapuram, Bengaluru","13.014785","77.628494","true"
"ChIJh4dAc7gXrjsRoPgfh78MZuw","Hindustan Petroleum Corporation Limited","26, Bellary Road, Bengaluru","13.0247579","77.5852836","true"
"ChIJpdOvzR8XrjsRNfOQ1Fxuxc4","Aegis Essar Petrol Bunk","1252, Hennur Main Road, RK Hegde Nagar, Stage 1, Kadugondanahalli, Bengaluru","13.0148192","77.6277858",""
"ChIJYbrvRyYRrjsRkm6fSIwGHOg","IndianOil","Dodda Banaswadi Main Road, Ramamurthy Nagar, Bengaluru","13.0076151","77.64127069999999","true"
"ChIJybHtFw8XrjsRdGYAbrQ6jJo","IndianOil","6, Shampura Main Road, Kadugondanahalli, Bengaluru","13.0266729","77.6149318","true"
"ChIJofoZyikRrjsRhGFCcYj-_UM","IndianOil","6, Outer Ring Road, Gajendra Nagar, Banaswadi, Bengaluru","13.0148278","77.66194809999999","true"
"ChIJZ8TpeVIRrjsRgWb_ySClIBA","Hindustan Petroleum Corporation Limited","Ground Floor, DRDO Township, C V Raman Nagar, Bengaluru","12.9812119","77.6571268","true"
"ChIJD9Wd9kkRrjsRqKYKAGNufLg","Shell","Old Madras Road, K R Puram Hobli, Bengaluru","12.991871","77.65959","true"
"ChIJne_Jo3ERrjsRvOUu2wc2u6Y","IndianOil","No 525, 6, Mahadevpura Flyover, Mahadevapura, Bengaluru","12.9870392","77.6904926","true"
"ChIJ673vlg0RrjsRq76_IHYZ2uI","Shell","ITPL Main Road, Main Road, Whitefield, Bengaluru","12.998097","77.68916999999999","true"
"ChIJGzFV4hsRrjsR4oY7TplfUWA","Hindustan Petroleum Corporation Limited","Survey No 16 & 17, Ramamurthi Nagar Main Road, ITI Colony, Bengaluru","13.0102856","77.6820006","true"
"ChIJ79E5IIURrjsRZG8ZnqPwnJU","Shell","Graphite India Main Road, ITPL Main Road, Vill, Hoodi, Bengaluru","12.982598","77.70814","true"
"ChIJkdIVRK8YrjsRV7IhmVLjmls","Bharat Petroleum Corporation ltd","Survey No 116 Singanayakanahalli, Avalahalli, Bengaluru","13.0138958","77.64169489999999","true"
"ChIJF9pnCpcRrjsR7MVY69m4YbE","SUPERGAS Auto LPG Station - Red August Liquefied","H.no. 8/1, K.R.Puram Hoble Mahadevpura, Whitefield Main Road, Hoodi, Bengaluru","12.9925082","77.71251149999999","true"
"ChIJvTCV7yMSrjsRhemEkX2KnF0","Hindustan Petroleum Corporation Limited","near Brooke Fields, 123/2, ITPL Main Road, Kundalahalli, Bengaluru","12.966731","77.717705","true"
"ChIJk1ck7JQRrjsRZqldy4jD2zU","Bharat Petroleum Corporation ltd","opposite Zuri Hotel, No 230/1, Srinidhi Industrial Complex Survey No 11647, opposite Zuri Hotel, Whitefield Main Road, Hoodi, Bengaluru","12.9913119","77.72179899999999","true"
"ChIJzVbrlq0RrjsRrdC2C8b6LL4","Nayara Energy Fuel Station","2P76+56M, 37/2, Basavanapura Main Road, adjsent sbi batterly, Basavanapura, Krishnarajapuram, Bengaluru","13.0142589","77.7097773","true"
"ChIJMT7M4VIQrjsRC4lSJ5Otvuk","IndianOil","NH 4, Madras Rd, Bhattarahalli, Krishnarajapuram, Bengaluru","13.0192651","77.70784309999999","true"
"ChIJJZx4Vt8TrjsRFPXvaOAWQw8","Shell","93, Ramamurthi Nagar Main Road, Dooravani Nagar, Bengaluru","13.0117667","77.6726197","true"
"ChIJTwMtSjkXrjsR3YIleU1JE5A","IndianOil","Ground Floor, 5th Mile Frazer Town, Hennur, HBR Layout, Bengaluru","13.0325815","77.6368334","true"
"ChIJD7QjFsAQrjsR3eTOF_phBeY","Hindustan Petroleum Corporation Limited","Survey No 327, Kalkere Main Road, Kalkere, Bengaluru","13.0376988","77.6756576","true"
"ChIJMWRjPwYUrjsRFzKvmwGOtuE","Bharat Petroleum Corporation ltd","Door No, opposite Manipal Hospital, 134, HAL Old Airport Road, Kodihalli, Bengaluru","12.9599169","77.6495369","true"
"ChIJ89ZIzB8XrjsRUGZJvQx3HYw","Shell","Hennur Main Road, Kacharakanahalli, Bengaluru","13.014719","77.62808","true"
"ChIJn1ldbbsWrjsRmEKyJ4K-45A","IndianOil","C8, Old Madras Road, Binnamangala, Stage 1, Indiranagar, Bengaluru","12.9826973","77.6376995","true"
"ChIJn5bWkswTrjsRFu5joyayCSQ","Hindustan Petroleum Corporation Limited","45/2, Varthur Main Road, Marathahalli, Bengaluru","12.9564914","77.6974987","true"
"ChIJt3B6-QcUrjsRRF-9EzzULSE","Hindustan Petroleum Corporation Limited","HAL Old Airport Road, Murugeshpalya, Bengaluru","12.9592651","77.6533762","true"
"ChIJqaSHqHcTrjsRuuYBh6kB0RY","Rajendra Fuel","P, 17, 9th A Main Road, Sector 12, Jeevan Bima Nagar, Bengaluru","12.9679163","77.6564322",""
"ChIJp0afrI4TrjsREtYNV9MziBQ","Bharat Petroleum Corporation ltd","Survey No 62, CA Site No P2, Kodihalli, Bengaluru","12.9677086","77.6559833","true"
"ChIJ-3uNHwATrjsRCKmJelFC6Io","Fraud ðŸ¤¬, don't use this petrol bunk","Ground Floor, HAL 3rd Stage, DOS Colony, Jeevan Bima Nagar, Bengaluru","12.9673873","77.6544444",""
"ChIJH31cpQERrjsRfwsEvtSjoSE","Greencity Emission Testing Center","Bayarappa Layout, Suddaguntapalya, C V Raman Nagar, Bengaluru","12.9812117","77.6570481","true"
"ChIJeU9piwoRrjsRMuQnaK1jVs0","Fastag Activation","XMJ4+GR2, HP Petrol Pumpa DRDO, Bengaluru","12.9812546","77.65701100000001","true"
"ChIJ8xLzNQMRrjsRyeCUELHIxS0","GasPlus Auto LPG - Kaggadaspura","1456, Kondappa Layout, Kaggadasapura, Bengaluru","12.977791","77.6792206","true"
"ChIJWbqO32YRrjsR2imiCgH8wzY","Hindustan Petroleum Corporation Limited","443/283/A & 445/284/A, Kaggadasapura Main Road, C V Raman Nagar, Bengaluru","12.9782153","77.67942239999999","true"
"ChIJURHTpPETrjsRhqUw05bhiuM","IndianOil Aviation Fuel Station","XM47+55F, Airport Arrival Road, HAL Airport Area, HAL, Bengaluru","12.9554285","77.6629114","true"
"ChIJWcCM_G0TrjsRBMMB70a51Eo","Shell","204, Basavanagar Main Road, Doddanekkundi, Bengaluru","12.971211","77.68186","true"
"ChIJsXPrZnIXrjsR1_buQhKAfD0","Shell Petrol Station","New, New Thippasandra Main Road, HAL 3rd Stage, Colony New 515, New Tippasandra, Bengaluru","12.9740972","77.6470731","true"
"ChIJC2HuVAATrjsR8xCvqxFeHwk","Petrol bunk","7-705, 7th Main Road, Murugeshpalya, Vinayaka Nagar, Bengaluru","12.9536144","77.65806429999999",""
"ChIJ0Tr9bE8RrjsRMUwi5yH4z6w","Shell","WARD NO.83, C V Raman Nagar, Bengaluru","12.9920235","77.65958669999999",""
"ChIJc5SupbQ8rjsRGTtPAx8sMro","Hindustan Petroleum Corporation Limited","Ground Floor, NH 48, Jindal Nagar, Chikkabidarakallu, Bengaluru","13.0514894","77.48832279999999","true"
"ChIJbeO0vSg9rjsRXBbP-2KROCY","IndianOil","No 1, Dasara, Yeshwanthpur Ayyappa, Maheshwaramma Temple Road, Hobli, Prashanth Nagar, Bengaluru","13.0438693","77.5208686","true"
"ChIJ_YCEVPsjrjsR3UQhA74oiF0","IndianOil","39, Hesarghatta Road, Bagalakunte, Bengaluru","13.055399","77.50748399999999","true"
"ChIJF5FoID09rjsRINrV5U55UBQ","IndianOil","Ground Floor, opposite Metro Station Peenya Industry, Tumkur Road, Peenya, Bengaluru","13.0362233","77.5235378","true"
"ChIJUTRoptE8rjsRePae54ebBbg","IndianOil","Ground Floor, Hesarghatta Road, 8th Mile, T. Dasarahalli, Bengaluru","13.0456857","77.50751819999999","true"
"ChIJP4yt09E8rjsRtiIwx5MkfEU","IndianOil","8th, Mile Stone, Tumkur Road, Nagasandra, Bengaluru","13.0454629","77.5052278","true"
"ChIJU-J9_SwjrjsRaBJhO24Q8gE","Hindustan Petroleum Corporation Limited","Survey No 73, Khata No 254, Hesarghatta Road, Mallasandra, Yeshwanthpur, Bengaluru","13.0556814","77.50748329999999","true"
"ChIJAXYJYs48rjsR-XjyPnudh4Q","Shell","Tumkur Rd Dasarahalli, Vill, Nagasandra, Bengaluru","13.046599","77.502285","true"
"ChIJ3V4Ue1o9rjsRSVhXuTLRYEY","Hindustan Petroleum Corporation Limited","No 2, MES Ring Road, Bengaluru","13.0435343","77.55377899999999","true"
"ChIJO5ZeYNwirjsREOZBX2XHyZg","Hindustan Petroleum Corporation Limited","Survey No, 21/4A, Abbigere Road, Chikkabanavara, Bengaluru","13.0725118","77.5245199","true"
"ChIJvzjDxGM9rjsRDAuVlYN2-PE","IndianOil","Plot No 101, Stage 3, 1st Cross Road, Gokul 1, Yeswanthpur, Bengaluru","13.0264301","77.557613","true"
"ChIJZ_gOmN0XrjsR9VPLBP23SUY","IOC - Fouzdar Petroleums","Jaladarsini Layout, Sanjayanagara, Bengaluru","13.032444","77.569881","true"
"ChIJyaI_jFk9rjsR1FuHV8Dp8tE","IndianOil","8A/8B, New BEL Road, RMV Extension, ITI Layout, Bengaluru","13.0324309","77.5699169","true"
"ChIJ51Aou6EirjsRcQ4lSAxkAu0","IndianOil","M.S.Palya Circle, Vidyaranyapura, Bengaluru","13.0809954","77.5487945","true"
"ChIJGW3D-9wXrjsRzQ34Cr4MxQs","Hindustan Petroleum Corporation Limited","Site No 6, near Ramaiah Institute Of Technology Ms Ramaiah Hospital, New BEL Road, Devasandra Layout, Bengaluru","13.030609","77.57095389999999","true"
"ChIJC6hGaBEjrjsRutBCdKmB4UI","IndianOil","Sy No 40/8, Hesarghatta Road, Chikkabanavara, Bengaluru","13.0828489","77.4998106","true"
"ChIJZ_7daA8YrjsRp8sgwShOvco","IndianOil","3H8C+8J3, Thindlu Main Road, Kodigehalli, 3/5, Vidyaranyapura, Sir MV Layout, Dhanalakshmi Layout, Virupakshapura, Bengaluru","13.0650556","77.57083360000001","true"
"ChIJ9czE_MMXrjsRPh4-BWpucYw","IndianOil","2HJJ+447, 2nd Stage, KEB Layout, Sanjayanagara, Bengaluru","13.029127","77.578789","true"
"ChIJXyd-SR4YrjsRqAIDnKbl1TQ","IndianOil","Sy No 17, opposite Chairmans Club, 2, Kodigehalli Main Road, Bengaluru","13.0579421","77.5863396","true"
"ChIJX0mhbJEXrjsRiIkn6P26Ixg","Nithin & Co - Essar Fuel Station","Subramani Nagar, Guddadahalli, Hebbal, Bengaluru","13.0421333","77.5921524","true"
"ChIJU3NyeKUkrjsRLKfvCSmwHxQ","IndianOil","Ground Floor, Madanayakanahalli, Tumkur Road, Bengaluru","13.0624509","77.4577546","true"
"ChIJhYzriCYYrjsRsEwBrjWKFWY","IndianOil","Plot No 106/7, Bellary Road, Bengaluru","13.0582922","77.5938429","true"
"ChIJfZmxrloirjsRy67joF4S0Qo","Nayara Petrol Bunk","Bylakere","13.1110426","77.5276329","true"
"ChIJcxZzow09rjsRiob9s2OM59o","IndianOil","Plot No P3, Peenya 1st Stage, Indus Estate, Peenya, Bengaluru","13.0395411","77.5186167","true"
"ChIJC9LEPCM9rjsRJhfI0LUp79o","IOC - Satish Service Station","Peenya 1st Stage, Peenya, Bengaluru","13.035303","77.526338",""
"ChIJYf27tT09rjsRfOt-z6afBrE","GAIL GAS CNG BUNK","Chokkasandra, Peenya, Bengaluru","13.0370133","77.51790009999999","true"
"ChIJxeBuziA9rjsRU4snnMied4w","SKIDTECH ENGINEERING (STEP Gas)","Chokkasandra, Peenya, Bengaluru","13.0366961","77.51787999999999","true"
"ChIJVVzeC3TVsTsRU3LyorpWaIU","Jio-bp","Survey No 11/2, Nh 4, Nelamangala - Majestic Service Road, Dobbaspet","13.0423192","77.5154882","true"
"ChIJc5prNkw9rjsR2NG9DkaOJac","IndianOil","2, 100 Feet Road, Peenya, Bengaluru","13.035362","77.518056","true"
"ChIJHw_8bUcYrjsRfpuG5m4zUtU","Hindustan Petroleum Corporation Limited","Ground Floor, opposite Jakkur Aerodrome, Bellary Road, South Western Zone, Bengaluru","13.0812514","77.5927232","true"
"ChIJ05C9WFkYrjsRP5uRWJkELEk","IndianOil","near NES Office Road, Yelahanka New Town, Bengaluru","13.0975815","77.5913881","true"
"ChIJ0SSWAggZrjsRpbPHgV725OQ","IndianOil","Sy No 89 Yelahanka, Kogilu Main Road, Srinivaspur, Hobli","13.1042923","77.6198043","true"
"ChIJuXBblDYWrjsReq_ETJFLJiQ","Shell","Sankey Road, Sadashiva Nagar, Bengaluru","13.005","77.58086","true"
"ChIJn-PGJ_kYrjsRhJj3Uq44Gb0","IndianOil","No 1666/3, Bellary Road, Yelahanka, Bengaluru","13.1060857","77.6012059","true"
"ChIJhQ8uQJEXrjsRzapMQDWXWmE","UNI GAS","2HRR+QQ6, Shanimahatma Temple Road","13.041915","77.5918751",""
"ChIJoVqzFhAXrjsR4zSvkJMdE88","Surya Auto gas","2HQW+MHM, Chinana Layout, Guddadahalli, Hebbal, Bengaluru","13.0392948","77.59630949999999",""
"ChIJN3hq0wgXrjsRx36PqXS8T8M","Nagpals garage","81, Bellary Road, Subramani Nagar, Bayanna Layout, Hebbal, Bengaluru","13.0408776","77.58977639999999",""
"ChIJ7XijOGIXrjsRpe0wZk9IFvI","Jilu Autogas","2JQ2+QQW, 5th Cross Road, M.R.Garden, Vishwanatha Naganahalli, Hebbal, Bengaluru","13.03948","77.60194","true"
"ChIJtVdnEAAXrjsRnH-48sT4Guk","SLV RAGI FUELS","14, Chamundi Nagar Main Road, Seethappa Layout, Chamundi Nagar, Hebbal, Bengaluru","13.0331367","77.5991107",""
"ChIJ02LLvKAXrjsRk5zX-5sPBlE","Bharath petrol bunk","Chamundi Nagar, Hebbal, Bengaluru","13.0330619","77.599105",""
"ChIJ6eksOmYXrjsRTsCItNWZuNE","sri venkateshwara fuels","59, 1st Main Road, Kanaka Nagar, Hebbal, Bengaluru","13.0370272","77.60682179999999",""
"ChIJEblJpawXrjsR6p5j0brouAo","NAYARA PETROL","23, 1st Cross Road, Naganahalli, Hebbal, Bengaluru","13.037027","77.6068824",""
"ChIJf1JTHhIXrjsR00SYYHpKNS4","BMTC BUS DEPO","39, 6th Main Road, HMT Layout, Hebbal, Bengaluru","13.0288244","77.59318739999999",""
"ChIJA1wicvYRrjsROmKkW_9yQLU","IndianOil","Survey No 52/6, Horamavu Agara, Bengaluru","13.0385686","77.65964819999999","true"
"ChIJBTsj4DoRrjsRcn1uxUlXiIk","Hindustan Petroleum Corporation Limited","Survey No, 24/1, Horamavu Agara Road, KR Puram, Bengaluru","13.032407","77.660018","true"
"ChIJ569X5yoRrjsRRbQHo1CvP9k","Bharat petroleum station","MR Complex, Kalkere Main Road, Dodda Kempaiah Layout, Kalkere, Bengaluru","13.0313552","77.6696676",""
"ChIJYxi9RMQQrjsReDj4nLbRdqU","Seeti Bhairaveswara Auto LPG","2MJ9+9J8, Rajkumar Layout, Esther Enclave Layout, Bengaluru","13.0309146","77.66908389999999","true"
"ChIJhxkqXcQQrjsRxo3b4HDKpvI","ESSAY PETROLEUM","India","13.030819","77.66918609999999",""
"ChIJ_X-kVaQRrjsRaYXQ44kaMfU","Hindustan Petroleum Corporation Limited","Ground Floor, Bileshivale Main Road, Kyalasanahalli, Byrathi","13.054821","77.664148","true"
"ChIJySfnHQARrjsRbvuXS3S7IIY","FASTAG Activation & Sales","3M47+3F3, Bileshivale Main Road, Hanumanthappa Layout, Essel gardens, Bengaluru","13.0551354","77.66365739999999",""
"ChIJWaUukz0RrjsRAvYKEIesv-0","SSR FUEL STATION","International Airport, No 25/4, Byrathi-Kyalasanahalli, Kothanur Post Opp Hennur - Bagalur, Link Road, Bengaluru","13.0552758","77.6637756","true"
"ChIJ5-j_XwARrjsRoINe6ZOKHik","CONFIDENCE PETROLEUM INDIA LTD","55, K Channasandra, Bengaluru","13.0423276","77.679694","true"
"ChIJQ1FN6UURrjsRNAfG-KqaBJY","IndianOil","Sy No 79, 1 Hobli, Main Road, Bileshivale","13.052597","77.67531029999999","true"
"ChIJf9F4J0IRrjsRuItCBu2w5ww","IndianOil","Sy No 50/3, Kyalasanahalli, Bengaluru","13.0558613","77.65692340000001","true"
"ChIJNbpgmpoRrjsRcVYeyNYEtFI","INDIAN OIL PETROL BUNK - M/s LAKSHANA ENTERPEISES","Sy No. 39/6, K.Channasandra, Kanakanagara Main Road, Post, Horamavu, Bengaluru","13.038961","77.68158059999999","true"
"ChIJcWlhOpoQrjsRZwSguRz1yhg","IndianOil","Sy No 35/1, Hobli, Rampura, Bidarahalli","13.0522977","77.68299309999999","true"
"ChIJU4VTrDcRrjsR4lwPtwaAhl4","SUPERGAS AUTO LPG- S V AUTO LPG - Horamavu","Bangalore Division, No.117/ 54,Hobli-KR Puram Hormavu Main Road, Horamavu Bangalore South","13.0216445","77.6574206","true"
"ChIJpy16a7kXrjsR7xnzRxx_C84","Shell Fuel Station","New Airport Rd Krishnarajapura, Hobli, Bengaluru","13.044172","77.642855","true"
"ChIJscWC9TMXrjsRNi7uLthZn-Y","Hindustan Petroleum Corporation Limited","JK Fuel Station Hennur Main Rd, Byrathi, Bidarahalli, Uttarahalli Hobli, Bengaluru","13.056853","77.648387","true"
"ChIJsYiBN_kXrjsRTcHbqLlw1uU","Nayara Petrol Pump - Suryodaya Service Station","Hennur Bande, Hennur Gardens, Bengaluru","13.0384372","77.6416108","true"
"ChIJZRyC7lUXrjsRU6Lu88iLbAc","Patel Service Station Bharath Petroleum Corporation Limited","9/2, Hennur Bagalur Main Road, Kothanur, Bengaluru","13.059357","77.6489555","true"
"ChIJKdLRcAwXrjsR5TsxiXe0Z_w","Bharat Petroleum Corporation ltd","Site No 617/563, near Vijaya Bank, 9/1, Kothanur, Bengaluru","13.0592708","77.6485728","true"
"ChIJ2xFj_NYRrjsReDv8Migeso0","Hindustan Petroleum Corporation Limited","Survey No 136/1, KR Pura 1, Kalkere Main Road, Kalkere, Bengaluru","13.022062","77.678839","true"
"ChIJFRwx5R4RrjsRXwhkN4Cfr0E","Shell Petrol Pump","136, Kowdenahalli Main Road, Kalkere, Bengaluru","13.021402","77.678842","true"
"ChIJPbQ3bjsRrjsRn5lryN5TgW4","Gail gas CNG","2M89+H9Q, Hoysala Nagar, Horamavu, Bengaluru","13.0165276","77.66854169999999","true"
"ChIJl-1F2p8XrjsR0m-t-dlrhag","Hindustan Petroleum Corporation Limited","Site No 334 & 335, Byraveshwara Layout, Kempe Gowda Road, Hennur Gardens, Bengaluru","13.0396865","77.6385102","true"
"ChIJI_B-HgARrjsRjDEvdaVKELc","Indane Gas Godown","2MFM+RWH, Jinkethimmanahalli, Varanasi, Bengaluru","13.0247131","77.6846082",""
"ChIJtZYL7icRrjsR5cFCE15tTUo","Sri Sai Sirish Enterprises Dealer : BPCL","Survey No 15, near Ayurveda Hospital, 17 40/42, Thambu Chetty Palya Main Road, Hoysala Nagar, Bengaluru","13.0153369","77.666467","true"
"ChIJGR5j_kQRrjsRnZr4-_424XE","Bharat Petroleum Corporation ltd","No 2, Kalkere Main Road, Ramamurthy Nagar, Bengaluru","13.0182523","77.67796729999999","true"
"ChIJQweNpCkRrjsRWy0ayy9hHqo","Bharat Petroleum Corporation ltd","15, Site, near Ramamurthy Nagar, Plot No, Ramamurthi Nagar Main Road, Banaswadi, Bengaluru","13.0133004","77.6614335","true"
"ChIJKVfifdURrjsRFYWV24X8R5o","POLLUTION TEST OR EMISSION TEST &ALL VEHICLE INSURANCE DONE HERE....","INDIAN OIL BUNK, Thambu Chetty Palya Main Road, Bengaluru","13.0208038","77.6852904","true"
"ChIJ_fD_KIsRrjsRQ5qNusw__r0","IndianOil","Sy No 9, Thambu Chetty Palya Main Road, Kowdenahalli, Bengaluru","13.0207617","77.68531810000002","true"
"ChIJuV65XRgRrjsRx_XYSsM_FPY","Emission Testing Center","2M68+WJX, Ramamurthy Nagar, Banaswadi, Krishna Reddy Layout, Ramamurthy Nagar, Bengaluru","13.012361","77.6666169",""
"ChIJRxXpZlwRrjsRU8LWLx34y1I","IndianOil","Rammurthy Nagar, Banaswadi, Bengaluru","13.0123459","77.66661719999999","true"
"ChIJF0-7MDsZrjsR5SBfwG-gOXs","Bharat petroleum","28/2, 28/2, Kothanur Main Road, BDS Nagar, Narayanapura, Bengaluru","13.0648716","77.6458901",""
"ChIJ-yGPNScRrjsRcKTyhuA6kfc","GasPlus Auto LPG - TC Palya","Bhakthi Yoga Ashrama, Sri Sai Garden Layout, P and T Layout, SBI Bank Colony, Battarahalli, Bengaluru","13.0223345","77.6891404","true"