place_id,name,address,latitude,longitude,open_now
"ChIJAXVIbsMxujsRgx0wpui34Ik","Hindustan Petroleum Corporation Limited","Ground Floor, Devarabelakere","14.3998389","75.8351413","true"
"ChIJiQacspEvujsR-_80yPyL9-g","Bharat Petroleum Fuel Station. BASAVESWARA HIGHWAY STATION.","Davanagere-Harihar Bypass, Davanagere","14.4474149","75.8860941","true"
"ChIJa59KDmIlujsROVedhEsI50M","IndianOil","L No 210 Block A, 11th Cross, Road, Shamanur, Davanagere","14.446441","75.900429","true"
"ChIJe7y7UGIlujsRw_yJJfxyVMQ","Bharat Petroleum Fuel Station","CWX2+7R5, Shamanur Road, Siddaveerappa Layout, Davanagere","14.4481487","75.9021173","true"
"ChIJm42idYwtujsR_6KHh2ajGUw","Bharat Petroleum Fuel Station || Near Belludi || 12 Km from Harihar","CQ8H+4JX, Davanagere","14.4153702","75.77909679999999","true"
"ChIJh8Hw2bgtujsRDZYQupI8D-g","HP Petrol Pump","Shimoga - Harihar - Hospet Road, Byeladahalli","14.4391064","75.7810756","true"
"ChIJS1rh6yEvujsR0wQT3RX263Y","Hindustan Petroleum Corporation Limited","Ground Floor, near Bhadra Sugar Factory, PB Road, Doddabathi","14.482904","75.85898399999999","true"
"ChIJmS_xACsxujsRErseCMYPkuI","MRPL-HIQ Akash Fuel Station","Jarikatte","14.4111294","75.8650615","true"
"ChIJuTcVwoUxujsRe8PieEtij3M","Shri Renukamba Petroleum","9RXM+W83, Devarabelakere","14.3997607","75.8332922","true"
"ChIJYfdaOd2lyzsRdMTPdbMuBrw","IndianOil","Lock No 203, near CG Hospital, Shyabanur, Harihar, Miltakatte","14.4234944","75.8738399","true"
"ChIJS_Q8GwAvujsRWjXBgk1rLOo","Basaveswara Highway Station","FV5G+V37, Kunduwada","14.4596548","75.875181",""
"ChIJ-yMGyCgyujsRiWptW7nSJ78","Budihal Petrol Bunk","Budihal,Harihara Talluk,Davangere District,PIN CODE- 577530","14.3755946","75.801807",""
"ChIJS_HxC34wujsRvVyMe6alZIM","IndianOil","Lock No 221, Sy No 2/3, Battalkatte Road, Hadadi","14.3724643","75.8943802","true"
"ChIJge91ORs7ujsRo5sLmuepPr0","Hindustan Petroleum Corporation Limited","Ground Floor, near Javalagatta, Hadadi","14.384421","75.903651","true"
"ChIJHYSYg74xujsRKrE17E_76FA","Bharat Petroleum Petrol Pump , SREE VINAYAKA FILLING STATION","HADADI, SH-65DAVANGERE TALUQ, Davanagere","14.37138","75.89446","true"
"ChIJl7gWfFIlujsRDhkXRWJwrI0","IndianOil","Survey No, 24/3, Channagiri Rd, Vidyanagar, Shiramagondanahally Hosabadavne","14.4259669","75.9147536","true"
"ChIJpSkGuJUtujsRPGGe8uxGwp8","IndianOil","L No 316, Yakkegondi","14.4304626","75.7795135","true"
"ChIJJVlHo5MlujsRM-quWybqOFk","Indian Oil Petrol Pump","near Davangeere, Survey No49 Honnuru, near Davangeere, National Highway 48, Gollarahatti","14.4354367","75.9125923","true"
"ChIJTUoIHHYyujsRQTmi7VeZFgY","IndianOil","Lock No 249, Lakshattihalli Road, College Road, Chitradurga","14.4091001","75.776701","true"
"ChIJ9cSUs20vujsRbRaFR_Mgo1E","IndianOil","IOC DEALERS, DSS FUEL SOUK, near GMIT COLLEGE, 510, Davangere - Harihar Road, Davanagere","14.4753736","75.88045699999999","true"
"ChIJwyOHe0_YuzsRdOdKwMkrIv4","IndianOil","Survey No 50/4, Lock No 204, Shimoga Rd, Bellodi, Harihar","14.46392","75.79492859999999","true"
"ChIJHeJhpkAlujsRD6ESdJ5bk9g","BP Petrol Pump","Door No:599, Hadadi Road, Opposite Vani Rice Mill, Shivakumar Swamy Nagar, Davanagere","14.4388585","75.9233899","true"
"ChIJeY_kpUAlujsRqQry7RNUbOE","Hindustan Petroleum Corporation Limited","CMC 596/C, opposite Vani Rice Mill, Channagiri Road, Davanagere","14.440386","75.92309399999999","true"
"ChIJm9Wxhj8lujsRiRawDLBJsZk","IndianOil","L No, 207, Hadadi Road, Nituvalli, Davanagere","14.441534","75.92231100000001","true"
"ChIJKwnA4WolujsRAGa1kHw85mk","Bharat Petroleum - CNG Station - M M Krishna and Associates","KST 805026846768, Hadadi Road, Davanagere","14.4439414","75.92131429999999","true"
"ChIJWwVp0HslujsRGmGk22_NMLU","Hindustan Petroleum Corporation Limited","Door No 3714, near Laxmi Flour Mill, A5 & 6, Shamanur Road, Davanagere","14.456844","75.907901","true"
"ChIJiaL1LA8lujsRN-Th2espYC4","Bharat Petroleum Vishwas CNG fuels station","State Highway 76, Neelammana Thota, Bhagat Singh Nagar, Nittuvalli, Davanagere","14.4586383","75.9321915","true"
"ChIJia0JEHUlujsRfrPaSfFwG7I","Sri Jayadeva service station","Ambedkar Circle, Hadadi Road, Davanagere","14.461811","75.92089690000002","true"
"ChIJ8ZpwpqElujsRfSLiPfGuhxw","IndianOil","No 118, 1/P, L No 233, KR Road, Davanagere","14.4677713","75.92575330000001","true"
"ChIJGzX1GoQlujsR1TDyj_tHUNU","Hindustan Petroleum Corporation Limited","823, PB Road, Davanagere","14.469247","75.906885","true"
"ChIJpWX4f007ujsRPrZrBiU0kYY","Hindustan Petroleum Corporation Limited","Ground Floor NH 4, PB Road, Honnur, H Kalapanahally","14.419301","75.981027","true"
"ChIJI_rypLslujsRsKZctSI5jzM","IndianOil","Sy No 142/3B&3C, L No 193 Anaji, Davanagere, Road, Davanagere","14.479521","75.930801","true"
"ChIJKbL3pjMlujsRWAhxNZ8JHb4","Hindustan Petroleum Corporation Limited","Ground Floor, Lokikeri Road, Industrial Area, Sar Nagar, Davanagere","14.422076","75.931106","true"
"ChIJS_Onb5UlujsRNvaioQfbaVQ","SP Auto LPG Davanagere","DOOR NO- 596,SURVEY NO-37/3B NITUVALLI VILLAGE NITUVALLI, VILLAGE, Davanagere","14.441007","75.922857","true"
"ChIJkUXuIgAlujsRgfY_LL6JlnI","Maganur Basappa Petrol Bunk","CWRF+M34, Hadadi Road, Shivkumar Swamy Nagar 1st Stage, Shivakumara Swamy Nagara, Davanagere","14.4416399","75.9227133","true"
"ChIJGX0cHZElujsRtKgio30XPPA","Shree Durganjeneya fuel service -- bharat petroleum","Hi-tech hospital, Sai balaji enclave, road, Shakthi Nagar, Davanagere","14.4358027","75.9402989","true"
"ChIJjfMiMA0lujsRW3UY-Gt2c8Y","MARIYA SERVICE STATION","India","14.4547509","75.9237261",""
"ChIJIW0aAHMlujsR63V3xMNhtNU","IndianOil","L No, 222, Hadadi Road, Shivakumara Swamy Nagara, Davanagere","14.455495","75.919991","true"
"ChIJn9kugTMlujsRmzAKiUBMBOM","Food Meal","Sri Ranganatha Nilaya, DCM Township, Davanagere","14.454355","75.9343746",""
"ChIJR3l40vElujsR7qvO_5FBC48","HP Petrol Pump CNG PUMP","S O G Colony, Shri Ramanagara, Davanagere","14.4392556","75.9541649","true"
"ChIJhzH6HG0lujsRrcEEmoDgiRQ","Hindustan Petroleum Corporation Limited","Ground Floor, Avaragere, Davanagere","14.438972","75.954542","true"
"ChIJsaog1QglujsRDZ19sEHs_ls","Reliance Petroleum","Door No 376, opposite Gowshala, 31/32, PB Road, Avaragere, Davanagere","14.4506203","75.9424054","true"
"ChIJ0aG42qU7ujsRo8IHAKqXroQ","IndianOil","L No 220 85, Turchagatta","14.3677452","75.9265559","true"
"ChIJ9bYw7yklujsRi6LihBJGMVY","Hindustan Petroleum Corporation Limited","Ground Floor, Bada Cross, Voddinahalli","14.432032","75.96164499999999","true"
"ChIJVTQ64BU7ujsR9GPjtjlOGWE","IndianOil","near Kuvempu, Lock No 195 Tholahunse, Anagodu, Hobli, Basavanahal, near Kuvempu, Road, Bada","14.3969125","75.9637587","true"
"ChIJ56h4gwklujsRAJ7dk0zdr5g","Hindustan Petroleum Corporation Limited","opposite New Bus Stand, 247, PB Road, Davanagere","14.461701","75.9294401","true"
"ChIJ78ZeZQklujsRj6V2aCKwWzk","IndianOil","State Highway 76, near KSRTC BUS STAND, PB Road, KB Extension, Davanagere","14.4629139","75.9278253","true"
"ChIJp4C1PgAlujsR66ziqElz7BM","ಶ್ರೀ ಅಯ್ಯಪ್ಪ ಸ್ವಾಮಿ MRPL FUELS","FW7C+QP6, Halebathi","14.4644085","75.921758",""
"ChIJL7ng6nglujsRxhPiT9M8OHM","Hindustan Petroleum Corporation Limited","Survey No 52/4, Voddinahalli","14.429384","75.969146","true"
"ChIJL00bODklujsRiX2fGhu37NI","Bharat Petroleum, Petrol Pump -Sanketh Fuels","KR Road, Davanagere","14.4680043","75.9224741","true"
"ChIJx1jbS-UlujsRYXu6SyZvnh0","Hindustan Petroleum Corporation Limited","924, R.M.C, Door No 923, 1 & 2, Bamboo Bazar Road, Davanagere","14.467655","75.930754","true"
"ChIJqe7F46YlujsRWbBHmasg0ss","HP PETROL PUMP - SRI BALAJI PETROLEUMS","Door NO 923 1 and 2 ,924, R M C, FW9J442, HPC Dealers, Main Rd, Bamboo Bazar, Davanagere","14.4677415","75.9307422","true"
"ChIJXVswh6ElujsRXuHc1tOPjJQ","Sri Harihareshwara Service Station","FW9G+V6Q, opp LIC, PB Road, Harihar","14.4697","75.9256","true"
"ChIJk7FdmIYlujsRAGD63EbDRKs","IndianOil","L No 260, Block A, PB Road, Devaraja URS Layout, Davanagere","14.4702361","75.9050894","true"
"ChIJ69SNFoclujsRbWHXqlCU8Vg","Confidence petroleum India LTD.... GOGAS LPG BUNK","FWC3+375, Ellamma Nagar, Vinobha Nagar, Davanagere","14.4701315","75.9032464","true"
"ChIJD_hg6qIlujsRJIEC4NVjrMU","UJJHALA FUELS AND SERVICES. BPCL DEALER","1924/2A, TELEGI UJJAPPA LAYOUT, P.B.ROAD, Vinayaka Nagar, Davanagere","14.4707342","75.9001014","true"
"ChIJ717THksvujsRhycpoXZhkdc","SHELL Davanagere","Harihar Road, Davanagere","14.472296","75.893283","true"
"ChIJkYcFe2ElujsRn_z5SxvDkn0","Sanketh Fuels","opp. ASHOKA THEATER, 118/1A, KR Road, Davanagere","14.4760329","75.9254905","true"
"ChIJEV7StblbujsRf4CXg9KXPjo","Bharat Petroleum, Petrol Pump -Sri Shiva Service Station","Anekonda, Davanagere","14.4771225","75.92874139999999","true"
"ChIJSS1DfhA7ujsRm3NgEmVjukQ","IndianOil - SWAGAT","Sy No 49, National Highway 48, Honnur","14.4133669","75.9855745","true"
"ChIJ32dEro4lujsRPMLgw_bSEbo","Hindustan Petroleum Corporation Limited","Door No 1300/C, 38, Survey No 131, 1A/5, Kondajji Road, Devraj Extension, Davanagere","14.479467","75.906382","true"
"ChIJD2tbPFI7ujsRnlDY2FmR4Qc","Siddheshwar Petroleum","S. No. 19 P, Honnur Golarhatti, Tal. & Dist","14.413452","75.98587","true"
"ChIJxdMA8JMlujsRLRu-bgZkkkA","Sree Banashankari Service Station","Sree Banashankari Service Station, opposite to Samudaya Bavan, Shamanur Road, Shamanur, Davanagere","14.48137","75.916586",""
"ChIJkSZ2dwAlujsRG1z_qtuN98Q","SHRI MAILARALINGESHWARA FUELS","SM Krishna nagar, S J M Nagar, Apache Nagar, Davanagere","14.4819592","75.90756619999999","true"
"ChIJaUowUQAlujsR_cSeiWV5A2U","Shiva Shakti Fuel Station","759/4 & 759/5, Kondajji Road, Devaraj Urs Badavane, Davanagere","14.4819637","75.90201239999999",""
"ChIJ0SP0iYolujsRSU679ZR5yc0","Devanagari HP Gas Storage","FWM2+29W, Kondajji Road, Davanagere","14.4826103","75.9009402",""
"ChIJNxysaJMlujsRrfdLINgEWfc","IndianOil","Survey No 52/5 Ring Road, Doddabudihal Road, Davanagere","14.485026","75.91669499999999","true"
"ChIJmX9Olug8ujsRn0Z2q_fUs7c","Bharat Petroleum Basavashree Petroleum Centre","National Highway 4 On the left of NH4, Towards Bangalore, 2 kms before Anagodu village,, Davanagere","14.3976372","76.0289138","true"
"ChIJ68jk9xI9ujsRiCgDWQW28h0","Hindustan Petroleum Corporation Limited","S No 211/4, Anagodu","14.3966619","76.02869849999999","true"
"ChIJr4gtotc9ujsRJmRBR_fMW2E","SRI BASAVESHWARA PETROLEUMS HPCL BUNK","NH4, Anagodu","14.3954841","76.0343736","true"
"ChIJUY_jpwQ9ujsR_47QCsd9rPg","IndianOil","Survey No 234/6, Lock No 164, Holalkere Road, Basavanahal, Anagodu","14.390909","76.045116","true"
"ChIJxzXtD6w7ujsRPPGKBmZVa30","Hindustan Petroleum Corporation Limited","Ground Floor, Hiretogaleri","14.348532","75.980281","true"
"ChIJ0-tzEC8jujsRWgkMHzplERg","Sri Marulasiddeshwara Fuel Station","Sy.No:8/5, H.Giriyapura, Boragondanahalli cross, Anagodu Hobli","14.4778873","76.0128773","true"
"ChIJoeXi_f8rujsRIRj4yW9qpMA","IndianOil","Lock No 213, Harihara Fort, opposite LIC Office, Vidyanagara, Harihar","14.5028392","75.8065694","true"
"ChIJpevziWMpujsRGEJE0J0fiQk","Hindustan Petroleum Corporation Limited","Ground Floor, Harapanahalli Road, Harlapur, Davanagere","14.532867","75.812587","true"
"ChIJjX-o2tovujsRXVUr_cEerkk","Mahadevi Fuels | Bharat Petroleums |CNG available| Mahajenahalli","FRH7+GGC, Mahajenahalli","14.4788096","75.81377239999999","true"
"ChIJm59qyVEpujsRQoO3I4ysixY","IndianOil","No 183, Fort, Harihar","14.511057","75.817318","true"
"ChIJMbu0LBEpujsRge0DdJ-VsJQ","IndianOil","Lock No 199, PB Road, Harihar","14.5119539","75.8156657","true"
"ChIJqb5kcI4tujsR5U0s5CBFkxs","IndianOil","Sy No 68/6, Mahajenahalli","14.4842268","75.80352239999999",""
"ChIJQ_u-JT0tujsR_d6qN8yqTlk","L.P.G Go Gas || Vidya Nagar || Harihar","balaji oil mill a-block, Renuaka Nilaya, 25, State Highway, Opp:, Vidyanagara, Harihar","14.5000926","75.80713949999999","true"
"ChIJQxdeyx0sujsRo-6-ND7bd1s","Hindustan Petroleum Corporation Limited","Sy No 69, 9 SH 25, Harihar","14.486322","75.802989","true"
"ChIJYypsxfwtujsRSBZHpGzpado","Bharat Petroleum Petrol Pump , IRANI SALES & SERVICES","State Highway 25, Harihar","14.476102","75.802315","true"
"ChIJ6QOZMVcpujsRmOaNMXAuxxE","Reliance Petroleum","S No 8/5, opposite SJVP College, Old, PB Road, Harihar, Davanagere","14.5120833","75.81244439999999","true"
"ChIJdZfRK_4rujsRMPwNhLJz1EQ","Hindustan Petroleum Corporation Limited","Ground Floor, beside Irrigation Department Office, Shimoga Road, Harihar, Davanagere","14.505508","75.806743","true"
"ChIJdWSGSf8pujsRGMXWkeNvrs8","GREEN AUTO GAS Propel Auto LPG","GR76+F62, Harihar","14.5136495","75.8105202",""
"ChIJvbbW35tRuzsRGwy7AtIiqF0","IndianOil","Survey No 109, Harihar Kondajji Road, Kakkaragolla","14.5275755","75.8715023","true"
"ChIJAaCjh2QpujsREXgde1S3I3U","Bharat Petroleum","India","14.5341548","75.8132988",""
"ChIJ_dNu_XopujsRXErCl3TLygQ","IndianOil","Sy No 124/L, No 189, Fort, Harihar","14.5392601","75.81570099999999","true"
"ChIJpVpPPtUlujsR3eDlsYJLOb8","Hindustan Petroleum Corporation Limited","Gr Floor, SH 150, Davanagere - Harapanahalli Road, B.Kalapanahalli","14.498544","75.92666299999999","true"
"ChIJc3SgSUokujsR1iA5sgRmK00","IndianOil","State Highway 65","14.4860259","75.9505428","true"
"ChIJ1VeVOVknujsRKBVkuK-f0sU","Hindustan Petroleum Corporation Limited","Ground Floor, Malagondanahalli","14.535132","75.930949","true"
"ChIJ6yHAQ-wnujsRFtp1ukadvNg","IndianOil","No 69, L No 231, Maragondana, Avaragolla","14.5480205","75.9350924","true"
"ChIJkctiDGAjujsR6qJqDo8DJgg","Shree Krishna Filing Station","Nagendranaik Alurhatti, Sriramanagara","14.480115","76.0193821",""
"ChIJKwAlbsUmujsRB-nO5jnC8j0","IndianOil","Lock No 223, Survey No, 361/A1, Hapanahalli, Hiremegalagere","14.5448464","75.97999279999999","true"
"ChIJfyNzyb8rujsR8WLGLvb7Z4s","IndianOil","Ground Floor, Kumarapatnam, Harihar","14.5247264","75.7811722","true"
"ChIJg5M9t7opujsRhTK2g3ky2V8","Shri Laxmi Venkateshwara Fuels || Bharath Petroleum || Harihar","SY. NO. 63/7 DEETURU VILLAGE,a DEETURU CROSS, TALUK, Harihar","14.567257","75.8296514","false"
"ChIJ241zTiYpujsRYoUal2dwt8A","IndianOil","Survey No 25/5, Karalahalli Harihar Harapanahalli Rd, Fort, Harihara","14.581146","75.837029","true"
"ChIJHwuA-FApujsR56jN8puA3Mg","IndianOil","Sy No 40/2, Kurubarahalli, Harapanahalli","14.5960846","75.8438147","true"
"ChIJ4Y1I2FyHuTsRCnSY89snKX0","A R M FUELS","Sy no 40/2, kurubarahalli Harapanahalli road, harihar","14.596164","75.84408169999999","true"
"ChIJg4AIGuCHuTsRc9ZvCtdJgsw","IndianOil","Survey No 46/1, Hotteganahalli, Harihara Fort, Harihar","14.606051","75.848169","true"
"ChIJjbXFZtwnujsRZigd5NHx0Zo","HP","India","14.5723296","75.9081605",""
"ChIJ8ZTXJlUnujsRb82Je8jZFNI","Hindustan Petroleum Corporation Limited","Ground Floor, Harihar, Kondajji","14.572415","75.90824099999999","true"
"ChIJafQ7u-uHuTsRsQFEIAAMAn0","Sri Mohanlal Fuel Station","Duggavathi","14.617782","75.85526879999999",""
"ChIJecN12k6HuTsROLBX6lvjdPE","Hindustan Petroleum Corporation Limited","S No 61EF, Harapanahalli, Duggavathi","14.6180741","75.8558588","true"
"ChIJv76GFZ6HuTsR9a0dcSLU2So","Bharat Petroleum, Petrol Pump -Sri Revanasiddeshwara Petroleums","Duggavathi","14.6198866","75.8570695","true"
"ChIJ8Xdh0_QrujsRM4Crgk5SThA","Bharat Petroleum, Petrol Pump & CNG filling -Parimala Enterprises","Ranibennuru, Harihar","14.5262635","75.7792939","true"
"ChIJVVVVFe-JuTsREO8DNtYwv9U","IndianOil","Davanagere - Harapanahalli Road, Kanchikere","14.6111409","75.9743237","true"
"ChIJLWJc60wgujsRYNx_ltZw4EI","IndianOil","No 224 BCD/A, L No 226 Uchangidurga, Harpanahalli, Satturu","14.564894","76.055071","true"