place_id,name,address,latitude,longitude,open_now
"ChIJYSI0IQC_yDsR5DGP72iGOUI","BHARAT PETROLEUM CORPORATION. LTD","8Q35+XP2, Sindagi - Kalaburagi Road, Sirasgi","17.3048899","76.75926179999999","true"
"ChIJETYeTgC_yDsRh5fMLZpdYVE","Bharat Petrol Pump - SHREE VIJAYALAXMI PETROLEUMS","8Q35+XP, Hadgilharuti","17.30491199999999","76.75926199999999","true"
"ChIJ6Tn00iS9yDsRihuyG2jTT34","Hindustan Petroleum Corporation Limited","Ground Floor, NH 150E, Hadagil Haruthi, Halbarga, Sindagi","17.2969554","76.73244810000001","true"
"ChIJsflxQQC_yDsRSMWCzP9kH-8","MRPL NEW PUMP","7R35+5R, Sirnoor","17.2529375","76.8095625","true"
"ChIJN1URys-VyDsRJTzIZW-TnMc","Hindustan Petroleum Corporation Limited","Ground Floor, NH 50, Sirnoor","17.2289011","76.799853","true"
"ChIJK_H4CzW_yDsRQvkuPKS6cWA","BPCL Singade Petroleums","near radio station, Nandikur village, Nandikur jewargi road, near radio station, Kalaburagi","17.2764737","76.82115499999999","true"
"ChIJAwgzUEu_yDsRYZtlxFCQV-Y","IndianOil","Sy No 17, P No, Ram Mandir High Court, 910112021 & 22, Ring Road, Udnoor","17.3055596","76.8037247","true"
"ChIJB0p7HC6_yDsRG3qb6m1rFHw","IndianOil","Ground Floor Sirasagi, Afzalpur Road, GB Bahamanipura, Kalaburagi","17.3151883","76.7907859","true"
"ChIJM0BRu2S_yDsRlUTLR-M52Fs","IndianOil","Survey No 9/5, NH 218 Kotnoor, New Jewargi Road, Gb Jagath, Kalaburagi","17.2907493","76.819274","true"
"ChIJy8C1Wma_yDsR-KcBFD9hWVs","IndianOil","Ground Floor, Kotnoor, Kalaburagi","17.296892","76.81652100000001","true"
"ChIJKxJjDHy_yDsRvrwd7xZrX9c","Nayara Petrol Pump (Shree Siddabasaveshwar Petroleum)","beside Gulbarga High Court, Biddapur Colony, beside Gulbarga High Court, Afzalpur Road, Entrance, Kalaburagi","17.3168872","76.79521799999999","true"
"ChIJQ-XHLKO_yDsRWjNSoz94HB4","Hindustan Petroleum Corporation Limited","Sy No 22, Biddapur Colony, Kalaburagi","17.3162625","76.7999312","true"
"ChIJ9z4sYKt5xjsR8hTV4H8YVBk","Reliance Petroleum - Solapur F &F","Survey No 48, NH 13, Basavnagar, Solapur","17.3167642","76.79965299999999","true"
"ChIJKf1UELq_yDsRTKztCIu5UC0","M/s Mankar Fuels - BPCL RO","near Ram Mandir, New Jewargi Road (Over Bridge, near Ram Mandir, Karuneshwar Nagar, Kalaburagi","17.3033595","76.8164281","true"
"ChIJ04vwZlu_yDsR3T5df_lvRbE","Hindustan Petroleum Corporation Limited","Ground Floor, New Jewargi Road, Kalaburagi","17.305888","76.81657899999999","true"
"ChIJs-nuqEKVyDsRMai11YTQrfw","Bharat Petroleum, Petrol Pump -Asmitha Petroleum","FARTABAD, NH-218, GULBARGA, GULBERGA","17.198992","76.7964196","true"
"ChIJDy0Zu7W5yDsR7jyKDyNJo-8","Reliance Petroleum","RELIANCE PETRO MARKETING PVT. LTD.,RETAIL OUTLET OLD NO. 126/1E,126/1EE,SH-19,VILLAGESY.NO.126/3A:2A,KAPANOOR VILLAGE TAL. & DIST. GULBARGA Gulbarga Town","17.3349717","76.76823639999999","true"
"ChIJ6c-l0VC_yDsRvnRdHTOAdDw","IndianOil","Ground Floor, Old Jewargi Road, Kalaburagi","17.3144378","76.81996079999999","true"
"ChIJW8la7rXAyDsRfmiKBnAXVzQ","IndianOil","Shahbad Road, Rajapur, Kalaburagi","17.3208932","76.8484831","true"
"ChIJS5If7FXHyDsRDy6zSNAg02Y","Hindustan Petroleum Corporation Limited","Ground Floor, near Jajee Complex, College Road, Sangameshwar Nagar, Kalaburagi","17.329211","76.826961","true"
"ChIJR_s_TdTAyDsR1xtyGsvUr-Y","Hindustan Petroleum Corporation Limited","Ground Floor, Sedam Road, Kalaburagi","17.323531","76.86912099999999","true"
"ChIJtRD_GbS4yDsRu-QViz08UVc","Hindustan Petroleum Corporation Limited","Ground Floor Ring Road, Hirapur Road, Kalaburagi","17.32812299999999","76.80763800000001","true"
"ChIJ7YbqGVfHyDsRwfgUGMKtkwA","IndianOil","Halbarga, Brhampur, Kalaburagi","17.334133","76.829849","true"
"ChIJhdK2_U7HyDsR12hlJG1h6YA","IndianOil","STBT Cross, Dargah Road, Kalaburagi","17.3340956","76.84082389999999","true"
"ChIJpwq3ovXByDsRsj0-suK0PsA","JAMSHETTY PETROLEUM Pump","Kotnoor, Kalaburagi","17.2996069","76.8351864","true"
"ChIJ64HyYvbByDsRDikAM2eLpn0","Hindustan Petroleum Corporation Limited","Survey No 37, 4 & 37/5, Naganalli, Kalaburagi","17.2998189","76.8361437","true"
"ChIJZzA9cjPByDsRGF3AWC1d9vU","Hindustan Petroleum Corporation Limited","No 136/A2, Shahbad Road, Kusnoor, Kalaburagi","17.2820081","76.8710392","true"
"ChIJyTZLGgjByDsRaNIIfsw_oJ0","Hindustan Petroleum Corporation Limited","Plot No 199/P1 & P2 Nandur, Indl Area, Kesaratagi","17.2718056","76.8781589","true"
"ChIJY2xcTMbAyDsR8zuUjoN6z38","IndianOil","Ground Floor, Rajapur, Kalaburagi","17.312774","76.85191560000001","true"
"ChIJN1eqd8jAyDsREnQajodfOZQ","Hindustan Petroleum Corporation Limited","Survey No 19/1, Shahbad Road, Rajapur, Kalaburagi","17.3149003","76.8508664","true"
"ChIJvTGsWh6_yDsRm5BkkDeTppI","IndianOil","Sy No 64/2, Old Depot Land, Old Jewargi Road, Kalaburagi","17.3162837","76.82068389999999","true"
"ChIJtVKM6CzByDsRfFyQ5Avnqxg","RV PETROL PUMP","8V82+27W, Shahbad Road, Rajapur, Kalaburagi","17.3151213","76.850701",""
"ChIJc_To2b2_yDsRIUo8xeLE1OE","IndianOil","New Jewargi Road, NGO's Colony, Kalaburagi","17.315143","76.815801","true"
"ChIJZRSf5KnAyDsRK2cAKfeD_tw","NEW SANI ENGINEERING STORE","New Janiya Masjeed Complex, Railway Station Bazar Main Road","17.3178599","76.8263326","true"
"ChIJRwYSZ6vAyDsRmV12BUCfNio","Asian Emission Testing Centre","Yateem Khana Complex, Station Road, Kalaburagi","17.3232312","76.8312436","true"
"ChIJJ38oWqvAyDsR_F-9LtoiPoo","IndianOil","Ground Floor, Station Road, Kalaburagi","17.323839","76.831253","true"
"ChIJBxKz8Gi_yDsRAJQ_OEzfMvQ","Bharat Petroleum, Petrol Pump -Bhimalli Petroleum","COURT ROAD, GULBARGA,GULBA, Kalaburagi","17.3237195","76.82793339999999","true"
"ChIJkxmG6Wq_yDsRTZp9kxAMNHU","IndianOil","NEKRTC Depot, Lal Bahadur, Shastri Nagar, Kalaburagi","17.3232594","76.8207122","true"
"ChIJAUAKqqy4yDsR1-Tqw1dpNAs","IndianOil","Ground Floor, Jewargi Cross","17.323765","76.819581","true"
"ChIJwatZZwDHyDsRF6_SEQ2qr6c","Lahoti Petrol Pump Gulbarga","25846 Lahoti, Kalaburagi","17.3252446","76.83244549999999",""
"ChIJZZMbTlPHyDsRVCwx9FkC0Zk","Hindustan Petroleum Corporation Limited","Ground Floor Station Road, Aiwan-E-Shahi Road, Kalaburagi","17.325301","76.832481","true"
"ChIJN9AqqK24yDsR082_it4GSXA","ESSAY PETROLEUM","India","17.3266892","76.8167922",""
"ChIJK55dcKy4yDsRO-mfJzgycgo","ಸ್ನೇಹಾ ಲೇಡೀಸ್ ಟೈಲರ್","India","17.3277373","76.8196232",""
"ChIJA4eVBRXHyDsR4bw5bKm2Qgo","Sri Siddharoodh Filling Station","Kalaburagi Division, Shop No 07, Siddharoodh Complex, Near Government School Aurad Road, Janwada, Bidar","17.3296403","76.83434539999999","true"
"ChIJY9Eis8zAyDsRCf_1qSKy7mQ","Bilgundi Petrol pump & CNG","Sedam Road, Rajapur, Kalaburagi","17.3263289","76.8550243","true"
"ChIJv6e5QwDHyDsRQGySFQB8S_k","Avinash HP pump","8RHM+VPV, Kalaburagi","17.329731","76.8342957",""
"ChIJadK5YfjHyDsRJUP53chJ6rI","Manjula petrloums","shanti niliya, Plot no 52 and 55, yalling nagar, Kalaburagi","17.329731","76.8342957",""
"ChIJtTgEawDHyDsRZcV2kCC2WZI","Sharan Petrolium","8RHM+VPV, Kalaburagi","17.329731","76.8342957",""
"ChIJHWZnSy_HyDsRqEItG5NSXBY","IndianOil","Ground Floor, Govt General Hospital, Cross, Sedam","17.3285336","76.8478344","true"
"ChIJIacpGaTHyDsRHq5Ihm8X5Yw","IndianOil","Ground Floor, Sedam Road, Kalaburagi","17.326494","76.856628","true"
"ChIJ2VczPQDHyDsRLFOBQhoQ6mQ","Modi Energies","Modi Cross Road, Sedam Road, Kalaburagi","17.3304314","76.8365314","true"
"ChIJ7wjn_oDHyDsRjZGIWsCSsws","Hindustan Petroleum Corporation Limited","Ground Floor, Sedam Road, Kalaburagi","17.330477","76.836607","true"
"ChIJwd2Y7JrHyDsR36swP0Kj-GQ","VINAYAK PETROLIUMS","Shop No 07, Vinayak Complex, near Water Tank, Janwada Road, Nawadgeri, Bidar","17.3330371","76.8328767",""
"ChIJ14N7AjTHyDsR3pSbWQ9u3Dg","Guru Prasad Oil Ghana","India","17.3320865","76.8542824",""
"ChIJG1yvTADHyDsRtyQ6YYZ1fyM","USK Auto LPG Gas Pump","10/21, Chakkar Katta, Maktampura, Kalaburagi","17.334572","76.8421669",""
"ChIJGd18IU_HyDsRxDYbNDemn9U","Go Gas","8RMR+VW7, STBT, Darga Road, Kalaburagi","17.3346571","76.84229859999999",""
"ChIJCQzeSUbByDsR8f_d2DgUA4s","IndianOil","Sedam Road, Kalaburagi","17.3161526","76.89853480000001","true"
"ChIJqY6oibrDyDsR05Wq1wPTX_g","Hindustan Petroleum Corporation Limited","Ground Floor, SH 10, Srinivas Saradgi","17.3104439","76.9242569","true"
"ChIJDe-jDQDDyDsRFW1d4fg5CEA","Shree Shiva Ganesh Fuels","8W5G+PR, Srinivas Saradgi","17.3093125","76.92706249999999","true"
"ChIJ33sPLgDByDsR8RlZzupfMQI","Hindustan Petroleum Corporation Limited","Ground Floor, Sedam Road, Kalagnoor, Kalaburagi","17.315689","76.90156499999999","true"
"ChIJAzcKyCbDyDsRpa5X36Tp4Vo","Balamani Petroleum BPCL Dealer","State Highway 10, Sannur","17.3071893","76.93905079999999",""
"ChIJryEW74TDyDsRx3vBxKipHBU","Hindustan Petroleum Corporation Limited","Sy No 574, SH 10, Srinivas Saradgi","17.3070389","76.9408706","true"
"ChIJaVn2i7m4yDsRXRXqwGtAlzw","IndianOil","Survey No 3, 3, Ring Road, Hirapur, Kalaburagi","17.3365204","76.808331","true"
"ChIJBVQ2qJu4yDsRTto0rNst-UY","IndianOil","Ground Floor, Aalanda Check Post, Aland Road, Vijay Nagar Colony, Kalaburagi","17.3555794","76.817584","true"
"ChIJ-UDATKK5yDsRINWudTpnKpw","Hindustan Petroleum Corporation Limited","Ground Floor, SH 10, Keribhosga","17.3799759","76.775221","true"
"ChIJfcfMSU65yDsR-8QB8yx2-FM","Balaji Pump","Serve No 10, Near, Alanda Road, Keribhosga","17.3799233","76.77592969999999",""
"ChIJDWjFoxS5yDsRb-UI2Er9KYU","Bennur Petroleum","9R92+GVC","17.3688075","76.80214169999999","true"
"ChIJARVEpQ-5yDsR4AF1PDN6bDs","Bharat Petroleum Petrol Pump , MAHAN MIRACALE WORLD PETROLEUM","SY NO 67/2BHOSGA CROSS, Aland Road, Halbarga","17.382317","76.784981","true"
"ChIJkYOFAo-4yDsRblugEWl4r40","IndianOil","Ground Floor, Aland Road, Kalaburagi","17.361845","76.81149300000001","true"
"ChIJ0WqbLrUHdTkRvQsKF_iZzFg","IndianOil","Survey No 226/4, Aland sholapur highway, Alund Bazar, Kalaburagi","17.3538358","76.8188563","true"
"ChIJccK-qP65yDsR6LBUZzZDpHk","S.N Brothers Fuels","9PPQ+22, Savalgi B","17.38503159999999","76.7375433","true"
"ChIJ0VZf7X65yDsRgwCui6qt4ng","Bharat Petroleum, Petrol Pump -Ma Jabbar And Sons","ALAND RD, GULBARGA, GULBAR, GULBERGA","17.3493191","76.8217533","true"
"ChIJ90k-CKy5yDsRQqobhqnErl8","Bharat Petroleum, Petrol Pump -M.R.Tappewale Petroleum","GULBARGA, GULBARGA TOWN,GU, Kalaburagi","17.3459142","76.826594","true"
"ChIJR0NdlCG6yDsRt8WqgvVsTx4","IndianOil","Survey No 90, 2/4, Aland Road, Dannur, Pattan","17.3857894","76.7290495","true"
"ChIJswwSCYK4yDsRWz39sJ5K9u4","IndianOil","Survey No 19P & 20P, Shaik Roza, Ring Road, Kalaburagi","17.363891","76.825554","true"
"ChIJTbEGP1zHyDsRzo5wKKIp6Ms","ESSAY PETROLEUM","India","17.3439432","76.83301829999999",""
"ChIJA_zyzmjHyDsRcYF1CSkrK5M","Hindustan Petroleum Corporation Limited","Survey No 178/2, Ring Road Syed Chincholi, Cross, Taj Sultanpur","17.3645959","76.8268338","true"
"ChIJNexHY1vHyDsRZ0mPeqmawOo","go gas","India","17.3421775","76.83538650000001",""
"ChIJBZ9uNh_HyDsRG0nWCCOWVVA","Venkat sai filling station","near Hotel Balaji, Taj Sultanpur Ring Road, Kalaburagi","17.3631861","76.8316292","true"
"ChIJe4EtKRLHyDsRts7INqcKR5M","Hindustan Petroleum Corporation Limited","2 Gunj, Plot No 8/1305/109, Ring Road, Kalaburagi","17.3591601","76.8541201","true"
"ChIJ6Qi-dGnHyDsRZwdqahS8WmQ","IndianOil","Ground Floor, Nehru Gunj, Kalaburagi","17.352039","76.841911","true"
"ChIJcalxm3LHyDsRzKhzts_TwJ0","Jio-bp","Sy No 126, Old No 126/1E, opposite Government Milk Dairy, 3A/2A Sh 19, Kapnoor, Kalaburagi","17.3610278","76.8470833","true"
"ChIJ5-hGwn7HyDsRtWDHnSJSvDQ","IndianOil","S No 25, Nizampur","17.367421","76.830331","true"
"ChIJBX2OIkbHyDsR1SZqvqhlXQA","IndianOil","Ground Floor, Santraswadi, Kalaburagi","17.337807","76.844849","true"
"ChIJo5rhA2jHyDsRIckVHNsPPbg","ಪ್ರಸನ್ನ ಶುದ್ಧ ಕೊಬ್ಬರಿ ಎಣ್ಣೆ","8RXQ+F4Q, 3rd Cross Road, Gunj Colony, Kalaburagi","17.3487038","76.8378686",""
"ChIJ6Q4kgkLHyDsRAWMog-5ThR0","Hindustan Petroleum Corporation Limited","Ground Floor, Nehru Gunj, Kalaburagi","17.3484501","76.8399201","true"
"ChIJC1gA3EHHyDsRVeWzBYsOW9g","AYYAN OIL CENTER","India","17.3485177","76.84506019999999",""
"ChIJk_j2pujHyDsRr1EMLZc0SQ4","Bharat Petroleum Petrol Pump , INAMDAR PETROLEUM","H. NO.- 5-35 & 5-36, B, DARGA MAIN ROAD, Halbarga, Arosa","17.345672","76.848636","true"
"ChIJPaLXlN7HyDsRpa20_Mcdvhw","IndianOil","Ground Floor, Road, Nehru Gunj, Kalaburagi","17.354921","76.84451299999999","true"
"ChIJ9wy4CG3HyDsR1C2MEwkAC-k","Hindustan Petroleum Corporation Limited","near KMF, Lahoti Garden Humnabad Road, near KMF, Gunj Road, Kalaburagi","17.3584901","76.8464601","true"
"ChIJU8GHljnHyDsRRocoCm8_Xas","Automobile","Humnabad Rd, Outer, Ring Road, Humnabad, Shivaji Nagar, Kalaburagi","17.3602912","76.8472044",""
"ChIJDdBmir7GyDsRemFrHXV7wGA","IndianOil","Survey No 195 & 195/5A, Khaja Kotnoor Rd, Ptc Naganahalli, Hagarga","17.3497","76.8999","true"
"ChIJRzNSnxjHyDsR71dKze9avkE","SHAZ MANZIL","India","17.3505505","76.8648553",""
"ChIJnwuIZB_HyDsRMAaNzQb_w78","IndianOil","Sy No121, 14, Kapnoor, Kalaburagi","17.3629414","76.8504584","true"
"ChIJqU127dfHyDsR6VZetzMHbjU","Bharat Petroleum Petrol Pump , TENGLI PETROLEUM","SY.NO.119/4, NEAR HUMNBAD RING ROADCIRCLE, VILLAGE, Kapnoor, Kalaburagi","17.363633","76.84983199999999","true"
"ChIJWbn_bQvHyDsRJE1Dw7jaiBQ","TotalEnergies","India","17.3677782","76.8511879",""
"ChIJ8_Q7rQvHyDsRKwRAJbkV4q0","Hindustan Petroleum Corporation Limited","Ground Floor, NH 50, Bidar Road, Kapnoor, Kalaburagi","17.3696101","76.8524901","true"
"ChIJUViwbHPHyDsRhRHdmW1Moz8","Sunco","India","17.365006","76.8471751",""
"ChIJq79vaIHHyDsR83vbwYY41LQ","IndianOil","Ground Floor Kapnoor, Humnabad Road, Naganahalli","17.3900066","76.8648628","true"
"ChIJlYMyA3K6yDsRJc2ePpsxzD8","Hindustan Petroleum Corporation Limited","Ground Floor, Aland Road, Pattan","17.3981067","76.7049901","true"
"ChIJH1vlyTTGyDsRSiEZoL0WgUQ","IndianOil","Ground Floor, Humnabad Road, Uplaon","17.4016608","76.87186609999999","true"
"ChIJNwktOXnHyDsR1BLw-dTWWXQ","Gogas Auto LPG Station","Hanuman Nagar, Yamlimunuligaon, Kalaburagi","17.3672002","76.832825","true"
"ChIJx5nxFgDHyDsRUjiLMxSSUtg","Venkata Sai Filling Station (Aegis Autogas)","Shop No 25 Balaji Complex Sultanpur, Ring Road, Taj Nagar, Taj Nagar Colony, Kalaburagi","17.3671829","76.8304818",""
"ChIJLXL3yTTGyDsR1Sks-ejEhnQ","M/s.Mahantappa Biradar Petroleums","National Highway 218, Uplaon","17.4013789","76.87246979999999",""
"ChIJtbZdnKXHyDsRuABKqV1kYpY","R.P.PETROLEUMS","Sy.No-156/1, road connecting to Tawergera to Gulbarga Humnabad road junction.o Tawergera, Cross, Kalaburagi","17.4145095","76.88217329999999","true"
"ChIJiwwuLlrJyDsRCQmQT7gflhc","Hindustan Petroleum Corporation Limited","Ground Floor, NH 50, Uplaon","17.4219878","76.8851636","true"
"ChIJ-ygltg_JyDsRzoivxoVZmz4","Nayara Petrol Pump (Manjula Petroleum’s)","SY NO, 109/12, Humnabad Road, Aurad B Village, Awrad (B, Kalaburagi","17.4395678","76.8955907","true"
"ChIJG__pSXfJyDsRGhSL_6wiSXQ","JIO BP (Sajjan Petroleums)","FW43+QR, Awrad (B)","17.4572738","76.9046777","true"