place_id,name,address,latitude,longitude,open_now
"ChIJ4frMSwBduTsRUpZK5HZBAcU","Veerabhadreshwara Petroleum","P72X+3R, Guddad Mattihalli","14.70018750000001","75.2995625","true"
"ChIJnX60sANnuTsRNGoBepOOu40","Kaginale petroleum's","near kanak das bhavan, Kaginelli","14.692045","75.3639281","true"
"ChIJkePFdXRnuTsRJ6pfFq4KFy8","Hindustan Petroleum Corporation Limited","Ground Floor, Haveri Kaginele Road, Byadagi","14.692009","75.363985","true"
"ChIJYdyDQ1dDuTsR4m2UMvmbmqc","Bharat Petrol station","Q8C8+MR4, Haveri","14.7716299","75.31708630000001",""
"ChIJJ67ydEVpuTsRQ64oQWWvTkQ","IndianOil","Survey No 20, 2B/2, Kulenur","14.7723935","75.31708019999999","true"
"ChIJHxsLnORDuTsRYCf5hS69SeU","Bharat Petroleum Petrol Pump , S D ATAWALAGI","SURVEY NO-19/1, PLOT NO-3,SH-2","14.7765317","75.3023046","true"
"ChIJX_o-8IxfuTsRzDnMVII77lY","Hindustan Petroleum Corporation Limited","No 518, Byadgi - Tilavalli Road, Chikkabasur","14.648951","75.305581","true"
"ChIJ2-iLP3leuTsRAEyHsTtfY9k","IndianOil","Survey No 197, 1K, Byadgi - Tilavalli Road, Chikkabasur","14.6483016","75.30174939999999","true"
"ChIJESPkte1ouTsRQX8Mkw6Nv8M","Veerabhadreshwar Petroleum Services","Sy111/1, NH-4, By-Pass, Haveri","14.7767673","75.3978932","true"
"ChIJQ3E3xpZnuTsRw3j99ufN1Ic","Hindustan Petroleum Corporation Limited","Ground Floor, Ingalagondi","14.666727","75.374442","true"
"ChIJP-U5RwBnuTsRPHzlF8CCO28","SHRI VIGNESHWARA PETROLEUMS , IOCL PUMP","M96G+W4H, State Highway 62, Ingalagondi","14.6621609","75.3759748",""
"ChIJufiuIFBouTsR6DZgavjkFbE","Nimba city Petroleum","Q9MG+HGX, State Highway 2","14.7839927","75.3763499","true"
"ChIJvYhHZ6ZluTsRjujGh9krAXk","Hindustan Petroleum Corporation Limited","Ground Floor, NH 4, Motebennur","14.725001","75.473091","true"
"ChIJfay2EgBluTsRLXMqUD1QOfo","Nayara Petrol Bunk C R Ballary Petroleum","Motebennur","14.7086371","75.48419919999999","true"
"ChIJFX3Vcp1luTsR5Vc_WFsRyXw","Hindustan Petroleum Corporation Limited","Ground Floor, Kammanahalli Cross, NH 48, Byadgi","14.747423","75.45306400000001","true"
"ChIJAdGa1kVluTsRsKBr0xxnVbQ","Barki Petroleum","road, Mallur","14.6831414","75.47682379999999","true"
"ChIJu-VYZpEF0TsRaOwfMl6Gh08","IndianOil","Byadgi, Survey No 328/1A, Motebennur","14.71774799999999","75.49324","true"
"ChIJO448d2JkuTsR_za99yiaF00","NAYARA Petrol Bunk Sri Parvathi Petroleums","India","14.6790172","75.4807866",""
"ChIJzfXgcwJluTsRqBNSpgXv5Qg","Bharat Petroleum, Petrol Pump -Netravathi Service Station","Byadagi","14.687593","75.4904043","true"
"ChIJ7xgo0vJkuTsRybCqecpNTsY","Nethravathi Service Station","MFJP+HQ6, Station Road, Byadagi","14.6814129","75.4869033",""
"ChIJF_wSKo5kuTsR4Xk5RfgpiQg","Hindustan Petroleum Corporation Limited","Ground Floor, Rd, Nehru Nagar, Byadagi","14.683194","75.49188099999999","true"
"ChIJ7X84DTVluTsRWHky4Dlgryc","Food Oil Shop","Bus Stop, Byadagi","14.6766917","75.4861851",""
"ChIJkW2KFwBluTsR0wHc8SJa47E","Kakol","MFHV+FFX, Kakol Road, Nehru Nagar, Byadagi","14.6787361","75.493748",""
"ChIJ0dYDVJBkuTsReQw1Y4gxqcg","Indian Oil","MFHW+G43, Kakol Road, Byadagi","14.6787604","75.4953",""
"ChIJxSHgUJBkuTsRE57mmBWXOsk","IndianOil","Ground Floor, opposite Pwd IB, Kakol Road, Alalageri, Byadagi","14.6794145","75.4965021","true"
"ChIJ78snnoBjuTsRHD3_DQjHJGw","Nayara Petroleum: MALLAPPANAVAR PETROLEUMS","Survey 65/4K, Byadgi Taluka, Agasanhalli","14.664278","75.4780095","true"
"ChIJgR6cFA9luTsRpqSDaYSBCGI","Nayara Fuel Station SRB PETROLEUMS MOTEBENNUR","Mumbai Highway, Motebennur","14.7066388","75.5150768","true"
"ChIJecxVfQBjuTsRfcmCsH6ZEEo","Masjid E Mohammadiya üïåüíù","Shimoga Ragiguda, opp. Bettada, Men Rd, Malleshwara Nagar, Byadagi","14.6601849","75.4856886",""
"ChIJF0MDcgBjuTsR0zuuBzJq4zA","Sri kantesh Fuel Stationed Bharat Petroleum","Byadagi-Rattihalli Road, Lingadevarakoppa","14.6598473","75.4855602",""
"ChIJNX81_fdluTsRk8CaN6Q80f8","Hindustan Petroleum Corporation Limited","Ground Floor, near Kancor Ingredients, NH 48, Pune - Bengaluru Highway","14.704182","75.519746","true"
"ChIJS2IPItxDuTsRFO1S-MGbkPw","IndianOil","Survey No 435/18, Hangal, Naregal","14.8256877","75.2794016","true"
"ChIJnfSYeulDuTsR3JLZdkJ6Z48","Petrol Bunk","Adur","14.7744726","75.25529639999999","true"
"ChIJW_uDtWRDuTsRmoov2C6f6ZA","Hindustan Petroleum Corporation Limited","Survey No 44, 13 Hangal, Adur","14.774336","75.255198","true"
"ChIJnTkoeABpuTsRztapnT4TQc8","Hindustan Petroleum Corporation Limited","Ground Floor, NH 48, Pune - Bengaluru Highway, Devagiri","14.833758","75.359758","true"
"ChIJ6z3YqlVouTsRgiWQY_M4KLI","Gas Bunk","Haveri","14.7854473","75.3855986",""
"ChIJHYHYmvxouTsRFQ_gSXZ7ggo","Hindustan Petroleum Corporation Limited","Ground Floor, PB Road, Haveri","14.7899701","75.39742009999999","true"
"ChIJS3j5nMJouTsRGixGYGhaBmU","Hindustan Petroleum Corporation Limited","Ground Floor, Old, PB Road, Haveri","14.782671","75.41138099999999","true"
"ChIJ0RtkB_touTsRUg62ZO0jpOg","IndianOil","Ground Floor, Hangal Road, Hedigonda, Haveri","14.7867352","75.3964815","true"
"ChIJm8V1P0dpuTsRIaz-ZFwBbNw","Bharat Petroleum, Petrol CNG Pump -G.G. Magavi, Haveri","P B ROAD, Haveri","14.7877054","75.4005056","true"
"ChIJ3f5VNwJpuTsRXgDE8N7dGBQ","IndianOil","Rajendra Nagar, P B Road, National Highway 4, Haveri","14.7971073","75.3947062","true"
"ChIJZXtileRpuTsRKFYxqJGw8C4","IndianOil","Survey No 31/A, Hedigonda","14.7844609","75.4024019","true"
"ChIJpdFsPABpuTsR4F4txCKpomc","Jio petrol pump","Q9WX+2JG, Haveri","14.7950698","75.39906739999999",""
"ChIJKVRJeABpuTsRSaPmKWZI6Zg","Hindustan Petroleum Corporation Limited","Ground Floor, near RTO Office, Old, PB Road, Haveri","14.8098287","75.385397","true"
"ChIJXYrXijFpuTsRRbkecnba1zE","Nayara Petrol Bunk Best Petroleum","QCM6+89R, PB Road, Aladakatti, Haveri","14.7833629","75.4108875","true"
"ChIJT2g81qNpuTsRHMVZaU4o99s","Bharat Petroleum","R97J+CQP, PB Road","14.8135777","75.38196359999999",""
"ChIJaUhDzappuTsRCtj_tPAEVng","Jio-bp","1-1648-2786, PB Road, Ijarilakmapur, Haveri","14.8140558","75.3808471",""
"ChIJVVhkUwAXrjsRJVAhEcLNHB4","Ashok AG&P CNG STATION","R97J+QG2, Haveri","14.814388","75.3812695","true"
"ChIJEzkcaQBpuTsRfo2u0WWcuLw","AG&P pratham CNG gas","Shri Bistanagoudar Godown, near BAMS College, Haveri","14.814392","75.381247",""
"ChIJMbxTb31puTsRz2eP2OiU6w8","IndianOil","No 7980/1A80, 1B Ijarilakmapur, Hedigonda, Haveri","14.8150516","75.3805632","true"
"ChIJxSYL0CBpuTsRuWjVTxweD0E","IndianOil","Ground Floor, Near Apmc, Guttal Road, Hedigonda","14.798408","75.416138","true"
"ChIJ1YLtWABpuTsRQBvlk04p_3M","Malagi petroleum","R9CM+Q3, Haveri","14.8219433","75.38269609999999","true"
"ChIJf2XUDMdpuTsRN6SKG_9kTBw","Basur HiQ Fuels M.R.P.L petrol pump|| Best Petrol Pump in haveri || Devagiri Yallapura || Haveri","DC office road, Yellapur, Devagiri","14.8326064","75.37934890000001","true"
"ChIJn70kHDZpuTsRt8hUarUZ9ko","Hindustan Petroleum Corporation Limited","Survey No, 86/1, Guttal Road, Yattinahalli, Haveri","14.8092491","75.4289639","true"
"ChIJC8ZhGfVuuTsRXF5Df36LXKw","BPCL Sri Maltesh Petroleum","Agadi","14.8212941","75.47868369999999","true"
"ChIJaeOhmrJBuTsRaNoj8GYXgdU","Hindustan Petroleum Corporation Limited","Ground Floor, NH 4, Baradur Cross, Tevaramellihalli","14.880977","75.310175","true"
"ChIJVT-Mn3lBuTsRkH142NVNqvU","Hindustan Petroleum Corporation Limited","Ground Floor, Pune, National Highway 48, Savanur, Bengaluru","14.886854","75.302737","true"
"ChIJ6a7i5BlBuTsRcs10kByoesQ","IndianOil","Survey No 194/B, Plot No 1, Shiggaon, Bankapura","14.9022614","75.28684679999999","true"
"ChIJEUUFTYFBuTsRbkXHjcFhKnI","R P GULMI PETROLEUM & CNG Station","W76G+JRH, Near Bankapur Toll Plaza New Darbar, Bankapura","14.9115708","75.2771075","true"
"ChIJZUefHhFsuTsR9fM6LXzGJHU","Hindustan Petroleum Corporation Limited","Ground Floor, Haveri Road, Karjagi","14.858524","75.4501501","true"
"ChIJCReZT5tvuTsREhhCZBwJdqE","Hindustan Petroleum Corporation Limited","Survey No 73/1, Haveri Guttal Road, Haveri","14.827325","75.521479","true"