place_id,name,address,latitude,longitude,open_now
"ChIJqQwXF4b6rTsRzIjHM8FPm6A","Hindustan Petroleum Corporation Limited","Ground Floor, NH 75, Bengaluru - Tirupati Highway, Medarahalli, Kolar","13.1193313","78.084876","true"
"ChIJ2aQNOgDlrTsRHZHN7o7ab60","Hindustan Petroleum Corporation Limited","Ground Floor, Vakkaleri Hobli, SH 99, Vakkaleri, Kolar","13.055927","78.08531500000001","true"
"ChIJv5EHDADlrTsRREzzM-DFPJQ","Sri CHOWDESHWARI WEIGHERS","333P+8M, Muduvathi","13.0532563","78.0866284",""
"ChIJYQIOVQ3lrTsRq0RhFGHwbYM","Bharat Petroleum, Petrol Pump -S L N Filling Station","VOKKALERI, Kolar","13.076669","78.04104699999999","true"
"ChIJs5sGTEflrTsREyl66DKilP0","BADAR SS fuel station","Chowdnednahalli Village, Vokkaleri","13.0716493","78.03808819999999","true"
"ChIJ_yOi0WHlrTsRUR9LzU78iQw","IndianOil","Sy No 11/1, Vokkaleri","13.0689288","78.035168","true"
"ChIJi8RcG7rkrTsRN4zk6-e-ACM","Hindustan Petroleum Corporation Limited","Survey No 9 Malur, Main Road, Vokkaleri","13.068509","78.033885","true"
"ChIJU81F8S3lrTsRNN6N75CCbv8","IndianOil","Survey No 209/5 Bangarpet, Road, Hobli, Sulikunte, Vokkaleri","13.0412191","78.105746","true"
"ChIJaT6RGwD7rTsRF16N1NYnW_k","Sy no.14/1, arabikothanur village, kolar taluk, kolar district","428M+4GM, Arabikothanur","13.1153463","78.03380779999999",""
"ChIJm4GlI737rTsRXb8FYpBjykQ","Nayara Fuel Station / RV Fuel Station","439P+G75, Bettani","13.1187563","78.08574260000002","true"
"ChIJUx7F2f_6rTsR-uEAkuV7gBE","IndianOil","Survey No 13, Siddanahalli, Arabikothanur","13.1231447","78.0654349","true"
"ChIJmXr2FS3krTsRLfN0hGaNa8o","Bharat Petroleum","0/21, State Highway 95, Tekal","12.998952","78.0637582",""
"ChIJOYjoU3HlrTsRD9zpx1gE8Tw","Petroleum bunker","X3X7+9Q5, Kempanahalli","12.998423","78.063783",""
"ChIJBVCUgX_7rTsR-gOHE2fzRCw","Hindustan Petroleum Corporation Limited","Ground Floor, NH 75, Vakkaleri Hobli, Kolar","13.12042","78.095016","true"
"ChIJY2td3gr7rTsRrk1kmJSEMPw","Green View Service Station","136, Ammerahalli","13.1147533","78.10548159999999","true"
"ChIJ74FWVIfwrTsR-DOKdXt8DG0","Hindustan Petroleum Corporation Limited","Survey No 73/1, Old, MB Road, Sultan Thippasandra, Kolar","13.12795","78.11672109999999","true"
"ChIJkc7GKsnurTsRmz4vbCcAn1k","Bharath petrol pump","253F+794, CSRP Colony, Bangarapet","13.0031398","78.17346309999999","true"
"ChIJBwuBCtLvrTsRpjzTjwcuSKw","Bharat Petroleum","India","13.0725042","78.15228669999999",""
"ChIJYzZkHADvrTsRdnmsxb1Vu4w","Hudukula","35F3+55, Pakarahalli","13.0729904","78.1529003",""
"ChIJY1PlcsnvrTsRd3PspmXlYlM","Hindustan Petroleum Corporation Limited","Survey No 325, 1 & 325/2, Hudukula Road, Kasaba Hobli, Bangarapet","13.080697","78.1509576","true"
"ChIJeVY7oAvvrTsRA4YScZXiY5c","IndianOil","Survey No 14/3, Kasaba, Maderahalli","13.027634","78.13823","true"
"ChIJLW-j6lXvrTsRr9HWAypAKD0","MRPL HiQ Petrol Station (SRS Fuel Station)","Sy No, Sy No 13/5 Kuppanahalli, &, Bangarpet Road, Chikka Ankandahalli","13.0368943","78.1595663","true"
"ChIJwY63fv_urTsRGXMrfQ93Bvc","IndianOil","Survey No 48, Apmcyard, Chikka Ankandahalli","13.0350394","78.1665907","true"
"ChIJKx9feJLxrTsRIq0YJ80Via0","Srinivasa Fuel Station","447Q+CVV, Vinoba Nagar, Kolar","13.1136138","78.1396821",""
"ChIJf0FV6aHxrTsREeIr4gHOIEc","BPCL PETROL BUNK|| KMR Service Station","sy no 24/1 &24/2 Towards Kolar, to, Tekal Road, Kolar","13.118436","78.1264793","true"
"ChIJdVmtsb_xrTsRcTK0XWaXAm0","APEX Filling Point (NAYARA Energy Limited)","Bangarpet Road, C.Byregowda Nagar, Kolar","13.1191891","78.13603719999999","true"
"ChIJt8hJg1XxrTsRvjyuDI1AsI0","Bhairavi Fuel Station Indianoil Petrol Bunk","4, Tekal Road, Jayanagara, Kolar","13.1213512","78.1268796","true"
"ChIJwTchPNbxrTsRk5fy_2IfKxY","Manju Petrol station V Manjunatha","46/7, Kolar","13.1216878","78.1264719",""
"ChIJRcqrzXjwrTsRexCMCEnYBM4","PRADHAN MANTRI KISAN SAMRIDDHI KENDRA","India","13.1216785","78.11280550000001","true"
"ChIJTdKETADxrTsRRVmH89K3QJ4","KPC FUEL STATION NAYARA","44C7+X5R, Kalavanchi, Kolar","13.1218041","78.11299819999999","true"
"ChIJo3OFe1HxrTsRHUrYCwLTOso","Fuel Station M V Nagaraja","46/6","13.1252351","78.1348696",""
"ChIJ-2MGB3_wrTsRLxcMLiIIeLY","APEX PETRO PARK","Kolar - Malur Road, Kalavanchi, Kolar","13.1229972","78.1130766","true"
"ChIJdUWJgH_wrTsRnuOZKFO4uck","IndianOil","Ground Floor, opposite Apmc Yard, Kolar Bypass Road, Arehalli, Kolar","13.1249002","78.1108759","true"
"ChIJ4-P5D37wrTsR3fTTK7NPV_Q","Reliance Petroleum","Sy No 8 & 12, 30 & 32 15Th Ward, Harohalli Road, Arahalli","13.1272225","78.11639559999999","true"
"ChIJ8etJRFzxrTsRdl5AQXizYsU","Sri Raghavendra fuel park","Honnenahalli","13.1236724","78.1631099","true"
"ChIJq6mM7cXurTsRsipcJJU2N8g","IndianOil","Sy No 1955, SH 5, Bangarpet Road, Arehalli, Kolar","13.0064804","78.17241630000001","true"
"ChIJiecLpvnwrTsRg_3haQHRDG4","Bharat Petroleum","India","13.132761","78.1475523",""
"ChIJeVJnb_PwrTsRD626FAtihik","IndianOil","No 442, near Govt Boys College, Gowripete, Arehalli","13.1344276","78.1356474","true"
"ChIJc2ty1RnxrTsRDlQyauLXn_A","Shree Bhyraveshwara Fuel Station (Bharat Petroleum)","Taluk and District, Bhatrahalli SH96, Bethamangala Road, Kolar","13.1134336","78.1896917","true"
"ChIJh0uEumHvrTsRdgLMmCwbs-8","Goldtown fuel station","Harati Main Road, Karahalli, Bangarapet","13.0041558","78.1847593",""
"ChIJSRQ3w2jvrTsRs2eV3qTKW4I","IndianOil","Survey No 5/1, Karahalli, Bangarapet","13.003985","78.184731","true"
"ChIJu3naSsnurTsRk2VQlXC7cKo","Reliance Petroleum","No 5248, Old Survey No 201/2A, Kolar Rd Karahalli, Bangarpet, Kasaba Hobli, Kolar","13.0014684","78.17373289999999","true"
"ChIJp417w0r5rTsR3gLnTxrtHuE","Bharat Petroleum, Petrol Pump -Srilakshmi Venkateswara Fuelstation","Vemagal","13.1893433","78.0208336","true"
"ChIJNxwqjhDxrTsR_bgdF9bdrFw","Bharath Petroleum Corporation Limited","SH5, Opp To Ambedkar Boys Hostel, K.G.F. road, Fort Area, Kolar","13.1377573","78.1361965","true"
"ChIJz58s0Ef7rTsReMAQKpzUehM","Hindustan Petroleum Corporation Limited","Survey No 86/2, NH 4, Vakkaleri Hobli, Kendatti","13.1311152","78.0280238","true"
"ChIJEc1NL2_7rTsRevtCEOYrV1M","Manjunatha Bk","2, Bangalore","13.1309073","78.0279845",""
"ChIJTfHILhr6rTsRJ7CF3adJZOw","IOC - Welcome Petro Junction","H Gollahalli Village, Kolar, Kolar - Chikkaballapur Road, Gollahalli","13.163047","78.094111",""
"ChIJ3ede12b5rTsRqA8FYN5SkP0","Nayara - Sri Maruthi Fuel Station","Sy no 1/4 nandhikamanahalli Medihala gate, hobli, Vemagal","13.1760593","78.0453612","true"
"ChIJlZAz9HD8rTsRbiDYnIUy0K4","Hindustan Petroleum Corporation Limited","No 141/3, Bangalore Tirupati Highway Kurki, NH 75, Narsapura","13.1357356","78.0156477","true"
"ChIJex49vQD8rTsRbsPhAIbJX7U","NAYARA-CMS Fuel Station","India","13.1640921","78.0187467",""
"ChIJ1aP9EwDxrTsRZruH4Rkcvyc","Vayuputhra Indane Gas Godown","Gas godown, Kolar Amanikere","13.1502717","78.1239772",""
"ChIJa7rSYAD_rTsRppBVw_dcK6E","MRPL HIQ PUMP","52G9+Q8G, road, Vemagal, Sujjanahalli","13.1769491","78.0183246",""
"ChIJcUHoepbwrTsRl9NQ-VYXpVg","Hindustan Petroleum Corporation Limited","Ground Floor, Kolar-Chikkaballapur Road, Kolar","13.150008","78.12522659999999","true"
"ChIJ0R29TwDxrTsRqeE3g_mYgtY","Badar ss fuel station","44QH+CXR, Chowdadenahalli","13.1386236","78.1299045",""
"ChIJV7URSJTwrTsREQ-979lqUTc","IndianOil","Ward No 31, 213 & 214, Survey No, Chikkaballapur Road, Sarige Nagar, Arehalli, Kolar","13.1475015","78.12969939999999","true"
"ChIJTRXXDDDxrTsRf0ycc8pW0Ow","Bharat Petroleum, Petrol Pump -Sri Sai Hanuman Service Station","44WJ+JFR, KOLAR TOWN ON CHICKBALLAPU, Rahmath Nagar, Kolar","13.1467607","78.1307575","true"
"ChIJcdu68WvxrTsRgSUdALuaMIg","VISMAYA HP GAS GODOWN","135/2, Kodikannur, village, Arahalli","13.1567775","78.1314122",""
"ChIJ-7rMb2rxrTsRpXFdKZTTKxs","Gana Enterprises","45, Kolar","13.1351473","78.142254",""
"ChIJ63_4n1_xrTsRP-rSHyM-qtI","IndianOil","Survey No 408, 2 & 410/2, Arehalli, Gandhi Nagar, Kolar Amanikere","13.1370281","78.1422691","true"
"ChIJs7cpye_wrTsRCdsjqxZy0X8","Hindustan Petroleum Corporation Limited","Ground Floor, MB Road, Kolar","13.1413851","78.1396657","true"
"ChIJuTI9RNLxrTsRliJpDppuV3Y","NAYARA ENERGY - PJ FUEL PARK","45J5+G4C, MB Road, Tamaka Industrial Area, Tamaka","13.1313246","78.1577501","true"
"ChIJp3-j9NTxrTsRMHI4Ca-NlU8","Bharath petroleum","547Q+7C6, State Highway 99","13.1631644","78.13851199999999",""
"ChIJVeSHO8XxrTsRWMdwnOwbCsU","IndianOil","Survey No 25/3, Barandahalli, Kasaba, Kolar","13.163441","78.138504","true"
"ChIJ8bORSDHxrTsRNALW4T8TFeY","IndianOil","Survey No 25/3 Barandahalli, Kasaba, Sampangiram Nagar, Bengaluru","13.1636714","78.13841769999999","true"
"ChIJ4abD2nbxrTsRxtHsqQKWxTI","IndianOil","No 10/1 Kumbarahalli, Hobli, Arehalli, Tamaka","13.1358002","78.18719709999999","true"
"ChIJrZhwSVLxrTsRgwL-T5rVWnk","Nayara Energy- Rathna Petrol Station","beside Rathna Convention Centre, Chadumanahalli","13.1364497","78.1934334","true"
"ChIJo3HzXADxrTsRWX1KHylXUNc","A V G Fuel Station","45PV+9W, Kalahastipura","13.135977","78.19426","true"
"ChIJgyobT8_3rTsRSzmvYLICNY0","Nayara petrol pump-Krishna Service Station","55X3+PR, Thoradevandahalli","13.1994407","78.1545664",""
"ChIJX4masbfzrTsRydq2Tikqtzo","Shell Petrol Pump","Bengaluru - Tirupati Highway, Vadagur","13.138758","78.208449","true"
"ChIJM2pXCgDzrTsRzcRXZm-FDiA","Kolar CNG station Bharath Petroleum","46Q6+78R, Vadagur","13.1382396","78.2107617",""
"ChIJZ-y4IKvzrTsRPb_LZLIKtWk","Bharat petroleum","National Highway 75, Vadagur","13.1384828","78.2106874","true"
"ChIJh0rTDQDzrTsRiLWFC-lEEXc","Indian Oil - ACS Filling Station","Sy. No 58/12, Kolar district, Nernahalli","13.1437659","78.2394284","true"
"ChIJOwdMkAfzrTsRAFDpSm_gcDw","IndianOil","Ground Floor Nernahalli, Huttur, Arehalli, Thambihalli","13.1462257","78.2550645","true"
"ChIJu-8swYzwrTsRmpmJm5R0dMY","R.P.G.Service Station","NH 75 Huthur, Bengaluru","13.1467409","78.2554372","true"
"ChIJR8e_Esn-rTsRLK2xxaOEDwY","IndianOil","Ground Floor, Vemagal","13.195662","78.009697","true"
"ChIJ2X6aidH5rTsRXVgb4zk4ORU","BPCL Petrol Bunk","Sugaturu","13.211895","78.10126029999999",""
"ChIJjQq220r_rTsRKHVKOouKQcs","Manjunath service Station(Iocl)","52W5+FR2, Bheemapura","13.1961402","78.0095175",""
"ChIJcdRJSiX3rTsRMjJtWToJ65A","Hindustan Petroleum Corporation Limited","Survey No 216, 6A1, State Highway 99, Muduvadi","13.230774","78.16343499999999","true"
"ChIJGxgvWIz3rTsR8F_xuvDH994","Manju Petrol Pump","56, Mudavada","13.2329592","78.1658843",""
"ChIJk-XF4973rTsRT-N5CnaTHUM","RADHAKRISHNA ENERGY. Bharat petroleum corporation limited.","Doddaganjuru, Madikere cross, to, Kolar - Srinivaspur Road, Chinthamani","13.2412363","78.169933","true"
"ChIJ8RwSWKz3rTsRc_LiV8ho_Vw","Rojar Filling Station","789, Rojarpalli, Santhe Gate","13.2534334","78.1753018",""
"ChIJv7lsEQD3rTsRjxGWa7kG9RE","V k fuel station indian oil petrol pump","758H+2CW, Kolar - Srinivaspur Road, Hoohalli","13.2653856","78.17824259999999","true"