place_id,name,address,latitude,longitude,open_now
"ChIJvw3Vl0ZlrzsRFQLONTZXvw4","Hindustan Petroleum Corporation Limited","1st Stage, near Canara Bank, near Vivekananda Circle Road, D. No: 38/B, 2nd Main Road, Aravinda Nagar, Vivekananda Nagar, Mysuru","12.2743722","76.62299589999999","true"
"ChIJhT1O8EVlrzsRjsIWKV6_yO4","Hindustan Petroleum Corporation Limited","Survey No 88/4 SH 33, Jayapura, Hobli, Kenchalagodu","12.228333","76.59033699999999","true"
"ChIJkyy6lAVkrzsRTi-R15scFmY","Sri Devi Petrol Bunk Essar Oil Petrol Pump","6H44+QCQ, Mananthavadi Road, Mysuru","12.206953","76.556104",""
"ChIJWfR_eABlrzsRcfPKJsVQGCc","Kadu mane super fuels","SH 33, Kalalavadi","12.2305974","76.59817029999999",""
"ChIJVw2soJVwrzsRStMO5dpiMvE","Hindustan Petroleum Corporation Limited","Survey No 191, SH 33, Maharadawade Road, Jayapura","12.200171","76.551841","true"
"ChIJ-QzHk3xnrzsRdltvr3dJjAM","Bharat Petrol Bunk","104, Doora Main Road, Thaluru","12.1934279","76.59346339999999",""
"ChIJH0ECIABlrzsR_SfnJm4AwKs","Hindustan Petroleum Corporation Limited","Survey No 37, Kasaba Hobli, Chowdahalli","12.2414636","76.6088046","true"
"ChIJFxYW0v1lrzsRcdDXouyQtyg","IndianOil","Ground Floor, Lingambudhi Road, Mysuru","12.2622429","76.605884","true"
"ChIJw2k0GFhlrzsRDryfU_ooMzM","IndianOil","South Mysore, opposite Nie, Mananthavadi Road, Mysuru","12.1828768","76.5329462","true"
"ChIJ040OucljrzsRUo5X8vFFoqk","NAYARA fuel station","7GHQ+HX9, Beerihundi","12.2789074","76.5399999","true"
"ChIJqfZnfFRjrzsRUaXnFqYneGY","IndianOil","Survey No 82/10, Site No 179, Khata No Kumbarabeedu, Beerihundi, Alanahalli","12.282572","76.54387899999999","true"
"ChIJ6RGJYgBlrzsRmLRZglA1uHA","Hindustan Petroleum Corporation Limited","Survey No 33/7, Yelawala, Kumarabeedu","12.284626","76.549014","true"
"ChIJPyWvJmVnrzsR-VAB7pTDj50","IndianOil","Survey No 193/8, Jayanagar, Sindhuvalli","12.1957385","76.6315146","true"
"ChIJV-_mUPtlrzsROAbhBP4LyVw","Hindustan Petroleum Corporation Limited","Survey No 123/2, Kasaba Hobli, Dattagalli, Mysuru","12.282209","76.60968799999999","true"
"ChIJdahuABFlrzsR15emJnEl1wk","IndianOil","S No 144, 2, Vivekananda Circle, Sriramapura, Mysuru","12.2637781","76.6300141","true"
"ChIJ2WxzcpFvrzsRjle6BbmpP40","Coco Bandipalya Indian Oil Petrol Bunk","7M64+RJ6, JP Nagar, Kuppalur","12.262065","76.656482","true"
"ChIJ_3fUBmdlrzsRp4pM2t6OrdM","Hindustan Petroleum Corporation Limited","No 56/1, HD Kote Road, near Nachanahalli Extension, SH 33, Fort Mohalla, Kuvempu Nagara, Mysuru","12.265445","76.632913","true"
"ChIJK6DT2PZvrzsRX7F1LT9C8J4","IndianOil","Khillee Industrial, 56, 2nd Stage, Visveshwara Nagar","12.276622","76.645943","true"
"ChIJA5jDovhvrzsRLSb4tCVZ_no","Shell","Mananthavadi Road, Mysuru","12.28378","76.64192","true"
"ChIJbwTciE1lrzsRrTLiSGVJYZA","IndianOil","No 1, Mk, JCST Block, 1, Udayaravi Road, Chamaraja, Bengaluru","12.286213","76.62958499999999","true"
"ChIJR5HoB0dvrzsRfijj7-sGoAQ","IndianOil","Ground Floor, near Kamakshi Hospital, 10th K M, Mysuru - Ooty Road, Chakkalur, Mysuru","12.216035","76.6622344","true"
"ChIJ15pRcKFvrzsRlSfvIYDhqMs","Shell","Taluk & District, Mysuru - Ooty Road, Mysuru","12.245211","76.659761","true"
"ChIJXao0-v5vrzsRhOrJtdouNIo","Bharat Petroleum, Petrol Pump -JP Service Station","Kumbara Koppal Main Road, Mysuru","12.254553","76.64254679999999","true"
"ChIJLd6BwjZprzsRWOIJvXp2aJ8","Siddhartha fuels","Unnamed Road, Byathahalli","12.1939333","76.6469825","true"
"ChIJ6yDaMQBprzsRxpnBmEmiCj4","MRPL Shivamrita Fuel station","Kadakola","12.2007438","76.66457439999999","true"
"ChIJ1bxOfQlvrzsRqmEFbKmGZLU","Food And Restaurant","433, Bandipalya, Mysuru","12.2547086","76.6606281",""
"ChIJIwTFRABlrzsRAJIbBZ4SFUA","Emission test center","7J8M+439, Mananthavadi Road, Kuvempu Nagar 2nd Stage, Ashokapuram, Mysuru","12.2652908","76.6327232",""
"ChIJxTlZ55NvrzsRJyJb2fnmHc0","Bright Diesel Garage","113, 7, Opposite A.P.M.C Gate Petrol, Opposite Nanjangud Main Road, Bandipalya, Mysuru","12.26383","76.65717",""
"ChIJxbm14GpvrzsRr6yTbHsDFUk","Bharat Petroleum, Petrol Pump -B.Chandrasekarappa & Sons","Bandipalya, Mysuru","12.2642093","76.65751519999999","true"
"ChIJrx_JE55vrzsRMXmziFnceBw","Hindustan Petroleum Corporation Limited","Site No 22, Industrial Suburb, JP Nagar, Mysuru","12.2682784","76.6438292","true"
"ChIJ8wgusShlrzsRUM6nJ-RcVJI","Bharat Petroleum, Petrol and CNG Pump","MANANDAVADI RD, MYSORE, Mysuru","12.2685298","76.63721149999999","true"
"ChIJdU9YXMVvrzsRMdzp-CucVEY","IndianOil","near G S Ashram, Survey No 45/3 Uttanahalli, near G S Ashram, Main Road, Hosahundi","12.257171","76.6713967","true"
"ChIJLYPMTeRvrzsRqN5wvB4qtC0","Nayara petrol pump station","6MPM+4V6, Gate, Chikkagowdana Hundi, Makanahundi","12.235282","76.684634","true"
"ChIJ47OmawBprzsR1FLk9r3J0kk","BPCL Eesha Energy Station","Vidyaranyapura - Nanjangud Road, Mysore","12.1854012","76.6674867","true"
"ChIJP0SHKtRvrzsRnsMP3iTT2sk","Hindustan Petroleum Corporation Limited","Survey No, 45/1, Kasaba Hobli, Bandipalya, Mysuru","12.258191","76.678274","true"
"ChIJvTLgpg9vrzsRaFn4-ce3x7A","Hindustan Petroleum Corporation Limited","Survey No 45/1, Kasaba Hobli, Bandipalya, Mysuru","12.258191","76.678274","true"
"ChIJ-5P29SJvrzsRKUlbBMQPvFo","Total Gas","Ganesh Temple, Vidyaranyapura, Visveshwara Nagar","12.2761024","76.64637669999999","true"
"ChIJXaXxDwBprzsRca0HgP1SObE","Indian oil petroleum","5MM9+HFX, Vidyaranyapura - Nanjangud Road, Thandavapura","12.1829174","76.6689035",""
"ChIJtz7xegBprzsRk7RifbZlJhQ","Royal Fuels HPCL","5MJ9+C4, Dore's farm, Kochanahalli","12.181237","76.668786",""
"ChIJxSzr3wxprzsRmxpZf6PcWA8","Hindustan Petroleum Corporation Limited","Survey No 302, 1 & 302/3, Jayapura, Kadakola","12.1811689","76.6687443","true"
"ChIJeY06kCxvrzsRlAiiviwoPcs","RAJARAJESHWARI PETROL STATION","56 , VISHWESHWARIAH NAGAR, STERLING THEATRE ROAD, Industrial Suburb, Mysuru","12.2814744","76.6445652",""
"ChIJlaZAG_hvrzsRAkyqF2m-36Q","Essay Petroleum - Mysure Gas Auto LPG","near Indian Oil Bunk, 1st Cross Road, Gundurao Nagar, Chamundipuram, Mysuru","12.2783691","76.6591198","true"
"ChIJ2_-FBz5vrzsRdky36T7XGPM","IndianOil","No 166 Bangalore, 1st Cross Road, Mysuru","12.2784376","76.65920609999999","true"
"ChIJaYW7fvhvrzsRnKtP8884bwY","Auto Gas","7JJR+QJP, Vidayaranya Puram, Visveshwara Nagar","12.2819587","76.6415732","true"
"ChIJBw7tfvhvrzsRKSJzbMpzRBU","go gas","India","12.2820178","76.6415334",""
"ChIJORqc6vpvrzsR2ofy8ZEZ4LY","Vasudeva Rao & Communication","Near Andani Circle, 192/1, 4th Main, Sarvajanika Hostel Road, 4th Main, Near Andani Circle, Sarvajanika Hostel Road, Vidyaranyapura, Mysuru","12.28144","76.65136",""
"ChIJ62ckGQBvrzsRanqyFdlZFx8","Vasantha service station","7JMR+5J9, NIE College of Science Road, Vidyaranyapura, Visveshwara Nagar","12.282915","76.64159959999999",""
"ChIJo0ny7wllrzsRaCFYj5eru7U","Sphatika Service Station","ring road, S.Uttanahally","12.2609935","76.6857572","true"
"ChIJs2c2CPxvrzsR6pNlYqKuiGw","Sri Byrava Bike Zone","India","12.2853953","76.6479318",""
"ChIJZeIzBBNprzsRS5D7NVV4FQk","Hindustan Petroleum Corporation Limited","Khata No 914/771, Mysore Ooty Road Nanjangud, NH 212, Thandavapura","12.173351","76.672601","true"
"ChIJ6w0UTiVvrzsRCngPg3pcCjA","Bharat Petroleum -Laashya Fuel Station","Sy no 111,Jlb road, near by st. Marys circle, kasaba hobli, Mysuru","12.2861982","76.65253589999999","true"
"ChIJD4P9YuNvrzsRcbZyjXBf6ps","Hoysala Autogas (Aegis Autogas)","7MP3+6XR, Jhansi Lakshmi Bai Road, Gundurao Nagar, Chamundipuram, Mysuru","12.285808","76.65484099999999","true"
"ChIJLy2UZONvrzsRLdEcC2iPgck","Essar Petrol and Diesel Bunk","7MP3+CXR, Gundurao Nagar, Chamundipuram, Mysuru","12.2861199","76.6548866","true"
"ChIJsXid4_1vrzsRAtK_09oLpNk","Hindustan Petroleum Corporation Limited","near Chamundipuram, 2934, Jhansi Lakshmi Bai Road, Chamundipuram, Circle, Mysuru","12.2871842","76.6505492","true"
"ChIJk5O4vUtlrzsRlbM_ycXopEE","ADITYA SERVICE STATION","7JPF+G47, Paduvana Road, Kuvempu Nagar 1st Stage, Kuvempu Nagara, Mysuru","12.286278","76.62279350000001",""
"ChIJ7wiAA_9vrzsRumiXRwGPCGk","Bharat Petroleum, Petrol Pump -U.M.S. Fuel Station","JLB ROAD, MYSORE, Mysuru","12.2911722","76.6468677","true"
"ChIJv0MnagBxrzsRxfQje3JfXwk","AEE BEE TOTALENERGIES GAS BUNK","2554/1, Madavachar Road, Chamrajpura, Mysuru","12.2923245","76.6474717",""
"ChIJcegyoQFwrzsRF5oefySYpO8","Sri Mahaganapathi Service Station Chamundipuram, Lakshmipuram, Mysore","916/A, J.L.B. Road, J.L.B. Road, Near S.D.M.C., Lakshmipuram, Mysuru","12.2933659","76.64524279999999","true"
"ChIJSeFLMxVvrzsRPIM8H8wvAPo","Indian oil petrol bunk","7M8W+X9, Mysuru","12.2670051","76.69563649999999",""
"ChIJDWDZjbN6rzsRER8bFvtaJLU","IndianOil","No 1364/A, Double Road, Kuvempu Nagara, Mysuru","12.293447","76.62456499999999","true"
"ChIJWxzGJABxrzsRP-LRPBD-54E","Propel Auto Gas, Mysuru","Chamundi Puram, Chamundipuram Road, Chamundipuram, near State Bank of, Road, NR Mohalla, Lakshmipuram, Mysuru","12.2948356","76.6480613",""
"ChIJn4l_eR5wrzsRpYlr0EgCTe0","IndianOil","opposite Madhuvan Gardens, No 151/1B, Mysore Ooty Road, Ramanagara","12.293252","76.659027","true"
"ChIJA7pkrRd7rzsRpoY0NNRJY1Y","Bharat Petroleum Petrol Pump","KUVEMPUNAGARVISHWAMANAVA DOUBLE ROAD, Mysuru","12.2951319","76.62591270000001","true"
"ChIJURS4mq56rzsRPYiBC4VnTsA","IndianOil","15/D, New Kantharaj Urs Road, Saraswathipuram, Mysuru","12.296644","76.63362099999999","true"
"ChIJQeV8UQB7rzsRTWvdWSic1vs","Mukhyaprana heritage fuels, Bharat Petroleum","1163, Krishnaraja Boulevard Road, Chamarajapura, Chamarajapuram Mohalla, Lakshmipuram, Mysuru","12.2970034","76.6387981","true"
"ChIJ5bJlTwBtrzsRPDG3mIjuJI8","Mahalakshmi sales and service","6Q8F+84F, maradihundi, Kurahattikaval","12.2158068","76.7728029",""
"ChIJxVCQS99xrzsRR9VaGMM8qfA","IndianOil","No 157/1, 182/2 NH 212, Alanahalli, Mysuru","12.294839","76.705238","true"
"ChIJg12JkCttrzsRyE2cdqZQ3BM","IndianOil","Survey No 493, Chamundi Betta, Varakodu","12.2683952","76.7657194","true"
"ChIJ1WcJYlV6rzsR3SHuob7hOKU","Hindustan Petroleum Corporation Limited","S No J, 28, Mangalore - Mysore Highway, Hinkal, Mysuru","12.333271","76.59691099999999","true"
"ChIJ2WvI89t6rzsRmpQOkwi6wM8","Hindustan Petroleum Corporation Limited","Survey No 89/4, near Bogadi Main Road, Outer, Ring Road, Bhogadi","12.3073114","76.60175319999999","true"
"ChIJA1GrD717rzsRzwPz7Sfv9KI","IndianOil","No 33, Mysore Mercara Rd, Indl Area, Belawadi","12.3456043","76.5739755","true"
"ChIJpTf3S8F6rzsRQRTX4z-J2-M","IndianOil","No 123/1B, near Speech Hearing Circle, 1194, Bogadi Road, Mysuru","12.306321","76.61359399999999","true"
"ChIJx4Mfu8d6rzsR3k8yJvYxWCU","Hindustan Petroleum Corporation Limited","near Sahukar Chennaiah Road, S No 174 & 174/A TK Layout, near Sahukar Chennaiah Road, Gangothri Layout, Mysuru","12.302601","76.6161901","true"
"ChIJ_-AnyvB6rzsRu6WkA9w-S3s","Shell","Hunsur Rd Vill Hinkal, Kasaba Hobli, Mysuru","12.32785","76.60819","true"
"ChIJERML_bB6rzsRo8MPugnPi7o","IndianOil","13, Vishwamanava Double Road, Vivekananda Nagar, Mysuru","12.298331","76.626274","true"
"ChIJF--TqZl6rzsRtCqj8DjJiyA","Hindustan Petroleum Corporation Limited","S No 22, Valmiki, Hunsur Road, Paduvaralli, Mysuru","12.315731","76.63255099999999","true"
"ChIJcY_orgxwrzsRrm2FzZLBrYI","IndianOil","Ground Floor, Vinoba Road, Mysuru","12.312262","76.639832","true"
"ChIJdS2Njg18rzsRfORHgPKP5Gs","Hindustan Petroleum Corporation Limited","Survey No 303, 1A Hunsur, Thalassery - Mysore Road, Yelawala","12.359869","76.537891","true"
"ChIJE_DZpQxwrzsRGDlEFpDwN7c","IndianOil","916/1J, LB Road, Mysuru","12.298938","76.642781","true"
"ChIJ5c2E3Jt7rzsRhofs1clh7FM","IndianOil","Survey No 21/6, Old Survey, 21/2, Maratikyathanahalli, Alanahalli","12.304468","76.570161","true"
"ChIJC9yQRwh7rzsR4uSwSYIcPPA","Bharat Petroleum Petrol Pump , SHIVAMURTHY FUEL STATION","SY. NO. 49/5, MARATIKAYATHANAHALLIROOPANAGAR, MYSORE TALUK","12.3049003","76.57576399999999","true"
"ChIJV9IxBfN7rzsR-f4tsB4f5Ys","IndianOil","S No 73, 4, Junction Hinkel, Bhogadi","12.3117746","76.5960406","true"
"ChIJyZDI0RR7rzsRoRtp77qOkDA","Nayara Fuel Station Bogadi","8H6W+MQW, Ring Road, Mysuru","12.3117325","76.59696",""
"ChIJCSU9i956rzsRlFqdnDiaYl0","Bharath Petroleum Laxmi Patil Service Station","Ring Road Circle, Towards, Gaddide Road, Bhogadi","12.3050479","76.60168","true"
"ChIJF4tcxdF7rzsR6GZ8hCU416Q","SRI KALABAIRAVESHWARA FUEL STATION","73/6, Bogadi, Ring Road, Mysuru","12.3035628","76.6058044","true"
"ChIJU4bsCjd7rzsR6JfWR2--0Rk","Bharat Petroleum, Petrol Pump -Sri Lakshmi Narasimha Fuel Station","N NIVEDITA NAGAR, New Kantharaj Urs Road, Ananda Nagar, Bogadi 2nd Stage, Niveditha Nagar, Mysuru","12.2954183","76.6077356","true"
"ChIJpyjmd6l7rzsRR45djDDglyQ","Bharat Petroleum","India","12.3356597","76.5884789",""
"ChIJSd-9KQB7rzsRJl_RHAgJHnE","Belvadi","8HRF+933, Belavadi Main Road, Mysuru","12.3408788","76.57266810000002",""
"ChIJ_Xwmeup7rzsRnuKxFKB126M","Bharat Petroleum, Petrol Pump -Natraj Fuel Point","23, 2, Hunsur Road, Hinkal, Mysuru","12.3344045","76.59355090000001","true"
"ChIJlZdNpfl6rzsRVnRh0ZJTSvY","Sri Vinayak Diesel Pump Services","8JJ3+4RP, Hunsur Main Road, Hinkal, near Ganapathi Temple, Hinkal, Mysuru","12.3303374","76.6045816",""
"ChIJbxHlB297rzsRno-NOf4HBdc","Hindustan Petroleum Corporation Limited","Site No 74, General Thimmaiah Road, Hinkal, Mysuru","12.3351361","76.60098219999999","true"
"ChIJXXJR6nl7rzsRrLEoGN6P2eo","Propel Auto LPG - Green Auto Gas","Vijayanagar 1st Stage, Vijayanagar, Mysuru","12.3265776","76.60981509999999","true"
"ChIJwQiKGfJ6rzsR9vX0qqPu72s","IndianOil","Hunsur Road, Vijay Nagar 3rd Stage, Vijayanagar, Mysuru","12.323828","76.613061","true"
"ChIJnb4FvnZ7rzsRph0PJoqKcEw","IndianOil","Survey No 826 & 827, General Thimmaiah Road, 1st Stage, Vijayanagar, Mysuru","12.3278382","76.61201109999999","true"
"ChIJTcOnRgB7rzsRxYGzTANJSfA","IndianOil","8JH6+6X7, Vijayanagar 1st Stage, Vijayanagar, Mysuru","12.3280389","76.6124279",""
"ChIJE8bVBa57rzsRj79LzlhhKqo","Bharat Petroleum, Petrol Pump -Venkateshwara Fuel Station","Hootagalli, Mysuru","12.3483524","76.57984499999999","true"
"ChIJ-dEttRh7rzsROgWKpEA9aaQ","IndianOil","Plot No 15/A, Hootagalli, Belawadi","12.349922","76.579358","true"
"ChIJTVS60rJ7rzsRdHmw1fPAfC8","Siddligeswara Gas Services","Lunurs Limited, 265/F, Hebbal Industrial area, Hebbal, Mysuru","12.3465","76.59500000000001",""
"ChIJAzBLHa96rzsRWTSJ-10uezs","Jain Fuels","No P1, 2nd Main, 8th Cross, Kamakshi Hospital Road, Mysuru","12.2998397","76.627766","true"
"ChIJP_9bdel7rzsR3SHS2QDTHCo","IndianOil","Ground Floor, Hunsur Road, Mysuru","12.316985","76.62525529999999","true"
"ChIJk_cmvgJ7rzsR5tLhnPid20c","Bharat Petroleum Petrol Pump","Solarium, No 17, KIADB Layout, Service Road Near Damden, Hebbal 2nd Stage, Ilavala Hobli","12.3458217","76.60165719999999",""
"ChIJCYQkvxN7rzsRnco5lgpHbW4","BPCL Petrol Pump NH 275","NH 275, Mysore - Madikeri Road, Yelawala","12.3526465","76.5507925",""
"ChIJJ-yXzGJ7rzsRhsUK_8beA_w","IndianOil","25, Kalidasa Road, Panchavati Circle, Vontikoppal, Mysuru","12.324411","76.6241969","true"
"ChIJqQ8pK3F7rzsR1_zaPOnGKLE","MRPL Fuel Station - Sri Balaji Petroleums","9H4J+P9, Mysuru","12.3569582","76.5807268","true"
"ChIJl_lTbF56rzsR1VrdvBvs9I8","Hindustan Petroleum Corporation Limited","S No 156, near Surya Bakery, Main Road, Mahadeshwara Layout, Vijayanagar, Mysuru","12.338946","76.616485","true"
"ChIJMTXjV8Z7rzsRz2SivuM5qr0","DHURVES MODERN","9H5J+86H, KRS Road","12.3583144","76.5806163",""
"ChIJVageOl57rzsRPzSvy1bll1w","Bharat Petroleum, Petrol Pump -Shree Service Station","inside Bharat Petroleum Fuel, Station, 2902, Kantharaja Urs Road, K.G Koppal, Saraswathipuram, Mysuru","12.3016819","76.63538299999999","true"
"ChIJd9FcEol6rzsRsLrwYlGUPVw","MANJULA SERVICE STATION","India","12.3310599","76.6256105",""
"ChIJAVM8lIh6rzsRwX-5OwQpyWQ","S & S Associates Lpg Bottling Private Limited","230, 2nd Floor, Sharada Complex, Gokulam, 1st Main, Gokulam 2nd Stage, Gokulam, Mysuru","12.3296658","76.6300081",""
"ChIJfV8wd7B7rzsRq8ITOI6N-U0","SLN Fuel station (Nayara Energy Limited)","Infosys Road, Mysuru","12.3551339","76.6056006","true"
"ChIJd3bOZnR7rzsRynxAVLeKyPs","Galaxy Energy Station","299-c, Hebbal Industrial Area, Mysuru","12.3552532","76.6055569","true"
"ChIJcY_orgxwrzsRwl93cqu9_8U","Hindustan Petroleum Corporation Limited","D No 15, S No 2245/A, Jhansi Rani Lakshmi Bai Road, Devaraja Mohalla, Mysuru","12.3130901","76.64469009999999","true"
"ChIJW_0mrwxwrzsRqJSq90eOvok","HP PETROL PUMP GANESH And CO","Gayatri Bhavan Building, Dhanavantri Road, OPP:, Yadavagiri, Mysuru","12.312802","76.64746699999999","true"
"ChIJmRXFWnFwrzsRgvgJlvE-QzA","IndianOil","Bus Stand, Old, next to Vidhyavardhaka College, New, Sayaji Rao Road, Chitradurga","12.3183887","76.6487094","true"
"ChIJofzBDDpwrzsRDb7_erIhXiU","IndianOil","A/1, TN P, No 28/25, near Chamundi Vihar Sports Complex, Stadium, Nazarbad, Mysuru","12.308439","76.6695544","true"
"ChIJh0O7t35wrzsRrdX-4O0ppmY","IndianOil","Abdul Kalam Azad Circle, Bannimantap, Mysuru","12.331159","76.645752","true"
"ChIJ79alc2RwrzsRjucY1ixwTCk","Hindustan Petroleum Corporation Limited","No 18, Bangalore - Mysore Road, Bannimantap, Mysuru","12.330141","76.65695099999999","true"
"ChIJnY1Ifn16rzsRgTcQTiT4dYE","IndianOil","KRS Road, 4th Stage, Gokulam, Mysuru","12.334212","76.6326284","true"
"ChIJNainAM5xrzsRcyaKRCJrVys","Reliance Petroleum","147A, Bannur Road, T Narsipura Road, Junction, Alanahalli Extension, Mysuru","12.3045874","76.6932911","true"
"ChIJm9Y1p5VwrzsRub-mq4FCjrg","Hindustan Petroleum Corporation Limited","opposite KR Mill, No 521/5, Bangalore - Mysore Road, KR Mill Colony, Mysuru","12.3570533","76.6614747","true"
"ChIJAbNFNpVxrzsR7NNzmhpdig4","Bharat Petroleum, Petrol Pump -B. Chandrasekharappa & Sons","100 feet Road, Chamrajpura, Mysuru","12.3013521","76.6521503","true"
"ChIJWVKm36RxrzsRYXkKns958gw","Bharat Petroleum, Petrol Pump -K Nandibasappa & Sons","Santhepete Road, Mysuru","12.3048396","76.6512893","true"
"ChIJD7u0GgtwrzsRvL-Eu_3SksA","Hindustan Petroleum Corporation Limited","near Metropole Circle, S No 1294/4/87 Jn of Viceroy Yelwal Rd, JLB Rd, near Metropole Circle, Vinoba Road, Mysuru","12.3111101","76.6448101","true"
"ChIJscXIGgtwrzsRooM-VbCK_uw","Metropole Petrol bunk ️","8J6V+FW2, Jhansi Rani Lakshmi Bai Road, Devaraja Mohalla, Shivarampet, Mysuru","12.3111262","76.6447683","true"
"ChIJ5XJ2TgtwrzsRcgRlSpOn94g","Mullana and Sons","Dhanvantari Road, near Vartha Bhavana, Dhanvantari Road, Devaraja Mohalla, Mysuru","12.31292","76.64621",""
"ChIJVeP1qExxrzsRyC8Qz6_RRyc","IndianOil","Ground Floor, Dhanavantri Road, Bengaluru","12.3125894","76.64725279999999","true"
"ChIJTXE0XwBxrzsRug-4vE2LHzk","VIJAYA SERVICE STATION","Dhanvantri Building, Devaraja Mohalla, Shivarampet, Mysuru","12.3119083","76.6514797",""
"ChIJwwUpYHFwrzsRSTBxXhtd6cg","Diesel Pump Service","opposite Private Bus Stand, 1873B, Sayyaji Rao Road, Mysuru","12.3190791","76.647848","true"
"ChIJ_aKXu7lxrzsRokTCjFFF1Sk","IndianOil","Subash Circle, Sayyaji Rao Road, Mysuru","12.319311","76.647964","true"
"ChIJ10WP13NwrzsRInyz7ZjbGfI","Puttu Oil Corner","1888, 6th Cross Road, Mandi Mohalla, Mysuru","12.3188999","76.64923879999999",""
"ChIJKzXhDXJwrzsRIObhsQd0L8E","Shree Ganesha Oil Mill","India","12.3181002","76.6521746",""
"ChIJQ1obKQBxrzsRdoUWWbmixMU","Indian auto stand","8J9X+XJX, 6th Cross Road, Tilak Nagar, Mysuru","12.3199988","76.6491125",""
"ChIJ7zOVwmByrzsRnYZeGCfif1w","IndianOil","Survey No 1046, Chamundi Betta, Hobli, Varuna","12.31782","76.77548","true"
"ChIJWYbWoYrJWTkRV1rgCSgXqwg","IndianOil","CA 06, Lalithadripura, Outer, Ring Road, S.Uttanahally","12.2992577","76.70489599999999","true"
"ChIJbRddshRxrzsRReF37y2Qs_Q","Hindustan Petroleum Corporation Limited","Survey No 74, 1, Alanahalli, Mysuru","12.299824","76.705112","true"
"ChIJ1zmwvgZxrzsReblNxrquVuI","Bharat Petroleum, Petrol Pump -Nagalakshmi Fuel Station CNG","Bannur Road, Mysuru","12.3044175","76.7063967","true"
"ChIJ56FoULdxrzsRbviTXTbd3k0","IndianOil","No 87, 1, Bannur Road, Alanahalli, Nazarbad, Mysuru","12.304553","76.705528","true"
"ChIJOxmm4tA7rzsRiR-Ftf9H9r8","MRK Fuels Station","156/3,157/4, 157/5, T Narsipura Road, Madapura","12.3044697","76.6980126","true"
"ChIJ1fhcBNJxrzsRWTeyRcfwB-s","Bharat Petroleum, Petrol Pump -Balaji Service Station","ALANAHALLY ON T.NARSIPUR R, Mysuru","12.30388","76.69286509999999","true"
"ChIJF0HKHs1xrzsRpga7L2vgtQg","Hindustan Petroleum Corporation Limited","New No 4, S No 1823, T Narsipura Road, Siddarthanagar, Giriboviya Palya, Mysuru","12.306748","76.68900099999999","true"
"ChIJgdLKQ516rzsR28oHFDIgOhw","IndianOil","Ground Floor, Siddhartha Layout, Mysuru","12.307734","76.67527799999999","true"
"ChIJw2xLe0lwrzsR7AEryJ2TeUY","Chousiya Service Station","8M9J+CG2, Ghousia Nagar Main Road, Ghousia Nagar, Mysuru","12.3185013","76.6812623",""
"ChIJ0Va5dgBzrzsRdr2eKAxTJcg","VRS Vodagal Rangnathaswamy Service Station","8P5W+MMQ, Bonthagahalli","12.3084102","76.7476582","true"
"ChIJFViDaARxrzsRWNGDV82ptCM","Nayara Petrol Bunk","Mahadivepura main road, opp. Essar petrol station, Complex, Azeez Sait Main Road, Mysuru","12.3292504","76.6865521",""
"ChIJr56LG09wrzsR7Fhx5W5K3qw","Auto Station Service ️","115/1, Near Mahadevpura Main Road, Shanthi Nagar, Mysuru","12.32232","76.67842999999999",""
"ChIJIx02gUdwrzsRxQXCxZAvUcQ","IndianOil","S No, 38 & 39, North, 1st Stage, Gayathri Puram, Chamrajnagar","12.3162691","76.6734335","true"
"ChIJ57OVXgBxrzsRp8farYnJ5oM","Hindustan computerized emission test centre","11, T Narsipura Road, Chamundi Vihar Layout, Mysuru","12.308457","76.669095",""
"ChIJucoNI2VxrzsRCBOVcSuPNOo","Hindustan computerized emission test center","nagsaroj fuels, Male mahadeshwara road, Mysuru","12.30848","76.6689707","true"
"ChIJAb0H5w1xrzsRAZdhKjB8OMg","Bharat Petroleum, Petrol Pump -Sri Vara Siddhi Vinayaka Service Stn","Bannur Road, Siddhartha Layout, Mysuru","12.3084862","76.6689365","true"
"ChIJZxs351FwrzsRywWMbCGVGg0","Indian Service Station","India","12.3265366","76.68037079999999",""
"ChIJkxmYP2hxrzsRWaIg3kl_pt0","IndianOil","Sy No 305/2, Site No 01, Wood Villa, Hanchya","12.3383933","76.7026078","true"
"ChIJK5MnSkRwrzsRvHGPDdMt1ts","Nayara Petrol Pump","Udayagiri, Mysuru","12.3217119","76.6726774","true"
"ChIJtYeQ921xrzsR4T01kCT88iE","Bharat Petroleum, Petrol Pump -J.N. Khan Fuel Dome","UDAYAGIRI, MYSORE, Mysuru","12.3223597","76.672873","true"
"ChIJ-QYYkglxrzsRCm3m7dET-Ww","BPCL Petrol Bunk- RANI SS","Hanchya","12.3402958","76.70402779999999","true"
"ChIJsYjA0VZwrzsRjNFB0lDjgZw","BISMILLAH SERVICE STATION","8MJH+VQ8, 12th Cross Road, Shantinagara North, Rajiv Nagar, Mysuru","12.3321744","76.6794437",""
"ChIJlVxjYQBzrzsRlHRkw0BCdhQ","Nayara Energy Limited- Y S Fuel Station","8Q54+R8, Bonthagahalli","12.309539","76.755774","true"
"ChIJ7S9hbGpwrzsR_5nzGj2L-mk","Total LPG Gas Pump ️","Earangere, Mandi Mohalla, Mysuru","12.3181308","76.66336640000002","true"
"ChIJbT42dPVxrzsR8GO_zqFoGY0","Shell Fuel Station","Bangalore Nilagiri High Road, Lashkar Mohalla, Mysuru","12.320054","76.66180400000002","true"
"ChIJ17QpTABxrzsR8okjO2Qom-U","GasPlus Auto LPG - MYSORE","293, 32 Cross Rd, Lashkar Mohalla, Tilak Nagar, Mysuru","12.3161661","76.658806","true"
"ChIJSzibpgxxrzsRDpIPnOtg4CU","OLA & JUGNU AUTO","213, Rajivnager","12.3160223","76.6569063",""
"ChIJP9B5sWdwrzsRGV875-Dg_E0","N.R. SERVICE STATION","8MG6+VQ6, 3rd Cross Road, N R Mohalla, Rajendra Nagar, Mysuru","12.3271669","76.6618888",""
"ChIJO8fuZGpxrzsRxALJrzaqi7I","Bharat Petroleum Fuel Station","SH17, BB Keri, Rajendra Nagar, Mysuru","12.325467","76.6586722",""
"ChIJzysbOepxrzsR6Z9QooFEEuc","IndianOil","Rajendra Circle, N R Mohalla, Mysuru","12.3251417","76.65814809999999","true"
"ChIJc166SBp5rzsR_ykxD4nEVBU","Bharat Petroleum Bunk","KRS Dam Road, Krishnarajasagara","12.4129667","76.579475","true"
"ChIJrYuCPQ58rzsR7eu2wsfP76Q","ಶ್ರೀ ರಾಮೇಶ್ವರ ಟಿಂಬರ್ಸ್","India","12.3597463","76.53817049999999",""
"ChIJV9Xrm9p5rzsRYQC0AJavr5k","Bharat Petroleum, Petrol Pump -Surinder`S Service Station","BELAGOLA, MANDYA","12.3904587","76.5904362","true"
"ChIJaTTTlW15rzsRmVdUa2_-2AE","IndianOil","No 636 Hulikere, Srirangapatna","12.3958071","76.58220519999999","true"
"ChIJ5bfDwBF8rzsRWpe6RR5kKMY","IndianOil","Sy No 301/B, MH Road, Yelawala","12.360004","76.5361314","true"
"ChIJX3R-GinHzjsRmyOyJrFs9Xc","IndianOil","Ground Floor, Mnpm Circle, SR Road, Patna","12.3902886","76.5929735","true"
"ChIJPe64oHB7rzsRxNs55J-2tn0","H.P PETROL PUMP NANDI SS","307, Near Sri Lakshmi Kantha Swammy Temple, Hebbal Industrial Estate, Hebbal, Mysuru","12.3643041","76.6097015","true"
"ChIJq6qqOjt6rzsRF52sSD-ESj0","Hindustan Petroleum Corporation Limited","Ground Floor, opposite HPCL LPG Plant, Industrial Area, Hebbal, Mysuru","12.364368","76.609785","true"
"ChIJx4NC1EB6rzsRzf2QZDg-FL4","Bharath Petroleum","India","12.3538858","76.61262359999999",""
"ChIJf14KZ997rzsRVIfm8v80UzI","CAUVERY FUEL SERVICE STATION (Bpcl outlet)","# CA 426, PART-III, 1ST STAGE, Hebbal Industrial Area, Mysuru","12.3654415","76.6160738","true"
"ChIJEV5Dy0F6rzsRcO7TCbppr8E","IndianOil","No 440/A, Outer Ring Kasaba Hobli, Indl Area, Hebbal, Mysuru","12.353654","76.617142","true"
"ChIJY1Kr6SF5rzsRXkvBIdY8OEE","Nayara Energy - Sri Mahadeshwara Fuel Station","KRS Road, Belagola, Mysuru","12.3918129","76.6174102","true"
"ChIJQStgGwB7rzsR6gIZ9ylevvc","Surya bekri","8JVC+W76, near hosilu maramma temple, Kumbara Koppal Main Road, Lokanayaka Nagar, Hebbal 1st Stage, Mysuru","12.3446191","76.6207605",""
"ChIJhxFSa2x6rzsRdVay7JyagMc","MYSORE MULTI CLEAN SYSTEMS","opposite Shahi export, 613 RByraveshwara temple, ring road, Beside the kalparuksha bar, opposite Shahi export, service road, Metagalli, postt","12.3528712","76.62457210000001","true"
"ChIJpYJONox7rzsR5qPSZbgEENU","IndianOil","Ground Floor, Mogarahalli Belagolla, Hobli, KRS Road, Srirangapatna","12.3746086","76.6259082","true"
"ChIJ0_7foRF6rzsROMAazpIZ8mc","IndianOil","opposite Vikranth Tyres, No 20/B, KRS Road, Metagalli, Mysuru","12.3640587","76.62701009999999","true"
"ChIJAb-OFe55rzsRIRgG7ZkrxIU","Hindustan Petroleum Corporation Limited","Katha No 385, Sri Rangapatna, Hosa Anandur Main Road, Belagola","12.3918667","76.62534959999999","true"
"ChIJwaBHR3N5rzsR_Vz6M1Cnoh0","Hindustan Petroleum, Petrol Pump -M.A.S. Jeelani","FOUNTAIN CIRCLE MYSORE, Mysuru","12.392032","76.626465","true"
"ChIJDb_DBnp6rzsRuxgAEGfb5kk","Kallurtri Service Station","1st Main, Near Railway Track B.M, Srinagar","12.3460622","76.63505529999999",""
"ChIJM1H8Ry9_rzsRInf675BgzNY","Hindustan Petroleum Corporation Limited","Survey No 61/1, Yelawala","12.3927227","76.50624359999999","true"
"ChIJ3ZRjJvd7rzsRCo7JJb0PURM","Bharat Petroleum- Sri Varaganapathi Fuel Station","9J2Q+4H, Mysuru","12.3503552","76.6389516","true"
"ChIJgVfbyOeBpTsRCRGrCa9t_e8","IndianOil","Survey No 40 Siddalingapura, Bannimantap, Near, KR Mill Colony, Mysuru","12.3633513","76.6613421","true"
"ChIJd1Ncq7lwrzsRjJT-VE2_SuE","Shiva Shakthi Service Station Bharat Petroleum","Siddingepura, Siddalingapura, Mysore SH-17, Bangalore, Mysore Road, Mysuru","12.3675768","76.6614579","true"
"ChIJ6yH2L5RxrzsRDgY3Z3hE4g8","Bharat Petroleum Petrol Pump , CHANDRAKALA REDDY FUEL STATION","SY NO. 27/6 (OLD SY NO. 27/2),SIDDALINGAPURA, Kasaba Hobli, Mysuru","12.366399","76.662138","true"
"ChIJJf8gh4NxrzsRU6qJ-OrcbCM","mahadevaswamy","No89/6, behind Colombia Asia Hospital, Ring Road, Siddique Nagar, Kasaba Hobli, Belavata","12.3502166","76.6567934",""
"ChIJeyttCfBxrzsRGw4bf8bIA5I","Nagesh R","151, Outer, Ring Road, Siddique Nagar, Tilak Nagar, Mysuru","12.35029","76.65723059999999",""
"ChIJ25Z8OP9xrzsR4LtHYxm2nFw","IndianOil","No 89/6, Hobli, Belavata","12.3500518","76.65708599999999","true"
"ChIJ6S5OxbdwrzsROqzU7sr5DJ0","IndianOil","Ground Floor, Bengaluru - Mysuru Expressway, Naganahalli","12.3721503","76.66352169999999","true"
"ChIJM1tryoBwrzsRC2q4DE8aBa8","Gas Service Station","4/ A-2, Bannimantap Extension, Industrial A Layout, Near Yerdi Distributors, Bannimantap, Mysuru","12.33718","76.64677999999999",""
"ChIJV3gBP4dwrzsRXszGt9019sg","Jawahar Agencies ️","near Yezdi Distilleries, 15-E-2 A Layout, Industrial Area, Bannimantap Extension, near Yezdi Distilleries, Bannimantap, Mysuru","12.33735","76.64829",""
"ChIJj2rDPihxrzsRNjjTtqyFUWw","AEGIS & ESSAR - Vishnu Fuels","NO. 13/A, NEAR, Abdul Kalam Azad Circle, Bannimantap, Mysuru","12.3306812","76.6454518",""
"ChIJ3QyStUBxrzsRcxu6nquKlco","AEE BEE AUTO LPG (MYSORE) ️","#51, HIGHWAY CIRCLE,OPPOSITE TO PUTHALI PAR HIGHWAY CIRCLE, Bannimantap Road, Mysuru","12.330246","76.64602099999999","true"
"ChIJ8wwVAABxrzsRxQ7uP_DbFlc","Indian oil","696, Saba Home Rd, 2nd Stage, Rajiv Nagar, Mysuru","12.3461413","76.6718868",""
"ChIJqcyqCQB3rzsR-scsekNeE9M","Indian Oil Petrol pump","Vijaykumar land, State Highway 17, Brahmapura","12.3925488","76.66685629999999",""
"ChIJxxism2RwrzsRfB0rYoSubro","Silver Gas Suppliers ️","Near K.S.R.T.C Bus Depot, 61/2, C V Road, Bannimantap, Mysuru","12.33","76.65478",""
"ChIJ9dsqMfd3rzsRDO37t8tRvTg","Avinash&brother s land palahally","KRS Road, Rampura","12.4073929","76.64781359999999","true"
"ChIJLRBSlVd2rzsR932Vtd7-sQk","Hindustan Petroleum Corporation Limited","Sy No 310/1A2, Baburayanakoppal","12.4293535","76.6975496","true"
"ChIJfWTYwXJ3rzsRkJ5zgDN5k8A","Nimisha Fuel Station - Nayara Energy Ltd.","SY No 217/1, Chinnayakanahalli Village, Taluk, Srirangapatna","12.4183638","76.7257668","true"
"ChIJWZDpdRx6rzsRDuNWNdqhGzo","IndianOil","D No 1265, Gosegowda Street, Srirangapatna","12.4164885","76.6852054","true"
"ChIJde3XfhV3rzsR81a9NNiOWKc","Anupama Fuel Station -IOCL","Srirangapatana Service Road, Baburayanakoppal","12.4230604","76.7071605","true"
"ChIJ__8_Jvx2rzsR966StMvuszk","BPCL - Sri Nimishamba Service station","Kirangoor Main Road, Srirangapatna","12.4279285","76.6964366","true"
"ChIJ83kr5Fh2rzsR40-0WcNG5lk","IndianOil","Ground Floor Baburayanakoppal, Srirangapatana","12.4309238","76.7029281","true"
"ChIJs896yfp3rzsRUXs9zY22B-U","Hindustan Petroleum Corporation Limited","Survey No 46, 9 Srirangapatana, Karimanti","12.419271","76.667681","true"
"ChIJvS07otd3rzsRZtrLDkkL-cg","Shri Krishna Fuels - MRPL HiQ","SURVEY NO. 36, GLP URDU SCHOOL, T Narasipura - Srirangapatna Road, Kirangoor","12.4354044","76.6983411","true"