place_id,name,address,latitude,longitude,open_now
"ChIJg0ZAgkIpsDsR0VqU1BByZyE","IndianOil","Survey No 115/1, Hobli, Ariyur, Gulur","13.2813009","77.0884293","true"
"ChIJZWnvE0MpsDsR-FgjV6UXXig","Bharat Petroleum Petrol Bunk","Gulur Amanikere","13.2852468","77.08912149999999","true"
"ChIJR6nPe70psDsRVsfHjWdlBXo","SLV BPCL","63F6+FCJ, State Highway 33, Pannasandra","13.2237202","77.06101369999999","true"
"ChIJKUUzBvopsDsREXaC_1b4568","Hindustan Petroleum Corporation Limited","AK Kaval, Survey No 228/6, Kunigal-Tumkur Road, Naraganahalli","13.246784","77.082245","true"
"ChIJlQ-pGAApsDsRxAeYHfKK17Q","Hindustan Petroleum Corporation Limited","Survey No 80, SH 33, Tumkur Road, Kunigal, Doddahosur","13.268897","77.08787199999999","true"
"ChIJ1Wkm4CoosDsRt-I2XPu7Rm8","Hindustan Petroleum Corporation Limited","Survey No 14/2, Khata No 5, Hebbur SH 33, Kunigal-Tumkur Road, Nagavalli","13.2145825","77.0549449","true"
"ChIJQbxwCFqGsDsR-0L4FB5yRyM","IndianOil","Survey No 134, Bhaktharahalli, 2A, Hobli, Sirivara","13.2150859","77.001206","true"
"ChIJKU3wNwAlsDsRf1zGXfkjbAk","Nayara Shivashakthi Fuels","Sy No. 41/3B, NH 206 Near Tumkur Co-operative Milk Producers Societies Union Office, Mallasandra","13.3330122","77.0032612","true"
"ChIJC81oCgAvsDsRy6Zio6OmHIE","Bharat petroleum Bank","833R+VJ, Maralur Amanikere","13.3047062","77.09150939999999",""
"ChIJuzPXW3wssDsRMz3a3V-AAjw","Hindustan Petroleum Corporation Limited","Ground Floor, Siddaganga Mata Road, Math, Kyathasandra","13.3150517","77.14487240000001","true"
"ChIJf5oq75susDsRDzvIMYa590Y","Bharat Petrol Bunk apoorva service station","83MW+96X, Tumkur Main Road, Sadashivanagar, Tumakuru","13.333492","77.09561169999999","true"
"ChIJ4___70MssDsR6wAzr4RyUu4","BG SHIVAPRAKASH MIRJI PETROL BUNK BHARAT PETROLEUM","NH 206, Batawadi, Tumakuru","13.328381","77.1307186","true"
"ChIJW7BRopEusDsRyVYgBCxHjU4","Bharat Petroleum - Rajnish Fuel Station","83PP+5PG, Bypass Rd, Ring Road, Veersagar, Near Dhanah Palace, Sadashivanagar, Tumakuru","13.3354346","77.0868131","true"
"ChIJnUiM1JktsDsRltp9IgcTMHw","KS FUEL STATION (MRPL)","Outer Ring Road, Bypass Road, Gedalahalli, Bangalore","13.3144261","77.10405639999999","true"
"ChIJbyCqgKktsDsRJU8_RoPy8UM","Hindustan Petroleum Corporation Limited","Ground Floor, near Jayanagar Extension, Outer Ring Road, Jayanagar West, Tumakuru","13.313253","77.115871","true"
"ChIJh70CvpEusDsRAbeBqLH7D_4","Aegis Autogas - Sri Someshwara Autogas","8479+432, Bypass Road, Danah Nagar, Jayanagar West, Tumakuru","13.3127698","77.1176517","true"
"ChIJ6_kumxUvsDsRLxIYfzTx7cU","Hindustan Petroleum Corporation Limited","Khata No 9663 Ward, No 29, Maralur, Tumakuru","13.316727","77.089591","true"
"ChIJ4SSTRmUtsDsRu_NNhRkFuc8","Jai Bhajarangi fuel station","Shettihalli Main Road, Jayanagar East, Tumakuru","13.3133207","77.1215763","true"
"ChIJ9Sp3vXQssDsR_SEekbsekk8","IndianOil","Ground Floor, Ring Road, Shetty Halli, Tumakuru","13.31055","77.1268734","true"
"ChIJn6tOB8gtsDsR0b9-SVhZrAI","Hindustan Petroleum Corporation Limited","Survey No 31/4, Upparahalli Main Road, Geddalahalli, Tumakuru","13.317564","77.108781","true"
"ChIJ_c9oEwAtsDsRsL97WDObCJk","Hindustan Petroleum Corporation Limited","Survey No 75, 1A/12 & 13, Baddi Halli Main Road, Kasaba Hobli, Shetty Halli, Tumakuru","13.311561","77.12806200000001","true"
"ChIJ847Ke4UtsDsRmLa8rl9b_34","Byraveshwara fuels","Ring Road, Tumakuru","13.3108753","77.1314025","true"
"ChIJw_DVVh0tsDsRQDnyAgmTwps","SRJ Indian petroleum","Bangalore-Shimoga Bypass Road, Gokula Extension, Tumakuru","13.3097135","77.1345048","true"
"ChIJ3XhCSu0tsDsRSPWNXoGe-SM","Sri Balaji Fuel Zone","Shettihalli Main Road, Jayanagar West, Tumakuru","13.3192248","77.1207431","true"
"ChIJT3Ho7-YtsDsRwY4gKRxm05E","BP TUMKUR CITY COCO Bharat Petroleum corporation Ltd","near BPCL Petrol Bunk, Upparalli Geddalahalli, near BPCL Petrol Bunk, Ring Road, Tumakuru","13.3246578","77.1097843","true"
"ChIJEeYozcYtsDsRz4Sq7EluK3Y","IndianOil","Survey No 31, 5 & 33/2, Circle, Batawadi, Agalagurki","13.3190973","77.12747089999999","true"
"ChIJlZ6KdgAtsDsR8IpqSTdcAVA","SHIVSHAKTIPETROLEUMS","849H+R38, 80 Feet Road, TUDA Layout, Tumakuru","13.3195321","77.1276977",""
"ChIJhYxZGc0vsDsRgqCe34SZsrg","Hindustan Petroleum Corporation Limited","Survey No 49/1, Plot No 3, Kunigal-Tumkur Road, Maralur, Tumakuru","13.326359","77.09362100000001","true"
"ChIJcb_ykyotsDsRHv5j1_JRavA","Hindustan Petroleum Corporation Limited","Survey No 98/6, Outer, Ring Road, Kyathasandra","13.307924","77.147819","true"
"ChIJuy5-qIrVrzsR-Kcc33TCBQ4","IndianOil","Survey No 25, Gulur","13.2150998","77.1261064","true"
"ChIJQ1rcVY_VrzsRKWdP-FI7vNQ","S G R Fuels bhartiya petroleum ltd","647G+WMR, Arehalli","13.2148611","77.1266405",""
"ChIJxXCh_DQtsDsRB4kExEuD-Yk","Hindustan Petroleum Corporation Limited","Ground Floor, Kasaba, Tumakuru","13.3286208","77.1220158","true"
"ChIJr88oiJstsDsR5HYh0GFpKZk","KK1 TM ENTERPRISES","847X+322, Indira Nagar, Kyathasandra","13.3126355","77.1475243",""
"ChIJX576eT0rsDsRSbPWdBwqJTk","Bharat Petroleum, Petrol Pump -Siddalinga Petrol & Diesel Bunk","Kyathasandra","13.3137918","77.14670749999999","true"
"ChIJkRFCn84tsDsRUnAged0EnJg","Go gas","84FM+MV8, Chandana Complex, Tumakuru","13.323877","77.13478409999999",""
"ChIJxWhpsQ4tsDsRhOZJm9Nn7JU","Nayara Ramjay Petroleum","near Ramjay Orthopedic centre, Kunigal-Tumkur Road, banashankari nagar, Tumakuru","13.3340499","77.0962783","true"
"ChIJP5h3lpstsDsRYp6Iu_EvlUQ","SHIVDEV PETROLEUMS","SS Puram Main Road, Entrance, Tumakuru","13.3338142","77.10955659999999","true"
"ChIJ327a92MvsDsRKcrqhIqTbSY","Aegis Autogas LPG Station - Vijetha Fuels","No.29, Veerasagara Ring Road, Tumkur, Tumakura, Tumakuru","13.3360172","77.0868845","true"
"ChIJNWPR5OQtsDsR4egjT_OXbBg","SIPANI_TotalEnergies - Tumkur","84Q4+9CG, Ward No. 18, Tumkur, Tumakuru","13.338444","77.10606539999999","true"
"ChIJS6_QJyYssDsRpcTkBfv3abQ","IndianOil","Ground Floor, Kariappa Road, KR Extn, Barline, Tumkur, Tumakuru","13.3387044","77.1037786","true"
"ChIJw9hZFY4usDsRn8SKvhH-49E","IndianOil","Survey No 31, 1 Veerasagra, Ring Road, Tumakuru","13.3390294","77.086801","true"
"ChIJSbqPmoMusDsRytbLHa8WS9A","C. M. P. Swamy Traders","beside Veerashiva Samaja Building, beside TMCC BANK, 1st, Vinayakanagar Road, Ward No. 18, Tumakuru","13.3415693","77.0979809","true"
"ChIJ91JWURLVsTsRn_MuW05V-B4","Hindustan Petroleum Corporation Limited","Sy No 14 Nelamangala, Sompura, Nijagal","13.2466009","77.2261631","true"
"ChIJDyk1jIvvzjsRhuBipwlk0jM","IndianOil","Survey No 128, 2 Gandhinagar, Railway Station, opposite Hirehalli, Tumakuru","13.2800209","77.1872144","true"
"ChIJFaTCBAArsDsROEzNKXQpSuk","ùóßùó∂ùòÑùóÆùóøùó∂ ùóõùó∂ùó¥ùóµùòÑùóÆùòÜ ùóôùòÇùó≤ùóπùòÄ , indian oil","75GV+39X, Tumakuru","13.2752301","77.193499","true"
"ChIJjaPzR_TVsTsRIG5kkhVB4SA","AJITH FUELS","7674+7C9, Hale Nijagal","13.2631606","77.2060977","true"
"ChIJU-2omDMtmTkRniVw60p1vD8","IndianOil","Survey No 59/2A4 & 59/2A5 Nandihalli, hubli, Urdigere","13.2631097","77.2064572","true"
"ChIJLetPlx_VsTsRDkYyEkC-JJo","Bharat Petroleum S R S H Fuels Station","30/6,30/7,Halenijagal Dabbaspete NH4 Tumkur Road, Rural, Bengaluru","13.2620794","77.20738349999999","true"
"ChIJIweVKgDVsTsRyqLE3NG_exA","Good will fuel station Indian oil","7665+FF6, Hale Nijagal","13.2611589","77.2086485","true"
"ChIJ1dgWZwDVsTsRSbeMiIuxUpQ","SLN FUELS, Nelamangala","Hale Nijagal","13.2598125","77.2093125","true"
"ChIJm_v8dyPVsTsR9Bk53orkqUg","Indian Oil Petrol Bunk","Hale Nijagal","13.256471","77.2125276","true"
"ChIJGSjMa0vVsTsRiorPIFo8mgs","Bharat Petroleum, Petrol Pump -Sannidhi Service Station","Hale Nijagal","13.2564764","77.2138916","true"
"ChIJK9L7XwDVsTsRo70mlGZtTkQ","Reliance Petrol Pump Parking","66XF+JCW, Nijagal","13.2496249","77.2240162",""
"ChIJo6jZdwzVsTsRFKk8QLbb-RE","IndianOil","Old NH 4 Bangalore Pune, Highway, Dobbaspet","13.2448857","77.2301545","true"
"ChIJt1FeOA3VsTsRZUjAKcWsZIM","IndianOil","Sy No 6, Nijagal, Tumkur Road, Bangalore","13.2441437","77.230367","true"
"ChIJU5q0VqMlsDsRpmvxT_H4LS4","IndianOil","Sy No 96/1, Khata No 313/521 MH Patna, Adagur, Amanikere, Gubbi","13.332635","76.981296","true"
"ChIJOxOJfoYusDsRPMpGjNYqaa4","IndianOil","Ground Floor, opposite Maruthi Theatre, Bangalore - Honnavar Highway, Barline, Tumakuru","13.344106","77.093693","true"
"ChIJZ57BM3QvsDsRgdLPa43LVog","MRPL PETROL PUMP","82RV+XRX, Bangalore - Honnavar Highway, Heggere","13.3427709","77.0439944",""
"ChIJ24-RC_0vsDsRGc6qe1OWteo","Bharat Petroleum, Petrol Pump -N S FUELLING SERVICES","AGALAKOTE, Tumakuru","13.3432609","77.0612428","true"
"ChIJywkEN0susDsRWszHdPKShLg","Bellavi Petroleum Service,TCB Highway.","and District, Kannenahalli Bugudanahalli Post TCB State Highway Bellavi Hobli Tumkur Taluk","13.3664476","77.0570614","true"
"ChIJI4CNs8svsDsRGZvWgbs2W2s","IndianOil","Survey No 80/1, Bugudanahalli","13.3730449","77.05253359999999","true"
"ChIJbWgcs1QvsDsRi-OUhw-7epc","SRI B P S FUELS","opposite Tata showroom, Bheemasandra, Tumakuru","13.345476","77.07939499999999","true"
"ChIJX6JKLAktsDsRmqOK_Cvkflg","IndianOil","Ground Floor, beside Kuvempunagar, 1st Cross, 1st Main Road, Tumakuru","13.3455224","77.07972579999999","true"
"ChIJ2b-mv_UvsDsRhRjy_fnVXOo","Hindustan Petroleum Corporation Limited","Ground Floor, near Gubbi Gate, Gubbi Road, Tumakuru","13.3449922","77.0833895","true"
"ChIJGTGyHpIvsDsRQwo-s4o68QU","Shell","Amani Khare, Bangalore - Honnavar Highway, Tumakuru","13.345242","77.08471","true"
"ChIJFzkS1Y4usDsRKMsq4zL_UKQ","G. M. MOTORS","India","13.3433649","77.0879957",""
"ChIJlzSGfNsvsDsRCLncaLp0SPw","Reliance Petroleum","ward no.2, MUNICIPAL NO. 278/293/316-1, B.H.ROAD, 577301, Bhadravati","13.3452119","77.0897299","true"
"ChIJQxXqlMEvsDsRD-TZOBeqIF4","Mahaboob Auto Electricals","Mahaboob Auto Electricals, Road, Dibbur, Tumakuru","13.3483741","77.0894283",""
"ChIJt0djOtYvsDsREeM_EgVvD7Y","Chethan Chintu","near Garden Pertol Pump, Garden Road, Dibbur, Tumakuru","13.349616","77.09145269999999",""
"ChIJTc8auXsvsDsRHvsT5Zqrgys","IndianOil","No 226/3 Tumkur Amanikere, Barline, Tumkur, Tumakuru","13.3498801","77.09152499999999","true"
"ChIJL7dGvYkvsDsRKElDPU7xGN0","Hindustan Petroleum Corporation Limited","Survey No 749, 11 750/12, Bangalore - Honnavar Highway, Mandipet, Tumakuru","13.3429924","77.093862","true"
"ChIJLQLQNekvsDsRjrppyBgniCQ","HP AUTO CARE CENTRE","near BG palya circle, Bangalore - Honnavar Highway, Tumakuru","13.3429861","77.0939265",""
"ChIJJcIh-tUtsDsRFVdWIkvq6OI","IndianOil","near Venkateshwara Engineering Works, Ground Floor Sira Road,Arakere, near Venkateshwara Engineering Works, Tumakuru","13.354818","77.102852","true"
"ChIJqbcQky4ssDsRZL-A5ypU37g","Bharat Petroleum, Petrol Pump -Sree Shiva Shankari Fuels","Kotitopu, Tumakuru","13.3433452","77.1101876","true"
"ChIJWWWu29ctsDsRDQfyTn8faXg","M/s. Shivaganesh Fuels","9453+R39, Sira Road, Tumakuru","13.3595317","77.10274299999999","true"
"ChIJIbvXDsMtsDsRO-aunvvP2WA","Bharat Petroleum CNG gas","9498+RH9, Satyamangala, Tumakuru","13.3695353","77.11647839999999","true"
"ChIJ9Ztw8kwssDsRpfRLA7yGM-U","IndianOil","Ground Floor, Belagumba, Tumakuru","13.3489008","77.1340063","true"
"ChIJ2w3RywUusDsRU65rdbYG87c","Indian Oil Petrol Bunk","93VR+757, Madras Bombay Trunk Road, Antharasanahalli, Tumakuru","13.3931532","77.0904201","true"
"ChIJe9XtKu8xsDsRLH_XGLAgCuc","Hindustan Petroleum Corporation Limited","Survey No 180/2, NH 4, Tumkur-Sira Road, Oorukere","13.4083434","77.0853293","true"
"ChIJY0fQowktsDsR_a9czu8jN-I","Shell petrol bunk","near Kodi Basavanna Temple, State Highway 33, near Kodi Basavanna Temple, Sira Road, Tumakuru","13.3506494","77.1032098","true"
"ChIJ0_DuZNUtsDsRMfh1Xo_Jbh4","IndianOil","TUDA Layout, Tumakuru","13.351923","77.1029701","true"
"ChIJwYjiAfMtsDsRP1ZfjeY50H4","Essar Gas Station","9453+5CG, Sira Road, TUDA Layout, Tumakuru","13.3579488","77.1035837","true"
"ChIJ9Yc-3dctsDsRxI78KUT5rbc","‡≤≠‡≤æ‡≤∞‡≤§‡≥ç ‡≤™‡≥Ü‡≤ü‡≤∞‡≥ã‡≤≤‡≤ø‡≤Ø‡≤Ç","India","13.3597263","77.1031308",""
"ChIJB3eHoCktsDsRH9bOdwM4RqA","Hp petrol bunk","Survey No 266, 3 266/4 & 266/5, Belagumba Road, Tumakuru","13.346529","77.125619",""
"ChIJbaIhXFkrsDsRaRLmcUMkTDc","TIWARI HIGHWAY FUELS","Survey No 66/1, Chikkahalli, NH 48, Tumakuru","13.3497842","77.124517","true"
"ChIJB1uSZjUssDsRRRcpFTbeBuc","SreeRanga Gas Godown,Ganeshnagar","84XG+P2R, Belagumba, Tumakuru","13.3493603","77.1250187",""
"ChIJuyxRUoMtsDsRCFJBheKoYJw","Hindustan Petroleum Corporation Limited","Sy No 101/3D, Srinivasa Service Station, TCB - NH4 Road, Antharasanahalli, Tumakuru","13.371842","77.111785","true"
"ChIJG0UcGsQvsDsRGl0grennte8","Mookambika Agencies BPCL","93GX+9QF, Nagannanapalya, Lingapura, Thimmalapura","13.3759302","77.0994075","true"
"ChIJ8-Yk5-wvsDsRb3anFSED36o","Bharat Petroleum","93GX+MQ2, Thimmalapura","13.3766461","77.0993945",""
"ChIJO-4kWagtsDsRNTFkzVOF0WU","Bharat Petroleum Petrol Pump , GRR PETROZ","Madhugiri Road, ROADANTHARASANHALLI, Tumakuru","13.3755267","77.1125875","true"
"ChIJmRZnsX_TsTsR1WfcTmt2v6s","IndianOil","Survey No 18/5 Urdigere, Anupanahalli","13.3133367","77.2380957","true"
"ChIJf8rLIQDTsTsRmcF6SNjiZqw","Bharat Petroleum","86QG+RJ8, Tumakuru","13.3395422","77.226569",""
"ChIJFUgabg3TsTsRGZBFvzRa_Tc","Bharat Petroleum","86PJ+83M, State Highway 3, Urdigere","13.3358388","77.2301598",""
"ChIJ4ctPFNvTsTsR5HjVgacsuW0","Bharat Petroleum, Petrol Pump -Shree Purushotham Fuel Station","URDIGERE, Tumakuru","13.3556178","77.2291122","true"
"ChIJVXz67XbTsTsRz6kbak42xsM","Hindustan Petroleum Corporation Limited","Survey No 169, 1A4, Koretagere Road, Urdigere","13.3456249","77.23169299999999","true"
"ChIJY2IALAAtsDsRntbVdd686vI","Bharat Ecofuels Private Limited","94Q9+WX9, Yallapura, Tumakuru","13.3895739","77.119755","true"
"ChIJhbz_QvEtsDsRJhHwWjFKaf4","Hindustan Petroleum Corporation Limited","M R Service Station Kortagere Road, Post, Yellapur, Tumakuru","13.38912","77.11886","true"
"ChIJMxpx5wwwsDsRgAUCnDPZNFM","Someshwara Petrol Bunk","C269+RC2, Bellavi","13.4120077","77.0185127","true"
"ChIJKWhiN2sxsDsRR8iPKipdTIQ","IndianOil","Ground Floor, Kisan Seva Kendra, Gandhi Nagar, Bellavi","13.4117023","77.0183164","true"
"ChIJA0gru3YwsDsRsHcc-XuzUV0","Bharat Petroleum","India","13.4196813","77.0152269",""
"ChIJSU7lKwA7sDsRbKF1l9nvyOY","MRPL brundavana fuels","CXJV+PGG, Devarajanahalli","13.4318027","76.99382229999999",""
"ChIJg2iA_tAxsDsR_4_2JoDfSbI","Bharat Petroleum, Petrol Pump -Vinayaka Fuel Station","ANTHRASANA HALLI VILLAGE, Tumakuru","13.4216706","77.0732656","true"
"ChIJp_O6DLU7sDsRVj2pzDqenuA","Hindustan Petroleum Corporation Limited","Ground Floor, Hobli, Devarajannahalli, Bellavi","13.4414924","76.9852231","true"
"ChIJeytcM1oxsDsRjeoXxj_Z5ns","IndianOil","Survey No 1, Khatha No 16/16, Kora, Hobli, Vasanthanarasapura","13.4673754","77.0403303","true"
"ChIJV6-1RcQwsDsR8NGNa28eA74","Hindustan Petroleum Corporation Limited","Sy No 19/4 Kora, Hobli, Vasanthanarasapura","13.4681102","77.0403485","true"
"ChIJCQDC9OoxsDsRaQYDYHzxGoo","Bharat petroleum Padmashree fuel park petrol Bunk","Vasanthanarasapura,Pune-Sira highway sira NH4,Near VRL hotel,Vasanthanarasapura, industrial area, Tumakuru","13.4713268","77.0369051","true"
"ChIJ3XTEywUusDsRRJ6P2gzB4ic","IndianOil","Ground Floor, NH 4, Rangapura, Arakere","13.3861259","77.09505279999999","true"
"ChIJXxTbywUusDsRhPARCLecXnk","vianOil","India","13.3860168","77.0955379","true"
"ChIJFehS6nMysDsRCtxEwKMo_wg","IndianOil","Survey No 8, 58/68/7, Kasaba, Amalapura","13.402275","77.128714","true"
"ChIJV0i2HWgzsDsR2AuXM-8jx9c","IndianOil","Ground Floor Amalapura, Madhugiri Road, Bellavi","13.403669","77.13018009999999","true"
"ChIJeSXo0M0zsDsRwSSgX7WA2Ac","IndianOil","Survey No 84, 2, Chikkathotlukere Main Road, Arakere","13.446387","77.11618299999999","true"
"ChIJAQAAAFAysDsRg7RMUFYwOwg","Shell","C4JP+9RC, Tumakuru","13.4309449","77.1370115",""
"ChIJmxOS1_oysDsR0ENVNy0lmiM","Hindustan Petroleum Corporation Limited","Survey 47/2, Kora Hobli, Obalapura","13.4348823","77.1596071","true"
"ChIJbxtijw7NsTsRV9oB9xeozJ8","BPCL - SLR Fuel Station","C66M+XG, Neelagondanahalli","13.4124975","77.2338693","true"
"ChIJzcIAq87TsTsRhl1IrLn6UaY","IndianOil","Survey No 37/3 Vaddarahalli, Koratagere, Anupanahalli","13.3997652","77.2376402","true"
"ChIJs3TPjWLNsTsRDxWcPUWzHcE","Sri Bhagyalakshmi Filling Station","Syno:25/5, Neelagondanahalli","13.4227681","77.240608","true"