place_id,name,address,latitude,longitude,open_now
"ChIJz5unDgD1UzcRJs6OMwZBsjw","ঠটরা","Q689+32V","23.7652425","91.2175366",""
"ChIJ57qMbAB1VDcRKqr_RaLj_ic","Debipur","P5PH+W2R, Debipur","23.7373741","91.1775189","true"
"ChIJi2DxOOX1UzcR8IxW880eoGg","Niloy Sukla Das","Road, Amtali, Agartala","23.780409","91.2608747",""
"ChIJnbItAwALVDcROpuNnokFZpw","মেসার্স আল মদিনা এন্টারপ্রাইজ","গোপীনাথপুর বাজার","23.7918311","91.17537829999999","true"
"ChIJ85Zheub1UzcR3DiK73rACyk","Sreema Petroleum","below Tripura Gramin Bank, Axis Bank Atm A D Nagar Road, below Tripura Gramin Bank, Arundhauti Nagar, Agartala","23.8097698","91.2571715","true"
"ChIJjbeTFAD1UzcRv6TSdpeYrYo","Tripura agartala khourpur CNG","R68X+GQ2, Camper Bazar, Agartala","23.8162587","91.2493976",""
"ChIJX2RV1mQLVDcRtBLsONLcYdQ","মায়ের দোয়া ফিলিং স্টেশন এন্ড কনভাশন সেন্টার","R5FX+PJ8, Kasba - Akhaura Road","23.8242879","91.1990836","true"
"ChIJTZsZsYv0UzcRR1bRwkjT5vE","IndianOil","Ground Floor, National Highway 8, Arundhutinagar, Ishanchandranagar","23.80201899999999","91.27290099999999","true"
"ChIJwxeesmD0UzcRdpNqJ-YNeoQ","Tripura Natural Gas Company Ltd CNG Station","Drop Gate, Milanchakra, Milanchakra, Arundhauti Nagar, Agartala","23.8114554","91.2705373","true"
"ChIJgR5QTAD1UzcRC8OOjVv1L_Q","Hindustan Petroleum Corporation Limited","Ground Floor, NH 8, Agartala - Kamalasagar Road","23.79023160000001","91.2876989","true"
"ChIJZz72NAD1UzcRQWin8aXHMsk","SANJIB FILLING STATION","Q7RQ+69F, Dukli, Ishanchandranagar","23.790409","91.28800799999999","true"
"ChIJse8acQDzUzcRoyvbs3zo7wI","Sai Ram Filling Station","NH-8, Bypass, Khayerpur, Amtali","23.7964453","91.2986908","true"
"ChIJrYBxe63zUzcRdPYnkJAsce8","M/S Mrinal Anjali Filling Station","01,M/S Mrinal Anjali Filling Station Molaynagar, Kheyerpur, To, Amtali Bypass Road, Agartala","23.8041033","91.3125712",""
"ChIJe08F51bzUzcR1Vw45wQ9lbY","M/S Mrinal Anjali Filling Station","Mrinal Anjali Filling Station Molaynagar. Kheyerpur, To, Amtali Bypass Road, Agartala","23.8039642","91.31296479999999",""
"ChIJ948SfQDzUzcRgLT8HKETQ48","HPCL Petrol pump","R836+QWQ, Sadar","23.8044597","91.31236059999999","true"
"ChIJ7-oRSwDzUzcR1WMjJL8m1aA","Mrinal anjali filling center","Malaynagar, Jampujila - Agartala Road, Subhash Nagar, Jogendra Nagar, Agartala","23.8098051","91.3115093",""
"ChIJR6N-Ern1UzcR0jpjsf_IqNY","IndianOil","Bardowali, Agartala","23.8235206","91.2720018","true"
"ChIJscNtQ7r1UzcRd4unjZQezSQ","Hindustan Petroleum Corporation Limited","Ground Floor, National Highway 108B, Baijalbari","23.826403","91.2818815","true"
"ChIJAy6KNebzUzcRCEprkrKk6lA","Bajrangi Tour &Travels","R7GJ+HQ6, Dhaleswar, Agartala","23.826403","91.2818815","true"
"ChIJx2QpwbeLUzcR7KA73_t6NXQ","Petrol Pump","Laxmibil","23.6946766","91.27041709999999",""
"ChIJOyfdmqL1UzcR0gu7FHMsBF8","IndianOil","Ground Floor, Motor Stand Road, Agartala","23.8311332","91.2856628","true"
"ChIJM_YqB3r1UzcRlcfomCpV1xY","Hindustan Petroleum Corporation Limited","Ground Floor, Airport Road","23.831457","91.2867777","true"
"ChIJ4-xVDQCLUzcR1n4YH0zoVHo","Bishalgarh Joyguru Petroleum","M7RJ+JMM, Bishalgarh Bypass Road, Bishalgarh","23.6915783","91.28167169999999",""
"ChIJh6TPVwD1UzcRQJNHjJwuFlo","Opposite to Nabarun petrol pump","15, Colonel Mahim Thakur Sarani, Old RMS Chowmuhani, Krishna Nagar, Agartala","23.8327839","91.27927249999999",""
"ChIJ9-0IeRL0UzcRcc_arFsSDes","IndianOil","12, Colonel Mahim Thakur Sarani, Agartala","23.8329161","91.2791203","true"
"ChIJbTWjqb7tUzcRPn93PccWSxY","IndianOil","Ground Floor, Madhabbari, Jirania,Ranirbazar, Ranirbazar","23.8182428","91.39416059999999","true"
"ChIJK3yjdL7tUzcRpUpSgGNF2bY","Karaiban ESSER Petrol Pump","R9FP+4PR, Purba Noagoan","23.82286149999999","91.3867798",""
"ChIJdVI4NwDtUzcRVfp0V-b-V7Q","Biplab Debnath","RC92+CMR, Radhamohanpur","23.8186037","91.4016534",""
"ChIJ45q3rLPtUzcRZCtga82SUFA","S.S Petroleum Agency","Ground Floor, Madhabbari, Ranirbazar","23.819326","91.401985","true"
"ChIJlzm8FvTtUzcR_hxdLXnLU-I","Mahanam Oil City","R9JF+QP9, Nalgaria, Majlishpur","23.8310562","91.37308650000001","true"
"ChIJLZY0GDftUzcRm0g3jCuL0q0","S.S Petroleum Agency","Madhavbari, Mohanpur, Agartala","23.8192261","91.40290159999999","true"
"ChIJ11DWJAT0UzcRMDsb_q5TW2Q","IndianOil","Ground Floor, near Kunjaban Depot, Abhay Nagar, Agartala","23.8450977","91.28383370000002","true"
"ChIJ4T8kPQkJVDcR1UPQAomcoBc","M/S T Islam LPG Filling & Conversion Centre Privat Ltd.","V6F5+RMP, City Bypass Road, Akhaura","23.8745889","91.20919649999999","true"
"ChIJbYafPwX1UzcR5DVFSJq39MM","Hindustan Petroleum Corporation Limited","Ground Floor, Durga Chowmuhani, Agartala Airport Road, Barjala, Agartala","23.852329","91.27000199999999","true"
"ChIJiXB4Rf31UzcRTOwikRp7FPg","Suman Miah","Jirania Jirania, Railway Station","23.8345297","91.27573",""
"ChIJn4RklhP0UzcRQiMYId-fsFA","IndianOil","TRTC Complex, Krishna Nagar, Agartala","23.833474","91.276147","true"
"ChIJk_Er8-b1UzcRwRBTgkoBIpE","COCO BISHALGARH ADHOC NG SAHA","Colonel Chowmuhani, COCO, Bishalgarh","23.8379033","91.2798929",""
"ChIJ-cLyexL0UzcR9V39SGS5oSw","IndianOil","Ground Floor, Durgabari, Agartala","23.834168","91.282123","true"
"ChIJP1ZzQgT0UzcRHOQVqsq0gg4","M/S Ashish Petroleum Agency","R7WM+638, Near Radhanagar Bus stand, VIP Road, Radha Nagar, Agartala","23.8456962","91.2827219","true"
"ChIJpam-D9D3UzcR-5dI_4YQO5Y","Annapurna Apartment","near Hindustan Petroleum corporation limited, Bhati Abhoynagar Airport Road, Barjala, Agartala","23.8635042","91.2761173","true"
"ChIJCbU2MAr0UzcRP58sosd-8ZM","IndianOil","Ground Floor, Ganaraj Chowmuhani, Banamalipur, Agartala","23.834458","91.287261","true"
"ChIJsb4wY8X3UzcRkUY6YVCYGYg","Adhoc BK PETROLEUM","near CNG Station, Barjala Road, Agartala","23.8697662","91.2738226",""
"ChIJ1eprlSv3UzcRxSc1aOUm3tU","Chicken Shop","1212, Agartala","23.8889241","91.24991709999999","false"
"ChIJm2jnCgD3UzcRN60_wS98QEc","Sri krishna petroleum agency","V7M5+HRP, Usha Bazar, Agartala","23.8836326","91.2593387","true"
"ChIJbT-yyqgLVDcR_Ria_xLB07w","G N G GAS STATION","bus station, Tinlakhpir","23.8056033","91.15080379999999",""
"ChIJvbjTn7H3UzcRFQMbLktPfFk","Manindra Chandra Saha Petroleum Agency ( Bharat Petroleum )","29, Bhati Abhoynagar Airport Road, Nutan Nagar, Agartala","23.8828695","91.2623002","true"
"ChIJG_M_VaX2UzcROPrQrwiapQY","Hindustan Petroleum Corporation Limited","Ground Floor, NH 8, Barjala, Agartala","23.865073","91.2794838","true"
"ChIJLal-ZQALVDcRQ4rkclVZ8HE","Faith LPG Refueling Station","R532+95F","23.8034382","91.1504179","true"
"ChIJCUTwTOjzUzcRDokdvFQrZvo","IndianOil","Ground Floor, NH-44, Chandrapur, Khayerpur, Agartala","23.838199","91.306719","true"
"ChIJ5QkAxe3zUzcRIvUIWEGvuhg","IndianOil","R7MX+PV9, Kalyani, Dhaleswar, Agartala","23.8342008","91.3004958","true"
"ChIJI4icBaXzUzcRkiN1gOAA5EA","IndianOil","NH-44, Khayerpur, Agartala","23.8450648","91.3312182","true"
"ChIJj8TSFbDxUzcRJzl2MBYxGh8","IndianOil","Ground Floor Radhakishore Nagar Jirania, Khayerpur, Agartala","23.8653558","91.340745","true"
"ChIJ12pqV1nxUzcRPOLzBfPloBo","D.C.Para Petrol Pump","near Banikya Chowmohani, Durga Chowdhury Para, R.K.Nagar, Agartala","23.8650062","91.3417697","true"
"ChIJ1YCc3MvxUzcRHiahOt-sDxo","M/S Monali analisa Petroleum","DC Para Main Road, Bodhjung Nagar, Radhakishorenagar","23.8651257","91.3420594",""
"ChIJieJHYhnyUzcR8CLjUtxWtJk","Tripura Natural Gas Company Ltd CNG Station","near CNG Station, Assam - Agartala Road, Khayerpur, Agartala","23.8447971","91.3516764",""
"ChIJ_zN23RryUzcRBQSBeVJuFzg","IndianOil","Ground Floor, Khayerpur, Ranirbazar","23.842971","91.355425","true"
"ChIJm-sxL7vxUzcRzwkeDp1qbuo","Monoram Clean Energy","V8MP+89P, Bamboo Park Main Road, Radhakishorenagar","23.8833312","91.33595199999999",""
"ChIJDzc3BADtUzcRiFSHIW6RuCU","Petrol Pump (Tiprasa Brothers)","RCM4+PJ8, Majlishpur","23.8342918","91.4065645",""
"ChIJxeiiNOjtUzcRvuYGRN4PJ04","Hindustan Petroleum Corporation Limited","Ground Floor, Bashiram Kobra Para, Madhabari, Jirania, Champaknagar","23.818481","91.420011","true"
"ChIJLUsQ31LtUzcREhVOme1yCNM","MS Friends Filling Station","Jirania, NIT Road, Birendra Nagar","23.8258494","91.4346697",""
"ChIJiWu95pztUzcR5mvzc8I37Hw","IndianOil","Ground Floor Jirania, NH 44, Birendra Nagar","23.818783","91.433759","true"
"ChIJj_XHxdL3UzcR7Jh_kiSQE0A","আল মদিনা লাইব্রেরী এন্ড পেট্রোলপাম্প","W648+RV8, Singarbill Road, Singerbil","23.9070462","91.21720909999999",""
"ChIJ4-PKg4r3UzcR7MtbtRKV2Jw","Singerbil Madhapara","W678+M52, Road, Singerbil","23.9141471","91.2154035","true"
"ChIJ1RZm3UT3UzcRY8BNrLOIk5w","Joy Guru Petroleum","Narsingarh Bazar Bhagalpur Road, Narsingarh, Agartala","23.9130765","91.2496499",""
"ChIJW6Q3kxX5UzcRK6I7ZMs-uCU","মায়ের দোয়া এলপিজি অটোগ্যাস ফিলিং স্টেশন এন্ড কনভার্শন সেন্টার","X637+R83, আদমপুর রোড, পত্তন, বিজয়নগর","23.9545192","91.2132845","true"
"ChIJ1ZhaKIL3UzcRqyPFaHHj_jY","IndianOil","Ground Floor Gandhigram, Salbagan","23.905442","91.283351","true"
"ChIJ-VH4mlvlUzcR0YxMNRIeVT8","IndianOil","Ground Floor, Airport, Mohanpur","23.9157039","91.2834553","true"
"ChIJN4IDhqv7UzcR0WS7E35Qtlc","IndianOil","Ground Floor, Fatikchhara","23.9577911","91.3282643","true"
"ChIJv-O-NjfvUzcRwUr7NB-nBaM","M/S. TIPRASA Petroleum Agency","Lefunga - Abhicharan Road, Abhicharan","23.914916","91.3773405","true"
"ChIJfWslRwDxUzcRmaofgNj-MkM","Mohanpur CNG MOTHER STN. ( under construction)","W9W2+288, Mohanpur Road, Kamalghat, Fatikchhara","23.9450397","91.3508274",""
"ChIJQ7lcStT7UzcRvawQDy9TAMw","Bharat Petroleum Petrol Station","X956+R2, Fatikchhara","23.95955349999999","91.3601039","true"
"ChIJHwhgzFXlUzcRxDZj7voc-wA","MAA MANASA FUEL STATION","National Highway 108B, Chandrakona, Taranagar","23.9612071","91.3824655",""