place_id,name,address,latitude,longitude,open_now
"ChIJkaxEOwB_UzcR0XvTgNKrKdc","সেলিম ফিলিং স্টেশন","Katalia Road","23.3178841","91.22359829999999",""
"ChIJr2w4eC2BVDcRYJWr66UxtW4","Prime Petroleum Services Limited","849Q+P2W","23.3193623","91.1375932","true"
"ChIJV_4qvCt9UzcRLjfFR9csvv0","রাসেল গ্যাস স্টেশন","Bazar, Jashpur, Meshtoli","23.2585455","91.25210249999999",""
"ChIJ4W-IB2aHVDcRhr7fBCNAkLQ","Aminul Haque Majumder LPG Filling Station","74PG+3QJ, Cumilla - Laksam - Sonaimuri - Chowmohani - Noakhali Highway","23.2852199","91.1269009","true"
"ChIJkTqFKgB_UzcRRBaRuahnGfI","MiyaBazar highway police station","বাবুর্চিবাজার","23.30578969999999","91.26984750000001",""
"ChIJt2agJvp_UzcRB0-RYJ3rh48","Abdullahpur Lpg Filling station","Abdullahpur Kashinagar Road","23.32262189999999","91.2650692",""
"ChIJ6-7decaAVDcR9T0uS1VnbzI","Sara Filling Station","84XW+FM7","23.34865869999999","91.14667659999999","true"
"ChIJz38JvRqEVDcREy4eAhepN0Q","এম আর ফিলিং স্টেশন (CNG Available)","R141","23.2720065","91.1245841","true"
"ChIJQxe2XEt5UzcR6UppvRQYtck","মেসার্স আল আমীন ফিলিং স্টেশন২০২৪","872R+72C","23.3006895","91.2900147","true"
"ChIJw6ePT_h_UzcRU0C3IR7D4GI","Numisi filling station","87GG+7XQ, Dhaka - Chittagong Highway","23.325716","91.27748419999999","true"
"ChIJBx0RnyF_UzcRZ1E7iZMIK18","Mia Bazar Filling Station","87MC+MRF, Cumilla","23.334178","91.27205370000001","true"
"ChIJC36guBl_UzcREI51f1z2ZIc","INTRACO CNG Refueling","87R8+2J9, Chandul","23.3400465","91.2666048","true"
"ChIJB6fEwBl_UzcRyIN0MIg4R00","Ambar Ali Filling Station","87R8+3HH, N1, Chandul","23.3401847","91.26648279999999","true"
"ChIJffUNI2F_UzcRsbU1HbtEJuw","Sonali LPG Filling Station","Mia Bazar, Dhaka - Chittagong Highway","23.346652","91.26171769999999","true"
"ChIJ-TjxgWt7UzcRJuiyPo44piM","K.R Filling Station","Harisorder bazar","23.2564682","91.3072904","true"
"ChIJU_-JS3N_UzcRTjoRzi0Suh0","Highway INN","9734+GG8, Dhaka - Chittagong Highway, Comilla","23.3537807","91.2563145","true"
"ChIJO2hC0Xd_UzcRMzWj4YsRKHM","Bhuiyan Gas Station","9772+59H, N1","23.3629309","91.2509716","true"
"ChIJaSJWk0B9UzcRK6ntqsMMXqs","খিরনশাল CNG STOP","চৌদ্দগ্রাম উপজেলা, A632 Khironshal","23.2259861","91.26998309999999",""
"ChIJe_NvbnN3UzcRMRu4-9VtyGo","M/s Maa Kamakhya Petroleum Agency","79RW+6Q, Joychandrapur","23.2901944","91.3964713",""
"ChIJCS9QDXlzUzcRSpGYnc4_rbw","IndianOil","Ground Floor, Barpathari, Laxmipur","23.2902017","91.3964791","true"
"ChIJ2UU01KZ7UzcRP2ljDifZ1Ng","M A Khaleque Filling Station","68P7+R8F, N1, Chauddagram","23.2370625","91.3133125",""
"ChIJg7LOUAB5UzcR7CusrqpnIxE","IndianOil","987G+7GF, Kathalia","23.3628995","91.3258357","true"
"ChIJEbpKcUyBVDcRYLoXnM1mbEw","National Filing Station","95G4+P9R, Comilla - Chandpur Road","23.3768553","91.1558824","true"
"ChIJQ7zDpCKAUzcRU1f7sggZbRc","Yusof Highway Filling Station","96QJ+9RR, N1","23.3884794","91.23201159999999","true"
"ChIJ_45K6yKAUzcRgjGytpRt9sM","Essa Garden (Pvt.) Limited CNG filling Station","N1, boto gram, West Dhaka - Chittagong Highway, Comilla","23.3877439","91.2327067","true"
"ChIJTaAVoBKAUzcRSGOsS0enOIc","Cumilla Filling Station","96XC+WRW, N1, Dhaka - Chittagong Highway, Comilla","23.4001089","91.2218307","true"
"ChIJycjF_yaAUzcRnJ_WBmguQ64","M/s. M A Hakim & Sons","96JQ+6CF, N1","23.38055510000001","91.2385364","true"
"ChIJIzzbKQB_UzcRKpt1tBaetlY","অলিউল্লাহ ফিলিং অ্যান্ড এলপিজি স্টেশন","ওলইন, সুয়াগাজী","23.3759275","91.2409773",""
"ChIJfVwRfXSAUzcRB0EbRqul5AE","Taj CNG, LPG & Fuel Filling Station","N1, Comilla","23.4044708","91.21654219999999","true"
"ChIJEWit0I9_VDcRTizI7tGBkt8","Advance CNG & LPG Filling Station","C663+F4F, Dhaka - Chittagong Highway, Comilla","23.4111875","91.2028125","true"
"ChIJixsfA4R_UzcRXQqYgjUAF0A","রাহাত ফিলিং সেন্টার","N 1, Comilla","23.3713125","91.2453125","true"
"ChIJnenQzJB_VDcROyt6BBtrCa4","M/s. Mallika CNG Filling Station","N1, Comilla","23.4116875","91.1976875","true"
"ChIJwSuQ6rx_VDcRVlxZm_8s-ww","Abdul Ali Filling Station","C56Q+RQ7","23.4120293","91.1894202","true"
"ChIJgyHDq0x-VDcRDrhWJJnvRTU","Hazari Filling Station","C55F+599, Chandpur, Sadr","23.4079008","91.1734788","true"
"ChIJ_RxS0kx-VDcRqd-kzUtowhw","Abdur Rahman CNG Station.","C56F+3C2, Comilla - Chandpur Road","23.4101371","91.1735281","true"
"ChIJ-SaV0MB_VDcR-tpu19EP39g","Classic Filling Station","C57J+C92","23.4135044","91.1809011","true"
"ChIJWa7tnIN_VDcRGGaLu7Xmbj8","RBSZ CNG Filing Station","Ashik Tower, Dhaka - Chittagong Highway","23.4144476","91.18186779999999","true"
"ChIJZ4hg55yBVDcRUOOx377ZPXQ","ZAMAN CNG LPG & FILLING STATION","Comilla - Chandpur Highway, লালমাই -বরুড়া সড়ক, কুমিল্লা","23.3537979","91.1385042","true"
"ChIJRfboZgB_VDcRTY9GzawMMEs","Belghor EST lalmai Camilla","Belghor EST, Lalmai","23.4189058","91.1726637",""
"ChIJjwXqUax_VDcRCvVLVsCTkKE","মেসার্স নুরুল ইসলাম হাজারী সি.এন.জি এন্ড ফিলিং ষ্টেশন","পদুয়ার বাজার - হীরাপুর - দিশাবন রোড, Comilla","23.4190433","91.17227989999999","true"
"ChIJCTK7DlR-VDcR2bLPAj9BeQs","South CUMILLA CNG Filling Station","C5C9+2VH, N1","23.4200599","91.16973709999999","true"
"ChIJ-U-JElR-VDcRsiHPntvO76k","Halim highway services","C5CC+53C, Paduar Bazar Bishwa Road","23.4204478","91.1701384","true"
"ChIJ3UtE5VZ-VDcRWN73p8BFDeU","Diamond Filing Station","C5C8+QR6, N1","23.421907","91.1670187","true"
"ChIJAVB5Cld-VDcRb--teGJdlys","Moon Highway CNG Filling Station","C5F8+35R","23.4227327","91.1653822","true"
"ChIJAR_iUVh-VDcRXevZBoijoTc","Highway Gas Station","C5F6+7W3, Dhaka - Chittagong Highway","23.4231475","91.1622924","true"
"ChIJMe_1Wwd_VDcRjqyp3woz9LU","তামজিদ সিএনজি ও এলপিজি ফিলিং স্টেশন","Road Dhaka - Chittagong Highway","23.4233721","91.16236909999999",""
"ChIJie4rjlh-VDcRrid7bNT8WY4","River View CNG & Filing Station","C5F6+WCG, N1","23.424802","91.1610877","true"
"ChIJW0hJbJ-BUzcRO1QPIDjdrt4","Madina LPG Filling Station","Comilla Chittagong Bypass Road, Comilla","23.4317158","91.21510409999999","true"
"ChIJO5s7q1h-VDcR3Yj1bwgLPSE","Good Luck Filling Station","C5G5+5PX, N1","23.4254785","91.15935929999999","true"
"ChIJcdYwIgB_VDcRhuvyXmeP0Vg","Loskor bari.huripur.burichong.cumilla","Loskor bari, Haripur","23.4498326","91.18466219999999",""
"ChIJszzuRgB_VDcRP3DjEzjtVKk","চিড়া ও মুড়ি মিল","C5XM+WVM, Cumilla","23.4498326","91.18466219999999",""
"ChIJ5So6HSJ_VDcRvlF8CzUljQw","Eastern Trading Corporation","F52H+38H, Laksham Road, Comilla","23.4501832","91.17836040000002","true"
"ChIJv9I8dl1_VDcRJHo71x-g0eo","M A HAKIM & BROTHERS, GUDUR PUKUR PAR, CHAWKBAZAR, CUMILLA, BANGLADESH","Chowk Bazar Road, Comilla","23.4598487","91.2019304","true"
"ChIJXQ_xrEh_VDcR1gcdEY_rdq8","Nurul Huda Filling Station","F56W+MMP, Chowk Bazar Road, Comilla","23.4618606","91.1971573","true"
"ChIJ6Yo7hH5_VDcR-xw-sSSaqIE","Petrol station","F56V+M2P, Sadar Hospital Road, Comilla","23.4617082","91.1925893",""
"ChIJ1YjKm6F_VDcRJKOdICeuvN0","M/s Sharif Enterprise","F56V+Q24","23.461886","91.1925638","true"
"ChIJb5kaJKZ_VDcRWHO1gttMcDY","Hridoy enterprise","F54G+PWF, Cumilla","23.4568214","91.177301",""
"ChIJOzGK6uOBUzcRBtBMoqsaKMo","Monir Store","C6RM+857, Durlovpur Road, Comilla","23.4407951","91.2329166",""
"ChIJDbTHqfZ_VDcRVJm9G3g0DTc","বাংলাদেশ জেল কারারক্ষী ব্যারাক, কুমিল্লা","F59G+24M","23.4675849","91.1753098",""
"ChIJY4ghmK5_VDcRBFGfVKDH1v8","S.K Filling Station (এস.কে ফিলিং স্টেশন)","Cumilla","23.4289375","91.1546875","true"
"ChIJqU5XcI1-VDcRwnyoIepIZak","Haque CNG Filing Station","C5P3+P35, N1","23.4367678","91.15273529999999","true"
"ChIJGZjyFAB_VDcRIJCuS0iI5f0","জিল্লুর বাতা বাড়ি কুমিল্লা","C4PX+QP, Cumilla","23.4373951","91.1506036",""
"ChIJyVDVdBBmUzcRO0IbxRycDxk","Shahriar Hanif","N1, Comilla","23.4415575","91.15046129999999","true"
"ChIJg8M5Kz5_VDcR9iOMpB61i_k","Kotbari Filling Station","C5V2+C2G, bishow road, Kotbari","23.4435608","91.1500712",""
"ChIJ3b0euwZ_VDcR8IXegggXOz4","EASTERN FILLING STATION","F587+W22","23.46725919999999","91.1625227","true"
"ChIJd7vPDQB_VDcRERNUFasNOGk","কুমিল্লা ক্যান্টোমেন্ট","F553+CCH, Cantonment Road, Comilla","23.4585718","91.1536121","true"
"ChIJCxZwNpZ-VDcRGwvBoZEslbY","Bangla GAS","C4XX+84C, Dhaka - Chittagong Highway, Comilla","23.4483165","91.1477527","true"
"ChIJdYANS6N-VDcRvWpV3DncvYU","Mukti Filling Station","Dhaka - Chittagong Highway, Comilla","23.4543528","91.14478559999999","true"
"ChIJTVy0u6V-VDcRhmBnYtLSEpU","CNG Zone Filling Station","N1, Pduar bazar, Dhaka - Chittagong Highway, Comilla","23.4595163","91.1416876","true"
"ChIJi9nppcV5VDcRQT6ICBg5iSk","Energy Tech LPG Filling station","Janata bazar, uttar magicha, post office, shimpur, Fakir Bazar Road, কুমিল্লা","23.49229979999999","91.18980619999999",""
"ChIJb0BWZq9-VDcRw2kKjz-rgsM","Sonali Filling Station","F46R+PMX, N1, Comilla","23.46186939999999","91.1417302","true"
"ChIJ_yxPaq9-VDcR0AxheKAHtxA","Rahmaa Gas Station","F47R+4H6, N1, Comilla","23.4627896","91.1413949","true"
"ChIJP0vKegB_VDcR-wnOwGdlEns","মুক্তি ফিলিং স্টেশন","F47R+R83","23.4645147","91.1407988",""
"ChIJlZ_CNal-VDcRZn9QcqAv2vk","G. Das Gas Station","F48Q+9WG, N1","23.4659331","91.1398423","true"
"ChIJC7_Fzq5-VDcRYFagrbL-9Xo","Zannat Filling and CNG Services (LTD)","F48Q+9R3","23.4658952","91.1395569","true"
"ChIJtVJ6dat-VDcRK3MzgYtr2J4","Swajan Gas Station","F4CQ+5GW, N1","23.4704936","91.13883109999999","true"
"ChIJpzboPat-VDcRGQY6x2hHhTQ","Rana (Arafat) C.N.G Filling Station","Alekharchar, N1, Comilla","23.4720474","91.1384762","true"
"ChIJh3T0qB55VDcRjJaMo2KRZZc","M/S Mainamati view","F4GP+7RQ, Cumilla","23.47571869999999","91.13710110000001",""
"ChIJO-4RklV5VDcRdxtSbTrHBQQ","moynamoti cng filling station","CML03, Comilla","23.47758","91.13579229999999","true"
"ChIJcZgtYv57VDcRftg0jcMR_Jc","Naimul Filling Station & LPG","N1 Comilla, N1","23.4781664","91.13291459999999","true"
"ChIJ0bLZwLaGUzcROx4QbeaawjI","IndianOil","Ground Floor Sonamura, Kathalia","23.479956","91.27381100000001","true"
"ChIJO-JIXkyHUzcReM75Jw_tBlg","Hindustan Petroleum Corporation Limited","No 171, Dhaliai, Sonamura","23.48155","91.2766426",""
"ChIJ961Q8KObUzcReaPzTcRrM8I","M/S Ishita Petroleum Agency. BPCL","Unnamed Road, Chandul","23.4851777","91.3719871","true"
"ChIJJXk5su2EUzcRNK8uUEbvW8I","IndianOil","Ground Floor, Melaghar","23.49944899999999","91.33946399999999","true"
"ChIJEzoIcwCFUzcRPihau43UKoo","CNG Station","F8XQ+VPQ, Melaghar","23.4997015","91.339351",""
"ChIJu0Vxt4qFUzcRqnEcjurdVF0","Bharat petroleum","G84R+R29, Melaghar - Bishramganj Road, Bishramganj, Melaghar","23.5070428","91.3401114",""