place_id,name,address,latitude,longitude,open_now
"ChIJFQOPl8NDWjcREZBugajdflM","Assam Oil","Rani gate, 37, National Highway, Ganakpara, Guwahati","26.0987878","91.6111936","true"
"ChIJIf046HxcWjcRCfCuJ2bZavY","Hindustan Petroleum Corporation Limited","Ground Floor, near Balaji Temple, NH 37, Bypass, Katabari, Guwahati","26.115411","91.718491","true"
"ChIJCz2Yu3xEWjcRMr4ZZsnE2nA","IndianOil","Ground Floor, Khaliha, Dharapur, Bargaon","26.137563","91.63310200000001","true"
"ChIJ1RcvprhcWjcRisyVQiebDbI","Hindustan Petroleum Corporation Limited","Ground Floor, Garchuk - Pamohi Road, Pamohi, Guwahati","26.1028162","91.69200719999999","true"
"ChIJg8pLXUJDWjcRJX7U0UWwpFE","IndianOil","Ground Floor, Dipor Bil,Moinakhurung Chowk","26.111615","91.660027","true"
"ChIJTUZzEQBdWjcRo6vio0JyAPU","DV Kisan Seva Kendra","4M3X+Q53, Pamohi, Guwahati","26.10438689999999","91.6979064",""
"ChIJ9QmGUgtdWjcR-rNKDXvy6L8","Bharat Petroleum","Boragaon, Guwahati","26.1046829","91.6984619",""
"ChIJmREclDddWjcRXvN8-84BOvw","IndianOil","Ground Floor, NH 37, Garchuk, Boragaon, Guwahati","26.118752","91.69663899999999","true"
"ChIJvYkVwJhcWjcRr0bnjP5UaqM","IndianOil","Gotanagar, Paschim Boragaon, Guwahati","26.120581","91.69448899999999","true"
"ChIJlysbZFVbWjcRHd4flxE0b6E","IndianOil filling station","Tetelia, Guwahati","26.126644","91.677582","true"
"ChIJ10OtIRtDWjcRk-D97lMTvpA","IndianOil","Ground Floor, Borjhar, Kahikuchi","26.098815","91.611243","true"
"ChIJdcDJAL1dWjcRhDjxa9DmYlQ","ABHINAB SERVICE STATION","Shop 1, barpeta","26.1156114","91.7086412",""
"ChIJ0eKPUABdWjcRR6OMpE4ArRk","বেলগুড়ি","4P85+8C8, Guwahati","26.1157917","91.7085933",""
"ChIJbzWzcWpdWjcRsNo_mWpbGhI","Brothers Traders","Shop No 12, nearby New Market, Dharmapur No 1","26.1157914","91.7085953",""
"ChIJDQpxc9xdWjcR8Uf43yJa1bo","Doorstep fuel Delivery","Lahara Para","26.1160612","91.7086324",""
"ChIJjcY6owxdWjcRtiiRY62LmLc","Hp Petrolium Pvt Ltd","Hp Petrolium Pvt Ltd, Gorchuk, Guwahati","26.1234745","91.6979728",""
"ChIJ915Phe9BWjcRNBXoE5OPnaE","Petrol Pump","3H3X+H4P, Kallapara","26.0539733","91.5978177","true"
"ChIJqSqu6NBdWjcRvdUQYpMoAYo","IndianOil","Ground Floor, near Isbt Complex, Betkuchi, GARCHUK, Guwahati","26.115382","91.72377999999999","true"
"ChIJcYxecQBdWjcRFRzL9Bz2tQw","ASTC Swagat RO (অসম ৰাজ্যিক পৰিবহণ নিগমৰ ইন্ধন বিক্ৰেতা))","Isbt, Main, ISBT Flyover, Guwahati","26.1153387","91.7239788","true"
"ChIJMwfyvopDWjcRdnhSvXB2Jb0","IndianOil","Ground Floor, NH 37, Azara, Guwahati","26.1257775","91.6188172","true"
"ChIJ7XDJtllFWjcRVMSUCzWDCfU","IndianOil","Gotanagar, Jalukbari, Guwahati","26.142143","91.675522","true"
"ChIJOQ_Vf1ZdWjcRxLB1ZfjHWYI","Hindustan Petroleum Corporation","AHOM GAON, Guwahati","26.1140625","91.72931249999999",""
"ChIJS-hbao5FWjcRKZNmIpynJH0","Pradip oil depot dharapur","4JQM+478, Dharapur, Guwahati","26.137787","91.63319399999999","true"
"ChIJCdZ-vSFdWjcRbLrFr20AAHs","CRI PUMPS PVT LTD GUWAHATI BRANCH","near Binod Nissan show room, Betkuchi, Guwahati","26.1124708","91.7326068","true"
"ChIJKeHpam1cWjcROPjyGEHDsz8","Hindustan Petroleum Corporation Limited","Ground Floor, Sawkuchi, Betkuchi, Guwahati","26.1124191","91.73320319999999","true"
"ChIJQ7JPdIFdWjcRj73WSXEshos","Amit motor","4P7J+CXW, Betkuchi, Betkuchi, Lokhra, Guwahati","26.1136149","91.7324388",""
"ChIJvapX3hpcWjcRySZ9ExbflPk","Bharat Petroleum filling station","Lokhra, Guwahati-bypass, NH 37, Kamrup","26.1121707","91.74627930000001","true"
"ChIJAS3KZjBfWjcRaA-UkDlzdwA","IndianOil","Ground Floor, NH 37, Beltola, Beharbari","26.1113315","91.7508903","true"
"ChIJrRaS-hxcWjcR_BOcxwg62BE","IndianOil","Kamrup, Fancy Bazar, Bypass Road, Guwahati","26.111324","91.750911","true"
"ChIJySf3ycVeWjcRht8wK-x802Q","Bharat Petroleum HKS SERVICE STATION","4Q6H+8RJ, NH-37, Nalapara, Lalmati, omlogistic","26.1108376","91.7795196","true"
"ChIJJ4criyVfWjcRoI1CIepGnj0","IndianOil","Ground Floor, 44, Guwahati","26.1126972","91.79879799999999","true"
"ChIJaTX2rRJcWjcRCYoTqRUBSp4","IndianOil","Kamrup, No 37 Lakhra Chariali, Saokuchi","26.1120777","91.7486923","true"
"ChIJJUA5rEldWjcRT0nJkafF1r8","MUNNA Shaw Ayush Auto Mobile Lokhra GUAWAHTI","AYUSH AUTO MOBILE, Lokhra Road, Padit Hotal, Guwahati","26.1117875","91.75168939999999",""
"ChIJnSVdsrVfWjcRsQjPvnmo-7I","Shivam Service Station","Beharbari Road, Beharbari, Guwahati","26.1115328","91.7736965",""
"ChIJRd6njsdeWjcRWmBnNRDcbxU","IndianOil","NH 37, Beharbari, Guwahati","26.111509","91.77381899999999","true"
"ChIJdQCCMjJbWjcRyPedcmXZR2Y","Bharat Petroleum, Petrol Pump -Nes Lokhra Road","4PGW+C94, Lokhra Road, Sawkuchi, Guwahati","26.1265062","91.74467489999999","true"
"ChIJ1V0C8hBfWjcRgwNun9RKRwE","Fuel Service Station","House No-19, Link Road DakhinGaon-Sawkuchi Road, Sawkuchi, Lokhra, Guwahati","26.12211839999999","91.7610684","true"
"ChIJg6Uq3xpbWjcRz_Mb5ZkQsUw","Hindustan Petroleum Corporation Limited","Ground Floor, Lokra Lal Ganesh Rd, Sawkuchi, Jyotikuchi, Kamrup","26.126521","91.744911","true"
"ChIJxaepSgtcWjcRPOXJVJcqrFc","Raj Energy Station,Jyotikuchi","Jyotikuchi, Guwahati","26.130292","91.73706659999999","true"
"ChIJpeJ_YfRbWjcReYcJIeHlTgY","Jyotikhuchi Petrol Pump","Sonaighuli, Guwahati","26.1303296","91.7370029","true"
"ChIJq5evALhbWjcRJ8BkJTX_4HE","SUNRISE PETROL PUMP BPCL","4PHC+G88, Natun Basti, Dhirenpara, Guwahati","26.1287953","91.7208382",""
"ChIJucO12oZbWjcRICetjr-9mdo","IndianOil","Beltola, Fatasil, Datalpara, Guwahati","26.129401","91.720551","true"
"ChIJy1aC3U1fWjcReDaNZr2dLFA","Bharat Petroleum, Ghoramara","123, Hockey Stadium Road, BIKASH NAGAR, Guwahati","26.1207065","91.7768186","true"
"ChIJyeKMIOVfWjcR_7UMzmnxT5o","Bharat Petroleum","4Q7P+RFH, Bhetapara, Guwahati","26.1162156","91.78671229999999","true"
"ChIJxeBE29dfWjcRzce-I8EBnIM","IndianOil","Ground Floor, Beltola Tiniali, Guwahati","26.1140977","91.7899561","true"
"ChIJo9TkbvJbWjcROEPTlF8F2JE","Hindustan Petroleum Corporation Limited","Ground Floor, Lokhra Road, Odalbakra, Lal Ganesh, Guwahati","26.139031","91.740321","true"
"ChIJUezbQVBZWjcRAZbp3D_XYNg","MUSTARD OIL","4QP6+6V8, DGM Road, Odalbakra, Kahilipara, Guwahati","26.135535","91.76219479999999",""
"ChIJfwe9JBBbWjcRAglddLo3vm8","M/S choutaki service station","Choutaki, & Amul factory, Near Kali Mandir, Guwahati","26.14086379999999","91.7436152",""
"ChIJFVayipBbWjcRmjDuMqRV0Zo","Hindustan Petroleum Corporation Limited","Ground Floor, near Bathu Mandir, AK Dev Road, Guwahati","26.14188399999999","91.726469","true"
"ChIJ6zZAKu9bWjcRHlO5dCJ8jSo","IndianOil","Ground Floor, Metropolitan, Odalbakra, Lal Ganesh, Guwahati","26.14291","91.741585","true"
"ChIJMXgDKu9bWjcRCc4gtAFunOU","Bharali Service Station","4PVR+5M8, Lokhra Road, Kalapahar, Lal Ganesh, Guwahati","26.14292289999999","91.74171369999999","true"
"ChIJv1QLHghfWjcRDMrrTSOdRnM","IndianOil","Beltola - Basistha Road, Bongaon, Guwahati","26.116769","91.79795299999999","true"
"ChIJo9_QZ_D1WjcRjkySBywx54o","IndianOil","Ground Floor, 9th Mile, Byrki, Jorabat","26.11115","91.83984459999999","true"
"ChIJq10oven1WjcRtqtUuCR2uHw","IndianOil","Jorabat","26.1080688","91.84954640000001","true"
"ChIJtR5sasxYWjcRAzQHp0HFDmE","Bharat petroleum","Manisha Apartment, 167, Jayanagar Road, Jaya Nagar, Khanapara, Guwahati","26.1288458","91.8062953","true"
"ChIJfWQtZsj1WjcRj0KMtFF84gI","Hindustan Petroleum Corporation Limited","Ground Floor NH 37, 10th Mile, Khanapara","26.10237009999999","91.8621409","true"
"ChIJAydV0tdYWjcRellVw2FUsdA","Bharat Petroleum, Petrol Pump -Raja Rajendra Narayan Deb Service S","Beltola - Basistha Road, Wireless, Basisthpur, Guwahati","26.1338595","91.79333","true"
"ChIJSdV7BdBYWjcRW3zcXkwmZSk","IndianOil","GS Road, Rukmini Gaon, Guwahati","26.135972","91.801814","true"
"ChIJe87s5Sb1WjcR8HOfdv8jklg","IndianOil","Ground Floor, Byrnihat","26.045069","91.868116","true"
"ChIJq5qBlyD1WjcRYIoV83J9H1w","Ribhoi Filling Station - Bharat petroleum","National Highway 40, Byrnihat","26.0486426","91.8703275","true"
"ChIJ8xY6aFH0WjcRwjZt4jvckm8","IndianOil","Ground Floor NH 40, Byrnihat","26.084177","91.876863","true"
"ChIJ7-iq90n0WjcRVS3QMjjcns4","Hindustan Petroleum Corporation Limited","Ground Floor, NH 40, 12th Umpher, Byrnihat","26.0885455","91.8767627","true"
"ChIJqbPsesdYWjcRxOfEY7Te8Ys","Hindustan Petroleum Corporation Limited","Ground Floor, Chachal, VIP Road, Guwahati","26.1398914","91.81157739999999","true"
"ChIJ33GIlyVZWjcR_BF78R4JmiU","Bharat Petrol Pump","4QQP+7F7, Brahmaputra Housing Path, Bhetapara, Guwahati","26.1381736","91.78616079999999","true"
"ChIJBcSADEr0WjcRczq6rP7lYrc","IndianOil","Ground Floor, Jorabat, Byrnihat","26.100047","91.8747001","true"
"ChIJfbCUn_30WjcR_-gHgWt3AB8","Reliance Petroleum","PATTA NO5, OF 1994, VILLAGE AMULKUCHI, Khanapara","26.1038418","91.8162042","true"
"ChIJr_p-M3L1WjcRRUsPg1c0q98","IndianOil","Ground Floor, Upper, Jorbil Road, Marwet, Khanapara","26.0859515","91.8443997","true"
"ChIJ98v74M71WjcRJcktH4owb5s","IndianOil","Gate No 2, Ground Floor 9 Smile, opposite CRP Camp, East Khasi Hills, National Highway 27, Baridua","26.1033977","91.8391401","true"
"ChIJl62xjAT1WjcR5Q5DcZ68pO8","IndianOil","Ground Floor, 9th Mile, Baridua Roid Marwet, Khanapara, Byrnihat","26.1039428","91.83871979999999",""
"ChIJKwTWqfX1WjcR1ddUbzl9sgE","Bharat Petroleum Petrol Pump","4R2X+67W, Killing Road, Jorabat","26.1006225","91.84819619999999",""
"ChIJ4-2Y4fn1WjcR944Yzyi7Y8Q","VW bharat petroleum Highway Fuel Station","37, National Highway, Them Marwet, Baridua","26.1126527","91.8357253","true"
"ChIJfdZYaDj1WjcRZTluNezQc1Q","Nayara Fuel Station","4R6Q+R3V, National Highway 27, Them Marwet, Guwahati","26.111991","91.837464",""
"ChIJR-RHFQD1WjcRdzTtCgoaVoo","Black diamond refill center","4R6Q+FW7, 8th mile","26.1111564","91.83979719999999","true"
"ChIJlTx6ctJfWjcRfoS43BgamTo","Bharat Petroleum, Petrol Pump -Sanjeebani Fuel Point","MOIDAM GAON, BELTOLA","26.1215345","91.7984505","true"
"ChIJB1932O_1WjcRifbMVOEMsmk","IndianOil","37, National Highway, Bojora N.C.","26.110122","91.8416814","true"
"ChIJ0YYsBFRfWjcRqkYh3mivD10","IndianOil","Ground Floor, Khanapara, Byrnihat","26.11907","91.827293","true"
"ChIJBZTq9HdfWjcRWrAGcRLFWPY","IndianOil","Ground Floor, Themmarwet, NH-37, Khanapara","26.11859119999999","91.8299901","true"
"ChIJeSJiwu71WjcRgSN9RR6CcIk","IndianOil","Ground Floor, 9th Mile Baridua Roid Marwet, Khanapara, Byrnihat","26.108828","91.845218","true"
"ChIJNQyaaD31WjcR6s_lbibgkp4","Marwet oil services pvt ltd","Baridua 9th Mile","26.109082","91.845095","true"
"ChIJ6bsdVhT1WjcRK_j7CrZQeZ4","IndianOil","Ground Floor, 9th Mile, Jorabat, Byrnihat","26.105764","91.85445399999999","true"
"ChIJIQnuZMH1WjcRW3yjw_u0igE","Ri Bhoi Gas Station","Jorabat","26.1059375","91.8548125","true"
"ChIJuWxzF-9ZWjcR9VWGNtU-FGQ","IndianOil","Ground Floor, Lachit Nagar, Guwahati","26.128713","91.811092","true"
"ChIJufwfBABZWjcRZpsbj76dfLM","BPCL JAYANAGAR PETROL PUMP","MINA COMPLEX, below CAFE WINGS, near Bharath Petrol Pump, Jayanagar Road, Jaya Nagar, Six Mile, Guwahati","26.12897139999999","91.8062549",""
"ChIJDz0I5cb1WjcR90HbwM_0rME","Jorabat Refilling Centre","4V35+H5J, National Highway 37, Jorabat","26.1039627","91.8579018",""
"ChIJDz0I5cb1WjcRPRax3Ix1ENY","IndianOil","Ground Floor, Khanapara","26.104353","91.85800599999999","true"
"ChIJaeBryzb1WjcRPSH59OF-ZQ8","Hindustan Petroleum Corporation Limited","Ground Floor Amjok, Umtru Dam Road, Byrnihat","26.0375528","91.8563676","true"
"ChIJw7HYtsn1WjcRHmUV0k_jmY8","Bharat Petroleum, Petrol Pump -NES Jorabat","JORABAT, RI BHOI","26.1016329","91.8637337","true"
"ChIJK77GXQD1WjcR2MIIv1mFYGk","Relience pump byrnihat","Jio petrol pump, 1994, Sonai N.C.","26.0677195","91.87209170000001",""
"ChIJV4EMfeL0WjcRs-6TW96WeZ4","IndianOil - SWAGAT","Ground Floor Tamulikuchi, 14th Mile, Byrnihat","26.0617659","91.8712614","true"
"ChIJiafe2Xz1WjcR5QbV7iEwKPk","IndianOil","Khana, Ground Floor Mawsmai, 11th Mile, Byrnihat","26.101025","91.86703","true"
"ChIJUbE3ewD1WjcR92yTD61eMHA","Merrily Service Station","17 Mile, Pahamlang, Byrnihat","26.0515133","91.8696411","true"
"ChIJhc4MLgD1WjcRwJxxwWQ55r8","BURNIHAT","3V29+JV2, Byrnihat","26.0515133","91.8696411",""
"ChIJjxCIIyhZWjcRey_CXltOoPI","Beltola Wireless","4QMR+WXM, Beltola Road, Wireless, Basisthpur, Guwahati","26.134826","91.79242459999999",""
"ChIJU_H66jVZWjcRutBcLZ2e-_k","IndianOil","Ground Floor, Beltola Road, Guwahati","26.135214","91.792031","true"
"ChIJ089I05H1WjcRkQpHQBFP0Cw","IndianOil","Ground Floor, next to Meghalaya Plywoods, 13th Mile, Byrnihat, Tamulikuchi, Sonai N.C.","26.07667799999999","91.87521699999999","true"
"ChIJL2rwKgBZWjcR8Axqu_8wNlc","Kiran service station","4QPR+5Q8, Wireless, Basisthpur, Guwahati","26.1352814","91.79199659999999","true"
"ChIJnbBYn831WjcRIjVtM-abaSg","Premier Mega Hub (India’s Largest Fuel Outlet)","Jorabat NH 27, Mawsmai","26.0996865","91.8697335","true"
"ChIJ4WI9FE71WjcRRSVBvbGw6Iw","Bharat Petrol pump","3VRG+PF6, Jorabat","26.0917868","91.8761294","true"
"ChIJHx98XDVbWjcRZ2jBLl7FBFo","IndianOil","Ground Floor, Nalbari, Nankar Bhaira, Guwahati","26.1504974","91.6771943","true"
"ChIJ_RVmxjNbWjcR-XMgMFeK1n8","IndianOil","Ground Floor, Jalukbari, Guwahati","26.157867","91.6777255","true"
"ChIJAVJ4AzFbWjcRyPZ3KvyFpfQ","NES Adabari Petrol Pump - Bharat petroleum","5M5M+77Q, Pandu, Guwahati","26.1582164","91.6832246","true"
"ChIJoey4-AVbWjcRu-MnRjhhe6w","Hindustan Petroleum Corporation Limited","Ground Floor, Maligaon, Guwahati","26.161045","91.7098975","true"
"ChIJZ5deCRJEWjcR5YapZfLHfcQ","BPCL Petrol Pump Super Service Station","Dharapur, Guwahati","26.1388875","91.6136406","true"
"ChIJfdPc2w9EWjcRgObigsl2ydE","IndianOil","Ground Floor Bhatapara, Azara, Dharapur","26.138433","91.60965700000001","true"
"ChIJWSvSlrJbWjcR57xWJMpwRtU","IndianOil","Ground Floor, Santipur, Guwahati","26.171215","91.725517","true"
"ChIJNTgM75JaWjcR9r8KymG9SRg","IndianOil","Ground Floor Abhoypur, College Nagar, Gauripur","26.198787","91.70356699999999","true"
"ChIJ33SYDLJaWjcRJURDvJKBkqY","Hindustan Petroleum Corporation Limited","Ground Floor, Amingaon, Guwahati","26.2083669","91.6797203","true"
"ChIJG9pr_UpaWjcRVWER0aHLu60","Hindustan Petroleum Corporation Limited","Ground Floor, TR Phookan Road, Machkhowa, Guwahati","26.175152","91.7321401","true"
"ChIJW9ecEMRbWjcRGYeKJtJK3mw","IndianOil","Lokhra Road, Pahartoli, Guwahati","26.156192","91.739629","true"
"ChIJn_JXMmBaWjcR86mbRXqk63Q","IndianOil","Ground Floor Abhaypur, College Nagar, Changsari","26.1992351","91.7156136","true"
"ChIJCfomxTVaWjcRf8r-8iMWqxU","IndianOil","Machkhowa, Guwahati","26.177858","91.73614099999999","true"
"ChIJPZT0FcBbWjcR17zaXa38s9U","Chandmal Sarawgi & Company","Adabari, Guwahati","26.1578675","91.6799144","true"
"ChIJDYedczFbWjcRQgepPaxlgNI","Hindustan Petroleum Corporation Limited","Ground Floor, Jalukbari, Guwahati","26.157937","91.6819087","true"
"ChIJPXAi87lScYcR4X7aq24VAAw","A2Z Enterprise","Rly qno 126B, BBC Colony, Pandu, Guwahati","26.1644378","91.6822825","true"
"ChIJExp-dm1bWjcRXlwLvsS07NU","NRL","5M9H+C5C, Adabari, Guwahati","26.1685615","91.6778868",""
"ChIJEbM2Vj1FWjcRW_pBwja4ZJs","Siddhivinayak service station (Retail outlet of BPCL)","Guwahati-Hajo Rd, Agyathuri, Amingaon, Guwahati","26.1859718","91.6567261","true"
"ChIJwXdbVj1FWjcRXoiLmisH_ts","भारत पेट्रोलियम","India","26.1860212","91.65676069999999",""
"ChIJbVzaCBFFWjcRiMqRk53jMdE","Bharat Petroleum, Petrol Pump -Dulo Service Station","AMINGAON,AMINGAON-HAJO ROA, KAMRUP","26.1894642","91.64964259999999","true"
"ChIJZS6L8SlFWjcRqAUVG7m2CSU","Hindustan Petroleum Corporation Limited","Ground Floor, Agyathuri","26.190881","91.647798","true"
"ChIJ2TEhc0tFWjcR8sEt_OUyQNI","IndianOil","Ground Floor, Opposite Assam Ispat, College Nagar, Amingaon, Guwahati","26.2016518","91.6739637","true"
"ChIJ2Z0iMgBFWjcRQjzu2FqGdz4","Sikha service station","6M4F+7X4, Mahekhaiti, Amingaon, Guwahati","26.2054643","91.67479850000001",""
"ChIJa8ck515aWjcRFDEMv71bEB0","Bharat Petroleum, Petrol Pump -Dol Gobinda Filling Station","North Guwahati, Guwahati","26.192359","91.7174201","true"
"ChIJp9xDPgxbWjcRG6Oviks4U3A","IndianOil","Ground Floor, Amingaon, Guwahati","26.208809","91.685138","true"
"ChIJ5zoGwMVbWjcRedaCP62eCA8","IndianOil","Cycle Factory, Indian Oil Petrol Pump, Fayal Ahmed Road, Kala Pahar, Guwahati","26.1593537","91.74045249999999","true"
"ChIJ7xBp5BlZWjcRakOy1HMnPWY","Bharat Petroleum ola hypercharger, Petrol Pump -Nes Zoo Road","Zoo Road, Guwahati","26.1590035","91.78170999999999","true"
"ChIJvRfopURZWjcRU1cXnRNB3M8","Bharat Petroleum","NARAKASUR, Bongshar, Gopinath Nagar, Jonaknagar, Kahilipara, Guwahati","26.1425069","91.7644972","true"
"ChIJ7Wc4e3dZWjcRVyKLpewG2tg","Hindustan Petroleum Corporation Limited","Ground Floor, Ulubari, Guwahati","26.1686908","91.7641372","true"
"ChIJCd6y_TFaWjcRWYVmMuKg1po","Hindustan Petroleum Corporation Limited","Ground Floor, Assam Trunk Road, Guwahati","26.1791835","91.74395609999999","true"
"ChIJdatsn4BZWjcRVOAGgW21J-w","IndianOil","Ground Floor, Ulubari, Guwahati","26.177027","91.75410500000001","true"
"ChIJkZc28S5aWjcRpyouDYxEJE0","IndianOil","Ground Floor, Paltan Bazaar, Guwahati","26.180599","91.746742","true"
"ChIJsezaWxFZWjcR3qqXVRIf_Ew","IndianOil","Ground Floor, Christian Basti, Guwahati","26.155626","91.778526","true"
"ChIJTUH5kp9ZWjcRZY6UGGqlVd4","IndianOil","Rajgarh Road, Silpukhuri, Guwahati","26.173878","91.77251400000002","true"
"ChIJ7xBp5BlZWjcR1b2XVJOVJeg","IndianOil","Ground Floor, Chariali, Ganeshguri, Guwahati","26.151077","91.784211","true"
"ChIJW9atsQ9ZWjcRWofP-A1s9D0","IndianOil","Ground Floor, RG Baruah Road, Japorigog, Guwahati","26.162489","91.78062399999999","true"
"ChIJvff8HIhZWjcRIt-cpGBnm4g","IndianOil","Ground Floor, Ambari, Guwahati","26.1854987","91.75400789999999","true"
"ChIJv2mrkCFZWjcR1yguKFVYTc4","IndianOil","Ground Floor Kamrup, Fancy Bazar, Guwahati","26.1462124","91.78847739999999","true"
"ChIJeZPx3OpYWjcR4LFIHlqAdWo","Bharat Petroleum, Petrol Pump -Baroi Service","VIP Road, Borbari, Guwahati","26.150562","91.8113206","true"
"ChIJn6PONVBYWjcRbmK1TY1mcHE","Bharat Petroleum Petrol Pump bevan service station","5RM2+249, Maniram Dewan Road, Noonmati, Guwahati","26.1825364","91.8003513","true"
"ChIJdWZpOABZWjcR-dsEAx_Qd_U","A.S.T.C. Consumer Pump, Rupnagar","5Q86+PCV, Srimantapur, Chilarai Nagar, Guwahati","26.1668592","91.7610449",""
"ChIJLdhhb3hZWjcRVfGQ6UIWObk","IndianOil","Ground Floor, Ulubari, Guwahati","26.171505","91.761948","true"
"ChIJCfFa1jZaWjcRLHeDEuCX7UU","Chhaganmal Sarawgi & Sons","68, SRCB Road, Lakhtokia, Fancy Bazaar, Guwahati","26.1800306","91.7406762","true"
"ChIJxTfFzIZYWjcRN2TrnaS1p5I","IndianOil","VIP Road, Pathar Quarry, Guwahati","26.167707","91.826736","true"
"ChIJzbFw7Y9YWjcR6I2-3SefmA4","IndianOil","Ground Floor, VIP Road","26.161184","91.821495","true"
"ChIJw-IJFkNYWjcRmqZEPYREQkA","Guwahati Refinery (IOCL)","5RP5+3HP, Noonmati, Guwahati","26.1852129","91.8089607","true"
"ChIJxzNPgBxZWjcR2nnGwCgbmKA","IndianOil","Ground Floor, near Nabajyoti Club, Hengrabari, Guwahati","26.1516867","91.8113642","true"
"ChIJxQmLKgJZWjcRx5dXS6xfjaQ","IndianOil","Ground Floor, near Udeshna Cinema, GS Road, Guwahati","26.143509","91.79361999999999","true"
"ChIJ_3tnND1ZWjcRuDebAbm2jQ8","Vidhan Sabha Petrol Pump","68, Doctor RP Road, Dispur, Ganeshguri, Guwahati","26.1463298","91.78897909999999",""
"ChIJBWOf78VZWjcR4dSCKB1U49A","Nayara Petrol Pump","5R57+J7V, VIP Road, Borbari, Guwahati","26.1591868","91.81308709999999",""
"ChIJB1RhZxhZWjcRAF_xzRe3EpQ","Naba Service Station","5Q2M+6XX, Zoo Road, GMC Ward Number 44, Ganeshguri, Guwahati","26.15060530000001","91.7849966","true"
"ChIJ_eJ0uBJZWjcRKXeRRNH-X38","Indian Oil Petrol Pump ⛽ Salma Filling Station","near Nowapara Masjid, Baghorbori Road, Satgaon, Guwahati","26.1424174","91.82953529999999","true"
"ChIJ4SXpeaFZWjcRaJw93JIMfbs","D J FUEL CENTRE","Shop No 1, Sukan Pukhuri, Bhetapa Stadium Rd, Guwahati","26.1537719","91.78248579999999",""
"ChIJ24YL-x9ZWjcRVN7-TuQl_Do","Bharat Petroleum, Petrol Pump, Bhairab Fuel Station.","4QVH+QHH, Kahilipara Main Road, Kahilipara, Guwahati","26.1444497","91.7789979","true"
"ChIJQYhOk9NZWjcR_WvR1pDmK1Q","Usha medical hall","Goruduba","26.1575295","91.78126739999999",""
"ChIJZ16pIFhYWjcRhZzHPQXvCok","IndianOil","Ground Floor, Geetanagar","26.17380959999999","91.8027146","true"
"ChIJXSjSPABZWjcRMRmMATf5jUc","R.K.Fabrication","5Q7H+HR8, Bishnu Rabha Path, bhetapara, Guwahati","26.163904","91.7795823",""
"ChIJ0cQoj2RYWjcRaIr7FbQMXnM","Hindustan Petroleum Corporation Limited","2, Zoo-Narengi Road, Mathgharia, Guwahati","26.1786711","91.81998809999999","true"
"ChIJ2eHmAvtZWjcROOuLvp0CSww","IndianOil","Ground Floor, near Guwahati Refinery Road, R D Road, Noonmati, Guwahati","26.1806903","91.8128278","true"
"ChIJGwk7WGZYWjcRGdSDhhtV78k","IndianOil","Ground Floor, near Guwahati Refinery, R D Road, Noonmati, Guwahati","26.1807071","91.812826","true"
"ChIJBQ0YkWRYWjcR45k55UpIPOY","IndianOil","Beltola, Mathgharia, Guwahati","26.178654","91.821198","true"
"ChIJtelPUHJZWjcRo3FRB8RwxoE","IndianOil","Opp Assam Flour Mills, GS Road, Bhangagarh, Guwahati","26.162964","91.770493","true"
"ChIJ1SjSdp9aWjcRwG3UPmvIh3I","IndianOil","Ground Floor, NH-31, College Nagar, Amingaon, Kali Pahar","26.217357","91.696229","true"
"ChIJNY4yOK1bWjcRVnHLdjpGhOY","BHARAT GAs","Assam Trunk Road, Maligaon, Guwahati","26.2142442","91.6368586",""
"ChIJEdl5awBFWjcRxYr_TDQPd0c","Dadara service station","6J9M+FRH, Dadara, No.2 Dalibari","26.2186787","91.63460889999999",""
"ChIJddtsQXNQWjcRKnR3IHR65JA","IndianOil","Ground Floor, Baralabari, Changsari","26.227644","91.69646","true"
"ChIJkU7fyYVFWjcRWC8w2xKhU8Q","Hindustan Petroleum Corporation Limited","Ground Floor, Hajo, Dadara, No.2 Dalibari","26.2138977","91.6295377","true"
"ChIJ82aPW6tFWjcRvV4wUYr27c8","Luit Service Station","Hajo Rd, Dadara, No.2 Dalibari","26.2138262","91.62831270000001",""
"ChIJqYzK24NFWjcR89S6URb1rew","IndianOil","near Police Outpost, Ground Floor Hajo Road,College Nagar, near Police Outpost, Dadara","26.21534999999999","91.627647","true"
"ChIJjUYkMWJFWjcR0qmUDIAIKzg","Bharat Petroleum, Petrol Pump -Dadara Service Station","Dadara, No.2 Dalibari","26.21566510000001","91.6264812","true"
"ChIJiSqvXGBPWjcRO6wHCtbJs6s","NAYARA PETROL PUMP","India","26.2236385","91.619298",""
"ChIJD24qJSxRWjcRJoXpUg8h5f4","IndianOil","Ground Floor, Baralabari, Changsari","26.252097","91.691862","true"
"ChIJg_G3FjlQWjcRyEcHPUO3XqU","Friends Service Station","Guwahati-Baihata Rd, Changsari, Main Rd, Silbharal, Guwahati","26.2520576","91.6921651","true"
"ChIJu6V6IQBRWjcRStIuJ0nuD9A","Assam Oil","7M2R+RVG, Guwahati-Baihata Rd, Main Rd, Silbharal, Changsari","26.2520663","91.69220829999999",""
"ChIJJRLPRABRWjcRsj7rfA_vKdA","Kamala Service Station","Changsari-Sesa Road, Silbharal, Changsari","26.2600107","91.6901766","true"
"ChIJpZDsm1JPWjcRabUR0QgmhkM","IndianOil","Ground Floor Hajo, Bargaon, Dakshin Pakor Kona","26.232688","91.600005","true"
"ChIJsfERIP5PWjcR7hUdwRH3SLY","Bharat petrolium","7MGF+M3, Chepti","26.2766648","91.6726775",""
"ChIJ4aRDDABbWjcRH9oU7zuhN5Y","DOULGOBINDA ABS SERVO","6P6P+PX9, Baruah Souk, North Guwahati, Guwahati","26.212132","91.738579",""
"ChIJWXxbNQBRWjcR07KnJjUBMTc","M/s Swarna Fuelling Station (Hindustan Petroleum)","6PPP+3VW, SH 2, Fulung","26.2348181","91.73709679999999",""
"ChIJI3Y0iRhRWjcRQTLmW5MsFyU","Hindustan Petroleum Corporation Limited","Ground Floor, Rangmahal","26.2342191","91.7379126","true"
"ChIJcS1CFARRWjcRSn3uZwbezFE","Mahakashi Energy Station","Phulung,Rangmahal SH 2","26.2373774","91.73818070000002",""
"ChIJPRlgb49ZWjcRkYsaA3MtH3k","IndianOil","Ground Floor, Silpukhuri, Guwahati","26.184991","91.760353","true"
"ChIJlzRuhpBZWjcR41rPALeulwA","Hindustan Petroleum Corporation Limited","Ground Floor, GNB Road, Silpukhuri, Guwahati","26.1848305","91.76649479999999","true"
"ChIJ4UnqrQvhRTcRJvPmcAhL8GQ","R.O. Pure Water Filling Station","5QG3+RR8, Crpf, Khatkhati","26.1770275","91.7545892","true"
"ChIJ5ZmeDQBZWjcRRyE2vkAqlpc","CNG FILLING STATION","ASTC Airport AC, Bus Stop, GS Road, Opposite Flyover Bridge, Ulubari, Guwahati","26.1771015","91.7551507","true"
"ChIJjWJlpqNZWjcRE2aVOsm1f0s","Najim Store","near Shubham Elite, 35, Gandhi Basti Road, Guwahati","26.1812285","91.7633989",""
"ChIJxzHrB5pZWjcRzthYcv2rE8M","Government Press","Near Voltas Building, 190, Maniram Dewan Road, Krishna Nagar, Chandmari, Guwahati","26.1841397","91.7679529",""
"ChIJ2xuWUABZWjcRycNLj1Kpi7Y","Indian Oil Fuel Station","Choonsali, Gopal Nagar, Noonmati, Guwahati","26.2015953","91.7847299","true"
"ChIJJwNdXABZWjcRAfPjkSRf2ts","Kikori","I don't know the building name, By Lane No 5, Sarania Hills, Guwahati","26.1781403","91.77253859999999",""
"ChIJrV-vsaRZWjcRXsfBfAkP00c","IndianOil","Ground Floor, Chandmari, Guwahati","26.183554","91.77950299999999","true"
"ChIJ0Uuiu6BZWjcR0mM7KBqf4gU","IndianOil","Ground Floor, Zoo Road, Guwahati","26.173189","91.77757299999999","true"
"ChIJ8UQ_WGZYWjcRb2suaMJXAMM","IndianOil","Ground Floor, Noonmati, Guwahati","26.1815618","91.8035393","true"
"ChIJ85qmQX9YWjcRO2nYD_ejXBE","IndianOil","Ground Floor, Narengi","26.176161","91.830872","true"