place_id,name,address,latitude,longitude,open_now
"ChIJCxNhmupJTjcRiyiZQPYrZ-Y","IndianOil","Ground Floor, Bharakhai,Ghoongoor, Masimpur, Silchar","24.760217","92.79611799999999","true"
"ChIJ55IvW5cxTjcRFO257bzgBs4","IndianOil","PT 2, Ground Floor, Mohanpur Road, Chibita Bichia, Near, Algapur","24.7643007","92.6766049","true"
"ChIJKxRl--43TjcRGKz1uC5Fb1E","IndianOil","Ground Floor, near Assam University, Silcoorie Grant","24.704434","92.764917","true"
"ChIJYSw8KxpKTjcR3_7qkIvQS9Q","IndianOil","Ground Floor, Batertal, Silchar","24.792029","92.792519","true"
"ChIJET7uwx5KTjcRtyUAxDWxuoI","Hindustan Petroleum Corporation Limited","Ground Floor, Meherpur","24.788288","92.79437899999999","true"
"ChIJozI2sqk1TjcRVR-IK6Y8caY","Reliance Petroleum","Dag No109, Patta No33, Potarapurkhelma, Ramnagar, Silchar","24.829573","92.74522600000002","true"
"ChIJp3z8J3JJTjcRPBXDvWtMO5g","Bharat Petroleum","Silchar Road, Saidpur, Sonabarighat Pt I","24.764763","92.82560389999999","true"
"ChIJ1SNpBXRKTjcRTFuOpnPUS5o","IndianOil","Ground Floor Cachar, CR Avenue, Silchar","24.8124448","92.78240459999999","true"
"ChIJF2RAfvhKTjcRC_a778-KEOM","IndianOil","Ground Floor, Arkatipur, Rongpur, Silchar","24.830727","92.81023599999999","true"
"ChIJk7ojPQBJTjcRGtEEm6x-8G8","A LASKAR FILLING STATION","QRG9+535, Silchar","24.7753524","92.8175071","true"
"ChIJRReUMQBJTjcRo3C1NKgBlXM","Mohammed Sahed","QR6F+XWJ, Sonabarighat Pt I","24.7624569","92.8247701",""
"ChIJgcwpjEVJTjcREwp5bb65mjA","IndianOil","Ground Floor, Dhanehari, Dakhin Krishnapur","24.76298","92.828475","true"
"ChIJNTQIlwhLTjcRPeEM3i3mxQA","Sunil Automobiles","Nutan Bazaar Road, Silchar","24.8036592","92.80188419999999",""
"ChIJi9mZ2j5KTjcRxaMhcq0CgYY","Tribeni Filling Station","near house, Mizoram Road, Kanakpur, Silchar","24.8037848","92.80143969999999","true"
"ChIJOxe22D5KTjcR5SGoynVN6hg","IndianOil","Ground Floor, Trinayani Lane, Kanakpur, Silchar","24.803809","92.80197","true"
"ChIJb6Sf6RRKTjcRbDReLajZ18A","M/s A.S.T.C. Silchar Energy Station","RQ4W+42W, Meherpur Road, Birbal Bazar, Silchar","24.8053535","92.79507770000001",""
"ChIJrXMb72pLTjcRcfqPykevA8k","J RAMA FILLING STATION","J Rama Filling Station College Veng, 12, Silchar","24.8054424","92.8006272",""
"ChIJ36vepmJLTjcRGwxbAUxwAKM","DHALESWARI FILLING STATION","HAILAKANDI","24.80871920000001","92.79125049999999",""
"ChIJsW4x8kJKTjcR1gaMl2yex9Q","IndianOil","Ground Floor, N S Avenue, CR Avenue, Silchar","24.8101319","92.79613049999999","true"
"ChIJKZWqWWpKTjcRzHEjwtqcjuQ","Silchar Automobiles (INDIAN OIL PETROL PUMP)","RQ6W+6JR, NS Avenue, Rangirkhari, Silchar","24.81060849999999","92.7965104","true"
"ChIJPW7QKQBLTjcR_cxxPgGt6aw","GEEPEE INDANE NEW UPDATED","RQ6H+VXV, Radha Madhab Path, Tarapur, Ambicapur Pt VIII","24.812248","92.77990690000001",""
"ChIJk0pjON5LTjcR-muVFDsikfY","BERENGA PETROL PUMP - INDIANOIL","Berenga Pt II","24.8124457","92.8247265","true"
"ChIJ01LVmWNLTjcRefec0LAgdDE","IndianOil","Ground Floor Premtola, Dewanji Bazar, Silchar","24.821698","92.79895200000001","true"
"ChIJMTYQsF9KTjcRVbgLXXXPSMo","IndianOil","Ground Floor, near Debdoot Cinema Hall, Central Road, Dewanji Bazar, Silchar","24.828324","92.79964400000001","true"
"ChIJn7NnPn1KTjcRpAIz-k1TNlM","IndianOil","Ground Floor, Tarapur, Chirukandi, near Railway Station, Silchar","24.8292516","92.7868111","true"
"ChIJd5254olKTjcRHryFhyWvusM","IndianOil","Ground Floor Chirukandi, Sadarghat, Tarapur, Silchar","24.830931","92.792171","true"
"ChIJCYUlomlPTjcR0YvyVgkWlyY","Hindustan Petroleum Corporation Limited","Ward No 6, Silchar Road, Sonai","24.737571","92.87212099999999","true"
"ChIJtYf93atPTjcRGVkGSbOK4SA","Mozmul Fuel","Shadwin, Sonai Bazar Road","24.73163499999999","92.8897121",""
"ChIJbQJoV8xPTjcRqPIw2W3K7GU","MS M N SERVICE STATION","Matinagar Road, Sonai","24.7303697","92.9018863",""
"ChIJDTqaeaxPTjcRor1A5iBngws","IndianOil","Ground Floor Amjurghat, Sonai","24.730327","92.90292800000002","true"
"ChIJy2wNFABNTjcR9hOxnoH4JvM","Bharat Petroleum","RV6C+M9, Badripar Pt I","24.812068","92.8717329",""
"ChIJqYLdXIlJTjcRPo8-Ez7IQCg","Sunil Automobile","MRWQ+85P, Nutan Bazar","24.6958264","92.83794309999999",""
"ChIJGY435Xg1TjcRedP2a9cHA7I","IndianOil","Ground Floor Ramnagar, Chirukandi, Silchar","24.83347999999999","92.771309","true"
"ChIJ3StY97UzTjcRYQKXfaNRsSQ","IndianOil","Ground Floor Baglaghat, Srikona Part 2, Rajnagar","24.831398","92.69613","true"
"ChIJJS3N6aczTjcRX9C6v5_RA18","IndianOil","Ground Floor, Baglaghat,Ghagrapar, Srikona","24.8321888","92.6816542","true"
"ChIJd1psZzs1TjcRhFund2dYFYc","IndianOil","Ground Floor, Masimpur Road, Arunachal, Nischintapur","24.861717","92.749408","true"
"ChIJFzPULFYzTjcRRbUVgkODatg","M/S Anand & R.A. fuel service station - Bharat Petroleum","salchapra, Shivbari Road, Srikona Pt III","24.8317994","92.6786262","true"
"ChIJ8RN3ZOU1TjcRkE2hrfF0jC4","IndianOil","Ground Floor, Topkhana, Silchar,Arunachal, Nischintapur","24.855585","92.761318","true"
"ChIJofQU33g1TjcRQNbKjSyPg7s","IndianOil","Ground Floor Tarapur, PT 7, Ramnagar, Silchar","24.834167","92.772089","true"
"ChIJl-JYOI01TjcRCqaB4TAxB5M","Mazumder Filling Station","VPHP+762, Kalain Road, Niz-Joynagar","24.8781409","92.7355259","true"
"ChIJJ3OSDQBLTjcRVn65boEW-tE","Indian oil","RQWP+J7C, Ramnagar, Silchar","24.84656720000001","92.7856491",""
"ChIJH4OmSgBLTjcRLEXR1Fu3tnk","Petrol pump","RQQQ+VJX, Dudhpatil Pt V","24.839727","92.789096",""
"ChIJPbi3MkVLTjcR0UH86JMPfzc","B SANGCHEMA FILLING STATION","22, Itkhola, Bazar, Silchar","24.8364759","92.8028487",""
"ChIJF2RAfvhKTjcRAtRdUoqJ-ow","IndianOil","Ground Floor, Rongpur, Arkatipur","24.832268","92.814864","true"
"ChIJU6vuNQlLTjcRsAqnFvXSrXQ","Bajrangbali Filling Station","Nayara Energy, Rongpur, Silchar","24.8384869","92.84310169999999",""
"ChIJWWgFj7NMTjcRCy-7EkxlaKk","IndianOil","Ground Floor, Udarbond","24.8727644","92.87232759999999","true"
"ChIJv_2OV9qzTzcRH7NICr76zuE","IndianOil","Ground Floor, Udarbond","24.896435","92.895267","true"
"ChIJA1hqyb_MTzcRuSxc1-a5M4s","IndianOil","Ground Floor, Chandpur, Barjatrapur","24.9028134","92.6812822","true"
"ChIJZbcGMLDLTzcR_AzRkXLDA10","IndianOil","Ground Floor, Borkhola,Hayairbond, Jarailtola Bazar","24.9395165","92.7301049","true"
"ChIJ3ZGkopnLTzcRtC8zpBQMXKo","Southern Assam Cylinder Testing Center","Jarailtola Bazar Road, Harinchera","24.943071","92.7231663","true"
"ChIJjUcWBGPKTzcR6x1JvVmSFAQ","IndianOil","Ground Floor, Dalu, Chotorampur Grant","24.929271","92.766649","true"
"ChIJ5d2An5q1TzcRu_K9cJWMOl8","Saiful Polty Farm","Dolu Bazar","24.923036","92.7843609",""
"ChIJH816HACzTzcR7gg17X8DGHU","Bharat petroleum","WV35+QP, Larsingpar Grant","24.9043817","92.859305",""
"ChIJhbQEE5C1TzcRxrFDuRSG5pg","Dhar service station","Jhapirbond Pt II","24.9050352","92.8593039","true"