place_id,name,address,latitude,longitude
"ChIJq0eY3OOy4TsRwROxLhGrcAc","Jio-bp","opposite Gate No 3, Survey No 195/A/1, Hazira Complex Surat Hazira Road, opposite Gate No 3, Bhata, Mora, Surat","21.180446","72.679437"
"ChIJr5tjqbiy4TsRwQZv6EvhAjA","Reliance","India","21.162354","72.6922415"
"ChIJE4SeWs6y4TsRfDyy2I-7X7Q","Diesel Station","5PF2+2JX, Hazira INA, Limla","21.1726212","72.7016153"
"ChIJA1OpOWhS4DsRiIk4y4QxOhY","Hindustan Petroleum Corporation Limited","Survey No 386/P NH 53, Hazira, Palsana Rd, Magdalla, Abhva","21.125551","72.771321"
"ChIJOR7q2qdR4DsRh-a_a8ToseY","IndianOil","Ground Floor Sonari, Bonandh, Surat","21.110613","72.838146"
"ChIJw4_OfwBT4DsRLTgbLjriVJI","MANIPAL PETROLEUM","4QJW+QC2, Surat","21.131885","72.7960066"
"ChIJn-xR2whT4DsRNN8YoJ3WLxQ","Nayara Petrol Pump - Somiba Fuel","Althan - Sarsana Road, Surat","21.1343142","72.7977792"
"ChIJsfz_cwBT4DsRMPpsnqgKo4o","Bharat petroleum Prithvi Pal","SMC Garden, Govindaji Sport Complex, Surat","21.1368113","72.79875419999999"
"ChIJxVx7LlJT4DsRhper7fTfoS0","IndianOil","R S No 88, Bhimrad Majura, Jeevkar Nagar, Althan, Surat","21.1368699","72.7993501"
"ChIJy2AG4u3xrzsR6dG5z_NPThc","IndianOil","Survey No 149 Block, 195, Althan - Sarsana Road, Surat","21.1408056","72.8010008"
"ChIJmROeUXxT4DsRWqI1pcqWgsI","Daruwala Diesel Pump","4QGC+79J, Vesu, Surat","21.12570909999999","72.770884"
"ChIJ6bhLBm5T4DsRvtD62S25KvQ","IndianOil","Block No 217, B BHARTHANA, Tp No 13, Vesu, Surat","21.142987","72.7926914"
"ChIJEfHA1gVS4DsRJef0CE5KHHo","Nayara Petrol Pump - Sai Sanskriti Autofuel","opp. E Space, VIP Road, Vesu, Surat","21.1440757","72.7946738"
"ChIJ-xBrM-JT4DsRyCEPt4x1SLU","Shell Petrol Pump","beside Metro Cash & Carry, VIP Road, Surat","21.144716","72.80188799999999"
"ChIJz_3UBgBR4DsRdy5Z2yJ_Ps8","petrol Pump","4R8C+GP5, Dundi, Surat","21.1162677","72.8218581"
"ChIJFYer3zxT4DsRnIBDZpbOxZg","Indian Oil petrol pump","4QRF+4G8, VIP Road, Vesu, Surat","21.1402912","72.7738157"
"ChIJD8-0gWZR4DsRrr51UUMo6U8","J D PETROLEUM","Sarvay No 85, 1 VILLAGE TANKOLI, Old, JALAPUR, Surat","21.1261332","72.826366"
"ChIJ4YNrHbWBXjkRA9oFj8kRcXo","IndianOil","Survey No 134, T P No 63, Vadod, Udhana, Surat","21.1269164","72.828983"
"ChIJIy8SscFN4DsRWdcNMeahzOk","Umang Petroleum,Nayara Petrol Pump","near tirupati circle, Essar petrol pump, near tirupati circle, Vadod, Surat","21.1318325","72.82752529999999"
"ChIJk1MZ7s1R4DsRokB0OEDP9LM","Hindustan Petroleum Corporation Limited","FP No 66/A, Vadod, Majura, Surat","21.131978","72.82760499999999"
"ChIJp13zteVR4DsRZ3B3qZ882rQ","Dipak Oil Mill","228,mani nagar, New Bamroli Road, Pandesara, Surat","21.143752","72.820504"
"ChIJ23Q6eOpR4DsRTyqWLXumbIM","Vishat Cng Pump","G-2, New Bamroli Road, Milan Point, Opposite Slok Residency, Bamroli Char Rasta, Jay Ambey Society, Pandesara, Udhana, Surat","21.1337033","72.82797099999999"
"ChIJYb_Sps9R4DsRopm3VRdWyGE","Nema Bhana Petroleum - Bharat Petroleum-BPCL","Block no 292, opp. Shlok Arcade, Bamroli Char Rasta, Surat","21.1389133","72.826555"
"ChIJXfnbjeVb4DsRDg5_Za8hrOU","Lucky Filling Station","char rasta, Palsana","21.0875101","72.9773359"
"ChIJ408ZeeZb4DsR5FKbVHNnuEo","M/S KESHARINANDAN PETROLEUM PALSANA","Palsana","21.0856048","72.97579309999999"
"ChIJzdOYTWpb4DsRslcIIIBzxUY","Nayara suryajyot","near PALSANA, NH ,53, near PALSANA, Taraj","21.0866621","72.9616473"
"ChIJzxbvSqRb4DsR2XhSFJYl2dc","Italva Petroleum","Survey no.14, AA, Sachin - Palsana Road, Sachin, Surat","21.0853111","72.9648543"
"ChIJg18mCgBb4DsRfmQmvk9jdho","Nikhil Kumar","3XM7+MRH, Palsana","21.0841966","72.9646166"
"ChIJfbJfoEBb4DsR0WkXZiWUhOA","Shreeji Acetelein compny Unit-2","3XP8+X47, Surat","21.0874181","72.9652912"
"ChIJH2DM5wRb4DsRrQ1Bqq0RNnE","BHARAT PETROLEUM","3XP8+5C2, Palsana","21.0854892","72.96565"
"ChIJmc8dz9xb4DsRlBZ2tTM5Om0","Maniar Petroleum BP","N.H. No. 6, Block No.19, Sachin Palsana Road, Palsana, Chokdi, Patia, Italva","21.0863477","72.96575419999999"
"ChIJKyuJ3eVb4DsR-1YWVJX84HM","CNG Pump","Gayatri Complex, Palsana","21.0865469","72.9760781"
"ChIJZdA4gBxb4DsRurDdBvvTfvE","IndianOil","Ground Floor NH 48, Palsana","21.0872098","72.9775085"
"ChIJPydQLABb4DsRE5xdkderTSc","Indane gas office palsana","3XQH+M73, Kadodra - Antapur Road, Isroli, Palsana","21.0889453","72.9781833"
"ChIJcVIHGc5b4DsR1vtxu-LVJiE","Hindustan Petroleum Corporation Limited","Survey No 2 NH 53, Hazira Palsana Rd, Palsana, Lingad","21.085493","72.93900359999999"
"ChIJV-Tb3DFa4DsR24KUyD2Dd84","IndianOil","Survey No 6, Block No 9, Palansa Road, Sachin, Surat","21.0846528","72.9383659"
"ChIJGzWIGQBb4DsR8dqKajc1QNg","BPCL Petrol Pump | Good Luck Fuel Station","Number_48, Mu.Post, National Highway, Ta, Baleshwar","21.1058658","72.9756072"
"ChIJOe1xFTVb4DsRfSD959rE8d4","Nayara Parekh Pump Store","National Highway 48, Surat","21.10866219999999","72.9758379"
"ChIJXXd-FQBb4DsRbhUIXrAu-hc","DEF","4X5G+G8P, Baleshwar","21.1088422","72.9758293"
"ChIJh1nHnZ5b4DsRVpeR8sQUW48","Hindustan Petroleum Corporation Limited","Ground Floor, NH 48, Block No 351/2, Palsana, Baleshwar","21.118411","72.97518099999999"
"ChIJY2V4mHBd4DsRju2_3qjSaB0","Petrocare Centre - BPCL","PALSANA, Surat","21.0887587","72.9982898"
"ChIJl3VqWThZ4DsRUbBfAh2tT-s","Shell","NH-48, Palsana, Vesma","21.0526875","72.9783923"
"ChIJNQSwRgBb4DsRHztqwfYb3n0","Ansh gas agency","C-17/16, Center Rd, Hoziwala Industrial Estate, Sachin Apparel Park SEZ., Sachin, Surat","21.0819083","72.9151876"
"ChIJD0VmTidn4DsRomsPrZCk6gM","IndianOil","S No 1/Paiki 1, No 1 Afva, Tajpore, Bardoli, Khurdtlk","21.1095398","73.1341714"
"ChIJCfg77Wpn4DsRp0zGXa-x8qQ","Morlidhar B Vamdote - Bharat Petroleum","38, National Highway 6, Talavadi, Bardoli","21.1147048","73.1092608"
"ChIJ1y5zXKln4DsRs9Nv4CkdifY","SWASTIK PETROLEUM","BLOCK.NO 580 NEAR UTARA VADHAVA PATIYA , BARDOLI VYARA ROAD , AAFVA, TA, BARDOLI","21.1093741","73.1476945"
"ChIJ1SRWFV5h4DsRhljYAieG7UU","VANKANER PETROLEUM (INDIAN OIL)","SH HIGHWAY 187, Vankaner Village Road, Vankaner","21.0787183","73.1667246"
"ChIJXZ5tUJld4DsREnX2865iu_4","IndianOil","No 54, NH 6, Hindolia","21.107589","73.1935033"
"ChIJT_oKCKJh4DsRs7G1oWYT1JI","Shree Narayan Petroleum -BPCL","Shop No 01 Bharat Petroleum Bardoli, Road, Tarsadi","21.0762549","73.134778"
"ChIJe94Cfehn4DsRjcXtMPAQjiA","IndianOil","R S No 3502, 2 Paiki 1, Bardoli","21.1256001","73.1197001"
"ChIJe6j9plhn4DsRP9ceQXx3tvA","Bharat Petroleum, Petrol Pump -Shri Bhuvneshwari Petroleum","NH-6 FORT SONGADH, TAPI","21.1065964","73.112217"
"ChIJj4kCawxk4DsRfWbYOStAFnc","Hindustan Petroleum Corporation Limited","Sur No 111 NH 53, Bardoli, near Hazira, to, Songadh - Surat, Hindolia","21.106246","73.20152999999999"
"ChIJ3TGeEgBn4DsRZjaxYCj4cS4","Petroleum pump","44G6+6V9, Bardoli","21.1255374","73.1122499"
"ChIJ85p7dQBl4DsRaGD84ZmE6oo","Shree hinglaj, Indian oil petrol pump","4643+48X, Songadh - Surat, Sejvad","21.1053615","73.20336739999999"
"ChIJ_8L2UgBn4DsRJITVudxKNBc","Balaji Fuels (Indian Oil)","Bardoli","21.1331819","73.1160183"
"ChIJVTwe-0xj4DsRw6mzEpJeMsY","IndianOil","Ground Floor, Bhutwada, NH 6, Bajipura","21.0917869","73.2742408"
"ChIJD26aSzV94DsR5IfZzlkH4tE","NILKANTH PETROLEUM (BPCL)","NH 53, BAJIPURA BYPASS ROAD BAJIPURA, TAL VALOD, DIST TAPI KAMALCHHOD, TALUKA, Valod","21.099321","73.2946307"
"ChIJcwSeQwBj4DsRz3JJlRWG7cI","Old Hp Petroleum","37RG+QJF, Bajipura","21.0919465","73.2765348"
"ChIJucy_0Fpj4DsR-yqa7grfxwU","Mahadev Petroleum","281, Gujarat State Highway 6, Industrial Area, Bajipura","21.09393","73.2640456"
"ChIJWTfVhYFj4DsRKWoo94ST9Hs","Hindustan Petroleum Corporation Limited","Survey No 296, D/1/1, Valod, Titwa","21.099956","73.2587511"
"ChIJEXlEu4h84DsRmOLKoJ1jEqs","NAYARA PETROLEUM","Maypur","21.0991969","73.318985"
"ChIJd1T0nrRj4DsRoeWNQre144k","IndianOil - SWAGAT","Survey No 265 Titva, Valod, NH 53, Kantifalia, Surat","21.0962432","73.25428219999999"
"ChIJj4keqLt94DsRw0bFbcOtPj0","Ganvit Petroleum","NH 53, Maypur, DHULIYA ROAD, Surat","21.0995555","73.3243595"
"ChIJ7-MFK3Vl4DsRjcr2igqYma4","BPCL Ramkabir Mili Filling Station","At & Post Titwa, Ramkabir Mili Filling Station Tal- Valod, SH-5, Titwa","21.1196099","73.24968609999999"
"ChIJ5bDyaWNj4DsRQdW-bZdKrUU","Tapi Maiya Bharat Petroleum","36XV+H38, Manekpor","21.09892","73.24271499999999"
"ChIJjVvmhwR84DsRjyH4V6izkUw","Bharat Petroleum (Petrol Pump)","4947+VP6, National Highway 6, Paniyari","21.1071622","73.3642745"
"ChIJFwlgaoJ54DsRAXCae6zFm-c","IndianOil","Survey No 124/C Tadkuva, Tapi, Chikhali Khadka, Vyara","21.125931","73.40622549999999"
"ChIJE1p5neR54DsRa81rdH6oEfY","SAVI FUELS","opposite SAMARPAN RICEMILL, VAZARDA ROAD, opposite SAMARPAN RICEMILL","21.1314934","73.4001619"
"ChIJpaztE0p54DsRj1mIZav6r4s","IndianOil","Block No 444, Paiki 1, Tapi, Chikhli Khadka","21.1238981","73.3936954"
"ChIJPaN5FM5-4DsR8NRyFhgXssM","AASTHA ENERGY","near Janak Hospital, No 20/1/2, near Janak Hospital, Kanpura, Vyara","21.1132362","73.4047831"
"ChIJO9dXpKl54DsRqapO1VHZdwU","Hindustan Petroleum Corporation Limited","Ground Floor, NH 53, Dhulia Road, Tadkuva, Vyara","21.126099","73.41714999999999"
"ChIJ-ck9egB_4DsRVr_ZhVA3v6k","Hindustan Petroleum Corporation Limited","Survey No 70, Songadh - Surat, Kanpura, Vyara","21.1191301","73.4153401"
"ChIJFW4JF91_4DsRO-Vb5caQJlU","Bharat Petroleum","Bharat Petrol Station, Kanpura, Vyara","21.1094114","73.399701"
"ChIJMSb0PAB_4DsRkMxzn-zg_IU","Hindustan Petroleum Corporation Limited","Ground Floor, Unai naka, opposite Hari Hareshwar Mahadev, Chowk, Vyara","21.107698","73.394581"
"ChIJcQ08oLB-4DsR0PpJPPxm_0k","IndianOil","Ground Floor NH 6, Dhulia Road, Khadka, Vyara","21.1067602","73.38710209999999"
"ChIJ-9rWTwB_4DsRzuWy52g24ns","JIO-BP (Samruddh Petroleum)","495H+W5F, Vyara","21.1098118","73.3779333"
"ChIJhRvIjGx54DsRXXgpOXlEjeQ","OSTS BP VEERPUR","4CHP+9M4, Songadh - Surat, Virpur","21.1283767","73.4366908"
"ChIJE-EfJMHW3zsR1cj6hGrGamA","Hindustan Petroleum Corporation Limited","Survey No 189, Block No 52, Sonarpada, Songadh","21.1599131","73.5407276"
"ChIJW8FrpJPX3zsRP1ElzYTNrYg","Jio-bp Petrol Pump","SUBPLOT 2, SONARPADA, FORT, SURVEY NO 60, P1 P1, Songadh","21.1627062","73.5472618"
"ChIJ113Oib3X3zsRrRN8SdpEOiw","IndianOil","No 61, National Highway 53, Songadh","21.1623388","73.5460023"
"ChIJb2a7ncbX3zsRqfLTt27BGPE","TATA DEF PUMP(ગોકુલ ઓટોમોબાઇલસ)","5G6X+RW, Songadh","21.162915","73.54947589999999"
"ChIJfzWAZUPR3zsRMjdE4RrAqBk","IndianOil","No 66, P1 Sonarpada, NH 6, Songadh","21.1641116","73.5514013"
"ChIJfa0Dxc7W3zsRR-gMwuq_3kI","IndianOil","No 66/P1 Sonarpada, NH 6, Songadh","21.1641116","73.5514013"
"ChIJXYPZLADX3zsRWrSzqlnny2s","VED ABHISHEK PETROLEUM","30/B/1, NH6, Sonarpada, Songadh","21.1641145","73.55157919999999"
"ChIJPxZ3DK3X3zsRu8Hrlqz_s4E","TATA GENUINE DEF REFILL PUMP","5G5Q+HM, Pokhran","21.158992","73.539202"
"ChIJmWmtS_nX3zsR8ekWvIQiGYQ","Bharat Petroleum Petrol Pump , MATOSHREE PETROLEUM","SNO.79 KHATA NO 109TAL, Songadh","21.1568568","73.53518079999999"
"ChIJs9zcbzPR3zsROfgawjfaIEg","SHREE BHUVNESHWARI PETROLEUM , BPCL PETROL PUMP","5H86+4HG, NH-6, Songadh Flyover, Songadh","21.165342","73.56157979999999"
"ChIJT_YtdjPR3zsRrbxBwlz3y4E","IndianOil","Ground Floor, near Songadh Fort, NH 53, Songadh - Surat, Surat","21.1654954","73.5621937"
"ChIJR7uZIADX3zsRhYwvaY-kD6s","CGS Station(Proposed)-Adani Total Gas Limited","5G3J+8M8, Pokhran","21.1532838","73.53170879999999"
"ChIJceFwUWjR3zsRgFlkVa1tu0k","IndianOil","Survey No 13, Songadh, Moti Cher, Champavadi","21.1488922","73.5677989"
"ChIJaxHWyCnR3zsRjPwlBwOggis","SHREEJI PETROLEUM","Block No. 54, Vankvel Drugs Pvt. Ltd, opposite Adore, Songadh - Ukai Road, Songadh","21.1813277","73.5676671"
"ChIJhe0pJADX3zsR_lwPQco0lBg","TATA MOTORS AUTHORISED D.E.F PUMP (યુરિયા પંપ)","4GX9+367, Songadh","21.147552","73.51816199999999"
"ChIJW57dTonW3zsRUjcmUOA6UAk","IndianOil","Ground Floor, Surat Dhulia Road Pokhran, NH 6, Songargh, Bhljamboli, Surat","21.1475001","73.5177001"
"ChIJ393T5Z7J3zsRCdE4xx-LhpI","IndianOil","Gut No 23/2, A/2B, Navapur, Lakkad Kot","21.1679009","73.5804766"
"ChIJwcMwmvbR3zsRJ-sSTYRffpg","IndianOil","S/Bl No 30/B/1 Tapi, Gunasda, Songadh","21.188075","73.569544"
"ChIJcW-eAlrR3zsRDzsWyEI717k","Hardik Petroleum","Hardik Petroleum, Songadh","21.1911192","73.56964889999999"
"ChIJWcGBRQDR3zsRGAJa1nsPrsg","Vinayak Petroleum","5HHJ+JG5, Pankhri","21.1790196","73.5813466"
"ChIJJW30U2HP3zsRVPajIUru15s","Bharat Petroleum Petrol Pump , ARYAN PETROLEUM","Gujarat State Highway 6","21.1656034","73.74698819999999"
"ChIJY7RVVY_O3zsR1eFLKuPFq4k","Hindustan Petroleum Corporation Limited","Ground Floor Uchchal, NH 6, Sase","21.161511","73.706611"
"ChIJlXDLNqPO3zsRtFV4PKD6Gjo","Dhruv petroleum,BPCL,Wakipada","National Highway 6 Nawapur, Wakipada","21.1654753","73.7607973"
"ChIJS_o5tQ7J3zsR_QWgZ2lpR7A","Uchchhal Petroleum","Uchchhal - Nizar Road, Vadpada","21.1722867","73.7678933"
"ChIJ6ygIsYTJ3zsRRNs_WJ_-e44","IndianOil","RS No 83 Paiki 1/B, NH 6, Vadpada","21.1647947","73.76987249999999"
"ChIJwaVX31PJ3zsRiPI4iOJxEac","Yash Petroleum / BHARAT Petroleum","5QFC+J73, Mogran","21.1740625","73.7706875"
"ChIJsW__orC23zsRZ2HmlZTiVHc","Bharat Petroleum, Petrol Pump -Shivansh Petroleum","GANGAPUR, NANDURBAR","21.187549","73.9251135"
"ChIJFTcE2Ki33zsR_CQxVu2diSg","Manish Omprakash Agrawal","Shop No 1 Main Rd Savrat, Dhule Highway Main Rd, Navapur, Surat","21.1796836","73.8870106"
"ChIJLSWHewC33zsRlmiiR2TFrsA","Palak bio diesel pump","5VGP+PRJ, Sawarat","21.1766192","73.8871681"
"ChIJo59YW4633zsREM0BZSmbzT4","NIRANJAN OMPRAKASH AGRAWAL","Shop No 1 Main Rd Navapur National Highway, 53 Navapur, Nandurbar","21.1767018","73.8870568"
"ChIJYYvmwHa23zsR6FFIkpjarw0","Hindustan Petroleum Corporation Limited","Gat No 63/2/B NH 6, Surat - Kolkata Highway, Nawapur, Nagpur","21.17076429999999","73.87295209999999"
"ChIJg1ouDQC33zsRZGIBkxTmG2o","Hindustan Petroleum Corporation Limited","Gat No 64/1B, NH 6, Surat - Kolkata Highway, Nawapur, Nagpur","21.1852897","73.9290628"
"ChIJc2Ljp_Ot3zsRCPy7SdWwbMA","ESSAR Oil Petrol Pump","Navapur, Nandurbar, NH-6, Dhule Nagpur Kolkata Highway, Mumbai Highway, Nandurbar, Nandurbar","21.161977","74.038068"
"ChIJMXBzx_Kt3zsR8Hx-rAL0HBY","Raghunath Petroleum Panbara","NH 6 Surat, Dongargarh - Nagpur Road, Bhandara","21.1603657","74.0406272"
"ChIJY-PNrFCr3zsRpRpVUnv4Le4","Hindustan Petroleum Corporation Limited","Gat No 47/1P, Nagpur, NH 6, Surat - Kolkata Highway, Sakri, Dahivel","21.1039747","74.1356622"
"ChIJx2YkD5DF3jsRAJ5wNhMc0jI","IndianOil","Gut No 67, A/B/1, Sakri, Bodakikhadi","21.1032731","74.1374317"
"ChIJn1VoOVBV3jsR_RlwaizU0ak","Bharat Petroleum, Petrol Pump -Vijay Petroleum","DAHIVELNAKA, NH6, DHULE","21.087954","74.1472221"
"ChIJ9TQf5p9V3jsRmvo6v1eZkIM","IndianOil","Gut No 103, 3A & 103/2A, Sakri, Bhongaon, Bhadane","21.0527705","74.188935"
"ChIJG8J_PgD53jsRX4qaRkPvs9I","Hindustan Petroleum Corporation Limited","Gat No 725/5 & 726/2, Sakri NH 53, Surat - Kolkata Highway, Dhule","21.0145588","74.2471073"
"ChIJXXnMvnH53jsRBwUo04coerI","Hindustan Petroleum Corporation Limited","Gut No 559, 2 & 560/2 SH 8, Pimpalner - Sakri Road, Sakri","20.9845874","74.29600180000001"
"ChIJzQC8QBz73jsRKydbv85AncE","Hindustan Petroleum Corporation Limited","Gat No 125/2/2 NH 6, Nagpur, Surat - Kolkata Highway, Sakri, Shewali","20.9863727","74.37480880000001"
"ChIJ38UZuZn73jsReAzbtKlLGf0","Shubhankar Gas Services","16,17 Hp Gas Sakri Nh 6, Sakri","20.99966179999999","74.33098249999999"
"ChIJuWIWbrn73jsRWUIFDF5hXYE","IndianOil","Survey No 243, A Mouza, Sakri","20.994385","74.340085"
"ChIJ--lMozr73jsRjSTuhMS62ik","FAUJI PETROLEUM","Sakri Bypass, Perejpur","21.0059418","74.3245457"
"ChIJ93U4NCT73jsR7KrbuVzJNYI","IndianOil","Stone No 48, Ground Floor Nandurbar Road, Akhade","20.9956919","74.3483086"
"ChIJbTZFZyv73jsRR_JuyFrAurw","Bharat Petroleum, Petrol Pump -B.P.Jain (Sakri)","SAKRI CITY ON NH 6, DHULE","20.9930078","74.3156312"
"ChIJQ1BUL17o3jsRuyM0G2HjgzI","Ajay Petroleum (BPCL)","Ner, Dhule, NH-6, Dhule Nagpur Kolkata Highway, Mumbai Highway, Dhule, Dhule","20.9283165","74.5501634"
"ChIJN4nNpb3o3jsRKz7sBviNiQY","Manjushri Petroleum NER","National Highway 6","20.934577","74.520862"
"ChIJ9zSqfFPp3jsRbeX1_pBbtkI","IndianOil","Gut No 260, Morane, Aklad","20.9258727","74.5621282"
"ChIJo3NajpHo3jsRDmm_jztI0N0","Hindustan Petroleum Corporation Limited","GAT No 28/1, 28/2 & 28/3, Surat - Kolkata Highway, Nagpur","20.9332599","74.5324748"
"ChIJk4rpezHL3jsRXp-f_TNd-yo","IndianOil","Gut No 165/3 NH 6, near Stone 528, to, 533 Km, Ajang","20.9012957","74.6865923"
"ChIJyfYcZnbE3jsRvgeZ0iUY8Aw","IndianOil","Ground Floor, Ashtane, Kundane","20.9022234","74.6890839"
"ChIJl5r4KArD3jsRZZej8_pEBMY","BHARADWAJ PETROLEUM ( Bharat Petroleum Corp.Ltd.) & CNG Station","National Highway 53, Aanandkhede, Surat","20.90849159999999","74.65221009999999"
"ChIJA0y1ikTF3jsRY5x3NpfwPKk","IndianOil","NH 6, Morane, Dhule","20.9021339","74.7201951"
"ChIJ0xCjThDD3jsRDya1Hw5O0Wg","JIO bp petrol pump (Reliance)","&, Gut no 244, at post - Anand Khede, Tal, Dist, Anand","20.9111675","74.64078889999999"
"ChIJfW2UMvHF3jsRzTzix0tL-qA","Hindustan Petroleum Corporation Limited","Survey No 3288/A, Sabir Nagar, near Shivaji Statue, 635, 1st Lane, Dhule","20.8951305","74.7745322"
"ChIJveVKS4nF3jsRkNUPHHUuDSM","IndianOil","Ground Floor, Deopur, Dhule","20.910058","74.7746576"
"ChIJB_ew5TrP3jsRUNhKOhWsamY","Bharat Petroleum","BALAPUR, 3KM FROM NH3 ON, Dhule","20.897453","74.8140209"
"ChIJwRVENirJ3jsRXDGDgsw0s7I","Hindustan Petroleum Corporation Limited","Plot No 21 & 22, No 24/1, 26 to 28 & 39, NH 52, Agra - Mumbai Highway, Mohadi Upnagar, Dhule","20.8754524","74.78173749999999"
"ChIJU1G0V5TJ3jsR6WjUj2qLk7U","IndianOil","Gut No 35, Plot No, 13 & 14, Mohadi Road, Arvi","20.876893","74.782394"
"ChIJm7lkYq3H3jsRmyTWNwlDaZU","Deepaarti, Bharat Petroleum","Mohadi Road, Agrawal Nagar, Dhule","20.87723189999999","74.7735953"
"ChIJN5nColLP3jsRjn6YLI_zTwE","IndianOil","Ground Floor, NH no, 3, Vadjai Rd Crossing, Parola Road, Dhule","20.8826912","74.7914472"
"ChIJbX04bSrJ3jsRRzr75Y5hyHs","Bharat Petroleum","29/2/2, Dhule - Chalisgaon Road, Highway, Pimpri","20.8596852","74.78751"
"ChIJE5UKaf3F3jsRYkx8Q3aQ7ig","Hindustan Petroleum Corporation Limited","Ground Floor, Chalisgaon Road, Dhule","20.8891301","74.77833199999999"
"ChIJB9DwNWrP3jsR_6ezkyRecDw","CBS Energy","VQQW+953, opp of DDRC Hotel, National Highway-3, Dhule","20.8883924","74.7954348"
"ChIJ2bCFiPXF3jsRP1mhBBhZN2E","Hindustan Petroleum Corporation Limited","Survey No 371, Plot No 82/1 & 2, 80 Feet Road, Ansar Nagar, Dhule","20.8921247","74.7772471"
"ChIJvYz5sBfG3jsRsll0ApErhE0","Hindustan Petroleum Corporation Limited","Ground Floor, NH 3, Agra - Mumbai Highway, MIDC Avdhan, Dhule","20.857861","74.766481"
"ChIJe7KEB1vF3jsRvTyOVhGiNdw","Bharat Petroleum","SHIVTIRTH, NR SHIVAJI CHO, Dhule","20.8966527","74.7744161"
"ChIJnaIlnT3G3jsRITFwD8jANOg","Bharat Petroleum, Petrol Pump -Bp-Avdhan (Dhule)","AWDHAN COCO, NH3, Dhule","20.85506329999999","74.7658529"
"ChIJCWhdH0vP3jsR42jwfExjwzo","B P petrol pump","VQXP+JCQ, Pawan Nagar, Dhule","20.8990927","74.78611579999999"
"ChIJnR-BpD3G3jsRZ4awJFrvUTs","IndianOil","Ground Floor, Agra - Mumbai Highway, Borvihir, Awadhan","20.853765","74.765434"
"ChIJ12EEC_jP3jsRrf96D4J-bOQ","BALAJI LPG Auto Gas (AEGIS)","Agra - Mumbai Highway, Dhule","20.8961529","74.7985502"
"ChIJsxPnjm3P3jsRF79tvtANysU","Dhruv Auto Services","NH 3, Agra - Mumbai Highway, MIDC Avdhan, Dhule","20.8529151","74.7641696"
"ChIJccYhmu3F3jsR8oZn3d7xrzI","Bharat Petroleum","VQX9+G49, Navnath Nager, Dhule","20.8987935","74.7678526"
"ChIJ4V_p9vrP3jsR8nPKEPLYohM","IndianOil","Survey No 4665, Plot No 2/3, Chaini Road, Dhule","20.902745","74.78392199999999"
"ChIJn5_fMkW33jsRQtwAFNWVxNA","Hindustan Petroleum Corporation Limited","Ground Floor, NH 52, Junwane","20.764999","74.83885500000001"
"ChIJH64pukm33jsREpGUXHf9gL4","Hinglaj Bharat Petroleum & CNG","JUNAVANE VILLAGE, ON NH 211, Dhule","20.7484625","74.84757809999999"
"ChIJVdcLmo223jsR-HHsMlgx_IQ","IndianOil","Ground Floor, Borkund","20.7371087","74.8543983"
"ChIJryUt8ZO23jsRWD_czGVMmuA","Hindustan Petroleum Corporation Limited","Gut No 53, SH 15, Shirur Hwy, Aarvi, Vinchur","20.7308901","74.8555398"
"ChIJE7fM1fq33jsRvM94mh4TYHU","Bharat Petroleum Petrol Pump , OM PETROLEUM","ARVI, Parola Road, Dhule","20.733169","74.863264"
"ChIJH4ESQDa33jsRGqRMXO4I7A4","Sarathi Petroleum BPCL","Maharashtra State Highway 15, Ratanpura","20.725494","74.8295021"
"ChIJNT0yy2iy3jsR49n8YFb74tE","IndianOil","Gut No 493, 2A, Beldarwadi, Dahiwad","20.6304291","74.9075215"
"ChIJVV2YbIWz3jsRzk4Dw7cHvMY","S.V.R Petroleum Essar Dealer","gat no.361/B.Dahiwad.Tal N H 211, Dhule - Chalisgaon Road, Dahiwad","20.6248917","74.9037689"
"ChIJ6_-bO2Sz3jsRzb60DRFh0Ow","Hindustan Petroleum Corporation Limited","Gut No 335, near Chinchgavhan, 2/P, Dhule - Chalisgaon Road, Dahiwad","20.614167","74.911913"
"ChIJsxNo8OOt3jsRKnMeawUQiH4","Bharat Petroleum (BPCL)","JW58+PJ4, National Highway 52, Dahiwad","20.6092646","74.9165913"
"ChIJY4uiW1qt3jsRLhx14TdVMNE","SHRIRAM PETROLEUM","GAT NO 321, Dhule - Chalisgaon Road, Mehunbare","20.5618456","74.9528754"
"ChIJx7lKwP6t3jsRYtSQdaBgHU4","Nayara Petroleum- VIRAM","GXH7+QMJ, Dasegaon Bk","20.5294606","74.9641421"
"ChIJu3PeegCt3jsRLUalwPSHZE0","Farming","NH 52, Mehunbare","20.5826611","74.9356889"
"ChIJB3gTRgCt3jsRLDITkBSmRmI","Sunil Chabhulal Gadhari","HWMP+457, Khadke Sim","20.5827776","74.9354213"
"ChIJA4QqwqWt3jsRoCJXYQ3m7EY","Mahajan Brothers","Mehunbare, Chalisgaon","20.5868664","74.9334828"
"ChIJKxgv_Gat3jsRlEeoqDy-Ts4","IndianOil","Gut No 259, H N 3/1/B, Khadkisim, Chalisgaon","20.5874313","74.9320297"
"ChIJm39jFzqt3jsRaCqVspgjBec","SS PETROLEUM","Khadaki seem, NH-211, Khadaki Seem","20.5856786","74.9267229"
"ChIJE4FvQx9V2TsRKe0F2xQlzYQ","Bharat Petroleum (BPCL)","Chalisgaon, Jalgaon, NH-211, Solapur Dhule Road, Jalgaon, Jalgaon","20.476393","74.991868"
"ChIJX4ruHA5V2TsRecNhC_eu17M","Bharat Petroleum (BPCL)","near RLY STN, CHALISGAON, near RLY STN, JALGAON","20.4653726","75.00294339999999"
"ChIJyagP9wtV2TsRmNtHfa78gZ8","Hindustan Petroleum Corporation Limited","FP No 290, Plot No 35 & 36, Bhadgaon Road, Chalisgaon","20.4664779","75.0104169"
"ChIJeZrb0f5V2TsRMe60ZpFW7UI","Hindustan Petroleum Corporation Limited","Gat No 3, 2/2A, Khadki","20.440715","74.971651"
"ChIJLzT9ok9V2TsRQruzDHc3px0","GAS ONE LPG PUMP REFILL","FX9H+RJX, Maharashtra State Highway 19, Old Airport Area, Chalisgaon","20.4696075","74.9791232"
"ChIJy8wBmSpV2TsRjS4-7HdM2GM","Shiv petroleum indian oil Cng","Gut No 172, 2 & 40, Maharashtra State Highway 19, Bilakhed, JJ Anna Nagar, Chalisgaon","20.4707111","74.9784244"
"ChIJz5ITkBVV2TsR8n2RRFZzJ8w","Bharat Petroleum (BPCL)","FX9M+46, Chalisgaon","20.4681349","74.9828844"
"ChIJB3J4fMOr3jsRxSAAO7IW_P8","SAINATH BHARAT PETROLEUM.","CXM4+5HQ, Khadaki Bk.","20.4329541","74.9564743"
"ChIJs1-YiqFV2TsRnWiZtumwD_0","Bajaj Petroleum, Petrol Pump","JJ Anna Nagar, Chalisgaon","20.46873069999999","74.9966669"
"ChIJ62XlkHJV2TsRB5z3K5OUoeM","IndianOil","Plot No 77 & 78, Chalisgaon","20.4569329","75.00357079999999"
"ChIJcyjYcUNV2TsR985Y8MES9Uo","Samrat Petroleum(Nayara)","Derabardi Industrial Area, Chalisgaon","20.4846973","74.98657039999999"
"ChIJ48mdDCEA3DsRvOLTG1YgL1Y","MAYARA","India","20.42588779999999","74.940961"
"ChIJQV5LOqEB3DsR6fxZkqSf0sE","BHAVSAR PETROLEUM (NAYARA ENERGY Ltd.)","Maharashtra State Highway 25, near hirapur railway station, taluka, Hirapur","20.4256626","74.9410126"
"ChIJJTtPDQlV2TsRmYTbfWMIXGY","Bharat Petroleum","India","20.4667904","75.0107956"
"ChIJXUYsDQlV2TsRzv3PRu4Alec","Jai shankar Petrol Pump","opp. Ghate Complex, SH 19, Bhadgaon Road, Chalisgaon","20.4667905","75.0108853"
"ChIJuVY8c8VU2TsRH1QLEAReKr8","IndianOil","Gut No 209/2/1 Kargaon, Chalisgaon","20.493683","74.9805871"
"ChIJm2VGZqBV2TsRRnwkit1l4jE","IndianOil","Plot No 294/1, Shastri Nagar, Kharjai","20.4622132","75.0156554"
"ChIJGXjmD2f-2zsR72mkyqivDQo","Bharat Petroleum Petrol Pump","Ranjangaon, Jalgaon, NH-211, Solapur Dhule Road, Jalgaon, Jalgaon","20.4005927","75.04053400000001"
"ChIJBSqKuLr_2zsRGFJ7zveGk1E","Hindustan Petroleum Corporation Limited","GAT No 424/P, NH 211, Dhule Solapur National Hwy, Ranjangaon","20.3949734","75.04346269999999"
"ChIJg7wjd4_-2zsRWbaJfK1gYWM","MS DESHMUKH PETROLEUM","Chalisgoan, Nh-211, Dhule - Solapur Highway, Ranjangaon","20.3947999","75.0429545"
"ChIJbSOPpi9V2TsRvkp5yQSCa1g","SHREE SADGURU KRUPA PETROLEUM","National Highway 211, Chalisgaon","20.3718256","75.0504291"
"ChIJM2b1kGP_2zsRWhiD19oNTwI","Nayara-Malhar Petroleum","Ranjangaon","20.4142015","75.0366839"
"ChIJ5ZEioIz72zsRIxT6veaUFLI","Satdive Petroleum Nayara Energy","74M2+P9, Telwadi","20.2843333","75.1009934"
"ChIJ_0denY372zsR0mGbo5hmgtc","Kashi Ghushneshwar Petroleum - NAYARA","ANDHANA Fata, Kannad","20.2752091","75.115968"
"ChIJEeM39o762zsRbIWxzDxU0_g","NAYARA","India","20.2750283","75.1165012"
"ChIJCf5Q3D3y2zsRr5XmI_wNDLc","Yash Petroleum Cng Pump","Verul, Aurangabad, SH-22, Dhule Daulatabad Highway, Aurangabad, Maharashtra State Highway 22, Aurangabad","20.150812","75.129511"
"ChIJU-Ggecz53jsRgrTPWLcEjO8","IndianOil","Gut No 40 Part Hatnur, Kannad, Upla","20.154319","75.1290454"
"ChIJ2fF-bgDz2zsRsOQx3FPVl2c","CNG gas ASHA petroleum","4469+MF, Alapur","20.111675","75.1187483"
"ChIJQ2oSHwDz2zsRSrUXxqj7iiY","CNG gas ASHA BHARAT PETROLEUM","NH 52, Dhule - Solapur Highway, Galleborgaon","20.1113948","75.1187755"
"ChIJNbbZEOby2zsRxfkPjGq4O14","Hindustan Petroleum Corporation Limited","Gut No 17, 1 Aurangabad, Dhule - Solapur Highway, Kannad, Galleborgaon","20.101822","75.118618"
"ChIJNSbtxC-S2zsRGfBDCJBNLUs","IndianOil","Aurangabad, Gut No 187/2A, Mhasawad, Sulibhanjan, Nandurbar, Shahada, Gadana","19.9978481","75.1914178"
"ChIJ37M81H2N2zsRlpGRKO87M1c","IndianOil","Ground Floor, Verul","20.036315","75.1519565"
"ChIJGfsb09GN2zsR_Su4dEbmUKA","Hindustan Petroleum Corporation Limited","near Kasabkheda, Gut No 24 Khuldabad, Mambapur, near Kasabkheda, Fata, Kasabkheda","20.009821","75.14121399999999"
"ChIJg9w2pq6N2zsR9CwnzIW_Ngw","Ellora Petroleum and Multiservices","National Highway 52, Malkapur","20.0021367","75.131793"
"ChIJLXLD1MKN2zsRw49Prv79YjI","Hindustan Petroleum Corporation Limited","Gut No 39, Khultabad, Malkapur","19.9933727","75.1286063"
"ChIJK56V5JGN2zsRTkPenoC_ixM","CNG Pump, Chandora","Khuldabad, Nh52, Dhule - Solapur Highway, Kasabkheda","19.9908711","75.1279976"
"ChIJf2AE_NyN2zsRU8r6z5CP40A","Bharat Petroleum, Petrol Pump -Paardeshwar Petroleum CNG pump","Mategaon - Kasabkheda Road","19.9908334","75.1280353"
"ChIJBQHR2GST2zsRdZVV1NZ5s_U","Rudra Naral Center","Shop No 1, Maruti mandir, Khuldabad","20.0107139","75.1965056"
"ChIJDZ6RLK6Q2zsR6X6w_QiVtpQ","Bharat Petroleum Corporation Ltd","W65Q+QPC, National HIghway 211, Shernapur","19.9094391","75.2392808"
"ChIJa8mCsGqR2zsRYOrTTG8eiTU","IndianOil","Gut No 29, Part Mitmita, Padegaon, Chhatrapati Sambhajinagar","19.908083","75.245768"
"ChIJQcVaObCQ2zsRheVYjQ6c1Wo","Hindustan Petroleum Corporation Limited","Gat No 97/1, NH 52, near T Point, Road, Daulatabad Road, Shernapur","19.9109428","75.2381946"
"ChIJU6BmLLCQ2zsR6weeNlr-ypI","IndianOil","Ground Floor, NH 211, Shernapur","19.909986","75.23885299999999"
"ChIJc5_2bQmR2zsRUcKt5jzlOI4","IndianOil","Gut No 96, Sharnapur, Maliwada","19.9285456","75.22165199999999"
"ChIJJZPkjVeX2zsRgPtEwFiXr7U","PURTI GAS","India","19.9016888","75.2588973"
"ChIJpfUY20qR2zsRvuUqvBA8c3Y","IndianOil","Gut No 96 Maliwada, Shernapur","19.91972","75.21989400000001"
"ChIJXZpayUGR2zsRNi9Q-IUbgPw","Renukamata Petroleum","Gut no 96, opp. jain internationalschool, Aurangabad - Nashik Highway, Maliwada","19.9195226","75.2198023"
"ChIJQ-TCu4OX2zsRNRbaeFrYL8w","Hindustan Petroleum Corporation Limited","Gat No 131, Mitmita, Chhatrapati Sambhajinagar","19.9000392","75.2643805"
"ChIJe3sspfGR2zsRImEZdVFR5LU","IndianOil","gut No, 56/part, Shernapur","19.8981261","75.2292738"
"ChIJCQwsFgCZ2zsRVbqymfq3swY","Bhaskara HP Gas Agency","Aurangabad trade centre, opposite tarangan, below Moti medical mitmia, Aurangabad - Nashik Highway, Padegaon, Chhatrapati Sambhajinagar","19.8939256","75.27484009999999"
"ChIJAzYQ5na92zsRdQ08jqijEzQ","IndianOil","Ground Floor, Ajanta Jalgaon, Bypass Road, Sawangi","19.95044099999999","75.35679499999999"
"ChIJ75OONgC92zsR3Q4x2eX-MTY","Nikumbh petrol pump","X944+9PP, Ashrafpur","19.9559661","75.3568269"
"ChIJrySlkHO92zsR_mZc09JT7so","Hindustan Petroleum Corporation Limited","Gut No, 185, Bypass Road, Sawangi, Chhatrapati Sambhajinagar","19.948603","75.361031"
"ChIJK0zwcGq92zsRfxqQTgGNne0","NAYARA PETROL PUMP (GURUKRUPA PETROLEUM)","Harsul Toll Naka, Harsul, Chhatrapati Sambhajinagar","19.9349576","75.3533495"
"ChIJxwViT3uk2zsRt_n--6Iswaw","Nava Bharat Petroleum CNG Station, sundarwadi","30, Nagpur - Aurangabad - Mumbai Highway, Mahesh Nagar, Sindhi Colony, Chhatrapati Sambhajinagar","19.8623131","75.44538469999999"
"ChIJzwkmza6l2zsROqg-fVlkB4Q","IndianOil","Gut No 326, Shendra MIDC, Chikalthana, Kubhephal","19.875174","75.477474"
"ChIJtYYNyFak2zsRltS8QMJFo5o","Hindustan Petroleum Corporation Limited","GUT No 52P, Jalna - Aurangabad Road, Shendra MIDC, Aurangabad","19.866239","75.473655"
"ChIJ0eAhnfCl2zsRt3zYVbNFeRI","Adwik dharm kata 100 टन","Shendraban","19.8831487","75.495943"
"ChIJp3Wf7Xuk2zsRsjlhfkWzFE0","IndianOil","Ground Floor, Jalna - Aurangabad Road, Sundarwadi","19.8622934","75.4413021"
"ChIJ2VYPT5Cu2zsR9rXdMHaXzKM","Mansingh Petroleum BP CNG Pump","SH-30, Nagpur - Aurangabad - Mumbai Highway, Hasanabadwadi, Aurangabad","19.869409","75.6072245"
"ChIJrcHITACv2zsRaC0cKj9vo24","RK_CNG_pump","VJ94+JR9, National Highway 753A, Hasanabadwadi","19.8690366","75.6071008"
"ChIJ36ezYeOt2zsRuLggGym27ZE","Hindustan Petroleum Corporation Limited","Gut No 85/P, near Amritsar Hotel Punjabi, Jalna - Aurangabad Road, Shekta","19.86912929999999","75.63677489999999"
"ChIJP51oZQCv2zsReGOCa_Mf39k","SK PETROLEUM JIO BP","GUT NO 345/1, Cha Sambhaji Nagar, next to Goldie Dhaba, Jalna Road, Aurangabad","19.8698148","75.5786902"
"ChIJrbxydJVT2jsRdrt9GCmY0rw","Mahalaxmi Petroleum","Nagpur - Aurangabad - Mumbai Highway, Shelgaon","19.8725541","75.780542"
"ChIJsRrM83pT2jsR7L75tpAfQkw","kamalakar kale","WQ7V+GCQ, Najik Pangri","19.9138443","75.7936053"
"ChIJXxH-xeZT2jsRrbALqG8LumY","Hindustan Petroleum Corporation Limited","Ground Floor, Jalna - Aurangabad Road, MIDC, Dawalwadi","19.871455","75.800398"
"ChIJF12taehT2jsR-MCNE1JbKnA","A. P. Patel & Company (Diesel Pump)","VQCV+WJC, Nagpur - Aurangabad - Mumbai Highway, Dawalwadi","19.8723183","75.7940126"
"ChIJb8AG3ohX2jsR_54jfqVBM1w","Bharat Petroleum, Petrol Pump -Tirupati Auto Service","DAVALWADI, JALNA BADNAPUR, Jalna","19.8707923","75.8070752"
"ChIJuX_QoF5R2jsR-4iklsWpoAg","IndianOil","Ground Floor, Dawalwadi","19.8713029","75.81250610000001"
"ChIJb0-LAlxR2jsRhNWFwv1vTtA","Mauli Tyers","VRC7+64M, Jalna","19.8705839","75.8128081"
"ChIJ1woHRQBR2jsRdrvuV0yKStU","HP petrol pump","VR9C+Q54, National Highway 753A, Pirkalyan","19.869381","75.8204477"
"ChIJ_5PopzJR2jsRda3tOMLehfI","Hindustan Petroleum Corporation Limited","Gat No 299, P Nagewadi, Dawalwadi","19.869377","75.820611"
"ChIJ2dS-WgBR2jsRUlsTvI5vJQ8","TR ekhande Bharat Petroleum","VRJQ+3C, Nidhona","19.880236","75.8385922"
"ChIJbxHn9tZb2jsRvrMyL6eepzc","IndianOil","Survey No 83, Devalgaon Raja Road, Jalna","19.8865844","75.9082993"
"ChIJ_7pK-nxb2jsR-gwa5eGhy6A","Paroma petroleums","VW9X+G4G, Navha Road, Deomurti, Jalna","19.868806","75.9478223"
"ChIJ8SvwHkxb2jsRrosHvcej6Vg","Nayara Petroliums","VW9W+9XW, Nava road, Deomurti, Jalna","19.8684819","75.9474424"
"ChIJQ2_bR71b2jsRJVuqGuo5aR8","Hindustan Petroleum Corporation Limited","Gut No 204, National Highway 753A, Panshendra, Jalna","19.881781","75.90702399999999"
"ChIJYXtOPgBR2jsRBDEYdX0LfAk","Refreshment services on Samruddhi Highway","VVQV+C8Q, Jalna","19.8885914","75.893372"
"ChIJSZaiEQBR2jsRxdghKAEOZ7s","HP PETROLIUM ADHOC SHREE SAI","near Hindu Hrudaysamrat Balasaheb Thackeray Maharashtra Samruddhi Mahamarg, No 364, Corridor, Gundewadi","19.8886106","75.8932396"
"ChIJV3demqpd2jsRQ0iZdUGoFDs","Hindustan Petroleum Corporation Limited","Ground Floor, Hindu Hrudaysamrat Balasaheb Thackeray Maharashtra Samruddhi Mahamarg, Navha","19.9170286","76.0414378"
"ChIJt4H7PWNd2jsR0j2ZiqA3LBI","Bharat Petroleum, Petrol Pump -Shree Gajanan Corporation","NASHIRABAD PHATTA, BHULDANA","19.9342004","76.0815985"
"ChIJQ77hjmJd2jsR_FSzsYpuUB8","IndianOil","Gat No 122, Sawargaon Mal","19.9348398","76.084407"
"ChIJd1BfnKpd2jsRJVAQn3CDD4k","M/s. NAVKAR FUELLING STATION","Dealers: Hindustan Petroleum Corporation Limited, State Highway 177, Nagpur Mumbai Express Highway, at Post Navha, Jalna","19.917193","76.04118299999999"
"ChIJfbkv28ld2jsRrNPvcjKsk3A","Bharat Petroleum, Petrol Pump -Agrawal Brothers","NHAVA, Jalna","19.9141554","76.02966300000001"
"ChIJNZzU11lc2jsRQWs0cc7TE_A","IndianOil","Gut No 217, Chikalthana, Aurangabad","19.913041","76.027496"
"ChIJ2W7t2xhm2jsR_DFz-Jwe68s","Bharat Petrol Pump","X585+H36, SH183, Buldana","19.9664213","76.1576396"
"ChIJXzblEiVm2jsROhVkYrfWqLY","Hindustan Petroleum Corporation Limited","Ground Floor, SH 183, Kingaon Raja Road, Near, Sindkhed Raja","19.960437","76.141594"
"ChIJW7F32S9m2jsRgVRgtYu9Xu0","Bhagwan Baba HP Petroleum","X46R+7JH, Maharashtra State Highway 183, Sindkhed Raja","19.96067829999999","76.1416057"
"ChIJ76NrDg5n2jsRhHYGEGBmu4w","Bharat Petroleum, Petrol Pump -Shree Ram Corporation","BHULDANA, Sindkhed Raja","19.9582341","76.13737739999999"
"ChIJe80LqDJx2jsRbPKOCV2PuJ8","IndianOil","Gut No 143, Part Lonar, Mandwa","20.042814","76.34554000000001"
"ChIJKSKI0a9x2jsRP1ZpimAJO4A","IndianOil","Gut No 143, Lonar, Mandwa","20.0413839","76.3517896"
"ChIJscoTH2Vx2jsRpaFIVFylQR8","Hindustan Petroleum Corporation Limited","near Dusarbid, Ground Floor, near Dusarbid, Hindu Hrudaysamrat Balasaheb Thackeray Maharashtra Samruddhi Mahamarg, Malkapur Pangra","20.059771","76.337614"
"ChIJ_5paWe5x2jsRpKyPcKQXodk","IndianOil","Gut No 107, Lonar, Mandwa","20.0482376","76.364235"
"ChIJC92Yjp532jsRToeeB6e0y6Q","Swagat petrol pump","Hindu Hrudaysamrat Balasaheb Thackeray Maharashtra Samruddhi Mahamarg, Gumgaon","20.0476499","76.3646227"
"ChIJUzH9QAB32jsRkeeFxEFAkHE","Dusarbid Stop Petrol Pump","near Bus Stand, 142, near Bus Stand, Malkapur Pangra","20.0476253","76.3649761"
"ChIJ8VGQ7lF32jsRIsHZ56HtO7M","Indian Oil","29WC+R6, Kumbefal","20.0466701","76.3713671"
"ChIJjdedUQBx2jsRPITBhtsgpQ0","Durgesh Petroleum Chorpangra. (BHARAT PETROLIUM)","SINDKHED","20.01106249999999","76.3450625"
"ChIJ1RDr_TN32jsRCgd1SoE-Tao","IndianOil","Ground Floor, Mehkar Road, Bibi","20.019403","76.36953009999999"
"ChIJ02j8e5Rw2jsRQ0_kiw_xIRc","Hindustan Petroleum Corporation Limited","Ground Floor, SH 183, Sindkhed Raja","20.0072562","76.3351648"
"ChIJk4Rky9tx2jsRuCwU80uPsWY","Bharat Petroleum, Petrol Pump.Sable Petroleum","284M+M6J, nagarmal Mumbai, Aurangabad - Nagpur Road, haywey, Dusarbid","20.0067211","76.333016"
"ChIJo2i_HS6c0DsRoklRPOILCoE","IndianOil","Gut 892, Aurangabad - Nagpur Road, Sultanpur","20.0823527","76.5089857"
"ChIJWV5v3cuf0DsRapUOv03VXc4","IndianOil","Gut No 425, Part A, Lonar, Sultanpur","20.1060835","76.5317676"
"ChIJaQQXTz290DsR8QTHhCQmosw","Shree Ram Corporation Adhoc Petrol Pump BPCL","Hindu Hrudaysamrat Balasaheb Thackeray Maharashtra Samruddhi Mahamarg, MUMBAI","20.20549979999999","76.7091354"
"ChIJXbPhzdC90DsRqvtMdppN21Y","Hindustan Petroleum Corporation Limited","Gut No, 351/2A, Mehkar, Dongaon","20.204782","76.715846"
"ChIJi_lvK9O90DsRZ2BtyoaSmC4","Adhoc Shree Bhalchandreshwar petroleum(HPCL)","Dongaon","20.204714","76.71589"
"ChIJu5mtHsyX0DsRgZYDFJvKQeY","IndianOil","Gut No 207 & 203/1A Mehkar, Dongaon, Anjani Khurd","20.180001","76.71000099999999"
"ChIJmbDflEeW0DsRvhszUtk1X5o","Indian Oil","India","20.1775897","76.7005432"
"ChIJjSo7VgCX0DsRNBgaaa-fWfA","Atiyab Petroleum","5PG2+X6W, Aurangabad - Nagpur Road, Dongaon","20.1774976","76.70058809999999"
"ChIJ5Y8TB-2V0DsRH4LzFqhk3b4","Hindustan Petroleum Corporation Limited","Gut No 89, Malegaon Mehkar Road, Risod","20.190092","76.750795"
"ChIJTaXR2pvd0DsRJSTUd3lLzRI","Hindustan Petroleum Corporation Limited","Ground Floor, Hindu Hrudaysamrat Balasaheb Thackeray Maharashtra Samruddhi Mahamarg, Davha","20.3079938","77.0584251"
"ChIJCzMnUgDd0DsRrxC1EEiSPBw","Hindustan Petroleum","824W+5M5, Ansing","20.3053828","77.04674399999999"
"ChIJKYhD_RTd0DsRQPUhxHJ5Voc","HP Petrol Station","824W+5M, Ansing","20.3054017","77.0466367"
"ChIJM4jMS8Qw0TsRdlcsp48T3VA","Reliance Petrol Pump","FFG4+M59, State Highway 207, Sherpur","20.4766593","77.455485"
"ChIJB6KLX9Aw0TsR7nqsHz8Qsjs","Petrol Pump","FFM6+J4J, Karanja","20.4840861","77.46026049999999"
"ChIJ4x4HKGIx0TsRHxT3_B-ukPA","Bharat Petroleum, Shiv Petroleum","Sambhaji Nagar Road, Nagapur, Karanja","20.4737303","77.4535748"
"ChIJa6LEcIjX0DsRPHGUsoRJYtI","Reliance Petroleum","Karanja Mangulrpir Road, Kinhi","20.4766571","77.4554648"
"ChIJLRNGmzA30TsRVctdsA_i4t0","Hindustan Petroleum Corporation Limited","Ground Floor, Yavatmal Road, Karanja","20.478701","77.4811301"
"ChIJgxj-0x030TsRjPupINoU5Dw","SAHARA SUPER SERVICES (ESSAR PETROL PUMP)","State Highway 207, Karanja","20.4896819","77.5069949"
"ChIJe-12LgDj0DsR5xpraSK30m4","Nayara Petrol pump ganga Shankar petroleum","Nayara Pump Ke Pas Nayara Petrol Pump, 02, Aurangabad - Nagpur Road, Washim","20.4895789","77.50803259999999"
"ChIJ5axYlbA30TsRgrRnFigsFYo","Hindustan Petroleum Corporation Limited","Ground Floor, NH 753C, Kherda","20.5099701","77.535156"
"ChIJ2-lmQzU30TsRAmdSZutzUMU","Bharat Petroleum, Petrol Pump -R. J. Chaware","MAIN ROAD KARANJA, WASHIM, WASHIM","20.4851699","77.4852282"
"ChIJufUMV9Uw0TsRl6IAJEQ1vAs","Hindustan Petroleum Corporation Limited","Ground Floor, Bypass, Karanja","20.4937684","77.4694066"
"ChIJexWg3xox0TsRRSN-4J6QiUU","Laxmi Petrol Pump Nayara Energy Ltd","Plot no. 9, Bilkheda, Karanja","20.5062774","77.46247900000002"
"ChIJR8fHUTA30TsR9U00ihNyMes","IndianOil","Ground Floor, Bhatumra","20.4802268","77.4792817"
"ChIJMQdXw8hJ0TsRYB3dxLO1CPk","Ambika petroleum","GJXG+7PM, Kh, Donad","20.5482176","77.62680879999999"
"ChIJKWJMbh1J0TsRZWeJRLHtrng","IndianOil","Survey No 111/4, Karanji, Chinchamba pen","20.547436","77.6267225"
"ChIJlbO1FWlJ0TsRoxYi-SSK9oI","BHARAT PETROLEUMA DEVAASHISH PETROLEUM","Nagpur Aurangabad highway, donad bk","20.54765129999999","77.628304"
"ChIJ18PBNoZL0TsRAnfoe-qfvo4","Nayara","India","20.5898307","77.6502855"
"ChIJX_GjUoBV0TsR_TLtcUi6NkI","Bharat Petroleum","JR5W+875, Gavner talegaon","20.608255","77.8457488"
"ChIJMc2CaWdU0TsRl9lY4wwN12o","Hindustan Petroleum Corporation Limited","Ground Floor, near Shingnapur Junction, Nandgaon Khandeshwar","20.608655","77.85529989999999"
"ChIJhcHg6_p01DsRJzER4O6buQI","HARIPRIYA PETROLEUM SERVICES Essar Petrol Pump","Q82H+PJ6, Hiwara","20.7517939","78.3290209"
"ChIJ4ff1_kNz1DsR4f_YeGySMbo","Bhawani Indian Gas Agency","R932+RX8, Virul","20.8045236","78.3524266"
"ChIJ48qYx5Nz1DsR0SnNy8xkDJg","Rupal Indane Gas Agency","Shop No 2, Virul","20.804403","78.3526988"
"ChIJR5qpP7p11DsREovWZRbk-cg","Shree Ganesh Krushi Kendra","Shop No1, Rasulabad","20.7584843","78.33273179999999"
"ChIJWXFvXDFz1DsR6RHgWP_EpRU","IndianOil","Ground Floor, IRenkapur, Arvi, Girad","20.7983819","78.36630699999999"
"ChIJcT8S7hp31DsRLkswh1oCPdM","Hindustan Petroleum Corporation Limited","Survey No 73/2, Plot No 2, Wardha Rasulabad Road, Waifad","20.7631315","78.4392259"
"ChIJtxkZ1hN31DsRukZthsKqDeo","HP PETROL PUMP - SURYODAY PETROLEUM","Survey NO 73/2 Plot NO .2 AT Post Waifad, Nagpur","20.765012","78.446803"
"ChIJiyicCJ2A1DsRDFolL9VSNBU","SHREE MAHALAXMI AUTO SERVICES Nayara Petrol Pump","8 K.M. on Wardha-Nagpur Highway, MSH3, Village Pawnar, Wardha","20.778564","78.659008"
"ChIJ7Tmf82F_1DsRwR_MyA0lSFY","Wankhede Petrol Pump","Wardha Arvi NH Pipri","20.7946776","78.59451899999999"
"ChIJk4EiT9Cb1DsRc108zaFRmkE","Hindustan Petroleum Corporation Limited","Hissa No 67, Toll Plaza, Gut No, near Haladgaon, 2/1, Nagpur Wardha Road, Hingna, Wadgaon","20.8525262","78.864212"
"ChIJ0aEyNA6b1DsRodao8e1BH60","Hindustan Petroleum Corporation Limited","near Sankat Mochan Temple, Ground Floor SH 3, Kelzar, near Sankat Mochan Temple, Aurangabad - Nagpur Road, Wardha","20.8458258","78.8263125"
"ChIJE4Trv2mE1DsRW9Wz4d8CHWc","Indian Oil","India","20.8409424","78.7774483"
"ChIJCWwJRvKb1DsRqp3Cr0faLzM","Jio-bp","VV27+HC, Wadgaon","20.8504793","78.86240289999999"
"ChIJc-9w9F-X1DsRQlR60NxYSNE","IndianOil","Ground Floor, Waifal, Ashta, Hingna","20.9763878","78.92528349999999"
"ChIJodxNKfmX1DsRcm-h8-PdHmQ","Bharat Petroleum","XWHM+QF, Sukali","20.979829","78.9342331"
"ChIJF69fqKSV1DsRtog1M8bQQYw","Mohanty Petroleum","Shop No 1, Sakai Dabha, Gumgaon, Road, Midc, Butibori","20.9580402","78.9589294"
"ChIJk_F3UI6X1DsR8g5T19MQ4wQ","IndianOil","Ground Floor, Hingna, Salaidabha","20.95805069999999","78.9591892"
"ChIJLcWOx9y91DsR_7pn4i89-qw","Nayara Petrol Pump","Jamtha","21.0137662","79.0461179"
"ChIJv_0lRW--1DsR0iI23GB8UtM","IndianOil","No 119, Central Avenue, Amravati Road, Nagpur","21.041848","79.0518101"
"ChIJPWsk0Fy-1DsRwG2Z5qDjPt0","Bharat petroleum Amin Khapri","Chandrapur - Nagpur Road, Nagpur","21.0523421","79.0537974"
"ChIJVVWSDrnPADsRofIaXn5st-w","Reliance Petroleum","No 40/3B, 4 & 10 Thiruparankundram Road, National Highway 44, Pasumalai, Madurai","21.0229385","79.04738789999999"
"ChIJm-hzZwC_1DsR6lRnLdBtlic","IndianOil","Ground Floor, Amravati Road, Wardha Road, Parsodi","21.032718","79.05230700000001"
"ChIJZYfw6Jy_1DsR0S3-qSaVkEk","NINAVE CL1","Outer Ring Road, Nagpur","21.0342108","79.0769078"
"ChIJtWiDzri_1DsRuw3ktubLSqs","Petrol Pump","tuli petrol pump, Khapri","21.042637","79.05176159999999"
"ChIJu0ek7uq91DsROMLfPnxo3w4","IndianOil","National Highway 44, Jamtha","21.0025104","79.0402077"
"ChIJ51REegC_1DsR_92AxSDvTsk","Hindustan Petroleum Corporation Limited","Ground Floor, near National Cancer Institute, Outer Ring Road, Jamtha","21.0290286","79.0311329"
"ChIJEdxgwha_1DsRRqg6UYh9dUU","MODERN FUEL LINKS","23X3+92M, National Highway 44, nipor","21.04846749999999","79.0525613"
"ChIJN_mZdgC_1DsRwB4m-_Tb0ZU","Refilling station of clean hydrogen","332C+64X, Nagpur","21.049651","79.069372"
"ChIJKdlGTFa_1DsRqCyvGt6TIUY","Bharat Petroleum Petrol Pump , AMIN TRANSPORT PVT LTD ADHOC","MADC, Mihan, Nagpur","21.053421","79.03956900000001"
"ChIJcdOZVQC_1DsRV_054HENkYw","J.k Farm","Tal. dindori, Dahegaon","21.0409412","79.0249516"
"ChIJ6fJPCXq91DsR-zf31bg2xeU","Bharat Petroleum, Petrol Pump -Industrial Explosives Pvt. Ltd.","DONGARGAON, Wardha Road, NAGP","20.9908465","79.0316067"
"ChIJOzprbrS_1DsRe7a24RDUc_0","Hindustan Petroleum Corporation Limited","Khasra No 157/2, Chinchbhavan, near Narayana School, Chandrapur - Nagpur Road, Khapri","21.0631567","79.05759239999999"
"ChIJF4rCn1S41DsRO7K_B5Vlo-Y","Hindustan Petroleum Corporation Limited","PH No 37, Gat No 21, Ring Road, Vhirgaon","21.0807213","79.16046430000002"
"ChIJkU7D-4Ku1DsRySLfxIGaRUE","Jio-bp","near 16 Km Milestone, SH 9, Umred Road, Kalamna, Nagpur","21.100202","79.152902"
"ChIJcSJMDZK41DsRarlH8oTgjeM","IndianOil","Gut No 32, opposite new Dogri naka, Mouza, Dighori, Godhani","21.1059536","79.1431097"
"ChIJZTVcJke51DsRka78VQ-jui8","JASMIN HIGHWAY","Traveling towards umred road, road, by pass, Hyderabad","21.08029029999999","79.1599269"
"ChIJM7wSrFO41DsRPO03Buhdg2c","STAR","India","21.0826356","79.1630496"
"ChIJ-3TxRY651DsRDCOPxh2RW0Q","IndianOil","Ground Floor, Kalamna, Umred Road, Adegaon","21.0646473","79.1651256"
"ChIJQ4xcxvW51DsRhNNEr63xx2Y","Bharat Petroleum, Petrol Pump -Narendra Oil Agency","BAHADURA,UMRER ROAD, NAGPU, Nagpur","21.0979633","79.1516578"
"ChIJfz0L6jC51DsRjh3WiQsT_Wk","Bharat Petroleum","NH53","21.08679129999999","79.176194"
"ChIJdRuL1Iy41DsRdtxWKHvlUpY","Hindustan Petroleum Corporation Limited","Ground Floor, Umred Road, Mouza Gonhi, Vihirgaon, Dighori, Near, Dighori Naka, Nagpur","21.1021858","79.14647169999999"
"ChIJzUeXBpe51DsR7-6rrgRy7dA","Jio-bp","near 16 Km Milestone, SH 9, Umred Road, Kalamna, Nagpur","21.0569147","79.1676272"
"ChIJ7e_qsO651DsRay7kQAYqI9M","Parmatma Ek Fuel station","Bharat Petrol Pump, near Toll Plaza, Takli Bansadi, Patansaongi, Nagpur","21.0980812","79.136642"
"ChIJBSWCYga51DsR5yRm5Ea01ms","Baidyanath LNG and CNH station 1","NH53","21.0948432","79.1791981"
"ChIJqVcyNwC51DsRXHlYRCTmYLc","B-LNG Station 3","3538+RR3, Kalmana","21.0545103","79.16705979999999"
"ChIJq8lfW1-51DsRvJ5ubPnqTvo","Bharat Petroleum, Petrol Pump -Om Satyam Petroleum","Hudkeshwar Road, Hudkeshwar","21.0850054","79.12501069999999"
"ChIJJSa7agC51DsR-2ceLkzT8rc","DHAWALE CNG PUMP","443M+9XG, Dighori, Nagpur","21.1034285","79.1349557"
"ChIJ1dyJC7651DsRa7jTUKj2xzI","Mahalaxmi Petroleum","34XC+5XP, Hudkeshwar Road, Dube Nagar, Kadu Nagar, Chandrakiran Nagar, Nagpur","21.0979675","79.1224601"
"ChIJnYxTVI251DsRLYdibQ0pmq4","New Reliance Jio CNG pump,Tarodi","Under Construction, Bypass, नागपूर","21.1085776","79.1817019"
"ChIJ__n8FBS41DsRwn-N7o1ZVUM","bp","455J+FP3, Chattarpur Road","21.1086258","79.1818007"
"ChIJk2UYbbi41DsR6rXfMKZJQrg","Rajapeth","Hudkeshwar Road, Renuka Mata Nagar, Sanmarga Nagar, Nagpur","21.1022718","79.1219074"
"ChIJo963RY651DsR5tAIuzbLWTA","Pawansut Petroleum ( Indian Oil Co Ltd )","Pachgaon","21.042488","79.1698086"
"ChIJCRAdOJy11DsR6KcbvSwnDr8","Krushnatara Bharat Petroleum पेट्रोल पंप","48PJ+54, Wadoda","21.1365993","79.3302896"
"ChIJ3TsaMADL1DsRF5dWq1WQqwQ","Jio Fuel Station","48PH+XX7, Wadoda","21.1372279","79.3296934"
"ChIJdce8RADL1DsRKZTG0STTluY","jio BP CNG pump","48PH+XX7, Wadoda","21.1376785","79.32962909999999"
"ChIJydALMBy11DsRtbG2FUA_AO4","Tawale Petroleum - Nayara Energy RO","48QX+25V, Kolkata - Mumbai Highway","21.137603","79.3479274"
"ChIJZ5E6pPO11DsRvNHutFRFEKg","BP WADODA","BP WADODA VILLAGE WADODA NAGPUR BHANDARA ROAD, NATIONAL HIGHWAY 06, Wadoda","21.1381289","79.34827770000001"
"ChIJMbgrzOTH1DsR1loBEXd_UWA","Highway Auto Services HP","Bhandara Road, Kamptee - Kapsi Road","21.1366504","79.322093"
"ChIJhdYkNce11DsRb28lUBvc_i4","Hindustan Petroleum Corporation Limited","Ground Floor, NH 6, Bhandara Road, Nagpur","21.1350247","79.30321099999999"
"ChIJcfg7WP611DsRBshrU80GtMo","Shree sai balaji automobiles,gumthala","near balaji Balaji bar, Bhandra road,gumthala, near balaji Balaji bar, Kamptee","21.1344697","79.30302560000001"
"ChIJURNdi0XL1DsR9te7E3G7G-M","SMT FUEL STATION","49VM 3CR, Bhandara Road, Mathani","21.1406924","79.3789666"
"ChIJYyvb8eE3KzoRvtYUl94kgGY","Hindustan Petroleum Corporation Limited","Khasra No 136/1A NH 6, Bhandara Road, Mou, Nagpur","21.1557794","79.49918459999999"
"ChIJ2XQAlm43KzoRT_V-U4f8lJU","Bharat Petroleum Petrol Pump , PETROFILL PARADISE","AT VILLAGE BORGAON, ON NH 6NAGPUR, Bhandara Road, Nagpur","21.1572902","79.47601"
"ChIJ-xl6dgA1KzoRDof2t7w1OpA","Jio Petrol Pump","5F37+JV, Bhamawada","21.1541121","79.46463399999999"
"ChIJDfcUoEM3KzoRocCBMIWhuiI","BP Petrol & CNG Pump","5G35+J5, Kharbi","21.1540055","79.5079695"
"ChIJ09zNJ4hHKzoR08Aif8B56Ig","BP BHANDARA, Bharat Petroleum COCO Retail Outlet","Nagpur - Kolkata Highway, Ashoknagar","21.1530343","79.5918095"
"ChIJO9HuXcA4KzoRxmYFduUxsQI","Hindustan Petroleum Corporation Limited","Ground Floor, Khat Road, Bhandara","21.18121099999999","79.630011"
"ChIJ6bueWodHKzoRN-ZHHgENU5M","Reliance","India","21.1529538","79.59877139999999"
"ChIJIxHcIR05KzoR6mRXGH-C40o","Jio-bp","Ashok Ngr, Survey No 367/2 NH 53, Shahpur, Mujbi","21.1532493","79.59897169999999"
"ChIJ-aO759hHKzoR3xGDd_Fcc8w","Bharat Petroleum, Petrol Pump -BP-Bhandara","Ashoknagar","21.1504145","79.5912993"
"ChIJ02CPE504KzoReETX7VpgmUg","Hindustan Petroleum Corporation Limited","PH No 10, Gat No, 180/1, Bela","21.1568389","79.6185319"
"ChIJIUdXD6g4KzoR576iE7jcMjA","IndianOil","Lock No 13007, Gut No 34/10 & 34/11, Ganeshpur","21.1570901","79.63931699999999"
"ChIJ_Yp6OCVBKzoRhVoBnA34MyI","BHARAT PETROLEUM NATIONAL FUELS","On NH-6, Paladi","21.1283702","79.7030028"
"ChIJE80RlaJBKzoRDkrzgRLTJ-o","Nayara Petrol pump Sainyam Petroleum","4PF5+JHW, Nagpur - Bhandara - Rajnandgaon - Raipur Highway, Paladi","21.1241217","79.70893769999999"
"ChIJyyECD95BKzoRpUZSSUAaNF8","Hindustan Petroleum Corporation Limited","Ground Floor, NH 53, Bhilewada","21.1327182","79.6956362"
"ChIJH4YzklBBKzoRJq3b6Kd6m-E","A R Petroleum","Hpcl petrol pump mouza, Bhilewada","21.1335578","79.6945751"
"ChIJvYWLaABBKzoRDckfF561la8","B.R. AMBEDKAR CHOWK BHILEWADA","4MQP+CMW, Bhilewada","21.1386145","79.6866933"
"ChIJdQ5ETQBBKzoRHUlABzAPXA8","Bharat petroleum","4MFG+79, Ambadi","21.1232127","79.6759016"
"ChIJVxTWleBBKzoRsW2e0aLu0pY","Gajanan Petrolium","Pauni Road, Palgao Area, Ambadi","21.1231155","79.67574300000001"
"ChIJ0yCg5PtBKzoRWV_CDsn7_HQ","IndianOil","Ground Floor, Koknagad","21.1045348","79.72621099999999"
"ChIJ2wSClWBBKzoRcI56WjROcWQ","Jio-bp","No 482/6, National Highway 53, Dhargaon","21.1039825","79.7266131"
"ChIJL7O6LQBBKzoRmZA43Qa1QnI","यूरिया पंप","4P2J+C83, near cng pump, National Highway 53, Lakhani","21.1010055","79.7307861"
"ChIJK3vjo5puKzoRPEbfdISXBJM","IndianOil","Gut No 709 Amgaon, Dighori","21.064428","79.8622352"
"ChIJG72jJwBvKzoRC0DOUmK70J4","Dwarka Petroleum","3W62+J4M, Sakoli","21.0615804","79.9002969"
"ChIJH1SPYBpvKzoRlWPmYuiGGvU","IndianOil - Kapil Petroleum","NH 6, Nagpur - Bhandara - Rajnandgaon - Raipur Highway, Pimpalgaon","21.0642676","79.8743291"
"ChIJZ165cgBvKzoRjQ4xvCPVp8U","Manegaon lakhani","3V78+W9, Pimpalgaon","21.064811","79.865999"
"ChIJywyiSIVuKzoRsfd0rpjJKy8","Hindustan Petroleum Corporation Limited","Ground Floor, NH 6, Manegaon.","21.065372","79.863917"
"ChIJq3x7IeNzKzoR6iBThwlWsI4","IndianOil","Ground Floor, NH 6, Sakoli, Amgaon Bk.","21.0868292","79.996404"
"ChIJha9_ct9zKzoRP5ARdsSOqvE","Hindustan Petroleum Corporation Limited","Ground Floor, NH 53, Sakoli","21.08408099999999","79.98292099999999"
"ChIJnbMvW4hzKzoRHUasuIY4mG0","Triveni Petroleum","Bhandara Road, Sakoli","21.0856344","80.00025269999999"
"ChIJ24MeIv1zKzoRZVFwmzyQixA","S. R. Modi Petrol Pump","House No 6, Ground Floor, Modi Heights, near Modi Petrol Pump, NH 6, Main Road, Panchasheel, Panchasheel, Sakoli","21.0863129","79.9989059"
"ChIJI1eafGdxKzoRfvirtYgGUaE","Bharat Petroleum, Petrol Pump -Makode Petroleum","LAKHANDUR RD, BHAND, SAKOLI","21.0765575","79.98710609999999"
"ChIJIUy0FlZxKzoRpy1SIQxbDaw","Jio-bp","Khasra No 221/1, Sadak, 220 &219/3, National Highway 53, Jambhali","21.080743","79.96860199999999"
"ChIJtS2l5lORKzoROD8nTGR3Vgs","Harpreet Roadlines","opposite bawa punjabi dhaba, Deori","21.0672733","80.32654649999999"
"ChIJWWpiX2-RKzoR14p1mrKXXD0","IndianOil","NH 06, Deori, Maramjob, Arjuni Morgaon","21.0715473","80.3334009"
"ChIJLeihBpnuKzoR289D1mnWFuo","BPCL Petrol Pump and CNG - Heavy Movers Fuels","NH 6 Village Ghortalab, Near Sadak Chirchari, Tehsil Churiya, Dist. Rajnandgoan Chhattisgarh., Rajnandgoan","21.088418","80.551812"
"ChIJLd9kDbTvKzoRB0LFUqAoXfY","BPCL Maruti fuel kaluram vishnoi","3GQW+WR, Ghortalab","21.0897727","80.5471129"
"ChIJjfvKKuTuKzoRLx7Lg7mnb2Y","Jio-bp","Ground Floor, Nh 6, Chirchari","21.0876451","80.57982679999999"
"ChIJw2U80wvlKzoRBpU5c7cBPiU","IndianOil","Ground Floor Rampur, NH 6, Chichola","21.074129","80.64765899999999"
"ChIJjawGdwDvKzoR0RrtLnLFJXo","Prateek Fuels Indian Oil","Ground Floor, NH53, Sadak Chirchari","21.0871177","80.57500139999999"
"ChIJ-6CMduvuKzoRkEN9_7UMxY0","Hindustan Petroleum Corporation Limited","Ground Floor, NH 6, Dongargaon, Chirchari","21.08839","80.5690336"
"ChIJS57_OgDjKzoR5cttZNGkImE","Pancholi fuels bio diesel","3PMH+C5H, Jhandatalab","21.0835525","80.7279709"
"ChIJJ-dHAvHjKzoRek4U6M2VQeY","Bharat Petroleum, Petrol Pump -Reach (Cargo Movers)","URAIDABRI, RAJANANDGAON","21.077613","80.74114829999999"
"ChIJAwQofAHlKzoR20Hx44tfnvg","IndianOil","Ground Floor Maharajpur, NH 6, Chichola","21.0798911","80.6935984"
"ChIJTc1-ZFVZKToR4NRXADrp_pY","IndianOil","Ground Floor, Dongargarh NH 53, Uraidabri, Raipur Rd, Nagpur","21.0739103","80.7612711"
"ChIJHWVyLwvlKzoRzdOUnPNlhGY","Chichola Highway service (Bharat Petroleum) CNG","Maharajpur","21.0770867","80.6869933"
"ChIJqS6tr0DlKzoRI3nO8fZ6si8","Hindustan Petroleum Corporation Limited","House No 26, Surat - Kolkata Highway, Rajnandgaon","21.075401","80.686301"
"ChIJ52buI__kKzoRXnwvMYoWufQ","HP PETROL PUMP - BAGGA PETROL STATION","NH 6, G road Opposite Gurudhwara, Kopedi, Thumribuord, Rajnandgoan","21.0758517","80.68617350000001"
"ChIJ73by0v3iKzoRSzBbgcG0eXs","Hindustan Petroleum Corporation Limited","Ground Floor, NH 6, GE Road, Uraidabri","21.073858","80.76840399999999"
"ChIJd3d8L1LkKzoRbK4UWVs9qsc","Hindustan Petroleum Corporation Limited","Ward No 1, Lal Bahadur Nagar","21.0851509","80.6821356"
"ChIJ1ZDFXADlKzoRQTZRfW-E3k4","Maa Karipath Fuels Indian oil","4PF6+M38, Makkatola","21.1241554","80.710217"
"ChIJHw4I-q9ZKToRmgs4ZqrArIs","Bharat Petroleum, Petrol Pump -J M Fuels","REVAGHAN, RAJANANDGAON","21.0747098","80.8531306"
"ChIJ3yS9LY9ZKToRUsEabJb7spg","IndianOil","National Highway 53, Dongargaon","21.0766466","80.84567020000001"
"ChIJmZLXxFtYKToR_alnMzyc6b0","Hindustan Petroleum Corporation Limited","PH No 7, Khasra No, 31/5, Tumdiboda","21.0777353","80.8430269"
"ChIJlw69KTdZKToRMdfficF77CE","Hindustan Petroleum Corporation Limited","Khasra No 429, 3 Dongargarh, Tappa","21.077511","80.831641"
"ChIJmUpTagBZKToRhr7MFlgcGCo","Rathore Fuels Jio BP Mobility Ltd","3RGH+JFJ, Tappa","21.0765881","80.8286352"
"ChIJWRJ8VgBZKToR3KjwpXVjmlQ","New Petrol Pump","3VVR+639, Rajnandgaon","21.093493","80.89006789999999"
"ChIJa8PmU81bKToRTcf6mbxrS60","Bharat Petroleum Petrol Pump , YASH FUELS","Dongargaon Road, GRAM, Machanpar","21.07112","80.90366"
"ChIJ2a4bIHlbKToR5mCqPZts3As","Bharat Petroleum, Petrol Pump -Fill And Fly","G.E ROAD REWADIH, RAJANANDGAON","21.08511099999999","80.9040177"
"ChIJy22IslRaKToRXeeqk1DcUPY","Hindustan Petroleum Corporation Limited","Ground Floor, NH 6, Bhanpuri","21.089301","80.938101"
"ChIJ9V1wvVRbKToR0g1OA8C3Ocg","Hindustan Petroleum Corporation Limited","Ground Floor, NH 53, GE Road, Banbhedi","21.091991","80.975791"
"ChIJjbAQdalbKToRQK5wHiIelIM","पुलिस कल्याण पेट्रोल पंप","8th bn c.a.f. rajnandgaon (c.g senani 8vi battalion chhattisgarh sashatra bal rajnandgaon(c.g, Atal Vihar Colony, Rajnandgaon","21.0923907","80.97601519999999"
"ChIJJdHRxNpbKToR0vJweDuCvBE","Shri Hari Fuels (BPCL Petrol Pump)","Banbhedi","21.0923535","80.9644586"
"ChIJq5u-QgBbKToRcze7r9MLthM","Shri Hari Fuels Bharat petroleum petrol pump","3XVJ+G3P, Banbhedi","21.0938405","80.98019160000001"
"ChIJNa3J8ClbKToRxwO3PopU54s","Fill And Fly Bharat Petroleum Petrol pump","Glorious Dhaba, Main Road, Mumbai - Kolkata Highway, Near, Rewadih Road, Rajnandgaon","21.09262","80.98120399999999"
"ChIJ0V4uN3pbKToRDNqcvzXQTSc","Adhoc Raja Fuel Point(Indian Oil)","500m from Delhi Public School, opposite Abis Factory, Banbhedi","21.090959","80.95519660000001"
"ChIJDynRXx1bKToRU1B-K_BNPG0","IndianOil","Ground Floor, NH 6, GE Road, Bhanpuri","21.0908467","80.9551912"
"ChIJ3UDTvTtFKToRD3QWajFjbas","Bharat Petroleum, Petrol Pump -Rajnandgaon Pertol Service","G.E ROAD RAJNANDGAON, PEND, Rajnandgaon","21.0938665","80.98782299999999"
"ChIJ16BgdQJbKToRUNuIRNFv_aU","JM Feuls Bharat Petroleum","3WRX+4M8, near Delhi Public School, Nagpur - Bhandara - Rajnandgaon - Raipur Highway, Riwagahan","21.0902947","80.94920309999999"
"ChIJMdqe8TRFKToRzhdmVGyUe7E","Bharat Petroleum","3XFQ+2PG, Rajnandgaon Road, Pharhad","21.0725657","80.9893337"
"ChIJ_4ksnDpFKToRGYqEMASSSw0","HP PETROL PUMP - SRI JAGANNATH FUELS","HP Dealer Paneka (vill) Rajanandagaon(tha), Raipur","21.079004","80.998341"
"ChIJzahQ4HJFKToRjKmCkeWsr-s","IndianOil","Ground Floor Paneka, Arjuni","21.0799668","81.00092599999999"
"ChIJEQGf36hFKToRku1giUGrIok","Bharat Petroleum Petrol Pump , SHRI SHYAM SUNDAR FUELS","DONGARGAON ROAD ,NEAR FARHAD, CHOWK","21.0804429","81.0023669"
"ChIJMZgXDM1FKToRaxnFs6cWtPo","Hindustan Petroleum Corporation Limited","Ground Floor, Paneka","21.0800155","81.00325509999999"
"ChIJ6VFjWYZFKToRMpqoPOc6td8","Ishwar lala petrol pump","4283+4QF, Navagaon","21.1153019","81.0044359"
"ChIJu955sk9bKToR1DdVht_TocU","Hindustan Petroleum Corporation Limited","Ground Floor, Jalaram Krishi Farm, Sukul Daihan Road, Litiya","21.13373109999999","80.9697528"
"ChIJa5BdY35bKToR5l2VgMjlWJM","Hindustan Petroleum Corporation Limited","Ground Floor, Dongargaon Rd, Dongargaon, Rajnandgaon","21.0503033","80.9544827"
"ChIJ-0qq2hVHKToRbIwTnm0kGVE","Petrol Pump","44CP+HPG, National Highway 6","21.1214344","81.1368281"
"ChIJL7wehzFEKToR8EzFSb1Ejls","IndianOil","Ground Floor, GE Road, Lakholi, Arjuni","21.1024347","81.06207880000001"
"ChIJUVE9hzFEKToREi9ef5Ck6FM","Agrawal Fuels","Next To Nehru Nagar, Near Pari Nala ,G.E Road, Rajnandgaon","21.102117","81.062096"
"ChIJl-1JrEdFKToRUJrsHuLCr8Y","Hindustan Petroleum Corporation Limited","Khasra No 11/3, NH 53, Manki","21.1133434","81.0994506"
"ChIJjYIiMtZHKToR3j-9EYa78w8","Jio-bp","Ground Floor, near Kamal Solvent, Nh 6, Sundra","21.1219413","81.1403247"
"ChIJ-5j1RQBHKToRq0avyHOW0NI","Ravindra kumar Bharti","44MQ+WGW, Farhad","21.1348703","81.13882799999999"
"ChIJ_1IVWwBFKToR1IZWErtnPBg","RK Fuels","33X8+FR, Nehru Nagar","21.0986281","81.06704909999999"
"ChIJHxjYFNM4KToR9MD6hYh-T64","Hamara Petrol Pump - Bharat Petroleum","Devada, Durg, NH-6, Armori Bhandara Highway, Durg, Durg","21.148958","81.20088299999999"
"ChIJTXLjCtI4KToRISWVVJkxqHY","Hindustan Petroleum Corporation Limited","Ground Floor, NH 6, Dewada","21.14662","81.1962805"
"ChIJB-I1bNI4KToR5MSMYvZBNjQ","IndianOil","Ground Floor, NH 6, GE Road, Dewada","21.146398","81.19742"
"ChIJiRaS4kw_KToR9YjbzRjoMFI","IndianOil","Ground Floor, Anjora","21.1610076","81.22461009999999"
"ChIJC8QNG8w4KToR9cckUcGwt3Y","IndianOil","Ground Floor, NH 6, GE Road, Dewada","21.1442001","81.1924001"
"ChIJy_jG0oY5KToRztSG7wkljXg","IndianOil","Ground Floor, Dhamnod,Borsi, near Anjora, Borsi","21.131369","81.2089001"
"ChIJoc4HLho5KToRzR8fGm-ype4","new petrol pump","Tendesara","21.1404323","81.18586119999999"
"ChIJQxmjMtg_KToRT-Cslg4HUoM","Hindustan Petroleum Corporation Limited","Khasra No 572, 4 & 572/7, Mahmara","21.168149","81.23464799999999"
"ChIJH9VMCLc4KToRRHSsiEcSdo4","Hindustan Petroleum Corporation Limited","Ground Floor, Tedesara, Rajnandgaon","21.139901","81.182901"
"ChIJl7VuAAA_KToRxsH9T0KJVJY","BPCL","56P7+FPX, Khapri","21.186774","81.21459999999999"
"ChIJWzOsx_s5KToRBr9P4eDJF8E","IndianOil","Ground Floor, NH 6, Tedesara, Arjuni, Rajnandgaon","21.1357987","81.1751081"
"ChIJz8lTyLo4KToRCmyXehvPY1Q","IndianOil","Ground Floor, NH 6, GE Road, Tedesara, Arjuni","21.136313","81.17397199999999"
"ChIJZa8J5fg-KToRKmURBZQWgyY","Hindustan Petroleum Corporation Limited","Ground Floor, Industrial Growth Centre, Rasamada","21.1967183","81.215355"
"ChIJSzBm4_c-KToRMqc9HjnQ7rs","IndianOil","Ground Floor Durg Bypass Road,Rasmada, Borai","21.198476","81.219942"
"ChIJcYi1dec8KToRCKckDM8Yntk","IndianOil","near Sector 9 Hospital, Bhillai, near Sector 9 Hospital, Township, Sector 8, Durg","21.195181","81.31702399999999"
"ChIJDR436N48KToRimhvaxdV3DQ","Hindustan Petroleum Corporation Limited","Ground Floor, Infront of, NH 53, Durg Bypass, Nehru Nagar","21.200454","81.322037"
"ChIJn3qlnfg8KToRoYVjuf3mHc0","IndianOil","Ground Floor, near Science College, Durg","21.1946909","81.2959944"
"ChIJt8ezICYjKToRSS8USFmFRlY","IndianOil","Mahila Samaj, Bhilai Steel Plant Run By, Sector 2, Bhilai","21.2015116","81.3506669"
"ChIJ66agw6c9KToRSU-kHPHolsU","IndianOil","Ground Floor, Sikola Bhata","21.2154903","81.29431269999999"
"ChIJMZgWeKc9KToRve2g2sBcCgc","Petrol Pump","679W+347, Durg","21.2176625","81.295299"
"ChIJH6eezcs8KToR6cZzaIOf4D4","Indian Oil LPG Agency","58MP+P46, Street Number 5, Sector 10, Bhilai","21.1842915","81.33527880000001"
"ChIJuwkCTlI8KToRE9fMM0l0jkc","SURYAKANT VALLABHDAS FUELS","Station Road, Guru Nanak Nagar, Durg","21.1988022","81.28752999999999"
"ChIJT9DZkRgjKToR9rEU3ccmrj4","Ashok fuels Petrol Pump","Street Number 83, Sector 6, Bhilai","21.20218569999999","81.349158"
"ChIJsxe66Ho9KToRv8kozG2Hxj0","IndianOil","Ground Floor, Durg - Dhamdha Road, Admabad, Khapri","21.240964","81.305358"
"ChIJqRoFc2Q8KToRpwuaPPQo0jI","Hindustan Petroleum Corporation Limited","Ground Floor, Pulgaon Road, Durg","21.1707106","81.2901182"
"ChIJkZ6nwjc9KToRo1zuXMmesNE","Shahid Kaushal filling station","9, Steel Colony, Katulbod, Nehru Nagar","21.2009906","81.3191257"
"ChIJHd7caGs9KToR7sB3EYzrRHM","AMBIKA FUELS BPCL","Pushpak Nagar, Junwani Road, Smriti Nagar","21.2104722","81.3163466"
"ChIJZev5_-M8KToR6K6EtxQF_LU","Hindustan Petroleum Corporation Limited","Khasara No 118, NH 6, Katulbod, Durg","21.198131","81.311681"
"ChIJFVjV1hc9KToROgUYPlXOOTo","Hindustan Petroleum Corporation Limited","Ground Floor, Junwani Chowk, Smruti Nagar, Durg","21.218211","81.31762499999999"
"ChIJ1T7EhVw9KToRs2VbHGFBU6Q","Hindustan Petroleum Corporation Limited","Khasra No 275/3, near Surya Treasure Island Mall, Junwani Road, Bhilai","21.218016","81.312558"
"ChIJLRBNDN49KToRzp0N0pv-TWQ","Manish Grocery","Priyadarsani, west, Bhilai","21.199407","81.3308007"
"ChIJ9wgwdtQ8KToR8SSybgjmR0s","Hindustan Petroleum Corporation Limited","Ground Floor, Infront of Maharan Pratap, Garage Road, Sector 7, Durg","21.1985545","81.3348733"
"ChIJA7-THgA9KToR_ptHpSbL1MM","IndianOil","Ground Floor, Avanti Bai Chowk, near Surya Mall, Bhilai","21.2175193","81.3308807"
"ChIJDSIi_qg9KToRocBHRY6Iehc","Rajesh petrol pump","676V+V6H, Durg - Bemetara Road, Sikola Basti, Durg","21.2121913","81.29311369999999"
"ChIJq3uLrdUjKToRsH6ScIL69fg","IndianOil","NH 6, 3, Bajrang para, Bhilai","21.20597099999999","81.42571029999999"
"ChIJP4e3X4IhKToRWfM2-44lHEg","Hindustan Petroleum Corporation Limited","Ground Floor, Sirsha chowk, near Sirsa Gate, Umda Road, Bhilai","21.211739","81.43615799999999"
"ChIJbbfoTR8iKToRyGV4lsGoMg8","Hindustan Petroleum Corporation Limited","Ground Floor Aklordih, Road No 3, Hathkhoj","21.234077","81.42262199999999"
"ChIJNW7hifUhKToRmrk2dSs7Yhk","Maruti Petroleum Bhilai Umda Bharat Petroleum","Bhilai Marshalling Yard, Charoda","21.2370977","81.4280675"
"ChIJoRKbAEQiKToR0n0TYBUZM0c","IndianOil","Ground Floor, Hathkhoj Transport Ngr, Heavy Indl Area,I E Bhilai, Bhilai","21.225729","81.40024"
"ChIJydBn0tLsKzoRB0FsTPWDYBc","IndianOil - SWAGAT","Rajnandgaon, Ground Floor NH 6, GE Road, Bagh, Nadi, Bagnadi","21.2078367","81.4334997"
"ChIJcZQCwp4hKToRmh9CNkcKDeU","Monu Petrol Pump","6C8W+2C5, Raipur-Bhilai-Durg Expressway Road (NH6), Bhilai Marshalling Yard, Bhilai","21.215","81.44610000000002"
"ChIJ9er1RswhKToRWpTc-HoEyKk","Hindustan Petroleum Corporation Limited","Ground Floor, NH 6, Durg Raipur Road, Charoda, Durg","21.215933","81.446176"
"ChIJS8KnoB8iKToRgSAjaEVC8O8","IndianOil","Ground Floor, Abhanpur, Tekari-2","21.23480099999999","81.425101"
"ChIJO01YsEQhKToRj-BlSWuEMno","IndianOil","Ground Floor Somni, Industrial Estate Bhilai","21.17966","81.439138"
"ChIJ7e5KMIAjKToRA9W13dNoomc","Reliance Petroleum","No 46, Heavy Industrial Area Hathkhoj, Bhilai","21.23551","81.41416199999999"
"ChIJowLDR0EiKToRi2JWcTDTZEI","Reliance Petrol Pump","Hathkhoj","21.2268","81.40169999999999"
"ChIJf2GooEAjKToR9F0Paj8dHDU","ATUL OXYGEN COMPANY","28/B, Light Industrial Area, Bhilai","21.2281949","81.3866812"
"ChIJXW1cbdPfKDoRgtsnwUvI3dE","BPCL Petrol Pump","National Highway 6, Tatibandh, Raipur","21.2559798","81.55767159999999"
"ChIJ68cSDubfKDoRxwDxZhB0LvE","Bharat Petroleum","Kumhari, Raipur, NH-6, Armori Bhandara Highway, Raipur, Raipur","21.251445","81.53281799999999"
"ChIJf--3nPDfKDoRI2iypSw_KJs","Bharat Petroleum Petrol / CNG","Raipur-Bhilai-Durg Expressway Road (NH6), Ward Number 15, Kumhari, Bhilai","21.2496278","81.523213"
"ChIJM0643D_eKDoRi_vdmf4LiUg","Bharat Petroleum R. B. DIESELS","Amanaka, Raipur","21.24261809999999","81.5809161"
"ChIJ03xA0cLfKDoR22-YyKTtIXY","Bharat Petroleum, Petrol Pump -Vimal Transport","KUMHARI (NH-6), DURG","21.2496895","81.5432874"
"ChIJKfWl4-XfKDoRnucC0pXRSy4","Jio-bp","Ground Floor, Opposite Yug Bodh Prakashan, Nh 6, Kumhari","21.2513028","81.5320844"
"ChIJayEB7uXfKDoRUqE3bOyJqds","IndianOil","Ground Floor, Dhamdha, Kumhari","21.2511943","81.531207"
"ChIJJ67LfSzeKDoRDEg0l1m2A3g","IndianOil","Ground Floor, Tatibandh, Raipur","21.2565676","81.56251549999999"
"ChIJP6jmkR3fKDoRhY85ZAqppqE","Jai Siddhivinayak Petroleum","N.H.53,Near Bajipura Sumul Daan Factory, Titva (Bajipura), Ta-Valod,Di","21.2586913","81.5663538"
"ChIJb2GRnrPfKDoRrjQQ1dH2who","Hindustan Petroleum Corporation Limited","Ground Floor, Ring Road, Chowk, Tatibandh, Raipur","21.258191","81.56696099999999"
"ChIJK-t_aQDhKDoRSlo_s1B8RMg","Induria Fuels CG","7H97+JW5, Tatibandh, Raipur","21.2690109","81.564864"
"ChIJiTb-_CfeKDoRBJx401u5nFQ","IndianOil","Ring Road Number 2, Tatibandh, Durg","21.263508","81.570854"
"ChIJ6bVvEqrfKDoRFOYXpmVHYsM","Hindustan Petroleum Corporation Limited","Ground Floor, Apollo pharmacy line, near Bharat Mata School, MIG-22, Great Eastern Road, Shri Shanti Nath Nagar, Tatibandh, Raipur","21.25986559999999","81.5754541"
"ChIJRzz1GwDfKDoRn6PJ4CIdpTQ","BHAV SINGH THAKUR FUELS","6HXH+HGF, Sarona","21.2489404","81.5788103"
"ChIJ3dbCIHrfKDoRkZpOmmC81yA","Jio BP Ring Road 1","6HWH+4FX, Raipur","21.244863","81.57887699999999"
"ChIJ6forlZnfKDoRvnNkuaZNxsI","Bharat Petroleum, Petrol Pump -Gulab Thakur Fuel Station","RR1 SARONA,WALFORD CITY SI, Raipur","21.2432605","81.57964570000001"
"ChIJ0RQbZL3hKDoRXbgKywPXs9Y","Bharat Petroleum, Petrol Pump -Oberoi Freight Carriers","SONDONGRI","21.2663763","81.578937"
"ChIJeZGD7YzfKDoRc-VOybd28cg","Hindustan Petroleum Corporation Limited","Ground Floor, Ring Road Number 1, Sarona","21.243908","81.58008099999999"
"ChIJD0-JHFDfKDoRD93NqXZ7HLE","IndianOil","Ground Floor, Doomar Talab Thana Road, Raipur","21.2508075","81.5833983"
"ChIJxUiKmbnfKDoRbSV063QUNnE","Hindustan Petroleum Corporation Limited","Ground Floor Portico, near Hotel Sarovar, Hirapur Road, Tatibandh, Raipur","21.260371","81.58308099999999"
"ChIJs4dUK_7cKDoRLAOKdt0962c","Bharat Petroleum Petrol","No.1, Dhamtari Road, Pachpedi Naka, Raipur","21.2202664","81.6499595"
"ChIJyzm6IdncKDoRlmiR0wBMkmo","IndianOil","Ground Floor, Amlidih, Raipur","21.2265732","81.6501869"
"ChIJc1_osQPdKDoRsbR_z1OTeTI","Pujari Fuels","Ashoka millenium, Ring Road Number 1, Beside, Raipur","21.2244172","81.6548407"
"ChIJT0ztRwPdKDoRgKayFSi0xAo","Shanti HP Gas Agency","Shopno B3, G K Milestones, New Rajendra Nagar, Raipur","21.2257014","81.6574722"
"ChIJd1aSShrdKDoRq4nxr6OUXc4","IndianOil","Pachpedi Naka, Telibandha, Purena","21.230811","81.662498"
"ChIJYTcZZpjdKDoRQXZgLVar3eQ","Motorists Paradise PETROL PUMP","Moudhapara, Raipur","21.2449953","81.6385361"
"ChIJKdT7y5jdKDoRoRvW1ul5kHw","HP Petrol Pump - Chawla Service Station","OPP. Secretariate Shastri Chowk","21.2456864","81.64060359999999"
"ChIJ42uY1tvdKDoRg3q2Kut96tY","Hindustan Petroleum Corporation Limited","Ground Floor, Link Road, Mahadev Ghat Road, Raipur","21.233921","81.609241"
"ChIJYbJ7A-jdKDoRetdX40gmD1g","FR Fuels Bharat Petroleum","opposite Raj Kumar College, Great Eastern Road, Raipur","21.243007","81.615011"
"ChIJh39Z5HneKDoRD1sK9HtehZg","Hindustan Petroleum Corporation Limited","Khasra No 631/11, PH, 104, Mahadev Ghat Road, Raipura, Raipur","21.229542","81.5989029"
"ChIJJw3lCFjdKDoRj2b6cFY5zGc","IndianOil","Ground Floor, Mowa, Raipur","21.2419533","81.6683058"
"ChIJGUrLkpv4VRERVcMMAvyYNZ4","IndianOil","Ground Floor, Raipura, Raipur","21.2207069","81.5928321"
"ChIJI7Kxl6vdKDoRlYkjUFtA4qg","IndianOil","Ground Floor, near Pujari Park Road, Tikrapara, Raipur","21.2241029","81.6439481"
"ChIJ_UC_7__cKDoRYJpEtIEBi2c","Hindustan Petroleum Corporation Limited","Ground Floor, Tikrapara, Raipur","21.2202201","81.6487772"
"ChIJ51-xKGjdKDoReD174oRINq0","Hindustan Petroleum Corporation Limited","Ground Floor, Ring Road Number 1, Sunder Nagar, Bhatagaon, Raipur","21.216851","81.624415"
"ChIJ51KWFfvdKDoR90HD11OvHik","Hindustan Petroleum Corporation Limited","Ground Floor, NH 43, Ring Road Number 1, Chowk, Tikrapara","21.22083","81.649219"
"ChIJ_canHlncKDoRqpCEjrCTHS0","IndianOil","Ground Floor, Boriyakhurd","21.205009","81.64407299999999"
"ChIJde5O7vLdKDoRiuFEOk3N1Yo","Hindustan Petroleum Corporation Limited","Ground Floor, Jal Grih Marg, Tikrapara, Raipur","21.228172","81.637056"
"ChIJl5A8BK_dKDoR-5lTgHcAfH0","IndianOil","Ground Floor, Old Dhamtari Road, Tikrapara, Raipur","21.22908809999999","81.63984119999999"
"ChIJQwFt3zTdKDoRB5r93fRr_uY","Hindustan Petroleum Corporation Limited","Ground Floor, Jal Grih Marg, Bhatagaon, Raipur","21.213606","81.622267"
"ChIJpb0FhjjCKDoR62bcfBxdIgs","IndianOil","Ground Floor, Tulsi -2","21.240801","81.757701"
"ChIJUduu7zjCKDoRYDfB0TW-SxY","Hindustan Petroleum Corporation Limited","Ground Floor, Ring Road Number 3, Tulsi -2","21.2420524","81.7582307"
"ChIJMT32GCvCKDoRsHpvG-zkZ1M","Hindustan Petroleum","NH-6, Nagpur - Bhandara - Rajnandgaon - Raipur Highway, Mandir Hasaud","21.2278349","81.7777325"
"ChIJwXFLyn3CKDoRNdSeokvko3I","Hindustan Petroleum Corporation Limited","Khasra No 120/2, 121/1 123/1 & 124/1, Ring Road Number 3, Pirda-2","21.2651904","81.73764829999999"
"ChIJow8cjnnDKDoRCoQAPN33VhU","IndianOil","Ground Floor, Raju Dhaba, Mandir Hasaud","21.2329151","81.75496609999999"
"ChIJ0XDeiDjCKDoRW23gWmbDbVg","In Oil","India","21.2411219","81.7576601"
"ChIJCwUUMvrCKDoRW87KMPjrEhM","HP PETROL PUMP - JAI MATADI SERVICE STATION","HPC Dealer NH 6, Mandir Hsaud Road, Telibandha, Dist. (CG), Raipur","21.2338","81.72872"
"ChIJ781tPfrCKDoRU55RtiPoVLc","Hindustan Petroleum Corporation Limited","Ground Floor, NH 53, Serikhedi, Raipur","21.234707","81.72867099999999"
"ChIJ28QOGSvCKDoRvzn_WuIs9hY","Hindustan Petroleum Corporation Limited","Ground Floor, opposite Railway Station, Mandir Hasaud","21.2286401","81.7754801"
"ChIJO1AXvvrCKDoR3jyrn4c03Ac","IndianOil - SWAGAT","Ground Floor, Chedi Khedi, Raipur","21.235047","81.725235"
"ChIJ8bF4FADDKDoRK08PR6D7SAo","Rathore Fuel","6Q65+27, Atal Nagar-Nava Raipur","21.21004","81.7581683"
"ChIJCV2NAUfDKDoRnus36aaY4Hs","Hindustan Petroleum Corporation Limited","Ispat Plant, Ground Floor Monnet, Road, Near, Kurud-2","21.2504771","81.7732814"
"ChIJ2Uuq_ELBKDoRfs6SlKoHkJc","Rama HP Fuels","Memra saraipali, Kolkata - Mumbai Highway, Kolkata","21.2275295","81.77907569999999"
"ChIJ6SgoiXbBKDoRZ_U3X5jYIuY","Hindustan Petroleum Corporation Limited","Khasra No 318, near HP LPG Filling Plant, 2 & 319/2 & 320/1 NH 6, Mandir Hasaud","21.22687389999999","81.7821428"
"ChIJvUjdDX_BKDoRw_1fG7519ng","HPCL RAIPUR","6QGJ+5RC, National Highway 59, Raipur","21.2254289","81.78202999999999"
"ChIJF4agZn_BKDoR0Ok-Xg9iTM8","HP PETROL PUMP - BHAGAT SERVICE CENTRE","Near HP LPG Filling Plant, NH -6,, Mandir Hasaud","21.226806","81.78246399999999"
"ChIJjXvOJ1DDKDoRCjAUUd3AcL4","Hindustan Petroleum Corporation Limited","Ground Floor, Tulsi -2","21.267745","81.758782"
"ChIJS_rJEADDKDoR4hs8PTpe398","Awas Chowk , Atal Nagar Nava Raipur","5QXC+82, Atal Nagar-Nava Raipur","21.1983461","81.77006779999999"
"ChIJAxrtHHbBKDoRclH8ECfdR18","IndianOil - SWAGAT","Ground Floor NH 53, Mandir Hasaud, Chowk, Chhatauna","21.2276684","81.79439769999999"
"ChIJGV5r72zDKDoRGHNPpPKoMkc","Hindustan Petroleum Corporation Limited","Ground Floor, near BRT Depot Naya, Naya Raipur Marg, Raipur","21.198415","81.771818"
"ChIJyQnpLF69KDoRq8u3NbHwwAY","BPC-Shri Ram Fuels","5XW5+P24, Main Road, Arang","21.1967657","81.95757739999999"
"ChIJieyP-qi-KDoRRo1zNAyfSaM","IndianOil","Ground Floor, Arang Road, Baihar","21.197591","81.950197"
"ChIJZwDzsue_KDoRMYYC4_HzHqI","Hindustan Petroleum Corporation Limited","Ground Floor, NH 53, Raipur Arang, Road, Rasni","21.198918","81.938621"
"ChIJowXf_XS8KDoRBqo0Mc8WlAg","Hindustan Petroleum Corporation Limited","Ground Floor NH 6, Raipur Saraipali, Road, Arang","21.191513","81.98145699999999"
"ChIJZW4B98e-KDoRlkQ3c1RGguI","IndianOil","Ground Floor, Arang","21.199777","81.93844899999999"
"ChIJMcaWJza9KDoRTW33rGxIRBc","Bharat Petroleum, Petrol Pump -Yuvraj Filling Station","Arang Road","21.18908","81.9859239"
"ChIJd4FDfXi7KDoRcDEquFbSdCk","Preet fuels petrol pump","Champaran Arang Road, Paragaon","21.1813193","81.99772730000001"
"ChIJH2rvvOC9KDoRgUa4AfRpZuM","Bharat Petroleum, Petrol Pump -BP-Rasani","RASANI, RAIPUR","21.2020312","81.9189126"
"ChIJi29GMLOkKDoRtiifVde48mA","Hindustan Petroleum Corporation Limited","Ground Floor, Ghoradi, Birkoni","21.176791","82.041141"
"ChIJLzHVGaKkKDoRwmjAhZw6rm0","IndianOil","NATIONAL HIGHWAY 06, Birkoni","21.1881474","82.06287189999999"
"ChIJ7az7XtylKDoRshGWKiZ_vDE","Ganpati Fuels - Jio BP Petrol Pump","Ganpati fuels, near Birkoni, opposite Agriculture University, National Highway 53, Industrial Area, Kanpa","21.1869177","82.088336"
"ChIJ_____6KkKDoR9bQnvPjbnHc","Bhavesh Mobaile Shop Petrol Pump","53M5+PWF, Birkoni","21.18430559999999","82.0597816"
"ChIJYZhPbRmlKDoRHELDHvwjg0E","R G Fuels-BPCL","CSIDC INDUSTRIAL AREA, Birkoni","21.1771572","82.0454522"
"ChIJ6_xjFGOlKDoRa8urPIM0d4Q","IndianOil","NH 6, Bhawanipatna - Raipur Highway, Birkoni","21.17677609999999","82.0441908"
"ChIJrf0hLrOkKDoRYxD5FH5SCgQ","HP PETROL PUMP - BHAVESH AUTO CARE","Vill Birkoni Ghoradi, Raipur","21.176273","82.040936"
"ChIJdUn-Q1cXJjoRKjYt2CbTSls","IndianOil","Ground Floor Jhalap, Patewa, Achanakpur","21.219218","82.392933"
"ChIJbbhd8XcZJjoRh5R_gDCFtK4","Hindustan Petroleum Corporation Limited","Ground Floor, near Raithum Chowk, Raithum Road, Turidih","21.2196683","82.36233829999999"
"ChIJX2Tqqk8bJjoRmHImHuclgtY","Singhanpur indane gas","59V8+H6J, Singhanpur","21.1939563","82.3655311"
"ChIJo-4IYx0aJjoR52kKzWjW0y0","Hindustan Petroleum Corporation Limited","Khasra No 439/3, Bagbahra Road, Chindpan, Jhalap","21.207563","82.37589299999999"
"ChIJxUbnUlYZJjoRSYE7Fezrjgs","Petrol Pump Torala","68C4+7CH, Torla","21.2206989","82.30611259999999"
"ChIJLRT_EPkUJjoROzUgVKq0Hbw","IndianOil","Ground Floor, NH 6, Pithora Road, Patewa","21.2537079","82.52207949999999"
"ChIJJU1Fa_kUJjoR7F5oApZwBdI","Sanjay Service Centre.","National Highway 6, Pithora","21.2535666","82.5223298"
"ChIJEVZBm_IVJjoRKXQbiBr7t0M","Bharat Petroleum Petrol Pump , SHRI KALKI PETROLEUM","VILL: NANDELI, NANDELI-KHARSIA RDTEH:, Kharsia","21.254407","82.5296728"
"ChIJHcI0RwAVJjoRr6dW3p3klnM","Jio bp Petrol Pump (Pithora)","53, National Highway, Pithora","21.2556584","82.5342368"
"ChIJ9_Z7QAAVJjoR9gi8zbg70oU","Kavita fuels","6GC6+RJ, janghora","21.2220625","82.5115625"
"ChIJs6FWLwAVJjoRFCzZ2L9xntQ","Gambhir fuels","7G4M+8QQ, Rajasewai","21.25584319999999","82.5344799"
"ChIJa6Vw-gcXJjoRYQLBcOvhcrk","Hindustan Petroleum Corporation Limited","Ground Floor, NH 53, Jampali","21.235527","82.4608521"
"ChIJg5CXIAAXJjoRMhh6R5VS-dk","Jampali","6FM6+V29","21.2346601","82.46010260000001"
"ChIJRyGJrr1pJjoRbh7gm7i-7PU","Hindustan Petroleum Corporation Limited","PH No 46, Khasra No 436, NH 6, Pithora, Sankra","21.2836377","82.67221289999999"
"ChIJ6UxlG6FrJjoROzk2FeyqWPg","Bhaart petroleum bpcl - pithora highway service","7JPH+5WC, Kurmadih","21.2854444","82.6297721"
"ChIJe5Bu2hFBKzoRUcoAbaJoAHg","IndianOil","Ground Floor, Pithora Saraipali Road, National Highway 53, Loharakot","21.2829177","82.6255714"
"ChIJx0L6XpppJjoR-CnEGRacVHU","Shri Krishna Fuels KSK","7MH6+5RV, Bijepur","21.2779893","82.6620521"
"ChIJB-6dzZNpJjoR3Dmbk4Rhg_4","IndianOil","Ground Floor, Pithora, Sankara","21.27822","82.66222549999999"
"ChIJi_NDLgBpJjoR1aCtrJkl5HQ","Pithora","7MM8+5VR, jonk, संकरा","21.2817046","82.6673644"
"ChIJDy_tTzprJjoRVHsaNkt42EU","Hindustan Petroleum Corporation Limited","Ground Floor, Memra","21.274318","82.606414"
"ChIJnTgOCCdnJjoRV3bQokiuZiQ","Phuljhar Highway Station - Bharat Petroleum","Mahasamund NH-6, Bhawanipatna - Raipur Highway, Basna","21.276284","82.807447"
"ChIJvV22bSFnJjoRBvqMYpwj-p4","Shree Shyam Fuels BPCL","near Gill Dhaba, National Highway 53, Salhe Tar","21.2698917","82.77706429999999"
"ChIJs3gdf_tnJjoR-UcZWz4uv-g","HP GANESH PETROL PUMP","Ground Floor, Sawitri","21.271183","82.751556"
"ChIJ0YzGt9RnJjoRVyWawLnVmj0","Shri Krishna Fuels","Ground Floor, Shivrinarayan Road, Basna","21.3072698","82.7967974"
"ChIJj3R9zbFhJjoR9R9zoCHCzbY","IndianOil","Ground Floor, Padampur Road, Basna","21.2740164","82.8275536"
"ChIJU2NNY2dhJjoREVnP6R-OrMo","Bharat Petroleum, Petrol Pump -Phuljher Highway Station","BASNA, MAHASAMUND","21.280492","82.8328746"
"ChIJMeAdcqeMJjoRO6FF4gKi1vo","IndianOil","8X7V+RF4, Ground Floor Saraipali, NH 6, Mahasamund,Amarkot, Saraipali","21.3139526","82.9943765"
"ChIJr4tIx5mLJjoRToKPo2yzLtM","TULSI FUEL BPCL","Lukapara","21.3101875","82.9850625"
"ChIJp599r_6NJjoRQTxiezRpwlw","Bharat Petroleum, Petrol Pump -Sohanlal Motilal","N.H 6, Saraipali","21.3149749","83.00212169999999"
"ChIJ_UGLAAz1JjoRwzURhfKGVGM","Hindustan Petroleum Corporation Limited","Ground Floor, Old NH 6, Main Road, Kisdi, Saraipali","21.316218","83.01061399999999"
"ChIJibQF_0KNJjoRz8Id1w_YNAY","Jagganath Petro Fuelss","Padampur Road, Arjunda","21.2872912","83.00247019999999"
"ChIJx4PFREyLJjoRxNwskUxjywE","IndianOil","Ground Floor Paterapali, Saraipali","21.32486","82.978934"
"ChIJ88si-CqLJjoRnLJbESIChvk","Jai Prahallad Petroleum","near MARUTI SKY, Jai Prahallad Petroleum NH53, near MARUTI SKY, SHOWROOM, GRAM, Harratar","21.3061202","82.96521489999999"
"ChIJ24LxMLmLJjoREOIis71MKB0","Hindustan Petroleum Corporation Limited","Ground Floor, Harratar","21.3071661","82.96478909999999"
"ChIJNSm_ZgCNJjoR-Qr9jFgsoBA","Shri jagannath fuels jhilmila","829C+6VV, Saraipali","21.3181081","83.02217399999999"
"ChIJK5lZE8WMJjoRfQGpCazGnEg","IndianOil","Ground Floor, Jhilmila","21.3171807","83.0237173"
"ChIJcRlrEV31JjoRIHP8rysDsv0","Hindustan Petroleum Corporation Limited","Khasra No 492/5, Bagaijor","21.344254","82.985102"
"ChIJEQSOKhKNJjoRgdQxktnLU2U","Shrinath fuels","825Q+VW, Darrabhatha","21.3097499","83.0398668"
"ChIJY2ngSwD1JjoRny1iwHhUIcQ","Yogesh Fuels","Saraipali Marg, Kendudhar","21.3492091","82.98261629999999"
"ChIJuSWWc32NJjoRuWpn637miy0","Hindustan Petroleum Corporation Limited","Ground Floor, NH 53, Saraipali","21.294594","83.07820099999999"
"ChIJWZVRMf2TJjoRvz-EYOzUAMo","Hindustan Petroleum Corporation Limited","Ground Floor, Chattigirola","21.2962498","83.0842854"
"ChIJI6wzdX2NJjoRp54UJbfZVrU","HP PETROL PUMP - AUTO CARE CENTRE","Vill.- Bhothaldih, TAH Saraipalli National Highway NO. -6, Raipur","21.294083","83.0784537"
"ChIJJQ8kmxO_JjoRpN_Q8m6TItM","BP-Arjunda, BPCL Petrol,CNG & EV Pump","8875+XG8, Karalmal","21.314903","83.30882419999999"
"ChIJETWZuOi_JjoRXejmdyzvj-E","IndianOil","Ground Floor, Madhupur, Bausenmura, Sohela","21.3095761","83.3764833"
"ChIJpQ-wgve4JjoRJylYGiVPMLY","IndianOil","Ground Floor, Sohela","21.30950009999999","83.3767001"
"ChIJWbhOhy-_JjoRzNLu-lRerNY","Bhopla Filling Station B P C L","Karalmal","21.3051535","83.32614629999999"
"ChIJZ1fAEkK_JjoRFUxw3zgJKjU","IndianOil","Ground Floor NH 6, Karalmal, Bausenmura, Sohela","21.3105001","83.31840009999999"
"ChIJQ5Eddxa_JjoRM7kwqmGG734","Bharat Petroleum, COCO Petrol Pump, BP-Karalmal","KARALMAL, NH 6, BARGARH, BARGARH","21.312458","83.3129841"
"ChIJDRF866LHJjoRDuSzSIYLog0","Bharat petroleum","89WF+6HJ, Rengali","21.3454494","83.3737237"
"ChIJE8qbyse5JjoRTvCG_cTpZcU","Bharat Petroleum, Petrol Pump -Udit Filling Station","NEAR SOHELA, GRINJAL, BARGARH, Bargarh","21.3027437","83.3990437"
"ChIJqf9K0iS5JjoRLipOIl1jJCg","Bharat Petroleum, Petrol Pump -BP-Arjunda","BARGARH, ARJUNDA, NH 6, Bargarh","21.296856","83.3977164"
"ChIJn9Q4YwBLIToRl8raxuzMMH4","Hindustan Petroleum Corporation Limited","Ground Floor, National Highway 53, Nagaon, Dus Mile Chowk","21.314091","83.467579"
"ChIJt7F7Zcu3JjoRUG7Vd5ZDPew","DEBTA FUELS - Bharat Petroleum - Petrol Pump","Dus Mile Chowk","21.3143125","83.45893749999999"
"ChIJo3GjrU21JjoRArbc3s5zOfc","HP Petrol Pump","8HQQ+CJP, NH 6, Sayan","21.3385998","83.58906979999999"
"ChIJbVc3fYVKIToRqsHQX1O6-wQ","Hindustan Petroleum Corporation Limited","Ground Floor, Gandhi Chowk, Bargarh","21.3428823","83.62627479999999"
"ChIJMXf5aYdKIToR6rhsR3u7bJY","IndianOil","Ground Floor, NH 6, Bargarh Bazar, Bargarh","21.34760009999999","83.634001"
"ChIJ_04gtlxLIToR9Wvl3i0zQQ0","Bulktainer Shipping Limited private Petrol Pump","8HPV+GMX, Bargarh","21.3363628","83.5942381"
"ChIJZQbHcwC1JjoRQO6ehMwU8s4","Shakti Fuel","8HQQ+GMM, Sayan","21.3387415","83.58918709999999"
"ChIJG_casU21JjoRLs-WxFP3KNg","IndianOil","Ground Floor, NH 6, Bargarh Bazar, Haldipali","21.3379313","83.5890545"
"ChIJRXk-ZU61JjoRQwtltLDXc4w","Hindustan Petroleum Corporation Limited","Ground Floor, NH 6, Haldipali","21.338801","83.586201"
"ChIJr3tznbO1JjoR5gwj_HIx-CM","Geeta Filling Station","8HRM+839, Sayan","21.34047799999999","83.5832271"
"ChIJMVmOZ6NKIToRvVSl8P_J80g","IndianOil","Ground Floor, near Bargarh Bazar, Chowk, Bhatli Road, Bargarh","21.3434001","83.6085001"
"ChIJC6TX6J5LIToReyuAFC9Uams","Sri Jagannath Energy Bay","NH-26, near DUMER PALI ROAD, ROAD, Ambapali Road, Bargarh","21.3252134","83.6022899"
"ChIJVfbFoqdKIToRWZEztSha3yY","HP Petrol Pump - Maa Santoshi Fuels","AT & PO- Dang, Bhatli Road, Deogaon","21.3519453","83.6047246"
"ChIJ1-gjQ6JLIToR6uJIvUgzy2w","DEBANSH GENTS SALOON","Bargarh","21.33447","83.6191585"
"ChIJtWwCMABLIToRtJyEuO5BUHs","Bharat petroleum","8JWJ+93Q, Bargarh","21.3462723","83.63017839999999"
"ChIJI_9F5iRLIToRwSCGhSlnmho","Bharat Petroleum, Petrol Pump -Radharani Fuels","NH6, BARGARH TOWN, BARGARH, Bargarh","21.3488781","83.63820369999999"
"ChIJnRXOaHW1JjoRh-vAi0bBhoQ","IndianOil","Ground Floor, NH 6, Gobindpur","21.3301183","83.5504923"
"ChIJE0BZmik2IToRfhpibeWPiDU","Hindustan Petroleum Corporation Limited","Ground Floor, NH 6, Suktapali","21.3605441","83.71366689999999"
"ChIJV2Uj9xY3IToRm-fhm-73Dl0","Vijaya Laxmi Filling Station","9P6C+PRQ, Suktapali","21.36184","83.7221184"
"ChIJzbQput03IToRfXQoh5W6t1k","IndianOil","Ground Floor, Sukutapali NH 6, Bargarh, Basupali, Rengali","21.3623977","83.7281392"
"ChIJAbT0YAA3IToRcw435va7lz8","Hindustan Petroleum Corporation Limited","Ground Floor, NH 6, Debahal, Rengali Camp","21.362772","83.73949499999999"
"ChIJKU3VQ943IToRt-tjgL4japU","HP PETROL PUMP - BUNNY FILLING STATION DEBAHAL","AT Debahal P.o.-rengali Camp Via-attabira, Sambalpur","21.36305","83.73949999999999"
"ChIJqYP9dr03IToRcrOd8AyMU-4","VENKATESWAR FUELS","NH-53, Kolkata - Mumbai Highway, Debahal","21.3632433","83.7397611"
"ChIJH3nsnvA3IToRmIRbu5IBjgE","M/s Odyssey fuels","Rengalipali, Attabira, Bargarh","21.3649689","83.74380769999999"
"ChIJgTTFfORJIToRLNHC2PnMKbI","Reliance Petroleum","Plot No 3519,3520 Nh 6, Barahagoda","21.3501206","83.6913326"
"ChIJBdM8NQBJIToRgevYUNzKDCU","Jio bp bargarh","Bargarh Ms Kumar Fuels NH-6, plot no. 3519, 3520, Taluka, Barahagoda","21.3504277","83.691026"
"ChIJK7FLRL9JIToR0fS9yu8NaN4","Gartia Amulya Filling Station, BPCL","Kolkata - Mumbai Highway, Barahagoda","21.3513064","83.6867053"
"ChIJoUJatHs-IToR4IGAq3mGanc","IndianOil","Ground Floor, NH 6, Goshala","21.451955","83.89751419999999"
"ChIJx60mL_s-IToRXUULEkWhxQ0","IndianOil - SWAGAT","Gosala, NH 6, Kalamati","21.419596","83.879486"
"ChIJWRZdeN4-IToRBfqC8wWG8Vw","Hindustan Petroleum Corporation Limited","Ground Floor, NH 6, Ladukhai, Sambalpur","21.416895","83.866155"
"ChIJdbrI99Y-IToRPNmD8QrU7_o","HP PETROL PUMP - AUTO CARE CENTRE, Godbhaga","HPC Retail Outlet Godbagha, Sambalpur","21.4131558","83.85427519999999"
"ChIJDQin_ks_IToRsJD3d-o_S9E","Jio-bp","Plot No 4332, Kalamati","21.4256926","83.8953883"
"ChIJeaJ_GwA_IToRQaEwukLQcIM","Reliance Petrol Pump","CVFV+XXV, NH 6, Kalamati","21.4263373","83.89585269999999"
"ChIJc_9QOkM-IToRm3Wrj2Zsvbc","Sunil Gas Point","India","21.4320366","83.90109819999999"
"ChIJ_y-zHHs-IToRZfMXUJgGXbA","Hindustan Petroleum Corporation Limited","Ground Floor, NH 6, Kantapali, A Katapali","21.449631","83.897291"
"ChIJZYb9QqQ_IToRtWrc7DSxlc4","IndianOil","Ground Floor Sahajbahal, Basantpur","21.39464","83.89198999999999"
"ChIJl4H9fmo_IToRvC8INsQNnlI","Hindustan Petroleum Corporation Limited","Ground Floor, NH 6, Godabhaga","21.4135594","83.8544646"
"ChIJkzknk8M_IToRsqzuJefn4tc","IndianOil","Ground Floor, kendupali, Dulampur","21.4231774","83.8488569"
"ChIJp2D0rbc9IToRE-wnZk8HedQ","Kesari Nandan service station","Jagannath Temple, Sambalpur","21.4611381","83.8999918"
"ChIJBeS7VI8_IToRqvQHevgsBxE","IndianOil","Ground Floor Gadtiapali, Attabira, Godbhaga, Dulampur","21.4064201","83.84969009999999"
"ChIJL8JikCg_IToRK-6kfrXR7rI","S k fuels","CR4X+8RX, Gartiapali","21.40587409999999","83.8496143"
"ChIJMzWGVOYVIToRRaU5xlbQA5E","Hindustan Petroleum Corporation Limited","Ground Floor Goshala, Mundoghat, Road, Raghunathpali","21.440761","83.93390099999999"
"ChIJlTpeOO4WIToRACX_BKquoa8","Hindustan Petroleum Corporation Limited","Ground Floor, NH 53, Ainthapali, Sambalpur","21.494474","83.986717"
"ChIJ1Znjme4WIToROI9UP5-t5UY","IndianOil","Ground Floor, Ainthapali, Sambalpur","21.4951833","83.986915"
"ChIJ979QVz8WIToR8ZbxT1u1q7k","Hindustan Petroleum Corporation Limited","Ground Floor, Khetrajpur, Sambalpur","21.4905852","83.9531015"
"ChIJGfsVhHsWIToRB_hwBTr7blc","Hindustan Petroleum Corporation Limited","Ground Floor, Mudipara, Sambalpur","21.4707523","83.96902159999999"
"ChIJI4kO3CMWIToRqOeFaJvldAs","Hindustan Petroleum Corporation Limited","Ground Floor, Ring Road, durgapali, Sambalpur","21.488855","83.9378733"
"ChIJi_vM1CoUIToRB6CCqmM5z2U","Bharat Petroleum","FX5F+VQ7, Kacheri Road, Dalaipara, Sambalpur","21.4596561","83.97442749999999"
"ChIJ-eCDQvMXIToRXOUQaojqmfE","Sambalpur Filling Station","FXVF+X2C, Kenghati, near Sindhurpankh Chowk, National Highway 53","21.4949457","83.9725024"
"ChIJaRL0ZQAXIToRU00Gu4tUeY0","JIO Petrol Pump","FXV8+R72, Sambalpur","21.4945238","83.96564699999999"
"ChIJywQRCvEWIToRsqPA5rpg-Xk","IndianOil","Ground Floor, NH 6, Ainthapali, Sambalpur","21.49472889999999","83.97980570000001"
"ChIJ6QV61vAWIToRQqP8o-WhN4g","Bikash Fuels Petrol Pump","Gujarat State Highway 6, Panchagochhia, Sambalpur","21.495347","83.9800621"
"ChIJQfzeDvwXIToR5AljU3HXm_U","OM SANITARY","Bus Stand, Near, opposite to Hotel Kaveri, NH-6, Service Road, Ainthapali, Sambalpur","21.494978","83.98132729999999"
"ChIJI_3cCfEWIToR0_zFQL3WbsQ","Tatanagar Service Station BPCL","FXVJ+PWG, Service Road, Ainthapali, Kainsir","21.4943039","83.9823294"
"ChIJJaW6mPEWIToRnzWwRMsmGQ8","Nr.Tatanagar Service Station","FXVM+G39, Kainsir","21.4937926","83.9827371"
"ChIJ5-WP_UUWIToRt7015TBdd_Q","Tatanagar Enterprises","near Truck Union office, Bareipali, Sambalpur","21.4968482","83.9585195"
"ChIJ44Y6_YwWIToRacVYJlPICO4","Hindustan Petroleum","Dviteeya Manjil, Balaji Business Center, Main Road, Budharaja, Sambalpur","21.4841271","83.9822484"
"ChIJA6syaIwWIToR6WhPmF2QjSo","IndianOil","SH-10, Budharaja Road, Sakhipara, Sambalpur","21.4824055","83.98100339999999"
"ChIJAejFf30WIToRo-AmPnYeiNY","Reseve police line petrol pump","FX9C+VWQ, Police Line Road, Modipada, Sambalpur","21.4697145","83.9723451"
"ChIJN9OFhTEWIToR6VLPxRhm6Fc","IndianOil","Ground Floor, A Katapali, Chowk, NH 6, Remed","21.5021733","83.944655"
"ChIJ2arn2twWIToRqwDcwbhWT-0","Baidarnuapal,Bhallupali Chwok,Petrol Pump, BPCL","State Highway 10, Ainthapali, Baidarnuapali","21.4997999","83.99871759999999"
"ChIJHXKXqrgXIToRPVWRGlsmZWI","Samleswari Fuels ( ସମ୍ଲେଶ୍ୱରୀ ଫ୍ୟୁଏଲ୍ସ )","Baidar Nuapali, Sambalpur","21.4997397","83.99883179999999"
"ChIJ3bQD-9ASIToRoncJxLSYBOg","BPCL Petrol Pump","Sambalpur","21.3800844","84.0664326"
"ChIJk_LKORkTIToRW-6kZPTbJHE","IndianOil","Ground Floor Jhankarpali, Jujomura, Batemura","21.398309","84.053095"
"ChIJs1tG0jITIToRhx5p3hVsE9k","Hindustan Petroleum Corporation Limited","Ground Floor, NH 53, Maneswar, Halipali","21.40539099999999","84.046438"
"ChIJn_eQfQATIToR3MCgIm6mYJQ","IndianOil","Ground Floor Maneswar, Sadar, Halipali","21.4088242","84.0434586"
"ChIJycN27EYTIToRCM8zP9cg3Cc","IndianOil","Ground Floor, NH 55, Bhubneswar Hwy, Sambalpur","21.4116928","84.0399128"
"ChIJzS5DRABzIToRPBaFEq53LGI","यूरिया पम्प गद्गाद्बहल ओडिशा","74PJ+36C, Gadgadbahal","21.2855549","84.1301201"
"ChIJ8ahM18RxIToRzoIUYdb8SaI","Jio BP Mobility Station (Trinity Enterprises)","Kansar","21.2731388","84.13556319999999"
"ChIJXRdX65hxIToR_hMPp6ZRaG8","IndianOil","Ground Floor Kansar, Jujumura","21.25585749999999","84.1367693"
"ChIJGzvenJJxIToReQX-rH3G5hQ","HP Oil Petrol Pump","742M+998, Sambalpur - Cuttack Highway, Dangapal","21.2509077","84.133449"
"ChIJuWtaNmtxIToRQVMy0Jo7OUk","Hindustan Petroleum Corporation Limited","Ground Floor, NH 55, near Fire Station, Jujomura","21.250542","84.13341899999999"
"ChIJUxpOTIBxIToRgGGJBxgJaLY","Burhani Fueling","55P8+MMF, Sahajbahal","21.1866886","84.1666613"
"ChIJxauHEV1xIToRQXdEKdMpy48","Hindustan Petroleum Corporation Limited","Ground Floor, NH 55, near Jitu Dhaba, Jujomura","21.2290801","84.14482799999999"
"ChIJ46pUF0qBIToRAKKMKUGteOU","Petrol & CNG Pump","Redhakhol","21.0725896","84.34962399999999"
"ChIJ10XKiROBIToRhlNxkB2BfrM","IndianOil","Ground Floor NH 42, Redhakhol","21.06647","84.327395"
"ChIJHWVaiHyHIToRgPJecAEG6c8","Hindustan Petroleum Corporation Limited","Ground Floor, NH 55, Redhakhol","21.0739845","84.3684859"
"ChIJ6ynx9xccIjoR1gkkDLcCWqU","IndianOil","Ground Floor, Boinda","20.9392466","84.70031159999999"
"ChIJeXO-7oEHIjoRqJKN_ZpDm2c","Hindustan Petroleum Corporation Limited","VVRF+XJH, Bhagirathipur","20.8924375","84.8740625"
"ChIJd_yHlUsHIjoRmJnsUiwwT60","Bharat Petroleum","WV6M+5P8, Chhendipada - Jarapada Road, Durgapurpansahi","20.910422","84.8843163"
"ChIJB56K81cGIjoRTKJETtbKGxg","Ratan Filling Station Bharat Petroleum CNG","VVFQ+89C, National Highway 42, Jarapadapanasahi","20.873321","84.888385"
"ChIJJ-No-9EHIjoRgfnXGCaIwDE","Hindustan Petroleum Corporation Limited","Ground Floor NH 55, Jerenga, Jarapada, Laxmidharpur","20.900998","84.845818"
"ChIJ-WLOagAFIjoRfChydl_fe88","Kaltax chowk Angul","WR2V+CPW, Sambalpur - Angul - Dhenkanal - Cuttack Road, Laxmidharpur","20.9011206","84.8443179"
"ChIJeYUTo20FIjoRiqYLplW3-7E","IndianOil","Lock No Ig, Set Govindpanasahi, 192 10/2/1, Jerang","20.903041","84.838529"
"ChIJIWlh3_wHIjoRAWz5tGE9A80","Hindustan Petroleum Corporation Limited","Ground Floor NH 55, Ugi, Malisahi, Jarapada","20.86147099999999","84.906331"
"ChIJdaUDQACnGDoRHoMk4QTNEbc","Naik fuel","RXCV+FWJ, Tubey","20.8212039","84.9947548"
"ChIJ4z0ODWqnGDoR-UWpQlsxYpQ","IndianOil","Ground Floor, Tubey","20.821529","84.978218"
"ChIJXXbnd6CnGDoRVXQTdNjnlxE","IndianOil","Ground Floor, Tubey","20.8084833","85.0047996"
"ChIJJWtcqRenGDoR9XTwo9fStsg","Laxmi Nursingha DEF FILLING STATION","NH- 55, Badakera","20.8056377","85.0089866"
"ChIJMV5jM-6pGDoRgWXf-0tAapg","Tapoban filling station","RXJ7+8VP, National Highway 55, Santarapur","20.8308476","84.96468899999999"
"ChIJb3zcZAC5GDoRntGkKkHpKkA","Tulasipala","R56R+QM, Tulasipal","20.81187929999999","85.1916559"
"ChIJBQjEMBK5GDoR1fYLG2zmbHM","IndianOil","Ground Floor, Garhsantri, Banarpal - Hindol Road, Arahat","20.8082116","85.2113045"
"ChIJDyKsXg_HGDoRLfl_VvBzqlo","Bharat Petroleum Petrol Pump , SAMAL FUEL STATION","AT MOUZA-GHANTALPASI, PS-MOTANGAPS NO-17, TAHASIL, Dhenkanal","20.801545","85.303122"
"ChIJufMsRwDHGDoRYjyRC_aws28","Shree balaji enterprises","Q8PJ+MM5, Meramandali","20.7866432","85.33174559999999"
"ChIJgz3Gg_TGGDoR-pVC_nidLP8","IndianOil","Ground Floor Meramandali, Nimirndha, Beruanpal","20.7863934","85.3320488"
"ChIJRfHK083HGDoRSXkOw4aBRtk","SHREE LOKANATH FILLING STATION","Similipatna, Meramandali, Dhenkanal NH-55 po-meramandali, Dhenkanal 24/7 open, Clean toilet, Drinking water, free Air Nava Limited plant, Side","20.7842353","85.33867769999999"
"ChIJ-RfUPyLHGDoR5-hU0lFt_Wc","IndianOil","Ground Floor, Nh 55, Meramandali","20.8157752","85.2858475"
"ChIJBZg4EInHGDoRSumvJUHfs8I","IndianOil","Ground Floor, Kharagprasad Meramundali, Motanga, Dhenkanal, Arahat","20.816567","85.286007"
"ChIJqV8SlUHHGDoR-PiOwNNgfm0","SS Filling station Bharat Patrolium","R78M+JH6, Itapa","20.8165375","85.28389059999999"
"ChIJqSqfnQ3HGDoR3saf9VpUUNc","Hindustan Petroleum Corporation Limited","Ground Floor, Motanga, Kurunti","20.8172464","85.2829193"
"ChIJQV1i6aXFGDoRAlGaOS9RiqI","Essar Petrol Pump Nath Filling Station","Q9H5+649, Sambalpur - Angul - Dhenkanal - Cuttack Road, Haladia Bahal","20.7780455","85.3578606"
"ChIJDRd4xbHEGDoRBmRc23Ntc0A","Hindustan Petroleum Corporation Limited","Ground Floor, Hindol Road, Odapada","20.75997599999999","85.430504"
"ChIJ5cHAjvTEGDoRXOkU8V06mIo","Bharat Petroleum","India","20.7726242","85.4005576"
"ChIJz_mT9JrDGDoRbI9N6-b8eSk","MS/HSD- MAA TARINI FILLING STATION","At, Babandha","20.7242348","85.4176098"
"ChIJNU3bjLHDGDoRjIas2u0IsLc","Hindustan Petroleum Corporation Limited","Ground Floor, Rasol, Babandha","20.723803","85.41420699999999"
"ChIJ7zYp7V3EGDoRWkI8tmHJUns","Hindustan Petroleum Corporation Limited","Ground Floor, JP Campus, Hindol - Gudiakateni Road, Balaramprasad","20.770721","85.389851"
"ChIJbRAVJqjFGDoRW3TNqES2O_s","IndianOil","Ground Floor, Hindol - Gudiakateni Road, Motonga, Balaramprasad","20.769937","85.3891974"
"ChIJa8zz-drfGDoR-ZcX48GvzNU","IndianOil","Ground Floor, Maa Tarini Nagar, near Shakti Sugar Pvt. Lmt, NH 55, Bypass Road, Dhenkanal","20.6648982","85.5734267"
"ChIJscGrbQ3fGDoRQYgLfIvHLvs","Shree Jagannath fuels HSD BPCL","MGWQ+P3R, National Highway 55, Mulisinga","20.6968566","85.53765179999999"
"ChIJk4i_LmHeGDoRz9LbjdPsLgQ","Petrol Pump","MGWQ+P3R, National Highway 55, Mulisinga","20.6968566","85.53765179999999"
"ChIJ_82ZfX_fGDoRy2EuHneGnPY","ANANYA FILLING STATION","SIMINOI, Gadasila","20.7058598","85.52638259999999"
"ChIJ-RLd7K_fGDoR1hyi_9bsJuw","HP Petrol Filling Station","","20.69269509999999","85.5706644"
"ChIJFzzliG_fGDoRtNrRVc6AmIk","Hindustan Petroleum Corporation Limited","Ground Floor, Bebarta Kateni","20.692891","85.570791"
"ChIJhRXFdaXdGDoRR-pnoiuXQZY","IndianOil","Ground Floor Kasiadihi, Odapada, Balarampur","20.697867","85.50594"
"ChIJa922MQDdGDoRa5XP3FP20CA","Hindustan Petroleum Corporation Limited","near Siminai, Khata No 48/70, Plot No 379 NH 55, Gadasila, near Siminai, Bypass, Jharagadia","20.7167061","85.5111713"
"ChIJ86PpuW3fGDoR7eSt6L40rGw","Pintu Lubricants","Korian By Pass, National Highway 55, Dhenkanal","20.6856828","85.5773901"
"ChIJq5GY2j_fGDoRrHKW0160f7g","Bharat Petroleum, Petrol Pump -Sagarmal Agarwalla","PANCHUPATI-DHENKENAL, Dhenkanal","20.6770869","85.5742367"
"ChIJKR1aei0fGToRezmiSOJpMyU","AARTI PETROLEUM","JJMC+WMP, College bypass, near MARUTI Suzuki Showroom, Kathagada Sahi, Dhenkanal","20.6348473","85.6216928"
"ChIJpw72sGEfGToRMlTtgaaQOWQ","IndianOil","Ground Floor, Kathagada, near Dhenkanal, College, Dhenkanal","20.6346873","85.6213057"
"ChIJY-X3YrkfGToR4jMewCP5iQo","Bharat Petroleum","India","20.6252894","85.6279522"
"ChIJv2Aj2bsfGToRdzu9H9omPkY","Surya Petrol & CNG filling Station","JJGH+586, Dhenkanal","20.6254152","85.6282652"
"ChIJb6VPOaUfGToRu1YN-M2ENzM","IndianOil","Godrej Lock No 22004, College, Dhenkanal","20.6392439","85.6177628"
"ChIJG_CHkpwfGToRqOUZIVtgBD4","Kalyani Gas Agency (HP GAS)","JJ8M+V72, Gobindpur","20.6171332","85.6331414"
"ChIJBeLQ6useGToRw7EqcHuXdls","HP Petrol Pump - Panda & Bros.","Baladiabandha NH 42 PS Sadar, Gobindpur","20.6110823","85.6396948"
"ChIJkVekiP8fGToRAnIlCue1_YY","IndianOil","Ground Floor Dhenkanal College Rd, Nijigarh, Kunjakanta, Dhenkanal","20.6514844","85.60598"
"ChIJI4CiuGzhGDoRBtKVQiNbhIA","Hindustan Petroleum Corporation Limited","Ground Floor, Panjia Sahi, Dhenkanal","20.652196","85.60147599999999"
"ChIJDdUTfZ7hGDoRmX9MjHO2OLI","Jayanta Pvt Ltd","10, Khamarsahi, Dhenkanal","20.6536759","85.58934630000002"
"ChIJsy_4bADfGDoRG5v7Bn3RIUI","Rameswar petrol pump","MJ82+MJR, Rameswarpur","20.6667292","85.60153059999999"
"ChIJ13W7-PrfGDoRKqoj7caO_zI","Sagarmal Petrol Pump","MH8V+7R6, Dhenkanal","20.6656514","85.5945194"
"ChIJbfbFmFkZGToRrM4PYIW_utg","IndianOil","Ground Floor NH 42, Athagarh, Near College, Mathurapur","20.56826","85.69712"
"ChIJJbAfTeAbGToR2_phjJftArU","Bharat Petroleum, Petrol Pump -Sri Gopal Supply Agency","Khuntuni Road, Cuttack","20.5622329","85.725278"
"ChIJQ-slYiYaGToR60jk8Nn1yrw","IndianOil","Ground Floor Rampei, NH 42, College, Athagarh","20.5594643","85.73851810000001"
"ChIJC2S9V2AZGToRsRnIpNO5YAc","IndianOil","Lock No 21002 102 NH 42, Khuntuni, Near Athagarh College, Bhogara","20.5667167","85.70801829999999"
"ChIJ0bl4rmIZGToRKP2aYmcjse8","Royal Filling Station","Sambalpur - Cuttack Highway, Krushnashyampur","20.5669346","85.70745939999999"
"ChIJkRPrAiQbGToRayYPC1DGFU0","Hindustan Petroleum Corporation Limited","Ground Floor, Athagarh, Golei Chowk, Bhogara, Near, Chowk, Khuntuni","20.558101","85.70445099999999"
"ChIJ11_uaQURGToRJXNJ055_gdY","JMS ENTERPRISE","National Highway 42, Baula","20.52934","85.81699309999999"
"ChIJv3C-WyQRGToRutJPMC7ipmc","Hindustan Petroleum Corporation Limited","Ground Floor Gurudijhatia, Chhaga Station Road, Baula","20.5340182","85.821282"
"ChIJF5pSrhkRGToR1ZdW6hUDxEg","Swain &Sons","GRCJ+Q63, Sambalpur - Angul - Dhenkanal - Cuttack Road, Jhatia","20.5218994","85.8305587"
"ChIJrYChE50RGToRlXeLmD62xs8","Hindustan Petroleum Corporation Limited","Ground Floor, NH 42, Choudwar Bali Road, Kuspangi","20.5216423","85.8306984"
"ChIJTR9PgkgRGToROXtd0B0CjQ4","Hindustan Petroleum Corporation Limited","Ground Floor, Choudwar, Nuapatna, Tangi, Near, Dhabaleswar Temple Road, Cuttack","20.516761","85.82784099999999"
"ChIJK49DDo0RGToRD0Pr0cCInHs","IndianOil","Ground Floor Mahalpada, Kakhadi, Choudwar, Dhurusia","20.512944","85.814809"
"ChIJeYKjFNYRGToRPqN8Hmim0x4","IndianOil","Ground Floor Nh 55 Oranda, Gurudijhatia","20.5404661","85.8043833"
"ChIJd2C6-yQRGToRyxxE0JSXL8o","Satyajay Filling Station","Nuapatna, Near, Utkal Gourav Madhusudan Setu, Nuapatna","20.509012","85.82610559999999"
"ChIJKaeR-FAQGToRM7Fblx9yLjg","Indian Oil","GQ5X+VRM, Bidyadharpur, Kakhadi","20.5097182","85.7995449"
"ChIJ_3AsWfcRGToRRdaa7uBPBnc","Kunja Bihari Fuel Station","Plotno. 10-6CM, 1619/B, CDA Sec - 10, Cuttack","20.4843982","85.8149843"
"ChIJO75sz2UNGToRZ9fPPSaxxz0","Bharat Petroleum Petrol Station","FW74+93H, Gandarpur, Cuttack","20.4638534","85.9040083"
"ChIJ-0ez42ENGToRCpN5NDlvkmI","Hindustan Petroleum","Sikharpur, Near Gurudwara, NH 5, Sikharpur, Cuttack","20.4733373","85.90569510000002"
"ChIJhfuUNGENGToRyjl4ZfjfqLY","Essar Petrol Pump","Gandarpur, Cuttack","20.4673634","85.9067891"
"ChIJUd1_bJ8NGToR6GclmOflPQk","IndianOil","Lock, 11004, Ring Road, Khan Nagar, Arunodaya Colony, Cuttack","20.450931","85.886337"
"ChIJmR0ktoMNGToRMrmDqbSFhNo","Hardhik & co. (Bharat Petroleum Petrol Pump)","FV8P+6MR, Bajrakabati Road, Samanta Sahi, Siba Bazar, Cuttack","20.4656149","85.88663009999999"
"ChIJNb8OEKoNGToRHKW5VYr47PU","IndianOil","Ground Floor, Bajrakabari Road, Srikoruan, Urali","20.43119","85.8902367"
"ChIJpakVAnkSGToR_R22wwnsNd8","Hindustan Petroleum Corporation Limited","Ground Floor, Maachhua Bazar, Cuttack","20.4760651","85.8822457"
"ChIJi1TNRbgSGToRSnsWKgX03ZM","IndianOil","Lock, 12001, NH 5, A D Market, Jagatpur","20.4967377","85.9216976"
"ChIJLW_Mnu8NGToRSMhUAeM6by4","Jay Jagannath Store","FW48+HWV, near SBI Atm, Naya Bazaar, Cuttack","20.4564989","85.91728499999999"
"ChIJmZNVMr0NGToRxx4jm1B6kpU","IndianOil","Lock No 21007, Naya Bazaar, Cuttack","20.454592","85.910934"
"ChIJNwUBIwANGToRggVQpyqfkBI","BPCL NRO sikharpur","FW88+84Q, kanheipur","20.4658397","85.9153484"
"ChIJzWGaizUNGToRr7BotXzeqpc","IndianOil","Naya Bazaar, Bidyadharpur, Cuttack","20.449997","85.926895"
"ChIJm2-kvm4NGToRACMO8jEiOXk","OMP Petrol Bunk","Cuttack - Paradeep Road, Cuttack","20.4567854","85.9038806"
"ChIJGUID1mYNGToRu8CXiDNr6yU","TRUPTI MARUTI SERVICE STATION","India","20.4672039","85.9074363"
"ChIJ80QvKAANGToR2ou6Ad7embA","Bharat Petroleum (Raj Fuel Station)","CWV6+P8Q, Old Jagannatha Road, Madhu Patna Colony, Cuttack","20.4444078","85.9109874"
"ChIJS-OJzWYNGToRMzDwvE24vr0","NAYARA","India","20.4673494","85.9068125"
"ChIJ_9zXGQBzGToRbA2wgY3yLE0","SARITA KISHAN SEVA KENDRA","Bidyadharpur, Cuttack","20.4519479","85.9368423"
"ChIJ7RNsVnANGToRAHB9zo0pGwM","JAGANATH OIL","India","20.4588955","85.8973221"
"ChIJ0VSyfUsNGToRFk8vDEAunAM","Hindustan Petroleum Corporation Limited","Ground Floor, College Square, Cuttack","20.4661437","85.8966566"
"ChIJh22hjHcNGToRC5Ve5pixUnE","Popular Enterparises","CWQ3+CR3, Cuttack-42 Mouza Road, Balisahi, Government Press Employee Quarters, Cuttack","20.4385112","85.9045519"
"ChIJv12_1LdxGToRfXI6vbwWUJk","IndianOil","Ground Floor Ramkuanrpur, Kisannagar, Somapur","20.3848376","86.0655337"
"ChIJX43zQiZxGToR0kR-62Ny6yE","Hindustan Petroleum Corporation Limited","Ground Floor, Archhili","20.3957639","86.0492934"
"ChIJpZ1jjDtxGToRnKlvUtJZK6k","IndianOil","Ground Floor Kamarpada, Jashpada, Kesannagar","20.3989924","86.0391963"
"ChIJBWH-iPFxGToR7ZA7BfMW_C0","Hindustan Petroleum Corporation Limited","Ground Floor, Kishannagar, Kamarapada","20.3991804","86.0386772"
"ChIJ40-wRTtxGToRlPMjU8ZH38o","HP PETROL PUMP - JAI MAA SANTOSHI FILLING STATION","Cuttack Paradip Road, Taluka Sompur, PS Krishnanagar, Archhili","20.3992851","86.0386705"
"ChIJv-3iq-l2GToRhEnnt75uDbg","Hindustan Petroleum Corporation Limited","Ground Floor, Kandarpur Machhagaon, Road SH 43, Biridi, Hajipur","20.3553124","86.0409652"
"ChIJ2QRA2cB2GToRMovW8WzJMIk","Devi Fuels, BPC Petrol Pump Daleighai, Biridi","Cuttack - Jagatsinghpur Road","20.3627711","86.03440979999999"
"ChIJJyIgDEp5GToRFCBov7os2h4","Padmalaya Filling Station","Sarapur","20.3743916","86.1145557"
"ChIJEztFAgZ3GToRdkvxmBunLzI","IP","India","20.3398363","86.0630437"
"ChIJD2Js8zRxGToRour2Wq7G8kE","IndianOil","Ground Floor Samantrapur, Kisannagar, Ayatpur","20.4205343","86.0848698"
"ChIJkyMBTMZ-GToR_nxbATH50qc","Hindustan Petroleum Corporation Limited","Ground Floor, Purana Odapada, Raghunathpur","20.3575961","86.18694839999999"
"ChIJxaeangZ_GToRoZ6XTLy0DWE","HP gas","86JG+785, Salijanga","20.3306303","86.2258694"
"ChIJCyH4IB15GToRWMGzM_LpjMg","Mahavir Store","Raghunathpur","20.359961","86.1656287"
"ChIJucw8KkZ5GToRTu6JMzYaric","Gourisankar Empire","9577+GJ6, Unnamed Road, Raghunathpur","20.3637864","86.1640096"
"ChIJrXXretHTGzoRv7KhRZMc3Co","IndianOil","Ground Floor, SH 12, Tarajanga","20.3125176","86.3043441"
"ChIJm_4rZbjUGzoRrUp_Sy-FJyc","Bharat Petroleum Petrol Pump , BISWANATH FILLING STATION","SH-12, Sarala Road, Tirtol","20.30679","86.31828999999999"
"ChIJLdqQ_r7VGzoRWe0VCUH9DXs","Bharat Petroleum Petrol Pump , SHIVANI FILLING STATION","AT, Jeypore","20.333956","86.269579"
"ChIJBZVgKhfVGzoR69FhRsBIMoM","Maa Sarala Fuel Station","near Maa Sarala Market Complex, Road, Tirtol","20.3070704","86.3346692"
"ChIJISnD3UbTGzoRdzeRlm9w7fk","IndianOil","Ground Floor, Tirtol","20.3078317","86.34392330000001"
"ChIJWVBNgHjLGzoRvGaD-8PEUwI","IndianOil","Ground Floor Sandhapur, Kujang, Balia, Paradeep","20.3176383","86.5003133"
"ChIJK1r71h7LGzoRogQc9puGwu4","Hindustan Petroleum Corporation Limited","Ground Floor, Kujang","20.3240065","86.5355156"
"ChIJm4Dgjyi1GzoRborsfHEkJPs","IndianOil","Ground Floor Paradeep, Udayabhat, Balia","20.3093863","86.6176113"
"ChIJcSmoqsLKGzoRb2QgLQIS1w0","BPCL Petrol Pump Baliyarsingh Filling Station","Santara","20.3208453","86.55019639999999"
"ChIJCbvqesm0GzoRCQcxrNjQTFw","Reliance Petroleum","1458/P, 1460/P, 1461/P, 1464, P To 1466 Udaybhat, Do Chaki, Paradeep","20.3087775","86.6304657"
"ChIJg4yAMQC1GzoRCBSou--1mI8","Sarat & Brothers Fillingstation","8H7Q+C7C, Kathagada, Bhutumundai","20.3135547","86.58815349999999"
"ChIJvzPMlES1GzoRX1gKwk7tRHw","IndianOil","Ground Floor Kathagada, Paradeepgarh, National Highway 5A, Balia","20.3138967","86.5923383"
"ChIJ4com4xW1GzoRxQNp3Tzmx6M","Nayara Petrol Pump - Bhagaban Filling Station","Plot No. 132/1519 , Khata - 562/25 , Paradeepgarh Kujanga, Paradeep","20.3188273","86.61214249999999"
"ChIJcxZVDQBLGjoR4pgYqwb5ycM","Abhijit sarkar","7JW5+Q7G, Niharuni","20.2962809","86.6076633"
"ChIJ-fRa0y_LGzoR4RULW3k5lnk","IndianOil","Ground Floor Krushnachandrapur, Kujang, Balia","20.32102","86.54633299999999"
"ChIJMVH6GwC1GzoRJkwifbpNq5A","Udayabata","8J4C+6RF, Udayabata","20.3055739","86.62204109999999"
"ChIJI3BSDgC1GzoRZAD6cXTdyMU","Kalyani fuel Station","8J4C+6RF, Udayabata","20.3055739","86.62204109999999"
"ChIJXf2feQC1GzoRyJjLaJpjRFU","Kalyani Fuel Station BPCL","8J6G+JC, Paradeep","20.3115183","86.62609549999999"