place_id,name,address,latitude,longitude,open_now
"ChIJEamyMQObHjkR-AYli_iqZfI","IndianOil","Ground Floor, near Miran Sahib, Devian, Khour","32.6537001","74.831001","true"
"ChIJzWw3VGKPHjkRGyD4GDwdgJU","Amar filling station","Alora r, 54 Mandal Phallian Road, Jammu","32.69413109999999","74.7642074",""
"ChIJX8GZ7u-PHjkR-EpCgIYoC9o","IndianOil","Ground Floor, Alora","32.6931782","74.76174759999999","true"
"ChIJiYxShz6PHjkRLH1BwDgMzUs","AMAR FILLING STATION","Dei Chack Sohanjna Road, Jammu","32.6967783","74.7440053",""
"ChIJcwyNxFuFHjkRGQY6mxpmL60","Hindustan Petroleum Corporation Limited","Ground Floor, Phliyan Road, Jammu","32.6969541","74.7874435","true"
"ChIJH1-QinSPHjkRa1niAk7A_XU","HP PETROL PUMP - SHRI RAM FILLING STATION","Ghou Manhasan Road Bhadrore Near to Hanuman Mandir, Jammu","32.7265004","74.7589911","true"
"ChIJ8y1OawCPHjkRsHDSXXVt1eE","Sai Ram filling station","PPFR+6PC, Ghou Manhasan","32.72347","74.7424333","false"
"ChIJuSL4B86FHjkR1LUdqlsyyRk","Bharat Petroleum, Petrol Pump -Rahat Filling Station","JAMMU CITY, Jammu","32.6871202","74.815994",""
"ChIJFYbgfwCFHjkRgNGvUXSgMLY","Hindustan Petroleum Corporation Limited","Ground Floor, Manhas Road, Jammu","32.7306438","74.81381929999999","true"
"ChIJj_oFNQaPHjkRTJl8prY6_8I","Hindustan Petroleum Corporation Limited","Ground Floorsk NH 244A, Marh Ring Road, Marh, Karloop","32.743641","74.723091","true"
"ChIJfQFP9ruFHjkRE-CIbmQuGDc","Hindustan Petroleum Corporation Limited","near Tawi Bridge, No 4 Satwari Road, Jammu","32.700975","74.832559","true"
"ChIJA0IF4H6bHjkRXKQ4Ox2BvTo","Yahowa filling station","Yahowa Filling Station, Jammu","32.64682189999999","74.8016401",""
"ChIJWYiBmCabHjkR9Qd3kfqowkg","AMAR SERVICE STATION","","32.6723729","74.83264129999999",""
"ChIJs_lOe_eFHjkRDoq5gPOUTdI","Hindustan Petroleum Corporation Limited","Ground Floor, Marh Road, Sangram Pur","32.7583442","74.7841444","true"
"ChIJJcQuhrOFHjkRtOgP6hknwMM","IndianOil","Ground Floor, Jammu","32.742761","74.817131","true"
"ChIJUQ-UcOebHjkR4UwEUQVAHnU","IndianOil","Ground Floor Malikpur Miran Sahib,Khour Devian, Near Talli Morh","32.637615","74.797501","true"
"ChIJ42jzwlyFHjkRAdFmKPXvyaw","IndianOil","Ground Floor, Gadigarh Chatha Road, Khour","32.670222","74.8372062","true"
"ChIJbxlDUeWbHjkR6GXjwwj8RuM","IndianOil","Jammu","32.6702488","74.83722399999999","true"
"ChIJK9PQebGFHjkREX3UlYLw9pc","Hindustan Petroleum Corporation Limited","Ground Floor, Jammu","32.7441822","74.8207619","true"
"ChIJ868SwjmFHjkRfGc6xzBlVtQ","KAITH FILLING STATION","54 PATTA, Jammu","32.7442948","74.8206567",""
"ChIJtYuZ7sObHjkRFlj7IWCaYqM","Divyanshi Traders","opposite Saheed Bhagat Singh Park, Miran Sahib","32.6419562","74.81296189999999",""
"ChIJ6Vl61iKbHjkRCnknKOTAdSA","Da Fresh Fuel","","32.6688262","74.83861750000001",""
"ChIJJVFbBo-QHjkR86OTtGDIXt0","Hindustan Petroleum Corporation Limited","Ground Floor, Gazipur Kullian, Ranbir Singh Pura","32.6271301","74.76637480000001","true"
"ChIJ66Hczg-bHjkRkbvBA3yqF8s","IndianOil","Airport Road, Miran Sahib","32.6444913","74.8182875","true"
"ChIJ5-_nuyKbHjkRi7hw6isIt0c","Hindustan Petroleum Corporation Limited","Ground Floor Gadigarh, near Karan Bagh, Jammu","32.66442660000001","74.83706169999999","true"
"ChIJ68wT572bHjkRvroC1whaAmI","M/S GS PETROLEUM","Delhi Delhi","32.66428189999999","74.8372854",""
"ChIJ_c26vv2aHjkRNnvM_He0dI0","Karam Chand Saraf & Sons - Bpc Petrol Pump","Miran Sahib","32.6497209","74.8255447","true"
"ChIJsS7Eq2aFHjkRHSu4Obrr_rE","Bharat Petroleum, Petrol Pump -Sh. Muktanand Auto Aids","TALABTILLO,GOVT GUEST HOU, Jammu","32.7387669","74.8321757","true"
"ChIJNfUxdT2FHjkRQRHp4gfmShw","IndianOil","Akhnoor Road, Jammu","32.74972","74.821016","true"
"ChIJRSy4bsqEHjkR7MDPHrUtyAI","IndianOil","Ground Floor, Satwari Chowk, Jammu","32.6923922","74.84866830000001","true"
"ChIJUZ-clLmEHjkRKBHSurshEx4","IndianOil","Ground Floor, Jammu","32.702991","74.85548399999999","true"
"ChIJyySJ_vaEHjkROe5MsPIspww","Kashmir Automobile store ADHOC","PRHR+WV6, Jammu","32.7297831","74.8421422","true"
"ChIJv8w4VI6EHjkRnGkfVT0ZRec","Petrol Pump","PVG5+HM8, Jammu","32.7264211","74.8592037","true"
"ChIJaaidW1-DHjkRo23rZeVI3yc","IndianOil","Rail Head Complex, Railway Road, Jammu","32.710171","74.874657","true"
"ChIJsfrQwYmEHjkRtCykr0_i4S8","Auto Fuels Bharat Petroleum","NH 1A, Jammu","32.733582","74.85803589999999",""
"ChIJQVjoebKcHjkRYe4CiQaPK74","Hindustan Petroleum Corporation Limited","Ground Floor, RLY Underpass, near Railway Station, Link Road, Jammu","32.69074889999999","74.8861166","true"
"ChIJzb7tuWOEHjkRmJCT3dF-qSA","IndianOil","Ground Floor, near Shankutla Cinema, B.C Road, Jammu","32.738511","74.858269","true"
"ChIJtShCPkSEHjkRtZDOyHHRydM","Hindustan Petroleum Corporation Limited","Ground Floor, Rehari Subhash Nagar Road Subash Nagar, Jammu","32.7483827","74.8432871","true"
"ChIJI0NcDECEHjkRvgzYCjPZZzw","BPCL PETROL PUMP","Hight court Chowk, 198, Jammu","32.7553386","74.8494649",""
"ChIJJeuq3DqEHjkRgWoBdyPod0w","Hindustan Petroleum Corporation Limited","Ground Floor, Bantalab Road, Jammu","32.7647544","74.8412165","true"
"ChIJp6ZtSt2FHjkRpDOGYz4fMv0","Ravi Nath and sons Gas Agency","Jammu","32.6991749","74.8533616",""
"ChIJhWYIrVaFHjkRXJCcwTsEZiw","IndianOil","Ware House, PT Yard, Jammu","32.714462","74.856411","true"
"ChIJqbRteZaEHjkRjFCy6bNo0Tw","Bharat Petroleum","","32.714875","74.8568512",""
"ChIJOQwUAfeFHjkRtM82CRTHpeo","Hindustan Petroleum Corporation Limited","Ground Floor, Jammu","32.7126424","74.8601663","true"
"ChIJwfTTZL2EHjkR-_8Sb2h4C58","Hindustan Petroleum Corporation Limited","Ground Floor, Jammu","32.7126424","74.8601663","true"
"ChIJZe1i77eFHjkR0cKnvcN8bOM","IndianOil","Ground Floor, 4th Tawi Bridge to Bikram Chowk, Jammu","32.714401","74.86008500000001","true"
"ChIJw0b_UQaFHjkRVGLvlz3SlVw","IndianOil","GL Dogra Marg, Jammu","32.7149606","74.8600341","true"
"ChIJq1BS7nGFHjkRMqpbNDhKNDc","Police petrol pump jammu","19 A/D, Jammu","32.7134087","74.8622151",""
"ChIJvV8FCgCFHjkRy92ZkEDZf-s","Akhnoor","Akhnoor Palace, Sungal Morh, Jammu","32.71647669999999","74.860173",""
"ChIJ5YzIoOmFHjkRH065ASdFzPc","Bharat Petroleum Petrol Pump , POLICE PARIVAAR FUEL CARE G NAGAR","GULSHAN GROUND COMPLEX, Jammu","32.7110293","74.8665445","true"
"ChIJUYkPNh-bHjkRUf51jzXGDXU","IndianOil","Main road, Jammu","32.6895131","74.86998899999999","true"
"ChIJf5TmCkKFHjkRm_zegl4VAvg","Bharat Petroleum, Petrol Pump -Shah Ji Filing Station","CHANNI RAMA,NANAK NAGAR,J, Jammu","32.70190159999999","74.87046090000001","true"
"ChIJNeXcKVSbHjkRw_i9wCRq6kU","Hindustan Petroleum Corporation Limited","Ground Floor, Jammu","32.6867758","74.8708817","true"
"ChIJ-aoFYDiFHjkRpQBT_LPxvRM","Amar Filling Station Adhoc","Talab Tillo Road, Jammu","32.7295812","74.8419883",""
"ChIJU6KS35GEHjkR3__gEnT55OE","Sai Baba Service Station","PVF5+F6Q, Gulab Singh Marg, Jammu","32.72372199999999","74.8581197",""
"ChIJO71_F6eEHjkRKxeghwI22UI","Hindustan Petroleum Corporation Limited","Rail Head Complex, Jammu","32.707481","74.87184189999999","true"
"ChIJdUe8WQCFHjkRLbphV4noVBw","Sharma Filling Station, Central University","PVG4+JRR, Village suchnai Po Rahyaa, Central University of Jammu road, vijaypur","32.7266016","74.8570259",""
"ChIJZz_6MnyZ4TgRyGNEXT7YleQ","HP Petrol Pump","Narbal baramulla Road, Lawaypora, NH-44","32.7266016","74.8570259",""
"ChIJpagEDliEHjkR79S2ZI7QiXk","H.S Surinder Singh & Co.","Canal Road, Jammu","32.73323949999999","74.84006980000001","true"
"ChIJzYom3neDHjkRcQhsEhq7mNM","Bharat Petroleum","Railway Station, below Hotel Le, Roi Main Railway Station, Jammu","32.7062316","74.8760781","true"
"ChIJYWY2tl2bHjkRZ_Wb7PAXhcU","IndianOil","NH 1A, Jammu","32.671741","74.866806","true"
"ChIJxX3FyJqEHjkRkbF8HHrl-KY","SHAHBAZ SERVICE STATION","","32.7239447","74.86419049999999",""
"ChIJ1yY-qW2FHjkRlVkIJGTDrGc","KISAN SEWA KENDRA","Malik Pura Check Post, Malik Pura Bhatyas, Doda","32.7258443","74.8631073",""
"ChIJt6GkO4mEHjkR4-A9JvSZvlo","IndianOil","Ground Floor, B.C Road, Jammu","32.730251","74.858543","true"
"ChIJPwwIJl6bHjkRZWHX0Z0Kq2s","Bharat Petroleum","","32.6708031","74.8701498",""
"ChIJq3iX_PKDHjkRvfrqRogMhR4","Bharat Petroleum Petrol Pump , TRIKUTA FILLING STATION","70 MIN, RAILWAY STN. TO CHUNNI ROAD, Jammu","32.696873","74.88134409999999","true"
"ChIJ109Jtl2bHjkRLW3BCqnCKhw","BPCL Petrol Pump","MVCC+62Q, Jammu","32.67059510000001","74.8701203",""
"ChIJU0D9Q9KbHjkRL4Ywf0p66ho","IndianOil","Talab, Talab NH 1A, Jammu","32.6701567","74.87035949999999","true"
"ChIJI6J06cidHjkRP_G_dy2SzaE","Hindustan Petroleum Corporation Limited","Ground Floor, Industrial Estate, Jammu","32.6771147","74.8764573","true"
"ChIJSRq1KaGDHjkRR2vHnvvNBqo","Jewan Kumar","Jewan Kumar, Jammu","32.7022076","74.88305989999999",""
"ChIJ7ahZO2CbHjkRfPNEKAASRME","JianOil","","32.66873449999999","74.87331739999999",""
"ChIJt3P6JGCbHjkRQxlO6lAPmGg","Shadeed Filling Station","MV9F+FC2, NH 1A, Jammu","32.6686421","74.8735267","true"
"ChIJD-aHj8OdHjkRkZtThsXDhYE","IndianOil","Sector 3, Jammu","32.690501","74.885893","true"
"ChIJMSusClKEHjkRwoPtbDogG4M","IndianOil","Ground Floor, opposite Toph Bridge, Jammu","32.7425646","74.83161760000002","true"
"ChIJX6wFNV2DHjkRYrVuhYuNBXQ","IndianOil","Site No, opposite Transport Nagar, 1, Jammu","32.7144428","74.88571","true"
"ChIJzaPQC1aDHjkRhe7atEGM_xw","Bharat Petroleum Petrol Pump , CROWN FILLING STATION","SYED MEHMOOD-ABAD QUYEN TEHSIL- PAMPORE PULWAMA, JK","32.70791699999999","74.88850500000001","true"
"ChIJJ1geSUmcHjkRjnTPbA0GuqM","IndianOil","Ground Floor Samba, Jammu","32.636372","74.91382399999999","true"
"ChIJ5Sr-C8CDHjkRs3c2RjaKzf4","IndianOil","Bypass Road, Sidhra","32.762021","74.898384","true"
"ChIJ676hKDWDHjkRE2CPuuzOQ4M","Hindustan Petroleum Corporation Limited","Ground Floor, opposite Chani Himat, Nagrota Bypass Road, Jammu","32.6965681","74.9000909","true"
"ChIJK0_AbiyDHjkRpy8t8eAhe9s","ALI SERVICE STATION","PW27+FJR, Sunjuwan Road, Jammu","32.7012339","74.9140194",""
"ChIJ4Xax2tucHjkRkPTXmmVkZME","Hindustan Petroleum Corporation Limited","Ground Floor, Chowadhi, Jammu","32.6827327","74.9149075","true"
"ChIJ4eN0z0ODHjkRW5j40T1nq6I","Highway Petroleum Petrol Pump","PV7R+975, Jammu","32.7133757","74.89071969999999",""
"ChIJ5wwuJHeDHjkRGm0Ap8Ls9zg","Gas Repairng Shop","near Radisson Blu, Road, Jammu","32.7158397","74.8907854",""
"ChIJbVO7RG2DHjkRAoyY0eeO79s","IndianOil","Ground Floor, Jammu","32.714409","74.88694799999999","true"
"ChIJLeeCx0KDHjkRtOyjYI_6LOE","IndianOil","Jammu","32.71492619999999","74.88692619999999","true"
"ChIJe2A62mqDHjkREh7V38u30vY","IndianOil","Ground Floor, Jammu","32.7147321","74.8859499","true"
"ChIJG_zU4BSdHjkRz8fg9DJeRpY","Bharat Petroleum Petrol Pump , TRB FUELS","NO 798, CHOWADI KHASRA, Jammu","32.676308","74.922883","true"
"ChIJobuvc72cHjkRdvtXE9DPsco","Bharat Petroleum","","32.673472","74.8882124",""
"ChIJ8avOc72cHjkRlBBlQhC73rs","Shankar Filling Station","Shanker Filling Station, Bye Pass Kujwani, Jammu","32.6734283","74.8881742","true"
"ChIJzyo1qvKdHjkR1dxy_NMuAxY","IndianOil","Kaluchak, Jammu","32.662724","74.893593","true"
"ChIJsyF885ucHjkRMr8rF17ao2E","Kunjwani Pump No1","MV7J+R57, NH 1A, Jammu","32.6645313","74.8804086","true"
"ChIJw8wWDJucHjkRteaaIhGbzeg","Hindustan Petroleum Corporation Limited","Ground Floor, NH 1A, Jammu","32.6630425","74.8818734","true"
"ChIJLepZQF-dHjkRzsPCze90oXo","Bharat Petroleum, Petrol Pump -Fairdeal Filling Station","Jammu","32.6562984","74.8947013","true"
"ChIJUy0faR6dHjkRXPvvTvFvme4","Hindustan Petroleum Corporation Limited","Ground Floor, Purmandal Road, Jammu","32.656259","74.93153099999999","true"
"ChIJ58AywM-dHjkRTdsZc0u2Lh8","Bharat Petroleum, Petrol Pump -Shankar Filling Station","GREATER KAILASH ON JAMMU, Jammu","32.65224680000001","74.9242727","true"
"ChIJL-KdcQCdHjkRYUbk3UqLr_s","BIRPUR FILLING STATION","MW2F+WQ9","32.6522812","74.9244806","true"
"ChIJh7uoDxuGHjkR54lUiKWBuyY","IndianOil","Ground Floor, Akhnoor Road, Jammu","32.78349560000001","74.78829680000001","true"
"ChIJ86PXUv-JHjkR7Bgg-1YUnFk","Bharat Petrolium, JBL","Chack jaggar Nagbani, Jammu","32.7700251","74.7604343","true"
"ChIJd_38y1GJHjkRXxqGmjB67ek","IndianOil","Ground Floor Bhour, Camp Road, Gajansoo","32.769547","74.741692","true"
"ChIJKVg5rQmGHjkRYcO12SfSuaY","Hindustan Petroleum Corporation Limited","Ground Floor, Damana Road, Jammu","32.773309","74.7952112","true"
"ChIJaXeYrqaHHjkRLElI9PKn2VM","IndianOil","Ground Floor, Akhnoor Road, Jammu","32.796516","74.782646","true"
"ChIJmyjq2rmHHjkRxWnvRjSgZmg","Bharat Petroleum, Petrol Pump -K.N Filling Station","Jammu Akhnoor Highway, Jammu","32.8005919","74.7753087","true"
"ChIJkSMkc1KFHjkRlVakfggPEcc","IndianOil","Ground Floor, Jammu","32.76729199999999","74.808556","true"
"ChIJe4aGNBeFHjkRWaU0pTcTPhM","Pinku Kumar Tyre Works","181205 Barnai, Jammu","32.76737029999999","74.808641",""
"ChIJbV4H0IWIHjkR8khoJzXlB0s","IndianOil","Ground Floor, Akhnoor Road, Jammu","32.80586599999999","74.770851","true"
"ChIJs_aHKACFHjkRoeMpOkpxGHI","Ambala city","QRCF+55F, Jammu","32.77042730000001","74.82293159999999",""
"ChIJVcH93-uFHjkRl4tW31AZNXQ","Kargil Shaeed Maj Ajay Jasrotia Gas Agency","QR5G+65M, Migrant Camp Road, near Masjid Nagrota, Nagrota","32.7580886","74.8254299",""
"ChIJOciuW36GHjkRUfV55L-LEPU","K N Filing Station","QRHG+64W, Bantalab Road, Jammu","32.7781226","74.82531329999999","true"
"ChIJvUQElnCHHjkR1NpnkkwdhBo","IndianOil","Ground Floor, Near Bantalab, Baran","32.78372129999999","74.8236843","true"
"ChIJAfVAktqFHjkRiP4BU9YwRtU","Bharat Petroleum, Petrol Pump -Jai Durga Filling Station","PALOURA ON JAMMU-AKHNOOR R, Jammu","32.748537","74.8232975","true"
"ChIJGTkj1GaGHjkR8m-GifMqR44","IndianOil","Thattar, Bantalab Road, Jammu","32.79307899999999","74.82103699999999","true"
"ChIJfZCUVymEHjkR-G-vFk94UNE","IndianOil","Sector 3, Jammu","32.771004","74.832954","true"
"ChIJhcHgMC-JHjkRvVrhUPPVnjo","Royal Filling Pump ,ROYAL GROUP","Hari Singh Gharat, 1 Jhiri Road, Shamachak","32.8202041","74.7247685","true"
"ChIJ2wfUTByJHjkRp9gDjXCrWc0","Hindustan Petroleum Corporation Limited","Ground Floor, NH 144A Poonch Road, Jammu","32.8296073","74.75532299999999","true"
"ChIJ8-KkHFKGHjkRzAvR18yIfpQ","Hindustan Petroleum Corporation Limited","Ground Floor Bhalwal, Janipur Akhnoor Road, Kot","32.812448","74.81651099999999","true"
"ChIJKUKyN7CJHjkRBrBkNC8HPF4","Shiv Shakti Traders","1 Nagbani Akhnoor Road, Machliyan","32.83492159999999","74.7686882",""
"ChIJI-BrTQCFHjkRtDxpYL7HZZU","Moksar Filling Station","Main Stop, Jammu","32.7615867","74.84639539999999","true"
"ChIJM6ZhUACFHjkRjBK-6dhAO3Q","Petrol pump","QR4W+WX3, Jammu","32.75725589999999","74.8474234",""
"ChIJUdkNm2CBHjkRyCkAfhY0U30","HPCL","NH 1A","32.7874959","74.89800749999999",""
"ChIJZ0WeDkCEHjkRNsLiPb096CU","Bharat Petroleum","","32.7553601","74.8496247",""
"ChIJAQAAAG2EHjkRJURfh0n-X3o","HP Petrol Pump","Jammu","32.7543125","74.8594375",""
"ChIJaxEwq3qEHjkRPhS4GVwTF7g","Hindustan Petroleum Corporation Limited","Ground Floor, B.C Road, Jammu","32.746005","74.86237369999999","true"
"ChIJIcIMgNSFHjkRm0GW7CLSINQ","Bharat Petroleum, Petrol Pump -Auto Fuel","below KC THEATRE, B.C Road, Jammu","32.7416374","74.85877459999999","true"
"ChIJo7jfFWKFHjkRIvmexamwRPQ","IndianOil","Ground Floor, B.C Road, Jammu","32.7479744","74.8655893","true"
"ChIJcRVxUbmFHjkRrfyeQdID2z0","Bharat Petroleum, Petrol Pump -Bharat Motor & Cycle Co.","below GUMMAT, Jammu","32.7402701","74.85828649999999","true"
"ChIJLfGpx3CEHjkR6k_uSXiS1ok","Bharat Petroleum","","32.7484874","74.867347",""
"ChIJ-9HeyxWFHjkRlbxjJlwrmeo","Nirdesh Khajuria","Nirdesh Khajuria Dhundi, Kishtwar","32.7465747","74.86619320000001",""
"ChIJrbTZkGOEHjkR8dqDvsajXI4","Hindustan Petroleum Corporation Limited","Ground Floor, B.C Road, Jammu","32.7395438","74.8584952","true"
"ChIJ3S9b1IKFHjkRjCbgBHbYnOI","IndianOil","Ground Floor, Jail Road, Jammu","32.74496299999999","74.86622299999999","true"
"ChIJoXIMdjmDHjkR0QmTqFxg_Po","Bharat Petroleum, Petrol Pump -Amar Filling Station","DOGRA HALL ,JAMMU, Jammu","32.7376555","74.863115","true"
"ChIJL5eMSfyDHjkRrSPTbKTh-f0","Bharat Petroleum, Petrol Pump -Parshotam Filling Station","SIDHARA BYPASS,JAMMU ON NH, Jammu","32.7668338","74.8823195","true"
"ChIJl-itLf2DHjkRPOTFpdc_BLA","IndianOil","Ground Floor, J Kotli, Near Bypass NH 1A, Nagrota","32.7800833","74.8854437","true"
"ChIJiQk_sRCDHjkRzLlNJ969QfI","Nagrota Road Jammu","QVMV+745, Nagrota","32.7831313","74.8928578",""
"ChIJM5jiHsyBHjkRZJzNaEw3exs","IndianOil","Ground Floor NH 1A, Nagrota","32.7852607","74.8954954","true"
"ChIJL4D6rsCDHjkRaKnyvzHGeA4","Charat Petroleum","","32.76283249999999","74.90283649999999",""
"ChIJvwryrsCDHjkRliKSoIkwSuQ","Bharat Petroleum","","32.76282610000001","74.9028648",""
"ChIJt3blf5qBHjkR8pstf3uzD1M","Guru Nanak Filling Station","Unnamed Road, Jammu","32.7900572","74.9018971",""
"ChIJs2ZTwy-BHjkRhbalY0EELco","IndianOil","Ground Floor Nagrota, Jammu","32.7906001","74.902001","true"
"ChIJJQhCDsKBHjkRp-whTAzEFA8","Rajput Petrol Pump","SARVOTTAM DWAR, Nagrota Bypass Road, Jammu","32.7913681","74.9035559",""
"ChIJG4zDibGBHjkRXrWAR-zbbsg","Hindustan Petroleum Corporation Limited","Ground Floor, Nagrota","32.7915499","74.8965382","true"
"ChIJzdSpcpWDHjkR9pY_rOSQFtQ","Petrol pump Bajalta","QW5X+RFM, Baljata","32.7595759","74.94866350000001",""
"ChIJmfE20G6BHjkRdziQPpboMbw","IndianOil","Ground Floor, J Kotli NH 1A, Nagrota","32.803783","74.920881","true"
"ChIJd3D2WgCBHjkR3-F1EPFbOGw","Bharat petrolium","RV4W+RCH, Ban","32.8070503","74.8960968",""
"ChIJoa-7MQCBHjkRUPRLSQRf8z0","jagti","RV4W+PCJ, Jagti","32.8074056","74.89602289999999",""
"ChIJuz1_eW-CHjkRCm3sIN43T6g","Hindustan Petroleum Corporation Limited","Ground Floor, Chak Largan, Baljata","32.75793820000001","74.9526783","true"
"ChIJ61z2hciBHjkRK-TwgCQoz1U","HP PETROL PUMP Ravinder Kumar and Brothers","near IIT college, National Highway 44, Jammu","32.8105253","74.8967614",""
"ChIJ_WBbHfeJHjkR4NArf5JRp4Y","Hindustan Petroleum Corporation Limited","Ground Floor, Rajpura to Jhiri Road, Jammu","32.8496671","74.72474509999999","true"
"ChIJb9OVG4hiHjkRkj-qMqPUziw","SHIV SERVICE STATION","","32.8636352","74.7341531",""
"ChIJr9TnzpOHHjkRO1bqBF6jVGk","Bharat Petroleum Petrol Pump , D.K.FILLING STATION","VILL. BHALWAL NEAR KANGAR MORE JAMMU, JK","32.830819","74.81608","true"
"ChIJ63RsfvZiHjkRGOymQMh6KnI","Hindustan Petroleum Corporation Limited","Ground Floor, Akhnoor, Doomi, Jammu","32.87989539999999","74.73618739999999","true"
"ChIJURz6sQ9jHjkRbu6f0qm51mw","Datta Filling Station","Gurha pattan, Bye Pass Road, Jammu","32.8844865","74.7413321",""
"ChIJj3xnkfBiHjkRR_aHbiolOC4","Bharat Petroleum","","32.8846372","74.7414806",""
"ChIJd1OeOtpjHjkRVxxJGtMtsSc","Aaditya Filling Station","VQQ2+6H3","32.8880081","74.7514173","true"
"ChIJ9ThPCuZiHjkRd_diNSsyr6U","Bharat Petroleum","","32.8880162","74.7514063",""
"ChIJhcN7AQB9HjkR_gHAxpRwnpE","Indian oil","VQRP+4M9, Jandyal","32.8902901","74.7867492",""
"ChIJVYeIKtpiHjkROxqCg2VABWs","IndianOil","Khasra No 2047 Min, Kahat No 353 Khewat No 35, Jandial, Baran","32.894132","74.76637699999999","true"
"ChIJWZtPvk9iHjkRoelJgHVE5Ao","HP PETROL PUMP - DIVAKAR SINGH AND SONS","Ground Floor, Akhnoor, Patiari","32.8845","74.72031319999999","true"
"ChIJGb0UzQNjHjkRujTQqG18xU4","IndianOil","Ground, Akhnoor Palace, near Punjab National Bank","32.8992026","74.74041559999999","true"
"ChIJy_BNtkNjHjkRNfq7YbUjgIw","Hindustan Petroleum Corporation Limited","Ground Floor, Sungal Morh, Jammu","32.8980609","74.7317716","true"
"ChIJu_FHjwRjHjkRhgLMeC26RDw","Pawar Filling Station","near KAMESHWAR TEMPLE, ROAD, Jammu Cantonment","32.90308619999999","74.74293580000001","true"
"ChIJkXx_VVBjHjkRAuxanFwraHA","Pushpa Filling Station","Pushpa Filling Station, Jammu","32.89464139999999","74.7134555",""
"ChIJZfmNPvt_HjkRAtEg7tYgOJM","IndianOil","Jammu","32.886439","74.9572164","true"
"ChIJre9oTLOBHjkRlquDBDTbopc","Bharat Petroleum","","32.8325089","74.937394",""
"ChIJG91Ky0qBHjkROXMn9A_Qr5g","M/S Karan Motors BPCL","Bantalab,Nagrota, Near Ban Toll Plaza, Jammu","32.832444","74.93748719999999","true"