place_id,name,address,latitude,longitude,open_now
"ChIJYzHwDRyQ4TgRdptkkdl_dLo","United Service Station ( BHARAT PETROLEUM CORPORATION LTD.","National Highway 1A, Srinagar","34.06733000000001","74.77535639999999","true"
"ChIJlxEjrgiR4TgRvE9eeQJE4iI","Hindustan Petroleum Corporation Limited","Ground Floor, Bodan","34.021601","74.728301","true"
"ChIJ65c7pi2R4TgRhPuzWupWY6I","Sofi Filling Station Qazibagh","XPWP+RXC, Unnamed Road, Srinagar","33.997068","74.7373892",""
"ChIJ6YxrCKuR4TgRyK93ZGjM5h8","IndianOil","Ground Floor, Humhama Badgam, Sheikhpora, Wagat, Badgam","34.0291226","74.7495016","true"
"ChIJRyMvUPyR4TgRUq0NEpFZtpI","IndianOil","Ground Floor, Arigam","33.992813","74.742223","true"
"ChIJ7Ynk7TyR4TgRqoF53iI_UFg","Bharat Petroleum भारत पेट्रोलियम","Srinagar-Budgam Road","34.029835","74.75047099999999","true"
"ChIJaydtv_eR4TgRzkjXfkUJoyE","IndianOil","Lock No 4918, Mirgund","34.03748999999999","74.71861899999999","true"
"ChIJU7Y_2ieS4TgR7rgMXhbQMog","Hindustan Petroleum Corporation Limited","Ground Floor, Budgam Chadoora Road, Srinagar","33.9896213","74.74616470000001","true"
"ChIJez3pRMOT4TgRnz3L9IhlgQ8","Hindustan Petroleum Corporation Limited","Ground Floor, Chadoora Pampora Road, Srinagar","33.9827139","74.75727499999999","true"
"ChIJjx2680KQ4TgRBT6SmgvNLzM","Hindustan Petroleum Corporation Limited","Ground Floor, Khomeini Chowk, Srinagar","34.0557533","74.7478383","true"
"ChIJFfQ6OgCX4TgRmwPTHUmpo_g","SYED MUSA FILLING STATION","Syed Musa Filling Station, Sholi Pora","34.0058318","74.6737438",""
"ChIJ15FCZVCX4TgRA6UjOTVLnwk","proposed site for petrol pump","","34.0359066","74.67883549999999",""
"ChIJvYgKQwCP4TgROJRJblMiXcc","Hyderpora bypass chowk","2QQQ+3WH, Srinagar","34.03768539999999","74.78992190000001",""
"ChIJP_9T3NKP4TgRiLcQjZ0lvyg","IndianOil","Bypass New Airport Road, Srinagar","34.0384912","74.7897789",""
"ChIJwRpZOFmX4TgROmAxrz7BX5I","IndianOil","","34.0367176","74.6681084","true"
"ChIJMfF37KCT4TgRJ2D82QPbDaA","Petrol Pump","XP4G+P9R, Nambalhar","33.9568125","74.7259375",""
"ChIJy7ly3tKP4TgRbQRoqyCrqHI","Hindustan Petroleum Corporation Limited","Ground Floor, National Highway, Srinagar","34.04211109999999","74.7896383","true"
"ChIJbQo5oMKR4TgRrm_bGkNKYPc","Dar Estate Housing","near Sham Lal petrol pump, Nund Reshi Colony, near Sham Lal petrol pump, Sgr, Srinagar","34.0687641","74.7702472","false"
"ChIJNduPmBaR4TgRs7EkqIR0cHQ","Shyam lal petrol pump","Srinagar","34.06920709999999","74.77034239999999",""
"ChIJD4_5Yh6Q4TgRltlU5ffXbQ8","AFCO FILLING STATION","Ground Floor, NH Bypass, Srinagar","34.0657333","74.7777395","true"
"ChIJXU2fmBuQ4TgRJdq6Br_vr4s","IndianOil","Bemina Bridge, Bypass Main Road Bemina, Srinagar","34.068546","74.773048","true"
"ChIJQTTxUQCX4TgRYgCv5z-lYg4","Prime fuels","2MM3+HH4, Poonchgund","34.03387620000001","74.6539497",""
"ChIJvS14nUGO4TgRoaKaaKfKjbs","Abdullah Filling Station","2RF5+JJ, near Byepass Bridge, Srinagar","34.0241767","74.8089882","true"
"ChIJX8y38mmP4TgRP1mGUeNJG9A","IndianOil","Bypass, Srinagar","34.063843","74.783441","true"
"ChIJhRTVFZiT4TgRn34TtWuPSP4","Al Khidmat HP Filling Station Bugroo","Bugroo, Khan Sahib","33.9475233","74.710261","true"
"ChIJ9WQCtueR4TgR2EsFFLuXgxQ","Issar Service Station","Police Line, Srinagar","34.0686766","74.7783252",""
"ChIJx20rN3eO4TgRzY03UD2unZw","Hindustan Petroleum Corporation Limited","Ground Floor, Mouchwa","34.005301","74.813801","true"
"ChIJdYDRGcWN4TgRVXpBKPsK_E0","IndianOil","Lock No 12006, Chadoora","33.9878504","74.8134276","true"
"ChIJUTQzMHKP4TgRXscaU8NxR0Y","Bharat Petroleum Petrol Filling Station","3RFP+7MR, National Highway 1A, Srinagar","34.0732485","74.836641","true"
"ChIJp55zpneP4TgRj3MDnGEbOL8","Bharat Petroleum","3RGH+MX3, Gupkar Road, Srinagar","34.076647","74.8299165",""
"ChIJBdovyOuN4TgRv2ehNt3yOnM","Ahmed fayaz","Arafat filling station, almdar kralpora, Nagam","33.9881776","74.813232",""
"ChIJzWyRj4OO4TgRjpjm8XXlTQg","Sultan Fuels","2R4P+J45, Nowgam - Pulwama Road, Srinagar","34.0079622","74.83529980000002","true"
"ChIJO3fCkSiP4TgRVp0xz82xcwk","IndianOil","Rawalpora, Nowgam - Pulwama Road","34.02883899999999","74.83142099999999","true"
"ChIJXeeSai6P4TgRhlvsLrsRcwQ","Natipora Srinagar","2RW7+F2J, Unnamed Road, Srinagar","34.0462087","74.8125239",""
"ChIJYcwkmyiP4TgRG5HmXo8HQt0","Hindustan Petroleum Corporation Limited","Ground Floor, Dilsoz Colony, Azad Basti Road","34.0463302","74.8124421","true"
"ChIJ7cYdfIGP4TgRqdXM-qGLHXY","Pohru bypass","2R8W+MGP, Srinagar","34.016719","74.8463269",""
"ChIJn84o1lyP4TgR6SlK71tPU80","Royal Motors","2, Srinagar","34.0525183","74.80475179999999",""
"ChIJzxeryjuM4TgRcbnWIGGBVfo","IndianOil","Sub District Hospital, Nowgam - Pulwama Road, Chattergam, Khanda","33.9889493","74.8419383","true"
"ChIJa85RhVeP4TgR_G6t_FtpE5A","BAKSHI GURDASSMAL 4","BAKSHI GURDASSMAL 4, Airport Road, Srinagar","34.0578344","74.8028911",""
"ChIJd4CkTJyP4TgRq-iYBonHzDI","BAKHSHI GURDASSMAL 1","BAKHSHI GURDASSMAL 1, Airport Road, Srinagar","34.057881","74.8028444",""
"ChIJj0E-SCaP4TgRuLHa4ZzoMk8","BAKSHI GURDASSMAL 2","BAKSHI GURDASSMAL 2, Airport Road, Srinagar","34.0579252","74.8028401",""
"ChIJZ9-C0AeP4TgRGcxMW3n9RGE","BAKSHI GURDASSMAL 3","BAKSHI GURDASSMAL 3, Airport Road, Srinagar","34.05794350000001","74.8028149",""
"ChIJs89ZRMeP4TgR81t5ppZjae0","IndianOil","No L12002 & 11013, Solina Silk Factory Road, Srinagar","34.057957","74.80281099999999","true"
"ChIJVSeqET-M4TgRTXlYL9QEPF0","Barkat Petrol Filling Station","Chattergam","33.9846192","74.84688229999999","true"
"ChIJ-_lKNIiP4TgR164g85SUxN0","HUSSAINI PETROL PUMP","245, Arigam","34.0624341","74.80278179999999",""
"ChIJXxzSN6GN4TgRHdMFlShDRsw","Hindustan Petroleum Corporation Limited","Ground Floor, Road, Charar-i-Sharief","33.960301","74.809201","true"
"ChIJPXTeiMmN4TgRXKQp7TFLjMo","Hindustan Petroleum Corporation Limited","Ground Floor Nowgam Khanda, Road, Chattergam","33.9833694","74.8552608","true"
"ChIJjWoSe_eN4TgRKwk2Xkr8KjU","IndianOil","Ground Floor, Srinagar Road Chadoora, Charar i Sharief, Arigam","33.95825","74.809617","true"
"ChIJZ6jKGvyN4TgRfrdeE8aNadA","Chadura Filling Station","Bul Bul Pora","33.954579","74.80698919999999","true"
"ChIJgyaUoUCP4TgRDddpxy1m5UI","IndianOil","Ground Floor, Srinagar","34.0738699","74.80062989999999","true"
"ChIJOaIHsnqb4TgR2EeNecrlxdA","IndianOil","Ground Floor, Bypass, Srinagar","34.0369472","74.867471","true"
"ChIJMXmb5fGP4TgRKWZ4rLqo5J0","Hindustan Petroleum Corporation Limited","Ground Floor, Amira Kadal Bridge, Karan Nagar Road, Srinagar","34.07493339999999","74.7971429","true"
"ChIJEUrM7_GP4TgRpt7lUsor0XU","Blitz Filling Station","3QGW+4WC, Srinagar","34.0753012","74.79728089999999",""
"ChIJ-do_Es2N4TgRlPU0rEUsH_U","IndianOil","Ground Floor, Kaisermullah,Bandipora, Nagam","33.95057899999999","74.819932","true"
"ChIJVTS66yKP4TgRfjUyj9tLXA0","Abadan Petrol Refilling Station","Main Road, Srinagar","34.0480697","74.8665006","true"
"ChIJ5R3hViCP4TgRH3ZVaNVtN_E","Bharat Petroleum, Petrol Pump -Srinagar Garage","SONWAR,BADAMI, Srinagar","34.06780080000001","74.84416569999999","true"
"ChIJjVMVA52P4TgRFOPzvPCD_n0","Hindustan Petroleum Corporation Limited","Ground Floor, Hotel Road, Maulana Azad Road, Srinagar","34.075801","74.82470099999999","true"
"ChIJT5KnRACN4TgROi6lkSR6Tq8","Prime Filling Station","Buchroo","33.94745899999999","74.80940799999999","true"
"ChIJGR6n52OP4TgR2Ag2nwqKV0E","IndianOil","Main Market, Srinagar","34.0715359","74.8390083","true"
"ChIJb4AG5naP4TgRIGvytg64wnU","Hindustan Petroleum Corporation Limited","Ground Floor, near Durga Nag Temple, Maulana Azad Road, Srinagar","34.0753489","74.8313946","true"
"ChIJZYmee_SP4TgRp-nqjyktjLM","IndianOil","Ground Floor, Srinagar","34.080849","74.800507","true"
"ChIJnUltxGiP4TgR9TaKuPgbilM","BP Petrol Pump","3QJQ+P7Q, Srinagar","34.0818294","74.7882224",""
"ChIJXwTcgTKJ4TgRu-l1lKQqA94","IndianOil","Srinagar","34.040955","74.876808","true"
"ChIJlZp2L86J4TgR7jrlZVdOyGE","Hindustan Petroleum Corporation Limited","Ground Floor, NH 44, Rakh Shalina","34.021101","74.883861","true"
"ChIJAy-fozGJ4TgRnw8QoyNv5jU","ST Motors","Pantha Chowk Srinagar Jammu and Kashmir","34.03922689999999","74.8814888","true"
"ChIJjyQd5TuJ4TgRLWF_gJOrLAk","Asian Motors petrol pump Bharat Petroleum corporation Ltd","Pantha Chowk, Srinagar NH-1A, Srinagar Jammu Highway, Pampore, Srinagar","34.0376339","74.8907559","false"
"ChIJd4fRFA2J4TgRxNXv5iY6Q5U","Bharat Petroleum","2WP6+CC6, Zaffron Colony Road","34.0360497","74.9110122",""
"ChIJJdov3h6J4TgR5BnqGLo8Fzc","Hamara Pump Zewan","near Police Colony Zewan, Zewan Srinagar Jammu and Kashmir Zewan Khonmoh, Road","34.04031090000001","74.8879915","true"
"ChIJ91y9QT6J4TgRPvXV--BpulY","Hindustan Petroleum Corporation Limited","Ground Floor, Pantha Chowk, Srinagar","34.036399","74.895759","true"
"ChIJISSsVQeL4TgRXC8MGdfbYlE","Gousia Filling Station, Pampore","XWW3+HGF, Pampore - Kakapora Road, Chinar Bagh","33.996442","74.903787",""
"ChIJR39AQuiL4TgRxtFfT4hOJUQ","IndianOil","Chinar Bagh","33.9949429","74.9032553","true"
"ChIJK4mttQaJ4TgRA-5QCIcuGXg","Bharat Petroleum - भारत पेट्रोलियम","opposite ITBP HQ's Aaripora, Srinagar","34.0403158","74.8945773",""
"ChIJKwmSUnyJ4TgRrQA7RCizPno","IndianOil","Ground Floor Pampore, Anantnag","34.015566","74.912291","true"
"ChIJ2clhhFOL4TgRDJS-UXFy7ys","IndianOil","Ground Floor Pampore, Anantnag","34.00627199999999","74.913822","true"
"ChIJW5QD5QKL4TgRdkms0QnuGeQ","Hindustan Petroleum Corporation Limited","Ground Floor, NH 44, Pampore","33.9931582","74.91039769999999","true"
"ChIJ18q8kpmL4TgRuAI7aUPrg-8","Bharat Petroleum - भारत पेट्रोलियम","2W28+3C4, National Highway 44, Pampore","34.000146","74.91608699999999",""
"ChIJdacsOg-J4TgR-zBd0C35Tn4","IndianOil","Zewan, Zaffron Colony Road, Srinagar","34.0370985","74.91052359999999","true"
"ChIJcQShaGSJ4TgRAS2u5c86drs","Wani fuels","2WP6+VFP, Zaffron Colony Road","34.0372185","74.91121509999999",""
"ChIJo_L_nMyL4TgRvXCzjIS-YQw","Hindustan Petroleum Corporation Limited","Ground Floor, NH 1A, Pampore","33.9974023","74.9188659","true"
"ChIJd5iNcA6J4TgRKY3KkvvdkEQ","Hindustan Petroleum Corporation Limited","Ground Floor Khonmoh Road, Zewan, Pantha CHOWK, Srinagar","34.040301","74.911301","true"
"ChIJXWRHbHCL4TgRO5EPUa42VCo","Superb Filling Station","XWH3+RMQ, khadermoh, Kakapora","33.9795935","74.9042202",""
"ChIJHZ1OGLJt4TgROc1b1DScRLI","IndianOil","Ground Floor, Zeewan, Khunmoh, Srinagar","34.04168169999999","74.91614369999999","true"
"ChIJPT-KXnqL4TgR4WRVwMN3XkU","Petrol pump","Patal Bag","33.979062","74.92185359999999","true"
"ChIJW3fJtmmL4TgR4wJn9c7aIJY","baharat Petroleum petrol pump","XWCC+426, Samboora","33.9702848","74.9200181",""
"ChIJN_R3baON4TgRfRt1pxql-aM","IndianOil","XV3C+49, XV3C+5CF Parigam - Srinagar Road, near Dominant Ply wood, Nowgam - Pulwama Road, Pari Gam Khalsa","33.9528821","74.8710347","true"
"ChIJE3N0lpWL4TgR9M7zpI_1cBI","Lucky Filling Station","Samboora","33.9656883","74.9225234",""
"ChIJGxRt5YOb4TgRmao-EXge5XA","IndianOil","Ground Floor, Khushpora Shaltang Road, Srinagar","34.0915145","74.7394245","true"
"ChIJR9E9Ljeb4TgRU8HA4tP_Fqk","Bharat Petroleum, Petrol Pump -United Service Station","BEMINA LHS ON BYPASS, Srinagar","34.0874961","74.7602976","true"
"ChIJsWhaawCb4TgRuVysNWrmloM","Petrol pump","3QV6+J2X, Srinagar","34.0941208","74.7601071",""
"ChIJxQegHPia4TgRFx7K4X_rQes","BPCL - JK Filling Station","near sfc fair price","34.1103641","74.7345272",""
"ChIJgQ-hxa6b4TgRO1aafV7vDrA","Petrol Pump","Srinagar","34.10914","74.74666789999999","true"
"ChIJyZf2tV2b4TgRzux5KfMQZw8","IndianOil","Gulmarg Road, Baramulla","34.106266","74.753047","true"
"ChIJ8alal06a4TgRej8oDuv5hzk","Hindustan Petroleum Corporation Limited","Ground Floor, Zainakote Opposite Hokersar, Srinagar","34.11263569999999","74.71793219999999","true"
"ChIJd3iy2r6a4TgR3HyRgTyVSKQ","IndianOil","Fruit Mandi, Srinagar","34.099228","74.762177","true"
"ChIJDZNC-nCb4TgR0V6PumMdfmA","Parimpora bus adda","4Q35+PPM, Srinagar","34.10433039999999","74.75930900000002",""
"ChIJJw4BYL6b4TgRTa0UzWxNUnI","Gousia Petro Pump","Dharmunnah","34.07619249999999","74.687084",""
"ChIJA3Yfbv6b4TgRAGpSAMuCK24","Bharat Petroleum Petrol Pump , SHYAM LALL & CO.","CHATTABAL, Srinagar","34.095996","74.773698","true"
"ChIJRU68cz2b4TgRyo9A53suHW4","IndianOil","Chathabal, Baramulla Road, Srinagar","34.091798","74.77677369999999","true"
"ChIJP4l5hqqb4TgR8bxzyQIio24","Hindustan Petroleum Corporation Limited","Ground Floor, Srinagar - Sumbal Road, Srinagar","34.12311329999999","74.73312050000001","true"
"ChIJwUnF8O6a4TgR0GCAxlk16yQ","Valley View Service Station","SHALTENG Chowk, Srinagar","34.1235169","74.7399568","true"
"ChIJx9VzQ9CZ4TgRTmDXa_Eo8Ks","fuel pump","Wadwan Budgam, Near Panchayat Ghar Post Soibugh, Chatabugh Road, Srinagar","34.0758926","74.6770875",""
"ChIJPw1uvQiZ4TgRyLvfGieYq2E","IndianOil","4M9P+R2, No L 11002, Narbal","34.11971799999999","74.685666","true"
"ChIJUSeF0vyZ4TgRCP4n61r606Y","Hindustan Petroleum Corporation Limited","Ground Floor NH 1A, Baramulla - Srinagar Road, Srinagar","34.120701","74.683801","true"
"ChIJHySXIT-Z4TgRu1XGsXuyetM","Petrol Station","Rd, Srinagar","34.0760359","74.6646181",""
"ChIJJyrzUbKb4TgRWLaZar6C3wU","Al Haseena Filling Station Mujgund Srinagar","Mujgund","34.1406875","74.7051875","true"
"ChIJPcAYBQCF4TgR3mfjS3AdUvU","Bhat Gas Shop","Aiwa Kadal bridge, Srinagar","34.1227734","74.7929233",""
"ChIJhZ5pLACF4TgR-Uk9yNyCXLQ","Hindustan Petroleum Corporation Limited","Khasra No 786, Eidgah, Srinagar","34.125622","74.795952","true"
"ChIJabFfmreb4TgRrUj2Vyebl_Q","Bharat Petroleum, Petrol Pump -Jehlum Valley Filling Station","Bandipora-Srinagar Road","34.1489877","74.7020928",""
"ChIJufBKwRmF4TgRiBpPqYF5fV8","Hindustan Petroleum Corporation Limited","No 11 Noushera, Srinagar","34.1204917","74.8078927","true"
"ChIJtTS944aP4TgRTg3c1J6T_Cw","IndianOil","Bab E Dam, Srinagar","34.0852957","74.81950669999999","true"
"ChIJz_5VYHmF4TgRZC6piF5IKeE","Rainawari Petrol Pump","3RWC+5FQ, near petrol pump, Shiraz road, Srinagar","34.0954562","74.82122129999999","true"
"ChIJ1S1CCs2F4TgRfOo54l14Ijs","Bharat Petroleum, Petrol Pump -Pamposh Filling Station","RAINAWARI ON HAZARATBAL R, Srinagar","34.0934432","74.825429","true"
"ChIJXxb-NhGF4TgRwXwPdugFou0","IndianOil","Zoonimar, Srinagar","34.133503","74.803856","true"
"ChIJOymAY9CF4TgRziIRAmDSpPk","IndianOil","4RW2+HFW, Ganderbal Road, Srinagar","34.145115","74.80246700000001","true"
"ChIJ36L2dJSF4TgRzR5_X03mcng","IndianOil","Ground Floor, Srinagar","34.144417","74.837616","true"
"ChIJjTsbSyoP4TgROr9Xn0HlivY","IndianOil","Ground Floor, Dangerpora","34.1652816","74.68876130000001","true"
"ChIJ5-F4cuCd4TgR_5dMSp7Qcmo","Jhelum Valley Filling Station","5M8Q+G9, Wangi Pora","34.16625459999999","74.6884481","true"
"ChIJq0B7lI-d4TgREDNdr8JpE-c","Ali filling station","near jehlum valley filling station, Srinagar - Sumbal Road, Dangerpora","34.1658696","74.68800279999999","false"
"ChIJRwXbgISf4TgRekpJ_1xPR3M","IndianOil","Ground Floor, NH 1D, Dangerpora Sarai, Srinagar, Bandipora Road, Doda","34.169394","74.68500499999999","true"
"ChIJDcEeof6f4TgRicWBJQb2e7k","IndianOil","Ground Floor Narainbagh, Badsari Road, Harran","34.1884371","74.6838077","true"
"ChIJrb1_DWaD4TgRx_hiN9rLPUg","Taploo Filling station","5RG5+C6Q, Srinagar - Leh Highway, Srinagar","34.1767069","74.8077019","true"
"ChIJ_3CdLwmD4TgRYcNekzlpWfs","Ahmed’s Filling Stat","5RH5+42, Srinagar","34.17776","74.8076181","true"
"ChIJ6eNj0_eD4TgRRlvxQ_9ncyU","Hindustan Petroleum Corporation Limited","Ground Floor, 90 Feet Road, Srinagar","34.1779384","74.8075819","true"
"ChIJraqifwCZ4TgRyNWT3OZkctQ","Indian Oil","1, Chana Bal, NH44 opposite sriculture,pattan ,BaramullaJammu and Kashmir","34.1406769","74.6444348",""
"ChIJb_iSqRWD4TgRN1djyfzatww","Hindustan Petroleum Corporation Limited","Ground Floor Ganderbal, Srinagar - Ladakh Road, Srinagar","34.1979894","74.80642530000001","true"
"ChIJGy55N2eE4TgR6bQtHYUmmPM","Hindustan Petroleum Corporation Limited","Ground Floor Hazratbal, Nasim Bagh, Srinagar","34.1567224","74.8338747","true"
"ChIJz9v5G9OF4TgR5JEzft8YZGw","Kashmir filling station","Batpora - Habbak Link Road, Srinagar","34.15688370000001","74.8416818","true"
"ChIJ_emnT5WD4TgReedTPjPgI_g","Bharat Petroleum, Petrol Pump -Bhat Motors","VILLAGE DARAND","34.2054618","74.79739119999999","true"
"ChIJKyWWpiWD4TgRV5m8LqS9u58","IndianOil","Ground Floor, Soura Road, Ganderbal","34.207469","74.794185","true"
"ChIJbW2XMxyD4TgRav1fJShdMmY","Shaheed Showket Filling Station","Srinagar","34.2075577","74.7938875",""
"ChIJi3uf5Z-D4TgR-qUH4x9iIZc","Mughal 1","135 Road, Ganderbal","34.2077438","74.7936914",""
"ChIJy_Eo8iWD4TgR1m6Qe-f3KAo","IndianOil","Ground Floor, Ganderbal,Rajbagh, Srinagar","34.208764","74.79290499999999","true"
"ChIJMSBUZEiD4TgRjZZBNdvvNXY","IndianOil","Ground Floor, Leh Road, Srinagar","34.2102011","74.7871055","true"
"ChIJL3-QeQCF4TgRr6BU-hT25u0","Petrol pump","5VJ9+CMF, Chaterhama Batapora Road, Chatterhama","34.1810718","74.86915909999999",""
"ChIJcwCsc-Gd4TgRtfb-m7XHbYc","Malashahibagh","6Q8C+JRJ, Ganderbal","34.2165813","74.7720083",""
"ChIJv15rW8aH4TgRqGIKsOswk5M","GH Hassan gas refilling and repair shop","5W83+7M, Said Pora Bala","34.1656252","74.904242",""