place_id,name,address,latitude,longitude,open_now
"ChIJj8EPveYf9TkRptgtkx3RIzA","HP Petrol Pump","CTI Colony, Sector 4, Birsa Nagar, Ranchi","23.3045","85.288538","true"
"ChIJI6DXybEf9TkR31YXy74jPXA","IndianOil","Ground Floor, Tupudana, Ranchi","23.278172","85.306313","true"
"ChIJ-RcyNAAh9TkRl_xb-kklIhc","Hindustan Petroleum Corporation Limited","Ground Floor, Karra Road, Nagri, Ranchi","23.268432","85.240659","true"
"ChIJCflHfTEg9TkRtFJIBgQQk0A","IndianOil","Ground Floor, Ranchi Ring Road, Sithiyo","23.26937569999999","85.25865399999999","true"
"ChIJbYhn3rbf9DkR18dHxqrNkUA","Hindustan Petroleum Corporation Limited","Ground Floor Semartoli, Balalong, Nagri Road, Kudlum","23.3113169","85.22732189999999","true"
"ChIJce-ybLjf9DkRd6t87MXNcC8","Hindustan Petroleum Corporation Limited","PS No 232 Nagri, Balalong, Hotwasi","23.3219301","85.246374","true"
"ChIJZa9Xytjf9DkR4Fme0MfzWIc","Geetam fuels","86CW+RG, Hotwasi","23.322002","85.24636199999999",""
"ChIJGfCGMtof9TkRAD7rTZ659gw","Indian Oil","Indian Oil Petrol Pump, Birsa Chowk, Ranchi","23.3063666","85.2790808",""
"ChIJgaz6KhUh9TkRJCWL7-4CUzk","Hindustan Petroleum Corporation Limited","Ground Floor, Karra","23.237866","85.197942","true"
"ChIJqXE6eAAf9TkRdg7K94rKID8","GAIL COCO SMART CITY CNG STATION","873Q+45, Ranchi","23.302798","85.287932",""
"ChIJSdUKPiAf9TkRRR-alDXm_IY","Chirag Filling Station, Bharat Petrolatum","Satrangi, Tupudana, Ranchi","23.2544236","85.3002036","true"
"ChIJv8FBLwAf9TkRUNENBRJwooI","Ather charging Grid","7883+2VG, Tupudana Chowk Road, Pithiyatil, Ranchi","23.2650699","85.304701",""
"ChIJY5Lcza8f9TkRxSZ8Ent_GOs","Hindustan Petroleum Corporation Limited","Ground Floor, Ancillary Chowk, Tupudana, Ranchi","23.2766891","85.30577389999999","true"
"ChIJX8Ice7oh9TkRIg1jRacVCUQ","IndianOil","Plot No 485 Khata No 3, Kansilli, Karra","23.2312006","85.1922058","true"
"ChIJaTSdTq4f9TkRTWjtKe81Ksc","IndianOil","Hatia Road, Tupudana, Ranchi","23.27463900000001","85.306252","true"
"ChIJGSMKA7Qf9TkRNr5PSq30uvs","Hindustan Petroleum Corporation Limited","Ground Floor, Ancillary Industrial Area, Pugru, Hatia, Ranchi","23.28281699999999","85.30845649999999","true"
"ChIJMw1DQQDf9DkRqOpPbWCfKDg","Bharat petroleum (petrol pump) 24x7 open","87P2+WG3, Rd, Nayasarai, Ranchi","23.3370887","85.2513099","true"
"ChIJ7fyjAJrf9DkRhLgqPbtQUOY","IndianOil","Ground Floor, Nagri","23.3267592","85.1953541","true"
"ChIJi0Gh6bjf9DkRHk3ETJtFs_s","Rambilash Petroleum","85HW+CF4, NH-23, Ranchi Gumla Road Naro, Nagri","23.3268263","85.19505439999999","true"
"ChIJ3XPIxBXf9DkRNUPo4eD1fW4","Reliance Petroleum","Plot No 55P, Khata No 117 Lalguthwa, Piska Nagri, Ratu, Tikratoli","23.3383908","85.211803","true"
"ChIJG-VlfQDf9DkR1Paijv5VNG4","Hindustan Petroleum Corporation Limited","Ground Floor Argora, near IIM, Nayasarai Road, Ranchi","23.344934","85.252121","true"
"ChIJraAvmCwc9TkRhXWEg4M5pPc","IndianOil","Ground Floor, Kochbong","23.26486899999999","85.3607734","true"
"ChIJ7wb5sy_g9DkRateoX3m8jws","IndianOil","HEC Gate, Dhurwa, Ranchi","23.3223985","85.3056036","true"
"ChIJk02EyC_g9DkRK9_IxhSLDsc","Nageshwar Petrol Pump - Bharat Petroleum","Sector 2, beside HEC gate, towards, Bypass Road, Ranchi","23.3229239","85.3053024","true"
"ChIJ-cVQfQAf9TkRJHz76GKN244","S.S.FUELS","78FG+Q4F, Tonko Road, Ranchi","23.2744392","85.3253083",""
"ChIJvdWlFAAf9TkRMhtbW0Fmvwc","High P&T Station","78FG+2F8, Tonko Road, Hatia, Ranchi","23.27253199999999","85.3261938",""
"ChIJ3_16HGUf9TkRIYxx14v3qA8","S S FUEL GARKHATANGA","787J+HP7, Garhkhatanga","23.2641612","85.33232420000002","true"
"ChIJh8NfYyof9TkR8GC6EzGfV-c","Hindustan Petroleum Corporation Limited","Thana No 296, Hatia, Namkum, Garhkhatanga","23.264143","85.3325301","true"
"ChIJ80ZwtSse9TkRgsfGUl9WTqg","Hindustan Petroleum Corporation Limited","Ground Floor, Solanki Kalyanpur, Hatia, Jagannathpur, Ranchi","23.3088376","85.3171308","true"
"ChIJTf_cZNfh9DkRoBiR4z0zuXQ","Reliance Aviation Fuelling Station","Birsa Munda Airport, Ranchi, Khokambatoli, Hinoo, Ranchi","23.3166282","85.3235064","true"
"ChIJxZ_ddI3h9DkRutPr8DScmyQ","HPCL Ranchi ASF","Birsa Munda Airport, Ranchi, Behind BPCL ASF, Airport Road, Ranchi","23.3198297","85.320031",""
"ChIJ30icldPh9DkR026Wol1C_EQ","Bharat Petroleum Aviation Fueling Station","88CC+235, Khokambatoli, Hinoo, Ranchi","23.3200249","85.3202403",""
"ChIJMZ3-vi_g9DkRj-xe-ZhP9B8","Jio-bp","NEAR CHECK POST, SECTOR 2, HEC Colony, POST, Dhurwa, Ranchi","23.3224532","85.30481859999999","true"
"ChIJWSQ9heLh9DkRhtI0eI-9OnY","NK ENTERPRISES","B -118, Sector 2, Masibari, Ranchi","23.3250967","85.29488409999999",""
"ChIJeYmuNDjg9DkRwVutAwki8IA","IndianOil","Ground Floor, near Satellite Colony, Hec Gate 2, Balalong, Ranchi","23.3331048","85.30251","true"
"ChIJ4eiHwv_h9DkRa9YjWbKRXaM","Bharat Petroleum","88P9+69H, Doranda Bazar Road, Doranda Bazar, Resaldar Nagar, Doranda, Ranchi","23.3355742","85.31847049999999",""
"ChIJUz1h63gd9TkR9bUhj_jNiyk","IndianOil","Ground Floor Tetri, Namkum Main Road, Bara Ghaghra, Ranchi","23.266921","85.384158","true"
"ChIJuWunlTsd9TkR6hzWgu0ccj0","Hindustan Petroleum Corporation Limited","Ground Floor, Ring Road, Namkum Bazar, Lodhma","23.2874","85.38332059999999","true"
"ChIJs3l-GQAd9TkR7cKXYEMvw_I","Kutiyatu","79QM+28F, Sahera Road, Pindarkom","23.2875672","85.38330979999999","true"
"ChIJJ2xdAy7h9DkR0n6AeFsjnU4","Bharat and CNG Pump","89J2+QCJ, Doranda Main Road, Bara Ghaghra, Ranchi","23.3319584","85.3510199",""
"ChIJAZ31W-yb9DkRRgcrj9dC57k","Hindustan Petroleum - Konar Petrol Pump","Hazaribagh gasoline agency (HPCL petrol pump) ⛽, 33, National Highway, Masipirhi, Hazaribagh","23.3440997","85.309562","true"
"ChIJAVS1Dbrh9DkR16w0IXHSj_E","IndianOil","Ground Floor, Doranda, Ranchi","23.343884","85.324441","true"
"ChIJTw8VO4cd9TkRgZlsjlXcr-Y","IndianOil","Ground Floor Sidhraul, Namkum Main Road, Bara Ghaghra, Ranchi","23.3127061","85.3904149","true"
"ChIJWbgLu3kd9TkR1l_beaubEDw","GAIL CNG CGS SARWAL Filling Station","799X+86H, Sarwal","23.26702749999999","85.39840129999999",""
"ChIJe4WWLzgd9TkRR4apZQxuzaU","Bharat Petroleum, Petrol Pump -Rajhans Filling Station","834010Best EV Charging facility in Ranchi JAMSH Ranchi Jharkhand IN, Rampur","23.2812737","85.41416520000001","true"
"ChIJF_xXJRgd9TkRFPCypkB2nAk","IndianOil","Ground Floor Garke, Namkum, Rampur, Bara Ghaghra, Ranchi","23.279096","85.4152081","true"
"ChIJEQXpkxcd9TkRGLwwH1lMZiw","Rotoplast Reliance Petrol Pump","Plot #235, Ranchi Tata Road, Post Rajaulatu, Garke Mohallah, Village Rampur, Ranchi","23.2771102","85.416433","true"
"ChIJN1d1f_od9TkRbCVa3hFIsRs","Reliance Petroleum","Ground Floor, Kantatoli Raja Ulatu, Nh 33, Bundu Rd, Garke, Ranchi","23.3127915","85.3901297","true"
"ChIJK8mVRYcd9TkRMWCGZRVHOyY","Hindustan Petroleum Corporation Limited","Ground Floor, NH 33, Namkum, Sidroll","23.3138371","85.3900723","true"
"ChIJVeHUK4Yd9TkRJTU-PA2SVl8","ROBINA FUELS","Ground Floor, Rajaulatu, Karkatta, Namkum, Ranchi","23.310489","85.408856","true"
"ChIJ-Rp3oqnj9DkRo360thh9gsw","Hindustan Petroleum Corporation Limited","Ground Floor, NH 33, near Sidraul, Namkum, Ranchi","23.3239307","85.3826857","true"
"ChIJ08KuGADj9DkRVRxHJR74qu8","Hindustan Petroleum Corporation Limited","Ground Floor, Sadabahar Chowk, Road, Doranda Main Road, Namkum, Ranchi","23.33352199999999","85.362207","true"
"ChIJe_CqVVHj9DkROOSBw9j44Bk","IndianOil","Ground Floor, Namkum, Jamchuan","23.25336459999999","85.4499541","true"
"ChIJ598SZ07e9DkRRP7_Ge2xs3w","Bharat Petroleum Petrol Pump","968V+38Q, Ranchi","23.3652213","85.2433531","true"
"ChIJ30_geR3e9DkRnrlUq8VE_LE","Bharat Petroleum","01, Ratu Road, Ravi Steel, Pandra, Ranchi","23.3917569","85.271608",""
"ChIJD6rXKHXe9DkR9q5IVRtMR2A","IndianOil","Ground Floor, Bijjulia, Pandra, Ranchi","23.4031103","85.2509415","true"
"ChIJOf7Zaerg9DkRKMd_l_aEu9k","Hindustan Petroleum Corporation Limited","Ground Floor, Piska More, Hehal, Ranchi","23.3818731","85.29636119999999","true"
"ChIJ1yUvKa3h9DkRZNz5votOSUM","Bharat Petroleum Petrol Pump","88X7+RHJ, Kadru - Kumhartoli Road, Kadru, Ashok Nagar, Ranchi","23.3509229","85.3140719","true"
"ChIJfZCq1f3g9DkRszI62Jrz-WU","Bharat Petroleum Petrol Pump","9886+7GV, near Hanuman Mandir Marg, Bypass Road, Harmu, Ranchi","23.3657364","85.3112834","true"
"ChIJsQKvmGvf9DkRu8ZbmE0XWh0","Hindustan Petroleum Corporation Limited","Ground Floor, Nagri, Lalgutua, Gutuwa","23.3525994","85.2332849","true"
"ChIJl36lawff9DkROZhyXNpyegM","IndianOil","Ground Floor, NH-23, Supram, Ranchi","23.3499107","85.22972879999999","true"
"ChIJLdziGgDf9DkRlp1czG1xuU4","Gail CNG pump","86XG+2FQ, Nagri","23.34757729999999","85.2262389","true"
"ChIJBU1d7qvf9DkRq9BFZpljiVM","Pratima Fuels","Near Lalgutuwa Overbridge NH-39, Ranchi Ring Road, Gutuwa","23.3578553","85.23042780000002","true"
"ChIJI5ih5g_f9DkRrVKL0vEoOiM","Hindustan Petroleum Corporation Limited","Ground Floor, NH 23, Nagri, Saparom","23.3442298","85.220781","true"
"ChIJLUPk6Ish9TkRU4DqfOPJe8g","IndianOil","Khata No 87, Plot No 839, Ranchi Ring Road, Nagri, Balalong, Ranchi","23.3622936","85.2297282","true"
"ChIJGXUYL7vf9DkRCiJM9tnw7D4","IndianOil","Ground Floor Piskanagri, Gutwa, Nagri, Ranchi","23.3626352","85.229933","true"
"ChIJrQagBInf9DkR5UThl5DMeNY","Bharat Petroleum, Petrol Pump -Kanchan Fuels","DALADAI CHOWK, Ranchi","23.36249699999999","85.2292372","true"
"ChIJxxJuxVDf9DkRBsq5OPPSu8k","Atharva and Rishabh fuel fusion","Kathal more, road, chock, towards, Daladili","23.3643513","85.24664469999999","false"
"ChIJN82mLADf9DkRi-QGFerx5eM","Indian oil Aman fuel","87X7+585, Pundag Road, Pundag, Ranchi","23.3479245","85.2631337",""
"ChIJWyqFEc3f9DkRxPvjh1cYxU8","IndianOil","Argora Chowk, Pundag, Ranchi","23.356401","85.260193","true"
"ChIJJcI_NjTe9DkRJ49FBjvOARc","Hindustan Petroleum Corporation Limited","Ground Floor Argora Road, Kathal More Road, Nagri, Gutuwa","23.363192","85.253033","true"
"ChIJJw0pBP3f9DkRBy7IOf9iSxM","IndianOil","Plot No 515/A/1, Khata No 1, Piska Nagri Road, Ratu, Daladili","23.369352","85.231479","true"
"ChIJcZ8BdwDf9DkRjyjibxKLYro","DINA PETRO VILLA , Bharat petroleum","87X9+7PV, Pundag Road, Pundag, Ranchi","23.348172","85.2691268","false"
"ChIJQcfEt2De9DkRvt85MFgwyFc","IndianOil","Ground Floor, Church Rd Ratu, Simaliya, Chowk, Daladili","23.3829917","85.2354263","true"
"ChIJL6XCktbh9DkRUldkIflna8U","Hindustan Petroleum Corporation Limited","Ground Floor, near ISM Chowk, Pundag Road, Argora, Ranchi","23.34790599999999","85.286165","true"
"ChIJ3ylpZK7f9DkRCq6ZoZ5JokU","Hindustan Petroleum Corporation Limited","Ground Floor, Ranchi Ring Road, Simlia","23.388661","85.23453099999999","true"
"ChIJ2SFgm5zg9DkRAUTvcbJzn7U","IndianOil","Hehal, Itki Road, Bajra","23.37297599999999","85.277199","true"
"ChIJw3X2yVnh9DkRNy53Q1ra_SE","Hindustan Petroleum Corporation Limited","Ground Floor, Pipartoli, Argora, Ranchi","23.3604643","85.2891574","true"
"ChIJ87kwNADh9DkR5vXoLPknCPM","A R FILLING POINT (INDIAN OIL) ⛽","near kankomore, 8th Lane, Argora, Ranchi","23.3503767","85.29535489999999",""
"ChIJPexu4Dzh9DkR4ev7JE3zIvo","Himanshu Hiramani Fuels (BPCL Petrol pump)","Saint Francis School Road, ARGORA CHOWK, Harmu Housing Colony, Argora, Ranchi","23.3564835","85.2960659","true"
"ChIJ1_tg_V7g9DkRHCp4NIdVw20","Bharat Petroleum","974W+JCG, Saint Francis School Road, Harmu, Ranchi","23.3565545","85.2960816",""
"ChIJhz1ECeHg9DkRhtDSIXtkGbU","IndianOil","C/O, Ratu Road, Ranchi","23.393992","85.2669696","true"
"ChIJxUQ2W_Df9DkRMike90ifTik","Amit Fuels IndianOil","Amit Fuels, IndianOil retail outlet, Ranchi Ring Road, Tilta","23.4010177","85.24299180000001","true"
"ChIJo3ofqlng9DkRT8R23ZAF07Y","Hindustan Petroleum Corporation Limited","Ground Floor, near Harmu Chowk, Harmu Road, Harmu, Ranchi","23.3563511","85.30077469999999","true"
"ChIJ4ZXIsdLf9DkREnGtpq7BV5M","Sarai Feuls","C63H+RJW, Hehal-Pipertoli, पिर्रा","23.4046117","85.2290917",""
"ChIJl6sZkyrc9DkR1L65RpZ_Q6k","IndianOil","opposite All India Radio Transmis, Ground Floor Pirra, opposite All India Radio Transmis, Bijulia","23.4063959","85.2290352","true"
"ChIJ4YvAYerg9DkRPaFUUCzCetY","PARGAY KENDRA CSC center Ravi Steel chowkKamre","near Hindustan Petroleum Corporation Limited, PISKA More, near Hindustan Petroleum Corporation Limited, Ranchi","23.3820623","85.2956012","true"
"ChIJS266ySLh9DkRjMxBIg2We0U","Goal Bio Oil","House no-310, Basant vihar road no -3, Near, shajanand chowk, Harmu, Ranchi","23.3568326","85.3092489","true"
"ChIJLTqh-R_d9DkRSy6v_GHbXVo","Hindustan Petroleum Corporation Limited","NH 75, Plot No 369, Daltanganj Road, Ratu, Ranchi","23.409501","85.23580100000001","true"
"ChIJ54Zu68zh9DkRP5G4zeNB3a0","Afffpvt Ltd","Road Number 4, Anand Nagar, Ranchi","23.3671321","85.3088583",""
"ChIJQSh61afd9DkR_d9HzPAcl3E","Tiwari Bechar Petrol Pump","Ramesh Prasad Kahar, Ratu, Ranchi","23.4118714","85.2304832","true"
"ChIJJdN4cpbY9DkRdd_t5t8-l00","Hindustan Petroleum Corporation Limited","Ground Floor, NH 23, Nagri, Ranchi","23.3251962","85.1671961","true"
"ChIJIQmLUCzc9DkRfDPgPtzWNwA","जयसवाल श्रृंगार स्टोर एण्ड गिफ्ट हाउस","India","23.4132379","85.2277805",""
"ChIJjwoXNObg9DkRVHRjXCuCUZY","Ram Bilas Prasad and Sons","Ratu Road, Kumhartoli, Ranchi","23.3801856","85.3050184","true"
"ChIJdYpSdx3h9DkRAZnWEtk7pK4","IndianOil","Garikhana, Harmu Road, Ranchi","23.3744626","85.31441149999999","true"
"ChIJN07drhrh9DkRtBeaUwJdtsY","IndianOil","Ground Floor, Kutchery Road, Ranchi","23.372442","85.323441","true"
"ChIJlbUIcQ3h9DkRy9-K0AXuEPA","IndianOil","Ground Floor, Old, Hazaribagh Road, Ranchi","23.371382","85.331711","true"
"ChIJX3yi_3jh9DkRbvWtGv5VYx4","IndianOil","near Ymca, Chowk, Purulia Road, Kantatoli, Ranchi","23.363834","85.347336","true"
"ChIJ8TFn4nvh9DkR7gRujOTX20Q","Bharat Petroleum Corporation Limited","Nile Complex, 3rd floor, Hazaribag Road, Kantatoli, Chowk, Ranchi","23.3667422","85.3494549",""
"ChIJywDz9n_h9DkR3WdyMP_V1_0","Rambhagat Hari Prasad (HP petrol pump)","Hanuman Mandir, Purulia Road, Samlong, Ranchi","23.3614812","85.35402649999999","true"
"ChIJvbcG_Nfj9DkRGrTYIJynYaw","Hindustan Petroleum Corporation Limited","Ground Floor, Kokar, Ranchi","23.3730288","85.3553639","true"
"ChIJZ8UGhtvj9DkR_6CEtX2pmLc","Bijoy Automobiles Bharat Petroleum","99H6+HR9, Hazaribagh Road, Kokar, Ranchi","23.378915","85.3621089","true"
"ChIJBdPTAjLh9DkRssdp4wyJ5WI","SANTI AUTOMOBILES","beside Kadru Gurudwara, Hindpiri, Ranchi","23.3504021","85.3213055","true"
"ChIJ-cu_norh9DkR2fcEczSO628","Bharat Petroleum, Petrol Pump -Tiwary Bechar & Co Pvt.Ltd","RAJENDRA CHOWK,RANCHI, Ranchi","23.3457565","85.326109","true"
"ChIJndWI1Azh9DkRkFz3ZpzilDw","Bharat Petroleum","NH-33, KOKAR, Ranchi","23.3557104","85.324998","true"
"ChIJBzkqGLjh9DkR7ZZkdMRmmLc","RAJESH GAS SERVICE","01 A, block, Ranchi","23.344354","85.3311851",""
"ChIJm6fNsqPh9DkRCMPku7EAmDM","Hindustan Petroleum Corporation Limited","Ground Floor, Hazaribagh Road, Ranchi","23.3523428","85.3315155","true"
"ChIJCciaFzrh9DkRHbBYmjlurCs","Jharkhand Petrol Pump","983J+7G7, Paramahansa Yogananda Path, Sirom Toly, New Garden, Gosaintola, Ranchi","23.3528243","85.3317235",""
"ChIJtR4fWp7h9DkR57rOSsY19cs","Hindustan Petroleum Corporation Limited","Ground Floor, Bahu Bazar Road, Konka, Ranchi","23.3581935","85.33759909999999","true"
"ChIJB0pwDw7h9DkRGcJD0F50WWw","IndianOil","Hazaribagh Road, Tharpakhna, Ranchi","23.371553","85.328721","true"
"ChIJCbKSSOvh9DkR0gTE-jvgwfo","Bharat Petroleum, Petrol Pump -Brothers Automobiles","Simdega - Gumla - Ranchi Road, Ranchi","23.3737818","85.32557919999999","true"
"ChIJRV3HI3bh9DkRpjdvsbeCSzU","HP PETROL PUMP - MAA MHADANIYA INDHAN KENDRA","Hpcl Petrol Pump Village: Ghagra Ghagra, TO, Lohardaga Road, Ranchi","23.361337","85.340974",""
"ChIJgWAlB3zh9DkRRxB7pJZxR0I","Bharat Petroleum, Petrol Pump -Guria Fuels","KHADGARAH, Ranchi","23.3617728","85.3414371","true"
"ChIJk2vcS1Xh9DkR8X_Br4OedwM","Kabir Kumar","Chutia, Upper Chutia, Power House Road, Lower Chutia, Gosaintola, Ranchi","23.3537056","85.34605499999999",""
"ChIJVzMykHXh9DkRT161CH3mZX8","IndianOil","Ground Floor, Ratu Road, Church Road, Ranchi","23.3797605","85.3095479","true"
"ChIJBRSp3Sri9DkRc6kA7rmERzM","IndianOil","Purulia Road, Dangartoli, Nayatoli, Ranchi","23.3658624","85.3429238","true"
"ChIJ47QLKqPh9DkRD-_Ddic-U_E","IndianOil","Hatma, Lalpur, Ranchi","23.372123","85.33827099999999","true"
"ChIJdYF_DHLh9DkRtvwOf_JI7P8","Hindustan Petroleum Corporation Limited","Ground Floor, Chowk, Lalpur, Ranchi","23.3724701","85.3382701","true"
"ChIJz-ENmPvh9DkRxVFrlBjJyWQ","Chalo Aayo fuel","98JH+XMM, Karamtoli Road, Karamtoli, Ranchi University, Morabadi, Ranchi","23.3825152","85.32908049999999",""
"ChIJOZ7IP1Xh9DkRZGZlcZILQv0","Ranjeet Thakur","Lower Burdwan Compound, Lalpur, Ranchi","23.3762057","85.34034109999999",""
"ChIJCYU7iWHh9DkRk7nrcVz2ZMc","Hindustan Petroleum Corporation Limited","Ground Floor, Lowadih, Ranchi","23.3612598","85.353854","true"
"ChIJuZsJfKHj9DkRSPc_VM2BTVI","Dhiren Fuel And Petroleum","Namkum, Ranchi","23.3523183","85.380771",""
"ChIJsV5FzUji9DkRzGhzOPZ-drI","Bharat Petroleum, Petrol Pump -Samrat Auto (India)","NAMKOM,RANCHI,DIST RANCHI, Ranchi","23.3523534","85.38073349999999","true"
"ChIJxdatPc3j9DkRrmYq2TRq6P4","IndianOil","Indian Oil Depot, Tata Road, Namkum, Ranchi","23.35025749999999","85.37305500000001",""
"ChIJB18jnbnj9DkRooaBeyz0WK4","IndianOil","Ground Floor Samlong, Bara Ghaghra, Namkum, Ranchi","23.3540799","85.3639905","true"
"ChIJP_Fk-jrj9DkRrNc3gVQtlx8","Mr RAJESH KUMAR SAW","Road Number 3, Ayodhyapuri, Kokar, Ranchi","23.3796711","85.3656977",""
"ChIJM7m9UkHj9DkRZkLO-dxsXug","Krrishay Biofuels PVT LTD","near MADAN DHABA, B 3 SANJEEV VIJAYVERGIYA AWASIYA KARYALAYAKOKAR RANCHI, near MADAN DHABA, Ranchi","23.3800989","85.36366989999999","true"
"ChIJJ2SFB2Ph9DkRnexoFc3FSUo","भारत पेट्रोलियम","India","23.376009","85.35185899999999",""
"ChIJzQv2hSHj9DkRpTepfoC5NPc","IndianOil","Ground Floor, Gari, Bariatu, Ranchi","23.383481","85.367836","true"
"ChIJ3S0WXbTh9DkR4a4_Ay0Nzrs","Diamond sales","Bazar, Kokar, Ranchi","23.3760625","85.3518125","true"
"ChIJ774oM9ni9DkRlxQQXw2Y4y0","Hindustan Petroleum Corporation Limited","Ground Floor, Mahilong, Tatisilwai","23.3593454","85.42211789999999","true"
"ChIJrdSgr5Pj9DkRdHg37-RFHwM","Bharat Petroleum Petrol Pump , TIWARI TRADERS","KHELGAON ROAD MOUJA PS SUGNUPLOT NO 169(P),KHATA NO 15, Ranchi","23.38198599999999","85.40088","true"
"ChIJwb4NHQDj9DkRBAIq8B6gbv8","Indian oil,इंडियन तेल","9CM9+2JJ, Lalganj","23.3825835","85.41902040000001",""
"ChIJVfmXj_Dj9DkRMKk2xO1NIV4","Hindustan Petroleum Corporation Limited","Ground Floor, near Ranchi Medical College, Bargain Road, Bariatu, Ranchi","23.4008635","85.3661571","true"
"ChIJPwXFqVzh9DkRfbjb6Bngxfc","IndianOil","Ground Floor, Bariatu Road, Ranchi","23.3981732","85.3552627","true"
"ChIJCVBF14vj9DkR1dmMPUwAiFk","Gail CNG (petrol pump,digal fuel)","9CFM+5XX, Khelgaon-Tatisilwai Road, Tatisilwai","23.3733391","85.43491039999999","true"
"ChIJu25-6oPj9DkRqSyB152lFg8","Hindustan Petroleum Corporation Limited","Ground Floor, NH 33, Booty, Dumardaga","23.4027672","85.3923607","true"
"ChIJj-V9vInd9DkRAPdgDzPXx7g","IndianOil","Ground Floor Bijjulia, Bazar Tand, Ratu, Hurhuri","23.4205343","85.2263471","true"
"ChIJtVgAoSXd9DkRmvqwUzz9MIE","Vivaan fuel","C6CG+R2G, Ratu, Jhakratand","23.4220637","85.2250675","true"
"ChIJvSCeE0vd9DkRIVhZoNpjufE","IndianOil","Ground Floor, Ratu, Hurhuri","23.4343061","85.2180729","true"
"ChIJbyABGRLc9DkRnfqdjuFTVZI","IndianOil","Ground Floor NH 75, Brajpur, Bijjulia, Ratu, Ranchi","23.4224075","85.2008149","true"
"ChIJm40p_hrd9DkRHL8C_-Kl1ek","Hindustan Petroleum Corporation Limited","Thana No 72, Ratu, Malmanru","23.446078","85.2126039","true"
"ChIJJ1OepCLn9DkRjyc-aCrhXXk","Nagendra Fuel Centre","near ITBP Camp, Sukurhutoo, near ITBP Camp, Ranchi Ring Road, Kanke","23.4412088","85.2728515","true"
"ChIJDYMJ2H3n9DkR2J-lZ4kMAvc","dianOil","C7XF+5MJ, Ranchi Ring Road","23.4479556","85.2741288","true"
"ChIJexyZEvDn9DkRTjksZW7l7V4","IndianOil","Ground Floor, Kanke, Sukurhutu","23.44823539999999","85.2738217","true"
"ChIJQaW1cHDn9DkR4I0pASMaok0","Mansuri HP Gas Godown","C7VM+Q5F, HP Gas godown Mansuri, sukruhutu, Ranchi","23.4444353","85.2829294",""
"ChIJSVM6SfLb9DkRxmmWDvjB2UE","IndianOil","Mander, Ground Floor NH 75, Belangi, Hehal","23.4233353","85.1812068","true"
"ChIJH3BRdCzn9DkRSAEOOfhI6sw","Bharat Petroleum Petrol Pump , CHOUDHARY FUEL STATION","Sukurhutu","23.4454855","85.2903524","true"
"ChIJTZzaZADn9DkRXS-Wjowt84I","MANSURI FUEL STATION","F74V+2QG, Ranchi Ring Road, Gagi","23.4550562","85.2944443",""
"ChIJUXb4Yo7d9DkRNYegFyK4DQg","Hindustan Petroleum Corporation Limited","Ground Floor, Thakurgaon Road, Ratu, Patratoli","23.4695352","85.1973404","true"
"ChIJ5U1rEADn9DkR2_2A31jfV5g","Hindustan Petroleum Corporation Limited","Ground Floor Kanke, Ranchi Ring Road, Sukurhutu","23.455498","85.301003","true"
"ChIJb6_7UFvn9DkROpphMa6VR5I","IndianOil","C878+GFV, Patratu, behind Reliance Smart, Kanke Road, Jhirga Toli, Gandhi Nagar, Ranchi","23.413991","85.316453","true"
"ChIJ4-stBQDn9DkRj5hlt-1Zih4","Kanke Road","C8M7+HCF, Kanke Road, Shanti Nagar, Ranchi","23.4339461","85.3135368",""
"ChIJ08fcjd3d9DkRgr7D-14LuTM","Hindustan Petroleum Corporation Limited","Ground Floor, Kokretanr","23.472387","85.195849","true"
"ChIJEbBvoNDn9DkRtrRBMFY7Znw","Hindustan Petroleum Corporation Limited","Oraon Complex, Plot No 31, Patratu Road, Chouri, Kanke","23.419967","85.317064","true"
"ChIJPXVGz_Tn9DkRd7lpndSuLCM","Gloria Fuel Centre HP Petrol Pump","Next to Oraon Complex, Jharkhand State Highway 2, Kanke Road, Jhirga Toli, Gandhi Nagar, Ranchi","23.4206263","85.3171583","true"
"ChIJ3_IIJADh9DkRMNRJI0BxtX0","KANKE SERVICE CENTRE","98R7+XHV, near Petrol Pump, Kanke Road, Jawahar Nagar, Hatma, Ranchi","23.3924479","85.3138877",""
"ChIJX1OOfifh9DkRLQtF8CKkq4M","Indian Oil","Ground Floor, near Jawahar Nagar, Kanke Road, Ranchi","23.3924451","85.3138949","true"
"ChIJb8jUlC3h9DkROJEZI2g60AU","Oraon Gas Distributor","Gopal Complex, 3B, Court Road, Ranchi","23.4035304","85.33241989999999",""
"ChIJAyMEI73h9DkR-mrcCFkJLOg","Shakambari Fuels","160, Jawahar Nagar, Hatma, Ranchi","23.3902458","85.3144021","true"
"ChIJX9fZYiTn9DkRP-CnjPVpyGg","Aashutosh fuel pump","Kanke Block Chowk","23.4305311","85.33378210000001",""
"ChIJ-8B_p1Tn9DkRMPmODbT9QHg","Hindustan Petroleum Corporation Limited","Block Chowk, Ground Floor Kanke, near Kanke, Arsande","23.4306078","85.3337296","true"
"ChIJeyI-Pzrn9DkRkG-pFlFWAzg","Hindustan Petroleum Corporation Limited","Ground Floor, Boriyo Road, Chiraundi, Ranchi","23.414568","85.343306","true"
"ChIJI_NHqY3n9DkRLmQYLIgDEZQ","Bharat Petroleum, Petrol Pump -Manshai Fuel Station","DSTT, BOREYA","23.4177662","85.3458127","true"
"ChIJT8q9CgLn9DkRVKTP0u53rVc","IndianOil","Ground Floor, Kanke","23.4479143","85.3452124","true"
"ChIJQdU_7M3n9DkRuzFfbsnNrto","Dileep sahu petrol fuel","Ranchi Ring Road, Hochar","23.4520815","85.3510754","true"
"ChIJ3VbGF4Hm9DkRsuLcA9m0O-M","Hindustan Petroleum Corporation Limited","Ground Floor Ring Road, Kanke, Hussir, Hochar","23.452469","85.351151","true"
"ChIJsZB7BADl9DkRlCFvafgrdAI","Kumar traders","C9P8+8VQ, Kanke - Ormanjhi Road, Ranchi","23.4358305","85.3672332",""
"ChIJhZL0DZvk9DkRPxrcuc8Wxb4","Bharat Petroleum, Petrol Pump -Auto Fuels","GETLATU(NH33), RANCHI,DIST, Ranchi","23.4183307","85.4086688","true"
"ChIJg84ZvsDk9DkRVRQh_c06i2E","IndianOil","Ground Floor NH 33, Mesraor, Manjhi, Buti","23.4356231","85.420756","true"
"ChIJC5bcTIXj9DkRh6iIHDp3Ee4","IndianOil","Ground Floor, Booty More Road, Neori","23.4046412","85.3945131","true"
"ChIJjb7TLcPj9DkRFxTlrNqXzrQ","Hindustan Petroleum Corporation Limited","Ground Floor, NH 33, near Booty More Road, Dumardaga","23.4045021","85.39479829999999","true"
"ChIJpS78FOzj9DkR5TBPW1dLnx4","Bharat Petroleum, Petrol Pump -Bhartiya Fuel Centre","DUMARDAGA(NH33), RANCHI, Ranchi","23.4064692","85.3975573","true"
"ChIJEeYQZwDl9DkRdKMewCd9yGY","Oraon Bio Fuels","Ranchi Ring Road, Patratu","23.4453368","85.3829502",""
"ChIJxZF1q8Pl9DkR_85Whf99Gps","Hindustan Petroleum Corporation Limited","Ground Floor, Neori Road, Chuttu","23.443524","85.403399","true"
"ChIJKXsY_Svp9DkR9TmFEF3DcsA","IndianOil","Ground Floor Dubaliyap, Pithoria Near Chandwy Chowk, Ranchi","23.466073","85.3916256","true"
"ChIJCZMPxxX79DkRvmAuu-WdAPM","ST Shivam bhwan","Rodiya","23.4290411","85.4388374","true"
"ChIJRfUhzv3l9DkRgY0RGChAjHg","Hindustan Petroleum Corporation Limited","Ground Floor, Pithoriya Road, Chandwe Chowk, Siddi","23.472253","85.388902","true"
"ChIJH2z8_tPl9DkRHq4r-p3qOUU","Verma Fast Food","Verma Fast Food, Sihodih, Giridih","23.4774558","85.3964673",""