place_id,name,address,latitude,longitude
"ChIJo9rdmNhmoDkRd9cjLLwlFSA","Hindustan Petroleum Corporation Limited","Ground Floor, NH 74, Kichha - Sitarganj Road, Gautha","28.913161","79.694681"
"ChIJrSOCHTJnoDkRgt1Jjsky1Dw","Rajkumar Saraff","Kichha - Sitarganj Road, Sitarganj","28.923755","79.7022586"
"ChIJiyMmFa5noDkRB794HeHOIfY","Bharat Petroleum, Petrol Pump -Sai Service Station","GOTHA,KICHHA RD, SITARGANJ, UDHAM SINGH NAGAR","28.9266909","79.701685"
"ChIJp6iGcmJnoDkR3Xh8rLjXVyc","Hindustan Petroleum Corporation Limited","Ground Floor, Sidcul Road, Bamanpuri, Kushmoth","28.9286553","79.7019911"
"ChIJzwInRjBnoDkRdVoxi9rKlOI","Hindustan Petroleum Corporation Limited","Ground Floor, Bye Pass Road, Sitarganj","28.92042099999999","79.70821099999999"
"ChIJo-_zLBFhoDkRchXAgjbmrLE","Bharat Petroleum, Petrol Pump -Amba Filling Station","SIDCUL, Sitarganj","28.93208030000001","79.7023147"
"ChIJHxiFWgBnoDkRwyg85ixNqJs","Hindustan Petroleum Corporation Limited","Ground Floor, SH 41, Bijti Road, Rampura, Sitarganj","28.924331","79.711349"
"ChIJD7t0XwBnoDkRhJEiIpKTo3s","Sai Service Station","WM7W+PJP, Gautha","28.9143265","79.6965757"
"ChIJfxf5KDNnoDkRYAZqk_VLST8","IndianOil","Ground Floor, Tanakpur Road, Sitarganj","28.929477","79.70951199999999"
"ChIJAQoXrTRnoDkRkGatuWJlDGY","Jio-bp","Khasra No 198/3, 199/1 & 199/2 Rampur, Khatima Bypass Road, Sitarganj","28.9290452","79.7113493"
"ChIJm3L8JE5noDkRqrMqxFqTleE","IndianOil","Ground Floor, Sitarganj,Baruabagh, Sitarganj","28.90457810000001","79.70232229999999"
"ChIJMe0DgIFhoDkRHwxA2czc3Ug","Bansal filling station","near krishna tiles and sanityware, Bawanpuri","28.94613919999999","79.6976504"
"ChIJJdp000xnoDkRoWTZkrlJgpY","IndianOil","Ground Floor Cheekaghat, NH 125, Sitarganj","28.931214","79.7258027"
"ChIJWzJJarBhoDkRlFd69D0DhNI","Hindustan Petroleum","Bawanpuri","28.951963","79.6964071"
"ChIJU2EvuCxnoDkR2AY6bsBfs1I","HP Petrol Pump - Shree Shyam Ratan Filling Station","Sidcul Road Village Bamanpuri, Dehradun","28.95590769999999","79.69698939999999"
"ChIJrzk9BgBhoDkR7i0QM_PZ3pU","Nanak Energy Point Bharat Petroleum corporation ltd.","Shukla farm, Tharu, Tisor, Tharu Tisor","28.9597381","79.7134458"
"ChIJq8F55lFhoDkRIvQkS8tYepQ","Dhruv Filling Station","Dhruv Filling Station, Sidcul Road, Bamanpuri Road, Sitarganj","28.9626552","79.69839669999999"
"ChIJdT3VIQBhoDkRYfGXHBpVTBE","MAA SHARDA SERVICE STATION","XM7W+WX, Sisona","28.9646795","79.69701529999999"
"ChIJQ2B7AVBhoDkRbs2QQFysOPk","Patrol pump","XM7W+WX, Sisona","28.964762","79.6974645"
"ChIJjxewR6hnoDkRkoNdIPRogTk","IndianOil","Malpuri, Pilibhit Road, National Highway 734, Sitarganj","28.8818353","79.7045935"
"ChIJ2S1y7kd7oDkRGYxT0IWT9zc","BHARAT PETROLPUMP","Kichha - Sitarganj Road, TEHSIL, Pipalia","28.89512979999999","79.54737480000001"
"ChIJ6QQVs5h7oDkRJACceXvLxnI","BHARAT PETROLEUM - PRAKASH PETROLEUM","Bareilly Road, Kichha","28.8923516","79.50963569999999"
"ChIJ8_5yQ4V7oDkRKXX61TpyL9I","IndianOil","Bareilly Road, Kichha","28.9037682","79.5046577"
"ChIJxwco-pp7oDkRB6mJGQHV7mU","Tarai Mandal Agency Hindustan Petroleum","Udham Singh Nagar, NH-74, Kichha","28.9002275","79.5062375"
"ChIJu9RkD4Z7oDkRL6HLYHhYxgk","Gurunanak Motors(Nayara Petrol Pump)","Khasra No. 284, 286, 287, Kichha - Sitarganj Road, NH - 74, Mangalam Vatika, Kichha","28.90850919999999","79.5048686"
"ChIJIwrzZBR7oDkREObC1uglbDQ","IndianOil","Ground Floor, Kichha Sitarganj Road Bhanga NH 74, Bagwara","28.890155","79.53325000000001"
"ChIJFYQO-KJloDkRj0qS9MD5_Ow","Guru Nanak Highway Fuels","NH 74 , 4KM From, To, Kichha - Sitarganj Road, Pulbhatta","28.8951869","79.5473663"
"ChIJ1TlnlC57oDkRU2cVZy12EBc","Hindustan Petroleum Corporation Limited","Khasra No 126, Sahiya, Kichha","28.8801534","79.5193863"
"ChIJ893kdQh7oDkRrRqCh3T3ImA","Hindustan Petroleum Corporation Limited","Ground Floor, Sathuia, Kichha","28.8805601","79.5171201"
"ChIJ020yG_N7oDkRM8SbajD-Se0","IndianOil","Ground Floor Sutuiya, Kichha","28.8778181","79.518123"
"ChIJo7mKVFl7oDkRgQ5QhiG9eSw","RajSheela Filling Station","Sutuiya","28.8766875","79.51781249999999"
"ChIJS3IhDaF7oDkRmlPP6a7hXl8","भारत पेट्रोलियम","India","28.8881293","79.5112353"
"ChIJE-wwmRR7oDkRYHE9uMbj4z8","BPCL COCO Petrol Pump - BP HATHMANA CNG","VHQ5+JM, Hathmana","28.8890373","79.55919329999999"
"ChIJtZP04oN7oDkRZ3vuB_hzHPE","HP PETROL PUMP - TARAI MODEL AGENCIES","Kichha Dist U.s.nagar, Dehradun","28.8917755","79.5097857"
"ChIJ0SWwEwB7oDkRvV8ZtT4k7p0","Bharat Petroleum - Yash Filling Station","SATUIA,UP BORDER, KICCHA,U, UDHAM SINGH NAGAR","28.8703097","79.5162328"
"ChIJL4vZ4n17oDkR80Ft3s-PrII","Hindustan Petroleum Corporation Limited","Ground Floor, Kichha","28.9005281","79.5061898"
"ChIJQciV9uF7oDkRm8YHizVH-3Q","Hindustan Petroleum Corporation Limited","Khasra No 995, Khet No 681 & 682 MIN, 13, Nanak Nagar, Bandia","28.914242","79.519165"
"ChIJV2ubt5p7oDkRJhCyrKgsgD8","Jio-bp","328 Kha Khatauni No, Khasra No 328 KA, 169 & 185, Sirauli, Kichha","28.9026711","79.5056171"
"ChIJkx21yKt7oDkRFem_AW5d5bk","Reliance Petroleum","M/S MADAAN MOTORS, NH-74, POST_OFFICE, :, VILLAGE:SIROALI KALAN, Kichha","28.9087212","79.50975489999999"
"ChIJSSseHKiGCjkRGTignpgEXqI","Puri Filling Station BPCL","Bareilly - Nainital Road, Bilaspur","28.8616461","79.51577429999999"
"ChIJdYZIBN5woDkR2NEL9TMBmDY","Bharat Petroleum, Petrol Pump -Baheri Service Station","BAHERI,BAHERI BYPASS,BAREI","28.780153","79.4925004"
"ChIJBdE28uNxoDkRaou12AMTZvY","Chandni Truck Workshop","1 By Pass Road, Nainital Road, Baheri","28.7917999","79.5027787"
"ChIJ3cCmawBxoDkRiH6IEVK01Ck","BHARAT PETROLEUM CORPORATION LIMITED","RG85+3MH, Bareilly - Nainital Road, Bhauna","28.8151989","79.5092428"
"ChIJV8z3COVwoDkRwicHPNRJHvY","IndianOil","Ground Floor, near Punjab and Sindh Bank, Nainital Road, Baheri","28.7851299","79.5015146"
"ChIJw2uqgU1xoDkRj3YrAsOwnSk","Hindustan Petroleum Corporation Limited","Ground Floor, Nadeli Road, Baheri","28.785825","79.520163"
"ChIJsSrZ6uNwoDkRRWH_oy1onHw","Hp Petrol pump Bhagwat saran Agarwal Filling station.","Ground Floor, Nainital Road, Baheri","28.780001","79.49980099999999"
"ChIJa0r1eABxoDkR7XxMer-opso","IndianOil","Ground Floor, Baheri","28.7809104","79.4957064"
"ChIJw-vIQgBxoDkRqXq-Nb8Lw6Q","J and A Energy Point","Baheri Bypass Road, Baheri","28.778269","79.48959970000001"
"ChIJBa3hdABxoDkRjbOf0CNRvio","Petrol pump","QFHQ+5P7, Baheri Bypass Road, Baheri","28.7777116","79.4891078"
"ChIJPSBW595woDkR_wRLwPI9p9E","Reliance","QFHQ+5F3, Baheri Bypass Road, Baheri","28.7778784","79.48866819999999"
"ChIJWf6hT61zoDkRQ-hpCNbwxJ4","Reliance Petroleum","near 47 Km Milestone, Sh 37 Bareilly, near 47 Km Milestone, Baheri Bypass Road, Shekhpur","28.7720708","79.4976688"
"ChIJ52qODsRxoDkRFHLbh-K2xB0","IndianOil","Ground Floor, Mohammadpur,Baheri, Baheri","28.773812","79.48624300000002"
"ChIJCRa5EXVxoDkRqzordY57F6g","SAJID KHAN","near Main Market, Kichha Road, Baheri","28.7835071","79.4738766"
"ChIJS3i3moJ3oDkRgOU65pCKopc","Bharat Filling Station","near by Harerpur Darau, Nanakpuri Tanda Road, Bareilly","28.8152752","79.4699277"
"ChIJL49TWvZxoDkRRtGEIjGfsy0","IndianOil","Ground Floor, Baheri","28.7673233","79.5119004"
"ChIJ5bpKCxlxoDkRVre2DUIzFQY","IndianOil","Ground Floor, Baheri","28.7669057","79.4971561"
"ChIJady7ZmRxoDkRMQUJ5oeVjhg","IndianOil","Ground Floor, Baheri, Narayan Nagla","28.777401","79.473901"
"ChIJR0SEbJtxoDkR1Ad64B_obQE","IndianOil","Ground Floor, Garibpura","28.797348","79.551147"
"ChIJC1LBRNRwoDkREWLNewYeG9o","Uddesh Kishan Sewa Kendra","Near mandi samiti Narayan nagla, Baheri","28.780268","79.468982"
"ChIJgQs4UgBxoDkR5kKcCOkgqLs","Hindustan Petroleum Corporation Limited","Khasra No 252, Baheri Bypass Road, Bareilly","28.763468","79.49169499999999"
"ChIJIYgGa5IJoDkRYFE2rH2QiV4","Reliance jio bp","Manda","28.5355226","79.4567052"
"ChIJQWAbs_0JoDkRC5wq-JkrBpA","Amit Auto Fuels BPCL","GFM4+22M, Dabhora Khanjanpur","28.5325885","79.4550398"
"ChIJ49nafMkLoDkRQoGTW-pv04I","IndianOil","Ground Floor, Atapatti Janubi","28.557501","79.456701"
"ChIJm2VBS1kLoDkRzwMS1uTh8dQ","IndianOil","Mohammadpur Jatan, Baheri","28.5615586","79.4609785"
"ChIJXdgfHQALoDkRZfGNRA_JwwM","AZAD FILLING STATION","HF66+MXQ, Mohammedpur Jatan","28.5617494","79.4624121"
"ChIJR5LIqUYJoDkRBp1hoZsPguU","IndianOil","Bhojipura, State Highway 37, Bareilly - Nainital Road, Bareilly","28.5239","79.454"
"ChIJ9Z37OD8JoDkRf9XI6OIoIpE","Hindustan Petroleum Corporation Limited","Ground Floor, near Bhojipura, SH 37, Thana, Bhoji Pura","28.5165601","79.452591"
"ChIJXW_264sLoDkRiigt3fuBLwY","BPCL Petrol Pump","HC7M+R56, Shahi-Atamanda road","28.56452549999999","79.43290209999999"
"ChIJxxgWgdkLoDkREYmQ9Ii4h_w","WASEEM PETROL STATION","SHOP NO 0786, ATAMANDA ROAD, Bareilly","28.5648689","79.4327818"
"ChIJ4-NY88cLoDkRrdGUBKYqXBE","IndianOil","Ground Floor, Dhaura Tanda","28.572601","79.423901"
"ChIJUaqWdzoLoDkR4OxMjJVFSJU","JEESHAN PETROL PUMP","SHOP NO, 111, MIYAPUR ROAD, Bareilly","28.5721475","79.4198153"
"ChIJ_8pLVVMGoDkR4D61yoUZLNw","AJ Sons Bharat Petroleum Corp Ltd.","92, State Highway 37, Krishna Nagar, Izatnagar, Bareilly","28.4052055","79.4247378"
"ChIJ8dVhTqsHoDkRDAUcH2b9P4E","IndianOil","Ground Floor, 25, Nainital Road, Krishna Nagar, Izatnagar, Bareilly","28.404791","79.424538"
"ChIJsS2az6gHoDkRgW9H907gKn0","Jio-bp","Ground Floor, near 10 Km Milestone, Sh 37, Izzatnagar, Dohna Pitam Rai","28.451414","79.4366459"
"ChIJ3UopaUoGoDkRZ4PSJ8Cl3J4","IndianOil","Ground Floor, Bareilly - Nainital Road, Bareilly","28.4274278","79.4306314"
"ChIJCVBAblIHoDkR5ZSbz10AidI","Pachauri Filling Station CNG PUMP","Mundia Ahmed Nagar","28.4356505","79.469217"
"ChIJZbfvywkGoDkR-2igVzY4080","Bharat Petroleum","India","28.4354031","79.4692835"
"ChIJpd-u9t8FoDkR0H0BzLlvf5E","रिजवान वैल्डिंग वर्क शॉप","India","28.4261063","79.4707075"
"ChIJD6Vu-ywJoDkRnDZ95P0dqHY","GANGWAR Brothers Bharat Petroleum Corp ltd","Bareilly Bypass Road, Pardholi","28.447987","79.39342189999999"
"ChIJu5fmO8wJoDkRt1Cj75s5NR8","IndianOil","Ground Floor, Bhoji Pura","28.4858231","79.4449179"
"ChIJR1hpwmIJoDkRgmPtmzxwebU","Bhojipura Service Station","near Ram murti medical college, SH 37, Bareilly - Nainital Road, Bhoji Pura","28.4864554","79.44427979999999"
"ChIJ-xyhu7EFoDkRj5im0dsu6e8","Bansal Sales And Service","Bansal Sales And Service, Pilibhit Road, Mundia Ahmed Nagar","28.4289222","79.4753836"
"ChIJt562CTcHoDkR2_tuQP1Prao","Ajeem","Gargaiya Road Nawabganj, Pilibhit Road, Bareilly","28.4055791","79.44864199999999"
"ChIJdV3bTGMGoDkRzNVTjJ6wnvU","IndianOil","Old, Pilibhit Road, Peer Bahora, Bareilly","28.408001","79.459099"
"ChIJtYW1E48DoDkRyPMr4jCVnm0","IndianOil","Ground Floor Balipur, Purnapur, Umedpur Bhuta","28.352541","79.502479"
"ChIJx31uKwcEoDkR1-GLVtdOQg4","Nayara Petrol Pump","9F6G+8G4, Major District Road 149W, Green Park Colony, Kanthri","28.3607543","79.4763315"
"ChIJhfj2EwAEoDkRfwBI90eU0vU","IndianOil","Bisalpur Road, Kanthri","28.359281","79.47138199999999"
"ChIJIQqeTGYBoDkR1U5tfCbm7RM","IndianOil","Ground Floor B Site, B Class Canopy, near Police Chowki, Nakatia Bridge, Bareilly","28.3309851","79.4609948"
"ChIJv1qQDAADoDkR5MHsIJ-uYxc","Fuel STATION","8FHQ+57, Urla Jagir","28.3275344","79.4883038"
"ChIJt2ZaimwFoDkR57UYWdvVMPA","Hindustan Petroleum Corporation Limited","near Bareilly Bypass Road, Ground Floor Itawa Beni Ram, near Bareilly Bypass Road, Mohanpur Urf Ram Nager","28.375397","79.49726299999999"
"ChIJvwL0nbEDoDkRnJ4wNI_KEso","Girdhari Lal KSK Filling Station","Bithri Chainpur, Road, Nariyawal","28.3237871","79.4839174"
"ChIJr5WrdAADoDkRaIrpERa73qg","Khandelwal Fuel Station","8FC9+F96, Nariyawal","28.3211513","79.4683792"
"ChIJ6WiRjYEFoDkRC5ScF4llbc4","IndianOil","Chandpur Bichpuri, Bareilly","28.382534","79.478051"
"ChIJXzwYVO0BoDkRHXCTkOrikFY","Hindustan Petroleum Corporation Limited","Ground Floor, NH 24, Mohanpur, Bareilly","28.320892","79.46728499999999"
"ChIJ5e7TkDEFoDkRcVtMcaF1kWU","Dohra CNG Pump","9FMG+29M, Chandpur Bichpuri, Bareilly","28.3825897","79.47590850000002"
"ChIJAdEkdQYDoDkRG-8uojCW-Qw","IndianOil","NH 24, Nariyawal","28.313129","79.475197"
"ChIJQXjAxrAGoDkRLTmeAbRQzc0","MAHESH HP","PLOT NO.158/19&158/19A, Pashupati Vihar Colony, PILIBHIT BYPASS, Bareilly","28.3664","79.45439999999999"
"ChIJiVimebEHoDkR_ZbGWN1s27U","Hindustan Petroleum Corporation Limited","Lala Begum, opposite University Gate, PN 158/19 & 158/19A, Pilibhit Bypass Road, Jagatpur, Pashupati Vihar, Bareilly","28.36642699999999","79.454405"
"ChIJv5DYVob4nzkRHOvuH5ZHtHE","Indian Oil","7G76+562, Karanpur Jerh","28.2628971","79.51051389999999"
"ChIJ1X7vk174nzkRwEyU_IR6uUE","Chandra Sales Bharat Petroleum and CNG","Jerh, Bareilly, NH-24, Bareilly Shahjahanpur Road, Bareilly, Bareilly","28.2422","79.51989999999999"
"ChIJbT-XoV74nzkRSKnux8qJsAM","Indian Oil","6GRC+M7P, Jerh","28.2417151","79.5207185"
"ChIJ9-QCRIH4nzkRn6oPL7TB6GA","Shaheed Balwant Filling Station","National Highway 24, Kesharpur","28.2640565","79.51084860000002"
"ChIJ05Rwyon4nzkRqfSf7R2v2Cc","Highway Fuels CNG PUMP IOCL","Karanpur Jerh, Bareilly, NH-24, Bareilly Shahjahanpur Road, Bareilly, Bareilly","28.25409999999999","79.514"
"ChIJh7qv2asDoDkR61S5ebW8KRg","Oil Pump","Bareilly Uttar Pradesh Fareedpur, Bareilly","28.28206190000001","79.4975166"
"ChIJS-TDNCYDoDkRH7DVThFeJMc","Bareily cng pump","National Highway 30, Rajau Paraspur","28.2850717","79.4970439"
"ChIJ64r6txMDoDkROV1vA6aQ0Cg","Hindustan Petroleum Corporation Limited","Ground Floor, near Transport Nagar, NH 24, Shahjahanpur Road, Rajau Paraspur","28.285131","79.49699799999999"
"ChIJZRgdaUACoDkRvOmN14CnKCw","Fuel Station","7FRV+WJP, Invertis University, Rajau Paraspur","28.2923315","79.49406619999999"
"ChIJOWlNASb4nzkRxJROcv5ZAgs","IndianOil","India","28.2376143","79.555028"
"ChIJP7081x35nzkREfAGx6mJVos","Shri Ns Filling Station","5, Shiv Mandir Bhuta Road, Faridpur","28.23887389999999","79.556159"
"ChIJjUax_iYDoDkRJkW8W8t9VeI","IndianOil","Ground Floor, Transport Nagar, Bareilly","28.297511","79.48610099999999"
"ChIJsYca2PDwnzkRtanW7S8-kyE","IndianOil","Ground Floor, Narsua, Baheri, Baheri","28.1424983","79.5913052"
"ChIJA6K9hFLwnzkRlrdc59AEmls","IndianOil","Ground Floor, Angadpur Khamaria, Tisua","28.1256057","79.6033017"
"ChIJx71rZQDxnzkRntYfeDzJOgo","Royal Filling Station","4J95+8PR, Harali Alipur","28.1183513","79.6092587"
"ChIJGVvhJgDxnzkRflx1pJ2bGNA","Hindustan Petroleum Corporation Limited","Ground Floor, Shahjanpur Road, NH 24, Pashchimi, Fatehganj Purvi","28.107308","79.61585099999999"
"ChIJhYBbaPrxnzkRr3O627az9Kg","EV/CNG Pankaj Filling Station","National Highway 730C, Pachauni","28.1693245","79.5693115"
"ChIJLxLpfyjxnzkRdrms_fpU0vI","Hindustan Petroleum Corporation Limited","Ground Floor, NH 24, Faridpur, Pachauni","28.16953599999999","79.56952199999999"
"ChIJLV3AZ5HtnzkRyf8mKvcC8RY","Hindustan Petroleum Corporation Limited","Ground Floor, Katra","28.036792","79.659667"
"ChIJhb4RuznsnzkR7ibwnvDKFNk","Shan Filling Station","Katra-Khudaganj Road, Katra","28.0356322","79.66876169999999"
"ChIJPxVVZ87tnzkRUw37OOWke9g","Fuel","Mhoula Bagshan, Katra","28.026357","79.66639579999999"
"ChIJizfa2hXsnzkRSQk6nWusjLM","IndianOil","Ground Floor, Baribara, iranpur Katra, Katra","28.0239908","79.6677898"
"ChIJleA2W6HtnzkRurGHY6d98zs","Shantanu Highway Filling Point","Nh30 Saalpur Navadiya Bareilly, Road, Shahjahanpur","28.0501382","79.6522324"
"ChIJQyCIdNbtnzkR-MgsUOC2wZc","IndianOil","Ground Floor, Shalpur Navdia, Miranpur, Katra","28.0542792","79.6518253"
"ChIJdSGMnwXtnzkRfu0ksj8-CU8","Bharat petroleum Zishan Highway Point","National Highway 30, Feel Nagar","28.0143928","79.6761866"
"ChIJRfj6ohrtnzkRE2V9OEjw-EQ","Bharat Petroleum, Petrol Pump -Kissan Petroleum","KATRA ON KATRA MADNAPUR RO, SHAHJAHANPUR","28.0066116","79.66735779999999"
"ChIJkbqIrkbtnzkR_6pYGaLWAzU","IndianOil","Ground Floor, Feel Nagar","28.0071889","79.6843597"
"ChIJQ7APPXrvnzkR26xBng8OXUY","Rajan Fuel","near Nadaiya, Gokulpur Nauadia","28.0320085","79.6107293"
"ChIJGU1Bl6vBnzkRGEzsjuSlIcY","IndianOil","Ground Floor, Akbaria, Madnapur","27.858238","79.67706799999999"
"ChIJuafMbQzBnzkRBy1vE7BMIjc","Hindustan Petroleum Corporation Limited","Ground Floor, Sadar, Meeragpur","27.8578215","79.6765875"
"ChIJia2aNADBnzkR2-TDoYpST0E","Aazam","VMRP+GMW, Pooranpur","27.8913515","79.6866933"
"ChIJ9297os7BnzkRi8WXtqrte4M","Bharat Petroleum Petrol Pump , J.D.SINGH FUELS","BARUA PATTI SANAYAKKATRA-JALALABAD ROAD","27.84316","79.674302"
"ChIJH8SWlAu8nzkR9FRK5mB8UCo","IndianOil","Ground Floor Jamaur, SH 29, Basulia","27.70811509999999","79.651099"
"ChIJS-7DrgnPnzkR4-zEsmD6zUs","Hindustan Petroleum Corporation Limited","Plot No 107/2, Kola Road, Parashurampuri","27.689156","79.636361"
"ChIJHbWUMOS4nzkRgCCzeKI_hc8","Siyaram Filling Station","State Highway 29, Vikrampur","27.7042599","79.6528108"
"ChIJPwJdPQDJnzkR68dl6O7ourQ","Kargil shahid Ramesh Chandra filing stetion","PM53+M62, Rauli Bouri","27.7091326","79.6530174"
"ChIJp0542cbJnzkRBynb-xkCoWs","IndianOil","Village gora, Shahjahanpur SH-29, Kant Road, Shahjahanpur","27.7089855","79.65109939999999"
"ChIJewYf0LLInzkR5Db1ZaCU4Yo","Reliance Petrol Pump","PM52+V8G, Rauli Bouri, road, katra, Parashurampuri","27.7096806","79.6508333"
"ChIJl5cBnazJnzkR9F7muIJ8jXw","Ganga chikitsalay Yakub Pur chauraha Parashurampuri","PM62+PX2, Rauli Bouri","27.7117702","79.6523954"
"ChIJc2GsEADJnzkR6FPz-iwHZd4","जलालाबाद","PM94+688, Parashurampuri","27.7180417","79.6558242"
"ChIJ8x_OYqvInzkRH1d6xU8K9Uc","IndianOil","near Gunara, Road, Gunara","27.7179116","79.6522884"
"ChIJBU2ZyrDJnzkRayHuCZ23YZk","Reliance Petroleum","GOPALJI FILLING STATION, M/S, PARGANA, TEHSIL, VILLAGE YAKUBPUR","27.7208191","79.6572275"
"ChIJgVQPjxfJnzkR3Zx97yMv2RQ","IndianOil","Ground Floor, Near Barapathar Chauraha, Jalalabad, Alhadadpur Baihari","27.7199676","79.6659909"
"ChIJjb2Y9DnLnzkR5xDr8kAeqNE","Lakshmi Trailers","Gas Ke Pacue, Anankpur, Nare Allganj, Bhgiya","27.5464797","79.6914279"
"ChIJF-9IIPk1njkRG75gGjwzKck","KUSHWAHA BANKING POINT","Main Chuaraha, Hullapur","27.5172023","79.7030683"
"ChIJr4vamRs1njkR6901l5g2RJk","IndianOil","Ground Floor Hullapur, Crossing, Allaganj","27.510331","79.701807"
"ChIJk6mbXgA1njkRgcKAtBX1Kvc","हुल्लापर चौराहा","GM5X+Q57, near petrol pump, Hullapur","27.5094125","79.6979157"
"ChIJv5ljTADLnzkRXNmqEjN50FM","Jai shri ram filling station bajeer pur tatiyari allahganj shahajahanpur","HMGM+RHV, Bajeerpur, Tatiyari","27.5771017","79.683919"
"ChIJ6VAVEpc1njkRaI_nXEsGJ7M","Viraj filling station","GM78+P72, MUBARIKPUR kalan, Naugawan","27.5142622","79.6656473"
"ChIJ9VVjyE8wnjkRU4FuEQgnP50","IndianOil","Barhpur, Awajpur, 00, Farrukhabad","27.384749","79.59282100000001"
"ChIJrXGdRUgwnjkR3br4vO7pC2o","IndianOil","Ground Floor, opposite Laxmi Cold Storage, Thandi Sadak, Farrukhabad","27.383914","79.58499119999999"
"ChIJD_lkkuEwnjkR7B7m49MG9Vw","IndianOil","Ground Floor, Ghatiaghat, Awajpur, Farrukhabad","27.39460099999999","79.6229985"
"ChIJt9NAEDQxnjkR8xEbxgJP0j0","Ganga Filling Station","NH730C, Panchal Ghat Road, Farrukhabad","27.39476539999999","79.6227569"
"ChIJbzMrLv0wnjkRZehMUCPjpWg","Hindustan Petroleum Corporation Limited","Ground Floor, Ghatiyaghat Road, Farrukhabad","27.3936368","79.6162627"
"ChIJTdCGJYIxnjkRzrqNa5gx2O4","Hindustan Petroleum Corporation Limited","Ground Floor, Lakula Road, Farrukhabad","27.38690940000001","79.6024322"
"ChIJiYBmbfMwnjkRBSx2-H01QfQ","IndianOil","Ground Floor, Nekpur Kalan, Awajpur, Farrukhabad","27.374598","79.6122512"
"ChIJeazjBjUxnjkRsOz7XzVxppo","Bharat Petroleum, Petrol Pump -Coomar Service Station","FATEHGARH, Farrukhabad","27.3709652","79.62178229999999"
"ChIJ7SZvzr0wnjkR04lX_LKInRs","Coomar service Station(petrol pump)","PWD Colony, Fatehgarh","27.3671189","79.63016499999999"
"ChIJd4ECZV8xnjkRcyaqvJsyI4k","IndianOil","Ground Floor, Fatehgarh","27.36667109999999","79.6321253"
"ChIJaSJzgHUxnjkRAunG4KMEahU","AMAN HP GAS SERVICE","Barhpur Mandir, Farrukhabad Road, Awas Vikas Colony, Farrukhabad","27.3813797","79.5960717"
"ChIJJU1zrE8wnjkRFPOtaEgF4Hk","Hindustan Petroleum Corporation Limited","Laal Gate, Ground Floor Fatehgarh Road, Road, Farrukhabad","27.384983","79.591623"
"ChIJH70rYzoxnjkRp6cksFIHsnQ","Bharat Petroleum, Petrol Pump -Om Sai Filling Station","FARRUKHABAD CITY, Farrukhabad","27.386546","79.59000379999999"
"ChIJ0Z6KDZ8xnjkRrGG8nh-O4n0","Rohit Joshi","Lal Darwaja Road, Farrukhabad","27.3872034","79.588655"
"ChIJIyt9H2IwnjkR1EY9VEfmQRM","Reliance Petrol Pump","State Highway 29, Farrukhabad","27.3655834","79.6039721"
"ChIJlcUtYwAxnjkRBiqJxwL3Vc8","Maa Ganga Filling Station","CJMV+FRV, Gautiya","27.4337482","79.64453309999999"
"ChIJfYys-UIwnjkRuIGdOAJutGo","Bharat Petroleum","9HFR+7H3, Mandi Road, Shyam Nagar, Farrukhabad","27.37313159999999","79.5914306"
"ChIJmZFnFPYxnjkR7vao0ttGZQM","Om Sai Filling Station Satanpur Mandi Road Near Hanuman Mandir Farrukhabad","9HFR+5CQ, Satanpur Mandi Road, near Hanuman Mandir","27.3729704","79.591112"
"ChIJNW5fiUIwnjkRTPh8K0El-Wc","Hindustan Petroleum Corporation Limited","Ground Floor Navin, Mandi Road, Satanpur, Farrukhabad","27.3718923","79.59152300000001"
"ChIJHVSomEwxnjkRajNGMpwSZD4","Shri Radha Krishna Filling Station","Near, Satanpur Mandi, Narayanpur, Farrukhabad","27.3662395","79.5955592"
"ChIJNZDI6-AlnjkR8Fq1jjp-mPo","Hindustan Petroleum Corporation Limited","Ground Floor, Farrukhabad Chhibramau Road, Rathaura Muhiuddinpur","27.274547","79.558471"
"ChIJmweYOIYYnjkRC73cQLpXnr0","IndianOil","Gata No 412, hhibramau Saurikh Road, Khojipur, Bahbalpur","27.1454059","79.5116046"
"ChIJwcMShHUinjkRZoomp0FGB9k","Hindustan Petroleum Corporation Limited","Ground Floor, KM Stone 301, GT Road, Chhibramau","27.155001","79.498901"
"ChIJH2EfioQjnjkR-cRxorWJg2Y","Diesel Pump","5GPQ+GFP, Bahorik Pur","27.1863293","79.5387046"
"ChIJg_ZlhraFnTkRRlzdKueE_64","IndianOil","Ground Floor Farrukabad Road, Chibramau,Kannuaj, near Near Subhash Academy","27.1633162","79.5131191"
"ChIJp5zVHAAjnjkRHZqaiCrBmbM","petrol","5G77+76, Dayamganj Sa","27.1630325","79.5132454"
"ChIJZ8bB8HEinjkRoarISVFA4k8","Bharat Petroleum","India","27.1654584","79.498944"
"ChIJORZGZwAZnjkRe7zW7n1yMxE","Indian oil Petrol","102, Sarai Sunder","27.1406671","79.5345585"
"ChIJTXWRQAAZnjkRDLkFRxKHLNw","Shri Ram Filling Station","Nh 91, new nh 34, From, Aligarh","27.1401647","79.5344832"
"ChIJs1pEsXkZnjkRIVxVg_RkTV0","Bharat Petroleum, Petrol Pump -Chakor Filling Station","PARGANA:TALGRAM, THSIL:, KANNUJ","27.1543914","79.5025053"
"ChIJG83gXwAjnjkRztFqOIrX6aA","Ramveer Singh Rajput Filling Station Admapur","Farrukhabad Chhibramau Road, Bahorik Pur","27.215171","79.5481652"
"ChIJnxaChHUinjkRjCdGNvnmQ_E","Reliance","India","27.1550189","79.4960534"
"ChIJLeydhHUinjkRqRAiJsiFcBo","Jio-bp","Ground Floor, Mile Stone 300, Opposite Lata Cold Storage, Nh 91, Chhibramau","27.155116","79.495781"
"ChIJA7NkVgAZnjkRy6Yq5giY7XM","Jio petrol pump","Chhibramau","27.1499944","79.4998985"
"ChIJiQ5XyNEZnjkRoFK8EHTjfnc","Shri Khatu Shyam Filling Station","Tajpur Road, सराय दयामगंज, Chhibramau","27.1530584","79.4967185"
"ChIJn95fUpoYnjkRSNy2N3LMJ_E","Hindustan Petroleum Corporation Limited","Ground Floor, GT Road, Chhibramau","27.145801","79.500901"
"ChIJhSRoWOcbnjkRSJwnRwwfKhE","Hindustan Petroleum Corporation Limited","Ground Floor, Chibramau Rd, Saurikh","27.054501","79.492801"
"ChIJvedK9cwbnjkRiQCiBtnCHU0","Bharat Petroleum, Petrol Pump -Kewal Ram & Sons","CHHIBRAMAU-KEWALRAM, KANNUJ","27.0333556","79.49029399999999"
"ChIJtYWCsLsbnjkROhsRE-JEVUY","Hindustan Petroleum Corporation Limited","Ground Floor, Tirwa Road, Chhibramau, Alipur","27.030931","79.50070099999999"
"ChIJtUBt2eAbnjkR11KKyLqbMI4","Arvind Misthan","Sakrawa Roud, Saurikh","27.02929169999999","79.48781"
"ChIJ3xRvkJcbnjkRCnPqptbtWVc","IndianOil","2FGR+J6F, CSB Road, Kannauj, Saurikh","27.0269849","79.4908365"
"ChIJ1beGLO4bnjkROo9hVtOeyz4","S S K K Energy Station","Shop No 02, Arwa Rod, Kannauj","27.0221503","79.4875247"
"ChIJG2QgQlQbnjkRhLXghZRXM68","Bharat Petroleum Petrol Pump , RAW BALVEER SINGH RANVEER SINGH","AUSER ROAD, Saurikh","27.022455","79.475376"
"ChIJWewkQAAZnjkRV7XQJgPpp7k","Mayank kirna eshtor","4G23+VCR, Khojipur, Pranpur Paly","27.1022492","79.50352509999999"
"ChIJ7xMTAZ0bnjkROapk4v6FA1Y","Kanhaiya Lal cng Filling Station","Bidhuna Road, Saurikh","27.0149155","79.4887808"
"ChIJxZwvx0T3dTkR5nK9bX98uuk","Vinod Kumar Filling Station Bharat petroleum company","Shop No 25, near Bharat Patrol Pump, Road, Nagla Madari, Saurikh","26.9763766","79.3689217"
"ChIJCWwntSAdnjkRO7bVfa_Ahzk","IndianOil","Ground Floor Sakraba, Chibramau, Birpur","26.9879669","79.42124749999999"
"ChIJ6djuh3kdnjkRgzSJTbPEM3s","Bharat Petroleum","XCX6+R8, Ghuspura","26.9995662","79.41075049999999"
"ChIJg7H0iMMdnjkRouya5MTlXJk","Hindustan Petroleum Corporation Limited","Khata No 154, Khasra No 351, Palahar","27.002231","79.413071"
"ChIJL55BGQL_dTkRXLHE1yAE5AQ","SHREE KRISHNA FILLING CENTER","pakka talk, Baripura","26.7874684","79.31471499999999"
"ChIJMzC6ebv_dTkRHeda_akGrPA","IndianOil","Ground Floor, Chaupula Road, Baibaha","26.80364179999999","79.3516704"
"ChIJFQSH_U_5dTkR8pE7kwF6k1g","M.R Filling Station","V88H+J44, Maderiya basti","26.8665004","79.32782259999999"
"ChIJ6RSKMzH_nTkR2C7jdzCbqv0","BPCL Maya Filling Station","Nagaria","26.6900175","79.40873979999999"
"ChIJr8zG2zX_nTkRWw8yb0wgszc","Bharat Petroleum, Petrol Pump -Maya Filling Station","Achhalda - Bidhuna Road, Bidhuna","26.7067403","79.407037"
"ChIJ8V6HzWH_nTkRhN0DjbrC63s","IndianOil","Ground Floor, Road, Baisoli, Achalda","26.6967652","79.39191269999999"
"ChIJ7zZhLwT_nTkRUp38RixEd3A","Hindustan Petroleum Corporation Limited","Ground Floor, Bidhuna, Achalda","26.7233321","79.41761919999999"
"ChIJgTrNLpnfdTkResEz-OrLzEM","IndianOil","Ground Floor, Bidhuna, Nagaria","26.6942895","79.406416"
"ChIJyzXxZXf_nTkR9dMsf3R72wM","Indian Oil","PCMH+R87, Guwari","26.7345457","79.42829859999999"
"ChIJYzDWVR8BdjkRqFBr7ny2UU4","Hindustan Petroleum Corporation Limited","Gata No 40, Bidhuna, Lidhaura","26.693656","79.35307499999999"
"ChIJuYwS3lj3nTkRg0TrMpLG8J0","बीपी फीलिंग स्टोर","G9RX+225, Auraiya","26.5400065","79.3976106"
"ChIJXRkxPIf3nTkR8hL41sTYIXA","Krishna fuels BPCL 24x7","NH19, Hasuliya, Ajitmal","26.5127337","79.39679490000002"
"ChIJzVWuGZ73nTkRJB-9Kolqmko","Bharat Petroleum, Petrol Pump -Bhatia Enterprises (Adhoc)","FATEHPUR KARAM, NH-2, Auraiya","26.5032072","79.41072679999999"
"ChIJ_RpX28OLnTkRxVsRRxbwMTU","JAI MAA FILLING STATION CNG","9CMQ+6JF, Gursahaiganj - Jalaun Road, Durha Kalpi","26.3830552","79.4390538"
"ChIJg7LMJ9WLnTkR7ASDTOQlbGI","Hindustan Petroleum Corporation Limited","Khasra No 288K, Bhadekh","26.387531","79.445229"
"ChIJldVTxn2LnTkRDJWESiFSe7U","BHAGAT RAGHUNANDAN BHATIYA FILLING KUTHOND","SH-21, Auraiya Road, Kuthond","26.3736271","79.4270298"
"ChIJH9L7qSWLnTkRLGfhPhMLnCM","Petrol pump","Kuthond","26.37289849999999","79.428502"
"ChIJk7Gh3IAmdjkRQTubmelxE3Y","IndianOil","Madhogarh, Rajpura,Akorhi Dubey, Plot No 188/2, Rajpura","26.2565736","79.2945862"
"ChIJqWD7maQhdjkRqaSL93E7UCw","Shree Ganesh fueling station","885Q+G4R, Enton - Ajitapur Road, Ajitapur","26.30887","79.337776"
"ChIJvYKvIp4ndjkR7dBh4wJ30Is","IndianOil","No 511 Mi, Hadrauk, Hadrukh Naintha Oil Plant, Road, Madora","26.2575446","79.3628906"
"ChIJk1AJSCQhdjkRsX_DBedgSjc","K G N Bio Fuel","889H+C7M, Enton","26.31858099999999","79.328184"
"ChIJS2U5rLYndjkRkjpKkREHhN4","Hindustan Petroleum Corporation Limited","Ground Floor, Gursahaiganj - Jalaun Road, Hadrukh","26.252927","79.370511"
"ChIJdWXOCvIpdjkRUtFjNVpriSc","IndianOil","Ground Floor Konch, Udhotpura, Sami","26.115795","79.2973085"
"ChIJ827XTQAvdjkRYoFr0pH-w9M","Indian oil patrol pump","575M+VV2, Salabad","26.15963610000001","79.2846343"
"ChIJ1amFVADVdzkR72OdfhSEXfY","Hightech energy fuel station ⛽","W9VF+G2, Naktela","25.943815","79.37254399999999"
"ChIJh7jMRRZ-nTkR4DxHYY-Zg2U","Hindustan Petroleum Corporation Limited","Ground Floor NH 25, Orai Jhansi Rd, Badagaon, Shahpura","25.945361","79.377251"
"ChIJh5D4vgZlnTkRqpPuIHSerGg","Hindustan Petroleum Corporation Limited","Ground Floor, SH 21, Rath - Orai Road, Sarila, Chikasi","25.7984896","79.4771768"
"ChIJA75_Rz5jnTkRG3jUtOEh87s","pratap diesel pump","RCFV+4MW, Mohana","25.8228565","79.4441879"
"ChIJ--mJI0RpnTkRtA9yvh-wGQ0","IndianOil","Ground Floor, Umariya","25.6798853","79.63108179999999"
"ChIJJ2txsYNdnTkRvnR0XgHQ-PU","KALPANA BHARAT GAS UMARIYA","MJVV+28V, Umariya","25.6926037","79.6432933"
"ChIJ96NMKAJDnTkRLpZydUYDG_U","Hindustan Petroleum Corporation Limited","Ghata No 829, Jalalpur Road, Rath","25.6444202","79.6043188"
"ChIJBSVorGnVBDkRfsucHE9s-_s","IndianOil","Gata No 940, Beera","25.72213319999999","79.5924046"
"ChIJ3aUhluRpnTkRWEmBx_fRFrI","Jai maa vindhyavasini ksk","PHCR+VQ, Beera","25.7222017","79.59195500000001"
"ChIJZQAJdwBDnTkRGZvYLTURaYo","Ojas filling station","MDR, 41B, Sarsai","25.6433807","79.6039255"
"ChIJ18P-igIlnTkRV_YxuDUgbuo","IndianOil","Gata No 1786, Artara, Gyondi","25.597437","79.97502899999999"
"ChIJFfnMhLPbnDkRrasPiibFwlE","Hindustan Petroleum Corporation Limited","Ground Floor, Road, Maudaha","25.574496","80.21613839999999"
"ChIJvaFqisfRnDkR_qQEooKcB28","Hindustan Petroleum Corporation Limited","Gata No 1509, KHA Kapsa, Banda Mahoba Road, Mohan Purwa","25.496669","80.23734499999999"
"ChIJeXcc-Y2znDkRwVGhVcfR93Q","S.k.Tyagi filling station","Pawai, Bisanda","25.4154934","80.5683949"
"ChIJCTN89iuznDkR8LpXcW_SyLA","Bharat petroleum filling station","CH89+3M Pawai, Banda - Oran Road, Bisanda","25.4151875","80.5691875"
"ChIJSVZsqX21nDkRkeCztQW9j_Y","IndianOil","Ground Floor Bilgaon, Bisanda, Achharaund, Atarra","25.4322471","80.5078453"
"ChIJxRR8JECznDkRK4m88ljYtdk","Hindustan Petroleum Corporation Limited","Gata No, 31 & 32, Atarra, Ghoori","25.410917","80.581667"
"ChIJ0ewY3yhXgzkR8ziO2LKAdLA","Bharat Petroleum Universal Filling Station","6R65+WV5, National Highway 35, Banda","25.212256","80.8097196"
"ChIJvV-neFyphDkRc61Jxh3-aTI","Hindustan Petroleum Corporation Limited","Gata No 675/1, Ranipur Khaki","25.1992971","80.8351028"
"ChIJAZV_3UCphDkRFk9ER6GrQmU","Shri Ram Janki Filling Station CNG EV-Charging Petrol and Diesel","NH35","25.216978","80.8441907"
"ChIJg6hAgUlXgzkRvH8Q7BbsGcg","IndianOil","Ground Floor Bhartaul, Karvi, Shivrampur","25.1992972","80.80304079999999"
"ChIJaZuOpSRXgzkRMgJA9-m3IO8","J.P. Filling Station 'Bharat Petroleum'","Bharatkoop Mandir","25.19951009999999","80.7794127"
"ChIJBVfbKABXgzkR1DboMGpdbAI","Bharat Petroleum Corporation Ltd","5QXH+QQ, Rampur Mafi","25.19941799999999","80.779393"
"ChIJlX4ZZqanhDkR_OP3NUhQDc8","Bharat petroleum petrol pump","PILI KOTHI, Road, Chitara Gokulpur","25.1868726","80.8605639"
"ChIJcXj_5-inhDkRJs21nk6s7kA","Hindustan Petroleum Corporation Limited","Gata No 248, Chakala Chak Mongar","25.1050468","80.8365008"
"ChIJOdqEhzBggzkRpsSsKz3_Wgg","Hindustan Petroleum","Itwa Tudaila","24.962369","80.7962091"
"ChIJ1Uj9bzpggzkRSBYMEIwgNtg","IndianOil","Itewa, Chitrakoot Satna Road, Durela, Ramakhurd, Karwi","24.963571","80.79567700000001"
"ChIJTz1ChzBggzkRHB82nQQP8tk","Bharat Petroleum","India","24.9624981","80.7961871"
"ChIJd_Kjy1xhgzkRMh3cy9IROyM","Maa Santoshi fuel Services","gata no-382","24.9571093","80.79993739999999"
"ChIJmx5jbA1_hDkRpbEfktR45L8","GOPINATH LALBIHARI PETROL PUMP","Ganpat Marg, Nazirabad, Satna","24.5665811","80.8340228"
"ChIJgyBk7gh_hDkRanseEeb9InY","United Service Station Petrol pump","hotel rewa, united service station Rewa road, near park, hotel road, Satna","24.5736617","80.84142349999999"
"ChIJ0wFA3wV_hDkRlyXICA5BBTQ","Hindustan Petroleum Corporation Limited","Ground Floor, Semariya Chowk, Satna","24.5715601","80.8450701"
"ChIJp_rEJQ5_hDkRjrHMLWKC2Vk","IndianOil","Ground Floor, near Superindendent Of Police, Satna","24.5791914","80.8226002"
"ChIJtb1oNCp_hDkRYEO5ViKF0uQ","Bharat Petroleum,CNG & Petrol Pump -Kalyan Service Station","Panna Naka, Umri, Satna","24.5760338","80.81843789999999"
"ChIJG6mzhQJ_hDkRswxBnKyppd0","Gurunanak Fuels","Civil Lines, Satna","24.5755803","80.82541049999999"
"ChIJ7cMtcHd_hDkRWso09Cxr3DI","IndianOil","Ground Floor, Collectorate Road, Satna","24.5743984","80.8229054"
"ChIJl1rJnXh_hDkR8fZlJtFTtcc","IndianOil","Ground Floor Panna Naka, NH 75, Panna Khajuraho Road, Badkhar, Satna","24.575938","80.81741199999999"
"ChIJwYnhIJh_hDkRuPUZ9cveA84","Hindustan Petroleum Corporation Limited","Ground Floor, Station Road, Mukhtiyarganj, Satna","24.578705","80.830353"
"ChIJg2EDWnd_hDkRJA_3av_91IU","HP Biodiesel","HRCC+FJM, Rajendra Nagar Gali Number 10, Rajendra Nagar, Satna","24.5712035","80.8215366"
"ChIJvReGboB_hDkR3gF4hp1HeLM","IndianOil","Khasra No 622/2/1, Dhankher Kalan Raghurajnagar, Itama Nadi Teer","24.5760512","80.8126315"
"ChIJxxD3zjh_hDkRztkH0eUStJ0","IndianOil","Khasra No 138, 6/1, Raghuraj Nagar, Nadi Teer, Itma","24.572484","80.83022299999999"
"ChIJjQziXuR_hDkRHVTpsRiiaM0","Ashish kushwaha","Sharda Colony, Maruti Nagar, Satna","24.5894501","80.8332516"
"ChIJtbn90Wx_hDkRii4ePm-9z00","आर.डी. प्लास्टिक","India","24.5615046","80.83186909999999"
"ChIJdQBi9GKAgzkRV-ru8PsmCXg","Hindustan Petroleum Corporation Limited","Ground Floor, Panna Khajuraho Road, Amaudha Kalan, Satna","24.5765501","80.7973901"
"ChIJs1NVcIh_hDkRyjeTOF23UIM","Bharat PetroleumCNG & Petrol Pump , MARUTI FUELS","M.P, Dhawari, Satna","24.556491","80.8145821"
"ChIJ8-FOOgB_hDkRZjcaj-GcGK4","Nazeerabad petrol pump","JR2J+6V5, Satna","24.6005075","80.8322428"
"ChIJA-oAfAB_hDkRIEY2hrumIMw","Satna MP india","JR2J+6V5, Satna","24.6005075","80.8322428"
"ChIJq6qqqup_hDkRpJPc7gKqLdE","Kalyan CNG & Petrol Pump, Panna Road,Satna","in front of Abi Bakery Shop, Near Kalyan Petrol Pump Umri, in front of Abi Bakery Shop, Gali Number 2, Satna","24.6005075","80.8322428"
"ChIJ7_SbhLl4hDkRk5oMI0xh77U","MANGAL FUELS CNGPUMP PETROL AND DIESEL PUMP","4, Dhawari Gali Number 4, Dhawari, Satna","24.5553304","80.8207351"
"ChIJ-cBCok15hDkRNyr0n6nOHGU","SUJAL RETAIL SERVICE","BUS STAND, Satna","24.5038805","80.824561"
"ChIJfTJycgB5hDkRozjzBPjKElo","Bharat Petroleum BPCL","GR8G+4WX, Bandhi Mohar","24.515365","80.82735679999999"
"ChIJwybKK8KJgzkRVIRkB6R3q3s","IndianOil","Khasra No 162, 2/1 & 162/2/2, Unchehara","24.3834899","80.7937146"
"ChIJq356Nu-JgzkRxpBd0jA8RE0","Bharat Petroleum Petrol Pump , PARASMANIYA FILLING STATION","PARASMANIYASATNA SATNA, M.P","24.3827265","80.78589579999999"
"ChIJ0RFsR4GJgzkRTgrrb8VfXIk","IndianOil","Khasra No, 168/1/Ka/1/Ka/1, Unchahara, Bihata","24.3829041","80.7840703"
"ChIJufka4GWJgzkRpPVAKXaX4uk","IndianOil","No 50, Palanpur, Bihata","24.397296","80.78010599999999"
"ChIJwQW6MZaJgzkRRWQHSD2Lq0A","IndianOil","near RHS, Ground Floor SH 11, Unchehara, Badkhar, near RHS, Maihar Road, Satna","24.3606952","80.7802255"
"ChIJ_aCeOwCJgzkR1tqdykk47Ik","Tamrakar filling station Naugawa","CR73+F9W, Palhanpur","24.4137307","80.8034627"
"ChIJE82-6KKKgzkRB6lqmCzaAKs","Indian Oil","Indian Oil, near Tamas River, Lakhanpur","24.2655716","80.79996240000001"
"ChIJqdMS7byKgzkRx8b8G66nmxE","Reliance Petroleum","Ground Floor, Nh 7, Maihar - Rewa Road, Maihar","24.2643945","80.79710399999999"
"ChIJH5MMIhGLgzkRKUV3lTrWmOA","Bharat Petroleum, Petrol Pump -R.M.Excavation","RO NEAR KJS,MAIHAR, SATNA, SATNA","24.266332","80.800905"
"ChIJr3BEr5iLgzkRJ9OuQw-7sYo","Hindustan Petroleum Corporation Limited","Ground Floor, Maihar, Tighra Kalan","24.26031099999999","80.784775"
"ChIJ2Ug4U8SKgzkRINUnYqg_SUo","IndianOil","Khasra No 62, 3/1, Maihar, Katiya Kalan","24.2590836","80.7802121"
"ChIJLTBl8tOLgzkRP6f_1V38Qs0","Zamindar Filling Station","Rewa Road Village Lakhan Pur, Maihar - Rewa Road, Maihar","24.26958219999999","80.8085371"
"ChIJLddpYsv0gzkRRNkMnbps6Xc","IndianOil","Ground Floor, Harnampur - Maihar Road, Ichaul","24.2461453","80.7799982"
"ChIJl_KsWXyLgzkRmw4-NFH6CoE","Bharat Petroleum, Petrol Pump -United Trading Co.","Vijayraghavgarh - Maihar - Satna Road, Satna","24.2600814","80.7598355"
"ChIJVR9K2HOLgzkRnlGx6Y8ipNY","IndianOil","Ground Floor, NH 7, Maihar Katni Road, Maihar","24.259947","80.75703399999999"
"ChIJb6_HFeiLgzkRby_hmVeWD04","BPCL Fuel station","7QW9+QR9, Vijayraghavgarh - Maihar - Satna Road, Bela Nadipur","24.296923","80.76959529999999"
"ChIJKwby04fzgzkRsl9A4gLneMM","Bharat petroleum & cng","5PW8+MGR, Itama","24.1967451","80.7162567"
"ChIJXYM3NDLzgzkR5JkjDoJpQPE","IndianOil","Gram post-itma, Itama","24.192832","80.7116355"
"ChIJqyhnQ0TzgzkRKI3G-XJ43gA","Hindustan Petroleum Corporation Limited","Kh No 880, Kanhwara","24.18635099999999","80.701425"
"ChIJ_UvmL9mLgzkRhz6rCXQWHfc","Shree Gurukripa Filling Station","near Rccpl Plant, Maihar","24.1859858","80.70130999999999"
"ChIJrTpABU71gzkRTlCfnA-tzdE","Shardey Maa filling station BPCL PETROL PUMP","6PMW+R7F, Podi","24.2345559","80.74567820000001"
"ChIJhwrbs_jtgzkRouShDmDjEtg","IndianOil","Ground Floor Ghunwara Katni, NH 7, Rd, Badkhar Nagar, Ghunwara","24.146992","80.631802"
"ChIJi4a6xbPvgzkRKXmi7fK7O4A","Priya Filling Station (Essar Oil Petrolpump)","4JH5+J27, Village – Raigawan, Taluka –Maihar, State","24.129029","80.60753419999999"
"ChIJV4PXUnLugzkRCIIc5gZ_f6M","IndianOil","Khasra No 487, 1/2 494/1/2, Ichaul, Maihar","24.130333","80.6071201"
"ChIJ7yYLyqtZgTkRNpRg-wji-wc","IndianOil","Ground Floor, Pathra","23.9764145","80.4120685"
"ChIJSfs8s6vdgzkRXykRUqTBOpc","Jio Bp","India","23.9829415","80.41409929999999"
"ChIJf5MP-eTdgzkRv7EhxMkjbFk","Agrawal Fuels ( Nayara Energy Ltd. Petrol Pump)","Survey no 274/1 & 274/2 Before Jaiswal Dhaba (Badera mod )Bada kailwara, Bamanmar","23.9480171","80.4010469"
"ChIJ2fK0PY_dgzkRdsS-LFdwtH8","Nayara Energy Petrol Pump - Shri Marutinandan Filling Centre","XCFX+P6X, Punchhi","23.974368","80.448115"
"ChIJu72mIQDdgzkRnLnWhPqM-ZE","DEF FILLING CENTRE","WCQ2+P4J, Kailwara Kalan","23.9393461","80.40026399999999"
"ChIJgcxXKz_fgzkRA_rpzA8A7jk","Hindustan Petroleum Corporation Limited","Ground Floor, Infront of, Police Station, Mirzapur Road, Kuthla, Katni","23.8686833","80.3825833"
"ChIJwSPvvkTfgzkRzcAnzNEzSrI","Bharat Petroleum Pump","Tilriya, Katni","23.8559087","80.3812599"
"ChIJT-DiJl_fgzkRa51KaDpMPaQ","Hindustan Petroleum Corporation Limited","Ground Floor, Mirzapur Road, Nadipar, Katni","23.8454689","80.3834868"
"ChIJtz3dkVffgzkREKWOzrVqOm0","Hindustan Petroleum Corporation Limited","Ground Floor, Katni Nagar, Chaka, Katni","23.88253779999999","80.38827830000001"
"ChIJlYjqZDzfgzkRVCHd8sCGrIU","Gopal Filling Centre ESSAR","V9FM+V85, Kuthla, Katni","23.8746293","80.3833526"
"ChIJAetXzePegzkRU4WpmWzZ3is","IndianOil","Ground Floor, NH 7, Chaka, Badera","23.8934957","80.3943626"
"ChIJNQ2e_MnfgzkRO2nC96ES8HA","IndianOil","Khasra No 126/6, Pureni, Badera","23.86556","80.382491"
"ChIJbXYuoB7fgzkRFGU2kLOpaB8","Bharat Petroleum Petrol Pump , SHANKAR FUELS","VILLAGE-PAHARUAB.G.TILAK WARD KATNI, M.P","23.8678553","80.3701641"
"ChIJi-LZVqffgzkRmudkDWqJVs8","IndianOil","Ground Floor, Maihar Road Kuthla, Tilak Ward, Balgangadhar","23.8603823","80.3815118"
"ChIJO5E-E2HfgzkRHgJVF4dIinM","Hindustan Petroleum Corporation Limited","Ground Floor, Ghatkhirwa","23.880122","80.41529100000001"
"ChIJ1YfoGADfgzkR2h05MK24liM","PUC CENTRE","Indian Oil Petrol Pump, Pologround Industrial Estate, Malti Vanaspati, Indore","23.8552483","80.38185829999999"
"ChIJxcJNr0TfgzkRWRg06jD3J2A","IndianOil","Ground Floor Ward No 2, Birsa Munda, near Panna Tiraha, Kuthla, Katni","23.855115","80.3819784"
"ChIJOwBZJtXfgzkR4Djrh9nnXdY","Shubh Online","Mohan Talkies Road, beside Happy Home, Talkies Road, Katni","23.85791459999999","80.3998459"
"ChIJxxL-aujZgzkR3H556vdvFNg","SHUBH BIO FUELS","V8HW+82Q, Madhya Pradesh State Highway 14, Majhgawan","23.8783356","80.3451067"
"ChIJiSUX4DDZgzkR_u-aI6v2MIM","Hindustan Petroleum Corporation Limited","No 240, 2 Ghangaria, Chanehati","23.90691210000001","80.3491669"
"ChIJgzPTwTnZgzkRAZlVdvT78J0","Paras filling station","W84X+QM, Khadaula","23.90691210000001","80.3491669"
"ChIJs_GQLpDegzkRfNPOBRkCSpo","IndianOil","near Ksk, Ground Floor Maihar Road, near Ksk, Bypass, Chaka, Badera","23.9234677","80.3985718"
"ChIJ_d9wLpDegzkRC2QEu3e1MEc","Willian Oil","India","23.9238779","80.39866459999999"
"ChIJ-5bhjBvfgzkR8acfY9ZcuQ4","IndianOil - SWAGAT","Nh 30/358/100, Rhs, Madanpur","23.9251","80.398"
"ChIJTRrRpIXfgzkRS7OfvAj-CPc","Wayside Restaurant Katni","NH 30 ( Old NH 7, Maihar Road, Katni","23.9251875","80.3980625"
"ChIJOSTCF8NlgTkRWxvZfSR1Yu4","KC Sales And Services JIO BP PETROL PUMP","NH-30, Pipraundh","23.71994429999999","80.3253385"
"ChIJn-GUE5hlgTkR5OKVMqt4lhY","Bharat Petroleum, Sagodi","P836+5V9, Sagodi","23.7038519","80.3119123"
"ChIJlcWtdftkgTkRrXDg3SxPsXc","GATTANI FILLING CENTRE BHARAT PETROLEUM LAKHAPATERI","Lakhapateri National Highway 07 Jabalpur Road, Katni","23.7037221","80.3117323"
"ChIJ0TuRHOplgTkRbwByay-MYdo","IndianOil","National Highway 30, Piprod","23.7267898","80.32450150000001"
"ChIJDSYprXlkgTkRs-9O_3QLOfY","Krishna Motors ESSAR","National Highway 7, Matwari","23.7421674","80.3302073"
"ChIJXxl8heVlgTkRZFyMCCg80OM","Hindustan Petroleum Corporation Limited","Ground Floor, Bahoriband, Naigawan","23.6875869","80.2980232"
"ChIJi9J-cTxlgTkRRFoqCabVxZ8","BPCL SR Tulsiram Teori Old Petrol Pump","M7HV+XHG, National Highway 7, Teori","23.6799426","80.2939613"
"ChIJZwgd1jtlgTkRQarszggIu7U","Hindustan Petroleum Corporation Limited","Ground Floor, Katni Road, Jabalpur","23.6778525","80.29120739999999"
"ChIJFUMbTwBxgTkRcGc3kL6J5Uk","Hindustan Petroleum Corporation Limited","Khasra No 334/1 Katni, Sleemanabad","23.637168","80.24265199999999"
"ChIJwwilCgBxgTkR9K2ilsFcr44","M/S Sanskar Fuels - Hindustan Petroleums","J6PR+7VP, Sleemanabad Road, Sleemanabad","23.6357117","80.2421937"
"ChIJ6WC2om5wgTkRB_9zvUdFcD0","IndianOil","Ground Floor, NH 7, Katni Jabalpur Road, Sleemanabad","23.6296783","80.2482021"
"ChIJs1Dfap9xgTkR82TyMFne4RI","Reliance Petroleum","OPP. BAHUBALI MARBLES,KHASRA NO. 47/P & 48/P TEHSIL BAHORIBAND & SAKEEMNABAD Saleemnabaad","23.6220698","80.2419875"
"ChIJ02HUdV1wgTkRgu9Yy9alCtE","Bharat Petroleum","India","23.6205894","80.2406591"
"ChIJDcW97dxxgTkRpgsmTXd0ET0","Shree Hanuman Petroleum","On NH7 (New NH 30) sleemanabad road Sleemanabad. Jabalpur se 70 kms door katni rewa road me katni se 25 km pehle, Sleemanabad","23.6205241","80.2408001"
"ChIJtZQGerp2gTkRmF_CPD06Rpk","Dhangawan Petrol Pump","H56G+X95, National Highway 44, Amoch","23.5623841","80.1759696"
"ChIJOy-PCPyfgTkRasAn4TNeATY","Bharat petroleum- CNG B.P. Sihora","F33V+M69, Road, Jabalpur","23.454163","80.09311"
"ChIJM5kwzmmggTkR1vw8n6u3Bjc","IndianOil","Ground Floor Jbl Sihora Road, Gosalpur, NH 7, Khinni","23.4147649","80.076309"
"ChIJcU8I09qhgTkR0NCCFQx-VWQ","Tirupati Filling Station","NH-30, Bypass Road, Jabalpur","23.3979323","80.0658337"
"ChIJlfwYMzihgTkRP8IczUDAec4","Bharat Petroleum, Petrol Pump -Roomi Filling Station","Gosalpur","23.3969018","80.0601143"
"ChIJGwv8MQChgTkRS_PDp47Ihx4","Udbhav Filling station","C22W+MVH, Richhi Khurd","23.401708","80.047545"
"ChIJX6U7YamhgTkRq6Z-4lp1klU","IndianOil","India","23.4015899","80.047612"
"ChIJ7TzZSUingTkRoAragv3FC3I","Hindustan Petroleum Corporation Limited","Ground Floor, Kushner, Panagar","23.3278732","80.0147528"
"ChIJue71-HGlgTkRUmXxYcGJjK0","Yunish Petrol Pump","Gandhigram","23.3478146","80.0087738"
"ChIJFTaG3c6hgTkROZQwUdviT9Q","SHREE SHUBH FUEL STATION","NH-30, Tehsil, Gandhigram","23.3533284","80.02649819999999"
"ChIJER9REBulgTkRFnSyLixvjjg","Hindustan Petroleum Corporation Limited","Khasra No 61, NH 30, Jabalpur Nagpur Highway, Barjhai, Jabalpur","23.3010679","79.98867899999999"
"ChIJV4gmOROlgTkRekUd_mqijH0","Petrol Pump","7XRW+P96, Panagar","23.2917881","79.99589879999999"
"ChIJtURRLAClgTkRmalGb7SkV70","Ssd petroleum","7XRW+CG7, Panagar","23.2910303","79.996282"
"ChIJ0S0dW8WlgTkROPGrPyVUSmI","H. S. VYAS PETROLEUM","7XWM+J8W, Panagar","23.296624","79.9833149"
"ChIJ47at5M6lgTkRX7FCYjexW3M","Hindustan Petroleum Corporation Limited","Ground Floor, NH 30, Deorikalan, Panagar","23.2959199","79.98102670000002"
"ChIJ8yUquT6hgTkRKxttJ9v7tJc","Nayara Energy Petrol Pump - Indus Petroleum","Gosalpur","23.3682787","80.0355113"
"ChIJeRy_l8-vgTkRvYeAef_fqjM","IndianOil","Ground Floor, Amkhera Road, Adhartal, Jabalpur","23.21201899999999","79.93249449999999"
"ChIJK-aED6GvgTkRLyk3mGYsUdo","IndianOil","near Agriculture College Road, Suhagi","23.2086719","79.95340929999999"
"ChIJ3YjBbs05DjkRwK9oRbLsuqU","IndianOil","Ground Floor, NH 7, Jbl Katni Bypass, Adhartal, Hathna","23.2404302","79.9549826"
"ChIJGTudFjCvgTkRJSKaEhfq6rI","Indu Petroleum","Housing Board Housing Board, Jabalpur","23.2363978","79.95955719999999"
"ChIJ72_DCNevgTkRyxK_l4oD2fU","Muthye Petroleum","Housing Board, Maharajpur, Jabalpur","23.2364573","79.9627672"
"ChIJY2GhknevgTkRw5_8hn-dB8g","IndianOil","Ground Floor, Transport Nagar, Adhartal, Maharajpur, Jabalpur","23.238171","79.96527999999999"
"ChIJIfT_4HmvgTkRyEMQr8cKstc","Bharat Petrolium Petrol Pump CNG Pump","Jabalpur, NH-7, Kanti Road, Jabalpur, Jabalpur","23.239378","79.9687127"
"ChIJewLG9ayvgTkRxNOX9NG2d3w","Hindustan Petroleum Corporation Limited","Khasra No 56, Katni Road, Karonda Nala, Pipariya","23.2423253","79.97110359999999"
"ChIJ6zPqRD2vgTkRRIHtTTHgAXg","Bharat Petroleum, Petrol Pump -Sunderdas Gianchand","MAHARAJPUR,JABALPUR, Jabalpur","23.2322488","79.9651657"
"ChIJ3-eDX3yvgTkRSyery8i62sg","IndianOil","Ground Floor, NH 7, Jbl Sihora Road, Adhartal, Imaliya","23.2470796","79.9722024"
"ChIJY5cMEWqvgTkRJmyVr4ubNSY","Hindustan Petroleum Corporation Limited","Ground Floor, Panagar, Khajri","23.2445009","79.92611649999999"
"ChIJMXsUHiuvgTkRuWmWtHx-7x0","Bharat Petroleum, Petrol Pump -Balaji Highway Fuels","SIMARIA,JABALPUR, Jabalpur","23.2247378","79.9607893"
"ChIJJ4GukMDXeDkR3CBhxShH9c8","IndianOil","NH 7, Katni Road, Pariyat, Jabalpur","23.2571615","79.97431610000001"
"ChIJP3ikkuSvgTkR-O8P0xDSuVY","SAIF FUEL","India","23.2343263","79.92620079999999"
"ChIJjSTk7dSlgTkRRZyjS2ah85U","Rajendra Singh Petroleum Bharat Petroleum","7X97+P79, Unnamed Road","23.2692919","79.9632407"
"ChIJH-rR9JGlgTkReBjp9w96Lck","IndianOil","Ground Floor Jabalpur Sihora Road, Near Panagar, NH 7, Agasod","23.264998","79.98065799999999"
"ChIJoYVLEYmvgTkRU5l0Mph7Fx0","Hindustan Petroleum Corporation Limited","PH No 01, KH No 156/5/1, 156/3KHA, 156/3/GA, Adhartal, Jabalpur","23.2059749","79.95244029999999"
"ChIJD8HbfbKvgTkRImanvDcrEMk","Om Petroleum","Adhartal, Jabalpur","23.2058857","79.9525357"
"ChIJ4SISmnmlgTkRiMIsdnAyM-w","IndianOil","Ground Floor, Chauraha, Baroda","23.282815","79.92045829999999"
"ChIJ9aetoQKygTkRA3TAISbHOAc","Anil Transport Company","National Highway 12, Jabalpur","23.155177","79.847076"
"ChIJ0c5fU1mxgTkRMBGvw28Sz94","Anil Motorsolution Pvt Ltd, Ashok Leyland","Bhedaghat, Tewar","23.1545933","79.8464846"
"ChIJf5U7CkCxgTkRHRIaMl8rOJU","Bharat Petroleum, Petrol Pump -Tiwari Petroleum","SIHODA, JABALPUR, Jabalpur","23.190399","79.86985430000001"
"ChIJN6zaunrPgzkRh6QeE-LS-1I","IndianOil","Ground Floor Raigwan, Panagar","23.1960764","79.8737958"
"ChIJ4azVa3CxgTkR9QNSMHQUPAo","Hindustan Petroleum Corporation Limited","Ground Floor, NH 7, Bypass Road, Kugawan","23.16315580000001","79.8650256"
"ChIJn8Ad7N2xgTkRFklO8mdMq8w","Hindustan Petroleum Corporation Limited","Ground Floor Raigwan, near Patan Bypass, Jabalpur","23.2018189","79.8858297"
"ChIJ5dr6GISxgTkRQ3n1Wgl4ixM","K.G.N.welding Wark","Sukha","23.2103514","79.8651083"
"ChIJdePF33mxgTkRggabFx1XNzU","Bharat Petroleum, Petrol Pump -Bhanu Petroleum Company","PATAN ROAD, KARMETA,JABALP, Karmeta, Jabalpur","23.2001087","79.8907126"
"ChIJRTshymCxgTkRWx0nJTtwI5A","Reliance - Jio BP Petrol pump","India","23.1545221","79.8536257"
"ChIJOdXVEwCxgTkRU6w7uRBLWmU","Puc Fastag available","5V8W+59P, Janki Nagar, Jabalpur","23.1654602","79.89595469999999"
"ChIJP-ifOwCxgTkR8OLmURmH4Bo","Anil Transport Co - Petrol/DieselCNG Pump","5R4W+3JP, Tewar","23.15490299999999","79.84695099999999"
"ChIJFU_myIGxgTkRiyf2Vufribs","Bharat Petroleum, Petrol Pump -Anil Transport Company","Tripursundari, Tirpur Sundri Temple Road, Jabalpur","23.155913","79.8434054"
"ChIJhWap9OqzgTkRT8eqveDI6E4","Reliance Petroleum","Ground Floor, Narsinghpur","23.151122","79.884181"
"ChIJhcpweySxgTkRLUEtyNfPaxw","Hindustan Petroleum Corporation Limited","Ground Floor, Vijay Nagar, Jabalpur","23.1824934","79.9048801"
"ChIJK_cfD8WxgTkRR2n48hu_5Bw","Sanskardhaani gas agency","5WQ4+MPV, Vijay Nagar Road, Kanchan Vihar, Vijay Nagar, Jabalpur","23.1892369","79.9068065"
"ChIJRRD7-9yxgTkRQOs-enSh10A","Hindustan Petroleum Corporation Limited","154/64, KH No 154/63, MR-4 Road, Rameshwaram, Laxmipur, Jabalpur","23.180592","79.91038499999999"
"ChIJa1XuOACxgTkRuL3StajIla4","PUC Fastag available","489, MR-4 Rd, Ahinsa Chowk, Vijay Nagar, Jabalpur","23.180528","79.910415"
"ChIJLf7EEP-xgTkRKGKFRbs8ISI","IndianOil","Ground Floor, MR-4 Road, Vijay Nagar, Agasod","23.1796193","79.91064820000001"
"ChIJ0wCKRACxgTkRHOBmmTDRZEQ","Plot","6W24+9G7, Shri Ram College Road, Dixit Colony, Rajeev Gandhi Nagar, Karmeta, Jabalpur","23.2009224","79.90628339999999"
"ChIJjZLqyiuxgTkRJ8-3ed8--SU","Bharat Petroleum, Petrol Pump -Agrawal Bandhu Petroleum","KARMETA ,KATANGI ROAD, JAB, Jabalpur","23.2061191","79.9036699"
"ChIJW-0EYo6ygTkRIIDvTxFF6tE","Reliance Petroleum","Ground Floor, Nh 7, Jabalpur - Nagpur Road, Tilwara","23.0966279","79.9034585"
"ChIJKz78llWygTkRqMEPkGJbAN4","Hindustan Petroleum Corporation Limited","Ground Floor, NH 7, Seoni Road, Jabalpur","23.1051112","79.8781549"
"ChIJORYHRkazgTkRFifpv5lhQEk","Bharat Petroleum, Petrol Pump -G.P Petroleum","NH-7 JABALPUR, MANEGAON, J, Jabalpur","23.0735892","79.9138889"
"ChIJH6WZ36WygTkRFh6N4UFAo54","IndianOil","Ground Floor Manegaon, NH 7, Bargi","23.0723867","79.91344"
"ChIJURwwio6ygTkRzPUiDXH6quo","Jio Bp","India","23.0967839","79.90357209999999"
"ChIJkx5PevSygTkRDkbH66XZEQg","Hindustan Petroleum Corporation Limited","Ground Floor, NH 7, Ghana","23.099431","79.8935223"
"ChIJ9TOJkPmzgTkR7BJA__ZlmZo","Proposed Reliance Petroleum (Sheghal)","3W55+GXH, National Highway 34, Khursi","23.0588138","79.9099766"
"ChIJgR1iWL6tgTkRTUAmZFlaIyo","Medical","245, Unao Road, Datia","23.0990341","79.9407476"
"ChIJY3q29NVOgDkRJCB04wfVmkA","IndianOil","Ground Floor, Sukri, NH 7, Ganjipura, Jabalpur","22.912817","79.834068"
"ChIJ2bmBZohHgDkRBA3hVT2GYeM","IndianOil","near Harbal gardan, Khasra No 60/4/2 Banjari, NH 24, near Harbal gardan, Lakhnadone, Seoni","22.8160705","79.7545181"
"ChIJkUhkTHpHgDkRrvOeui1KtLI","Bharat Petroleum","India","22.8049836","79.74860509999999"
"ChIJR-EGS0k-gDkRbCGyEygFXuQ","IndianOil","Ground Floor, Makarjhir, Lakhnadon,Baigapiparia, Makarjhir","22.6968001","79.68780009999999"
"ChIJ_dtFMBI_gDkRlep7EhggJOk","Sai Petroleum","National Highway 44, Mohgaon","22.7302545","79.71273579999999"
"ChIJVQyWmnE_gDkRrgoAed7cx8o","Hindustan Petroleum Corporation Limited","Ground Floor, near Sai Industry, NH 7, Main Road, Lakhnadon, Mohgaon","22.730236","79.71301009999999"
"ChIJvzpZK2cXgDkR17AQ75YcEcE","IndianOil","Ground Floor, Sajpani Lakhnadon, Seoni, Jabalpur - Nagpur Road, Bamhanwada","22.62706","79.64005"
"ChIJ1aq_s-wWgDkRNEwWDDGxF8U","IndianOil","Ground Floor Khursipar, Bamhanwada","22.5998001","79.6273001"
"ChIJv80MfeQWgDkRCmCCG6Q3p7c","Sohaney Brothers Petrol Pump, lakhnadon","JJ26+78J, National Highway 7, Lakhnadon","22.60060769999999","79.6114612"
"ChIJ4bdmMYgXgDkRdFUpr6pYjFo","Hindustan Petroleum Corporation Limited","Ground Floor, Lakhnadon","22.60478269999999","79.6069244"
"ChIJVaKWO44VgDkR7w29d_jaMD8","Hindustan Petroleum Corporation Limited","Khasra No 197/3, Mandla, Lakhnadon, Sarasdol","22.599721","79.653095"
"ChIJ_ZrnXtEXgDkRdi4-opT5tU8","Jai Jinendra City Fuels LIMITED","JJ24+9VC, Lakhnadon","22.5997326","79.60593949999999"
"ChIJ0f3gF3gXgDkRyLf0HIBW8YY","IndianOil","Seoni, Kh No 442 Lakhanadone,Bamhanwada","22.60297500000001","79.596122"
"ChIJJWH2ZgAVgDkRFs6rwl7diPM","Hindustan Petroleum Corporation Limited","Seoni, Ground Floor, Jabalpur lakhnadon Highway Lakhnadon, Pondi Raiyat","22.653312","79.664237"
"ChIJa70EfpIRgDkR255zcVgHfho","Hindustan Petroleum Corporation Limited","Ground Floor, Lakhnadon, Ganeshganj","22.501897","79.5793679"
"ChIJhdWzR8wHgDkRI10DoeHec-g","Hindustan Petroleum Corporation Limited","Ground Floor, Randhir Nagar, Suwakheda, Chhapara, Sadak Seoni","22.3240834","79.5455514"
"ChIJ9VkiHlYFgDkRbqm8EkINXcw","R D FUEL STATION","NH 44, Chhapara","22.3628061","79.53861309999999"
"ChIJj5iefwAHgDkR88jkntqG99E","Haryana rajasthan mewat khusbo dhaba","8G2W+JPW, Gorakhpurkalan","22.3015843","79.54679010000001"
"ChIJD0ZwIgoIgDkRRDVCZNVLFbY","HP Petrol Pump Paras Petroleum","Sua Kheda, Tehsil Chhapara Dist Shivni Randheer Nagar","22.2996632","79.5478767"
"ChIJAzOve_AHgDkRFbTcm55meA0","IndianOil","Ground Floor, Laknadon Seoni Road NH 7, Bandol, Gorakhpur","22.2907115","79.54801599999999"
"ChIJzXFqNm2vKjoRHqNWakgdN9g","Bharat Petroleum","5G3Q+587, Nagjhan, National Highway 44, Seoni","22.1529","79.53829999999999"
"ChIJqVOZ4T6vKjoRBvmAqB2MBDw","BPCL-Rajesh pal singh-CNG/Petrol/Diesel","Sonadongri, National Highway 44, Seoni","22.1669472","79.5352016"
"ChIJe75SATOvKjoRvWwGkf4yIM4","Reliance Jio BP Petrol Pump Maloo Petroleum","44, National Highway, Nagjhar","22.1514375","79.5359375"
"ChIJEU4wToyvKjoRWwrpJ22cS48","IndianOil","Ground Floor, Seoni Nagpur, New Bypass, Nagjhar","22.1745118","79.5345421"
"ChIJXTL4rhmvKjoRgpIhMK9Wvyw","Hindustan Petroleum Corporation Limited","Ground Floor, near Maa Durga Dharam Kanta, Jabalpur Road, Seoni","22.1233934","79.54207629999999"
"ChIJ6Z_8hnOvKjoRhqC-lM9t7yg","MAHAVEER PETROLEUM IOCL","In front of JCB Showroom jabalpur road, near sonadongri, NH 44, old nh-7, Seoni","22.1859309","79.5346661"
"ChIJwT-vK8OvKjoR5Oh2ywi7Wdw","L.N.DIESELS Petrol Pump","Lugharwara","22.1140634","79.54278149999999"
"ChIJ8SeOfeuvKjoRPP6z-2vx6_Y","Lugharwara Petrol Pump","4G6W+94H, National Highway 44, Lugharwara","22.111864","79.5446286"
"ChIJ-Rc5-zuwKjoRaHWZIcpZkSY","Bharat Petroleum","NH-7, Chhindwara Seoni Road, Seoni","22.0745897","79.5314589"
"ChIJkVswI2GxKjoRUUdtDYng5fs","Hindustan Petroleum Corporation Limited","Ground Floor, Katangi Road, Seoni","22.0641701","79.5584401"
"ChIJOeytZhCxKjoRK8Ip9O5anqQ","Bharat Petroleum, Petrol Pump -Shree Fuels","MANGLIPETH, SEONI, Palari, Seoni","22.071999","79.5428529"
"ChIJu8c2XzmwKjoRliHlVbcJsKo","shree fuels","3GFJ+MFF, Chhindwara - Seoni Road, Ganj Area, Seoni","22.0741855","79.5311605"
"ChIJTUeleQCxKjoRIzS7KclgQ6Y","Ex Army Petroleum","3GF9+WF, Fareda","22.07468979999999","79.5187519"
"ChIJJzezNNC3KjoRuZXWA368oEk","Umashankar petrolum Bharat petrolpump","WG7F+CGP, Mohgaon","21.9136404","79.5238124"
"ChIJh51iQgC3KjoR3uNIDiT3nSM","Golden garage RK tyre workshop","WG7F+JR5, Jabalpur - Nagpur Road, Mohgaon","21.9140088","79.5246035"
"ChIJW1HzHQC3KjoRKEtKZFEQwm4","Hindustan Petroleum Corporation Limited","Ground Floor, Mohgaon, Suktara","21.9315176","79.5227371"
"ChIJKdEciuzNKjoR1GYcaoHZse8","IndianOil","Ground Floor, NH 7, Jabalpur - Nagpur Road, Pachdhar","21.7264025","79.4506967"
"ChIJjzvRaInNKjoR9tg0a11Jycg","IndianOil","near LHS On, Ground Floor NH 7, near LHS On, Jabalpur - Nagpur Road, Barapatthar, Khawasa","21.7134827","79.44158589999999"
"ChIJOdJkYQDNKjoRhI0Tyh6fi7E","HP petrol puml","PC7R+G83, Khawasa","21.713759","79.4407902"
"ChIJpa0OQInNKjoRVAjh9arAbhk","Hindustan Petroleum Corporation Limited","Ground Floor, Khawasa","21.7135214","79.4408488"
"ChIJG7WzXwDTKjoRqo-ve9hcjuA","Main brother fules Khawasa","PC3R+9WJ, Khawasa","21.7034654","79.4422593"
"ChIJ7-B2zbor1TsRTSm4jH7vg4c","Bharat Petroleum, Petrol Pump -Deolapar Filling Station","KATTA NH 7, NAGPUR, NAGPUR","21.566612","79.3604154"
"ChIJcyjlp2vT1DsRJcb-D5T5IXU","IndianOil","Ground Floor, Ramtek","21.5356087","79.3436625"
"ChIJDXUvwLcr1TsRaEAsubXtBeI","Hindustan Petroleum Corporation Limited","near Bank of India, Ground Floor NH 44, Sitapur, near Bank of India, Pauni","21.5297711","79.34155299999999"
"ChIJ2WlOozzQ1DsR9Zr9V4nZYP0","Hindustan Petroleum Corporation Limited","Ground Floor, NH 44, Dumari Kala","21.331732","79.227871"
"ChIJI9wx1YHQ1DsR1ohCd7RT6Sg","Petrol Pump","9682+R3J, Nagpur","21.3670783","79.20012559999999"
"ChIJTXPcowPR1DsR2DsmA0t7IhI","Bharat Petroleum, Petrol Pump -BP Amdi","AMDI, NH-7, NAGPUR, NAGPUR","21.3755855","79.24904509999999"
"ChIJz-fpUtfR1DsRtwFxdPdb4cU","IndianOil","Ground Floor Dumari, Parseon, Dahegaon ( joshi )","21.3298992","79.2254067"
"ChIJnTVyNADR1DsRdTQbNbe7ueE","Reliance JIOBP","Dumari Kala","21.3461408","79.2352294"
"ChIJM61KTQDP1DsRhvmPrTqRVSA","Nayara S K Petroleum","867H+C8X, Kerdi","21.3135833","79.2277222"
"ChIJwQrlSf7P1DsRy2YH4XfUG3s","Bharat Petroleum Petrol Pump , SHRI BALAJI FILLING STATION","SURVEY 224 NO19, AT MOUZA, NANADGAONTAL, PARSEONI","21.312185","79.22892499999999"
"ChIJs0cuRXTR1DsRz2ZhJq2OnA8","IndianOil","Ground Floor, Amadi","21.3594301","79.2419201"
"ChIJA_DRkVnR1DsRhNYHmxoSAP4","IndianOil","Ph No 21, Survey No 579/2 Nayakund, Parseoni, Dahegaon ( joshi )","21.3669165","79.2012388"
"ChIJfQ7ZQSHP1DsRypSy-oIhnGU","Bharat Petroleum Petrol Pump","National Highway 44, Ward No 2, Kandri","21.2445899","79.2406525"
"ChIJfZCA3b3P1DsRDj1PjNV-Pzs","Maha E Seva Kendra","66HQ+V6W, Kanhan","21.229727","79.2380664"
"ChIJr7nJvmrP1DsRl9g6tb8wBAs","IndianOil","Ph No 15, Survey No 202/2B Kanhan, Parshivni","21.2334936","79.2394237"
"ChIJmbroRv3L1DsRemsmi0LzI78","HP PETROL PUMP - DHANRAJ AUTO FILLING STATION","HP Petrol Pump Khasra NO 123 & 124, PH NO 50 Neelaj, Taluka Parseoni, Nagpur","21.217946","79.291399"
"ChIJFzIkU5XP1DsRElUZ8iUUUqk","Rudra Transport","Kadari, Road, Nagardhan","21.2525856","79.24416819999999"
"ChIJ3xMGEqLJ1DsRm05U7wrZrXc","Hindustan Petroleum Corporation Limited","Ground Floor, NH 7, Outer Ring Road, Neri","21.186148","79.265717"
"ChIJ80zjpnfL1DsRZHHxGSH295Q","Hindustan Petroleum Corporation Limited","Ph No 50, Nilakanta, Parseoni, Khasra No, 123 & 124, Nilaj","21.2184058","79.29887120000001"
"ChIJOx80J7TJ1DsR0GTNLyjzANQ","Bharat Petroleum Petrol Pump , TAJ PETROLEUM","AJANI - GUMTHALA ROADKH NO. 166, Nagpur","21.203319","79.218721"
"ChIJC-nvKuXH1DsRqy258EturrE","Highway Auto Services HPCL Petrol Pump","45QR+XH2, Bhandara Road, Kapsi bk","21.1398868","79.1914011"
"ChIJazGqXQjI1DsR_xqEArt0Tfg","Hindustan Petroleum Corporation Limited","Ground Floor, NH 6, Bhandara Road, Nagpur","21.1420696","79.2022204"
"ChIJT9cS5STI1DsRZj7cfPXNUnA","IndianOil","Ground Floor, Bhandara Road, Mahalgaon","21.1403219","79.2304037"
"ChIJDbo9rP_G1DsRq36QMiZ9Qs0","IndianOil","Survey No 770, 74 Hissa No 87/1, Kalamna Market Road, Nagpur","21.1592999","79.1447481"
"ChIJsTtE_xLH1DsRIuiyH0CPyvo","IndianOil","Ground Floor, Kadbi Chowk, East Wardhaman Nagar, Nagpur","21.15127799999999","79.141075"
"ChIJ8x3Rl9XH1DsRT11Hm3DvXQA","Hindustan Petroleum Corporation Limited","Ground Floor, Bhandara Road, Kapsi, Nagpur","21.1397032","79.1914223"
"ChIJM0IFW-PH1DsRTfTwWdwnMt8","BPCL Mehta petrol Pump","Nagpur","21.1411221","79.19492149999999"
"ChIJr0bLXfTH1DsRRIVADXz4rso","IndianOil","Ground Floor, Kamptee - Kapsi Road, G T C, Kamptee","21.1405714","79.1961276"
"ChIJm0e3Oy7H1DsRUp8sOnwQprQ","DIVINE FUELS","Bhandara Road, Kapsi, BU, Nagpur","21.1403013","79.1959597"
"ChIJ28H65OrH1DsR4K3Mila4j4Q","Mahalaxmi Auto Services BPCL Pump","Kh 54/1, Maa Umiya Transport City, Along Hyd Jabalpur Highway Kapsi BUJURg","21.1361782","79.18625"
"ChIJ6QGljNjH1DsRJd1wIihRknw","SHIV SHAKTI PETROLEUM (BPCL)","AT POST DHARGAON, TAL, NH-44, Outer Ring Road, KAMPTEE","21.1597725","79.1984197"
"ChIJK_xp69jH1DsR3uwK_8X1Hyw","Bharat Petroleum","India","21.1598142","79.1984957"
"ChIJOSTjHZTH1DsRVe0jddF0iqM","Bombay Automobiles","MAHALGAON, Kamptee - Kapsi Road, Nagpur","21.1454905","79.1717377"
"ChIJk47cDJLH1DsReXiozyo38r0","IndianOil","Ground Floor, near Pardi Naka, Bhandara Road, Kapsi kh","21.1445498","79.17201299999999"
"ChIJJZOdnL3H1DsRuu42fSPkEHQ","Petrol Pump Sushil Sharma","Steel And Cooperative Society, 46, Midc, Umiya, Nagpur","21.1457104","79.1711751"
"ChIJ-VM3wSTH1DsRBJ2onkDo_yI","APANA FUEL","Bus Stand, near Hanuman Mandir, Road, Pardi, Nagpur","21.1488096","79.1657984"
"ChIJpTOYYQvH1DsR_7cGcL6Sq0o","Hindustan Petroleum Corporation Limited","Ground Floor, NH 53, Bhandara Road, Pardi, Kapsi kh","21.1491538","79.16311309999999"
"ChIJhT_2EQDH1DsRV1lme-qfbiw","Hindustan Petroleum Corporation Limited","Ground Floor, near Rohit Anaz Bhandar, Punapur Road, Pardi, Nagpur","21.15181879999999","79.1629969"
"ChIJByoqUgDH1DsR1Wy-kKPwVlY","Pal automobiles","45V6+V43, Pardi, Nagpur","21.1446424","79.16030049999999"
"ChIJF0ixLgC51DsRP4ZMxg-F-Ns","Hindustan Petroleum Corporation Limited","Ground Floor, near Symbiosis, Shivasankar Road, Nagpur","21.1249397","79.16438529999999"
"ChIJx-NkWCO_1DsR0p-HgFbLe2E","IndianOil","B Plot No, Survey No 66/A/1 & 66, 219 & 222, Besa - Manish Nagar Road, Nagpur","21.0859145","79.09300929999999"
"ChIJPWsk0Fy-1DsRwG2Z5qDjPt0","Bharat petroleum Amin Khapri","Chandrapur - Nagpur Road, Nagpur","21.0523421","79.0537974"
"ChIJv_0lRW--1DsR0iI23GB8UtM","IndianOil","No 119, Central Avenue, Amravati Road, Nagpur","21.041848","79.0518101"
"ChIJV-w3CMm51DsRa8vFI1-aylo","Bharat petroleum cng station","3456+7J2, Kolkata - Mumbai Highway, Matkazari","21.0577529","79.1126917"
"ChIJh7wGdwC51DsRe-V-TfwXcFo","Shruti and sakore petroleum","3457+F3V, Nagpur","21.0587476","79.1126819"
"ChIJCygySPnpwjsRCbTmzTk2R_8","IndianOil","Ground Floor, Loni Kalbhor, NH 9, Solapur Road, Pune","21.0679388","79.0965574"
"ChIJz2saGQC_1DsRVnVzwRtmiN0","Barapatre’s Indian Oil petrol pump","33CW+P26, Manewada Besa Ghogli Road, Saubhagya Nagar, Nagpur","21.0719166","79.09502959999999"
"ChIJZYfw6Jy_1DsR0S3-qSaVkEk","NINAVE CL1","Outer Ring Road, Nagpur","21.0342108","79.0769078"
"ChIJN_mZdgC_1DsRwB4m-_Tb0ZU","Refilling station of clean hydrogen","332C+64X, Nagpur","21.049651","79.069372"
"ChIJJ1a7OgC_1DsRxSdTX2744yw","Bharat petrol pump, Asian petroleum","33F9+76R, Chatrapati Shivaji Maharaj Road, Somalwada, Nagpur","21.0732297","79.0680181"
"ChIJpSQIJT2_1DsR-7w5y_inFJ8","Hindustan Petroleum Corporation Limited","Ground Floor, Manewada - Besa Road, Besa, Nagpur","21.0900461","79.09637529999999"
"ChIJtxSlBgC_1DsRrJD3XBw72Wg","Cztel office","Raghav Apartment, Beltarodi Road, Harihar Nagar, Besa, Nagpur","21.0871203","79.0808599"
"ChIJOzprbrS_1DsRe7a24RDUc_0","Hindustan Petroleum Corporation Limited","Khasra No 157/2, Chinchbhavan, near Narayana School, Chandrapur - Nagpur Road, Khapri","21.0631567","79.05759239999999"
"ChIJr8LrmFq_1DsR0k_mDvrhsCk","IndianOil","Ground Floor, Somalwada, Nagpur","21.08072019999999","79.0696699"
"ChIJq8lfW1-51DsRvJ5ubPnqTvo","Bharat Petroleum, Petrol Pump -Om Satyam Petroleum","Hudkeshwar Road, Hudkeshwar","21.0850054","79.12501069999999"
"ChIJEdxgwha_1DsRRqg6UYh9dUU","MODERN FUEL LINKS","23X3+92M, National Highway 44, nipor","21.04846749999999","79.0525613"
"ChIJtWiDzri_1DsRuw3ktubLSqs","Petrol Pump","tuli petrol pump, Khapri","21.042637","79.05176159999999"
"ChIJg1A-h_WX1DsRXzG4X2U7H9Q","Hindustan Petroleum Corporation Limited","Ground Floor, opposite Rachana Hospital, Butibori","20.927601","78.99998099999999"
"ChIJA4zIJh-Y1DsRwxPl3rz368U","IndianOil","Ground Floor, Dudhala, opposite Bus Stand, Nagpur","20.92260199999999","78.999811"
"ChIJqcRMpci91DsRot6-13ELzZ4","Bharat Petroleum, Petrol Pump -Anmol Transport","7, Mumbai - Nagpur Highway, Ram Nagar, Nagpur","20.9719585","79.02311569999999"
"ChIJj6xV1faX1DsRYPun6k620uc","IndianOil","No 56/B, Tapovan Complex Wardha Road, Khamla, Somalwada, Nagpur","20.93376259999999","79.0053629"
"ChIJ6fJPCXq91DsR-zf31bg2xeU","Bharat Petroleum, Petrol Pump -Industrial Explosives Pvt. Ltd.","DONGARGAON, Wardha Road, NAGP","20.9908465","79.0316067"
"ChIJcQdhRQCX1DsRWRXxZL35mts","Nayara Energy Retail Outlet","P-23, Satgaon, Bori","20.9285107","79.00068189999999"
"ChIJM4b5Sq6X1DsRMwKZ5yOYvpI","AUK Hotels Pvt ltd","Plot no p23, MIDC, Butibori","20.9284148","79.0005215"
"ChIJxaCJHYqX1DsRiSrUgnIkVI4","IndianOil","Plot No 72 MIDC, Narendra Nagar, Butibori","20.927977","78.9909776"
"ChIJEZwUosOe1DsRmS9fp-LmsEc","Hindustan Petroleum Corporation Limited","Ground Floor, Nagpur Hyderabad Road, NH 7, Chandrapur - Nagpur Road, Sonegaon","20.8118629","78.9593675"
"ChIJt5pUdlOf1DsR1FKWafh2HWo","Borkhedi Fuels","National Highway 44, Nagpur","20.8283366","78.9597963"
"ChIJze8NW36Z1DsRR4lLXGAC_7U","BCIC BPCL Petrol Pump","Aurangabad - Nagpur Road, Dhawalpeth","20.8721353","78.9310813"
"ChIJ66IwyWyb1DsRt8b06jIT10o","Suraj Petroleum","VW89+8JC, National Highway 361","20.8658146","78.9190107"
"ChIJAUwKt3Kf1DsR1Ucm1pWpEMo","VIVANN PETROLEUM- BPCL PUMP","QW3R+Q7, Barbadi","20.7543878","78.9407043"
"ChIJVanPDRKe1DsR3GamMkAE75M","Bharat Petroleum","India","20.7543898","78.9407031"
"ChIJdyNN73if1DsRq9ff-Cjb22w","Hindustan Petroleum Corporation Limited","near Kondhali Nagpur Chandrapur Highway, Gat No 223, A/PA, NH 44 Kandhali, near Kondhali Nagpur Chandrapur Highway, Hydrabad Hwy, Samudrapur","20.744678","78.935609"
"ChIJq2ySSgCf1DsRwZiAp9U8vnU","Jio BP Petrol Pump","QW7W+W5, Barbadi","20.7648419","78.9454398"
"ChIJeVw0OACf1DsRonIY54jVKos","Jio BP","QW7W+W5, Barbadi","20.7648419","78.9454978"
"ChIJFZnPUPGe1DsRCpU5olIhrHg","IndianOil","Ground Floor, NH 7, Sonegaon, Dudhala","20.7901065","78.9575715"
"ChIJBVnSrBtj0zsRjrM1jdoZAas","BP RAMPUR, Bharat Petroleum GHAR (COCO) Retail Outlet","NH44, Srinagar - Kanyakumari Highway, Rampur","20.7109929","78.9263024"
"ChIJOwP-IwJk0zsRq6BZIpg_Hnw","Bharat Petroleum","India","20.6344153","78.9270758"
"ChIJUQy5RgBl0zsRsGNeAAnLVoU","DNR FUEL POINT BPCL","JWMG+PW6, Dahegaon","20.6342872","78.9272806"
"ChIJYcVyswNk0zsR9U8_xrjjA20","Hindustan Petroleum Corporation Limited","Ground Floor, near Jambu Square, NH 7, Nagpur Hyderabad Road, Jamb","20.632446","78.9259837"
"ChIJ9TvoActj0zsR_SuiNClgSMg","IndianOil","Ground Floor Ajada, Samudrapur","20.6616085","78.924752"
"ChIJ-VIfhZ9m0zsRYQEd5SQ5L1U","Hindustan Petroleum Corporation Limited","Survey No 352, Plot No 01, Samudrapur","20.6271621","78.9262931"
"ChIJ8xjWB7hm0zsR4xPv_g34raw","Essar Petrol Pump","JXJ3+G8X","20.6313588","78.953346"
"ChIJ89s7qaJn0zsRh3ST2A9oUpU","Bharat Petroleum, Petrol Pump -S R Automobiles","NH 7 JAMB,WARDHA, WARDHA","20.616323","78.9316992"
"ChIJI446WkVl0zsRfdSmwDS-gG0","Petrol Pump","HV32+M23, Sindhi Colony, Hinganghat","20.55414","78.8500423"
"ChIJQzCcmghw0zsRigApCV6mU04","Bharat Petroleum Petrol Pump","SH-243, Pandharkawda Road, Jawade, Hinganghat","20.5363649","78.8263862"
"ChIJdanB0BJl0zsR_EM78GppD1g","Jio-bp","Survey No 27, NH 7, Hyderabad Rd, Hinganghat","20.5669404","78.8701751"
"ChIJA8Ln_Kll0zsRLgtlBrhYX6I","IndianOil","Santlock No 11005 Nandori Chowk, Hinganghat, Wela","20.550785","78.848342"
"ChIJVTEZJCll0zsRTSTa-keZ7UA","Hindustan Petroleum Corporation Limited","Ground Floor, Nandori Road, Hinganghat","20.5522105","78.8571968"
"ChIJLb0MN_xv0zsRI3h2Lhs023c","Hindustan Petroleum Corporation Limited","near KVR, Ground Floor Satephal, Satefal, near KVR, Nagri Road, Hinganghat","20.5339721","78.8417101"
"ChIJM8kTGgBl0zsRidNMNi8Hhk4","K. B. Board mill colony","HV8F+76J, Rimdoh","20.5653574","78.8731063"
"ChIJn9BZhWtl0zsRw1nOX0F8GMg","M/s. Jai Bhole Petroleum","in front of vittal kamat, mauja, Ajanti","20.5729198","78.8819335"
"ChIJW52bJ9Jl0zsR4ibU3h7G5lo","IndianOil","Gut No 232/1B Ajanti, Hinganghat","20.5742305","78.88269079999999"
"ChIJ5--Vyl1x0zsRqS8OSgT9zrw","Essar Petrol Pump,M/s Maa Durga Petroleum","FQJG+JXW, Daroda, Hinganghat","20.4816206","78.777464"
"ChIJj4vgD2lx0zsR-vfDQBb34hg","Nayara Petrol Pump - Maa Durga Petroleum","NH-07, At post, tah, Daroda","20.4809483","78.7773069"
"ChIJb-a2f6Fx0zsRFCTSt7bxHoQ","Kanishk petrol Pump, (BPCL)","On NH 44, Ghatsavli","20.4886863","78.7812415"
"ChIJp-ZDs8Bx0zsRhJF7TDkEaL8","Hindustan Petroleum Corporation Limited","Survey No 288/1, NH 44, Nagpur Hyderabad Road, Hinganghat, Ghatsavli","20.497885","78.7856992"
"ChIJRXt2N_xx0zsRhYY4VWxRT80","Hindustan Petroleum Corporation Limited","Gat No 45/2/1, NH 44, Nagpur Hyderabad Hwy, Daroda","20.46634509999999","78.76763319999999"
"ChIJZfAmdABx0zsREtUcXfHLVXQ","ARs Energy Retails HPCL Petrol Pump","Hinganghat","20.4595085","78.7639107"
"ChIJzX5ZuQ510zsRcvcPudRUVYg","IndianOil","Survey No 89, Bothuda, Gangapur","20.4094626","78.7414246"
"ChIJSzfL_L6u0zsRsF4TJLkrc4w","BPCL DJ & Sons Petrol Pump","National Highway 44, Srinagar - Kanyakumari Highway, Konghara","20.4311161","78.7444684"
"ChIJ68e7Prd10zsRQIGtBsYlZ2w","IndianOil","No 153, Ajansara","20.4345201","78.74480659999999"
"ChIJ35Av6QcM0zsRRhU2aRoKBnQ","Atram Automobile Petrol Station","NH-07, WADKI, Yavatmal","20.2968156","78.71471319999999"
"ChIJhdOdki4L0zsR1DAmnGGQekQ","Bharat petroleum Aksha petroleum wadaki","Zullar","20.288166","78.7176525"
"ChIJ4fLPqWus0zsR0jyvJW-ugO0","IndianOil","Ground Floor, Akhada Ward, Pandharkawada","20.2864539","78.7194178"
"ChIJF8KAPQAL0zsRAd0d8im9SK8","Bharat Petroleum, Petrol Pump -Shaun Enterprises","WADKI,HYD ROAD,YAVATMAL, YAVATMAL","20.282115","78.719568"
"ChIJb9DxFC4L0zsRHeU6rzXpTZ0","AHILYA INDANE GRAMIN VITRAK WADKI","Khasara No 63, near Kakde Complex, A1, Khairi Road, Yavatmal","20.2748103","78.72114739999999"
"ChIJL6zXnKkL0zsRLfhEucq_V8c","IndianOil","Ground Floor, Ralegaon, Wadki","20.2729135","78.7150928"
"ChIJF40cBgAL0zsRUVscRclsV-g","Nayara Energy Shingare Petroleum","Bori-Ichod","20.2685157","78.7143158"
"ChIJV8YLt54J0zsR3UtT5mjoUnY","Bharat Petroleum, Petrol Pump -Sai Sarthak Petroleum","KINHI, YAVATMAL","20.230264","78.6984738"
"ChIJvXWWfAAJ0zsRp2LAVNon0Q8","युरिया पंप","Wadki","20.2057356","78.6838473"
"ChIJF_DMuMcJ0zsRSUE-Ya7Q9a4","Nayara Petrol Pump - Kanchan Petrolum","Survey No 127/2-B,Plot No.01 at post kinhi(Jawade, Ralegaon","20.2212477","78.6919156"
"ChIJyd4_3voJ0zsR2zSnI2LiX_U","IndianOil","Survey No 61, 2 Kinhi, Ghodkhindi, Yavatmal","20.233686","78.69557580000001"
"ChIJdfLQPwAJ0zsRogLzxqYyHbQ","OM Sai Ram Petrolium","6MMV+MQH, Kinhi Jawade","20.23419419999999","78.69447070000001"
"ChIJo_1rmm-o0zsR3Y2J_aIBTLI","bhasakar auto service ( Bpcl)","Pandharkawada, Yavatmal, NH-930, Wani Yavatmal Highway, Kelpur","20.1379519","78.6243422"
"ChIJAdFPxFGp0zsRwUzmW0Xlnlc","Bharat Petroleum, Petrol Pump- DAWARE SONS","Before Karanji Traffic Police Check Post On LHS Nagpur to Hyderabad Highway NH44, Mangi","20.124286","78.6085495"
"ChIJL3tW7Nup0zsRxkgBTWmeylc","Shri Jagdamba Bharat Petroleum","4J82+QP, Mangi","20.1166429","78.6018678"
"ChIJ_yG94r6u0zsR2VyhZWoMuBI","Bharat Petroleum DJ & SONS PETROL PUMP KONGHARA","NH 7, POST, PIMPRI, Konghara","20.0724766","78.5472298"
"ChIJ-7iDsnSv0zsRkz2YC9S1id8","Tamilnadu petrol pump","3G3W+WFP, Pimpari Road","20.0548406","78.54620539999999"
"ChIJ5_jctcmv0zsRVaes7Km1960","IndianOil","Ground Floor, Akhada ward, Pimpri Road, Kelapur, Pandharkawada","20.0545493","78.5461632"
"ChIJ0zWEFgCv0zsR3hnCSTA2-Tk","Jio BP","3G3W+WFP, Pimpari Road","20.05423279999999","78.5473209"
"ChIJYWuRKAOv0zsR4vACVSkWNVg","Hindustan Petroleum Corporation Limited","Ground Floor, Umari","20.101381","78.531481"
"ChIJQ6iRI3Wt0zsR5nnhE3VDo1A","R.B MOTORS","main Line main Line","20.0369339","78.5482074"
"ChIJU91ctL6t0zsR4Mirm5Qoi1o","IndianOil","Ground Floor, Kelapur, Dharna","20.1093176","78.57961039999999"
"ChIJoexc1iBX0jsRHKz9YIkomng","Hindustan Petroleum Corporation Limited","Survey No 27, Jainad, Kamai","19.807111","78.56844099999999"
"ChIJDTEoGwBR0jsR26D8sZGgxF4","Hindustan Petroleum Corporation Limited","RH86+M6W, Kamai","19.8167353","78.5605843"
"ChIJBzJbRxdb0jsRfWsOuLR11xc","IndianOil","Lock No T3/11, C/4/2, Pusai","19.7623032","78.5640008"
"ChIJ2wL9wxla0jsR-ghPAI4fZAo","IndianOil","India","19.7517607","78.55578249999999"
"ChIJt5pYi6db0jsRg22NsLFZwuo","Hindustan Petroleum Corporation Limited","Ground Floor Adilabad Ponnari, Road, Bhattisavargaon","19.6834098","78.5111901"
"ChIJP-Vk4npb0jsRALrlbW8ivB0","HP PETROL PUMP - MEENAKSHI PET.AGENCY SAVARGAON","OFF Rural Police Station Rampur RD Battisavargaon Village","19.6833","78.51120999999999"
"ChIJRban7Q9b0jsRVu4u4t-z4Vs","BPCL - Sri Hari Hara Sai Filling Station","SY NO55/B, Rampur Road, Bhuktapur","19.68117699999999","78.51803500000001"
"ChIJYdQz9yFb0jsRSAqzo312BP4","BSR FILLING STATION Bharat petroleum","road, Sunkidi, Ponnari","19.67719109999999","78.48240539999999"
"ChIJDUnWqIFb0jsRyHTyjKxXLJU","IndianOil","near Adilabad, Lock No IG386, Survey No 46/3/2/2 Bhuktapur, near Adilabad, Collectorate, Adilabad","19.6787657","78.5231105"
"ChIJU2CUKn5c0jsRP_nKdx2-56A","IndianOil","Sy No 31/3, Arhar Bhikhapur,Adilabad Collectorate, Adilabad","19.6695396","78.5219517"
"ChIJDZGBak1d0jsRwIDMlpeF9Ak","BPCL- Srinivasa Fuel Station","behind Basaveshwara statue, Vidya Nagar, Adilabad","19.67249439999999","78.5275486"
"ChIJWcxcjnFb0jsRw8CB-NfZ6I4","IndianOil","Lock No D2, 39/40/41/42/A/7/2 NH 7, Collectorate, Adilabad","19.6771792","78.5336023"
"ChIJP5sHh3lc0jsRPsff5G4P6gM","indian mobile","MG9H+XV8, Ponnar, Ravindra Nagar Colony, Adilabad","19.6699245","78.5297001"
"ChIJKQ5FYexd0jsRxKjNGTHBGmg","NAYARA Petrol Pump","MG8J+X4R, Muncipal Quarters, Ravindra Nagar Colony, Adilabad","19.6675327","78.5300065"
"ChIJ1z9o05pb0jsRUgnAztkh5w0","Hindustan Petroleum Corporation Limited","Ground Floor, Adilabad - Nagpur Road, Adilabad","19.682901","78.542091"
"ChIJI7t1qSpd0jsR17utni1zxd4","Bharat Petroleum, Petrol Pump -Tirumala Filling Station","SY NO, DASANAPUR, Teachers Colony, Adilabad","19.658908","78.5241999"
"ChIJy6F36Yhb0jsRSBj2xWQwp78","Bharat Petroleum, Petrol Pump -Bp-Adilabad","BHORAJ, NEAR BHORAJ CHECKP, Adilabad","19.6850647","78.5436208"
"ChIJsZ1CZgBd0jsRE1c6vypW3hU","Bharat petroleum","Masood Chowk, Brahmanwadi, Adilabad","19.6702683","78.53743829999999"
"ChIJOezMk-pb0jsRS50HXQssPqU","Hindustan Petroleum Corporation Limited","S No 46/2, Old NH 44, Adilabad - Nagpur Road, Belluri","19.698488","78.545281"
"ChIJv0s0HgBb0jsRtFqle8O04z8","Hindustan gas agency","MGHR+78Q, Mohalla Badh, Adilabad","19.686406","78.5474345"
"ChIJ76eXwURd0jsRU-HaE5P6Pwk","Hindustan Petroleum Corporation Limited","Survey No 85, Adilabad Hyderabad Road, Talamadugu, Pangadpipri","19.592495","78.490622"
"ChIJr4RYNltd0jsRuyewJHpF8_A","Hindustan Petroleum Corporation Limited","Survey No 14/B, Gudihathinur","19.590621","78.489892"
"ChIJ7XjY1Atd0jsREdtRdVOiw-Y","Dharvi Petroleum Bharat Petroleum","Sy no 13, kamalapur, Gudihathinur","19.5882165","78.49115130000001"
"ChIJ_YJzJLFn0jsRcehyM6GMMpM","IndianOil","L No 410/11/D1/F, National Highway 44, Kamalapur","19.497295","78.500962"
"ChIJVW9NbHJm0jsR9NErn3FVE_Q","IndianOil","Gudihathinur","19.497246","78.5019281"
"ChIJf67xbgBx0jsRhW8oWQT5NRM","Def filling station TATA LEYLAND etc","9C8M+2HF, Kupti (Khurd)","19.36505159999999","78.43393619999999"
"ChIJqbQqaQBx0jsRpwMl9pxsVjg","DEF FILLING STATION","8CRG+H3Q, Kupti (Khurd)","19.3414544","78.4252405"
"ChIJI5tkQsFv0jsREzDJ-ltAhkY","Indian Oil","India","19.4075771","78.44814319999999"
"ChIJiWA6QsFv0jsRPvpZh7DdF9Q","Bharat Petroleum BP Petrol Pump / Gas Station","National Highway 44, Adegaon Buzurg","19.4076414","78.44810679999999"
"ChIJa3GdixNv0jsRi9JOiAW14IM","SSV filling station","Shop No 2233, Ichoda","19.413527","78.4503842"
"ChIJs9L77b9v0jsRTmDtF_JL7Yo","Hindustan Petroleum Corporation Limited","S No 10, E Ichoda, Adegaon Buzurg","19.413461","78.45136099999999"
"ChIJ3XEQLA6JzTsRwkvT3YcCgXY","Hindustan Petroleum Corporation Limited","Survey No 11, E Mamda, Burugupalle","19.157188","78.464171"
"ChIJO8cHSAWJzTsRYkvYNRtEXoM","IndianOil","Lock No T3/96/C/6/3 Nirmal Bypass, NH7, Burugpally, Buggaram","19.1559031","78.46226899999999"
"ChIJizAOdQCJzTsRpujDOK7JVEY","DEF Filling Station","5F46+8P, Gayadpalle","19.1559206","78.46202629999999"
"ChIJieswgGSMzTsR2N677imVTPA","Hindustan Petroleum Corporation Limited","Survey No 1614, Nirmal Bhainsa Road, Adilabad","19.08669429999999","78.3445665"
"ChIJCXXPTPWNzTsRFkB_Uak3PuY","Hindustan Petroleum Corporation Limited","Survey No 1086, Nirmal - Mancherial Road, Venkatapur","19.086198","78.351012"
"ChIJR7M9e2-MzTsRz3I8eVHlLjo","New Maruthi Petrol","India","19.0864334","78.35056159999999"
"ChIJAU_xQVuNzTsRbwckruqOq44","IndianOil","Lock No 74/75, D1, D, National Highway 44, Bangalpet, Nirmal","19.086201","78.346501"
"ChIJeTIZL7uNzTsRBkAI0EF3Tsc","Bharat Petroleum, Petrol Pump -Chitkeshi Vishwanath Narsimhlu","NIRMAL TOWN (CVN), NIRMAL, ADILABAD","19.0888185","78.34544950000002"
"ChIJB6mAh5qNzTsRaC56YLxqXjA","KAMAL NAYAN DHANANIWALA NIRMAL","Shop No 07, Indira Nagar, Nirmal","19.0909959","78.34441029999999"
"ChIJuw4WWHuMzTsR4f49uAUesqc","IndianOil","Lock No D177, A4/2, National Highway 44, Bangalpet, Nirmal","19.091101","78.344201"
"ChIJhy7lGwCNzTsR1a2UG6AE3SM","Hindustan Petroleum Corporation Limited","Ground Floor, Adilabad Road, Nirmal","19.0956918","78.34336789999999"
"ChIJ0Qh9DE6MzTsRo2MVHqkrRdY","Santosh Guptha Filling Station","Kadthal Main Road, Kadthal","19.0615313","78.35154709999999"
"ChIJTSEfmjKPzTsRjxwKAYtmDPQ","JK FILLING STATION NAYARA PETROLEUM","3CP6+W77, Nirmal - Mancherial Road","19.0872778","78.4106791"
"ChIJPT78CrGNzTsR6fKnVY_XZwA","Hindustan Petroleum Corporation Limited","Survey No 176, Hyderabad Road, AA/2, Soan","19.058681","78.352217"
"ChIJRboh-IKLzTsRjjM-HQon3GA","Hindustan Petroleum Corporation Limited","Survey No 2215, Bhail Bazar, Budhwarpet, Nirmal","19.110018","78.340856"
"ChIJJcFDjfiLzTsRj1_-0n28VJg","Bharat Petroleum Petrol Pump , SRI VENKATESWARA FILLING STATION","D.NO.5-6-97/5-6JNEAR, Bail Bazar Road, Nirmal","19.1124128","78.3404237"
"ChIJV3xtOJ2LzTsRgW3aOvM-JSk","Rishabh Auto Gas Filling Station","487R+C3M, Nirmal Road, Naidiwada, Nirmal","19.1135958","78.3401746"
"ChIJsyRnpiWSzTsR2YMQFs4znbc","Hindustan Petroleum Corporation Limited","Survey No 324/1, NH 44, Nagpur Road, Pochampad, Hyderabad","18.9766091","78.3759642"
"ChIJo8aHYC6SzTsRxtwrLtmKexc","Indian Oil","India","18.9701078","78.3755049"
"ChIJExs7T7WNzTsRU2AN87azuQU","Bharat Petroleum, Petrol Pump -Aishwarya Filling Station","3CMJ+4X6, Kanakapur","19.0115055","78.3679788"
"ChIJk8VFKgiRzTsRegvLOKsVpVA","Hindustan Petroleum Corporation Limited","Survey No 12, A & 12/AA, Mendora","18.9558505","78.40235849999999"
"ChIJKZIFI2-UzTsRY1kq38jItok","Hindustan Petroleum Corporation Limited","Survey No, 990 & 991, Road, Balkonda, Kisannagar","18.8982487","78.35237099999999"
"ChIJtdttn1CUzTsRmq2YD42vLTY","IndianOil","Ground Floor, Balkonda","18.8789211","78.34603249999999"
"ChIJOWRybouTzTsR0s_qvgMh3nE","IndianOil","BADDAM MUTHYAM REDDY,MUPKAL, National Highway 44, Ratnapur","18.919802","78.35943549999999"
"ChIJodzXfO2TzTsR5Zhf45ZZntQ","Bharat Petroleum COCO Pump, BP MUPKAL","W9F6+8RF, Asian Highway 43, Nallur","18.9233021","78.362055"
"ChIJLbriJQGVzTsR9-qSkaM1M1A","IndianOil","Ground Floor, Balkonda","18.861676","78.33540599999999"
"ChIJiWC-FymTzTsRhBm0-Xwog6c","Hindustan Petroleum Corporation Limited","Survey No 87/3A, NH 44, Hyderabad Nagpur Road, Mupkal","18.9263411","78.3637473"
"ChIJj2EizqaTzTsRH3th6kDCQ_s","Charitha Fuel Station","87/3a, Nallur","18.9264435","78.3637396"
"ChIJoSzMgJ-_zTsRvmVaipPNkgw","Hindustan Petroleum Corporation Limited","Survey No 367 & 368, Armoor Road, Perkit","18.7987066","78.3112762"
"ChIJrZxLtOm_zTsRk123SJ_37qk","Pervez Filling Station | BPCL and CNG Station","PERKIT, NIRMAL ROAD, NH-7, NIZAMABAD","18.8036952","78.3142936"
"ChIJt5zCfAC_zTsRh03pwqfzlgk","CNG armor","R837+HPW, National Highway 44","18.803742","78.314463"
"ChIJRQ_2jXy_zTsRP-3we4pF8Kg","IndianOil","Ground Floor Perkit,Ankapoor, Armur","18.790948","78.30654899999999"
"ChIJUxStEfC_zTsRN-4Xyy20Aog","LVR FILLING STATION","Indian Oil Dealer, NH 7, Perkit","18.7911494","78.3063382"
"ChIJy4Uxoi6_zTsRsoUuDz9r6MM","Kanaka Lakshmi Narasimha Kisan Seva Kendra","5-8 Nizamabad To, Nizamabad - Koratla Road, Suresh Nagar Colony, Nizamabad","18.7883037","78.2998298"
"ChIJmc9ua96_zTsRM_R4lqGYnqA","Bharat Petroleum, Petrol Pump -Sri Laxmi Filling Station","PERKIT MAHILAPRANGANAM, NIZAMABAD","18.8139659","78.3177278"
"ChIJoXRyZI-_zTsREWw59gja6xQ","Hindustan Petroleum Corporation Limited","Survey No 110, near Raja Ramesh Theatre, NH 7, Hyderabad Nagpur Road, Mamidipally, Armur","18.7830254","78.30074599999999"
"ChIJS79jh3PAzTsR5K5OWy8fLko","IndianOil","Ground Floor NH 16, Ankapur","18.788794","78.28946599999999"
"ChIJ4agA8DrBzTsRiH_WB5w4XKY","Bharat Petroleum, Petrol Pump -Mohd. Saleh & Co.,","SY NO 431/3, Armur","18.7899094","78.28783399999999"
"ChIJV8aQAtPBzTsRn7eWxUHpEAM","Kanka Lakshmi Narasimha Kisan Seva Kendra","5-7, Morthad Villege Road, Suresh Colony, Morthad","18.7823719","78.2873877"
"ChIJYfvwYYPBzTsRKIXVftBOYlc","NAVANATHA FILLING STATION","National Highway 63, Armur","18.7865725","78.2841993"
"ChIJr2H263-_zTsRcDU96VY3nxE","IndianOil","Ground Floor, Ankapur","18.769634","78.294339"
"ChIJp9gcTrbrzTsRWZSZ9B17-cw","IndianOil","No 815/1/2, Pipri","18.821154","78.2839515"
"ChIJww7W-WXBzTsRKY_8QOhMzxs","M/s Balaji Filling Station, Mamidipally ,Armoor","Q78R+CGH, National Highway 44, Armur","18.7660617","78.2913725"
"ChIJtfJAYP7BzTsRfVo1ArMy9s4","IndianOil","Mamidipally, Ground Floor NH 7, Armur","18.765555","78.29043899999999"
"ChIJ3ayKwz--zTsRi1kPtcmAphk","IndianOil","Sy No 561/36, Karimnagar - Nizamabad Road, Akloor, Armur","18.799876","78.360463"
"ChIJb7ohvB2_zTsRaTf07K-a_9E","IndianOil","Ground Floor, Gajulpet, Govindpet","18.757656","78.337203"
"ChIJ9ZBIJvbFzTsRT-aRP7i-Nk0","IndianOil","Sy No 430, Chakarnpalli, A & 431/Aa, Nizamabad","18.623718","78.187086"
"ChIJGxqwEsTIzTsRS1_8u62RBHo","IndianOil - 7th BATTALION FILLING STATION","Dichpally","18.5948384","78.2186018"
"ChIJmYqmdd3IzTsRYASTrcHhaDg","SARANG AUTOLINES BPCL BHARAT","BPCL PETROL PUMP, SURVEY NO. 449E DICHPALLI, Nizamabad","18.587881","78.22359999999999"
"ChIJa6hf6bLIzTsRsX-YTcj1KbU","IndianOil","APSP Camp, Sy No 235 Nadipally, Dichpally, Nizamabad","18.6110833","78.2039444"
"ChIJd5CtgQbGzTsR6jzoTvxtd_k","IndianOil","Survey No 652/A, Suddapalli","18.633186","78.207645"
"ChIJP-a0e9nFzTsRifu-1txZKY0","RAGAVA Enterprises Bharat Petroleum & CNG","Nadipalli, Nadepalle","18.6246909","78.1870275"
"ChIJ5xZGWMPIzTsRWbACEmAuOrs","Hindustan Petroleum Corporation Limited","Survey No 452, NH 7, hoi, Dichpally","18.5912821","78.2202623"
"ChIJEe0DwL7FzTsRJaQTnLkRD9w","KABS AUTOLINES HPCL","Dichpally","18.63591659999999","78.1775729"
"ChIJ8Ryxi-DIzTsRE6GshgJGcsk","IndianOil - Jagat Pran Service Station","Sy no:- 187, NH :- 44, Bibipur","18.5830677","78.2248238"
"ChIJNb8gHIPFzTsRV7LOxTFym3c","Hindustan Petroleum Corporation Limited","Survey No 741/2, 741/5, Dichpally - Nizamabad Road, Bardipur","18.6362076","78.17703"
"ChIJDx2eKWzGzTsRBl0A9Jq44Yc","Hindustan Petroleum Corporation Limited","Survey No 567/Ru, Hyderabad Nagpur Road NH 44, Dichpalle, Mentrajpalle","18.6539604","78.2168724"
"ChIJxz4awh3LzTsRWELWSpQzH34","Hindustan Petroleum Corporation Limited","Survey No, 644/A, Gadkole Sirikonda Road, Aa/E/Ee, Sirikonda","18.485673","78.2189267"
"ChIJr4lZutnLzTsRzidDhRTH1GM","Hindustan Petroleum Corporation Limited","Survey No 777, NH 44, Hyderabad Nagpur Road, Gannaram","18.5202357","78.2336849"
"ChIJsxvONDfLzTsRr7Gu5uQsHOk","CNG station Bharat Petroleum, Petrol Pump and CNG Station - Sri Vijaya Durga Filling Station","B/W DICHPALLY TO KAMREDDY, NIZAMABAD","18.4493217","78.230249"
"ChIJYZxkENc0zDsRa_WEB_bQ0w0","IndianOil","IOC Petrol Pump, GANDHARI X ROAD, Kamareddy","18.4304848","78.2439004"
"ChIJD3IZNmY1zDsRxOZD4QDb3mY","BPCL Sri Sai Sevalal Fs,Padmajawadi x road","C6HP+HF6, Padmajiwadi","18.4289225","78.2361411"
"ChIJcz7lUz_LzTsRl3_7O5YXGmY","IOC Petrol Pump","Gandhari x roads, Padmajiwadi","18.4306262","78.2333743"
"ChIJofC9Vk_LzTsRRsbP3OieJnE","Hindustan Petroleum Corporation Limited","Survey No 2, NH 44, Hyderabad Nagpur Road, Kolwaral","18.4489309","78.2291889"
"ChIJ4wOAYzHLzTsRdbv9xTYXoIM","Hindustan Petroleum Corporation Limited","Survey No 2, NH 44, Hyderabad Nagpur Road, Kolwaral","18.4489309","78.2291889"
"ChIJ____vzrLzTsRyekFd_4vqcA","IndianOil","Survey No 11/2A Kammajiwadi, Sadashivnagar","18.45249799999999","78.2283901"
"ChIJj6uJy_dJzDsRHXoI3oXiMes","Kanaka Durga Bharat CNG Petrol bunk","Tekriyal","18.3493866","78.30721779999999"
"ChIJl7GppA9KzDsR5g0cKkwx1tU","Hindustan Petroleum Corporation Limited","922, Survey No 917A, AA/E & 918, Hyderabad Nagpur Road, Adloor Yellareddy","18.3639864","78.3026838"
"ChIJQa0q86hJzDsRknpkShoia6c","IndianOil","Ground Floor, Kamareddy","18.31564639999999","78.3354298"
"ChIJDxaPJABJzDsRVPnlcWs138c","Go gas auto LPG","88V7+43Q, Tekriyal","18.3431251","78.3127713"
"ChIJaYIEhAxJzDsR4iqCbAx-YYM","Hindustan Petroleum Corporation Limited","No 131/4/3 & 131/4/2/1, Old NH 7, Elichpur","18.3427775","78.31213559999999"
"ChIJ4d2rm5dJzDsRYsrbVmSXV2A","IndianOil","Ground Floor, Adloor","18.330607","78.3263801"
"ChIJY08_zXJJzDsRIYjT8z-xc54","CNG &BPCL Rani jahlkari fuel station","State Highway 11, Kamareddy","18.3242714","78.3119158"
"ChIJ_9FUUjFJzDsRTygxA4tR7_o","Bharat petroleum","Neat, Kamareddy - Ramareddy Road, Gumasta Colony, Adloor","18.3392471","78.345917"
"ChIJafdZntNJzDsRw1V2RRJStR0","IndianOil","Survey No 138, 2/2, Devanpally, Ambarpet","18.3229815","78.30830879999999"
"ChIJoRyqhEJJzDsR71a6fF8XdEg","IndianOil","90/9A, 90/7A, 92/3, 90/8A, 93/A, 94/1A, Lingapur","18.319391","78.327293"
"ChIJwy2vFh9JzDsRApEHIctLwEo","Hindustan Petroleum Corporation Limited","Survey No 753, Nizamsagar Road, Kamareddy","18.3198819","78.3313067"
"ChIJpViFIq1JzDsRli_eFz19Jts","IndianOil","Ground Floor, Adloor","18.326188","78.34244199999999"
"ChIJ7fIX_aZJzDsRuOXBclvajig","Santhosh BIKE POINT","88CP+879, Court Road, Vivekananda Colony, Ashok Nagar, Kamareddy","18.3207935","78.3357302"
"ChIJrXGd_CdJzDsR-iqJ50OKlMo","Hindustan Petroleum Corporation Limited","Ground Floor, Hyderabad Road, Nagpur","18.3175001","78.33490640000001"
"ChIJM9ulYclJzDsRloaitJRu4dY","Nayara energy","Sircilla Road, Kamareddy","18.3258533","78.34845980000001"
"ChIJswRnkwdJzDsRs-BEAhD6OiE","Chiranjeevi Voraganti","Srivalli Petrol Pump, Sircilla Road, Kamareddy","18.3265909","78.3524822"
"ChIJyQCHihNJzDsRfyW5_Xyiljk","M/S Srivalli Fuel Point Bharat Petroleum Corporation Limited","89G4+C92, Rameswarpalle","18.3260191","78.3558752"
"ChIJL6KzXp5JzDsRtXxoyjC-Fk4","SRI LAXMI NARASIMHA FILLING STATION","S Y No 439, Palwancha Palwancha, Kamareddy","18.3185127","78.3508719"
"ChIJgbUh1BVJzDsRFJlHycrKc5Q","IndianOil","Ground Floor, Adloor","18.324717","78.358996"
"ChIJW1QQAgBJzDsRF5wpNEDmzoU","SRIMANTHFUELSTATION INDIAN OIL PETROL PUMP ⛽️","89F6+MM4, Sircilla Road, Rameswarpalle","18.3241488","78.3616979"
"ChIJ6YhMaC1EzDsRCRZ6Szunn8Q","Jio Petrol Pump","697V+MRV, Anthampalle","18.2142383","78.3945499"
"ChIJ2_6A9fNFzDsRL72N2XIym-4","IndianOil","SY No 873 / 874, Bhiknoor","18.2294188","78.3868445"
"ChIJayJz4jxEzDsRQuQWgf7zAA4","IndianOil","Ground Floor, Bhiknoor, Anthampalle","18.1955035","78.3974671"
"ChIJTf9an-xFzDsRCa4dUwT_GM8","Hindustan Petroleum Corporation Limited","Survey No 1174, Bus Stand, near TSRTC, 1241 & 1242/A, TSRTC, Bhiknoor","18.19044969999999","78.39944899999999"
"ChIJrbjgZABFzDsRq6n1lNKJdM8","Sri Lahari and sons fuel station","59PX+C7M, Bhiknoor","18.1860781","78.3981799"
"ChIJdQwRVHpFzDsRNd0YxTaCGv0","IndianOil","Ground Floor, Domakonda, Nizamabad","18.2508046","78.4269326"
"ChIJ4edIvP1DzDsRUoqNbgLDRNU","Bharat Petroleum","4C84+3J, Akkannapet","18.115227","78.4066129"
"ChIJ4f24U3RDzDsRZL7BaBIm2Gs","Hindustan Petroleum Corporation Limited","Ground Floor, NH 7, Ramayampet","18.1189384","78.4289651"
"ChIJmcE7tQlDzDsRQh3UzTNavGk","IndianOil","Ground Floor, Ramayampet, Siddipet","18.128253","78.425162"
"ChIJo6vyvqtDzDsRXTliPCV7sVg","Shailaja Filling Station","4CHG+955, National Highway 44","18.1283906","78.42548719999999"
"ChIJIYYKxCBDzDsRznY1O5xFaXM","Hindustan Petroleum Corporation Limited","35/AA/1, 35, No 35/A1/1, AA2/1 & 35/E2/1, Akkannapet","18.114437","78.40229099999999"
"ChIJUdRoUQpDzDsRN6TkvWgi-5M","M.S.R Filling Station","4C8V+95, Ramayampet","18.1159098","78.44302569999999"
"ChIJr-9itOFDzDsRL60cUWgL3-Q","Bharat Petroleum Petrol Pump , PABBA GALAIAH","958, A AND 959BHIKNUR, 957/1, Kamareddy","18.1423832","78.4170194"
"ChIJqZ1Jw4VCzDsR2zkp6KP2WXk","Bharat Petroleum, Petrol Pump -Sri Jai Hanuman Filling Station","RAMAYANPET, Medak","18.0880603","78.4361983"
"ChIJMW-hE91CzDsRYF7vVA2BolI","IndianOil","Sy No 487/A, 487, Aa & 488/E, Siddipet - Ramayampet Road, Bhumpally","18.116081","78.45408700000002"
"ChIJF7QYVL9ozDsRs0EYYgdaky0","Hindustan Petroleum Corporation Limited","Survey No 17, AA Vallur, Chegunta","18.0035666","78.4526875"
"ChIJA7GWfUNpzDsR6QAw6sOecds","IndianOil","Survey No 305 NH 44, Narsing, Vallur, Chegunta","18.006067","78.451717"
"ChIJKQp80FhpzDsRjCaKx03r9kg","Nnn","2CJM+3H, Vallabhapur","18.0302507","78.4340036"
"ChIJx6M1n35pzDsRAC0QU8nYGe4","Shiva Linga Filling Station","2CRH+4G, Narsingi","18.0304409","78.4333825"
"ChIJ97e-Zv9ozDsRFQMo9n-Zdks","Hindustan Petroleum Corporation Limited","Survey No, 609 & 610, Vallabhapur","18.031019","78.433791"
"ChIJJZnFrfVvzDsRAJXFJvCqUAI","IndianOil","Sy No 469/A1/A2470/C NH 7, Chegunta, Chandampet","17.984776","78.458435"
"ChIJX6sqokxvzDsR58y7OEIIF-A","IndianOil","Sy No 475, NH 7, Reddipally","17.983469","78.4582971"
"ChIJ7dAi_eVpzDsRRCTyeX4yWO4","IndianOil","Sy No 305, Aa Shankarampet, Gavalpally","17.984573","78.420732"
"ChIJy246Iu1vzDsR3XhF4ZLZHJ0","Goel Fuel Station | BPCL - Petrol & CNG","MASAIPET","17.9148797","78.4614158"
"ChIJc35ZxJBvzDsRX3RyCaAkSJo","Hindustan Petroleum Corporation Limited","Survey No 166, NH 7, Masaipet","17.9260317","78.45907799999999"
"ChIJaZRLUglwzDsR2CNhoA4ybk4","Hindustan Petroleum Corporation Limited","Survey No179 & 179A, Nagulapally","17.87643569999999","78.46976889999999"
"ChIJH1SqBu5vzDsRJpDafSfWKsg","Hindustan Petroleum Corporation Limited","Survey No 163, Yeldurthy, Masaipet","17.9101601","78.46346009999999"
"ChIJk3Da1pBvzDsRa8UfWLaejjU","HPCL PETROL PUMP SRI SANTOSH FUEL POINT","Near, Chegunta","17.9251114","78.458316"
"ChIJgfd70HFvzDsRrEu9HTe1bgo","IndianOil","Ground Floor Chandampet, Wadiaram, Chegunta","17.950595","78.460495"
"ChIJ3XCFfQB3zDsRIs2VcKZPD8I","Hindustan Petroleum Corporation Limited","Survey No 68, AA Tupran, Manoharabad","17.7731282","78.4686603"
"ChIJ4V7HFpt3zDsRV6ssKSASd4s","SREE PRAKASH BIO FUELS","S YO 412, MANDAL, Manoharabad","17.76642069999999","78.46809019999999"
"ChIJMz_tuDR7zDsR8o5Q_5hkb_4","Hindustan Petroleum Corporation Limited","Ground Floor, Toopran to, SH 17, Doulatabad - Gajwel Road, Tupran, Allapoor","17.8226206","78.48260669999999"
"ChIJbQp4Cnl5zDsRWUxvQ8Yk6F8","Hindustan Petroleum Corporation Limited","Survey No 382, Wargal Road, Manoharabad, Dandupally","17.757578","78.477155"
"ChIJZ4KY3At7zDsRhdg5bshV2Fw","IndianOil","Sy No 471, A & 472/A, Tupran, Medak","17.8327907","78.4770602"
"ChIJXdqoGodwzDsRNiT23fp7VDo","Bharat Petroleum, Petrol Pump -Sheethal Kishore,","TOOPRAN TOWN, MEDAK","17.83324069999999","78.476761"
"ChIJlVptzRdxzDsRTSGsouuKk5g","Hindustan Petroleum Corporation Limited","Survey No 172/E, Venkatapur(B)","17.82143079999999","78.4386075"
"ChIJbTuM6-hwzDsRiZi2phxibnA","Bharat Petroleum G Gangaram Filling Station","Venkatapuram patti, Narsapur-Tupran Rd, Brahmanapalle","17.8257895","78.4428037"
"ChIJxcYH7qhxzDsRdlKPEPa7-00","Toopran Indizel Fuel Station","RFQC+293, Tupran","17.8375147","78.47092119999999"
"ChIJ1zx4y-CHyzsR_t7-p2Yhrgs","IndianOil","Survey No, 161/C, National Highway 44, Medchal, Yellampet","17.6857963","78.4806859"
"ChIJxbvN_z2PyzsRlKwuqyg6E_k","Hindustan Petroleum Corporation Limited","Survey No, LU Gandimaisamma, 485/RU & 485, Medchal Road, Goudavalli","17.6772205","78.4897885"
"ChIJ28W8xI-HyzsRkR5JL4ryB9k","Hindustan Petroleum Corporation Limited","Survey No 1/A4, 2, Mulug","17.698506","78.507352"
"ChIJ9w-VoWWHzDsRVGqHzQ2LPL0","Hindustan Petroleum Corporation Limited","Gajwel, Survey No 504, Pragnaur, Medak","17.6772205","78.4897885"
"ChIJV1UBExiGyzsR7O3Y-0Xrsbg","Bharat Petroleum COCO Petrol & CNG Pump, BP Medchal","ATTIVELLI, Secunderabad","17.6644381","78.48894390000001"
"ChIJQQgdFQCJyzsRfOtYdEu7NMw","Sri Lakshmi Narasimha filling station konaipally","MFR4+G4F, Konaipalle","17.691322","78.4553013"
"ChIJh6kktPd3zDsR_mFuHRuWNjc","IndianOil","Survey No, 416/E, National Highway 44, Manoharabad","17.7211821","78.4735512"
"ChIJrbWbixOHyzsRBg76K5qEIAY","Home","JFVP+5CP, Medchal, Secunderabad","17.6428884","78.4859122"
"ChIJS_VbH5yHyzsRZhAB-CRiVPE","Hindustan Petroleum Corporation Limited","Survey No, 296 & 296/P, Athvelly, Secunderabad","17.6427278","78.4857689"
"ChIJD2y_sIeEyzsRBg9L9X9vz1k","IndianOil","Sy No 88/P, Thumkunta, Shamirpet, Nisa Hakimpet, Thumukunta, Secunderabad","17.570841","78.557824"
"ChIJiStZM4mDyzsRTAXP5VMLc-g","IndianOil","Sy No 1212/A, Shamirpet Thumkunta, Shamirpet Road, Ankireddipalli","17.588468","78.571646"
"ChIJY9UCCIuDyzsRWgbK-R5uol0","Bharath Petroleum Sindhoor Enterprises Shamirpet","Shamirpet, Secunderabad","17.593114","78.56967780000001"
"ChIJUVca4ZGGyzsRLvQs7v4B1FI","Hindustan Petroleum Corporation Limited","Survey No 64EE, Shamirpet Medchal Road, Raja Bollaram","17.6332932","78.5319016"
"ChIJ8yVa9umFyzsR3FmGfIBn3gM","Bhagya Nagar Gas Limited Hyderabad","HGWV+RR3, Shamirpet, Secunderabad","17.5970168","78.5445277"
"ChIJE70SulaFyzsR91X7ORFEkVI","IndianOil","Survey No 444, 3/2, Medchal, Pudur","17.5932765","78.51708060000001"
"ChIJZ0j2IACFyzsRPTmGz7GPMoA","Rajesh Raiy","HGX9+C6R, Munirabad","17.5986091","78.5180245"
"ChIJx7iQ3Y6EyzsRGb2MhcgWaVc","Yashwanth Filling Station","HH94+VGF, Shamirpet Road, Thumukunta, Secunderabad","17.5696814","78.55628899999999"
"ChIJ9bKykBmFyzsRx2ejKB53hNQ","IndianOil","Sy no 406, Door no 2-113/406, E/2, Devarayamjal","17.567238","78.52632369999999"
"ChIJJbkFxX-EyzsRxp-07hCgFFg","IndianOil","Sy No 174, Ethumkunta,Nisa Hakimpet, Thumukunta, Secunderabad","17.5732901","78.5641401"
"ChIJewpTTeWFyzsRPFZ52p8_kts","Shahi Kumar Services","Thumkunta,vyjayanthi Services, Main Road, towards, Karimnagar","17.5611092","78.5459389"
"ChIJYR4uo2uFyzsRFJMArowpUx4","Hindustan Petroleum Corporation Limited","Survey No 362, SH 1, Hyderabad - Ramagundam Road, Shamirpet, Thumukunta, Secunderabad","17.5610187","78.5459491"
"ChIJW-vu4T-FyzsRJyNdURxawLo","IndianOil","Survey No 96, SH 1, Shamirpet Road, Hakimpet","17.5598122","78.5441235"
"ChIJF2xBdACFyzsRELLVO414pm4","Sri Lalitha Filling Station","HG5V+XQW, Devarayamjal","17.559786","78.544095"
"ChIJ-ROKloiGyzsRODElfMrsQLI","IndianOil","Survey No 27/C, Shamirpet, Pudur","17.6291301","78.5247601"
"ChIJI3Fipk6FyzsRnv1NpFGKB3k","Hindustan Petroleum Corporation Limited","Survey No 782, Hyderabad Karimnagar Road, SH 1, Shamirpet Road, Hakimpet","17.5455574","78.5346698"
"ChIJP3A4Qvd3yzsRxYfjGB3jpvs","IndianOil","Sy No 9, Keesara, Hyderabad","17.52738","78.669144"
"ChIJE9aJL_l3yzsRcPmBmVAb590","IndianOil","Sy No 367, Keesara, Hyderabad","17.5272743","78.6694076"
"ChIJOwlxrvF3yzsR0RRWuNp9JsM","Hindustan Petroleum Corporation Limited","Survey No 42, Ghatkesar Road, Keesara, Hyderabad","17.5226811","78.6716481"
"ChIJCfy8FDSdyzsR1DxpvhWt_Sc","HP PETROL PUMP - ADHOC VYJAYANTHI SERVICES","Cheeriyal Yadgarpalli Road, Keesara, Secunderabad","17.525096","78.629643"
"ChIJQZRwlG2dyzsR9TRxwIgq0q4","Hindustan Petroleum Corporation Limited","Survey No 37 Keesara, Road Number 10, Cheeriyal","17.525142","78.6295122"
"ChIJ2xvvRUGdyzsRjAY_pR7_6Xg","IndianOil","Survey No 122/3, A/A, opposite Vardhana School, Keesara, Cheriyal, Hyderabad","17.5117392","78.6389184"
"ChIJI8Cd30CdyzsRJnwy7d08pcs","Hindustan Petroleum Corporation Limited","Survey No 125 Rampally, ECIL - Keesara Road, Keesara, Cheeriyal","17.511211","78.6369714"
"ChIJcepog9uCyzsRIKEszfgrBpg","Hindustan Petroleum Corporation Limited","Ground Floor Dharmaram, Keesara, Thimmaipalli","17.5459672","78.619627"
"ChIJmYmSavx3yzsRQYdl6VgJtec","Indian Oil Corp. - Surya Filling Station","ECIL - Keesara Road, Keesara, Secunderabad","17.5239483","78.6612269"
"ChIJZy1V8wiDyzsREkU0lPP9_GE","Bharat Petroleum, Petrol Pump -Farhan Filling Station","THIMMAYAPALLI, RANGA REDDY","17.5468663","78.61520449999999"
"ChIJ37Zwg32dyzsRhSMUDCunYxk","DOMINION PETROL SERVICE","Bharat Petroleum Chemical Village, Medchal, Ghatkesar","17.5039633","78.6257688"
"ChIJnf97sn13yzsRtgAPm4e2BM4","Bharat Petroleum Petrol Pump , SHIVA SHANKARA FILLING STATION","SY NO. 23/AA & 24/EE KEESARA VILL, Keesara","17.531021","78.67102799999999"
"ChIJ6-aFcwB3yzsRcbGIiEV7UJM","Indian oil Petrol pump","FMX5+XFV, Dayara Rd, Rampally, Secunderabad","17.5001947","78.65848539999999"
"ChIJA_FpkLSdyzsRZ6NXnH7GWFU","Hindustan Petroleum Corporation Limited","Survey No, 46 & 47, ECIL - Keesara Road, Nagaram, Secunderabad","17.499371","78.6150292"
"ChIJlVdaYiqdyzsRd4miL1KJ6pQ","Veera Puncher Shop","Ranga Reddy, Electronics Corporation Of India Limited, 1, ECIL - Keesara Rd, Stella Nagaram, Dammaiguda, , Secund Baldalaguda","17.499706","78.614344"
"ChIJN1CBy355yzsRtgE-z4ZlC-Q","IndianOil","Sy No 816, Keesara, Ankireddypalli, Hyderabad","17.542265","78.676836"
"ChIJmeDQeMmdyzsREoVh4RoFmv4","Sadhula","Shop 13rampally, Hp Petrol Pump, Rampally X Road, Secunderabad","17.4981907","78.6100618"
"ChIJo8a1cyOdyzsReyYi1uP4Xns","Mazhar Ahmed Khan","Road No 10, Bandlaguda","17.4982684","78.6093973"
"ChIJezoPIc-dyzsRnwyVeWGbBdc","Yadalaxmi Filling Station BPCl","6th Phase K.P.H.B, Kundanpally, Secunderabad","17.4975599","78.6101201"
"ChIJo9TaWnR2yzsRFyC7MBeeJlQ","Hindustan Petroleum Corporation Limited","Survey No 513, NH 202, Hyderabad - Warangal Highway, Ghatkesar","17.4431496","78.68301989999999"
"ChIJp4G3pxSeyzsRrmu5fK2BK9E","Hindustan Petroleum Corporation Limited","Survey No 40, Ghatkesar Road, Narepally, Hyderabad","17.41898089999999","78.6350214"
"ChIJY_5cNgB1yzsRdovtSIOPjkg","Hindustan Petroleum Corporation Limited","Ground Floor Narapally, Korremula Road, Korremula, Hyderabad","17.4076537","78.65734839999999"
"ChIJiW8fj_11yzsR2Yb_rs6UIys","Bharat Petroleum","India","17.4371615","78.6638189"
"ChIJHfmDQGt3yzsRdftg_Ysjk30","G M BPCL SERVICE STATION","SY NO 513, NH 202(NEW NO 165)GHATKESAR VILLAGE & MANDAL","17.4422999","78.68254379999999"
"ChIJ0UClVR6RyzsRh22qBDivDS0","IndianOil","Sy No 97, 98, Nh 202, Hyderabad","17.4302553","78.6526289"
"ChIJJ6qAa653yzsRKwENtfc2lTE","Dhiraj Petrol Pump","Iqbal Manzil, Bokkoniguda","17.4422091","78.6961726"
"ChIJ45izQAx2yzsRefTvEVE9vzg","IndianOil","Ghatkesar Road, Ghatkesar","17.4462899","78.67544889999999"
"ChIJGdXBK0h1yzsRQD3Z3GmWExg","IndianOil","Sy No 5 Edulabad, Ghatkesar, Ankireddipalli","17.423508","78.71294800000001"
"ChIJWzFTB0ifyzsRqaElAJwWiec","Hindustan Petroleum Corporation Limited","H No 13/5, S No 713/1, Yadav Nagar, Hyderabad","17.42788509999999","78.6488652"
"ChIJUcSwqR6fyzsRncFXk6ugOkQ","Hindustan Petroleum Corporation Limited","Survey No 13/E/1, Infosys Campus Main Rd Pocharam, Annojiguda, Ghatkesar","17.4363633","78.6540835"
"ChIJxTX63wx2yzsRJc3UyDhdvw8","IndianOil","No 9/169 NH 202, Main Road, Warangal Rd, Ghatkesar","17.4477422","78.678107"
"ChIJMS6ZtUt3yzsRc5FH_fBVXqw","Bharat petrol pump","CMWQ+V6P, Edulabad Main Road, Ghatkesar","17.4472072","78.688092"
"ChIJU38mNByfyzsRYIWY4_bFgks","Sri Chakra Transport - BPCL Retail Outlet","Korremula, Hyderabad","17.4225923","78.64072940000001"
"ChIJNTag_Ex1yzsRBQr3KqsUaX8","IndianOil","Survey No 151 Edulabad, Ghatkesar, Ankireddipalli","17.408686","78.723731"
"ChIJ8YbcV-J0yzsRyg5qNRIzIyY","Bharat Petroleum","India","17.3793691","78.704503"
"ChIJ_bfgqlt1yzsRN09zMx4g0mM","Rishit Fuels | BPCL","9PH3+H2W, Daira","17.3793715","78.70454029999999"
"ChIJQeweFpkKyzsR-v-zL93m01k","Hindustan Petroleum Corporation Limited","Survey No 233, Hyderabad - Vijayawada Highway, NH 9, Pedda Amberpet","17.3178485","78.6643661"
"ChIJ3Rp6dTwKyzsRoruUp4VbA3g","Indian Oil Petrol Bunk","Ramoji Film City, Ramoji Film City Main Road, Anajpur","17.2689306","78.6852139"
"ChIJMfCe-CGhyzsRNz6wG6CdoDc","Bharat Petroleum Koheda - Lakshmi Raja Petroleum","near Koheda, Koheda - Sanghi Road, near Koheda, X Road, Hyderabad","17.2877155","78.64713239999999"
"ChIJGyjCtZ4KyzsRDN-rM2ROfAY","DEF FILLING STATION","India","17.3171882","78.6622788"
"ChIJKZvRoXSgyzsRLEroKwcXhK0","IndianOil","Sy No 173, NH 9, Pedda Amberpet","17.319815","78.651276"
"ChIJEVVdAgALyzsRdaZEYaGhZZI","Enviro Fluids DEF/Ad Blue Filling station","8M89+MGP, Hyderabad - Vijayawada Highway, Pedda Amberpet","17.3167022","78.66882389999999"
"ChIJBVEhIooLyzsR8PDjtZXyOzw","Raju Maharaj","RAHU MAHARAJ Neellappalya","17.3153188","78.6710978"
"ChIJRfQxRtwLyzsRj3ba_4MJtpU","Indira Petroleum | BPCL","8M89+9V4, Pedda Amberpet","17.3165951","78.6697174"
"ChIJ48-ngYgLyzsR43oX0nsBJgQ","Indra Bharat Petroleum","12, Abdullapurmet, Pedda Amberpet","17.3166408","78.6697564"
"ChIJyQjex0QLyzsRV_N-UDaA6rU","Hindustan Petroleum Corporation Limited","11A, Haytaythnagar, Sy No 244,11B,12A, 12B, Hyderabad - Vijayawada Highway, Pedda Amberpet","17.3156731","78.67106629999999"
"ChIJWxz9r0gLyzsRifO3eSglwSc","IndianOil","Ground Floor, NH 9, Hayatnagar, Pedda Amberpet","17.316302","78.67122599999999"
"ChIJb5qtM8WhyzsR7XewW3mMzo0","RAJU PETROLEUM","Pedda Amberpet","17.3220772","78.64412910000001"
"ChIJG97dWhOgyzsRfFBOlDQQvQs","Hindustan Petroleum Corporation Limited","Sy 90/1 & 90/2, Hyderabad Vijayawada Rd NH 9, Hayatnagar, Pedda Amberpet","17.3212422","78.64025889999999"
"ChIJDTBqxvQLyzsRRCxKQIU7qeA","Sri Dhurga Matha Filling Station Bharat petroleum","7MF9+P45, Umer Khanguda","17.2742692","78.6678647"
"ChIJD4bVxhSgyzsR1sS1ygtr_Zs","Bharat Petroleum","India","17.321365","78.63827669999999"
"ChIJCW9CXAChyzsRewyWB0KnBbU","Rachakonda Filling Station BPCL","8JCQ+H59, Pedda Amberpet","17.3213391","78.63821020000002"
"ChIJTYd1hZGhyzsR20Y5yrg0klM","Petrol pump","8JCQ+H59, Hyderabad","17.3214375","78.63793749999999"
"ChIJ6wNKVwChyzsRIFEpNnUkdqI","Hyt-o-t014","8JCM+R4M, National Highway 65, Hyderabad","17.3220939","78.6328056"
"ChIJO9ufEQChyzsRsQkx1wEN1j4","HYT-O-T-015","8JCJ+CXF, Pedda Amberpet","17.3217167","78.6321583"
"ChIJqUNgpz-gyzsRhVxkG_Jtzjg","Hindustan Petroleum Corporation Limited","S No 645/1, Hayathnagar, Pedda Amberpet","17.3218501","78.63137119999999"
"ChIJr9SKxeWmyzsRKXWso8a1ZkU","Indian Oil","6J93+934, Bongloor","17.2183933","78.6027067"
"ChIJ29qZVP2myzsRdjpy5aukRrQ","Pavan Petroleum Port - HPCL CNG ALSO AVAILABLE","opp. to SRI INDU COLLEGE OF ENGINEERING & TECHNOLOGY","17.21402","78.6123289"
"ChIJbY7NwMCmyzsRWp8wD2TDLD8","Hindustan Petroleum Corporation Limited","Survey No 112/B, Bongluru Cross Road, SH19, Hyderabad - Nagarjuna Sagar Road, Ibrahimpatnam","17.2244978","78.5940636"
"ChIJV-LSnMWnyzsRgbhk6wKTLTs","IndianOil","Survey No 246/A, Mangalpalle","17.2134108","78.6097115"
"ChIJddUKh96nyzsRtWrXVO6eka0","Bharat Petroleum Petrol Pump , SAI INDHANAM (ADHOC)","SY.NO.222/AA, SAGAR ROADBESIDE SRI INDU ENGG COLLEGE","17.213313","78.60970619999999"
"ChIJp8m2WhunyzsR34m_PruKCQI","Hindustan Petroleum Corporation Limited","Survey No 54, Sri Indu college of engineering, SH 19, Nagarjuna Sagar Road, Sheriguda","17.2138429","78.61118549999999"
"ChIJl-OjjDmnyzsRJimjtgPmPxU","IndianOil","Survey No 214 & 215 Sheriguda, Ibrahimpatnam, Adibatla","17.21094009999999","78.61666009999999"
"ChIJCT0LcC2nyzsRxyKIWps99YI","Bharat Petroleum Petrol Pump , YCSR FILLING STATION","near Y CONVENTION HALL (AFTER ORR, Nagarjuna Sagar Road","17.2247388","78.59482870000001"
"ChIJo4hFev2nyzsRS4siHYVAsZE","SAI INDHANAM","Patelguda Road, Manneguda","17.2201771","78.58578399999999"
"ChIJM9jD316nyzsRVgRWqmKLBNA","Hindustan Petroleum Corporation Limited","near Bongloor, Survey No 123/E Mangalpally Patelguda Road, near Bongloor, Cross Road, Ibrahimpatnam","17.2325101","78.589147"
"ChIJychN8aKnyzsRdVzxT4W7lbU","Hindustan Petroleum Corporation Limited","near Bongloor, Survey No 123/E Mangalpally Patelguda Road, near Bongloor, Cross Road, Ibrahimpatnam","17.2325101","78.589147"
"ChIJqZs-ctKnyzsRUFid-yj6GzA","Hindustan Petroleum Corporation Limited","Survey No 217, Koheda Road, Ramdas Pally","17.240123","78.612236"
"ChIJ180_A4ShyzsRHuSDc05izVo","Rev R P Indian Oil Petrol Filling Station","6HXP+R5G, Hyderabad - Nagarjuna Sagar Road, Manneguda","17.2496692","78.5856258"
"ChIJuVroWi-hyzsR1AiZbxe2CL0","S Sudeep","Hyderabad - Nagarjuna Sagar Road, Manneguda","17.2496433","78.5853348"
"ChIJ977gMgChyzsRFHK6UV7PoOk","Sai Baba Filling Station Manneguda","7H2P+P95, Pagoda Plaza Road, Manneguda","17.250909","78.58632999999999"
"ChIJmYGR_i2nyzsRZRBHtd_oT7A","Hindustan Petroleum Corporation Limited","D No, 7/70/1 SH 19, Nagarjuna Sagar Road, Ibrahimpatnam","17.194308","78.6443718"
"ChIJOT5rK0qhyzsR0aX3I_ZakqE","Bharath Petrol Bunk","opposite RTA IBRAHIMPATNAM, mannegud petrol bunk, opposite RTA IBRAHIMPATNAM","17.2529419","78.5860878"