place_id,name,address,latitude,longitude
"ChIJxw4mNcSZyzsRU2_7AAatWdg","IndianOil","No 3/5/1089, 16, Narayanguda Road, Narayanguda, Hyderabad","17.3962932","78.49100589999999"
"ChIJoZWbNLiZyzsRks_dtBUW-4Q","IndianOil","MCH No 3/4/897/2, Barkatpura, Narayanguda, Hyderabad","17.3949391","78.500588"
"ChIJAQAArCyYyzsRy5doyY1OCOs","IndianOil","8/28/5, No 4, RM Road, Putlibowli, Hyderabad","17.3812699","78.482693"
"ChIJK99eouOZyzsRZvKjUaz0acg","Hindustan Petroleum Corporation Limited","No 1/2/597/30, opposite P VKT Reddy, Indira Park Road, Hyderabad","17.4112","78.482933"
"ChIJUax_8WGXyzsRFh8loijfgPU","Hindustan Petroleum Corporation Limited","No 59, Basheer Bagh, Hyderabad","17.3995659","78.47459549999999"
"ChIJG4vNiWeXyzsRmb4VtbXTr3E","Hindustan Petroleum Corporation Limited","No 6, opposite IGP Office, 1/69/1, Saifabad, Khairtabad, Hyderabad","17.40341","78.46567999999999"
"ChIJi_xvH2iXyzsRDbdtGjM1B6w","Hindustan Petroleum Corporation Limited","Lakdi-Ka-Pul Railway Station, Lakdikapul, Hyderabad","17.4032419","78.46249660000001"
"ChIJLfT6JWiXyzsR1aX1dM6MNuY","Hindustan Petroleum Corporation Limited","Door No 6/2, 29/1, AC Guards, Masab Tank, Hyderabad","17.40288","78.46173"
"ChIJufNi_0KXyzsROWkMV3YtvX0","IndianOil","Ground Floor, Wooden Bridge, adjacent Nirankari Bhawan, Saifabad, Hyderabad","17.405803","78.4609469"
"ChIJt6QcmHyXyzsRBm9QeeXhep4","BPCL - Nampally Petrol & Auto Service Station","5-4-418, Srinagar - Kanyakumari Highway, Abids South, Nampally, Hyderabad","17.3906151","78.47029119999999"
"ChIJF7u4O3uXyzsRRDPu5Wm36KI","Hindustan Petroleum Corporation Limited","Mosque, opposite Ek Minar, 11/6/314, Nampally Station Road, Hyderabad","17.3909657","78.4676743"
"ChIJgVxjcNaZyzsRmHireNEvi5Y","IndianOil","409, GTK, D No 4/1, 13011, Street Number 5, Hyderabad","17.387311","78.4772964"
"ChIJKw5KCtaZyzsRuWG8Nmg436Y","Bharat Petroleum, Petrol Pump -Auto Lines,","Jawaharlal Nehru Road, Hyderabad","17.3866511","78.4764885"
"ChIJ03-3m_aZyzsRuw7vwiOWOfU","IndianOil","No 6, Prithvi darpan apartment, behind Marriot Hotel, 6/114/1, Kavadiguda Road, Bhagyalaxmi Nagar, Kavadiguda, Hyderabad","17.4244168","78.4917897"
"ChIJF6uhG7iZyzsRsNvsEIWgNI8","Hindustan Petroleum Corporation Limited","No 3/4/877, Barkatpura, Hyderabad","17.3941911","78.4984463"
"ChIJlzO5V9WZyzsRCFPB_gynFyQ","IndianOil","Ground Floor, Goshamahal, Hyderabad","17.3817514","78.4722742"
"ChIJ____P4KXyzsRH6cjD92G5n4","IndianOil","Ground Floor, Goshamahal, Hyderabad","17.37779919999999","78.47131399999999"
"ChIJe8xescqQyzsRLITXus0uR-E","IndianOil","D No 6, 3/654/B, Road Number 1, Banjara Hills, Hyderabad","17.4263641","78.4514373"
"ChIJR8YOtjOYyzsR2RhmIC6Cml0","SUPERGAS Auto LPG Station - Crown Metro Enterprises","16-6-33/1 & 2, Chaderghat road, Hyderabad","17.3776259","78.489419"
"ChIJees8jK-ZyzsRSR6Pv06qwas","IndianOil","No 2/2/1075/25G, Shivam Road, Tilak Nagar, New Nallakunta, Hyderabad","17.3937283","78.5108964"
"ChIJW8ZCriuWyzsRe8Q1XEBX_f4","IOC Petrol Pump","8CMG+VC9, Inner Ring Road, Vivekananda Nagar, Shivarampally Jagir","17.3346614","78.42612059999999"
"ChIJK1tBcaO9yzsRsl-n77arfzw","IOCL - Moula Service Station","S No 62, Gaganpahad, Rajendranagar mandal, Budwel","17.3027599","78.42048419999999"
"ChIJxes_MdiXyzsRovT5HcYEkC8","Hindustan Petroleum Corporation Limited","Ground Floor, Bangalore Road, Hasan Nagar, Hyderabad","17.3346545","78.4421272"
"ChIJza8ysDWWyzsRLmNROtJ4rfM","SUPERGAS Auto LPG Station - Go Green Enterprises","4-11-93/1/A, Chintalmet, Beside Patel Dairy Farm, Hyderabad","17.3521889","78.4261238"
"ChIJg-FrMdiXyzsRELWxphFRJvo","IndianOil","Bahadurpura - Aramghar Road, Meersagar, Tad Bun, Hyderabad","17.3405954","78.4503019"
"ChIJ1SkAnEyWyzsRTjs42ak0kZE","IndianOil","Ground Floor, Upperpally","17.3570049","78.4231226"
"ChIJpWJdCMKXyzsREBEMHoWwnls","Hindustan Petroleum Corporation Limited","opposite Zoo Park, H No 19/2/212, Bahadurpura, Hyderabad","17.3502303","78.4524804"
"ChIJr1xuJrC9yzsRJfEXBGEe4kY","Hindustan Petroleum Corporation Limited","Survey No 218, National Highway 44, Gaganpahad","17.29455","78.41816"
"ChIJIxvAu0a9yzsRyaO_bRrowow","IndianOil","Sy No 83, Rajendra Nagar, Mailardevpally, Hyderabad","17.3148473","78.45905599999999"
"ChIJFUEWOrGXyzsRP1WV3ntwQ0w","SUPERGAS Auto LPG Station","No: 19-5-128/1, NM Guda, Hyderabad","17.3617501","78.43731009999999"
"ChIJu4y7BbmXyzsRBIKK43uVpUY","IndianOil","No 19, 5/28/12/2/A, Kishan Bagh, Hyderabad","17.3594019","78.4444055"
"ChIJr7f9mLOjyzsRvwnFh-ANqLY","IndianOil","S No 187, 2, Bandlaguda Road, Vattepally, Mailardevpally","17.3155929","78.4652083"
"ChIJocuqZ02WyzsRtANuRo1JB_4","Bharat Petroleum Corporation ltd","Survey No 400, opposite Pillar Number 137, Attapur, Hyderabad","17.3657827","78.42819229999999"
"ChIJ618GsDq8yzsR_TaPRAfObxk","IndianOil","Sy.No: 148, 713, Shamsabad, Pashambanda, Hyderabad","17.3365137","78.38447219999999"
"ChIJ9azGy_2XyzsRVXfIZuTAX_s","IndianOil","MCH No 18/2/578/2, Falaknuma, Hyderabad","17.3364998","78.4683045"
"ChIJPRVKw1W9yzsRJILhNLC-23Q","Hindustan Petroleum Corporation Limited","opposite Falaknuma Palace, D No 18/2/474/3, Nagarkarnool, Jangammet, Hyderabad","17.3321894","78.4701503"
"ChIJBUnEfQeXyzsRcL0UZIWtMrI","Hindustan Petroleum Corporation Limited","Survey No 366, Rajendranagar, Attapur, Hyderabad","17.3266576","78.42921299999999"
"ChIJnwpldgC9yzsR9RNaZQfmC00","HP PETROL PUMP","6-1-33, Inner Ring Road, Shivrampalli Village, Shivarampally Jagir","17.3229949","78.4297342"
"ChIJ--wXf4K9yzsRnd4wBmtshKA","Hindustan Petroleum Corporation Limited","Aram Ghar, No 6/3/181/4/A/2 Kattedan, Cross Rd, Shivrampalli Village, Hyderabad","17.3230301","78.4298991"
"ChIJM8dPhXi9yzsRNeABhHjyS0c","IndianOil","Survey No 101, Attapur Ring Road Rajendrangr, Kattedan Road, Indra Reddy Nagar, Hyderabad","17.323505","78.430405"
"ChIJ9chKGdK_yzsRqGPWMcpKBc0","Hindustan Petroleum Corporation Limited","S No 4 Shamshabad, Thondapalli, Hyderabad","17.2479539","78.37426130000001"
"ChIJi650eAC_yzsRjy-3mJWo7PA","Hindustan Petroleum Corporation Limited","S No 577, Rallaguda, Shamshabad, Hyderabad","17.2629239","78.378712"
"ChIJp8AkbAC_yzsRBSGM41KYt8w","HP petrol pump","797H+HP5, R B Nagar, Shamshabad, Hyderabad","17.2638777","78.3793539"
"ChIJQQNskhK5yzsRJSoyO43aWOc","Hindustan Petroleum Corporation Limited","S No 26, 27 & 28, Shamshabad, Gandiguda","17.22778109999999","78.3500086"
"ChIJ-SmNBPC9yzsRwJ3Fymu-85g","Hindustan Petroleum Corporation Limited","Survey No. 87 & 89, near Delhivery Hub, Mansanpally Highway, Pedda Gollapally, Shamshabad, Hyderabad","17.2383189","78.39710649999999"
"ChIJ0RBxrru9yzsRz7iIZ5wkl1A","Fauji Petrol Pump","Plot No 1, Abdul Kalam Township Road, Shamshabad, Hyderabad","17.2592013","78.4056652"
"ChIJ7bNYczC8yzsRchPki18J5sI","Hindustan Petroleum Corporation Limited","Survey No 719, Peshambanda, Shamshabad, Hyderabad","17.2718183","78.3971187"
"ChIJLZ0pxxi_yzsRkuz8LH-0Yg4","IndianOil","Sy No 347/A, Chinnagolkonda, Shamshabad, Narkhuda","17.2576372","78.33197369999999"
"ChIJ9yGi8PXHyzsRHjsvamAic8w","IndianOil","Mahabubnagar, Ground Floor, Thimmapur, Rangareddy Inmulnarva","17.1557034","78.2924201"
"ChIJ_6JFXwrIyzsRTJogEoybrfQ","Hindustan Petroleum Corporation Limited","Survey No 1950, Ayyappa Nagar, Kothur","17.134629","78.27292969999999"
"ChIJqztw-jK4yzsRyZb2_i-OGuc","IndianOil","Survey No 37, E Maheshwaram, Chegur","17.153582","78.336255"
"ChIJ9VyB5lC5yzsRYLfq7MEdO44","Hindustan Petroleum Corporation Limited","Survey No 88, NH 44, Thimmapur","17.1640998","78.2965461"
"ChIJrWqyEJC5yzsRcaiR8jmqfdo","Hindustan Petroleum Corporation Limited","Survey No 109/AA, Kothur","17.1744579","78.2937905"
"ChIJOXStXya5yzsRQNjU5O0OC6E","Sri Venkateswara filling station","5866+JC8, Peddatupra","17.1615351","78.3110761"
"ChIJT-i3hdu5yzsRHrBzrAXqAW8","BHARATH PETROL PUMP","Penjarla Road, Kothur","17.1392932","78.295377"
"ChIJ0xf7UQDHyzsR23Z6XDUMFIM","Hindustan Petroleum Corporation Limited","Kothur By- Pass National Highway 44, Kothur","17.139619","78.288553"
"ChIJg6ikIADHyzsRNUFGidQgCQA","RK_CNG_PUMP_H02","47QG+PCF, Anthireddyguda","17.1387527","78.2759068"
"ChIJy5zrMve5yzsR4yvSs1ltWk0","Bharat petroleum","58Q5+8W4, Venkannaguda","17.188772","78.3087377"
"ChIJyeM5AeLHyzsRw3eN9vmWlAg","Bharat Petroleum, Petrol Pump - KVLS FUELS","Thimmapur","17.1365643","78.2763724"
"ChIJJfEYMADJyzsRxGT1vir9zl0","Bharat petroleum","47JJ+8PP, Siddapur","17.130851","78.28137199999999"
"ChIJl4UewoLJyzsRLiXMbT1zGOE","Essar Petrol Pump","National Highway 44","17.1303645","78.2809008"
"ChIJX09T8VTJyzsRZggoks0R-OQ","Hindustan Petroleum Corporation Limited","Survey No 192/E, JP Dargah Road, Nandigama","17.1271896","78.28899679999999"
"ChIJE2e41MzJyzsRutKZeS0vKfA","Jio-bp","Survey No 1951A & 1952B Nandigam, Kothur","17.130502","78.267425"
"ChIJmbBoD9O5yzsRVXJKBtCKZyE","Hindustan Petroleum Corporation Limited","No 68, A1/2, Madanpalle","17.1879402","78.32827689999999"
"ChIJUeJpAznJyzsRsXdlbzCf_Bo","ANR FILLING STATION (NAYARA PETROL PUMP)","Shop No. 8-75/B, Chattan Pally, Service Road, Shadnagar","17.06645259999999","78.21690269999999"
"ChIJ73V0MU_JyzsRmTaHmkvXXIM","Hindustan Petroleum Corporation Limited","Survey No 172/A, Solipur","17.055132","78.21101929999999"
"ChIJyxAyKFPJyzsRmTwLKUUgbtk","IndianOil","Ground Floor, IndianOil, Chatanpally, Shadnagar","17.047691","78.2024594"
"ChIJt9RJXsjJyzsRmx8k8R4N4No","IndianOil","Sy No 42, A & 375/A, Chatanpally, Shadnagar","17.0831513","78.2319978"
"ChIJJaVqdCjJyzsRST1BVx2Qy20","IndianOil","Survey No 758, opposite RRGA Station, Chatanpally Road, Shadnagar","17.084401","78.21292009999999"
"ChIJH_MdDijJyzsR4jg-29GIde8","RR HP Fuel Point","36P7+24R, Millennium township, Shadnagar","17.0851217","78.21277099999999"
"ChIJyT-Z-CjJyzsRkzThT66Lgtc","Bharath Auto LPG Filling Station","36M6+7CF, Mahbubnagar","17.0831853","78.211047"
"ChIJjStgWP3JyzsR6OzvVQq_3zA","Hindustan Petroleum Corporation Limited","Survey No 166P, Shadnagar","17.0833687","78.2103546"
"ChIJrygMdv3IyzsR8kznK2rqxZ0","Hindustan Petroleum Corporation Limited","Survey No, 358/A, near Hanuman Statue, 358 & 358/U, Chatanpally, Bypass, Shadnagar","17.08896","78.238903"
"ChIJ_6scOSnJyzsRxIS4sKCzdxc","HP LPG Warehouse","36J5+FPJ, Farooqnagar","17.0812012","78.2092503"
"ChIJwQ6tap3JyzsRnVftJbWjOUw","Bharat Petroleum | Jainarayan Pusaram","NH 7, MAHBUBNAGAR, SHADNAGAR","17.0817499","78.20856959999999"
"ChIJQwTfIrvJyzsRh7y_tcFIMxQ","Hindustan Petroleum Corporation Limited","Survey No 337, A & 340/A, Shadnagar","17.0911764","78.2402753"
"ChIJH6W6iDPJyzsR3pnpIS9NT5U","Hindustan Petroleum Corporation Limited","D No 15/89, near Shad X Road, NH 7, Cross Road, Shadnagar","17.068685","78.2057043"
"ChIJ0cqxaxjJyzsR990NRBBiM_4","IndianOil","Sy No 201, Near TSRTC, Shadnagar","17.0670902","78.2051013"
"ChIJ07z3zPrJyzsR1REJAYQjpfQ","K.SHIVA.TSRTC PUMP","Shadnagar","17.0664067","78.2048989"
"ChIJd2RyTgDJyzsRmKPnpTu60sI","Megha CNG gas filling station","3646+2HC, National Highway 44, Farooqnagar","17.055181","78.2108884"
"ChIJuxM1XxnJyzsRuUcF3M17vu4","Bharat Petroleum | Sai Ganesh Fuel Point","SHADNAGAR, MAHBUBNAGAR","17.0612061","78.2043068"
"ChIJX9PJ9krJyzsRF9r1ZJjca3Q","Essar Petrol Pump","3663+5V3, Shadnagar","17.0603923","78.20465999999999"
"ChIJba4eVMzOyzsRvIgqZNyY3Yg","Indian Gas Station","35CX+6HC, Pargi Road, Shadnagar","17.0705596","78.198878"
"ChIJveTxh8zOyzsRi4Cv5_xEEMg","Hindustan Petroleum Corporation Limited","Pargi Road, Shadnagar","17.0687","78.19926"
"ChIJo-tX5wvMyzsRQpDD_X4mOPY","SVR FUEL AND CNG GAS STATION Bharat Petroleum","1 km Befor Raikal tool gate, Towards Hderabad, to, Hyderabad - Bangalore Highway, Chilkamarri","17.0211234","78.1976943"
"ChIJF8ihbwnMyzsRdi62E-xi7cI","Hindustan Petroleum Corporation Limited","Survey No 43/A, Shadnagar","17.022304","78.1979255"
"ChIJ4fu79HzMyzsRo1B9mJC0M5I","IndianOil","Sy No 181/AA, Chatanpally, Shadnagar","16.9962476","78.192696"
"ChIJ3x_m6nzMyzsRPAcQuqvG3IQ","K.Venkata Lakshmi Srinivasa Fuels | Bharat Petroleum Corporation Limited","KM Stone 55, Raikal, near Raikal Toll Plaza, NH-44, Banglore Road, RHS, Hyderabad","16.9963194","78.1922991"
"ChIJP2kjcQDNyzsRCaKO9u0m3Gk","Tata Motors AdBlue","X5XV+377, Raikal","16.9976637","78.19318679999999"
"ChIJnbHO3UjNyzsRXVXlBI9JH5w","TATA D.E.F STATION","Raikal Toll Plaza, Near, NH44, Shadnagar","16.9977063","78.19322369999999"
"ChIJ0acNcQDNyzsReohcel1DrFU","BHARAT PETROLEUM - SRI MANIKANTA FILLING STATION","X55P+CGG, Balanagar","16.9593968","78.1865818"
"ChIJkzOQSHjNyzsRrgXLdBLgX1c","Hindustan Petroleum Corporation Limited","Survey No 36, Balanagar","16.959445","78.185887"
"ChIJbcsncQDNyzsRLc5nGgHrFTc","DEF/ ADBLUE","Dashmesh Punjabi Dhaba, Raikal","16.9992581","78.19266739999999"
"ChIJy2UNdgDNyzsRbQytZRnPHos","AdBlue/Rani5G","252V+357, Raikal","16.9998324","78.1929914"
"ChIJX1AtGojNyzsRD7eeOwS3t-o","AdBlue Fuel station","Maharaja Dhaba, NH-44, Hyderabad - Bangalore Highway, Shadnagar","16.9998118","78.19361669999999"
"ChIJxRJv_ifNyzsRUrHuCWS2MwQ","IndianOil","Survey No 40, A, Jubilee Hills, Balanagar","16.9566265","78.1846265"
"ChIJL5xUJUTNyzsRHUTzYgV3Qew","Sri Sai Medical Stores","3-4-67,Opp Mro Office Road, Near, Main Road, Balanagar","16.9479835","78.184478"
"ChIJe5-R5XzNyzsRzkHSUNhxFLM","NGR Filling station","SYNO 230 Balanagar village & mandal","16.9470455","78.1856368"
"ChIJVeZoqUvNyzsRspOii4_Ew7I","IndianOil","Survey No 18/Aa, Balanagar, Gunded","16.950955","78.16669399999999"
"ChIJQ7lsME7NyzsRAuDLZQsEzaA","Hindustan Petroleum Corporation Limited","Survey No 27, EE NH 44, Farooqnagar","17.0162272","78.1962939"
"ChIJNdjFtqAzyjsRwA4g0_Lv21k","BP COCO Petrol pump, Rangareddyguda","V5WF+QM7","16.8969132","78.1741747"
"ChIJxV3eh84zyjsRRhvQhPm89iY","Bharat Petroleum | Srinivasa Filling Station","RAJAPUR, MAHBUBNAGAR","16.8668825","78.1630921"
"ChIJMTCwqkgzyjsRRby2N9RowTo","IndianOil","Survey No 853, 1/1, Rajapur, Buddharam","16.8670997","78.1542552"
"ChIJQeRsE5EzyjsR5bfw1k8tLfA","Ms Bhavani Ksk Filling Station","near Rajapur, Rajapur, near Rajapur, Jadcherla","16.8672804","78.15431989999999"
"ChIJx1sMAckzyjsRDaXjvB6tl8k","IndianOil","AA, Survey No 267/A & 267, Rajapur","16.874191","78.165841"
"ChIJ2XsFs6AzyjsRUsRxDatdKmI","Bharat Petroleum","India","16.8970814","78.1740432"
"ChIJp-rCQIQxyjsRMykuOqPvo3I","Rama Chandra Sarvice Station","6-78, New Bustand Road, Jadcherla","16.7750225","78.1327553"
"ChIJxc_buRQwyjsRA4Htrpz2Ui0","Hindustan Petroleum Corporation Limited","Ground Floor, Jadcherla Cross Road, Jadcherla","16.77427399999999","78.1318907"
"ChIJM-DcrHAxyjsR4HyoY04Zjyk","IndianOil","No 486/A/2, Jadcherla","16.7774796","78.13429049999999"
"ChIJZ79vzm0wyjsRsNdBra6qAXg","Bharat Petroleum, Petrol Pump -Sai Baba Filling Station","JADCHERLA TOWN, Mahbubnagar","16.7707986","78.1385665"
"ChIJ2ehqC24wyjsR508guDTTjUQ","IndianOil","Survey No 229/E, Ediganipally, Jadcherla","16.769646","78.1396401"
"ChIJpcjBHYcwyjsRdpdeT8eYRaw","IndianOil","Survey No 617/AA, Road, Gangapur","16.7652887","78.1396302"
"ChIJ9-6Hog8wyjsRmW17TLy1Izo","IndianOil","Ground Floor, Jadcherla","16.764094","78.122165"
"ChIJfTItZUYwyjsRUhFLliRSaXY","Bharat Petroleum and CNG gas Corporation Limited","Macharam, Polepalle","16.7890776","78.13887849999999"
"ChIJDeNcZQAxyjsRC7DhvF7EVJM","H B FILLING STATION - BHARAT PETROLEUM","Q4F7+47, Jadcherla","16.7728656","78.1132111"
"ChIJKSJGXsQxyjsReyT8Z_eBDLo","Hindustan Petroleum Corporation Limited","Survey No 115, E1E & 115/E1AA, Mahabubnagar - Jadcherla Road, Jadcherla","16.772151","78.11312699999999"
"ChIJ0w70C9MxyjsRp4o2zJJllgE","Bharat Petroleum, Petrol Pump -Ch. Yegnaiah & Sons,","JEDCHERLA, Mahbubnagar","16.7596292","78.1455189"
"ChIJGeUTQzoxyjsRwLNjh_Cxj5k","Bharat Petroleum | M/s. Sharada Filling Station","SY. No. 71/E, 72/U2, Bhureddypally, Jadcherla","16.7603953","78.1181896"
"ChIJ7fj2GHgwyjsRGrmQUgpXeME","IndianOil","Ground Floor, Jadcherla","16.759373","78.14538499999999"
"ChIJ2QX8P08wyjsRHYkK8PqVE3E","IndianOil","Ground Floor, opposite Police TRG Centre, Jadcherla","16.793299","78.140427"
"ChIJcQ9hQhgxyjsRBr4vdAI7iqA","HPCL Petrol Pump","Q4WR+369, Macharam, Polepalle","16.7951641","78.14046200000001"
"ChIJuwbtKYUwyjsR6wrlx2vgZww","Shri Lakshmi Venkateshwara Filling Station","Jadcherla - Kalwakurthy Road, Kalwakurthy","16.7656502","78.15922119999999"
"ChIJK8WYz8M7yjsRn7jWa_AsjZ8","Raghavendra Fuel Station","4, 67 Road, Nagasala","16.749533","78.1494946"
"ChIJT-xKXro7yjsRz1EDMW5QvS4","Madhu Fuel Station","Pvrfuelstation, Jadcherla","16.7495067","78.1495398"
"ChIJv00eVKg7yjsRPE75wf275qs","PVR FUEL STATION","SH 21, Ngkl Road, Jadcherla","16.7495067","78.1495398"
"ChIJ7zj4gLk7yjsRT3YJlyKSerM","Sandeep Goud Fule","SH 21, BijiNepali Road, Jadcherla","16.7485489","78.1498293"
"ChIJ63bjjEckyjsRiCqmepfq8FA","Bharath Petrol Bunk","Boothpur, Potulamadugu, Mahbubnagar","16.691522","78.0427541"
"ChIJBSLlE1clyjsRwbQUsHCbv64","SUPER PURE FUELS","S No -133/U, National Highway 44, Pothulamadugu","16.6915111","78.0429845"
"ChIJGxRhr84lyjsR7oOxarTSzwQ","SUPER PURE FUELS","U NH 44, Plot N0 133, Pothulamadugu","16.6924492","78.04242119999999"
"ChIJQdsw8lEkyjsRnzTd6Izwmxw","Ashirwaad fuels (BPCL)","near Bharath Petrol Pump, 1-2, Ngkl Road, Bhuthpur","16.6990679","78.0549143"
"ChIJwY1GXWYlyjsR8VW_xSM7oeA","IndianOil","Sy No 364, 1C, Addakal, Bhuthpur","16.695601","78.058801"
"ChIJV-uBTxkkyjsRFfMFKfCxpe8","IndianOil","Sy No 102/A, NH 7, Addakal","16.675452","78.02645799999999"
"ChIJ5X_FESclyjsRw5OLTo0blhM","Bharat Petrol Bunk","P27J+G7M, Bhoothpur Road, Amistapur","16.7138483","78.03066369999999"
"ChIJCeSMMdUlyjsRL1Neb0AC0j0","Hindustan Petroleum Corporation Limited","Survey No 260, beside Sai Baba Temple, Bhoothpur Road, Palakonda (R)","16.7163498","78.027203"
"ChIJMQ0fKA8lyjsRvn0-jxCZx3A","IndianOil","Sy No 197/B, Addakal","16.720593","78.070543"
"ChIJ99md7jIlyjsR9zCepZq0GmE","Sri Balaji Petroleum","Hyderabad - Bangalore Highway, Sherpally","16.7206073","78.0714484"
"ChIJU43IdwAlyjsRAu-_gqKnlxY","Shakthi Fuels","Bypass, Palkonda Rd, Mahbubnagar","16.728674","78.02122"
"ChIJ0cp8kEkgyjsRnETa1ArCMAg","Bharat Petroleum","DKR Alivelamma Filling Station, Sankalamaddi","16.586559","77.96714759999999"
"ChIJccfEiA4hyjsRpJxaox9wamE","DKR ALIVELAMMA FILLING STATION -BPCL , CNG meghagas","HXP8+HR, Sankalamaddi, Kothakota Road","16.586922","77.9672555"
"ChIJGVEzKdUfyjsRwJ2q8DFNonI","Hindustan Petroleum Corporation Limited","Survey No 27/A & 27/AA NH 44, Kurnool Road, Hyderabad","16.5256174","77.94013989999999"
"ChIJA-pJukIfyjsRTlpFn73VHp8","Hindustan Petroleum Corporation Limited","Survey No 291, NH 44, Hyderabad - Bangalore Highway, Kurnool","16.485098","77.9353119"
"ChIJ_ya3_o8dyjsRfOMwW0p43UI","IndianOil","Sy No 130/A NH 7, Kanimetta, Amadabakula","16.432538","77.939314"
"ChIJq3gXWDMdyjsRnUs3P-Wvh1Q","IndianOil","Survey No 382/Aa, Kothakota","16.376016","77.956986"
"ChIJ5YuUOCodyjsRPwX5niSSok0","Hindustan Petroleum Corporation Limited","Survey No 405/A2, Atmakur Road, Kothakota","16.3823505","77.9321965"
"ChIJia7Hh0YdyjsRXOCHXoryVzk","IndianOil","Survey No 12/2, Kothakota","16.387898","77.93969299999999"
"ChIJYWRs7U8dyjsRiXKmYhNoU0M","HP PETROL PUMP - SRI VIGNESWARA AUTO FLG. STN.","S. NO. 7 Kothakota (V) Kothakota(m), Secunderabad","16.385169","77.94091000000002"
"ChIJ0Qm3ZhwdyjsRwPqFyrMYkV4","Hindustan Petroleum Corporation Limited","Survey No 7, Hyderabad - Bangalore Highway, Kothakota","16.3851065","77.940985"
"ChIJxR-7OJ4dyjsRgKwGftn51_E","Bharat Petroleum, Petrol Pump -Venkateswara Pet Age","KOTHAKOTA, MAHBUBNAGAR","16.3774521","77.941561"
"ChIJb2prd6wDyjsRvk8PgTROuxk","Bharat Petroleum Petrol Pump , SRI BHAVANI SHANKER FILLING STATION","OLD HYDERABAD, Kurnool Road","16.3695572","77.9431353"
"ChIJNQWMuccDyjsRdbb-QDKzrq8","Sree Laxmi durga filling staion","9XF6+4H, Kanayapally","16.3731154","77.9614995"
"ChIJk9keo4AdyjsRQj8Akb4G3Ns","Hindustan Petroleum Corporation Limited","Survey No 77, NH 44, Kurnool Road, Hyderabad","16.4158975","77.9400964"
"ChIJj_RfHQAdyjsR9ajjP4SiBIs","Badra Srinidhi fuels","Sy no 442/A3, National Highway 44, Palem","16.416964","77.939514"
"ChIJR_qmYncdyjsRvE7oj7HOU3U","IndianOil","India","16.4169505","77.9396105"
"ChIJqVXRTwAdyjsRe9ClQh6mHbA","Badra Sri Nidhi fuels","CW8Q+QVM, Shakhapur","16.4169537","77.9396805"
"ChIJzwMA7Jr3yTsRwKL9j3N27Go","IndianOil","H, No 3/23, Madanapur","16.3848701","77.89213699999999"
"ChIJkdlH9-gDyjsRv_eVY6ha2LM","IndianOil","Sy No 191, A1 191/A2, Amadabakula","16.3451854","77.9488518"
"ChIJD5ap3z0CyjsRln-bSac31XY","Bharat Petroleum Satya Bala Pure Fuels","7XX3+Q72","16.2993958","77.9531549"
"ChIJPdu32PYByjsRxoX2VejkPXE","IndianOil","Survey No 198, Kothakota,Miraspally, A & 198/Aa, Pebbair","16.249128","77.95862900000002"
"ChIJq3cpwI8ByjsRhr0n6OJYRzI","Hindustan Petroleum Corporation Limited","Survey No 196, A/1 & 197/A/1 NH 44, Kurnool Road, Hyderabad","16.24876369999999","77.9594269"
"ChIJNTjEBqIAyjsRatjOMGshWUY","Sri Venkateshwara Pure Fuels","Kurnool Road, Pebbair","16.1980972","77.9965953"
"ChIJM7d8HcL_tTsRtcGQlNFNd_0","Hindustan Petroleum Corporation Limited","Survey No 447, Kurnool Road, Pebbair","16.1903439","77.98837979999999"
"ChIJYzmQTAD_tTsR6btuc8dsxQ4","Hari Krishna filling station","52R2+VPM, Pebbair - Kollapur Road, Kollapur","16.1922164","78.0017864"
"ChIJj1hqTR3_tTsRUm-9FiDoe2Q","IndianOil","Sy No 319, 1319/2318216, Pebbair, Miraspally, Chelimilla","16.1904701","78.0025601"
"ChIJa7cpDJgAyjsRHCswGQ2LUxQ","IndianOil","Ground Floor Pebbair, Wanaparthy, Miraspally","16.202819","77.99613599999999"
"ChIJebgLZZIAyjsRr9nioWV-PB8","ESSAR","6X6P+HFV, National Highway 167K, Pebbair","16.2114788","77.9861629"
"ChIJ-2lp_df_tTsRzeYdOXvW1Tk","Bharat Petroleum, Petrol Pump -S.S Enterprises","RANGAPUR, MAHBUBNAGAR","16.1670632","77.95061989999999"
"ChIJYzsV2AoByjsR9VFUQ6BX_gw","Hindustan Petroleum Corporation Limited","Survey No, 11, Wanaparthy Road, Pebbair","16.2136622","77.9955124"
"ChIJn541S_wpyjsRqZeIM6X1_gg","IndianOil","Ground Floor, Pebbair","16.2190294","77.9765266"
"ChIJK5JCiysByjsRXtfto710kfw","Hindustan Petroleum Corporation Limited","Survey No 899, NH 44, Pebbair","16.2239763","77.968671"
"ChIJmcT7w_UAyjsRHTzQeYEKE78","Annus Filling station HP Petrol Pump","Sy.no:899 Mandal, Pebbair","16.2242641","77.9688649"
"ChIJG5p2Dl8AtjsR0eIuzRac3tQ","Hindustan Petroleum Corporation Limited","Survey No 492 A/B/C NH 7, Itikyal Mandal, Erravalli","16.1426051","77.9018614"
"ChIJQfxIql0AtjsRGVp4lB_dXi4","Bharat Petroleum","4WX3+V76, YERAVALLI, Gadwal","16.149415","77.9033788"
"ChIJ77s7cfYAtjsRhJbGq-23XuI","Indian Oil","India","16.1387037","77.899187"
"ChIJAbzHRksBtjsRuUUsktFzAxA","ESSAR PETROL PUMP","5V2X+QV2, Yerravalli, Gadwal Road","16.1518786","77.89962799999999"
"ChIJOz2tVAABtjsRga_KvK15aw8","10th BN WELFARE FUEL STATION BEECHPALLY","5W38+244, National Highway 44, Beechupalli","16.1525091","77.91532389999999"
"ChIJdSd3C2UAtjsRuhg2PoYI8w4","Hindustan Petroleum Corporation Limited","Ground Floor, NH 44, Hyderabad - Bangalore Highway, Kurnool","16.15234","77.9156124"
"ChIJY4dqmHoAtjsR4M-byfnX9nw","Hindustan Petroleum Corporation Limited","S No 7, Ku Kothakota, Kurnool Road, Gadwal","16.1543885","77.9220242"
"ChIJWRTc_zAHtjsR5LFpddZq_0c","IndianOil","Sy No 420, A/2, Vemula","16.0497621","77.91616069999999"
"ChIJoQZgXlD9tTsR0V__gRrbAq0","Laxmi Narasimha Filling Station","2W7P+QPF, Chandapur","16.0144335","77.9368082"
"ChIJ0fzKYVD9tTsRBxdAskCH6q4","Bharat Petroleum","India","16.01438869999999","77.9368198"
"ChIJJ3l0bUP9tTsRJpLV2tmczus","IndianOil","Survey No 36/A2, 36/B3 & 36/B1/1 Dharmawaram, Itikyala, Bonkur","16.0710941","77.9552482"
"ChIJKbaTLAvjtTsR9nlVZERbPlo","Bharat Petroleum Ghar COCO","XX7W+XJV, National Highway 44, Bonkur","15.9647371","77.99697119999999"
"ChIJq8-e7v_jtTsRwrHK8mMLuAI","IndianOil","S No 252/2, Alampur Cross Road, Alampur (P","15.918101","78.01860099999999"
"ChIJXfEQK_fjtTsRQKI9msOVqSw","IndianOil","Sy No 395/A1 & 395/A2 Undavally, Mahabubnagar","15.9490001","78.015101"
"ChIJV5wdijTjtTsRwuI0kioCrg8","ROSHAN GAS AGENCIES","W28C+W2M, Alampur Cross Road, Pullur","15.9173392","78.02004989999999"
"ChIJo6cVQQDjtTsRQaMwNfxYyFE","BPCL RETAIL OUTLET VAIKHANASA PETROLEUM","WX9V+J4P, Pullur","15.9190983","77.9928228"
"ChIJgZ4CD07ntTsRx-WevcaXNpI","Hindustan Petroleum Corporation Limited","Survey No 283, EE/2, Alampur Cross Road, Undavelly","15.915775","78.030052"
"ChIJ5d3Qo7fgtTsRpw9mDZor4cI","IndianOil","Ground Floor, National Highway 44, Santosh Nagar Colony, Munagalapadu","15.844186","78.009216"
"ChIJBaO7CS3htTsRLwGm9RmLyCc","Hindustan Petroleum Corporation Limited","Ground Floor, Pullur","15.8792901","78.0167101"
"ChIJn0UBYVXntTsRIDG2qqwSMo8","Hindustan Petroleum Corporation Limited","PB No 13, Guru Raghavendra Nagar, Kurnool","15.8188497","78.0116589"
"ChIJ83Rd9vvdtTsRQTMj9BJ5vGc","IndianOil","Ground Floor, near Osmania College, NH 7, Sampath Nagar, Kalluru","15.817452","78.02533799999999"
"ChIJ5xP9DfXdtTsRo51AXIONtWU","Sri Jayashree Service Station","Hpcl Dealer 46/92budoarmpet AP, Kurnool","15.8233554","78.0402375"
"ChIJU11sksbgtTsRTzufGa1iL6E","Bharat Petroleum, Petrol Pump -Anagha Surface Transport Pvt Ltd","MAMIDALAPADU, 83-133/1, Santosh Nagar Colony, Kurnool","15.8505986","78.0045397"
"ChIJ0YpHJFbntTsR2rBhXASN9AA","Ssm Enterprises","Masa Masjid, Bus Stop, Kotha Road, Munagalapadu","15.8487482","78.0212797"
"ChIJlYcuDbLgtTsRDzznq_wm1Gw","Hindustan Petroleum Corporation Limited","Ground Floor, NH 7, R, Santosh Nagar Colony, Kurnool","15.835551","78.015221"
"ChIJKQrhbGPhtTsR48EsX_Tm2Kw","Bharat Petroleum, Petrol Pump -P. Jagannatham (Hsd)","Kurnool Road","15.87382120000001","78.015577"
"ChIJCXDhlivhtTsRLX2YOGOLu7g","IndianOil - SWAGAT","Survey No 280, Part 281/3 Panchalingala, Bhagya Nagar, Kurnool","15.874577","78.015633"
"ChIJQWzhqVLntTsRu3DqkFDHnto","Hindustan Petroleum Corporation Limited","102 & 103, Survey No 391, Plot No 101, Venkata Ramana Colony Main Road, Ameen Abbas Nagar, Kurnool","15.835506","78.0199671"
"ChIJLYaMKobhtTsRNIJADoWx_00","Indian oil","RTA check post, Panchanigala, Kurnool","15.878591","78.0159458"
"ChIJa-hBxZXhtTsRq84TLSZUZoM","Raja Chandra Kanth","Checkpost RTA Checkpost, NHAI Road, Panchalingala","15.8789778","78.0161215"
"ChIJwSXSjBzhtTsRk0n_dVvjMjs","Srinivasa Auto Fuels | HP Petrol Pump","Survey No:234-1A, L.P No: 1543 Ac 1-044 Bengaluru Road , Allugundu, E Post, Allugundu Village, Mallepalle","15.830224","78.017662"
"ChIJvaKOozTntTsRfVxzM91l2Xo","Bharat Petroleum Petrol Pump , SRI VENKATESWARA PURE FUELS","SY.NOS 87/1A, 87/2A, 87/3AVENKATA RAMANA COLONY","15.834923","78.025975"
"ChIJg5YH30XntTsRVqPcno-xyQc","Jai Maruthi Fillings BPCL","R2RM+M4F, Kurnool","15.8416972","78.0328009"
"ChIJuajXUjLhtTsRN0rbqAwSfGw","IndianOil","Ground Floor, Alampur (P)","15.8841621","78.0165317"
"ChIJ2Qhzh6rgtTsRPMYno-Ip_cc","Hindustan Petroleum Corporation Limited","Survey No 312, 1 & 321/1, A.Gokulapadu","15.824392","78.016701"
"ChIJP39g10TntTsRAK4W6QE_buY","Nayara Petrol Pump","nearby Bellary Chowrastha, 308, Guru Raghavendra Nagar, Kalluru","15.8243099","78.0199252"
"ChIJ0-8kVWDftTsRrNK00HItiTM","Hindustan Petroleum Corporation Limited","Ward No 76, Survey No 142, near All India Radio Station, 2B1/143/A3, Kodumur Road, Nehru Auto Nagar, Kalluru","15.820466","78.00345899999999"
"ChIJG8qmjsPdtTsRfbk4XTQ7M1M","Bharat Petroleum, Petrol Pump -P. Vishwanatham","Gooty Road, Abbas Nagar, Kallur, Kalluru","15.7964324","78.0347401"
"ChIJcf3blKHetTsRrP6QqHAUcBY","Bharat Petroleum","India","15.7529406","78.01505670000002"
"ChIJv1_ryi3ctTsRjWLyMaT6sAs","Gorantla Fuels-Nayara Energy Fuel Station","Sy No: 284/1C, Dinnedevarapadu","15.7739185","78.0282648"
"ChIJM9HF2v3dtTsROOT4qJlPukc","Lpg gas station","Q2JJ+68H, Venkannabaavi Bus Stop, National Highway 44, Pandipadu","15.7805502","78.03087459999999"
"ChIJA-q6Y83dtTsRBMEiABIAais","Vaibhava Go Gas Fuel Station","National Highway 44, Dinnedevarapadu","15.7804161","78.0311885"
"ChIJeXDkYgDZtTsRMa4_lz8b_Io","HP Petrol Bunk ⛽","S-185, Pedda Tekur","15.7231385","78.00180069999999"
"ChIJ2VFmGEnZtTsR1-v89C34FyY","Hindustan Petroleum Corporation Limited","S No 187, Hyderabad - Bangalore Highway, Kallur, Kurnool","15.7229327","78.00053869999999"
"ChIJK8SGwwHdtTsRunpp1vi7-Us","Hindustan Petroleum Corporation Limited","Survey No 599/1, NH 44, Hyderabad - Bangalore Highway, Kallur, Kalluru","15.797462","78.03389299999999"
"ChIJBySfTwDdtTsRacT_gtkfMTo","SAI BHARATH HP FUEL STATION","Q3H5+32P, opposite pulla reddy dental college, Dinnedevarapadu","15.7777215","78.0575772"
"ChIJ42IwGgDdtTsRUHjUoJh0z1o","Hindustan Petroleum Corporation Limited","Survey No 7, A1, Nandyal Road, B. Thandrapadu","15.777843","78.057541"
"ChIJpx80XFrZtTsRJXmX69GWU28","HARSHATH MECHANIC","4-132/4, Ulindakonda Highway, Ulindakonda","15.6455097","77.970648"
"ChIJw5d6HrXZtTsROX9SiBRVZY8","Shrivii Green Energy","JXXF+X2W, Ulindakonda Highway, Ulindakonda","15.6499968","77.97258529999999"
"ChIJhTJfo4bZtTsRO6lHZ_oaknI","IndianOil","Ulindakonda","15.6501719","77.9728487"
"ChIJE1KYpgXWtTsRWEmCZepxAd0","IndianOil","Survey No 567, Kesanapalli, Veldurthi","15.5508959","77.9376906"
"ChIJP-8JRwfXtTsRi5VSj_GIiyM","SRINIVASA AUTO FUELS","E.mallepally, Veldurthi","15.5533014","77.9292916"
"ChIJjxnV7Tx5tjsRnD_viFjdx6s","Hindustan Petroleum Corporation Limited","Survey No 234/2B, Shiva Ramakrishna Reddy Nagar, D No 14/629/4, Veldurthi","15.549645","77.928001"
"ChIJaf_ng6l4tjsRi-jVOc3gDDY","IndianOil","Ground Floor, Kesanapalli, Veldurthi","15.548023","77.925666"
"ChIJ131MXufXtTsRNmWhabvu27k","Veldurthi indane gas godown","HW2Q+2H4, State Highway 31, Veldurthi","15.5500028","77.938953"
"ChIJWcD2WQB_tjsRpjr35u75V7M","DEF","GWHF+V4, Veldurthi","15.5296409","77.9228007"
"ChIJ6_IFFwDXtTsRuZ5yqED6Tqs","Srinivasa Auto Fuels Hindustan Petroleum filling station","HWWW+QX, Mallepalle","15.5969483","77.9474298"
"ChIJ48jR8MV_tjsRRu3yh2RIQJQ","JayaShree Filling Station, Bharat Petroleum Corporation Limited","Kurnool","15.4641918","77.894272"
"ChIJheuC7zSBtjsRlTwbHO_PF7w","Hindustan Petroleum Corporation Limited","Survey No, 234/1A, Kottapalli, Kurnool","15.3795501","77.838701"
"ChIJXYDnkjOBtjsRUz1T33OtngY","IndianOil","Ground Floor, NH 7, Dhone,B, U.Kothapalli","15.382781","77.840903"
"ChIJWYL9CCeBtjsRe05-T6x5FTQ","Bharat Petroleum COCO Outlet BP - Dhone","9R8H+HRC, Dhone","15.3664279","77.8295088"
"ChIJZclFNSWBtjsRWDatgOLCwiI","IndianOil","Survey No 106, B, Dhone","15.394592","77.847438"
"ChIJTT7tZ-GBtjsR0_rxexrqTX0","Hindustan Petroleum Corporation Limited","S No 509, Gooty Road, Dhone","15.3910343","77.85772399999999"
"ChIJX1_II45JszsRx5JDqNMqujo","Jio-bp","near Milestone 268, Survey No 266 Nh 7, Ungaranigundla, Dhone, near Milestone 268, 8","15.3558333","77.822501"
"ChIJc_kIhR6BtjsRH7YnyRc3Vt8","IndianOil","Sy No 499, B Ramadurgam, Dhone","15.3923761","77.861965"
"ChIJn1P9Ky-BtjsRz-cpQU137Q8","MSR Petroleum's nayara petrol","9VGG+27J, Jaladurgam - Dhone Road, Dhone","15.3750958","77.8756384"
"ChIJe-X1XNGBtjsR6sXYgjmtQS0","Bharath petroleum ,SLV FILLING STATION","Dhone - Bethamcherla Road, Dhone at Dronachalam","15.3782483","77.8767142"
"ChIJ0RN4OQCBtjsRisJ4ttwPRro","Petrol pump","9VWF+C79, Dhone","15.3960427","77.8732414"
"ChIJe9Z07_2AtjsRtvXHwlJbYZY","Bharat Petroleum, Petrol Pump -Sai Kartikeya Fuels","DHONE TOWN, KURNOOL DISTRI, KURNOOL","15.4009053","77.8709519"
"ChIJAbe_CuOAtjsRmJEjGzndtTQ","IndianOil","Ground Floor B, Ramadurgam","15.404613","77.86827"
"ChIJHbwQNEqBtjsR9hwiuCEFr3o","IndianOil","Survey No 570/3 Dhone, B, Ramadurgam","15.377845","77.88117199999999"
"ChIJgUJO2ziEtjsRjAra0V1lPiA","Hindustan Petrol Pump","8RH4+VRR, Dhone","15.3297304","77.8070201"
"ChIJnbJe-qaFtjsRZ5k55Y7o5jM","Hindustan Petroleum Corporation Limited","Survey No 237, NH 7, Hyderabad - Bangalore Highway, Devarabanda","15.3228881","77.8035021"
"ChIJRU8dqQmQtjsRU8IrZpnI-BY","Hindustan Petroleum Corporation Limited","Ground Floor, Peapully","15.240702","77.742524"
"ChIJ43VNf-SRtjsRrQsdwVoYQaE","IndianOil","Lock No 23002/2, Sy No 320/1/B1, 4551/2, peepli, Kurnool","15.2324168","77.736392"
"ChIJ0bgOZMyVtjsRos1GVZZHxcY","Jayalakshmi Service Station HP Petrol Bunk","4J5P+FX8, Gooty","15.1086509","77.63744179999999"
"ChIJl3peC0qRtjsRCNXRWz4AQKU","IndianOil","Brahmanapalli, Survey No 149, Lock NO 22015/2 NH 7, Anantapur","15.164454","77.675991"
"ChIJU2MsGkqRtjsRPF8tnwSIk0Q","Hindustan Petroleum Corporation Limited","Ground Floor, Kurnool, NH 44, Gooty Road, Gooty","15.165056","77.67599899999999"
"ChIJCyuN3IaWtjsRnBXoNaQvav8","Mehboob Entp","4M86+J6R, Kodikonda","15.116622","77.660502"
"ChIJVeH9aUyVtjsRqF6ykWOfOYw","Hindustan Petroleum Corporation Limited","Survey No 547, Old NH 7, Kurnool Road, Gooty","15.1291685","77.6383048"
"ChIJWYd80fWWtjsRrDn_nO8OHUw","Hindustan Petroleum Corporation Limited","Survey No 5, 2 SH 51, Gooty Road, Engilibanda","15.1164224","77.6817672"
"ChIJz0gU3VSVtjsRdVry1HaFcOA","Bharat Petroleum, Petrol Pump -Shivshankar Ent","GOOTY, ANANTAPUR","15.1162804","77.63686469999999"
"ChIJ0yYz7wqVtjsRiKNtJyBZVJc","IndianOil","Key No 11019 X 2 Gooty, Anantapur","15.11689","77.63589"
"ChIJT-OeowuVtjsRfDlUlcdDIyQ","Hindustan Petroleum Corporation Limited","Survey No 585, A NH 44, Kasepalli, Peddvaduguru, Gooty","15.110376","77.636921"
"ChIJoTbqFU2VtjsRhdCrepiR1pQ","IndianOil","Survey No 377, Gooty","15.0978961","77.63916789999999"
"ChIJg7EshBeVtjsRG24aamW9Lfk","Shivshankar Enterprises, Bharat Petroleum Pump","3MQ2+86, Ramarajupalle","15.0882631","77.6506108"
"ChIJ57X-wFm-tjsRa22CbssLxGY","Hindustan Petroleum Corporation Limited","Ground Floor, Subhash Road, Anantapur","15.022711","77.620381"
"ChIJkS1Wv_KVtjsRqpkcZFwBhNU","IndianOil","Key No 22009X2, near Gooty, Anantapur","15.0756876","77.63158589999999"
"ChIJAxPoa-i_tjsRLc1g5OI52-M","Hindustan Petroleum Corporation Limited","Ground Floor, Subhash Road, Anantapur","15.022711","77.620381"
"ChIJ7Qud0Vm-tjsRuMGc3JsnAm0","IndianOil","S No 147 & 148, Lock No 4528/2 Midthuru, Brahmanapalli, Gooty","15.0223124","77.6198636"
"ChIJNVZ1TDy-tjsRMq7QK0_xz5g","Jio-bp","near Milestone 311/4, S No 64/A & 65 Nh 44, Ramarajupalli, Pamidi, near Milestone 311/4, Anantapur","15.0504563","77.6271751"
"ChIJ2XmRagC_tjsRR5W_KsuE1Aw","Bharat Petroleum COCO Outlet - BP Gooty","3J5J+73F, Anantapuram","15.0581919","77.6301679"
"ChIJR8Xa0ha_tjsR1FllWccS1Dg","Bharat Petroleum, Petrol Pump -Paavan Enterprises","MIDUTURU VILLAGE, ANANTAPUR","15.0111473","77.61722139999999"
"ChIJf8PKACC-tjsREpefPB1Jr3E","HP PETROL PUMP - ADHOC K P S jubili filling station.","SY NO 585/A NH 7 RD Gooty Pedavaguru Mandal, Kadapa","15.0652714","77.6307404"
"ChIJKYI9M9SVtjsR42C2RRPMqb0","Hindustan Petroleum Corporation Limited","Ground Floor, Anantapur Road, Gooty","15.069041","77.631711"
"ChIJBSs4lfKVtjsRv2Szj4QFZDQ","HP PETROL PUMP - BALAJI AUTO SERVICE","Dealers Hpcl Main Road Guntakal, Kurnool","15.075785","77.632234"
"ChIJjV3sgWq4tjsR0vN9gggJ8Z8","HP Petrol Pump","Lock No 23025X2, Garladinne, Anantapur, NH7, R S, Kalluru","14.905303","77.5842313"
"ChIJY5D79li4tjsRQYCxgh8mABM","Nayara Petro & Disel Pump","WHFV+M7J, Kalluru","14.9242109","77.59313449999999"
"ChIJAwX7ZLq5tjsROP5f6pM549U","sri lakshmi venkateswara petrol pump ksk","193/3, BCC Road, garlladinne(m, ananthapur(d, Kalluru","14.9188741","77.58471569999999"
"ChIJdYmvNFm4tjsReXoOHdwTTYE","Hindustan Petroleum Corporation Limited","Ground Floor, Hyderabad Bangalore Road NH 7, Pamidi, Kalluru","14.9136454","77.58428049999999"
"ChIJbzz15fm5tjsREHDUpWId0VY","Petrol and diesel station","WHXH+VFM, Eddulapalli Road","14.9497031","77.5786639"
"ChIJ8VV0SsW4tjsRqv4BVtkq9DA","IndianOil","Survey No 231 Pamidi, Ayyavaripalli, Peddavaduguru, Anantapur","14.959208","77.59628"
"ChIJbUF6fGq4tjsR9OJp9ocOST4","IndianOil","India","14.9053615","77.5843211"
"ChIJjfSWZaC4tjsR8ibB8A7dPC8","IndianOil","Ground Floor, Pamidi","14.949201","77.56297699999999"
"ChIJZ0eH1qy3tjsRvghiKLbf07Q","Bharat Petrol Pump","RHPX+6V8, Chennekothapalli Road, Garladinne","14.8355868","77.5998027"
"ChIJ7SbQxJu3tjsRmA2JlCzjCNU","ESSAR PETROL PUMP","Garladinne","14.8184354","77.5983104"
"ChIJG5a-aFu2tjsRaB_4YYqwwC8","IndianOil","Survey No 439, Garladinne","14.818034","77.59835939999999"
"ChIJN1XwpNS3tjsRbH6ZCb_ARrk","IndianOil","Sy No 1/1A Singanamala, Lolur, Podaralla","14.8157898","77.5827211"
"ChIJN-2BrXm2tjsRsaixpUVwIiQ","Hindustan Petroleum Corporation Limited","Ground Floor, NH 7, Hyderabad - Bangalore Highway, Singanamala, Lolur","14.7944601","77.5984204"
"ChIJRRcv8h61tjsRmZSlhKSrjnY","IndianOil","Ground Floor, NH 7, Rudrampeta, Anantapur","14.724449","77.60368299999999"
"ChIJz2Pv7x61tjsRzYkBp7SFCOo","HP PETROL PUMP - NAGURI FUEL SUPPLIES","Dealers Hpcl Ganjapalli Mudigubba, Kadapa","14.7237676","77.6046111"
"ChIJWfu7ftW0tjsR40ERQOwBmxc","IndianOil","Ground Floor, Gooty Road, Somanadoddi","14.6999177","77.60768"
"ChIJ-3rq9d5KsTsRX-DwN5E87s4","IndianOil","Ground Floor, Subhash Road, Anantapur","14.6877115","77.607163"
"ChIJEcwcA9BKsTsRzn6iQnl4LZQ","BHARAT PETROLEUM,SSNS AUTO FUELS","MHPW+9GJ, Azad Nagar, Srinivas Nagar, Anantapur","14.6859609","77.5962772"
"ChIJF6RTzPi1tjsRB0F6LZXl0yQ","Hindustan Petroleum Corporation Limited","Ground Floor, Kothacheruvu, Anantapur","14.7393101","77.6046401"
"ChIJl1zibt-0tjsRnrSW-fFsseo","Essar Filling Station","PJ85+JFP, Bukkaraya Samudram","14.7165992","77.6086885"
"ChIJf8VkbgC1tjsRc_DehDNkx_U","SRI ARUNACHALESWARA DEF/ADBLUE FILLING STATION","PJV3+JHC, Pamurai","14.7440712","77.60388669999999"
"ChIJp3WjOQC1tjsRX0hxybFpk74","Sri Nandhana HP Fuel Station","PJV3+HH5, Somanadoddi","14.7442752","77.6038998"
"ChIJVfazssW1tjsRho3mDnodpZI","Hindustan Petroleum Corporation Limited","Survey No, near Somaladoddi, 210/1A2, Bukkaryasamudram, Govindapalle","14.744333","77.603905"
"ChIJMzfMJk-1tjsR3x-X3wkT2LA","Hindustan Petroleum Corporation Limited","near LPG Plant, Survey No 294/2A/1A Bukkarayasamudram, Podirala, Vadiampeta, near LPG Plant, Anantapur","14.7505314","77.5994017"
"ChIJKVXcV661tjsRRuj4mQf6g74","HPCL Anantapur LPG Bottling Plant","Anantapur","14.7514672","77.5998074"
"ChIJC2D2yHK1tjsRCkVUqZPKAbM","HP gas bottling plant","QH2W+HXF, National Highway 44","14.7514329","77.5974296"
"ChIJz4csb_q1tjsRgZjyih7CdLk","Hindustan Petroleum Corporation Limited","Survey No 23/2, C/2, Old, Gooty Road, Somaladoddi","14.705532","77.607852"
"ChIJozvhVgC1tjsRaBnW2n3k2ro","NAYARA PETROL PUMP","QJ59+CHC, Podaralla","14.7585525","77.61888669999999"
"ChIJK52UxDm1tjsR1P2Va1iXL8A","Jio-bp pulse","Survey No 210, 1-2-11, opposite Anantapur Dalda Factory, NH 7, 1 Bypass Road, A.Narayana Puram, Papampeta","14.699694","77.58851899999999"
"ChIJIw3UdQC1tjsR_eIBzFnb1Ys","NAYARA PETROL PUMP","QJ72+Q24, Anantapur","14.764017","77.6003663"
"ChIJYwBuMNRKsTsRBLr56V3GQXU","Hindustan Petroleum Corporation Limited","Survey No 162/4, Gooty Road, Anantapur","14.6923747","77.6042516"
"ChIJO3_sR81LsTsRVogfFuguPx4","Kavya Gas Equipments Ramana","MHVQ+X2W, Somanath Nagar, Papampeta","14.6949875","77.58757810000002"
"ChIJs_1KFb5LsTsRvC7fNeKY7zM","Sri sangameswara fuel station","shanthi board, Rangaswamy Nagar, Anantapur","14.6929518","77.59107929999999"
"ChIJNUX3haVLsTsRx4OGBKLQoYA","IndianOil","Ground Floor, Anantapur - Tirupati Highway, Rudrampeta, Upparapalli","14.644435","77.61968499999999"
"ChIJYyOMuJRKsTsRtXDDQ2Y5zxk","CAN PETROLEUMs","6-3-237/1, Hyderabad - Bangalore Highway, Ram Nagar, Kovur Nagar, Anantapur","14.6690902","77.5839309"
"ChIJqeL0VBtLsTsR-YLxCMOeqEE","Reliance Petroleum","Ward No 28, Plot No 7 & 8, S No 447/2, near Collectrate, Vijayanagar Colony, Anantapur","14.664218","77.61308199999999"
"ChIJE5YmmBxLsTsR-rb_uelFCmM","Hindustan Petroleum Corporation Limited","Survey No 447/1, Hyderabad - Bangalore Highway, Anantapur","14.664933","77.61281860000001"
"ChIJzYUrsx9LsTsRIkPBpeM5RVE","IndianOil","Door No 28, 1/119, Hyderabad - Bangalore Highway, Anantapur","14.6717933","77.60953429999999"
"ChIJr0s0NN1LsTsReqQqgDnEriM","Rama Devi Fuels","MH2G+7FF, Kakkalapalle","14.650097","77.5765795"
"ChIJEdIKqRtLsTsRYFL48BQcTr8","Thommandra nagaiah shresty & sons","National Highway 44, Rapthadu","14.6116448","77.6049797"
"ChIJBztmTABLsTsRe-cvCAv4HY8","Praharshi Pertrol Hub","Spice Garden Family Restaurant, Anantapur","14.655728","77.58157299999999"
"ChIJ5UQ2iY1JsTsRmzH4OMy0Tmg","Hindustan Petroleum Corporation Limited","Survey No 501/2B NH 44, Hyderabad - Bangalore Highway, Anantapur","14.6049484","77.6061093"
"ChIJa4rqWF5LsTsRLUDDBjF8Jp4","Bharath petrol pump","Navodaya Colony, Anantapur","14.6568655","77.6108643"
"ChIJ_0u-VpxLsTsRPsz8GnTerqQ","Sree Jntu Filling Station","28-4-860, JNTU Road, S.B.I colony, Navodaya Colony, Anantapur","14.6608852","77.6092347"
"ChIJlb3KSf1KsTsREdCIfdSMns4","STAR వెల్డింగ్ వర్క్స్","MJ74+2H4, RTO Office Road, Navodaya Colony, Anantapur","14.66250870000001","77.60643979999999"
"ChIJHXoJ9JNKsTsRyAaW_qjyCtw","IndianOil","beside Subregistration office, Sy No 63, NH 7 bypass, beside Subregistration office, Rudrampeta Road, Anantapur","14.6669066","77.58045680000001"
"ChIJPRnCXHM1sTsRWAgtw22py6k","Hindustan Petroleum Corporation Limited","Survey 162/1C, Kakkalapalle Rural","14.6548227","77.5616301"
"ChIJNVrr2T9LsTsRSNkKKsdhvvs","RADHE GOVINDA FUEL PARK (BPCL)","3-178, panthula colony, Rudrampeta, Anantapur","14.6661595","77.57438619999999"
"ChIJ_-GmDZpKsTsRzOP0IwGuaJo","Essar petrol pump","MH8F+84P, Rudrampeta, Anantapur","14.6658394","77.5728347"
"ChIJfTflbwBLsTsRvTZOzXWEvJc","SivaFillingStation ⛽️","7-8, Vijayanagar Colony, Anantapur","14.6636059","77.6136473"
"ChIJZbrnmBxLsTsRYZNy95UaoAA","SLVSA Petrol Bunk","House No 28, near Rdt Office, 4-231, Banglore Road, Ho, Vijayanagar Colony, Anantapur","14.664969","77.61305999999999"
"ChIJQXGteNI1sTsRLnW49mipR3M","IndianOil","Survey No 177/2, Alamur, Anantapur","14.6425179","77.5507361"
"ChIJL7bJ1OlKsTsR_f2MGYu6cnU","IndianOil","Survey No 2025 & 2025/1, Rudrampeta, Aravinda Nagar, Anantapur","14.67343","77.593356"
"ChIJS9AKG-ZIsTsR-kYmJ8cDxcE","IndianOil","Survey No 87, Lock No 155 Hampapuram, Rapthadu, Rudrampeta, Anantapur","14.550126","77.625885"
"ChIJf09HiOxGsTsR9yKUEgAHrsY","BHARAT PETROL PUMP (VIJAYAKUMARI FILLING STATION )","India","14.4533626","77.6279307"
"ChIJLUqfBAZBsTsRYTnVV-DM6ss","CUBE STOP HPCL ANANTAPUR","Land Survey No- 41, CUBE STOP NH-44, Hyderabad Bengaluru Highway, 42/43, Village, Regatipalle","14.4009434","77.63752389999999"
"ChIJSztc-FxBsTsRxR74lo0OmFs","Hindustan Petroleum Corporation Limited","Survey No 41, 42 & 43, National Highway 44, Regatipalle","14.4008476","77.6378733"
"ChIJDVN_0xZqsTsRYvfyue3Zv90","IndianOil","Sy No 101/3, Lock No 74, Nagasamudram, Chennekothapalli Road, Amidalagondi, Anantapur","14.315806","77.638871"
"ChIJK9EgTbRrsTsRo50Yw93Mpeo","HP Petrol Bunk","near errapalli, NH44, near errapalli, Chennekothapalli","14.2905374","77.6278854"
"ChIJ0bIIdGlrsTsRlQgqcwjnjXk","Hindustan Petroleum Corporation Limited","Sy No 93, 6 123/2 & 3, CK Pally, Yerrampalli, Anantapur","14.290784","77.628028"
"ChIJC0gF0m1tsTsRWwPZc5XgFYU","B.P.C.L RAJA filling station","6J6J+3VG, Gutturu","14.2101979","77.6322009"
"ChIJ0zRUcj5tsTsRWzjJMdE8zYg","Hindustan Petroleum Corporation Limited","Survey No 605, opposite KIA Motors, 3E & 3D NH 44, Penukonda, Erramanchi","14.162506","77.611993"
"ChIJMSYt7P1tsTsR9MMprUpD6GM","Nayara Fuel Station","5JQH+2W8, Mukthapuram","14.1861956","77.6301754"
"ChIJtc81LwBzsTsRIFz0KuRDjow","Saptha Saila Fuel Station IOC","3JH6+7MH, Penukonda","14.0789783","77.6098667"
"ChIJ68qbpBJzsTsRfDwWV4hk4VA","Hindustan Petroleum Corporation Limited","S No 213, 28/2, NH 7, Penukonda","14.0805772","77.5992498"
"ChIJY5gFkSxzsTsRnLwvHUU0psE","GMN Full Filling Station","Nayara Petrol Pump, Anantapur","14.0858723","77.59528449999999"
"ChIJ2fgtHw5zsTsRuapYWtsQUow","Hindustan Petroleum Corporation Limited","Survey No 201, 1A/14 & 15, Penukonda","14.0871387","77.59652620000001"
"ChIJOeglvft1sTsRq8x7l84ESus","IndianOil","Lock No 71 NH 7, Somandepalli, Anantapur","14.021058","77.608997"
"ChIJl8glchBzsTsR495Q1KUPcps","IndianOil","Lock No 254, Sy No 447/2A1, Madakasira Road, Penukonda","14.0908054","77.5941966"
"ChIJtxFLIRxzsTsRpTVfaveU_hw","Bharat Petrolium","3HVW+WP5, Penukonda","14.0947666","77.59687269999999"
"ChIJQeFUKx92sTsRTNfIvHWACjc","Hindustan Petroleum Corporation Limited","Survey No 36, NH 7, Hyderabad - Bangalore Highway, Gorantla, Palasamudram","13.9754999","77.67394039999999"
"ChIJvV7yzhqdsTsRuOvSEyzW6Ss","IndianOil","Survey No 145/1, SH 34 Gorantla, Palasamudram","13.9629679","77.6810539"
"ChIJ0eso45ycsTsRCut0VybCreg","Bharat Petroleum","VPM7+G6J, Kodur","13.883837","77.71302829999999"
"ChIJ54X268mdsTsRdWLVk4yRk7M","Bharat Petroleum, Petrol Pump -R M Filling Station","Kodur","13.8906716","77.73088899999999"
"ChIJ-WviTgCFsTsRe77_IhiLAOc","IOCL Petrol Bunk( ಶಿವ ಫಿಲ್ಲಿಂಗ್ ಸ್ಟೇಷನ್)","toll gate, Sy no 300, HYD -BLR NH44, opposite to Nayara petrol bunk, near Bagepalli, Hosahudya","13.8026318","77.7560379"
"ChIJQR33FVCFsTsRW2iaf66PENI","NAYARA PETROL PUMP(ಮಯೂರಿ ಎಂಟರ್ಪ್ರೈಸಸ್)","toll plaza, Bangalore-Hyderabad NH-44, Old NH-7, Adepalli, Bagepalli","13.8020636","77.7551448"
"ChIJB4ezV4-bsTsRpMEN8T_8Y-U","IndianOil","Ground Floor Kodikonda, X Roads, Kodur","13.8163757","77.7502214"
"ChIJYXAMVDzVsjsRNCX2owdBx6c","IndianOil","Survey No 8251, l219, 2, Kodur","13.8213681","77.74747049999999"
"ChIJz-swUSyFsTsRnY3YnJ-3bWo","Hindustan Petroleum Corporation Limited","Survey No 854/1, 853/1 NH 7, near Kodikonda, Checkpost, Chilamathur, Kodur","13.8215942","77.7476339"
"ChIJo8RaxJGPsTsR0e_HEhUUUr4","Hindustan Petroleum Corporation Limited","Ground Floor, NH 7, BH Road, Bagepalli","13.7808138","77.77576979999999"
"ChIJQTSqAMqPsTsRYNHIxL79pXU","IndianOil","Sy No 30/1, Bagepalli","13.7850325","77.7801748"
"ChIJK2f3BCebsTsRzX2_CX0GCnk","IndianOil","Survey No 612/1, Lock No 78 Chilamathuru, Bhupasamudram, Anantapur","13.838328","77.73056799999999"
"ChIJj9wUpaCPsTsRtMgmKzIT_CE","Nayara Petrol Pump - RR Fuels","18/1A, DVG Road, Bagepalli","13.7845755","77.7842448"
"ChIJIR-mXQCPsTsRq92fUQQHu8A","Dev fuel station","Sy no 227, opposite diploma college, HN 44, Bagepalli","13.7759336","77.77901220000001"
"ChIJ1ZcCuyePsTsRkcvw9Ra4SO0","Hindustan Petroleum Corporation Limited","Ground Floor, NH 44, Bagepalli","13.775481","77.779281"
"ChIJsRMg3m6NsTsRsYc4RWsS1AU","Hindustan Petroleum Corporation Limited","Survey No 32, SH 94, Somenahalli, Ramaganahalli","13.6713248","77.7783341"
"ChIJ-UDPUACNsTsR6ccVpBlg4o8","Nikhilesh Fuel Park","MQCG+793, Ramaganahalli","13.6704853","77.7758522"
"ChIJC6M5GwCNsTsR1cZf21gYUhA","Bharat petroleum company outlet","MQ6P+9FQ, National Highway 44, Pokamakalapalli","13.6603658","77.7853968"
"ChIJXSe4AwCPsTsR7c9R3yz3B9M","Ace Fuels Nayara Pump","PQ4P+G8, Doddakurubarahalli","13.70498","77.785659"
"ChIJj706cwCPsTsR6_6F8d8ADtE","JioBp","PQ4P+965, Chendur","13.7058894","77.7856085"
"ChIJ1wZtZACPsTsR4KqkGDfhPgI","Jio Bp Pump","PQ4P+G8, Doddakurubarahalli","13.706305","77.7858267"
"ChIJ50b4jAONsTsRjM7-Bl8u3do","Nayara Petrol Pump - PRAGATHI PETROL","Gopuradalli Village, Varlakonda","13.649479","77.78577159999999"
"ChIJp3POIvqNsTsRevVNmvNb86M","Nayara petrol-GV Fuel Park","JQRP+XV, Singanahalli","13.6424295","77.78712949999999"
"ChIJ_QYvegCPsTsRzb1p5och0NQ","Bharat petrol pump","Paragodu Tree Park, Mangasandra","13.7236839","77.7855306"
"ChIJE0hoEd3ysTsRozGMe8Xk3C0","Hindustan Petroleum Corporation Limited","Ground Floor, Gudibande Road, Cross, Peresandra","13.5901652","77.78142679999999"
"ChIJfXUoP9zysTsRjywv40ZLKgY","Hindustan Petroleum Corporation Limited","Sy No 60/1, near Periyasandra Circle, BH Road, Nandanaganahalli","13.5923682","77.78395239999999"
"ChIJDRYyqeDysTsRaupj8cZO8F8","IndianOil","Ground Floor, Chikkaballapur, Aruru, Peresandra","13.5883592","77.78584699999999"
"ChIJwyUXbEXzsTsROkRfmFwCcHs","Shell petrol pump","Srinagar - Kanyakumari Highway, Taluk, Aroor","13.57343","77.78135"
"ChIJqyrOwD7zsTsRcy-ovGP46uQ","Nayara Petrol Pump (Parbat Santosh Naik) - ನಯಾರಾ ಪೆಟ್ರೋಲ್ ಬಂಕ್","HQFJ+652, Aruru, Chikkaballapur","13.5730015","77.7803821"
"ChIJJWgIGgDzsTsRwwvvqMelesk","S M FUEL ZONE","Aroor","13.572787","77.779775"
"ChIJW045HQ7zsTsRcHaP1_AAQMs","Jio-bp","No 458 Chikkaballapur, Mandikal","13.606239","77.787353"
"ChIJPbcgPWXzsTsRtTfitWDGRAY","Savidarshan Fuel Station","HQW8+9M, Nandanaganahalli","13.5957668","77.7667288"
"ChIJvzmCY8MZrjsRZ6-_k7ZZRfI","IndianOil","Survey No 106/2, Chikanagavalli, hobli, Mandikal","13.5960537","77.7660928"
"ChIJSVqQP9zvsTsRJILhT6IUWxQ","Hindustan Petroleum Corporation Limited","Ground Floor, NH 7, Chikkaballapur Bypass Road, Kasaba Hobli, Honnenahalli","13.4522064","77.7379332"
"ChIJxfR9aVnlsTsRVWpgVvGI4_s","IndianOil","Khatha No 1550, 158159, Kandaverakere Ammani, Kasaba, Hobli, Chikkaballapur","13.4196369","77.7296887"
"ChIJm8U6LwDvsTsR5xpeFBOnhuc","Indian Oil KMR fuels","FP7R+38P, Chikkaballapur","13.4627022","77.7408179"
"ChIJI0onfwDvsTsR53wOz9xpMFE","Indian Oil KHK Petroleum","CPWM+3QR, Vapasandra, Chikkaballapur","13.4452415","77.7344023"
"ChIJget7bwDvsTsRFmSAazfF2Nw","Hindustan Petroleum Corporation Limited","Ground Floor, Isha Foundation Road, Kolar","13.4760026","77.7289729"
"ChIJZWVhCQDvsTsRV_EpxPfOfAg","Indian oil V R FULL PARK","CPPJ+5JV, Chikkaballapur","13.4354985","77.7315344"
"ChIJm2uYuivvsTsR3RRtxgQ6HTU","IndianOil","587/1& 538/1, BB Road, Chikkaballapur","13.4346839","77.7313159"
"ChIJVeJiPCnvsTsRICJIz-CPx6I","Bharat Petroleum, Petrol Pump -B Basavaraj","CHICKBALLAPUR IN TOWN, Chikkaballapur","13.4344752","77.7311653"
"ChIJoY40DSrvsTsRKB8EycWmU54","HSJS SHOP. Nawaz Pasha","CPJJ+XCH, Opp Nandi Temple Sompur, Road, Nandi","13.4324279","77.7310959"
"ChIJd3_DTQDxsTsRj5HUNOMquJ4","PATANJALI PETROL PUMP CHIKBALLAPUR पतंजलि पेट्रोल पंप चिकबल्लापुर","CQJ2+VW3, Chikkaballapur","13.4321412","77.7522836"
"ChIJ1SR90P3vsTsRdiTtgeMb9cw","Indian oil BAVESHWARA FUELS (ಇಂಡಿಯನ್ ಆಯಿಲ್ ಬಸವೇಶ್ವರ ಫ್ಯೂಲ್ಸ್)","National Highway 206, Chikkaballapur","13.4319819","77.7521981"
"ChIJt2bpiZHvsTsROK2FnxvcAR4","Hindustan Petroleum Corporation Limited","Survey No 125, Ganganamidde Road, Kasaba Hobli, Kolar","13.4394956","77.71307139999999"
"ChIJu0u4eFbxsTsRV2mCuAKwH4w","Bharat Petroleum, Petrol Pump -Shirish Sai Enterprises.","PATRENAHALLI (CHIKABALLAPU, Chikkaballapur","13.4300991","77.7595004"
"ChIJAQD04_bvsTsRccNsdCYdahM","Reliance Petroleum","Survey No 134/2B, Bb Road Amani Poornasagarakere, Kere, Kandavara","13.422497","77.729899"
"ChIJXROHUQDlsTsRgPcZA8A0cbU","MRPL SMS KKC Fuel Centre","SH 74, Kandavara","13.4234494","77.721277"
"ChIJn5OPLY7xsTsRGhvyltMPoyM","Bharat Petroleum, Petrol Pump -Sree Maruthi Enterprises","HUNEGAL, Chikkaballapur","13.4940972","77.754201"
"ChIJa6Mmuy7xsTsRxsq-CoFYfnU","Hindustan Petroleum Corporation Limited","Sy No 7/10, Hunegallu NH 7, Hyderabad - Bangalore Highway, Kasaba Hobli, Kolar","13.4950125","77.75387580000002"
"ChIJ3RXWBkvlsTsRkAcpx5nN2Ls","Hindustan Petroleum Corporation Limited","Survey No 609/1 Agalagurki, NH 7, Bypass Road, Chokkahalli","13.3957404","77.74101189999999"
"ChIJp5Mg2MjlsTsR8Vx4q9MuxPw","Sri Hanuman service hp petrol pump","Doddamaralli nandi hobli","13.3660353","77.73289290000001"
"ChIJH1fFT8rlsTsRI3dut1AbSFs","Hindustan Petroleum Corporation Limited","Sy No 145/2, Vijaypura Chikkaballapur Rd, Nandi","13.3660881","77.73280439999999"
"ChIJY0PgH0njsTsRMLHuIdDl08E","IndianOil","Sy No 52/5 & 52/6, Nh 7 Vijayapura, Devanahalli, Irigenahalli","13.3371386","77.72614779999999"
"ChIJw0F-C2HlsTsRcAtOxKzko_I","Shree poojambhika fuel service","9P7R+48, Doddamarli Amanikere","13.3628134","77.74084169999999"
"ChIJv0pTmEblsTsR5NA7EiI6tPM","Hindustan Petroleum Corporation Limited","Survey No 68, Hyderabad Bengaluru Rd, NH 7, Devanahalli, Venkatagiri Kote","13.3312165","77.72607119999999"
"ChIJc2zyiGz7sTsRFCzKmR5KEVw","Sri CNS Enterprises (Nayara energy petrol pump)","Gonuru village narayanapura post, TQ, Devanahalli","13.3532385","77.7490929"
"ChIJV_MsRDPjsTsRxh8Mah__q1g","R N filling station (Nayara Energy petrol pump","Sy No 6/3 Rathnamma Narayan swamy Rajanna Thatamachanahalli","13.3215679","77.7251558"
"ChIJ5yKYbADjsTsRZtLre8h9cZU","INDIAN OIL BASAVA FUELS (ಇಂಡಿಯನ್ ಆಯಿಲ್ ಬಸವ ಪುಯೆಲ್ಸ್)","Venkatagiri Kote","13.3200431","77.7251378"
"ChIJna01_t3lsTsRKX6m8f3IE24","VANA DURGA FUEL STATION","Kuppahalli village kolar sompura, road, Nandi, CHIKKBALLAPUR","13.3823543","77.7072439"
"ChIJfSqz06PlsTsRsnCueB9O8vM","Indian oil, V R Fuel Park.","Chedhalapura cross, Chikkaballapur","13.3882716","77.7261489"
"ChIJtWi-ONYZrjsR9_bCSDlEOKY","Nayara Petrol Bunk - Bhanashankari Devi Fuel Station","Sy No. 94/6, Near Nandi Hills, SH 104, Kuduvathi Village On Chikballapur - Nelamangala, Road, Chikkaballapur","13.3512814","77.6885175"
"ChIJQW-OkK3lsTsRHG58Eta0dS4","IndianOil","Survey No 59/5, Survey No 59/1, New, Chikkaballapur","13.385149","77.702809"
"ChIJ_btDfKrlsTsR5mx8ys6FRCc","Bharat Petroleum Petrol Pump , SRI NANDEESHWARA PETROL BUNK","SY. 89/5NANDI VILLAGE, Chikkaballapur","13.383881","77.700459"
"ChIJZ_Zv-OnjsTsRCrTh-MgeiLU","Bharat Petroleum, Petrol Pump -Prashanth Service Station","8MGR+CXQ, Karahalli","13.3260813","77.69249889999999"
"ChIJkX-2Un0drjsRNIvLl29Ofog","IndianOil","Ground Floor, NH 7, Bellary Road, Alur Duddanahally","13.2438498","77.7109888"
"ChIJpXqiXjr9sTsRYZZ0AP63_bY","Hindustan Petroleum Corporation Limited","No 64, SH 96, Road, Devanahalli, Vijayapura Town","13.2773705","77.7581038"
"ChIJgVrhmUURrjsRMEFLZvKhbvo","MRPL HiQ NANDI FUEL FORCE","Survey No - 161, NANDI FUEL FORCE MRPL, opposite to Nandagokula Restaurant, National Highway 44, Devanahalli, Bengaluru","13.2583002","77.7134543"
"ChIJp4sqRQDjsTsRq0zv1n3XiJs","Go gas bunk devanahalli","7P47+XPV, Devanahalli, Southegowdanahalli","13.2574772","77.7143002"
"ChIJH0gysZDisTsRv1rl5vQD3vU","GP Petroleums Limited","India","13.257042","77.7161093"
"ChIJz5UFx5nisTsRa8JUJvZmE7Q","Hindustan Petroleum Corporation Limited","opposite Jain Temple, BB Road, Devanahalli, Bengaluru","13.2573074","77.7172087"
"ChIJ9bCydenjsTsRq0URjnKEiqk","Shell Devanahalli","NH Service Road, Nh7, Bypass, Devanahalli Town","13.264214","77.717523"
"ChIJV6i285TisTsRkojnTgFMq1Y","Indian Oil","7P89+28R, NH Service Road, Rani Cross(Nandi Cross), Kurubarakunte","13.2651096","77.7182717"
"ChIJex0PJN7jsTsR5HXGnhSbBIM","MAHADESHWARA FUEL STATION","117,4, 117/3, National Highway 44, devnahalli village/town","13.2651249","77.7182838"
"ChIJzYeiFY7jsTsRGZntrHHSMZQ","Indian Oil - Petrol Bunk","Sy No 56/11, NH 44 Bypass Road, 200Mtrs after Devanahalli Railway Station, LHS towards Chikkaballapur, Bellary Road, Devanahalli, Bengaluru","13.2559032","77.7097234"
"ChIJgRmRb_UdrjsRUm518aRYwzA","Bharat Petroleum, Petrol Pump -Sri Savithri Shankar Transport","SY NO. 37/1, ATTIBELE, BANGALORE RUR","13.2526883","77.71615969999999"
"ChIJPyNyPrrisTsR_gRvqPORIFs","Sri Chamundeswari Service Station","7P6J+GVM, Binnamangala","13.2613498","77.7321805"
"ChIJf7Y8TacdrjsRbvY7dG9HvyQ","MM FILLING STATION F1","Giriyamma Circle, Devanahalli, Southegowdanahalli","13.244407","77.71329899999999"
"ChIJuZChN2sdrjsRnofxbHQ9MrM","TM HANUMAPPA FILLING STATION","01, Devanahalli, Bengaluru","13.2441569","77.71100609999999"
"ChIJDcth8uUdrjsRLMLROWi1xwY","Bharath Petroleum","Syno 110/3, 111/3, NH7, Devanahalli","13.2438862","77.70464410000001"
"ChIJkT7wyGjjsTsRrXXiRNAeiIY","Bharat Petroleum, Petrol Pump -Maithreyi","Devanahalli, Southegowdanahalli","13.2820158","77.7225232"
"ChIJrVaix5MdrjsRNwxEsxzIKvo","Shell select fuel station","NH Service Road, Devanahalli, Southegowdanahalli","13.241123","77.7032203"
"ChIJY83gPlsdrjsRuGYqa9eVj6g","Shell Fuel Station","National Highway 648, Devanahalli, Boodihal","13.238694","77.723889"
"ChIJVyz5R7LjsTsR3w1d-y46S_g","J N Fuel Park","National Highway 44, VILLAGE, Devanahalli, Avati","13.2867423","77.72415629999999"
"ChIJu3Vu1iHjsTsRmPkIYFTj6DE","IndianOil","Survey No 98/1 98/2 NH 7, Avathi, Alur Duddanahally","13.2879121","77.7241799"
"ChIJc5z6M4QerjsRxVWCjDrc0iM","G K Filling Station","No 70, NH-44, Meenakunte, Village, Bengaluru","13.1891971","77.6453809"
"ChIJXfkB5MUfrjsRMIQSbRxXIJE","VENKATESH N","11, Airport Road, Meenakunte Hosur, Bengaluru","13.1831613","77.6411309"
"ChIJ17jwgHserjsRU_6rmCGYs7Y","IndianOil","Survey No 191/5 Sadahalli, Devanahalli, Alur Duddanahally","13.2016299","77.6448802"
"ChIJRyG-WX0drjsRg3t8jSkXmeU","IOC - Sri Ganesh Prasad Traders","6J2V+MX7, Sadahalli Devanahalli Taluk, Bengaluru","13.201662","77.6449133"
"ChIJJRaFmlwfrjsRcygh71ZM_Cs","Tih Tokai Imperi HydRaulics","5JMQ+FX3, maloruRoad","13.183627","77.63993099999999"
"ChIJi9RuTQAdrjsRMKRn1KFCh3I","Gail Gas CNG Station (MRS Fuels)","5MJC+MV8, Mutthugadahalli","13.1816606","77.6721979"
"ChIJURl-1h8drjsR6RNPBRUK3jE","Nayara Petrol Pump - Vellalu Service Station","BK Halli Road, Chikkanahalli, Bengaluru","13.1833613","77.6774891"
"ChIJx4HYFMcerjsR2TjHFd31kSE","Jio-bp","Survey No 10, 2, Bellary Road, Kattigenahalli, Bettahalsoor","13.1653007","77.62928029999999"
"ChIJHzNQYs4drjsRPr1gi_i8FSo","Limitless energy - petrol station","Chikkanahalli, Bandikodegehalli Amanikere","13.1861668","77.6801852"
"ChIJUXF2KowdrjsRVk0XFHcOCE0","IndianOil","Survey No 65, near Bangalore International Airport, Cargo Avenue, Yerthiganahalli, Bengaluru","13.199621","77.6800819"
"ChIJlWIvCwAdrjsRwXZSP5hx0Ug","Surya Service Station","5MMJ+MQJ, Chikkanahalli, Bandikodegehalli Amanikere","13.1839297","77.6815263"
"ChIJkfEhykYdrjsRtWZcxL9HhVY","Hindustan Petroleum Corporation Limited","Survey No 2/1, Jala Hobli, Begur","13.1838073","77.6814991"
"ChIJhd3qcQAfrjsRcOIZsDY-h3o","GAIL CNG pump","No .1, S.G.R Complex, Vidya Nagar Cross Road, Subs Nagar, Chikkajala, Bengaluru","13.1603221","77.6288668"
"ChIJFwJZUAAfrjsRFwyrIOkt5w8","PUNCHURE SHOP","5J6H+2GG, Subs Nagar, Chikkajala, Bengaluru","13.1602069","77.62850100000001"
"ChIJBdvyXrsfrjsRh1g-JWO9jbs","IndianOil","Survey No 26, 2A, Kadiganahalli Main Road, Jala Hobli, Bengaluru","13.1598957","77.6285048"
"ChIJp3sUXgAdrjsRgUGukm2Sft4","IVC Road","6MJ5+GCX, IVC Road, Devanahalli, Bandaramanahalli","13.2313747","77.6586155"
"ChIJTdA7ic4erjsRCzl7zvGm6_A","IndianOil","No 8, Bellary Road, Sonnapanahalli, Rajanukunte","13.1560724","77.6224209"
"ChIJKQyAfgwfrjsRJZGGvoEO29E","IndianOil","Ground Floor, NH 7, Bellary Road, Bettahalsoor","13.1561082","77.6222769"
"ChIJk1z5NxEdrjsRwALY-pwYY0w","Shell","Survey No, 7 Of Mylanahalli, Cargo, Village, Hunachur","13.199917","77.690694"
"ChIJ05C9WFkYrjsRP5uRWJkELEk","IndianOil","near NES Office Road, Yelahanka New Town, Bengaluru","13.0975815","77.5913881"
"ChIJHw_8bUcYrjsRfpuG5m4zUtU","Hindustan Petroleum Corporation Limited","Ground Floor, opposite Jakkur Aerodrome, Bellary Road, South Western Zone, Bengaluru","13.0812514","77.5927232"
"ChIJ0SSWAggZrjsRpbPHgV725OQ","IndianOil","Sy No 89 Yelahanka, Kogilu Main Road, Srinivaspur, Hobli","13.1042923","77.6198043"
"ChIJhYzriCYYrjsRsEwBrjWKFWY","IndianOil","Plot No 106/7, Bellary Road, Bengaluru","13.0582922","77.5938429"
"ChIJXyd-SR4YrjsRqAIDnKbl1TQ","IndianOil","Sy No 17, opposite Chairmans Club, 2, Kodigehalli Main Road, Bengaluru","13.0579421","77.5863396"
"ChIJZ_7daA8YrjsRp8sgwShOvco","IndianOil","3H8C+8J3, Thindlu Main Road, Kodigehalli, 3/5, Vidyaranyapura, Sir MV Layout, Dhanalakshmi Layout, Virupakshapura, Bengaluru","13.0650556","77.57083360000001"
"ChIJ63mAzBYZrjsRWNj8GZace40","IndianOil","Ground Floor, Bagalur Main Road, Yelahanka, Kattigenahalli, Bengaluru","13.1214186","77.62327549999999"
"ChIJn-PGJ_kYrjsRhJj3Uq44Gb0","IndianOil","No 1666/3, Bellary Road, Yelahanka, Bengaluru","13.1060857","77.6012059"
"ChIJi3U2z1oYrjsRVL36qKy4obg","Hindustan Petroleum Corporation Limited","No 575, 39/1, BB Road, Yelahanka, Bengaluru","13.092181","77.59451399999999"
"ChIJb9AKD5cZrjsRsSSK5gtPal4","Nayara Energy Vaishno Devi Fuel","Ambedkar Colony, Yelahanka, Bengaluru","13.0874247","77.5922633"
"ChIJeyBti7oZrjsR9agsnUbMGYk","JRG Enterprises - Nayara Petrol Station","524/435, KHB Colony, Gandhi Nagar, Yelahanka, Bengaluru","13.0971073","77.59624690000001"
"ChIJ24kiXQAZrjsRxfG_iAZ22xQ","Gail Gas CNG Station","3HWX+QGX, Nehru Nagar, Bengaluru","13.0969387","77.5988265"
"ChIJBwCrP1EYrjsR1PUvkYVDxxI","IndianOil","Sy No 1, Shivanahalli Yelahanka, Jakkur Main Road, Nehru Nagar, Bengaluru","13.0962955","77.60040250000002"
"ChIJHRyMRQAZrjsRhSQYQV8MZYE","Cng","520/432, Nehru Nagar, Bengaluru","13.097625","77.5983433"
"ChIJmSVs5tgZrjsRNC_dovWM1Qw","Bharat Petroleum","Vervve Manque Aviation Academy, No. 520/432, Pyramid North Square, 4th Floor New Airport Road, Nehru Nagar, Yelahanka, Bengaluru","13.0976355","77.5983242"
"ChIJxSlDpFoZrjsRx2v8sLrsWPQ","Hindustan Petroleum Corporation Limited","Ground Floor, Allalasandra Main Road, Yelahanka New Town, Bengaluru","13.0878856","77.5897186"
"ChIJm9EEB8sZrjsRXk2_cyfXPoc","Sri Vinayaka Enterprises","Kogilu Cross, Yelahanka, Bengaluru","13.1037186","77.6007623"
"ChIJB3M6BOEZrjsR6fjZG8gCYMw","Sapthagiri service station","42, Yelahanka Satellite Town, Yelahanka, Bengaluru","13.0939165","77.58247229999999"
"ChIJ3V8dB2cYrjsRdFGk31XhsIY","Anjanadri Fuels","3HVJ+HXX, 1st A Main Road, Yelahanka Satellite Town, Yelahanka New Town, Bengaluru","13.0939896","77.5824883"
"ChIJg28q3PYZrjsRz22FaCGevnQ","IndianOil","Site No 43/B, Khata No 536/43 BBMP, Yelahanka New Town, JP Nagar, Sec B, Bengaluru","13.0938822","77.58240669999999"
"ChIJV9GcWDkWrjsRgRNxbJvMTEs","Total Gas","1st Main, DN Ramaiah Layout, 135, Seshadripuram Main Road, Seshadripuram, Bengaluru","12.9951274","77.5791017"
"ChIJM7E6pSIWrjsRdC2tFGBqCXY","Hindustan Petroleum Corporation Limited","136, Subedar Chatram Road, Seshadripuram, Bengaluru","12.9896829","77.57260649999999"
"ChIJsasu5iIWrjsRfBw0Fp_v8kw","IndianOil","Sirur Park Road, Seshadripuram, Bengaluru","12.990829","77.571579"
"ChIJVVqFEG8WrjsR_MNU-VrDwXI","Hindustan Petroleum Corporation Limited","5, Raj Bhavan Road, Bengaluru","12.982293","77.59411589999999"
"ChIJsxM8vgkWrjsRz5F_o-Kaie8","MAHENDRA ASSOCIATES","54, Sadar Patrappa Road, Bengaluru","12.9648033","77.58095639999999"
"ChIJ0Y9u9XoWrjsRB0_j1PSoQl8","Hindustan Petroleum Corporation Limited","6, Kasturba Road, Bengaluru","12.975903","77.5978703"
"ChIJK1twJcgXrjsRO65H1cOzN-g","Shell","9, Bellary Road, Bengaluru","13.021147","77.58429"
"ChIJufOPnvYWrjsRm7aYn4c_UiU","Hindustan Petroleum Corporation Limited","No 87, Coles Road, Frazer Town, Bengaluru","12.9965","77.61183"
"ChIJpZ7N3HkWrjsRoHK39_xMVH4","Shell","next to UB City, 24, Vittal Mallya Road, Bengaluru","12.971323","77.59702999999999"
"ChIJh4dAc7gXrjsRoPgfh78MZuw","Hindustan Petroleum Corporation Limited","26, Bellary Road, Bengaluru","13.0247579","77.5852836"
"ChIJ-_T6F68XrjsR81ZLZVDoyV8","IndianOil","1, Adi Kabir Ashram Main Road, Narayanappa Garden, RT Nagar, Bengaluru","13.022407","77.6005194"
"ChIJ-Ug8qvE9rjsRmG7nP01mbnw","IndianOil","10, 3rd Cross, Doctor Rajkumar Road, S.S.I.Area, 6th Block, Rajajinagar, Bengaluru","12.981062","77.55828009999999"
"ChIJBRGQa8QQrjsR16GIvG6C9Hw","Bharat Petroleum Corporation ltd","93 5th Cross, near Central School, Dr, Doctor Rajkumar Road, SSI Industrial Area, Bengaluru","12.9805953","77.5571782"
"ChIJ9czE_MMXrjsRPh4-BWpucYw","IndianOil","2HJJ+447, 2nd Stage, KEB Layout, Sanjayanagara, Bengaluru","13.029127","77.578789"
"ChIJYeJ-pv4WrjsRvWJCeydI8Q4","IndianOil","Ground Floor, behind Mediscan Home, Tannery Road, Bengaluru","13.0113577","77.6159727"
"ChIJgcPo8Hg9rjsRQrW91HQ3KPU","Shell","Doctor Rajkumar Road, Rajajinagar, Bengaluru","13.01243","77.55381"
"ChIJP_4WhgcXrjsRiwu38wQY5e4","IndianOil","9 1, LR Bande Road, Bengaluru","13.0221876","77.6080673"
"ChIJ7_yVpv0VrjsRKywZCmCeCAQ","Bharat Petroleum Corporation ltd","No.24, opposite CCB Office, 1, Mysore Road, Briand Circle, Bengaluru","12.9640549","77.57043829999999"
"ChIJ293jKOUWrjsRYAsaAegfpHI","IndianOil","Sagaya Madha Church Compound, Clarke Road, Sagayapura, Lingarajapuram, Bengaluru","13.004795","77.6196803"
"ChIJ44s6Cd4VrjsRP1mBJiI7Ro4","TotalGaz LPG Station","9th Floor, G9, 1st Cross Road, Sampangi Rama Nagara, Sampangi Rama Nagar, Bengaluru","12.9615297","77.5856386"