place_id,name,address,latitude,longitude,open_now
"ChIJdVNu4ktDGjkRyNiMmPTd_7E","Hindustan Petroleum Corporation Limited","Ground Floor, Jalandhar - Nakodar Road, Lambra","31.239951","75.521771","true"
"ChIJWe4tiopEGjkRW6KZ47GIjs8","IndianOil","Ground Floor, Jalandhar - Kala Sanghian Road, Nijjran, Jullunder, Kala Sanghian","31.273014","75.482002","true"
"ChIJ16U-ERtbGjkR2So6xckjHVY","Hindustan Petroleum Corporation Limited","Ground Floor Ramdasspura, opposite Deol Nagar, Jalandhar - Nakodar Road, Bootan Mandi, Jalandhar","31.299381","75.56087099999999","true"
"ChIJd2m__t1aGjkRH2l7adJ3dsE","PETRO ZONE R.O. Bharat Petroleum Corp. Ltd.","Kala Sanghian Road,, Basti Sheikh, Jalandhar","31.3115168","75.5503985",""
"ChIJMUYTwpRCGjkRdVRpTsOm1Ng","Hindustan Petroleum Corporation Limited","Ground Floor, Jalandhar - Nakodar Road, Nakodar, Gohir","31.18654100000001","75.500461","true"
"ChIJ02cCtFJDGjkREOFqtXqaUIE","IndianOil","Ground Floor Lambran Nakodar Road, NH 71, Kalyanpur","31.24823799999999","75.527154","true"
"ChIJx5HBRTdDGjkRROQCETtHVaU","IndianOil","Ground Floor Jalandhar Nakodar Road, Singha, Kalyanpur, Jalandhar","31.229668","75.51688399999999","true"
"ChIJmbC1o1BbGjkRkZa4eLfGf18","Hindustan Petroleum Corporation Limited","Ground Floor, Jalandhar - Nakodar Road, Tajpur","31.266301","75.538901","true"
"ChIJn0H_qCVDGjkRLDPsFUTj0fY","IndianOil","Ground Floor, NH 71, Jalandhar - Nakodar Road, Kang Sahbu","31.219993","75.5138997","true"
"ChIJHZ96UdFEGjkR3ryCGRffyUk","Hindustan Petroleum Corporation Limited","Ground Floor, near Dhaliwal, Kalasinga Road, Basti Guzan, Dhaliwal","31.296281","75.52134099999999","true"
"ChIJGe6beApFGjkRGS59e7Du3nM","Davinder filling stations","7FP7+V5C, Kohala","31.2871998","75.4628774","true"
"ChIJA4ZPIUlEGjkRJDAR1gp3r3o","Hindustan Petroleum Corporation Limited","Ground Floor, Kohala","31.2877061","75.46191449999999","true"
"ChIJF2TbvxZbGjkRaoqcp3TUIBs","Bharat Petroleum","India","31.2906408","75.555318",""
"ChIJR6pP1BZbGjkRAgAsPPX8FYo","IndianOil","near Jalandhar TV Tower, Nakodar Road, near Jalandhar TV Tower, Satguru Kabir Chowk, Jalandhar","31.2920839","75.55676629999999","true"
"ChIJoXN8dgNEGjkRYRHe0DZQ3as","IndianOil","Ground Floor Kapurthala, Nakodar - Kapurthala Road, Kala Sanghian","31.25673","75.439206","true"
"ChIJYXrxu_BcGjkRQc0nw2lNxc8","Hindustan Petroleum Corporation Limited","Ground Floor Partapura Jamsher, Road, Udhopur","31.23010709999999","75.5673006","true"
"ChIJdfLrjL5FGjkRt0KwnjULsAM","Bhagwati Auto Fuels","village Sukhani, to, Nakodar - Kapurthala Road, PO, Kala Sanghian","31.27493169999999","75.43911609999999","true"
"ChIJY9WI3mJcGjkRZC68J-Vkffc","IndianOil","Ground Floor, Quadianwala,Ladhewali, near Govt School, Jalandhar","31.25153","75.576912","true"
"ChIJUegyQG1HGjkRWvSxmF2I_ws","Balaji Auto Fuels","7C4J+Q4R, Kapurthala","31.2569782","75.4302641","true"
"ChIJB4Mwc95aGjkRatCQvlEFkTc","Hindustan Petroleum Corporation Limited","Ground Floor, Kala Singha Road, Basti Sheikh, Jalandhar","31.310621","75.54946100000001","true"
"ChIJzeUZ3HtbGjkRZBb1cKX4ALQ","RAJ FILLING STATION BHARAT PETROLEUM","7H9P+PJX, Village, Pholriwal Road, Jalandhar","31.2693682","75.58660909999999",""
"ChIJpSITBqJbGjkR43f4pK-jNEs","Hindustan Petroleum Corporation Limited","Ground Floor, near Phase 2, Mithapur Road, Jalandhar","31.286961","75.580711","true"
"ChIJkXn0HZZbGjkRYiXTq46NgmM","Hindustan Petroleum Corporation Limited","near Urban Estate, Dairy Complex Urban Estate 2, Mithapur, near Urban Estate, Road, Jalandhar","31.3004583","75.58050229999999","true"
"ChIJVUODjqlbGjkROcKMVsmpC78","Petrol Pump","716, Model Town, Jalandhar","31.3024503","75.5760857","true"
"ChIJn8VZucxbGjkR0FOhr-2tbBE","IndianOil","Ground Floor, BSF Chowk, Jalandhar","31.310806","75.604439","true"
"ChIJJ912SjNaGjkRruw5Is_1YVU","IndianOil","BSF Chowk, Rail Cross, Jalandhar","31.311638","75.603127","true"
"ChIJZ0nQKExaGjkRmcfUXlZhcRY","IndianOil","Ground Floor, near Narinder Palace, Jawahar Nagar, Jalandhar","31.315575","75.589691","true"
"ChIJnWBArVdaGjkRBSfBV7YqKqs","Petrol Pump","291-B, Mahavir Marg, Guru Nanak Chowk, Shastri Nagar, Lajpat Nagar, Jalandhar","31.3170796","75.576523","true"
"ChIJTzj2LTRaGjkRBOl7JVGib4Y","IndianOil","Ground Floor, Ladowali Road, Fentonganj, Jalandhar","31.31638899999999","75.600792","true"
"ChIJ49i4QPdaGjkR96kvFdQtXu4","IndianOil","Ground Floor, opposite TV Station, Ring Road, Jalandhar","31.3205479","75.569393","true"
"ChIJqbn7hHpZGjkRGOmBqa5Pnw4","IndianOil","Grand Trunk Road, Jalandhar Cantt, Jalandhar","31.3059662","75.63200979999999","true"
"ChIJI5guYMFaGjkRaPfSk1aNUug","Hindustan Petroleum Corporation Limited","Ground Floor, near Babu Jagjivan Ram Chowk, 120 Feet Road, Basti Sheikh, Jalandhar","31.322001","75.54675010000001","true"
"ChIJq2-tiURaGjkRI9j4rKe2giA","IndianOil","near Daily Ajit Office, Nehru Garden Road, Central Town, Jalandhar","31.325945","75.588737","true"
"ChIJHdNkkZBbGjkRDQKDIBgvVWA","HP Petrol Pump - Harkirat Filling Station","Pholriwal Road, 66 Feet Road, Mithapur, Jalandhar","31.279899","75.58694799999999","true"
"ChIJg-mEIMNbGjkRVRI3FBIqyus","Hindustan Petroleum Corporation Limited","Ground Floor, Pholriwal Road, Mithapur, Jalandhar","31.27990789999999","75.58697819999999","true"
"ChIJD5WOEABdGjkRnL82Dv0n2i0","Petrol Pump Bharat petroleum","Dhina","31.2582074","75.6119712",""
"ChIJLfGFDxtcGjkRAT-b1epnqyY","IndianOil","Ground Floor, Jalandhar Cantt - Jandiala Road, Bazar Shahidan, Jamsher","31.2545188","75.6127599","true"
"ChIJYasQ9n1dGjkRhNmQXSLAwPQ","HANDA FILLING STATION","7J38+MP8, Byepass from pragpur towards, Jamsher","31.2541734","75.61684319999999","true"
"ChIJrfbyc-tbGjkRmhtb6LCMpLE","Bharat Petroleum, Petrol Pump -Savrupson Petro Point","JALANDHAR CITY,JALANDHAR, Jalandhar","31.2943906","75.5789527","true"
"ChIJt9Od0oBfGjkRjtMOTf7-FlA","Hindustan Petroleum Corporation Limited","Ground Floor, Jalandhar Cantt - Jandiala Road, Jamsher","31.2598554","75.6220645","true"
"ChIJV6kuegBbGjkRmWAgOuXkiGc","KSP","7JG8+3WW, Jalandhar Cantt, Jalandhar","31.2752426","75.6173274",""
"ChIJORsnYxVfGjkRvMeJEEWT75A","IndianOil","Ground Floor, Sansarpur, Jalandhar","31.2633431","75.6244124","true"
"ChIJLy2-aQBbGjkRspiDKNWPk5M","Indian Oil","301, Green Avenue, Dada Nagar, Model Town, Jalandhar","31.298035","75.57919710000002",""
"ChIJEQc4p2ZbGjkRGnRTRK17ry8","IndianOil","Ground Floor, Urban Estate, Jalandhar","31.29752899999999","75.58934099999999","true"
"ChIJbwcEhCtcGjkRz7l7v_z0bmQ","Hindustan Petroleum Corporation Limited","Ground Floor, Jalandhar Cantt - Jandiala Road, Jamsher","31.2265802","75.61537659999999","true"
"ChIJofTLPbhbGjkR6c62xo9Pm28","Amrit Service Centre (PETROL PUMP)","105, Garha Road, Garha, Jalandhar","31.29858999999999","75.595877","true"
"ChIJbdaBOwBdGjkR0tpYgrsNluA","MARUTI FILLING STATION","6J87+QH, Diwali","31.2168838","75.6139398","true"
"ChIJaQj1ZFpbGjkRu9MB5Mb-t98","Hindustan Petroleum Corporation Limited","Gururavi Dass Ngr, Plot No 10, Ngr Rd, Guru Teg Bahadur Nagar, Jalandhar","31.3074971","75.5679275","true"
"ChIJ_ecOMd1bGjkRGLWw3LNTru4","Hindustan Petroleum Corporation Limited","Ground Floor, near Shri Guru Ravidass Chowk, Nakodar Road, Jalandhar","31.309807","75.566315","true"
"ChIJeWFA8DFbGjkRc4CSoL5yrXw","Bharat Petroleum, Petrol Pump -Bindra Fuel Point","NAKODAR ROAD JALANDHAR, Jalandhar","31.31145549999999","75.56802350000001","true"
"ChIJDRuth8hbGjkRMbJSxoQO0d0","Bharat Petroleum, Petrol Pump -United Service Station","LAJPAT NAGAR,JALANDHAR, Jalandhar","31.3126863","75.59451829999999","true"
"ChIJu0c5Q_laGjkRUvcCJAT-KJA","Hindustan Petroleum Corporation Limited","Ground Floor, near Nari Niketan Road, Jalandhar - Nakodar Road, Basti Sheikh, Jalandhar","31.3146201","75.5691501","true"
"ChIJL30L4s_1GjkRnwE-t9UTAGU","IndianOil","Ground Floor, near BSF Chowk, Grand Trunk Road, Phagwara","31.3108088","75.604382","true"
"ChIJN8gpNeRaGjkRJDTVfXNsXtA","Hindustan Petroleum Corporation Limited","Ground Floor, Model House Road, Basti Sheikh, Jalandhar","31.314901","75.55800099999999","true"
"ChIJZzX7nNJbGjkRSvBTdnTkb2o","IndianOil","Ground Floor, Pap Chowk, Jalandhar","31.31035100000001","75.609596","true"
"ChIJjT3NjNJbGjkRlrNqztE2nIk","Hindustan Petroleum Corporation Limited","Ground Floor, near Pap Lines, Grand Trunk Road, Jalandhar","31.310351","75.610731","true"
"ChIJjbgiTVlaGjkRyyDc6eH3SB0","Bharat Petroleum, Petrol Pump -Shamsher Singh Sehgal & Sons","BMC CHOWK,JALANDHAR CITY, Jalandhar","31.3183005","75.58445859999999","true"
"ChIJ____71laGjkRA94avfFOVc8","Hindustan Petroleum Corporation Limited","Ground Floor, GT Road, Near BMC Chowk, Jalandhar","31.320311","75.58339099999999","true"
"ChIJMQpuTUJbGjkR9KImKCxiHjE","IndianOil","Ground Floor, Ladowali Road, Jalandhar","31.31883119999999","75.59747209999999","true"
"ChIJeyL6yulaGjkReaGdiHJLT_M","Parkash Petroleum","8H92+XWJ, Gobind Nagar Extention, Jalandhar","31.3199569","75.55227339999999",""
"ChIJ7_7M0sVbGjkR7t96qPZdSVM","IndianOil","Ground Floor, near Babrik Chowk, Basti Sheikh, Jalandhar","31.3198588","75.55154759999999","true"
"ChIJl8tarsNaGjkRtJo10fs2Aos","Hindustan Petroleum Corporation Limited","Ground Floor, near Babu Jagjivan Ram Chowk, Basti Sheikh Road, Jalandhar","31.3198709","75.5477482","true"
"ChIJI7XFJc5eGjkRrATQb08PUio","IndianOil","Ground Floor Jalandhar Cantt, Kukkarpind, Rd, Khusropur, Jalandhar","31.26514099999999","75.655459","true"
"ChIJHxbKfxpbGjkRbrwnzRcOB84","Sunshine Fuel Station","8HFP+P63, Nehru Garden Road, Jalandhar","31.3242539","75.5855413","true"
"ChIJIekjvQpbGjkRTyG-GbvgbjQ","Bharat Petroleum, Petrol Pump -Bindra Petro Point","BASTI ADDA,JALANDHAR, Jalandhar","31.325853","75.57649769999999","true"
"ChIJzdZzJiNZGjkRp9nEKXaZ0sQ","IndianOil","No 222/5, Grand Trunk Road, Paragpur","31.291987","75.656452","true"
"ChIJyzR6U9ZYGjkRDM4hkAsej0c","IndianOil","Ground Floor, Paragpur","31.282467","75.669792","true"
"ChIJ1bdwS09fGjkRnaY_TG6KYyU","IndianOil","Ground Floor, Semi, Jaland, Khajurla","31.2896645","75.68558340000001","true"
"ChIJQ-cHLy9aGjkRwf1941BxKS0","IndianOil","NH 1, Amritsar Bypass Road, Chugitti, Jalandhar","31.32180099999999","75.614403","true"
"ChIJ38tBueBZGjkREZUILEKuwGs","Bharat Petroleum Petrol Pump , COL KULWANT SINGH FILLLING STATION","DEEPANAGRNEAR VILLAGE PARAGPUR, Jalandhar","31.2834895","75.6588677","true"
"ChIJ98VwBaFZGjkRRYsgHyOLlKY","IndianOil","No 367/389 GT Road, Kot Kalan, Kukar Pind","31.283848","75.66727399999999","true"
"ChIJnzKkHCNZGjkRLlzPhVmjBVo","IndianOil","Ground Floor, GT Road Khajurla, Road, Banga","31.27884499999999","75.67540009999999","true"
"ChIJ2TDBr0hfGjkRh5i623-7ZkU","Hindustan Petroleum Corporation Limited","Ground Floor, Jalandhar Ludhiana, Chaheru Road, Phagwara","31.266831","75.695741","true"
"ChIJX9y_CnJZGjkRjcftX12C3bQ","IndianOil","Mile Stone No 364 Phagwara, Road, Chaheru","31.26728839999999","75.6965689","true"
"ChIJ9fOQEABfGjkRZOZsr2lGQLE","Jalandhar, Phagwara","7P82+PWR, Jalandhar","31.26686950000001","75.70225669999999",""
"ChIJ_W_xr0tfGjkR1UmDZl0t2Ww","Leo filling","Phagwada, Jalandhar","31.26196989999999","75.7075153",""
"ChIJXR9EhStZGjkRN7uuAqtDoGw","S K Filling Station","Sansarpur Dhina, Road, Jalandhar","31.31116179999999","75.6392803",""
"ChIJO9ZlxQFZGjkRbD9D5uiZW2A","Hindustan Petroleum Corporation Limited","Ground Floor, Rehana Jattan, Road, Dhilwan, Talhan","31.3152938","75.6665158","true"
"ChIJXQGYwVhZGjkREhpM1HYwCVU","Harman Gas Service","56, Street No-1, New Dashmesh Nagar, Rama Mandi, Jalandhar","31.31900589999999","75.6355518","true"
"ChIJPySvfQZaGjkRy-aG-eKxleo","IndianOil","Hoshiarpur Road, Cantonment, Rama Mandi, Jalandhar","31.3190443","75.6318072","true"
"ChIJp32g0C5aGjkReTXb3CDLix0","D K MOTOR","8JC7+7M4, Chogiti Bypass, Jalandhar Bypass Road, Guru Nanak Pura East, Avtar Nagar, Rail Vihar, Jalandhar","31.3206368","75.6141937","true"
"ChIJ7XY9XV9FGjkR7pW3xRx1RYM","IndianOil","Kapurthala Road, Wariana","31.34504299999999","75.50885099999999","true"
"ChIJQ-aGaYpPGjkREgkFTvH5h74","Mand Filling Station - Bharat Petroleum Corporation Limited","Kapurthala - Jalandhar Road, Mand, Jalandhar","31.3461234","75.5003516","true"
"ChIJ_8oWSr9aGjkRGu04jnmfOb0","IndianOil","120 Feet Road, Mithu Basti, Jalandhar","31.328636","75.545609","true"
"ChIJmcRMR4VaGjkRdWsvS-u68tA","IndianOil","Ground Floor, GT Road, Near HMV College, Jalandhar","31.3421715","75.5637897","true"
"ChIJR-eF8otaGjkRVsld_KAbcKU","Hindustan Petroleum Corporation Limited","Ground Floor, GT Road, Near Patel Chowk, Jalandhar","31.334391","75.568991","true"
"ChIJL9lDtfRaGjkRYARIbmGunno","Bharat Petroleum","8HJ9+3W4, GT Road, Adda Bastian, Hamidpura, Jalandhar","31.3301345","75.5698134",""
"ChIJRfFeF6hbGjkRNPtHTzKGBSA","Bharat Petroleum, Petrol Pump -Sterling Filling Station","Gazi Gulla Road, MOHALLA GAZIGULLA, Jalandhar","31.342028","75.5729257","true"
"ChIJPUkdjHpQGjkRtoLSwzSL6rs","Hindustan Petroleum Corporation Limited","Ground Floor, NH 1, Grand Trunk Road, Guru Amar Dass Nagar, Jalandhar","31.3606824","75.5637004","true"
"ChIJ_1dAjn9QGjkRe9X6wi27F4w","IndianOil","No 30, Patel Chowk, Industrial Area, Jalandhar","31.3532711","75.57227259999999","true"
"ChIJs2kTnntQGjkR59WKDPH414c","Bharat Petroleum","1A, Hill View Colony, Kalia Colony, Jalandhar","31.3606136","75.56726929999999","true"
"ChIJ0-vTx2daGjkR3RCjjLH9L7Y","IndianOil","169, Old Railway Road, Dhan Road, Jalandhar","31.3359196","75.5836029","true"
"ChIJH7qj_kJaGjkRyw1KAe4afV0","Indian Oil - Sansari Mal Subash Chander","50, Mandi Fenton Ganj, Gobind Garh, Fentonganj, Jalandhar","31.329815","75.588465","true"
"ChIJM-OBZQBbGjkRVoOJNDkj0bI","NRO Basti Bawa Khel","8GQH+XRP, Basti Bawa Khel, Jalandhar","31.3399653","75.5295768",""
"ChIJAW2jOQBbGjkRG_N6f0wW304","BPCL Krishna Filling Station","8GQH+XRQ, Basti Bawa Khel, Jalandhar","31.3399589","75.5296101","true"
"ChIJMysU2MFbGjkR3nHyo2BCZ9s","IndianOil","Usha Dharam Kanta Complex, Kapurthala Road, Basti Bawa Khel, Jalandhar","31.3378481","75.5345128","true"
"ChIJYeM9Fq5aGjkRCI0ayBUkev0","Usha Filling Station ,","8GQM+7R5, Raj Nagar, Basti Bawa Khel, Jalandhar","31.33814180000001","75.5345971","true"
"ChIJBZzF__hbGjkRkPusE8dRNY0","Hindustan Petroleum Corporation Limited","Ground Floor, opposite State Bank of India, Kapurthala Road, Basti Bawa Khel, Jalandhar","31.337501","75.53826099999999","true"
"ChIJox3Uj5VaGjkRuCzSZafwVA8","Hindustan Petroleum Corporation Limited","Ground Floor, Mithu Basti, Arjun Nagar, Jalandhar","31.3331826","75.5508025","true"
"ChIJQaK7YgBbGjkRAMMRGakeZpw","New petrol pump","8HM3+8RX, Mithu Basti, Adarsh Nagar, Jalandhar","31.3333643","75.5545989",""
"ChIJhQ9rH45aGjkRIq1Fqm5wpl8","IndianOil","Ground Floor, near Tagore Hospital, Kapurthala Chowk, Jalandhar","31.3363033","75.562888","true"
"ChIJ5RGU0QtbGjkRfLIq7PjvLUQ","Hindustan Petroleum Corporation Limited","No 193, Jalandhar - Nakodar Road, Near Football Chowk, Adarsh Nagar, Jalandhar","31.329501","75.564264","true"
"ChIJO2WIcJhbGjkR4RfK18rt_Hg","Medichem distributor","Transport Nagar, Harnam Daspura, Jalandhar","31.337245","75.5668261","true"
"ChIJf40zCWhRGjkRBOQJTpydj88","Bharat Petroleum, Petrol Pump -Bawa & Company","MAQSUDAN, JALANDHAR CITY, Jalandhar","31.3626343","75.5511808","true"
"ChIJK02pyY5aGjkRlOpnDgUCZD0","Hindustan Petroleum Corporation Limited","Patel Chowk, Plot No NN/16, Workshop Chowk Road, Gopal Nagar, Jalandhar","31.337251","75.567861","true"
"ChIJjbgiTVlaGjkRreKXJguP-Xw","IndianOil","Ground Floor, Patel Chowk, Jalandhar","31.334728","75.56899299999999","true"
"ChIJn8V6vXlRGjkR-8J4ITnBk6Q","IndianOil","Ground Floor, near Verka Milk Plant, Guru Amar Dass Nagar, Adarsh Nagar, Jalandhar","31.3618742","75.5604397","true"
"ChIJx28qsClRGjkRIl050pc35KE","IndianOil","Ground Floor, Amardass Nagar, near Verka Milk Plant, Jalandhar","31.3612857","75.5623992","true"
"ChIJMx2FHppRGjkRWYSiHKtP4XA","IndianOil","AH1, Bhagat Singh Colony, Jalandhar","31.36032029999999","75.5657201","true"
"ChIJzx0P_05RGjkRFxLkYD4f3Xo","Bharat Petroleum, Petrol Pump -Dharam Filling Station A/C Bye Pass","G.T.ROAD,JALANDHAR CITY, Jalandhar","31.3605959","75.5672147",""
"ChIJw8M0NEhPGjkR7FTdhHuihqQ","Hindustan Petroleum Corporation Limited","Ground Floor, Kapurthala - Jalandhar Road, Kapurthala","31.359251","75.442951","true"
"ChIJxezF_i5QGjkRpY_jAc-QDKg","IndianOil","Grand Trunk Road, Suranussi, Jalandhar","31.385431","75.535934","true"
"ChIJDTnyBnxaGjkRoicmnv4g9vo","Hindustan Petroleum Corporation Limited","Ground Floor, near JMP Chowk, Sodal Road, Industrial Area, Jalandhar","31.34762099999999","75.58007099999999","true"
"ChIJd2fTh0NbGjkRUkNXJ3khY48","MLA AVTAR HENRY (PUNJAB) Jalandhar ADMINISTRATION OFFICE","Unnamed Road, Bhai Ditt Singh Nagar, Dhan Mohalla, Jalandhar","31.3344472","75.5847749",""
"ChIJs83V4Z1QGjkRLNRW2rtATrA","IndianOil","Service Road, Div Colony, Sarabha Nagar, Jalandhar","31.3584478","75.59315769999999","true"
"ChIJE00v321aGjkRMr34zQFRDzc","Bharat Petro Point","Hoshiarpur Road, Prithvi Nagar, Kishanpura, Jalandhar","31.3422111","75.5918679","true"
"ChIJZ2gvbphQGjkRJH2pVMoyZcE","Bharat Petroleum","National Highway, 1A, Nurpur","31.364981","75.596773","true"
"ChIJE10XZr5QGjkRyicresf_3ts","Hindustan Petroleum Corporation Limited","Ground Floor, Pathankot - Jalandhar Road, Nurpur","31.373921","75.599761","true"
"ChIJk5oHVOZZGjkRjwgUOkaFl94","Hindustan Petroleum Corporation Limited","Ground Floor, Hoshiarpur Road, Jalandhar","31.352071","75.64101099999999","true"
"ChIJKdjLHFZbGjkRJ3jAIIVznhM","M/s Aggarwal Enterprises","8HMP+MF7, Dhan Mohalla, Jalandhar","31.334158","75.5861816",""
"ChIJC9tLmHBaGjkReA4U1jQcS80","Hindustan Petroleum Corporation Limited","Ground Floor, Tanda Road, Near Doaba Chowk, Jalandhar","31.347351","75.586511","true"
"ChIJnYiagnJaGjkRCAMCHDzHaBQ","Hindustan Petroleum Corporation Limited","opposite Metro Hospital, Ground Floor, Hoshiarpur Road Kishanpura Chowk Road, opposite Metro Hospital, Chowk, Lamba Pind, Jalandhar","31.344277","75.595238","true"
"ChIJcyGgeG1XGjkRj0gJ7V18auc","IndianOil","PH No 700234455434, Hoshiarpur Road, Jandu Singha","31.38187799999999","75.655273","true"
"ChIJ5_c_hkdZGjkRs0z1vvuL_kg","Hindustan Petroleum Corporation Limited","Ground Floor, Patara Road, Bolina","31.340678","75.649478","true"
"ChIJtXbPycBZGjkR5m8jBGvaVng","Pehalwan Mohindar singh Bolina Filling station","8JRX+7QR, Patara Road","31.3407327","75.6493986","true"
"ChIJb0kCkUhZGjkR-H1F1VAZVhc","Bolina doaba","8MW3+3M2, Patara Road, Bolina","31.34513530000001","75.6541364",""
"ChIJMVhwTABZGjkROy3-VIfQiOM","Pehalwan Mohindar singh Bolina Filling station","8MW3+PPJ, Bolina","31.3468275","75.6542661",""
"ChIJlw_7bBZZGjkRaSb7viOo4ZM","Bhagwati Petroleum (bpcl pump)","8JVG+37R, Suchi Pind, Jalandhar","31.34274","75.6256466","true"
"ChIJmS7aZGlbGjkRMH-is51Og58","IndianOil","Ground Floor, opposite Surya Enclave, Grand Trunk Road, Jalandhar","31.33137829999999","75.61372399999999","true"
"ChIJywWpKx9aGjkRnVng6EZQbR4","Indian Oil Corporation Limited","Jalandhar Area Office Indane Area Office, BYE Pass Road, Suchi Pind, Jalandhar","31.3370742","75.6152911","true"
"ChIJVTq8w1dbGjkRI_9JxcRljXI","K.K. Washing Center","opposite Akshardhaam Mandir, Grand Trunk Road, Chugitti Bypass, Jalandhar","31.3336696","75.6130704","true"
"ChIJtQv3bhhaGjkRJpjMXGB4h1Y","Hindustan Petroleum Corporation Limited","Ground Floor, NH 1, Grand Trunk Road, Surya Enclave, Jalandhar","31.3358147","75.6111073","true"
"ChIJn-r0sANbGjkR3VqabSEKSUI","Bharat petroleum corporation ltd","8JV8+V9H, Unnamed Road, Suchi Pind, Jalandhar","31.34468019999999","75.61598819999999",""
"ChIJQzWVfLBbGjkRyBAAmKtUslg","IndianOil","Ground Floor, near Lamba Pind, Bypass Road, Lamba Pind, Jalandhar","31.337866","75.610283","true"
"ChIJxy1AzhlaGjkR3Bg93mY8jXE","Jeevan Petroleum IOC Petrol Pump","65 SF, Grand Trunk Road, Guru Gobind Singh Avenue, Jalandhar","31.3379736","75.60998219999999","true"
"ChIJ09bmaIxbGjkRCOKSPM66WcY","Indian Oil petrol pump (Punjab spirits)","near lamba pind, Hoshiarpur Road, chowk, Jalandhar","31.3522196","75.61178070000001","true"
"ChIJv6qqqq5QGjkRuMlgY6FS0Rk","Vee Care Point Pollution Check Center","near Parminder Hospital, Vee Care Point(HP Petrol Pump)Lamba Pind,Jalandhar, near Parminder Hospital, Jalandhar City","31.3496839","75.607492","true"
"ChIJPySvfQZaGjkRJ-4z4fh9NSo","Hindustan Petroleum Corporation Limited","Ground Floor Lambapind, Hoshiarpur Road, Chakhussaina, Jalandhar","31.349821","75.607331","true"
"ChIJFxcfbfZXGjkRZbvt47t_EuQ","IndianOil","Ground Floor, Hoshiarpur Road, Jandu Singha","31.36976500000001","75.643852","true"
"ChIJWy5LHBJXGjkR0BFaMG3Metg","Hindustan Petroleum Corporation Limited","Ground Floor, Link Road, Jandu Singha","31.371167","75.66326939999999","true"
"ChIJCUSIrUpJGjkRifUzirkyIB4","HP PETROL PUMP - AJAY HP FUELS","Village Dianpind, Kapurthala - Kartarpur Road, Jalandhar","31.404675","75.4341608","true"
"ChIJi4GMKyZOGjkRYYn4n1hKOTw","ਇੰਡੀਅਨ ਟੈਂਟ 'ਹਾਊਸ","CG3F+FQ9, Service Rd","31.4036703","75.5244955",""
"ChIJW9d3q4JPGjkRhNJ-dG0nBYI","IndianOil","Ground Floor, Jalandhar Amritsar Road, NH1, Bazar Shahidan, Bidhipur","31.40337","75.525578","true"
"ChIJf0J-fE5PGjkRRqHcLybu5_8","Hindustan Petroleum Corporation Limited","Ground Floor, NH 3, Jalandhar Amritsar Road, Jalandhar","31.423454","75.510469","true"
"ChIJHUmtLgBPGjkRU78mYNWSZ78","Ibadat filling station bpcl","CGG6+87J, Kahlwan","31.426","75.50993299999999",""
"ChIJcaN96gBNGjkRxfaqfYL3zU4","IndianOil","Grand Trunk Road, Kartarpur","31.4262186","75.50971559999999","true"
"ChIJBXVbctpNGjkRHVvSIlNAHRo","IndianOil","CFQV+H2G, NH-1, Jalandhar to Amritsar Road, Kartarpur","31.43971029999999","75.4942875","true"
"ChIJeyGUTeNNGjkReHWmpE5KeqE","Shri Gangsar filling Point","Kishangarh Road, Kartarpur","31.4405462","75.5158383","true"
"ChIJT77iwttRGjkRF4tr_axp7Nc","HP Gas Warehouse","9HP6+G55, Fazilpur","31.3862722","75.560475",""
"ChIJK04-EbpNGjkRXs30tkwExRA","Bharat Petroleum, Petrol Pump -Jagatjit Industries Ltd.","Jagatjit Industries Limited, Kapurthala","31.44213509999999","75.49117869999999","true"
"ChIJN4_KOKJOGjkRw-3MF_mCJCE","IndianOil","Ground Floor, Kartarpur Kapurthala Road Bisrampur, Mustafapur, Jalandhar","31.42212099999999","75.456085","true"
"ChIJVZauZKVNGjkR6OxJOKqhv7w","Bharat Petroleum, Petrol Pump -Sekhri Power Point","KARTARPUR,JALANDHAR, Jalandhar","31.4469082","75.48156879999999","true"
"ChIJ82msRV9QGjkRhsNZk1qj5k4","Hindustan Petroleum Corporation Limited","Ground Floor, beside Focal Point, Road, Randhawa Masanda, Mokhe","31.38003850000001","75.57358169999999","true"
"ChIJQTyY8TZMGjkRi593apLhVVM","Hindustan Petroleum Corporation Limited","Ground Floor, near Dera Radhey Swami Satsang, Grand Trunk Road, Dialpur","31.450383","75.47355900000001","true"
"ChIJXU8D5kFJGjkRtjS5uPHy7as","Hindustan Petroleum Corporation Limited","Ground Floor, Kapurthala - Kartarpur Road, Dainwind","31.404823","75.43423849999999","true"
"ChIJMV22LzhMGjkRqj4bSCWAll8","Hindustan Petroleum Corporation Limited","ST No 395, NH 1, Kartarpur","31.450601","75.468801","true"
"ChIJv18d6idNGjkRv01lDnZJuuY","Jio bp petrol pump","Jio bp petrol pump, Dialpur","31.4524221","75.4630932","true"
"ChIJywvTCgBNGjkREypWQNjSJhM","Reliance","Jalandhar-2, Dialpur","31.4524626","75.4630571","true"
"ChIJIQp5zIZQGjkR0I-pHHU4Jks","Hindustan Petroleum Corporation Limited","Ground Floor, NH 1, Grand Trunk Road, Transport Nagar, Jalandhar","31.3592669","75.5782487","true"
"ChIJKcA7JdhQGjkReadChcC-yPs","IndianOil","Ground Floor, NH 1A, Pathankot - Jalandhar Road, Raipur","31.3998523","75.6090376","true"
"ChIJhyfNQLBRGjkRQsGMIDA60kw","MIDHA FILLING STATION","near Hemkunt Public School, Raipur Rasulpur","31.3875412","75.60450879999999",""
"ChIJRfUWudNRGjkRFBSBvlUn28U","Unique filling station,jalandhar","Pathankot - Jalandhar Road, Raowali, Jalandhar","31.3745268","75.6004631","true"
"ChIJl32ESQBRGjkRMgdygmKfv9M","Bharat Petroleum","9JF2+Q5V, Pathankot - Jalandhar Road, Bulandpur, Jalandhar","31.3744779","75.6004281",""
"ChIJHdLEa4VQGjkRltcXTUu1b2s","Hindustan Petroleum Corporation Limited","Ground Floor, Transport Nagar, Jalandhar","31.3643331","75.5841925","true"
"ChIJH8p7FC5RGjkRNNupTxN11vo","Hindustan Petroleum Corporation Limited","Ground Floor, Pathankot - Jalandhar Road, Bal","31.412381","75.613871","true"
"ChIJ4cPcp9VbGjkRJuNIXxfGLlU","Puran Sant Petro Point","Site No. 2, Transport Nagar, Industrial Area, Jalandhar","31.359623","75.5817869","true"
"ChIJ2XBSbQBRGjkRaUxsyP1vGEU","Bharat pump","1, Transport Nagar, Jalandhar","31.3595533","75.58140499999999",""
"ChIJcRukIFFRGjkRNUzWPn4t0Co","Shah Service Station","Dhaliwal","31.3571798","75.5863019",""
"ChIJ_1OG335RGjkRpkbuGutN7wI","Hindustan Petroleum Corporation Limited","Ground Floor, Kartarpur Kishangarh, Road, Rahimpur","31.438601","75.57717099999999","true"
"ChIJDe-1VA1bGjkR59UDDLWBG_A","Bharat Petroleum","9H3Q+GX9, Pathankot Road, B D A Enclave, Santokh Pura, Jalandhar","31.35379499999999","75.58999399999999",""
"ChIJX6yYsBFRGjkRgHvu7rsHE1I","Reliance Petrol Pump, Kishangarh","CJF8+FM9, Kishangarh","31.4236576","75.6167348","true"
"ChIJg0C-52JbGjkRt_AAILS2Kiw","Hindustan Petroleum Corporation Limited","Ground Floor, near KMV Marg, Tanda Road, Reru","31.3529329","75.5900755","true"
"ChIJf9_MrkxRGjkRaPIedovyAx8","IndianOil","Ground Floor, Pathankot - Jalandhar Road, Kishangarh","31.43145579999999","75.62038240000001","true"
"ChIJdWCnpCdXGjkRwkljDEdhPyU","IndianOil","Ground Floor Dhogri, Rd, Alawalpur","31.401245","75.6381001","true"
"ChIJk0OYTzRWGjkRl45lUWxxbmc","IndianOil","National Highway 3, Udesian","31.4151348","75.6942713","true"
"ChIJHVfNqDFWGjkR47-xczXr66I","Hindustan Petroleum Corporation Limited","Ground Floor, Jill HSPR Road, Adampur","31.419971","75.69971100000001","true"
"ChIJh7Bi2-xWGjkRPzQCLYL9N_8","IndianOil","Ground Floor, Alawalpur","31.428172","75.652101","true"
"ChIJn6mRWklXGjkRRScAHLBekqk","IndianOil","Ground Floor, Singha Daroli Kalan Rd Jandu Singha, Budhiana","31.368675","75.696953","true"
"ChIJPxpOZuJVGjkRri_Zot0inxY","IndianOil","Ground Floor, Beas Jullundur, Alampur","31.455425","75.626351","true"
"ChIJCb3c7Q5UGjkRqpbBg68B2M8","Hindustan Petroleum Corporation Limited","KM Stone 17, Ground Floor NH 1A, Beas Pind","31.464173","75.631002","true"
"ChIJzxsYHgBXGjkRtUO1-UTUGAE","RAI PETRO","CMHP+VJW, Alawalpur Adampur Road, Alawalpur","31.4298135","75.6879131",""