place_id,name,address,latitude,longitude,open_now
"ChIJw_qL311_EDkR5MJWPgsPbDU","IndianOil","Ground Floor Pakhowal Road, Lalton Kalan, Dad","30.832726","75.785347","true"
"ChIJcxeNnYqBGjkRiPovv8xUSQ4","Hindustan Petroleum Corporation Limited","Ground Floor Pakhowal Road, Lalton Kalan, Dad","30.865221","75.80672100000001","true"
"ChIJ2QMBoUt-EDkRcrERIEGCAcA","Hindustan Petroleum Corporation Limited","Ground Floor, opposite Rishab Spinning Mills, Pakhowal Road, Jodhan","30.7864474","75.7423542","true"
"ChIJ5b9Su394EDkRRa7coSrGZqo","Teri Oat Fuel Station","Bye-pass, l, Gill Road, Gill","30.8444229","75.8555686","true"
"ChIJI2wPtkWCGjkRiM-y30eRH6E","IndianOil","Phase 1, Dugri Road, Ludhiana","30.87542899999999","75.83743299999999","true"
"ChIJCXVLUDSCGjkRBnLYr1ZkL3o","IndianOil","Southern Bypass, Pakhowal Road, Ludhiana","30.884592","75.82661399999999","true"
"ChIJXQBTm1yCGjkRuGTCrCL-iPA","Bharat Petroleum, Petrol Pump -Auto Power","VRCV+VJ2, Phase 1 Road, Phase 1, Duggri, Urban Estate Dugri, Ludhiana","30.87266189999999","75.84400190000001","true"
"ChIJl_FAxraDGjkR4JNDcBjObog","Hindustan Petroleum Corporation Limited","Ground Floor, Pakhowal Road, Jagjit Nagar, Ludhiana","30.889301","75.827151","true"
"ChIJXe6lzYiCGjkRAFhl3AGMQYw","IndianOil GILL ROAD SERVICE STATION","opp. G.N.E. College, Gill Road, Ludhiana","30.859774","75.85918400000001","true"
"ChIJhZeDmUuCGjkRhE72F5SX3gA","IndianOil","Jabaddi Road, Kundan Nagar, Model Town, Ludhiana","30.885748","75.834785","true"
"ChIJebHK6ViCGjkROA4KmVDReig","IndianOil","near Railway Street, Gill Road, near Railway Street, Road, Danamandi Road, Duggri, Ludhiana","30.87530490000001","75.851601","true"
"ChIJW0NsCGSBGjkRc4dDht8p_oQ","PAU Petrol Pump","Punjab Agricultural University, Ludhiana","30.9012322","75.800991","true"
"ChIJsYZYeLGBGjkR0mrB36hCmaI","Hindustan Petroleum Corporation Limited","Ground Floor, Lalton Kalan","30.84674239999999","75.7716308","true"
"ChIJC0ljEAt_EDkRZBFe-F-hU9Y","Indian oil petrol pump dolon kalan","RQ5W+M4, Dolon Kalan","30.8091286","75.7953385",""
"ChIJW8efLLF4EDkRCJ6zMNIJ1QY","IndianOil","New Courts, Ground Floor Dugri Kheri Jhameri, Road, Ludhiana","30.824986","75.815435","true"
"ChIJUbc_S_GBGjkR21a4A7JgYhw","IndianOil","Ground Floor, Pakhowal Road, Model Gram, Dad","30.85568099999999","75.801024","true"
"ChIJg63mc6d_EDkRZRQhQ-XHGCY","IndianOil","Ground Floor Mansooran, Shaheed Bhagat Singh Nagar, Andlu","30.804912","75.759295","true"
"ChIJo0a12a-BGjkRgS5u68efY78","IndianOil","Ground Floor, Rajguru Nagar, Tharike","30.8689896","75.7745097","true"
"ChIJZynbTtN5EDkR1bUEAhRJihM","Nikka Hi Fi Dj","86, Chupki - Jassowal Road, Ludhiana","30.803109","75.8237784",""
"ChIJx3gtuheCGjkRq_E3mFDN5Uk","Bharat Gas Godam","Anand Vihar, Phullanwal, Ludhiana","30.86302099999999","75.82054000000001",""
"ChIJWzmuQVaBGjkRuolLH2MoSbk","Hindustan Petroleum Corporation Limited","Ground Floor, Jhande Road, Baddowal","30.86606769999999","75.7576806","true"
"ChIJXQ0Kxs6DGjkRxME4gkTULNw","IndianOil","near Grand City Plaza, BRS Bypass, Phullanwal, Ludhiana","30.8716422","75.8112216","true"
"ChIJ3V2JfBSDGjkRltSAWfBTiCM","IndianOil","Ground Floor, Pakhowal Road, Ludhiana","30.8724107","75.8143031","true"
"ChIJL5e_joF_EDkRUMAMutGZq-I","IndianOil","Ground Floor Jodhan, Pakhowal Road, Andlu","30.7913048","75.7473942","true"
"ChIJ_4ydsG-CGjkRHW6hmlNcQUI","Hindustan Petroleum Corporation Limited","Ground Floor, Dugri-Dhandra Road, Dhandra, Ludhiana","30.8587395","75.84019839999999","true"
"ChIJL63MTqqDGjkR_kZnFDuYXLE","AVIRAJ FILLING STATION","VR2W+XPP, 200 FOOT GLADA BYPASS ROAD BACK SIDE BABA BALAKNATH MANDIR, Shaheed Bhagat Singh Nagar, SBS Nagar, Ludhiana","30.85266699999999","75.84896549999999","true"
"ChIJlZmegG-DGjkRNOoFTfYpEKY","Raja Jung Filling Station","Shop No 66, Near Kabrawala Pull, Grand Trunk Road, Ludhiana","30.8710303","75.8358708",""
"ChIJLcYDWHeBGjkR2Q4wXed2jiU","Bharat Petroleum","VQQW+P5W, A Block, Aggar Nagar, Ludhiana","30.8893674","75.79544899999999",""
"ChIJD1QMGAB5EDkRgByUNoIhEQI","Alamgir auto fuels","RVR5+C39, Ludhiana - Malerkotla Road, Gill","30.8410263","75.8577294",""
"ChIJS10rA3yBGjkRFNDKNsTMAvg","IndianOil","Ground Floor, opposite Verka Plant, Ferozepur Road, Ludhiana","30.89107409999999","75.8019291","true"
"ChIJlTadIQCDGjkRP8I8AQDWIR8","Hindustan Petroleum Corporation Limited","Ground Floor, near Sidhwan Canal, Pakhowal Road, Ludhiana","30.8850288","75.823036","true"
"ChIJq4ZFNruDGjkROBpX8rWxRBA","Tyre Puncture","next to LIC office, Ludhiana","30.8756851","75.8377541",""
"ChIJQYj-vF2CGjkRHeTqZSjJU48","Hindustan Petroleum Corporation Limited","Ground Floor, Guru Nanak Dev Engineering College Road, Urban Estate Dugri, Ludhiana","30.869322","75.84560479999999","true"
"ChIJz3owx-N5EDkRKUUyW2mqTBw","Sachin","Shop 18, Burger King, Road, Gill","30.8237377","75.86047599999999",""
"ChIJeZs9xTaBGjkRKyU6HS7GN58","CNG pump gahaur","VP69+GR8, National Highway 95, Dakha","30.8613884","75.71981509999999","true"
"ChIJfVQcwYOCGjkRLkHJ3FXixOk","HP PETROL PUMP - HP SERVICE CENTRE","Ground Floor, Ludhiana - Malerkotla Road, Gill","30.850744","75.86084009999999","true"
"ChIJJyDP9ZV5EDkRPDSnNgUIYes","Indian Oil Pump","RVM8+44M, Brahman Majra","30.8328406","75.86530259999999","true"
"ChIJw98hyR95EDkRHgyIwnZAWo8","IndianOil","Ground Floor, Malerkotla Road Alamgir, State Highway 11, Jaspal Banger, Ludhiana","30.824623","75.865721","true"
"ChIJ9-TVGnaAGjkR441bIS-lUfo","Reliance Petroleum","Ground Floor, near Mullanpur, Nh 5, Ferozepur - Ludhiana Road, Ludhiana","30.85953409999999","75.7144392","true"
"ChIJWYiCZUN4EDkRkmHYm7gYFZs","Reliance Petroleum","Ground Floor, Sh 11, Ludhiana - Malerkotla Road, Rania","30.82012969999999","75.86723599999999","true"
"ChIJgQhYM1eCGjkRhLNRlC5Pmww","Reliance Petroleum","208/3, Dugri Road, Sant Fateh Singh Nagar, D-Block, Atam Nagar, Model Town, Ludhiana","30.88063039999999","75.84749049999999","true"
"ChIJq6p6CZ-CGjkRWPSmC86lkRo","IndianOil","Ground Floor, Abadi Isher Nagar, Patiala","30.851404","75.87477899999999","true"
"ChIJy4ZZ-PmCGjkRDtReqssHKag","HP PETROL PUMP - BHAVIKA HP CENTRE","Near Ludhiana, Gill Road, Janta Nagar, Chandigarh","30.880896","75.859079","true"
"ChIJn-bFNrSCGjkRNCdLDqS5q68","IndianOil","Ground Floor, Sua Road, Giaspura, Ludhiana","30.870159","75.895279","true"
"ChIJu7MEpPyCGjkR3nQK9UUkXME","IndianOil","21/11358, Plot No B, Street Number 7, Near Sangeet Cinema, Ludhiana","30.887146","75.864098","true"
"ChIJfZ3eAZ55EDkRlff96J_50cs","IndianOil","Ground Floor SH 11, Malerkotla, Road, A P Basti, Kaind","30.773289","75.85329899999999","true"
"ChIJFzLwlv-CGjkRtKplBlOAsLE","Bharat Petroleum, Petrol Pump -Link Road Service Station","GILL CHOWK, Ludhiana","30.8893364","75.8571604","true"
"ChIJ_b5urlSCGjkRx-b9bVbCzSA","IndianOil","No 1, 1, Link Road, Model Town, Ludhiana","30.889861","75.848297","true"
"ChIJVXRpRs2CGjkRz9JbjAau7ZQ","Hindustan Petroleum Corporation Limited","Ground Floor, Focal Point Road, Sherpur Kalan, Focal Point, Ludhiana","30.883421","75.899051","true"
"ChIJOQjObNKCGjkRBRuVTbX1LXY","IndianOil","Sherpur Road, Focal Point, Ludhiana","30.8853193","75.8956184","true"
"ChIJMdQtYwaDGjkRHqEtwlffXP4","IndianOil","GT Rd, Miller Ganj, Ludhiana","30.8997977","75.8589841","true"
"ChIJGfGkVCl5EDkRTF5LQVo1Ljc","IndianOil","Ground Floor, Ludhiana Malerkotla Road, State Highway 11, Alamgir","30.8076865","75.8680814","true"
"ChIJuUQZxmF5EDkRbEtcwy8aef0","Hindustan Petroleum Corporation Limited","Ground Floor, Ludhiana - Sangrur Road, Sarinh","30.80009099999999","75.87005099999999","true"
"ChIJ9YY6Pg6DGjkR9GCeewKJtDA","Sharma Enterprises","2032, Guru Baba Math Rd, Lakha, Ishar Nagar, Preet Nagar Road, Shimlapuri, Ludhiana","30.8608914","75.8753626",""
"ChIJlRbyRkuDGjkRnBfJJ6lT0lk","Har Oil Trading","Lohara Road, Gurmail Nagar, Ludhiana","30.85412629999999","75.8904561","true"
"ChIJwxkLuJZ3EDkR_PF66FI8Mpo","IndianOil","Sangowal","30.8256169","75.9039481","true"
"ChIJOerclCd3EDkRlBagCinkErE","Indian gas godown","RWW2+HFM, Giaspura, Ludhiana","30.8464594","75.9011862","true"
"ChIJBY3QEfSCGjkR0_zR848tSQc","IndianOil","VVF5+JC, Gill Road, Ggrain Market, Ludhiana","30.87409099999999","75.858749","true"
"ChIJ5RORSKR5EDkRGdou6VWOdHY","Hindustan Petroleum Corporation Limited","Ground Floor Malerkotla Road, Sarinh, Kaind","30.787111","75.860911","true"
"ChIJWd1b1wiDGjkR53Fm3bLD1-0","Gupta Suvidha Center","Shop 64 /A Dana Mandi , Celebration Palace, Near Arora Palace, Ludhiana","30.8748965","75.85896989999999","true"
"ChIJd517MeyCGjkR47y8yt6-ces","Lucky Auto fuel","Shimlapuri, Ludhiana","30.8748388","75.8684188","true"
"ChIJ-9q_7RSDGjkRNSHwOiMmgBM","Bharat Petroleum, Petrol Pump -Bhagya Fuels","LUDHIANA CITY LUDHIANA, Ludhiana","30.8774796","75.8590865","true"
"ChIJYxfxSJ95EDkRWTKgcq01FyY","BUTTA SINGH","QVM5+9VX, Kaind","30.7834991","75.85972570000001",""
"ChIJMSAYP6F5EDkRpIKdey3_1bQ","Nayara Petrol Pump","QVM5+929, Kaind","30.78341840000001","75.8576161","true"
"ChIJUTGIaymDGjkRafBrH27mRRo","Bharat Petroleum, Petrol Pump -Alamgir Auto Fuel","LUDHIANA LUDHIANA, Ludhiana","30.8756965","75.8794941","true"
"ChIJ19ceIFR3EDkRrArL1xedxUE","Hindustan Petroleum Corporation Limited","Ground Floor, Doraha Southern Bypass, Ludhiana","30.8182367","75.91231499999999","true"
"ChIJy_lNpJp3EDkRmduQnezsX4Q","CNG HP Petrol Pump Jeet Singh Randhawa Filling Station","","30.8182769","75.9124106","true"
"ChIJ1YZ5OZWDGjkR_MVIi9Z_YP8","RAMA KANT NETWORKINK","SHOP NO 1, Dugri Road, Model Town, Ludhiana","30.8800396","75.8489807","true"
"ChIJ-946EXGDGjkRDyA79NbXss4","Hindustan Petroleum Corporation Limited","Ground Floor, near Gill Road, Janta Nagar, Ludhiana","30.8808963","75.85907929999999","true"
"ChIJHxpzOuSDGjkR4jVLaHix61k","Hindustan Petroleum Corporation Limited","Ground Floor, near Quality Dharam Kanda, Main, Daba Road, Ludhiana","30.8746447","75.8873373","true"
"ChIJnT8HK1eCGjkR-s8y3LzJZmM","HP Petrol Pump - Gill Petrol Pump","Ground Floor, Main, Dugri Road, Model Town Extension, Ludhiana","30.8816199","75.84753599999999","true"
"ChIJSza40FGdGjkRqrfFSQYCM9g","Hindustan Petroleum Corporation Limited","Ground Floor, Sua Road, Dhandari Kalan, Ludhiana","30.862921","75.908096","true"
"ChIJ7-h5PcqCGjkRFqQITGt3IYM","Essar Diamond Petro","Sua Road, Giaspura, Ludhiana","30.8745238","75.8949488","true"
"ChIJOY4MJACdGjkRm5fPGzCt5ak","Galaxy petro BPCL Pump","VW56+RHR, Sua Road, Industrial Area C, Dhandari Kalan, Ludhiana","30.85962019999999","75.9113253",""
"ChIJW8h8rv6CGjkR6IWmD0px3rw","Dgn Petro","21, Gill Road, Parbhat Nagar, Sahibjada Ajit singh Nagar, Sahnewal","30.886315","75.85864409999999",""
"ChIJO0VlupadGjkRZPUCuimHwJc","Petrol Pump","Friends Colony, Ramgarh, Ludhiana","30.8755589","75.9627367",""
"ChIJvzEThZedGjkR5ukBclx6t9w","Hindustan Petroleum Corporation Limited","Ground Floor, near Ajit Mills, Chandigarh Road, Octroi Post, Mangli Nichhi","30.87790099999999","75.958541","true"
"ChIJh8kn6Q-dGjkRsQuZrs3QJ5g","HINDUSTAN PETROLEUM","1B-1, opp. FORTIS HOSPITAL, Street, Chandigarh Road, Ludhiana","30.8822511","75.9507541","true"
"ChIJxXSWQBmdGjkRDbxW6_sc5cE","Hindustan Petroleum Corporation Limited","Ground Floor, Chandigarh Road, Mundian Kalan, Ludhiana","30.892401","75.927521","true"
"ChIJO8jIlDR3EDkRC56T5KyNL0g","IndianOil","Kanganwal Road, Jugiana, Ludhiana","30.85244909999999","75.9285353","true"
"ChIJo0ZpTgh3EDkRr3T5Yhns0Ag","IndianOil","Ground Floor, Southern Bypass, Model Town, Jassar","30.8078844","75.9321657","true"
"ChIJD4h5CF-dGjkR9tP_UJC3M0U","Golden Filling Station","VW4C+52F, Industrial Area C, Dhandari Kalan, Ludhiana","30.8554432","75.9200496",""
"ChIJFzJ3A32dGjkRI8c21sKsbhA","IndianOil","No 1, National Highway, Jugiana, Ludhiana","30.857597","75.936852","true"
"ChIJxVm0keV3EDkR0FzC-XKuigc","Bharat Petroleum, Petrol Pump -Punjab Oil Carrier","VILLAGE TIBBA LUDHIANA, Ludhiana","30.8155494","75.9551917","true"
"ChIJeZ68HlZ2EDkRkAjdh4uEXHQ","punjab oil carrier,dealer Bharat petroleum cng and EV CHARGING","Tibba","30.8124776","75.95317550000001","true"
"ChIJ0fp54TGdGjkRnEO7Er3JyKk","Apex Petroleum","VW5P+Q94, Grand Trunk Road, Focal Point Phase 6, Jugiana, Ludhiana","30.8593768","75.9359449","true"
"ChIJcydaUQedGjkRYo9bruylfpA","Reliance petroleum","VW5P+R6F, Jammu - Delhi Road, Focal Point Phase 6, Focal Point, Ludhiana","30.8595531","75.93555669999999",""
"ChIJoeNvE2OdGjkRw5k281n81wA","IndianOil","Focal Point Road, Gobindgarh","30.859554","75.940315","true"
"ChIJD-e1vs93EDkRKPUsoGjDlKE","IndianOil","near Sahnewal, Ground Floor Vpo Tibba, near Sahnewal, Bilga","30.807525","75.950716","true"
"ChIJP34gawB3EDkRCxOobZWklWM","Gursehaj Fuel Point Indian Oil Petrol Pump","RW2Q+87, Paddi","30.80081209999999","75.93823090000001","true"
"ChIJSRurkDt2EDkR4BjqEO2mgpE","Friends Filling Station (BPCL)","RXV7+833, Sahnewal","30.8432741","75.96266109999999",""
"ChIJ38wiLYmdGjkRX1EiJouUlLI","Bharat Petroleum, Petrol Pump - Shri Balaji Power Point","NH1 LUDHIANA","30.864998","75.9267766","true"
"ChIJGSLZxr93EDkRBjNyVQxRbrc","IndianOil","Ground Floor NH 1, Sanewal, Bilga","30.83920010000001","75.968001","true"
"ChIJPTmq-WKdGjkR8-c0I_zQqpE","Abhishek Patel Karyana Store","Shop No 1, near Railway Line, Durga Colony Road, Ishver Colony, Dhandari Khurd, Dhandari Kalan, Ludhiana","30.8688377","75.9267497",""
"ChIJvYTjy-R2EDkRMaygz8NELt8","IndianOil","Ground Floor, VPO, Dugri, Southern Bypass, Bilga","30.8003907","75.9537982","true"
"ChIJeXeRJAx3EDkRk7gXBVCH_BE","Sunny Tution Center","000, Ludhiana","30.7954387","75.9460938",""
"ChIJMXR2LYp3EDkRsUEooFV0WGk","IndianOil","Ground Floor Sahnewal, Bilga","30.8306817","75.9806037","true"
"ChIJ3y2-IAB3EDkRfy0Qr8twDNk","Patrol Pump","VX5H+24V, Unnamed Road, Sahnewal","30.8575955","75.9778685",""
"ChIJy6OISRidGjkRnquuzvvoMfk","Awal petrol pump","Phase-VIII, Focal Point, Ludhiana","30.8824645","75.9262657","true"
"ChIJI4zbMwB3EDkRMtRzC24S56A","Hindustan Petroleum Corporation Limited","Ground Floor, Kohara Road, Sahnewal","30.84927769999999","75.9838969","true"
"ChIJNZ-J1l13EDkRrrJ-xDaNoLQ","Hindustan Petroleum Corporation Limited","Ground Floor, Sahnewal Dehlon Road, Ghawaddi","30.7820313","75.9059469","true"
"ChIJlQz1F9J3EDkRYXTOhEVfzLg","IndianOil","Ground Floor, NH 44, Grand Trunk Road, Sahnewal","30.82606019999999","75.9892164","true"
"ChIJYQG0SgyDGjkR7ovMDCkZqGA","IndianOil","near Giyaspura Chowk, NH 1, Grand Trunk Road, Ludhiana","30.87901339999999","75.8998836","true"
"ChIJI3LzW22dGjkRU859fIZfDdE","Surjit Power Point","Chandigarh Road, Mangli (Uchi), Ludhiana","30.8728292","75.96768589999999","true"
"ChIJ__8dKBV2EDkRp43O729nqDE","INDIAN OIL PETROL PUMP - ( Sai Filling Station )","G. T ROAD, N-H -1, Sahnewal khurd, Village sahni, Ludhiana","30.823457","75.993647","true"
"ChIJC1Wlzc2CGjkR99le0uUnLDk","Hindustan Petroleum Corporation Limited","Ground Floor, Grand Trunk Road, Sherpur, Ludhiana","30.881601","75.89490099999999","true"
"ChIJ8awLJACDGjkR4ZaRFwVBoGs","Guru ji service station","VVJV+MQM, Grand Trunk Road, Sherpur, Delhi","30.8817088","75.894413",""
"ChIJS_MHBOJ5EDkRVgTpgnyaWIo","IndianOil","Ground Floor, Dehlon-Sahnewal Road, Ghawaddi","30.77767139999999","75.8994355","true"
"ChIJB9lnbm6DGjkRjrs7CPR-rzs","IndianOil","Sherpur, Sahnewal","30.881932","75.893785","true"
"ChIJjUJ01s6dGjkREwR_v7RIu_A","Hindustan Petroleum Corporation Limited","Ground Floor, Jeevan Nagar Road, Mundian Kalan, Ludhiana","30.8889439","75.9160507","true"
"ChIJXazTbc-CGjkR54i5kkUrGyU","Bharat Petrolium Petrol Pump","Street Number 1, Backside PNB ATM, Dhandari Kalan, Daba Road, Guru Gobind Singh Nagar, Ludhiana","30.8800289","75.8893731",""
"ChIJPR2h2aCDGjkREKE3hblz8CI","IndianOil","Metro Road Junction GT Road, Sherpur Road, Ludhiana","30.8842393","75.89725589999999","true"
"ChIJjwZczAB2EDkRMsBF_F3Rwj0","IndianOil","Ground Floor, Kohara Sahnewal Road, Basant Avenue, Jandiali, Ludhiana","30.8558118","75.990876","true"
"ChIJId5nWEWBGjkR3_eATJWq4nI","IndianOil","opp. Haibowal Dairy Complex, Main Hambran Road, Ludhiana","30.9180914","75.79440579999999","true"
"ChIJl1sGhe-DGjkRZOUkV43YkCk","Hindustan Petroleum Corporation Limited","ground, Haibowal Main Road, Ludhiana","30.918449","75.819212","true"
"ChIJlRGYCwKEGjkRGzsN2F1kONA","Essar Petrol Pump","WRQ4+2VM, Chander Nagar, Haibowal Kalan, Ludhiana","30.9375924","75.8071839","true"
"ChIJYagGz6SDGjkRdbkdQLAyYvk","Hindustan Petroleum Corporation Limited","Ground Floor, Ferozepur Road, Ludhiana","30.9046594","75.84236109999999","true"
"ChIJDfYZUpaDGjkRuOTigJHYL14","Hindustan Petroleum Corporation Limited","Ground Floor, Sukhdev Market, behind Kailash Cinema Road, Civil Road, Civil Lines, Ludhiana","30.91952099999999","75.841351","true"
"ChIJUdA3x3OEGjkR8ONhUPEV5Do","Hindustan Petroleum Corporation Limited","Ground Floor, near KM Stone 321, NH 1, Thapar Nagar, Ludhiana","30.941381","75.83464099999999","true"
"ChIJ03rdfYiDGjkR5VSrhyZTy10","Bharat Petrol Pump","Bharat Petrol Pump, NH 1, GT Rd, Karabara Basti, Ludhiana","30.9318323","75.8414087","true"
"ChIJPaYaTqCDGjkRuF4D1TmRjxo","Hindustan Petroleum Corporation Limited","Ground Floor, CT Road, Ludhiana","30.911101","75.850971","true"
"ChIJcVJ9IXSEGjkRn4vZ1sEA_Vg","IndianOil","Jalandhar Bypass, GT Rd, West, Ludhiana","30.9380181","75.835673","true"
"ChIJy9sBV5uDGjkR-2oqn1KKgRU","Fill & Fly - Bharat Petroleum","1701/3, Clock Tower Road, opp. Gandhi Market, Old, Grand Trunk Road, Fatehgarh Mohalla, Gandhi Nagar, Chhawani Mohalla, Ludhiana","30.92333679999999","75.8472316","true"
"ChIJL2K0m4SDGjkRt-yNaeSicUU","IndianOil","Ground Floor, Mahal Bhagat, near Chand Cinema, Ludhiana","30.925804","75.846802","true"
"ChIJZ540KXiEGjkRBrKsPyyJF_o","IndianOil","Ground Floor, New Grain Mkt, Jalandhar Bypass Chownk, Salem Tabri, Ludhiana","30.9369855","75.8422738","true"
"ChIJD8A7BRWBGjkRD2086itbh7U","Hindustan Petroleum Corporation Limited","Ground Floor, South City Road, Ayali Khurd, Ludhiana","30.903141","75.781461","true"
"ChIJJd03i1mBGjkRVGit6mR_aDk","Bharat Petroleum, Petrol Pump -Rishi Service Station","OPP PINK FLAT LUDHIANA, Ludhiana","30.917586","75.80125439999999","true"
"ChIJZeE_KSGBGjkRJyIa78NuBac","IndianOil","Ground Floor, Sidhwan Canal, near New Courts, South City Road, Ayali Khurd, Ludhiana","30.9084501","75.7636307","true"
"ChIJm2FWD4aBGjkRbrt9vI_74j4","Cng pump ludhiana - Suvidha Fuels","Near F2 Raceway, Canal Road, South City Road, Ludhiana","30.9086306","75.7634614","true"
"ChIJ8ciUMkiBGjkRpeG3PWEnPjU","CNG Pump Sardar Bachan Singh Marg, Balloke, Ludhiana","Haibowal Dairy Complex, on Sardar Bachan On Hambran Road _, to, Ladhowal Sardar bachan Singh Marg, Bank Colony, Haibowal Kalan, Ludhiana","30.9270499","75.79240589999999","true"
"ChIJbQ2Z4kyBGjkRwr_jfoMvfGI","Hindustan Petroleum Corporation Limited","Ground Floor, Ladhowal Bypass Road, S, Bachan Singh Marg, Balloke","30.92712930000001","75.7922145","true"
"ChIJNQyU_-ODGjkRypZjKKJkh5Q","Indian oil CNG/CBG","opp. kitchlu Nagar, Main Hambran Road, Kitchlu Nagar, Ludhiana","30.9164273","75.81421209999999","true"
"ChIJSz8rcMODGjkRYZb31tN18XM","Bharat Petroleum","DMC Road, New Prem Nagar, Ludhiana","30.90501969999999","75.820742","true"
"ChIJvQlljkODGjkRe2Wlm8MGSFc","Bharat Petroleum Petrol Pump , GURU FILLING STATION","Prem Nagar, Ludhiana","30.922668","75.810476","true"
"ChIJVxY1T1aDGjkRCc1YWpFb4dU","IndianOil","Opp. Silver Arc Mall, Ferozepur Road, Ludhiana","30.90069099999999","75.82721699999999","true"
"ChIJKU7L7MeDGjkRryRKcDP30hE","ESS BEE SERVICE STATION","India","30.9009155","75.82917479999999",""
"ChIJfZMQg-yDGjkR3-EE7uQ3ONI","Hindustan Petroleum Corporation Limited","Ground Floor, opposite KVM School, Rajpur Road, Ludhiana","30.9164802","75.8278619","true"
"ChIJc0ucPBqDGjkRP71qFH15tsg","Hindustan Petroleum Corporation Limited","Ground Floor, near Faulji Chowk, 4455, Jassian Village Road, New Atam Nagar, Naveen Nagar, Haibowal Kalan, Ludhiana","30.93013100000001","75.81663499999999","true"
"ChIJ4xfnhbSDGjkRBIVkvwok4Ps","Shamsons Enterprises","B34/4966, Zineth colony, Ludhiana","30.91508400000001","75.8306881",""
"ChIJlavtFnmFGjkRUeeS7mMAf10","Paramhans Filling Station","Paramhans Filling Station, Churpur Road, Jassian, Ludhiana","30.93777189999999","75.8070152",""
"ChIJxalCTwCDGjkRe__rdB8kg5M","Malhi Feelings Station","WRCH+HR5, near Budha Nalla, Chander Nagar, Civil Lines, Ludhiana","30.9213928","75.829612",""
"ChIJNdL7FtyDGjkRIqQ5RtF6gh4","Jio-bp pulse","Police Lines, Ground Floor NH 95, Civil Lines, Ludhiana","30.90355100000001","75.83625099999999","true"
"ChIJSzLYxFWDGjkR2nn2d9UTGgY","Bharat Petroleum Petrol Pump","907/1, Chander Nagar, Civil Lines, Ludhiana","30.9217443","75.83112799999999","true"
"ChIJdfkaukyHGjkRWq0vtqweFVo","Bharat Petroleum -Yuvraj Petroleum","Churpur, Ludhiana","30.94233539999999","75.80089079999999","true"
"ChIJbbbVbEKDGjkRTtDrdjVD2qE","Bharat Petroleum, Petrol Pump -Dilbagh Singh & Sons","Unnamed Road, Jila Kacheri Area, Model Gram, Ludhiana","30.9033677","75.8385533","true"
"ChIJV3Qlc2KDGjkRNlvRy1-wY9w","Bharat Petroleum, Petrol Pump -Azad Fuel Centre","CIVIL LINES LUDHIANA, Ludhiana","30.9139315","75.838589","true"
"ChIJa8jZXgCFGjkRA_zL2ey6smg","Perns pule","B34/5/26214, Sunil Nagar, Jai Singh Nagar, Haibowal Kalan, Ludhiana","30.93654249999999","75.82242049999999",""
"ChIJNwHoN4yDGjkR5S-PFwEIMwA","IndianOil","Railway Bridge, Pirubanda, Chander Nagar Road, Ludhiana","30.926033","75.834611","true"
"ChIJmQNR9yaDGjkRwtHFog80VII","Jai Santoshi bharatgas","VRWW+QJF, near Shan E Punjab Dhaba","30.89694009999999","75.8465389",""
"ChIJE_lMHzmDGjkRlY6-Z7CYCKI","Indian Oil Petrol","WV8F+GPG, Sabji Mandi Road, Shiv Mandir, Samrala Road, Ludhiana","30.9163246","75.8743251",""
"ChIJu96UEiODGjkRIMuXqxfr4lw","IndianOil","Transport Nagar, Industrial Area- A, Ludhiana","30.9032362","75.8808992","true"
"ChIJwWJaIjyDGjkRDxv-qE1B0H0","Hindustan Petroleum Corporation Limited","Ground Floor, near Samrala Chowk, Chandigarh Road, Ludhiana","30.910301","75.881301","true"
"ChIJH82MeT2DGjkRRWj4qD-spZg","Petrol Pump Shri Salasar Power Point","National Highway 95, Shivajinagar, Ludhiana","30.907294","75.87729139999999","true"
"ChIJ4eoLbRiDGjkRthEfSPiK5sA","Jain S Petro Mart(Bharat Petroleum)","B23, near Transport Nagar, 2595/96, Link Road, Industrial Area- A, Ludhiana","30.9032043","75.8759202","true"
"ChIJ8Tg7ihSDGjkR9vKnJYRB0qM","IndianOil","Ground Floor, Samrala Road, Ludhiana","30.912775","75.872108","true"
"ChIJ7y5G0GqDGjkRYTDUw5EaOK4","IndianOil","Gaushala Tajpura Chowk Road, Kashmir Nagar, Ludhiana","30.916342","75.87441299999999","true"
"ChIJ3Tb-LTqDGjkRNlV6raHtZtQ","Bharat Petroleum, Petrol Pump -Baron Fuels","LUDHIANA CITY LUDHIANA, Ludhiana","30.9114533","75.8828001","true"
"ChIJMUpukiCdGjkRr299PpsopHQ","IndianOil","Jamalpur Awana, Chandigarh Road, Ludhiana","30.9075641","75.8884952","true"
"ChIJF3IwkGaDGjkRskV8yjGcPlE","IndianOil","Main Road, Basti Jodhewal, Ludhiana","30.9291218","75.86720009999999","true"
"ChIJIcParn2DGjkRW3Vy1_p2rog","BHARAT PETROLEUM","WVM7+M2V, Gagandeep Colony, Ludhiana","30.9342344","75.8625374",""
"ChIJ7z-EwGKDGjkRCYSuppI19Zw","Nayara Oil Petrol Pump","Kailash Nagar Road, New Kuldeep Nagar, Jodhewal, Ludhiana","30.93625419999999","75.8661005","true"
"ChIJU_svgF-DGjkRSXgZdBJTOkU","IndianOil","Ground Floor, Rahon Road, Ludhiana","30.9355473","75.87529219999999","true"
"ChIJb-CYZY2EGjkRZdtYdXTO7HY","Bharat Petroleum, Petrol Pump -Noorwala Hitech","NOORWALA LUDHIANA, Ludhiana","30.9572131","75.864059","true"
"ChIJY-xVIgCDGjkRV7zm-KEThog","Badi haibowl bharat petrol pump","WV24+9WJ, Ludhiana","30.900965","75.8572758",""
"ChIJ92iXcheDGjkRrB8LEg7uiJQ","Petrol Pump","236, Prem Nagar, Field Gunj, Amarpura","30.904357","75.8567712",""
"ChIJrcqo8bqDGjkR4JQ4VtCZiQ4","Dhillon Filling Station","Kamal Chowk, Augwar Loopan, Jagraon","30.9038433","75.8545075",""
"ChIJe2zKcuGDGjkRZHDgrQsiX1E","Sanmati Filling Station","Pump No 02 Kahnewala, Rori Road, Kahnewala, Ludhiana","30.9056274","75.8595003",""
"ChIJb4BhAxqDGjkRmZIyFGBESws","Bharat Petroleum Petrol Pump , PRATHAM ENTERPRISES","Jail Road, Ludhiana","30.90601899999999","75.861994","true"
"ChIJtw0sfACDGjkRcMom0DBJTg4","Hindustan Petroleum Corporation Limited","Ground Floor, Suffian Bagh Chowk, Sufian Chowk, Ludhiana","30.90033260000001","75.86587159999999","true"
"ChIJl8zKDZqDGjkR3Ss5i9HFZcY","Bharat Petroleum, Petrol Pump -Jain S Petromart","LINK ROAD LUDHIANA, Ludhiana","30.90899829999999","75.85132829999999","true"
"ChIJ1UPrDv6CGjkRliq_9ZNg-ww","Batra","India","30.891245","75.8587376",""
"ChIJ13EccCqDGjkRrmaxDYE5r3Y","Bharat Petroleum, Petrol Pump -Gahaur Filling Stn.","NH95 GAHAUR LUDHIANA, Ludhiana","30.9062018","75.8467878","true"
"ChIJh9PNnB2DGjkR1YrQPDAjIgM","Hindustan Petroleum Corporation Limited","Ground Floor, Link Road, Dholewal Chowk, Ludhiana","30.8933401","75.8682501","true"
"ChIJtZVpgB2DGjkRFNCH7l4zx1M","Ludhiana Petroleum","13223, Near Dholewal, Link Road, Bhagwan Nagar, Industrial Area- A, Ludhiana","30.89285210000001","75.86847650000001","true"
"ChIJbZUFgA2DGjkRA9sdM2vbv_I","Bharat Petroleum, Petrol Pump -Royal Fuels","NEAR CMC HOSPITAL LUDHIANA, 400, Naulakha Garden Colony, Ludhiana","30.912001","75.8647908","true"
"ChIJ_4TCrRODGjkR-PvohiOkJQY","H P","WV69+M79, Hargobind Marg Main Road, Ram Nagar, Ludhiana","30.9116705","75.868228",""
"ChIJSR0-jvabGjkRHQ58vdU2QGg","Hindustan Petroleum Corporation Limited","Ground Floor, to, Kariyana Road, Koom Kalan, Tajpur","30.9529783","75.97635","true"
"ChIJZ7DbHuKcGjkRg8s34dq689g","Veena Petroleum Essar Oil","WW2H+6MG, Guru Teg Bahadur Nagar, Ludhiana","30.9005576","75.9292083",""
"ChIJ-ZG7bgCdGjkRsAfQ66TUJPU","IndianOil","Chandigarh Road, Jamalpur, Ludhiana","30.897028","75.919197","true"
"ChIJ-5ZX2hudGjkRPtrsjnk65ms","IndianOil","NH 95, Chandigarh Road, Kalal, Mundian, Ludhiana","30.8919854","75.9291152","true"
"ChIJAY9aJQCdGjkRimxp3AaAy0A","LITT FUELS","WW45+MFV, Onkar Viha, Sukhdev Nagar, Jamalpur, Ludhiana","30.906725","75.908333",""
"ChIJFdXHiKSdGjkRSWPC190pnvw","Bharat Petroleum, Petrol Pump -Sardar Kesar Singh Grewal Fuel Stn.","Tajpur Main Road, Bhamia Kalan, Ludhiana","30.92164630000001","75.9355054","true"
"ChIJhZgUtiyDGjkRMjdZ_kqwFMw","Hindustan Petroleum Corporation Limited","Ground Floor Chandigarh Road, Jamalpur Awana Bhamian Road, Sector 39, Ludhiana","30.9029201","75.8994201","true"
"ChIJz55hAMqcGjkRklO6f3w-zTY","IndianOil","Ground Floor, Tajpur Road, Ludhiana","30.919357","75.90568499999999","true"
"ChIJY6hFrUaDGjkROtMIytyP6nM","Bharat Petroleum, Petrol Pump -Mothu Ram Prem Chand, A/C Ludhiana","FOCAL POINT LUD CITY LUDHI, Ludhiana","30.89198219999999","75.8890595","true"
"ChIJadyyh5CDGjkRoZMwvf80yKY","Arvind Kumar","House No 406, Shop Number 5, No 2, Runjit Nagar Street, Sherpur, Ludhiana","30.8853967","75.8915202",""
"ChIJ29_zrLSDGjkRjeZK6x90uRM","Bharat Petroleum, Petrol Pump -Mrpc Petro Company","KAILASH NAGAR LUDHIANA, Ludhiana","30.8903412","75.88699079999999","true"
"ChIJkT2e5diCGjkRLBuzqarRefw","IndianOil","Ground Floor, near Mohan Dai Oswal Hospital, Sherpur Chowk, Ludhiana","30.89219769999999","75.8843424","true"
"ChIJAceIPUKcGjkRxyr7xScTenY","IndianOil","Ground Floor Khassi, Road, Karyana, Tajpur","30.924137","75.962845","true"
"ChIJcxL-AQuDGjkRQHze2xjIOFY","Eggs Shop","No 2, Tajpur Road, Guru Arjan Dev Nagar, Ludhiana","30.9126831","75.8846018",""
"ChIJf0Shul-DGjkRpl7YhnO9hdM","H P gass agency tibba road gopal nagar chowk","199, Tibba Road, Kishan Vihar, Gopal Nagar, Subhash Nagar, Ludhiana","30.9243587","75.8916553",""
"ChIJGQ256U6DGjkRAAAA0JODMQo","RP FILING STATION","1703/5/1259/C/1 Street, No. - 2, Tibba Road, Ludhiana","30.9248736","75.8921216","true"
"ChIJL1_tBZKDGjkRVzyCAMKYVUs","PATWARI FILLING STATION, PETROL PUMP, JALALABADH EAST, MOGA","JALALABADH, EAST, MOGA JALANDHAR, HIGHWAY, Grand Trunk Road, JALALABADH, EAST, MOGA","30.88606059999999","75.8852541","true"
"ChIJbePHjjuDGjkR_SRZ_AR3vnM","Gopi Chand Roshan Lal- BP Petrol Pump","5, Ludhiana - Chandigarh National Highway, Karam Colony, Beantpura, Sector 39-A, Ludhiana","30.90924679999999","75.8828517","true"
"ChIJ6_fgTiODGjkRfYPV7RbNiAI","Hindustan Petroleum Corporation Limited","Ground Floor, Jalandhar Bypass, Moti Nagar, Ludhiana","30.905051","75.881411","true"
"ChIJ677G7zyDGjkRwjaH_GuWVEk","IndianOil","Ground Floor, Transport Nagar, Ludhiana","30.907144","75.880353","true"
"ChIJS3To7RaGGjkRCBHgM5Zk-Xk","Bharat Petroleum","Jagatpura, Phillaur, NH-1, G T Road, Jalandhar","31.0032564","75.7873103","true"
"ChIJeQ28WR-GGjkRsm2da_EzEIk","IndianOil","Ground Floor, Grand Trunk Road, Phillaur, Khalsa, Haripur","31.01330009999999","75.784001","true"
"ChIJqRoDxiGGGjkRIPJYnt3KIAo","Hindustan Petroleum Corporation Limited","Ground Floor, NH 1, Ludhiana Jalandhar Road, Ramgarh, Phillaur","31.014467","75.782731","true"
"ChIJMWUb0qyIGjkRgUR9TzIKIoo","HP PETROL PUMP - RAJ PETRO HP","Vallage Burj Pukhta Tehsil Phillaur, Phillaur Nawanshahr Road, Jalandhar","31.02836499999999","75.80657","true"
"ChIJO9K4dYuHGjkRu1Fkdi0nR4g","Sobti HP Gas Gramin Vitrak","XQGR+QGW","30.9769947","75.79134049999999",""
"ChIJOdZOhGOGGjkRkCiof2cRuDY","IndianOil","Ground Floor, NH 1, Jalandhar Rd, Ladhowal","30.9787537","75.7916791","true"
"ChIJ-5SnhWOGGjkR7tX_ABb0Qng","THINK Gas CNG Station","filling Station, Ladhowal","30.97945429999999","75.7916008","true"
"ChIJ_-cEAQCHGjkRX-BMkUskRKo","Tanky Full Bharat Petroleum Corp Ltd","Grand Trunk Road, VPO, Ladhowal","30.9794678","75.7916015","true"
"ChIJefEGXmSGGjkRbR8DEnQk4pM","BP Petrol Pump","Ludhiana","30.9810798","75.79206959999999","true"
"ChIJzwpzUVqHGjkRFPclLnQNdPI","KARTAR PETRO","Main Road, Civil Lines, Ladian Kalan","30.9565413","75.7931268","true"
"ChIJYVaqCUSHGjkR8KeR8D2tLUg","IndianOil","Ground Floor, Hambran Ladhowal Road Qutbewal Gujjran, Bagga Khurd","30.96279449999999","75.76765209999999","true"
"ChIJaSrNyOKGGjkRXZuZnonwWu8","Kailash Fuel station","XQ56+HV5, Ludhiana","30.9588896","75.7622217","true"
"ChIJP-AOaZmHGjkR7TIKNuyzI70","IndianOil","Ground Floor, Ladowal Hambran Road Baggakalan, Baggakhurd, Ludhiana","30.958858","75.75457","true"
"ChIJmZjfNRuHGjkRp3cymfyjfxU","Petrol pump","XQ53+66M, Hambran Road, Ludhiana","30.95809669999999","75.7530381","true"
"ChIJQU5NawCHGjkRTx5EBsmowRk","Ram fuel petrol pump","2Q3P+7XF, Punjab Police Academy Campus, Phillaur","31.0031843","75.7874341",""
"ChIJZ6tcCWeFGjkRq0DZ9hRHKpM","Sukhraj Filling Station","Qutbewal Araian","30.9714168","75.8292079","true"
"ChIJWXpLPBiGGjkRXUv6th3KKiE","Hindustan Petroleum Corporation Limited","Ground Floor, Jalandhar Ludhiana Road, NH 1, Panj Dhera","31.007915","75.78540799999999","true"
"ChIJYY13nROEGjkRLlGwkTl_wqo","Hindustan Petroleum Corporation Limited","Ground Floor, NH 1, Jalandhar Road, Bhattian, Ludhiana","30.949001","75.827201","true"
"ChIJl_RzJ3mHGjkRuQzTMzsRmjU","Hindustan Petroleum Corporation Limited","Ground Floor Ladhowal New Byepass, NH 5, Jainpur","30.9401688","75.7491474","true"
"ChIJe73WPKWHGjkRn3zMnoWSFZU","Patrol pump","2Q9J+6WM, Grand Trunk Road, Ramgarh, Phillaur","31.018094","75.7823033",""
"ChIJX6L2w7KFGjkRuEV02ioOj-w","IndianOil","Ground Floor Bahadarke, Bagga Khurd","30.95922329999999","75.84271509999999","true"
"ChIJTU1bk0GHGjkRRYznxcQsUqY","Bharat Petroleum, Petrol Pump -Noorpur Petromart","NOORPUR BET LUDHIANA, Ludhiana","30.95729909999999","75.7320938","true"
"ChIJAfG5raGIGjkRWpkc02qLdws","BP Petrol Pump","Satluj Sports Club, Old GT Road, Abad Pura, Phillaur","31.0213558","75.7859295","true"
"ChIJo1CUqNGFGjkRPqNQx5IbuKw","IndianOil","Taraf Karabara, Bahadur Ka Road, Ludhiana","30.950092","75.846344","true"
"ChIJlRfxlneEGjkRgvWNXZsDj2c","IndianOil","NH 1, Ludhiana Bypass Road, Jawaddi Taksal, Ludhiana","30.936167","75.84060699999999","true"
"ChIJj36MZ6yIGjkRj_PDn5b_2yo","Bharat Petroleum, Petrol Pump -Jindal Filling Station","VILLAGE GARHA PHILLAUR TO, JALANDHAR","31.027264","75.8034562","true"
"ChIJgUtqslOJGjkR3UMbtjJekUE","IndianOil","Ground Floor, Phillaur Talwan Road Ganna, Phillaur","31.0267004","75.7571971","true"
"ChIJCdJnwfGDGjkRK-IFSSkIj8U","Bharat Petroleum, Petrol Pump -Gurditsingh Shamsher Singh","Sabzi Mandi Road, Dal Bazar, Ludhiana","30.929613","75.8430853","true"
"ChIJU-ThcfqEGjkRWowWYMTQzeo","BS NANGLA","India","30.9711866","75.86106830000001",""
"ChIJy7Ws5n-DGjkRuogARu6RwfI","Hindustan Petroleum Corporation Limited","Ground Floor, Jalandhar Bypass Road, New Shiv Puri, Jalandhar","30.935591","75.854541","true"
"ChIJN79VfYCDGjkR_kt79E8X1a8","IndianOil","Shivpuri Chowk Basti Jodhewal Chowk, Chowk, to, Karabara Basti, Ludhiana","30.9355421","75.85740500000001","true"
"ChIJv5IV0xOFGjkRX_5kLuJrQ70","Nayara Petrol Pump","Kakowal Road, Vishal Colony, Kakowal Village, Ludhiana","30.95007380000001","75.86860109999999",""
"ChIJYTKqHgCFGjkRKhyO7jcVXtg","Surjit filling station","XV3J+GJ, Bajrah, Ludhiana","30.953502","75.88189799999999",""
"ChIJd8sF4aaEGjkRFa2If_pNXIA","Nayara Petrol Pump","WVRM+WJX, Rahon Road, Naginder Nagar, Vardhman Nagar, Jodhewal, Ludhiana","30.9423505","75.8841106",""
"ChIJ2RiW6TeDGjkRvTwEsJqSwh0","IndianOil","Rahon Road, Ghelewal, Ludhiana","30.9387916","75.8796402","true"
"ChIJE27K21-DGjkRZeGiC0mlNDI","Hindustan Petroleum Corporation Limited","Ground Floor, Rahon Road, Indra Colony, Jalandhar","30.936401","75.87700099999999","true"
"ChIJ0RrjpruDGjkRU3UXmzxPZ7g","Bharat Petroleum, Petrol Pump -Sardar Filling Station","GT ROAD LUDHIANA, Ludhiana","30.931752","75.8696953","true"
"ChIJyVkTkGaDGjkR2uShPPVLyfI","IndianOil","Ground Floor, Jodhewal, Ludhiana","30.930405","75.871788","true"
"ChIJbfCBGtqDGjkRhlfRI2MQuII","SUBA SINGH FILLING STATION","WVH4+8CH, near dua accessories oppsite suba singh filling statiom, Basant Nagar, Shivpuri, Ludhiana","30.928316","75.85610299999999",""
"ChIJr_zpnyntGjkRCh8W4KR-SJg","GAS Bains","1 V, P.O, Makhsoospur","30.9302638","75.8752241",""
"ChIJeUxJ3x6DGjkRTKEb8Ur2iwM","Reliance Petrol Pump","WVHC+8Q2, Kuldeep Nagar, Sunder Nagar, Ludhiana","30.928255","75.8718991",""
"ChIJD8patv-DGjkRfwMrdolbfks","IndianOil","Ground Floor, near Longia Steel, Basti Jodhewal Chowk Flyover, Ludhiana","30.927038","75.87318119999999","true"
"ChIJNXFyO8eDGjkRiGyh3p8iaVE","Simran Gas Electrical","0, New Subhash Nagar, Ludhiana","30.92782379999999","75.879683",""
"ChIJRcU2viWbGjkRvtOGICkdjz4","Hindustan Petroleum Corporation Limited","Ground Floor Khwajke Chuharwal, Road, Mangat","30.9802778","75.91305559999999","true"
"ChIJe_FOv0WbGjkRI3UPpuxhoO4","IndianOil","Ground Floor, Rahon Road, Pathreri Jattan, Khwajke","30.95853099999999","75.91436399999999","true"
"ChIJNTVtsbuDGjkRF7uh4ioPcus","Shri.Jain.oil","Shop.3, Newmadopuri, Ludhiana","30.9215069","75.8698426",""
"ChIJS6UYJGqDGjkRi_pBJjPlzis","Hindustan Petroleum Corporation Limited","Ground Floor, near Samrala Chowk, Jalandhar Bypass Road, Daulat Colony, Ludhiana","30.9210601","75.8747301","true"
"ChIJIWou43KDGjkR1P_TJqvvVZ0","Inder Oil Co","Sangeet Engg. Work, Chaura Bazar, Old Madhopuri, Ludhiana","30.91652","75.86233",""
"ChIJHZcioFKbGjkRjmttiOei650","Hindustan Petroleum Corporation Limited","Ground Floor, Ludhiana Nawanshahr Road, Gaunsgarh","30.97049900000001","75.940895","true"
"ChIJzx96yoCbGjkRKZWBUSz4Obc","Bharat Petroleum Petrol Pump , SHREE DUDHADHARI FILLING STATION","VILLAGE MANGLI TANDA, Ludhiana","30.97526899999999","75.951375","true"
"ChIJWeVVcECDGjkRLyFoCMQsSFA","Hindustan Petroleum Corporation Limited","No B, House No, 2213/1, Tajpur Road, Chowk, Tajpur","30.916781","75.87865099999999","true"
"ChIJD0cLQ8qDGjkRWnUvXa1TarE","Shree Balaji Petro","WV8F+7C7, Kashmir Nagar Road, Harcharan Nagar, Ludhiana","30.915655","75.8735568",""