place_id,name,address,latitude,longitude,open_now
"ChIJV3nr4PwuEDkRN7TLUMLBGqo","IndianOil","Sangrur Road, Passiana, Patiala","30.307802","76.327446","true"
"ChIJvb_YROgoEDkRhT1M4_coCeI","Hindustan Petroleum Corporation Limited","Ground Floor, Fateh Colony, Patiala","30.3306901","76.3886801","true"
"ChIJZ_4zZVQvEDkRu9-saWKG4Xk","Reliance Petroleum","TEHSIL, Samana, DISTT, Malkana","30.3098101","76.317414","true"
"ChIJ67RKGWwzEDkRz9_uIPxEx5U","Bharat Petroleum, Petrol Pump -Malik Singh Damodar Singh","ON SAMANA ROAD, Pasiana","30.2965747","76.3268377","true"
"ChIJg-X8_E4uEDkRWf4uH0WOQuc","HP PETROL PUMP - ADHOC HAMARA PUMP MAIN","Patiala Road( Village Wazidpur, National Highway 64, Chandigarh","30.29992","76.302357","true"
"ChIJ9d_jAk8uEDkRi_bB9pMu-yQ","Hindustan Petroleum Corporation Limited","Ground Floor, NH 64, Patiala Sangrur Road, Wazidpur","30.2998295","76.3021837","true"
"ChIJsWOUT2ovEDkRfI56ACcTIJw","Mast Service Station","Sangrur Road, Rajgarh","30.2999243","76.30055709999999",""
"ChIJqQ3b1C0vEDkR3MPt9dvOn3w","Hindustan Petroleum Corporation Limited","Ground Floor, NH 64, Rajgarh","30.299466","76.3004059","true"
"ChIJB5yqPNE3EDkRWAI80znkBac","Reliance JIOBP - D Goyal Filling Station","opp. Royal Castle Resort, Sangrur Rd, Patiala","30.2961338","76.2837251","true"
"ChIJAU4NgGAvEDkRlADU2NIC4HI","IndianOil","NH7, Patiala Bypass, Patiala","30.28923679999999","76.3482677","true"
"ChIJwf76gR0vEDkROHBNizUAOeQ","IndianOil","Ground Floor, Patiala - Samana Road, Kakrala Bhaika","30.2726756","76.3067159","true"
"ChIJ_9SGu6EuEDkRs4kyhwdJ2lY","Hindustan Petroleum Corporation Limited","Ground Floor, Main","30.27110099999999","76.342541","true"
"ChIJ0RZvdnsvEDkRq1Y5Wwd5u28","Santosh Filling Station","88XG+PFH, near THE GRAND JD, Nabha-Patiala Road, Rauni","30.34932419999999","76.32622719999999","true"
"ChIJc_KBPD8pEDkRipej2c2JqTM","IndianOil","Ground Floor, Inderpura","30.3107945","76.3706721","true"
"ChIJMXMAvGcvEDkRhYYoU5kP8j4","Hindustan Petroleum Corporation Limited","Ground Floor, Rauni Nabha Road, Patiala","30.347771","76.338871","true"
"ChIJvVEqAAAlEDkRa_FBm-9ezd4","Shanti Filling Station","9849+6MQ, Inderpura","30.3555881","76.3192234","true"
"ChIJIwlQ5rIxEDkRR-nIoJmZdr0","Baba deep singh fuel point","77Q6+G6, Fatehpur","30.2888125","76.26056249999999","true"
"ChIJzyLfYgApEDkR-dXd7j4329Y","Paradise gas agency wale","89JC+J46, Jai Jawan Colony, Patiala","30.33178199999999","76.370046",""
"ChIJSQ5L3SMpEDkRkQbZPPcs3S4","Nayara Petrol Pump","Rose Avenue, New Officers Colony, Patiala","30.3105135","76.3825848","true"
"ChIJhVQxcQ0xEDkR8d54fK_nvdk","Suresh Petroleum","Shop No 33, Oppo Jio, BP Bhawanigath Rd, Patiala","30.3053541","76.25057720000001",""
"ChIJvZktuPcxEDkRE_mZDNuTiDM","B K Petroleum's","Shop No 75, Nabha Rd, Sauja","30.3054256","76.250553",""
"ChIJzxZJmdUxEDkRoplmGAqWfC8","Shree Ram Petrol Pump","Shop No 42, Oppo Jio, near Dominos, BP Patiala Rd, Patiala","30.304992","76.25051549999999",""
"ChIJf_PtMWUxEDkR3oz5S9sGKF4","Bagri Petrol Pump","Shop No 31, Oppo Havel I Restaurant, National Higheay, Patiala","30.30536339999999","76.2504498",""
"ChIJ6WmIBBExEDkRYnYZmYvhxnA","Talewar Filling Station","near New Outlet, Shop No 97 Main Rd, near New Outlet, National Highway, Patiala","30.3038703","76.24950799999999",""
"ChIJoR0uPaAxEDkRBHwvjJONxBg","Singh Filling Staton","Shop No 53, Main Marlet, near Domino, National Highway, Patiala","30.3021816","76.2491093",""
"ChIJcev0P20xEDkR7Ohmq2DfMkY","Reliance Petroleum","opposite Royal Castle, Ground Floor Chuharpur Marasian, Bhedpur, opposite Royal Castle, Patiala","30.284283","76.249392","true"
"ChIJk6InGQwrEDkR0gl65RRqoZ8","Bharat Petroleum, Petrol Pump -Sheetal Filling Station","KHERI JATTAN ON DAKALA ROA, Patiala","30.26273699999999","76.3723421","true"
"ChIJqZYU6fIpEDkRX6iHALWm7Bs","IndianOil","22 Phatak, Leela Bhawan, Patiala","30.33731270000001","76.3824274","true"
"ChIJc2IDQugoEDkRn9dFwh6QGd0","Indian Oil Petrol Pump","Fateh Colony, Patiala","30.33011460000001","76.3887106","true"
"ChIJ7eKCyRMpEDkRZn6vHi3vmZQ","IndianOil","Ground Floor, Polo Ground Market, Near, Modi College Road, Patiala","30.3215197","76.3924291","true"
"ChIJN-qETugoEDkRp0XBLthJI60","Hindustan Petroleum Corporation Limited","Ground Floor, Mall Road, Patiala","30.3312301","76.388801","true"
"ChIJucHDrx0pEDkRUBWBeHmeNLM","Hindustan Petroleum Corporation Limited","Ground Floor, Lower Mall, Patiala","30.315781","76.39490099999999","true"
"ChIJi7JDIrIpEDkRmGDat9jXdjo","IndianOil","Ground Floor, Govt Thapar Chowk, Nabha Road, Patiala","30.3526006","76.3763641","true"
"ChIJZXeBb-0oEDkRRzVaiGXkFIA","Indian Oil","89QX+H3P, Mall Road, Baradari, Patiala","30.338968","76.39771069999999","true"
"ChIJvWtj7lQoEDkRfQU0RD5Hlk4","Loomba service station","Rangesha Colony, Tej Bagh Colony, Patiala","30.3219752","76.4139529","true"
"ChIJXUUlTKwpEDkR10f5jXihpws","IndianOil","Ground Floor, Devigarh Road, Patiala","30.3166001","76.418398","true"
"ChIJ_RXgkFcoEDkR2gHLmO0UP9U","IndianOil","Ground Floor, Saifabadi Gate, Patiala","30.330204","76.41257499999999","true"
"ChIJ3atnNmwoEDkRpF7SY29s2IY","IndianOil","near Urban Estate, Bypass, Phase 2, Sirhind","30.352406","76.429024","true"
"ChIJc9HXWCsmEDkRdoMld5Bxbrw","Nayara petrol pump Angad motors","Essar Petrol Pump Sirhind Road, Bypass, Patiala","30.3702099","76.4089774","true"
"ChIJYf7BPkUoEDkR_BLV3oQIkIU","IndianOil","near Truck Union, NH 64, Rajpura Road, Mathura Colony, Patiala","30.334206","76.42285199999999","true"
"ChIJC4WHvgEpEDkRXo4NrBEQXqM","Hindustan Petroleum Corporation Limited","Ground Floor, Ghalori","30.317431","76.40587099999999","true"
"ChIJY0cnHQApEDkRUpV8vmE7X58","Patwari office","8C84+WH5, Sanour, Sheesh Mahal Enclave, Patiala","30.31735599999999","76.406308",""
"ChIJ4aLC0OQoEDkRY1BN9_mSwUc","Lalit Gas","65, Scooter Market Road, Nabha Gate, Patiala","30.326362","76.39786099999999",""
"ChIJfVY2s9UpEDkRjcPXaYisn3A","Prem Filling Station","Sanauri Adda, Patiala","30.3207971","76.4074684","true"
"ChIJJcKmKPsoEDkRAAAAMJpxYUo","Girdhari Lal Tarsem Chand","89GX+V32, Adalat Bazar, Patiala","30.3271331","76.39765299999999",""
"ChIJJWQ5Mf8oEDkRb_IvF46z4gU","Bharat Petroleum - Prem Filling Station","Patiala","30.3245625","76.4081875",""
"ChIJU0Umxk4pEDkRtwsmFeC03bU","Avtar Singh Suyach Godown","Raymajra","30.3100765","76.41996639999999","true"
"ChIJ-d_kP64pEDkR1NMmLkSbHaU","Hindustan Petroleum Corporation Limited","Ground Floor, Patiala - Devigarh Road, Ghalori","30.3135682","76.4202036","true"
"ChIJdQ18hgzcDzkRu00qKzHLwTs","Paul Service Stn","4, Rajpura Road, Rajpura Road, Patiyala","30.3325833","76.4073372",""
"ChIJIQuooIspEDkRIU-I4naIf8Q","Jio-bp pulse","Ground Floor, opposite Kali Devi Temple, Mall Road, Baradari, Patiala","30.337261","76.394841","true"
"ChIJf8JShL0pEDkRah4n8iavwe4","IndianOil","Ground Floor, Kaithal Road, Bahera Road, Patiala","30.2990989","76.4251412","true"
"ChIJrQ-vhgopEDkR5CtsSIbAfwI","IndianOil","Ground Floor, near Bus Stand, Rajpura Road, Patiala","30.33149319999999","76.41039239999999","true"
"ChIJ8zSmgG0pEDkRed_yDMWQoAs","IndianOil","Ground Floor, Saifabadi Gate, Patiala","30.330204","76.41257499999999","true"
"ChIJE1bhK5ApEDkR5TCnkWYpTS0","Hindustan Petroleum Corporation Limited","Ground Floor Patiala Balbera Road, Sanaur, Saniar Heri","30.2872537","76.42434779999999","true"
"ChIJ7wCIv_IoEDkRmJET9FBBYqI","Bhagwan Dass & Sons Petrol Pump","The Mall, PLOT NO 4 RAJINDRA DEVA YATIM KHANNA TRUST RAILWAY ROAD THE MALL, Sheran Wala Gate, Patiala","30.3399646","76.3998407","true"
"ChIJNU0OLhcpEDkRo15MFSJWTfY","Billu computer kanda","Saniar Heri","30.2802362","76.4215164","true"
"ChIJRUWcvpMoEDkRhp6-ayrha7A","Dhamot filling station - petrol pump","Rajbaha Road, Patiala","30.3444715","76.39435399999999","true"
"ChIJb-AeqJEoEDkRKrqfreAl3Hg","Kabir Dash Petrol Pump","38, Sirhind-Patiala Road (SH-8), Guru Ram Dass Nagar, Patiala","30.348551","76.39557700000002",""
"ChIJnfQEPQApEDkRoHMuB90QxdE","Jio BP Petrol Pump","7CMJ+9R, Patiala","30.2833848","76.4321057",""
"ChIJWcQBd8YpEDkR-Q3Cpj2u3GQ","Hindustan Petroleum Corporation Limited","Ground Floor, Sanaur Road, Patiala","30.309302","76.43856699999999","true"
"ChIJ-SqkGZMpEDkR6BlN60eL9x8","Hindustan Petroleum Corporation Limited","Ground Floor Pat to Sngrur Road, NH 7, Patiala Bypass, Patiala","30.317871","76.436882","true"
"ChIJVVVVZWAoEDkRj8imoH80xgU","IndianOil","Main Market, Gurbax Colony, Patiala","30.344446","76.41163150000001","true"
"ChIJhSKeeUQoEDkRDDBIYCXmaMs","BHATIA MOTOR","India","30.33786649999999","76.4250363",""
"ChIJTRu1bUQoEDkRMk62XfpR3a4","Shree Ganesh Oil Company","India","30.33734","76.4256765",""
"ChIJW_QNXsQpEDkRxihkbepMEZE","Sant Filling Station pat","Sant Filling Station, Sanaur","30.3073176","76.44148290000001","true"
"ChIJUwFbJpYpEDkRtFmSnZvjIkg","Daljit Petros","Daljit Petros Sant hazara singh, nagar, Sanaur Road, Patiala","30.3025095","76.4417086",""
"ChIJZXGYNEEoEDkRGUVf04hSNAI","Jain Petrol Pump","8CQH+CMG, Friend Colony, Patiala","30.338516","76.4292887","true"
"ChIJrUP0ip4pEDkRW4b4YGLrwls","Ramoji Filling Station","Ramoji Filling Station, NH-7, Sangrur Road, Patiala","30.3222047","76.4409946",""
"ChIJtzIY2corEDkRUA5GI5h3bGU","Grewal Filing Station (ਗਰੇਵਾਲ ਫਿਿਲੰਗ ਸਟੇਸ਼ਨ) ਸਫੇੜਾ ਅੱਡਾ","7C35+MJM, Adda, Saferra","30.2542172","76.4090434","true"
"ChIJC5Ue3MorEDkR6MAedcKvLBs","IndianOil","Ground Floor, Saphera, Cheeka Road, New Lal Bagh Colony, Patiala","30.254026","76.40875199999999","true"
"ChIJKQKXT6goEDkRxsTHJSUx7b0","IndianOil","Ground Floor, Bhadson Road, Patiala","30.358826","76.372925","true"
"ChIJgfDBt4MoEDkRdNEWt8Rt8cA","IndianOil","Ground Floor, Sirhind Road, Patiala","30.36069699999999","76.40289299999999","true"
"ChIJ06hfVNgpEDkRQDoIha08Js0","Bharat Petroleum, Petrol Pump -Sardar Sarup Singh Filling Station","SANOUR NEAR BUS STAND, Patiala","30.31022160000001","76.4535521","true"
"ChIJA5LSoWIpEDkRzjcqNa0J5uI","Hindustan Petroleum Corporation Limited","Ground Floor, Urban Estate Phase II, Urban Estate, Patiala","30.3481529","76.4319343","true"
"ChIJa-G2-xUoEDkRNBJ8h1IFjNs","IndianOil","NH 64, Rajpura Road, Patiala","30.345604","76.43811099999999","true"
"ChIJHa8lkuknEDkRHMAcvME-Oxg","Hp paradise gas service","Street Number 15, Tripuri, Patiala","30.3666177","76.3778493",""
"ChIJaSzIDh0oEDkRovqZR3dm0W8","Hindustan Petroleum Corporation Limited","Ground Floor, Punjabi University, Patiala, Rajpura Road, Karheri, Oppst, Patiala","30.355781","76.45440099999999","true"
"ChIJeeVCKwbXDzkRK6zIJ8vggjg","IndianOil","Ground Floor, Urban Estate, Jogipur","30.34063","76.505577","true"
"ChIJ07CKuSTUDzkRV43WZx8hdnI","IndianOil","Ground Floor Patiala Sannaur, Nanaula Road, Bhankhar","30.275248","76.518791","true"
"ChIJq8e5qozXDzkRXSWjeherYzs","GURJINDER GAS SERVICE GHANAUR","9F8H+HQ9, Ghanaur Patiala Road, Bahadurgarh, Rurki Kasba","30.3664177","76.4794936","true"
"ChIJWxb4YvbXDzkRAkkniukraAQ","Guru Teg Bahadur Filling Station","9F9F+F4R, Seel Road, Ghanaur Patiala Road, Bahadurgarh, Patiala","30.3687491","76.4727616",""
"ChIJ7VL7pabWDzkR6G9HsFqy95I","BATTA FILLING STATION","Village Batta, Sanaur","30.2924173","76.5322833","true"
"ChIJbSMZKBLXDzkRaKteRwoOL5k","IndianOil","Ground Floor, Ghanaur, Rajpura, Seel","30.347908","76.516487","true"
"ChIJfSej1H0qEDkRsdUcNwKMZOY","Bharat Petroleum, Petrol Pump -S R Filling Station","PANJETA ON DEVIGARH ROAD, Patiala","30.2359948","76.45021129999999","true"
"ChIJRXNbST3XDzkRTwtAhbHZr_I","Hindustan Petroleum Corporation Limited","Ground Floor, Bahadurgarh Ghanaur Road, Chappar","30.3432575","76.5259255","true"
"ChIJh83aVgclEDkR1xf8fr-yYJ0","IndianOil","Bahera Road, Bhadson Road, Bakshiwala, Patiala","30.3937956","76.3171385","true"
"ChIJcVufaL8lEDkRnyZVkb10BtU","IndianOil","Ground Floor, Patiala Bhadson Road Sidhuwal, Urban Estate, Patiala","30.383706","76.33981399999999","true"
"ChIJv8zsOQAlEDkRh4a6U0luPsc","Hindustan Petroleum Corporation Limited","Ground Floor, Bhadson Road, Bakshiwala, Patiala","30.39930099999999","76.311993","true"
"ChIJlYwyU_0lEDkR7XjlRziP9Xw","Hindustan Petroleum Corporation Limited","Ground Floor, Bhadson Road, Jassowal","30.3708943","76.3635716","true"
"ChIJ9UCeWJM7EDkRuZs7_HpwfOQ","Manju's BPCL Petrol Pump ( AFS) , Rakhra, Patiala","On, Nabha-Patiala Road, Rakhra","30.3663257","76.2686116","true"
"ChIJ78BAyAYmEDkRUl_b0mfOoQc","Dhindsa Petrol Pump","Ranjit Nagar, Patiala","30.3668686","76.3681601","true"
"ChIJnQVhOgAnEDkRP47BGO9YF7A","Hindustan Petroleum Corporation Limited","Ground Floor, Deep Nagar Road, Jhill, Patiala","30.37638739999999","76.39084129999999","true"
"ChIJ65g5zek7EDkRYzHBpXm-1YU","Rakhra Filling Station ( CNG and EV charge also available)","Nabha-Patiala Road, Rakhra","30.373765","76.2439305","true"
"ChIJy-42ge4jEDkR-0CSGwrkc7E","Hindustan Petroleum Corporation Limited","Ground Floor, Allowal","30.44355","76.29444","true"
"ChIJ821VBmAjEDkRd1hJUv4749U","HP PETROL PUMP - LALKA H P CENTRE","Ground Floor, Allowal","30.4435501","76.2944401","true"
"ChIJ_fISvaskEDkRVvOxohquKF8","IndianOil","Allowal, road, Kansuha Kalan","30.436657","76.27462799999999","true"
"ChIJuSCy_i4mEDkRaK2MPpmE0uM","IndianOil","Ground Floor Sirhind Road, Road, Bahera","30.372066","76.401625","true"
"ChIJp9SnwIAnEDkR8yVvvtU4YE0","Hindustan Petroleum Corporation Limited","Ground Floor, Sirhind - Patiala Road, Hassanpur, Patiala","30.380521","76.401701","true"
"ChIJnflieQAnEDkRM6V9A7Jwf-4","SIDHU PETRO STATION","Arsh Nagar, Alipur, Patiala","30.3708903","76.4044538",""
"ChIJs3re_N4nEDkRwUVQP5hWR_k","Nayara Gas Station","Patiala","30.39387609999999","76.4033729","true"
"ChIJR55KtEAnEDkR4aQ-TQ-jrZo","Bharat Petroleum, Petrol Pump -Ajit Fuels","BARAN ON PATIAL ROAD, Patiala","30.40512589999999","76.40450500000001","true"
"ChIJ-wP59_4mEDkRf5i0MxpMJPw","IndianOil","Ground Floor SH 31, Sirhind Road,Bahera, Road, Patiala","30.413418","76.407341","true"
"ChIJR9x2SuImEDkRhzawMTRvi58","Hindustan Petroleum Corporation Limited","Ground Floor, opposite Tricone City, Sirhind - Patiala Road, Kasiana","30.426593","76.407005","true"
"ChIJu_QiFAAnEDkRIEk0FQofROs","Durga Petro Mart","Kasiana","30.433882","76.4072688","true"
"ChIJ9fnf6h4nEDkRDHcl-fqXF3c","ARJAN ENERGY STATION","Sirhind - Patiala Road, Kasiana","30.43713579999999","76.4065443",""
"ChIJuWI21lTZDzkRsWm-4tb0vDc","DHINDSA PETRO POINT","9FR9+68R, Daun Kalan","30.39061769999999","76.4682766",""
"ChIJI6_qFDDYDzkRUdGgZYoD8iA","B.P. PETROL PUMP","9FPR+CVV, National Highway 64","30.3861123","76.4921839",""
"ChIJgfiVGwHZDzkRYLbRpV_2QIY","Jio-bp pulse","Ground Floor, NH 7, Rajpura Road, Muradpur","30.4006276","76.5085527","true"
"ChIJYRS-hrbZDzkRqFfF9rhPkAE","IndianOil","Ground Floor Rajpura Rd, NH 64, Rajpura - Patiala Road, Muradpur","30.400995","76.50855299999999","true"
"ChIJp4bqq6fZDzkRjOqqIxw8atM","Bharat Petroleum, Petrol Pump -Guru Nanak Petro Mall","CHAMARHERI ON NH64, Patiala","30.4089784","76.51307700000001","true"
"ChIJJZCRuqTZDzkRksJg0h59bHU","IndianOil","Ground Floor Old NH 64, Bir Kauli, Bir Kauly, near 31, to, 41 kms, Patiala","30.410885","76.5187924","true"
"ChIJ8-_5UEEjEDkROdBAoEhQwfQ","IndianOil","Ground Floor, Patiala Bhadson Road Dittupur,Bhari, Patiala","30.475191","76.298912","true"
"ChIJkePrp1IhEDkRnFOtPk8LZEU","Hindustan Petroleum Corporation Limited","Ground Floor, Road, Fagan Majra","30.4523711","76.3752337","true"
"ChIJgbv41x4hEDkR2GJ0QwKOlEM","IndianOil","Ground Floor, SH 31, Sirhind - Patiala Road, ਜਖਵਾਲੀ","30.4802438","76.4053303","true"
"ChIJd44-vgMhEDkRxKtMq0h_KvM","Hindustan Petroleum Corporation Limited","Ground Floor, Sirhind - Patiala Road, ਜਖਵਾਲੀ","30.49277099999999","76.40569099999999","true"
"ChIJt5FOZwAhEDkRRXDzxzTc2dk","Powerzone Filling Station","FC94+3CF, Malaheri","30.4676959","76.4060447",""
"ChIJ8Ymc3lAhEDkRXFfRjs4w9bY","Cheema Filling Station (Bharat Petroleum) (CNG & EV Charging Station)","Cheema Filling Station (Bharat Petroleum), Patiala-Sirhind Road MDR-31, Village Gunia Majra Teh, Village, Gunia Majra","30.4724443","76.4050134","true"
"ChIJm52feHggEDkReUqpJ3Za2us","IndianOil","Ground Floor, RR, Amargarh, Basantpura - Jakhwali Link Road, Sirhind","30.51534999999999","76.457809","true"
"ChIJvf-2-OTZDzkRnR6JA7KbtiA","IndianOil","Ground Floor Kauli, Road, Akar, Baran","30.44640009999999","76.4737001","true"
"ChIJv7dm9rHfDzkR_Dydf9k_pKE","IndianOil","Ground Floor Rajpura Sehra, Road, Tehalpura, Basantpura","30.4704001","76.4700101","true"
"ChIJw1HNA47fDzkRpXKnWs8yTaE","Bharat Petroleum, Petrol Pump -Satkar Filling Centre","SEHRA ON RAJPURA ROAD, Patiala","30.4688854","76.47737459999999","true"
"ChIJFV06NQDfDzkRCT11Y0EUhcM","Petrol pump , Pabri","FG9M+CF4, Pabri, Rajpura Rd, Damanheri","30.46851520000001","76.5336269",""
"ChIJ430oqGLZDzkRSIpEVW6Q3tQ","Dhindsa petrol pump","CGGP+H9V, Dhindsa","30.427324","76.53661699999999",""