place_id,name,address,latitude,longitude,open_now
"ChIJqaBiYIvRADsRjx1HbgM2oEk","HP - Petrol Bunk (S R & Son's)","MADURAI, RING ROAD, Kappalur","9.8424543","78.0250853","true"
"ChIJezcAHhTOADsRICUI0Zj264M","IndianOil","SY No. 200, 1, Thanakkankulam Main Road, Thiru Nagar","9.8827845","78.0377622","true"
"ChIJ9chbimXRADsRzaBQzbnN-ZU","NAYARA PETROL BUNK","Thirumangalam, old main road, Vidathakulam","9.808866199999999","78.0349075","true"
"ChIJRbQsV3HQADsRS58j0YDPBQk","Bharat Petroleum ( JASMINE FILLING STATION )","R4R3+8R9, Mandela Nagar, Madurai","9.8407834","78.104624","true"
"ChIJC3vbI5bPADsRIMASucvK9Cw","Bharat Petroleum Corporation Limited","37,Thiruparankundram, Road, Pasumalai, Madurai","9.8969021","78.08820759999999","true"
"ChIJS53VPZvPADsR_qCLA1xRA8I","Bharat Petrol Bunk","W34X+273, Madurai - Tenkasi Main Road, Pasumpon Nagar, Mathuramalingapuram","9.9050014","78.09816190000001","true"
"ChIJSytOXwPRADsRqtZDOAMWVS8","IndianOil","Ground Floor Kappalur, Near Terminal Junction, Valayankulam","9.834238","78.04488479999999","true"
"ChIJi2psCjfRADsRjIePR6TrYmc","Kappalur CFA","R2XG+958, Kappalur","9.848418799999997","78.0254663",""
"ChIJYx42GJ3PADsRwT6mvw8yvbw","Sri Meenakshi Auto Mobiles BHARAT PETROLEUM","221, 3b, GST Main Road, Thiru Nagar","9.8806776","78.0491933","true"
"ChIJa5fcD5zRADsRrNCLzwzI96M","Hindustan Petroleum Corporation Limited","43/2, No 43/3/A, 43/7 & 42/11/A, Chockanathanpatti","9.842559999999999","78.0263405","true"
"ChIJ7_iuJP7RADsRYi1zD-VXzT0","IndianOil","Lock No 4259 , Sy No 114/2, Kappalurthirumangalam, Austinpatti, Uchapatti","9.865318799999999","78.02303150000002","true"
"ChIJUwH83DLOADsRJLAzoF-KDUA","IndianOil","Ground Floor, Thiruparankundram","9.880375599999999","78.06388249999999","true"
"ChIJFdBY8fTPADsR7rWywPQqx60","Hindustan Petroleum Corporation Limited","Survey No 172, 4I & 172/13, Thanakkankulam","9.882631599999998","78.0403616","true"
"ChIJ6ThuAjjPADsR4GRQSCeU-eg","IndianOil","Madurai - Tenkasi Main Road, Thoppur","9.873929300000002","78.02697429999999","true"
"ChIJVdTcc_XRADsRvKCP_OFb36c","Landmark to dindigul","India","9.845931199999999","78.0206529",""
"ChIJG8YIAYzTADsRMDTewvila38","Bharat Petroleum, Petrol Pump - Victory Enterprises","GST ROAD, SIDCO Industrial Estate, Kappalur","9.856543299999998","78.0183192","true"
"ChIJIy1zkgLSADsR9wdUnFq9teM","Victory Enterprises","D-56, SIDCO INDUSTRIAL ESTATE, Victory Enterprises, Kappalur","9.857046799999997","78.0183236","true"
"ChIJ8ZPCWUjPADsRjKIIsxxWCIo","IndianOil","No 178/2D1, Pandian Nagar, Thanakkankulam","9.887364999999999","78.043998","true"
"ChIJmQgDEVnQADsR9Lp-Hc2odug","Mithun Filling Station Bharat petroleum","Madurai","9.8274452","78.0803818",""
"ChIJbciT3TLOADsRsjXSkZoBm3I","IndianOil","Lock No 33, Pasumalai, Thiruparankundram","9.8876651","78.075485","true"
"ChIJ2YzyWwDPADsRgQCyTxrKeaU","Indian Oil","V3HP+M43, Thiruparankundram","9.879134299999999","78.08528690000001",""
"ChIJLcEqyGnQADsR2WHTnUzS6e4","Reliance Aviation Fuelling Station","Madurai Airport","9.838376799999997","78.0894326",""
"ChIJf_pFW7nPADsRlbhsDMbEPEg","Reliance Petroleum","V3VJ+MP8, Tirupparankunram Road, Pasumalai, Madurai","9.894503999999998","78.08130290000001","true"
"ChIJv0wGLkPRADsRqplUsX-du8E","Bharat Petroleum Petrol Pump , COMPANY OWNED PUMP","166/4A, AYYANPAPPAKUDIMADURAI SOUTH TALUK, Madurai","9.8652417","78.1018422","true"
"ChIJ-7HN2b3PADsRaj53AckQBRE","go gas","V3WP+58G, Tirupparankunram Road, Pasumalai, Madurai","9.895429499999999","78.08582369999999","true"
"ChIJq6uqWQDTADsRsTd1TJbAlgs","IndianOil","TS No 92, Vagaikulam","9.829886","77.993281","true"
"ChIJaWa1VvbPADsRFLNQImlC7p4","IndianOil","Tirupparankunram Main Road, Avaniyapuram","9.8827591","78.10831499999999","true"
"ChIJ1U_VFJrPADsRQynna2CRME4","IndianOil","Ground Floor, Thiruvalluvar Nagar, Madurai","9.902359400000002","78.09505419999999","true"
"ChIJAfJDJu_TADsRVZHdD4BoJ80","Hindustan Petroleum Corporation Limited","39, Madurai Road, Tirumangalam","9.825489899999997","77.9892734","true"
"ChIJyedhPEzSADsRFMyWXy7blPk","Susee Petrol Gas Station","RXGQ+3P6, National Highway 44, Tirumangalam","9.8251689","77.9892553",""
"ChIJ-QcWOwDTADsRZNFBcciEXZU","VAIGAI INDANE GAS AGENCY LPG GODOWN SUNGURAMPATTI","RXCQ+JMR, Tirumangalam","9.8216147","77.9891394",""
"ChIJZelVHYXNADsRCRAeN8IAy1c","IndianOil","Lock No 124, Thirumangalam SH 73, Karadikkal, Madurai","9.873160099999998","77.982508","true"
"ChIJgz9UqoTPADsRnrQ9_a0AdOU","Petrol Station","W34X+GQG, Tirupparankunram Road, Andalpuram","9.9063147","78.0994611","true"
"ChIJn3MRjrHaADsRCI-YeHXu8T4","HP Petrol Pump","Villakku, Airport Mattuthavani Ring Road, Avaniyapuram","9.8629477","78.1237945","true"
"ChIJxVC7m3_FADsR37iyFvuW5gM","IndianOil","Lock No 44, South Veli Street, Periyar, Madurai Main, Madurai","9.911714199999999","78.11310399999999","true"
"ChIJ8ffYm3_FADsRLww9i9gkFw8","TVS Petrol Pump- Bharat Petroleum","W468+J57, 211, South Veli Street, South Gate, Periyar, Madurai Main, Madurai","9.911546099999999","78.1148716","true"
"ChIJqQmjk3_FADsRXCrcYYok1fg","Edison Enterprises Petrol Bunk, Dealer - Bharat Petroleum","MADURAI TOWN, S.VELI STREE, Madurai","9.911806100000002","78.11244669999999","true"
"ChIJ0yewNXbPADsRoVoS4pu4ZVw","IndianOil","opposite PRC HO, Bypass Road Arul Nagar, opposite PRC HO, Madurai","9.913266099999998","78.096176","true"
"ChIJz-kGE4_FADsRQcaVWBZqKdg","BP Petrol Pump","W4G9+5C6, Tamil Sangam Road, Madurai Main, Poondhotam","9.925409","78.1185239","true"
"ChIJxwVMr7TaADsRviNAKX2_-Ag","IndianOil","Ground Floor, Postal Training Centre, near Perungudi, Ring Road, Madurai","9.868832","78.128419","true"
"ChIJ4X0Q-lDFADsRdxBXIHuuxFU","Hindustan Petroleum Corporation Limited","Ground Floor, Avaniyapuram Bypass Road, Vallanathapuram, Avaniyapuram","9.8781903","78.119243","true"
"ChIJFY_pVFrFADsReIVVCiNfnUs","IndianOil","Lock No 6, Thandhai Pariyar Nagar","9.8821631","78.119301","true"
"ChIJmf_WxRbFADsRzwg4hX-VkHo","Bharat Petroleum COCO Pump, BP CHINTHAMANI","Ring Road, Madurai - Thoothukudi Highway, Chinthamani","9.880257999999998","78.1374562","true"
"ChIJ04S7w8vFADsRC4T8Hy29MlY","GasPlus Auto LPG -Madurai","Avaniyapuram Bypass Road, Madurai","9.885673699999998","78.117932","true"
"ChIJXTF-8STFADsRhcrrYa6zl94","Hindustan Petroleum Corporation Limited","No 3, Ground Floor, near Toll Gate, Ring Road, Chinna Anuppanadi","9.884594199999999","78.1473244","true"
"ChIJw8zpmz3FADsRAZ9u1bn5Mjg","RMR Fuels","Nayara Petrol Bunk, 09, Nedugulam Main Road, Chinthamani","9.8908606","78.14189329999999",""
"ChIJ8buhnD3FADsRrFSlo48vYN8","NAYARA","India","9.891052199999999","78.1418494",""
"ChIJ_321bo_FADsRQoiBR9AO02k","Hindustan Petroleum Corporation Limited","82, Aruppukottai Road, Madurai","9.898470399999999","78.11971580000001","true"
"ChIJuetfRjHbADsREQddE1N7Jjk","IndianOil","Ground Floor, SH 195, A, Pottapalaiyam","9.8406571","78.1627658","true"
"ChIJc_aDEADFADsRNeOwJ_iMmfw","COCO Bharat Petroleum Villapuram","21, Aruppukottai Road, Villapuram","9.905332699999997","78.1216685","true"
"ChIJaYE1B3nFADsROQjfVMxmVF4","Kerosene Bunk","W459+WPV, South Gate, Periyar, Madurai Main, Madurai","9.909861399999999","78.119292",""
"ChIJwVlXAoHPADsRncjdqem28gY","IndianOil","No 83, Lock, 499, Tirupparankunram Road, Pasumalai, Madurai","9.9094081","78.107773","true"
"ChIJbZwVFQDFADsRnsWnYStnehs","lakshmi petrol bunk, old sumathi petrol bunk","V5W6+F99, Viraganur","9.896165300000002","78.16099009999999",""
"ChIJW6QOPOHEADsR57X--vrIpFQ","IndianOil","Ground Floor, Arasaradi, Viraganur","9.896033399999999","78.1613816","true"
"ChIJQas6bqfFADsRsMZr1ahj8qs","Bharat Petroleum","159, near State Bank Of India, Kamarajar Salai","9.914476299999999","78.1416733",""
"ChIJcch3bJ7FADsRxHQioq-xIrA","IndianOil","Lock No 82, 39 & 40, Old Kuyavar Palayam Road, Madurai","9.9148076","78.1290471","true"
"ChIJyagNQtHFADsR3FbHgUvwZBk","Bharath petrolium corporate limited","near Kambiliyampatti, Kosukurichi, Madurai","9.915706199999999","78.1193823",""
"ChIJZ6_EhxvFADsR0Ro-s5Z_wdc","Propel Auto LPG","95, New Ramnad Road, Near Mariamman Teppakulam, ,Iravathanallur Village, Madurai-South taluk","9.9089266","78.1497947","true"
"ChIJc9E93QfFADsRVY2LlEQ34nk","Hindustan Petroleum Corporation Limited","No 159/2, near Theppakkulam Mariamman Temple, Kamarajar Salai, Teppakulam, Madurai","9.912364199999999","78.14567009999999","true"
"ChIJEb8jH2nFADsRsa8G1KjZdak","Bharat Petroleum, Petrol Pump -Lakshmi Agency","VASANTHAM NAGAR,TPK RD,M, Madurai","9.917788","78.12412599999999","true"
"ChIJ4RxZLsbFADsRv8HKZsykYB0","Praveen Fuels","Uthamapalayam Main Road, Uthamapalayam, Madurai","9.918059699999997","78.1201167",""
"ChIJGXgQBAjFADsRO9AIrtWRNqI","IndianOil","Lock, 11, New Ramnad Road, Madurai","9.913174800000002","78.1445068","true"
"ChIJSWsncKfFADsRYQNhGUvWprQ","Muthuvel Motors","161/B2, Kamarajar Salai, Madurai","9.914525099999999","78.1415193","true"
"ChIJmYh13BHFADsRhj9nzEtIflI","Reliance Petroleum","Survey No 1002, No 137, near Mile Stone 2 Km, Nh 49, Kamarajar Salai, Madurai","9.914359499999998","78.1428272","true"
"ChIJf-UW4YnFADsR_0148j5mGd8","HP PETROL PUMP (Sri Vinayaka fuel station)","Koli Medu, 14/1a1","9.898116","78.1696492","true"
"ChIJh3r0CQDRADsRFs5ovgQ4bDg","HPCL Company Owned Retail Outlet","Q3VV+8F8, Eliyarpatti","9.7932875","78.0937031","true"
"ChIJYccmlIfFADsRA4tjs8bMLOM","IndianOil","PB No 76, Southern Railway Colony","9.9218357","78.1120864","true"
"ChIJ4fP_sErFADsRzgrT7cGtWGs","Hindustan Petroleum Corporation Limited","Ground Floor, near Railway Station, Westville Street, Madurai","9.922000999999998","78.11200099999999","true"
"ChIJ0Y1RzLnEADsRwb6kI6OUm_c","Hindustan Petroleum Corporation Limited","Ground Floor K, Puliyankulam","9.8831451","78.182366","true"
"ChIJ62PywofFADsRSvLgCUw6Hxk","HP PETROL PUMP - KUMARAN AGENCIES ADHOC","HPC Dealer West, 2, South Veli Street, Panthadi","9.922868","78.112355","true"
"ChIJT6Z7KYPFADsRkZ0cdN4B4w0","Vaigai Gas Agency","29, Vaithiyanathapuram Road, Near Kennet Road, Madurai","9.9250331","78.1198143",""
"ChIJ5ee38frFADsRWrOd3s1AF7M","The Tamilnad Petrol Traders Asscn Ltd","2nd Floor, PR Buildings, R No 10, 37, North Veli Street, Madurai","9.9249229","78.1141961",""
"ChIJYQWLtmvPADsRJN7bYRhE9b0","Shri Kanchivanam Agency","Arasaradi, Madurai","9.923790799999997","78.1035194",""
"ChIJ5XY0IBTPADsRHljnUc8W5fU","Bharat Petroleum, Petrol Pump -Kay Ess Enn Fuels","PONMENI BYEPASS, MADURAI, Madurai","9.921399","78.0932237","true"
"ChIJUd1XLInFADsROBMI6zgHqd4","Kesavan Diesel Pump Sevice Station","near Soundaram Industry, 56/B, Workshop Road, Madurai","9.92705","78.11635",""
"ChIJT_LTQFXbADsRgncEfSh1cEo","BPCL Petroleum","V6C2+88W, Silaiman","9.8708505","78.2008397",""
"ChIJoxKkMQDdADsRbG8x6kzKxvM","Hindustan Petroleum Corporation Limited","SR No 3, Nanja Land, 4A/1A, Madurai - Rameswaram Highway, Tiruppuvanam","9.8320583","78.2484016","true"
"ChIJLYfRGwDbADsR7YcbzW1dW2o","Hindustan Petroleum Corporation Limited","Survey No 51/1A2, 50/10B & 50/10C1, Keeladi Road, Pasiyapuram","9.863144999999998","78.1959952","true"
"ChIJr8kbawDbADsRGd-hs83Xeh0","Indian oil petrol pump","SH 195, Valayankulam","9.8087739","78.1772428","true"
"ChIJv5T9O_bDADsRuK5FuxIIeE8","Bharat Petroleum Petrol Pump , MAHIA FILLING STATION","MADURAI - SIVAGANGAI ROADVIDATHAKULAM VILLAGE, URANGANPATTI, Madurai","9.915496","78.228483","true"
"ChIJ754PYcHdADsR2zsVmte3GAA","NAYARA PETROL BULK & EV CHARGING STATION","R66W+FX4, Kaliyandur","9.8111291","78.2474479","true"
"ChIJobpQtN7OADsRtY7PQIHY4YQ","Bharat Petroleum","Theni Main Road, Nagamalai Pudukottai, Madurai","9.9381019","78.060694",""
"ChIJq_6dYCrPADsRVcqsYhGzetk","Bharat Petroleum","X328+RJ7, Melakkal Road, Kochadai, Madurai","9.952044299999999","78.0665547","true"
"ChIJ349jcEDPADsRIUWAipvlc5M","IndianOil","Kochadai Melakkal Road Melakkal, Road, Kochadai, Madurai","9.9357451","78.088509","true"
"ChIJo_EgjGXPADsRNTZQSq2CMVs","IndianOil","47C, Travelers Bunglow Road, Madurai","9.927206099999998","78.099983","true"
"ChIJSfP2ODXPADsRFp8GEmvtc-0","IndianOil","No 124 & 1008, Vilangudi, Madurai","9.954972099999999","78.086342","true"
"ChIJg029gU3PADsRY1aZNqRNGsE","IndianOil","S No 38/123, Lock No 7 Vilangudi, Koodal Nagar, Madurai","9.953296099999998","78.099091","true"
"ChIJkRPuMGLPADsRUd36fXb9mRA","TET BPCL PETROL BUNK","W4H5+7FR, New Jail Road, Ponnagaram, Arappalayam, Ponnagaram Colony","9.9282268","78.1086447","true"
"ChIJJ_m-X73IADsRmOHGOBBrqpI","HP PETROL PUMP - AYYAPPAN AGENCIES","HPC Dealer Alaganallur Main Road Near Sivankoil,pothumpu Post, 232a, Vasantham Avenue, Madurai","9.97797","78.098097","true"
"ChIJ9ZhulabOADsROKnZ5zTv1Lk","IndianOil","Lock No 49, RTD Fdz, Palkalai Nagar","9.938391399999999","78.02391879999999","true"
"ChIJXT1QMWDPADsRDHz74MnSrZc","Sri Balaji automobiles Bharath Petroleum Petrol Bunk","2, 1, Melakkal Road, Kochadai, Thuvariman","9.952079699999999","78.06652609999999","true"
"ChIJKyAJnZLPADsR_Rx9F7VNwSY","IndianOil","Sammatipuram, Kochadai, Keelamathur","9.9450919","78.0746472","true"
"ChIJP5G_SQDPADsR0sqKIQ4iSKQ","Hindustan Petroleum Corporation Limited","N S No 8/3, Kochadai, Madurai","9.943764","78.07830009999999","true"
"ChIJsx9GcxXPADsR4F2SL9k7j4M","Hindustan Petroleum Corporation Limited","No 118, NH 85, Theni Road, Kochadai, Madurai","9.932495099999999","78.08562049999999","true"
"ChIJbfzqHCXJADsR7l5pqzrew8o","Hindustan Petroleum Corporation Limited","Ground Floor, Old, Dindigul Main Road, Paravai","9.968433","78.054902","true"
"ChIJ369jDVjJADsR8KMu0AKuUI8","Shell Petrol Pump","Salem - Madurai Road, Madurai-North taluk","9.958027999999999","78.07936099999999","true"
"ChIJbynw78fJADsRohefrxELgog","IndianOil","Paravai 1st Bit, North, Vilangudi, Madurai","9.9686176","78.0569855","true"
"ChIJV9AMMz_JADsRdFeFk-6DpWY","IndianOil","Ground Floor, Samayanallur","9.9711115","78.04341579999999","true"
"ChIJr4gEpMjPADsRy3U62i0oFuA","Hindustan Petroleum Corporation Limited","No 219/4, Madurai - Dindigul Road, Vilangudi, Madurai","9.9552052","78.0857224","true"
"ChIJeTWZR2_PADsRoZQARdp0PE0","Bharath Petroleum","88/1, 88, Theni Road, Arasaradi, Harvey Nagar","9.927865899999999","78.0981745","true"
"ChIJF-0ls2LPADsR0XX9g3GaHVo","IndianOil","Ground Floor, New Jail Road, Madurai","9.9278254","78.10027769999999","true"
"ChIJjTb7HUzPADsRZmMG0uN6is4","Propel -Auto LPG Filling Station","near ARC Parcel Service Sandhi Vidyalaya, No. 28, Dindigul Main Road, Vilangudi, Madurai","9.950539099999999","78.09475809999999","true"
"ChIJpQ4CknPPADsRYiK52Ro0Fdo","IndianOil","No 228, S No 963, 1/4, Lock, Arappalayam, Madurai","9.935092000000001","78.1015174","true"
"ChIJQ_hSo5jPADsRJGjKb7usHXk","INDIAN OIL PETROL PUMP, (SYED RAFEEK & CO)","15-2-22, Thathaneri Main Road, Thikathir, Thathaneri","9.9440136","78.1006178","true"
"ChIJq7zLAtDPADsRskq_RcrL6Mw","ABDULWAHITH K","Kumuli Main Road, Cumbum, Madurai","9.939971799999999","78.103487",""
"ChIJ_YcmjVvPADsRWlX-e-4VTLU","Hindustan Petroleum Corporation Limited","TS No 2458/2, Thathaneri Main Road, Thathaneri","9.940354899999997","78.103703","true"
"ChIJXeyWzdvNADsRJveAIEtdwEw","Bharat Petroleum Petrol Pump , DSR MAHA ENTERPRISES","SY.223/9, KONKAR PULIYANGULAMTHENI, Madurai Road, Madurai","9.941737","77.993984","true"
"ChIJ9ZiAFADJADsRLUO_uXL7LTQ","bharat petroleum, company owned dealer operated","X37W+CV5, Chokkalinga Nagar, Koodal Nagar, Madurai","9.963520899999999","78.0972231","true"
"ChIJKwfxgWnJADsRRHD69PoW8Po","IndianOil","Sikander Chavadi Vilangudi, Koodal Nagar, Madurai","9.964563900000002","78.0969903","true"
"ChIJ4UHV7yspBzsRQmpq5dR5ic0","Hindustan Petroleum Corporation Limited","Survey No 44/2B, Peraiyur Sedapatti, Road, Mangalaseru","9.9272014","78.116235","true"
"ChIJD1GVKnvMADsRWbOmOu2eZY0","Hindustan Petroleum Corporation Limited","Ground Floor, Nagamalaipuram, Checkanurani","9.941046199999999","77.9823436","true"
"ChIJRXirJZbHADsR_W65blWmG20","IndianOil","Kulamangalam Main Road, Sellur, Meenambalpuram","9.9383462","78.1186859","true"
"ChIJDx77FOnFADsRV1mZp3WZwUU","Bharat Petroleum Petrol Bunk","PT Rajan Road, Chinna Chokikulam","9.9421619","78.12967780000001","true"
"ChIJFdlRW7vFADsRM5AbTkkP-a0","Hindustan Petroleum Corporation Limited","4, Sivagangai Main Road, Rajakoor, Sathamangalam","9.9255785","78.1401539","true"
"ChIJpflLpJbFADsRSWM1cObXOJY","Hindustan Petroleum Corporation Limited","opposite Devar Statue, 123, Palam Station Road, Goripalayam","9.929314299999998","78.1288471","true"
"ChIJ60X4j5XFADsRfrc6Q_b5iWc","IndianOil","Ground Floor, Tallakulam","9.9319331","78.132927","true"
"ChIJvxDx0qTFADsRoSVLDZFLWJM","IndianOil","Lock No 18, Anna Nagar, Madurai","9.924282099999997","78.14146889999999","true"
"ChIJn3laEeDFADsRWBPLrQOw0tc","IndianOil","Lock No 52, No 34, Natham Road, Narayanapuram, Tiruppalai, Sivakami Nagar","9.956299099999999","78.132629","true"
"ChIJMdh_luDFADsRRp5T35w_Lgg","Hindustan Petroleum Corporation Limited","No 20/2B, near Natham Road, Survey, Athikulam","9.953591699999997","78.1326172","true"
"ChIJD4WLAs3FADsRXl5-lr-Sx7E","Hindustan Petroleum Corporation Limited","No 173/1BP, RS, Melur Main Road, Madurai","9.944602099999997","78.1540655","true"
"ChIJQy8quzLEADsRVjoGGg_MfDM","Bharat Petroleum Petrol Pump","W5W4+GVX, Kurivikaran Road, Industrial Estate, K.Pudur","9.946362899999999","78.15724589999999",""
"ChIJMYCO6W3GADsRPOZ3MO-fsMw","IndianOil","Sri Ayappa Nagar, Natham Road, Kananenthal, Madurai","9.9698681","78.138206","true"
"ChIJ_XT4ndXFADsR1oLItRJrYVM","IndianOil","Alagar Kovil Main Road, Surveyor Colony, Lourdhu Nagar","9.9571611","78.153442","true"
"ChIJ7SLP-zfEADsRsyMD2qZ3VM4","SUPERGAS Auto LPG Station - Thirumala International Cars and Mo","1A, Uthangudi Ring Road, Near to Pandikovil, Madurai","9.937108","78.16742599999999","true"
"ChIJ3WysZC_EADsRbt-eRq43M_I","IndianOil","Melur Main Road, Mattuthavani, Uthangudi","9.951287099999998","78.167343","true"
"ChIJOarn4pPFADsRwZqp57y4pDE","Amman Agencies Bharat petroleum pump","near kalyan borewells, 1, Palam Station Road, Goripalayam","9.9300845","78.1268011",""
"ChIJy3M5qpbFADsRbBe-_vvIORU","IndianOil","106, Palam Station Road, Goripalayam","9.9295741","78.1282277","true"
"ChIJdyK_fADFADsRDAxul9f12ok","Sumathi Enterprises","W4PF+554, Madurai-North taluk","9.935395","78.122967",""
"ChIJ0WwKkeXFADsRWEfeFkARMz4","S. R. N. R. AUTOMOBILES, INDIAN OIL PETROL STATION","Kulamangalam Main Road, Sellur, Madurai","9.9394949","78.11875780000001",""
"ChIJpdyOEiXHADsRG8CosDUiWVY","Bharat Petroleum Petrol Pump , M.P.R. AUTOMOBILES","S.NO.24, Natham Road, PERIAPATTI, Kancharampettai","9.9418517","78.129375","true"
"ChIJKWCXaUnFADsRAjdYueCM6nc","Sri Hari Filling Station- Bharat Petroleum","India","9.9355818","78.1362244",""
"ChIJOSK1f7_FADsRhvqCY0f9JpA","IndianOil","Lock No 45, Tallakulam","9.935528699999997","78.1366235","true"
"ChIJCT1gqsHFADsRmHdIdn6Hd9w","IndianOil","2, Race Course Road, Chinna Chokikulam","9.9385434","78.1363616","true"
"ChIJ-2HjLkXBADsRhWXOEE6_scs","IndianOil - SWAGAT","NH 45B, Melur Main Road, Kodikulam","9.9722949","78.2163807","true"
"ChIJq2vGG0XBADsRdHYAgm7NY4g","Bharat Petroleum ghar OSTS Othakadai","Kodikulam Madurai NH-45B Melur , Chainage KM117/200 to 117/400 LHS NH45B, Aruppukottai Rd, Madurai","9.97308","78.2158","true"
"ChIJL4iVKmrEADsRTZwiucSdMhE","IndianOil","Sivaganga Road, Karuppayurani","9.9317871","78.1821137","true"
"ChIJ20n_P4bDADsRe0zt1hcRq38","HP Petrol Bank","Madurai","9.925663","78.2062919","true"
"ChIJQ7Ci057DADsRzdB2GEXE9lE","Hindustan Petroleum Corporation Limited","Survey No 58, Madurai-Sivaganga Road, Thindiyur","9.9256858","78.2063518","true"
"ChIJ2ZJibUXEADsRQwOs11UhaSk","Hindustan Petroleum Corporation Limited","No 12/3, Ring Road, Vandiyur, Madurai","9.927764","78.1691432","true"
"ChIJZ52yNgDFADsRzUbKF4FpsuM","SV3","1, Sivaganga Road, KK Nagar","9.930125300000002","78.1695257",""
"ChIJE3hEf__FADsRXHfKu5TNsrU","Shell Ilandhaikulam village madurai","Trichy - Madurai Highway, Madurai","9.944222","78.181861","true"
"ChIJta5OzOPFADsRCtZw5MYYsw4","DHEEPAM TOTAL ENERGIES AUTO FILLING GAS STATION","151/1, Pandi Kovil Ring Road, Madurai","9.942364399999997","78.1654417","true"
"ChIJS5a2kJfFADsR655rMBH5sK4","Nayara petrol pump","X53X+X95, Thiruvathavur Road, Rama Krishna Nagar, Rajakambeeram","9.9540527","78.1986723",""
"ChIJC-ze4x7EADsRB2YCpPOhQjo","IndianOil","Lock No 72, Uthangudi","9.955306799999999","78.1822823","true"
"ChIJBahwbCTEADsRALoz8XJYZKs","Go Gas","X52F+M2C, Madurai","9.951691","78.1725",""
"ChIJKaAsVHvDADsR4G8UeVkc9q4","IndianOil","Ground Floor, Tirumohur","9.9505695","78.20927809999999","true"
"ChIJG0LK5GXDADsRCRCvtJHFH3s","Thadamani petrol agency","X625+4J5, Madurai","9.950624999999999","78.209726","true"
"ChIJtVhUV7LFADsRmP6Tyd1p5no","IndianOil","Sivagangai Main Road, Melamadai","9.9272045","78.153284","true"
"ChIJ3bgaxfTBADsR18hDobAxdus","Meena LPG Gowdon","X663+RMX, Kalluppatti - Maravapatty Road","9.9621233","78.2042231","true"
"ChIJ90qMe8jFADsR-H871pNwYXU","IndianOil","Ground Floor, Melur Main Road, Madurai","9.938533399999999","78.14581559999999","true"
"ChIJA4AteffHADsRE_IAmPp6Ros","Goldfuels Technology","32 ANDAMAN NAGAR OTHAKADAI KADACHANENDAL, ROAD, Madurai","9.970121599999999","78.1801514","true"
"ChIJc7r1HOzFADsRapJU312ghXE","Pranav - propel Auto gas bunk","Sambakulam, Sarveyar coloni, Kodikulam","9.957513500000001","78.1548597",""
"ChIJibvQndbFADsRSpR2CvYf1wA","Hindustan Petroleum Corporation Limited","193/1, Alagar Kovil Main Road, Moondrumavadi, K.Pudur","9.9542205","78.1504405","true"
"ChIJjy1kvsfFADsR1bVvO9geaag","Bharat Petroleum, Petrol Pump -Mkt Motors","PUDUR, MADURAI, Madurai","9.9559056","78.15175459999999","true"
"ChIJVadFVQDBADsRwe57JMPKFEA","LNG Filling Station","X6C8+Q83, Arumbanur","9.971920599999999","78.2156409",""
"ChIJUycd1RLHADsRpJC34k3Udkg","Bharath Petroleum","201, Alagar Kovil Main Road, Kadachanendhal","9.978669","78.1698275","true"
"ChIJq5EqKpPGADsRcRuw4bTLkjE","HP GAS","India","9.980336699999997","78.17086429999999",""
"ChIJcQLICLrHADsRI_jfcBZjbms","Nayara Petrol Bunk","Block No: 3, Oomachikulam-Alanganallur Road, Anthaneri, Kadachanendhal","9.9785113","78.1648408","true"
"ChIJiS45egPKADsR6ifAa8hO3YE","Bharat Petroleum","Service Road,ayyankottai,, nh 7 madurai dindigul highway,, vadipatti taluk, Madurai","10.0321868","78.0144638","true"
"ChIJObl79h3IADsR0aSRzyKO6OM","IndianOil","Lock No 77, No 348/1E, Koodalnagar Rd, A, Alanganallur","10.04395","78.0948587","true"
"ChIJrzvvWbfJADsRLGKFY13LFS4","SNS FUELS - HP Petrol Pump","Service Road, Dabhethar Santhai","10.0033429","78.02098699999999","true"
"ChIJuUrnQVLJADsR5sLruaJaK30","Hindustan Petroleum Corporation Limited","Shop No 13, near Tabedar Sandhai, 2 & 2A, National Highway 44, Thenur","10.0036048","78.0200705","true"
"ChIJVX1WuG7JADsRydkE3QXCguQ","IndianOil","Bit 1, No 51/7A, Madurai, Puthumbu, to, Koodal Nager, Pasingapuram","9.9965017","78.0970002","true"
"ChIJAcZiwN7JADsRIUnpFstMSiY","NAYARA PETROL PUMP-KOTTAIYAN CHETTIYAR FILLING STATION","193/11,193/2 , Pasingapuram village, Madurai-North taluk","9.987687099999999","78.09972359999999","true"
"ChIJtU-5P73IADsREhfGbJoppSw","IndianOil","Ground Floor, Milakaranai","9.976510000000001","78.09819999999999","true"
"ChIJDyjoWFy3ADsRZZB5suiOjdc","IndianOil","Ground Floor Kondayampatti Alanganallur Vadipatti, Ayyankottai","10.0472192","78.03492229999999","true"
"ChIJJ5O9vMe3ADsRBs0pmdI7qks","IndianOil","Gr Flr, Alanganallur Sembukodapatti Rd, A, Kallanai","10.0462882","78.07147719999999","true"
"ChIJmZZvFGjLADsRu51HOVc7W-g","IndianOil","No 216/7A2B, Kachirayiruppu","9.981105999999999","77.9924484","true"
"ChIJNc0YEebJADsR4_ja7zbn-cw","Bharat Petroleum, Petrol Pump -Dhanasekari Agencies","ALANGANALLUR, Madurai","10.0359117","78.09201569999999","true"
"ChIJw1A6zQHLADsR2MrTkuNylC0","OM SAI FILLING STATION","XXJH+QQG, Major District Road 262, Ayanthenkarai","9.9819345","77.9794584","true"
"ChIJs8MhI0q1ADsRENDYcNaX0hE","IndianOil","near Madras High Court, Ground Floor Thanichiyam Aundipatti Rd, near Madras High Court, Bench, Madurai","10.0476737","78.00075249999999","true"
"ChIJ6-X3sv23ADsR55I7ihxRcew","IndianOil","Lock No 156 Alanganallur, Mettupatti","10.046818","78.10314009999999","true"
"ChIJaXFMKADHADsRxptUnZv2zFU","Petrol bunk","2/20A, Malligai Street, Bama Nagar, Madurai","9.972010999999998","78.124687",""
"ChIJsTgkAKvHADsRUaQDC6jZj4M","RAMKIRUBA AGENCY","46A, 1st Street, P and T Nagar, Madurai","9.965619799999997","78.1264973","true"
"ChIJF7WQ44_HADsR2aKQ2mqIe64","IndianOil","Ground Floor, P&T Nagar","9.965428099999999","78.12634299999999","true"
"ChIJ2SoccQDHADsRRzeJr1VU94Y","Bharath Petroleums, GK Filling station","X5R2+67C, Chettikulam","9.990573999999999","78.1506299",""
"ChIJb9gzh6zHADsRr4F5GpxPVRM","IndianOil","Lock, No 262, Natham Road, Umachikulam","10.0044436","78.1503917","true"
"ChIJx4s25n_HADsRQViH4EG2Rzs","IndianOil","Sellur, Kosakulam, Madurai","9.962795699999997","78.1186606","true"
"ChIJRUgwM4HHADsRHHxUf8Vj3fc","Bharat Petroleum (COCO)","Vasantham Arcade, Srinagar Kaveri Main Road, Ezhil Nagar, Iyer Bungalow, Srinagar","9.965177899999999","78.1355066","true"
"ChIJ3yHYGuDFADsRyx3mNDMjWNE","Supergas AutoLPG Refill Station","X44M+P4Q, Cs Nagar, Sivakami Nagar","9.9568358","78.132871","true"
"ChIJ8cLATnHHADsRhah5u1KALdk","Hindustan Petroleum Corporation Limited","S No 54/4A, 56/2B1, Mandikulam","10.018096","78.1552308","true"
"ChIJ--CMLXnHADsRelvX3XL8rd4","IndianOil","Ground Floor, Oomachikulam-Alanganallur Road, Vavidamaruthur","10.0418978","78.11356909999999","true"
"ChIJq9u0YTLHADsRwkv_vgYc410","IndianOil","Ground Floor, Periyapatti","10.0268009","78.15626329999999","true"
"ChIJeysb9nDHADsRWP6K7FHO0qE","KARTHIHEYA GAS AGENCY","25J8+P2H","10.0318128","78.1651242",""
"ChIJDwXlpU7HADsRiQ4-nf8NTxo","Bharat Petroleum Bulk - Solamalai Murugan Automobiles","Poovakudi Village,Kallanthiri, Alagar Kovil Main Road, Post, Madurai","10.031692","78.19620499999999","true"
"ChIJJekuJCfHADsRJdezGHYOTBY","IndianOil","Ground Floor, Alagar Kovil Main Road, Kadachanendhal","10.005693","78.18580370000001","true"
"ChIJOebuI3TBADsRLwenc3f1Jj4","AGS & CO","ROAD, Mangulam","9.988792299999998","78.23544299999999","true"
"ChIJFztSu0-_ADsRAL01daYJVD8","IndianOil","Lock No 224, No 77/3B1, A.Valayapatti","10.0611955","78.2115869","true"