place_id,name,address,latitude,longitude,open_now
"ChIJV06XZEXkqzsR2KC8lAPW_iE","IndianOil","NH 544 Service Road, Chinnasiragapadi","11.5808781","78.0534148","true"
"ChIJv2hmOGrkqzsRrR39U33Gd6Y","IndianOil","SF No 9/3A1, Kadathur Agraharam","11.5752873","78.04056489999999","true"
"ChIJuTqtnq_vqzsRAYIeolT7980","IndianOil","Dasanaickenpatti","11.6066327","78.1462433","true"
"ChIJk97zJoXmqzsRZS1fLDOyoDI","IndianOil","Lock No 22013, Tiruchengode - Salem Main Road, Attayampatti","11.5408163","78.0545745","true"
"ChIJVzy37OXvqzsRodx0fu9w0oc","IndianOil","No 98A, Lock, 13017, Sankari Main Road, Kondalampatti, Salem","11.631617","78.12662499999999","true"
"ChIJe1IvquTvqzsRIchJpaH2Ahc","Indian Oil Corporation Limited and CNG Station","1st Sdloa Building 234 Bangalore, Bypass Road, Kondalampatti, Salem","11.6360244","78.1222812","true"
"ChIJqcoUp-TvqzsRJw8jFg3L4wU","Hindustan Petroleum Corporation Limited","near Bangalore Bypass Road, Ground Floor Ottal Karar Thottam, near Bangalore Bypass Road, Kondalampatti, Salem","11.6359958","78.1231976","true"
"ChIJF2O4EknvqzsR_Q_FyxQbOyE","Jio-bp","No 2/350, near Shanmuga Weigh Bridge, Sankari Main Road, Salem","11.6342983","78.1287033","true"
"ChIJP9TUtzbmqzsRVuHEFzv9pEI","IndianOil","S No 111/1A2 111/2B Vennanthur, Rasipuram","11.5133024","78.0929974","true"
"ChIJ-2BQu9DuqzsRe55_AwqS7uM","IndianOil","Ground Floor Adikarai, Rasipuram Road, Panamarathupatti","11.5641953","78.1631077","true"
"ChIJv_46xdDuqzsRUE_0T-8LSt0","Bharat Petroleum Petrol Pump , SREE SAKTHI VINAAYAGA AGENCIES","SANDHAI PETTAIPANAMATHUPATTI, Salem","11.5630785","78.1628368",""
"ChIJyVy8H8_vqzsR_JicnqAEIyY","Bharat Petroleum, Petrol Pump - Sowdambiga Fuels","R.R. Complex, 3/53, Trichy Main Road, P M Nagar, Seelanaickenpatti, Salem","11.6274048","78.1477903","true"
"ChIJeUlY-s7vqzsR18MuFll0nMs","Total Gas Bunk E","1, 9, Trichy Main Road, R.S.P Thottam, M G R Nagar, Seelanaickenpatti, Salem","11.628234","78.1484753",""
"ChIJ2XRkQwDlqzsRLkZnB1j1uYA","நாச்சி","H36R+P22, Sevanthampatti","11.5619275","78.09008539999999",""
"ChIJIYNsU0DlqzsRPfL0P9f8b5U","RVC Fuels - HP Petrol Bunk","Ground Floor, opposite VSA College, Salem South, Salem","11.5978901","78.087841","true"
"ChIJ7UqnQQDlqzsR1v_aSzGlQ6Q","Hp petrol pump","NH544, Salem to, Kochi","11.5991647","78.0886189",""
"ChIJh8mDWkjlqzsR33oC76hYAYY","Hindustan Petroleum Corporation Limited","No 182/3B, Veerapandi","11.5882527","78.076264","true"
"ChIJnSCHwWblqzsRvdWdUZ91HpQ","IndianOil","S No 140, 1140/3, Veerapandi","11.5790926","78.0742332","true"
"ChIJNZ-bXgDlqzsR4RmY6iaCeDs","SARASWATHI FUELS","3/349, Uthamasolapuram Main Road, Salem","11.6052645","78.09857889999999","true"
"ChIJTWvFPCjlqzsRrF08h3UVgKI","KR Fuels - Auto LPG Station - Uthamasolapuram","NTR Motors SF.No. 62-1C1(Part Uthamasolapuram, Kondalampatty Salem South Taluk, Salem","11.6065722","78.09692969999999","true"
"ChIJB5HfHXDlqzsRX-3_N8eMDws","Inn Oil","India","11.6070069","78.09835509999999",""
"ChIJZeJSaevlqzsRc4mgF3btFo0","Bharat Petrol pump","4/190, Road, Poolavari, Neykkarapatti, Salem","11.6081306","78.10625979999999","true"
"ChIJd0gRsFLlqzsRyQwiMMHd_6k","Bharat Petroleum, Petrol Pump -Sri Anjaneya Fuels","NH-47, SIDCO,SALEM, Salem","11.5879006","78.06593649999999","true"
"ChIJNbWbyWDlqzsRwj7u2DnHvX8","NAYARA energy","1A Neikarappati, 54/2K, Salem","11.6170392","78.10554200000001","true"
"ChIJoelVJF7lqzsR6-Hth00SqSY","Bharat Petroleum","India","11.6191611","78.10706669999999",""
"ChIJjW-MSPXvqzsREBLqhjUtDw4","KPN Fuels Highway Star","KPN Plaza Inn, NH 47, Neikarapatti Road, Kondalampatti, Salem","11.6191492","78.107282","true"
"ChIJM1hbSPXvqzsRDgbtFPzjRXE","KPN Fuel Service","J496+QRP, National Highway 544, Sandaipet, Kondalampatti, Salem","11.6194735","78.1120682","true"
"ChIJJZxxjjrvqzsRuR15jfmOc-Y","Hindustan Petroleum Corporation Limited","S No 66/2A Ammapalayam, Santhiyur","11.5711128","78.1420559","true"
"ChIJZWlb633vqzsR3Vgx6G7z5XQ","Bharat Petroleum COCO Company outlet - Mallur","281, Sandiyur Attayampatti","11.5763279","78.1441309","true"
"ChIJ3Sg2xhnvqzsRmdQshl3diTc","BPCL - RRK Hitech Petroleum Dealer","ATTAYAMPATTY, Santhiyur","11.5786621","78.14615169999999","true"
"ChIJu1IbzATvqzsR_rBILo7a4zA","NAYARA PETROL PUMP","panamarathupatty junction, Salem","11.587166","78.148916","true"
"ChIJuVKHoahhqTsR4FM7Pcx2luc","Hindustan Petroleum Corporation Limited","near Combined Court Premises, 102A, Sankari Main Road, Seetharamapalayam, Namakkal","11.6260324","78.1208049","true"
"ChIJw6IrjxzvqzsRdHkvp_jK2MU","IndianOil","Survey No 109, 4B, Gajjalnaickenpatti, Dasanaickenpatti","11.5848728","78.1515988","true"
"ChIJLaWJlVfnqzsRa36MgH4EkEM","IndianOil","S Y No 56/2A1, Ponparappipatti","11.5305038","78.11894749999999","true"
"ChIJS-jtz6jvqzsRdr0mwgyauFg","IndianOil","Lock No 1301522004, Nilavarapatti, Trichy Rd, Dasanaickenpatti","11.6027944","78.1474997","true"
"ChIJC5INb0bpqzsRvuKJQbmujF4","Bharat Petroleum, Sri Maruti Fuel","MALLUR, Salem","11.5483992","78.1442327","true"
"ChIJ8VfCheXvqzsR1gw4x3inmw4","Hindustan Petroleum Corporation Limited","Ground Floor, Kondalampatti, Salem","11.631001","78.12570099999999","true"
"ChIJw5S3HubvqzsR2pWI14FcHJQ","ESSAR","India","11.6310468","78.12908829999999",""
"ChIJp2_pvVnvqzsRDAoTGW1rFKU","Hindustan Petroleum Corporation Limited","S No 37, 10C4B2 & 37, near Dhivyam Cinemax, 10C3, Amanikondalampatty, Salem","11.6276469","78.13466609999999","true"
"ChIJ7yvylsPnqzsRB0b4kxOR6H8","Bharat Petroleum, Petrol Pump -Sri Ganapathi Agencies","near KOLANDAGOUNDER TH, NAMAKKAL","11.5213973","78.0802812","true"
"ChIJU9VSSQDlqzsREmK-xmvrVtc","KPL FUELS","H2MM+5W, Salem","11.5830242","78.03407930000002","true"
"ChIJU7Xc8MToqzsROqKir5joCvY","IndianOil","No 3, Lock No, 12010, E Pethampatti, Komarapalayam","11.5380479","78.1425972","true"
"ChIJj4k6quTvqzsRwqH8JDu37Vw","IndianOil","SF No 131/2A1, No 5/1948, 2A2, Bangalore Bypass Road, Salem","11.6362887","78.1221024","true"
"ChIJjZRMVMLvqzsRP2CgIa-UDYw","IndianOil","SF No 44, KanagavallI, Amani Kondalampatti, 4A, Bypass Road, Salem","11.628011","78.136253","true"
"ChIJ5yIenlTvqzsRhO07TGYNfSM","KR Fuels - Auto LPG Station - Salem – Bangalore Bypass Road","No. 46 / 2B, 2C, 47 / 2B1 (Part, Bangalore Bypass Road, Amanikondalampatty, Salem","11.6271162","78.1383062","true"
"ChIJP9IoAe_vqzsRua055sVL3Cw","MS SREE ARASU AGENCY","24/9, Pachiamman Kovil Street, Thammanaickenpatty","11.6258792","78.14131119999999",""
"ChIJKwSehqnvqzsRBrVOkOLvTsk","Hindustan Petroleum Corporation Limited","Ground Floor, Trichy Main Road, Seelanaickenpatti, Salem","11.621801","78.146501","true"
"ChIJK7_EbUbnqzsRrxe7mzmbDMU","IndianOil","Lock No 13009, Tiruchengode - Salem Main Road, Attayampatti","11.5298374","78.04688519999999","true"
"ChIJtV1aXQPwqzsRInZBsdZDPpk","Salem LOA Bunk","National Highway 44, Konerikarai, Kandhampatty","11.6464538","78.12090529999999","true"
"ChIJC3oFjsvvqzsRH7xiiPuJVy0","Hindustan Petroleum Corporation Limited","SF No 129/7A1, Bypass Road, Attur, M G R Nagar, Seelanaickenpatti, Dadagapatty","11.6253169","78.15246069999999","true"
"ChIJN308pGTxqzsRgYn5OngIpQE","K.M.BROTHERS FUEL & OIL","100, Salem - Kochi Highway, Konerikarai, Kandhampatty","11.6473276","78.1200544",""
"ChIJKcH4nATwqzsRy6ANiBIYYCI","Bharat Petroleum","J4WC+W4J, Service Road, Salem","11.6473436","78.120267",""
"ChIJPxDlrTzvqzsRhrzkzLupQnE","Hindustan Petroleum Corporation Limited","Ground Floor, Nethimedu, Salem","11.640701","78.135801","true"
"ChIJi5x9-zPuqzsR5N9O-dZIE1U","Samy Traders Bharat Petroleum","Salem - Ulundurpettai Highway, K R Nagar, Seelanaickenpatti, Salem","11.6269064","78.1618288","true"
"ChIJmdOp_jPuqzsRzhGqZDO1epY","IndianOil","RS No 153/2A12A2, Dadagapatti, Seelanaickenpatti, Salem","11.6252667","78.15642059999999","true"
"ChIJr62BZjPuqzsR0yLLMAxlBaM","RV Traders Bharat Petroleum","K R Nagar, Seelanaickenpatti, Salem","11.6269227","78.1582835","true"
"ChIJiwkJntXvqzsRxOoZC57iBZQ","A V PETROLEUM Petrol Bunk","27, Trichy Main Road, Karungalpatty, Gugai, Salem","11.6418834","78.1535438",""
"ChIJnZJ__I_vqzsRjLBY27LopoE","Lpg","J5H8+M9G, National Highway 79, Attur, Salem","11.629179","78.1659675",""
"ChIJoykhRSXuqzsRjdJmuFS-lyg","Hindustan Petroleum Corporation Limited","Survey No 29/4, Annamar, Muniyappan Kovil Street, Erumapalayam, Salem","11.6344236","78.159218","true"
"ChIJ4cmTpNbvqzsRsfLNfZOfVVw","Nayara Energy Petrol Bunk Kannammal Agency","2/1 B, NATIONAL HIGHWAY, Sanniyasigundu Road, PO, Salem","11.6407893","78.17403620000002","true"
"ChIJH4CBXrPpqzsR2_9RCIGI_uc","Rainbow Fuels NAYARA ENERGY LIMITED","Namakkal - Salem, Byepass","11.5196834","78.1491604","true"
"ChIJ8-9QvuPvqzsRvE4yMTDNw9w","Hindustan Petroleum Corporation Limited","Ward No AA, Block 14, Sy No 144/4, Trichy Branch Road, Salem","11.6395459","78.1461612","true"
"ChIJu5iiyJXvqzsRXjkTBZUz-JQ","THIRUMOORTHI LAKSHMANAN","148, South St, Periyar Colony, Gugai, Salem","11.6397671","78.14610069999999",""
"ChIJy75ZWt_vqzsRA2XWB3Ymtbk","Hindustan Petroleum Corporation Limited","Ground Floor, near Kaliamman Kovil Street, 70/ B, Sankari Main Road, Nethimedu, Salem","11.6418197","78.13829849999999","true"
"ChIJUxfgqCDwqzsRdFjvcwTyxgg","A V M FUELS Bharat Petroleum","NETHIMEDU, SALEM, Salem","11.6425336","78.1387208","true"
"ChIJK8G5DdPxqzsRIMpbs-pJTgs","IndianOil","Ward J, Lock No IG 7118, Ts No 2/2A, Trichy Main Road, Salem","11.650399","78.158669","true"
"ChIJBWHKQc7sqzsRcgzNyUUtQ2E","Bharath Petrol Pump serngottaiyan agencies","Gajjalnaickenpatti - Seshanchavadi Road, Kammalapatti","11.5908832","78.2859695",""
"ChIJxUbnXpD6qzsR3kvCKSS2X60","IndianOil","Steel Plant Road, Solampallam, Suramangalam, Salem","11.673551","78.1016331","true"
"ChIJOQTVVzrwqzsRA8UpiuYi-Vk","IndianOil","71/A, Leigh Bazar Road, Arisipalayam, Salem","11.656488","78.142601","true"
"ChIJk2HPAab6qzsRGj246BxB9aU","Hindustan Petroleum Corporation Limited","SF, No 106/3, Sivathapuram, Salem","11.6521729","78.1053475","true"
"ChIJAQtRxnjwqzsRe4vsPEG4Evg","IndianOil","SF No 103, 9A, Steel Plant Road, Ammapalyam, Salem","11.679132","78.112572","true"
"ChIJv4sWCHLwqzsRC_nebnZRHC0","Hindustan Petroleum Corporation Limited","RS No 17/2, Suramangalam Main Road, Bodinaickenpatti, Salem","11.6687431","78.1224278","true"
"ChIJzeCJLXnwqzsREtAiPlBHeXI","Hindustan Petroleum Corporation Limited","SF No 259, 2A3, Steel Plant Road, Rasi Nagar, Jagir Ammapalayam, Salem","11.6802166","78.1143919","true"
"ChIJyxzFv2rwqzsR3dqAj8SNLD4","Vijaya Auto LPG Station","23, Meyyanur Main Road, Meyyanur, Salem","11.6659762","78.1323225","true"
"ChIJOexKNjzwqzsR3uqcITwla_E","IndianOil","Ward No E8, TS No 20, 1B, Suramangalam Main Road, Pallapatti, Salem","11.657941","78.137024","true"
"ChIJ0d3nN4HwqzsR5g-BJ_cAxiA","Nayara Petrol Pump","S No.219/1 & Patta No.22, Village, Subbarayan Nagar, Jagir Ammapalayam, Salem","11.690338","78.115832","true"
"ChIJw2igboLwqzsR9HFv4TdHoFY","CNG FILLING STATION - Swarnambigai Fuel Service","near Radisson Hotel, S.F.NO.150/2A, National Highway 44, Ammapalayam","11.6934495","78.111788","true"
"ChIJSU20rBP7qzsRDRGwTqqYZ2k","Bharat Petrol Station","SALEM STEEL PLANT ROAD,MARAMANGALATHUPATTY, Salem","11.6691737","78.04565629999999","true"
"ChIJ4f8kCBP7qzsRSm1VrKf5kJs","Hindustan Petroleum Corporation Limited","Ground Floor, near Steel Plant, Steel Plant Road, Salem","11.6683491","78.0451882","true"
"ChIJc33-gEnwqzsRDTJjVwD_H7E","IndianOil","Lock No 13012, Ramakrishna Road, Salem","11.667776","78.150673","true"
"ChIJMR6G_1HwqzsRWuFTTMYVlHU","RUKMANI TRADERS Bharat Petrol Bunk","5, Sarada College Road, Ponnandigounder Nagar, LRN Colony, Hasthampatti, Salem","11.6765049","78.1506349","true"
"ChIJOTcm4crxqzsREr1Zp6G5PiI","Hindustan Petroleum Corporation Limited","Ground Floor, Cherry Road, Salem","11.6629957","78.1580609","true"
"ChIJ3XbpB83xqzsRiYP8xueQyK0","KSR & Co Bharat Petroleum Corporation Limited","Cherry Road, I Agraharam, Salem","11.6565218","78.1592665","true"
"ChIJV5GFQ03wqzsR2bCjFr6gA_Q","IndianOil","Lock No 22007, 22 A/36, Sarada College Road, Hasthampatti, Salem","11.675845","78.15551099999999","true"
"ChIJR8SzViVTqTsR3bliwL3F__U","HP PETROL PUMP - T.MANOHARAN","Mettur Dam, 24/160, East Street, Salem","11.6769837","78.1642924","true"
"ChIJidEntan7qzsR3UQxgOwzwOE","Bharat Petroleum Petrol Pump , AMMAN ARUL AGENCY","SIDDHAR KOVIL MAIN ROAD,PANANKADU, PO, Sivathapuram, Salem","11.652826","78.09916199999999","true"
"ChIJ00cyQAD7qzsRCcS-fLTB4-c","Inden Gase Agency","opposite Ayyannarapan Kovil, No 2/416, Siddhar Kovil Road, Sivathapuram, Salem","11.6514981","78.1069035",""
"ChIJrfwrAcX6qzsRcap1tf19mck","IndianOil","Sy No 75/1, Vedukathampatti, Andipatti","11.6534908","78.0792926","true"
"ChIJ4xTF9wTwqzsR8aVKkpS9lHc","IndianOil","SF No 73/2, Siddharkoil Main Rd, Kandhampatty","11.649049","78.11928979999999","true"
"ChIJbZ5_dmHxqzsRmBRi_i9DAQs","Thirumalaivasan","Thirumalaivasan M, Kandhampatty","11.649131","78.11950879999999","true"
"ChIJEZzw-d3xqzsRRMcwvsWu13U","Thavasi","near RTO Office, Bypass, Kandhampatty","11.6491499","78.1196082",""
"ChIJZaz-HgD7qzsRil58XXsqxFI","Aavin Indian oil bunk CNG BUNK","MDR439, Thalavaipatti, Sithanur, Salem","11.670306","78.085491",""
"ChIJP_pI7oX6qzsReXTGGHsvHbU","IndianOil","S No 66/3, Mallamooppampatty, Salem","11.678849","78.100266","true"
"ChIJc7anBm3wqzsRC6dADGGggYs","SRI VARALAKSHMI FUELS","National Highway 44, Thiruva Kavundanur, Salem","11.666564","78.124665","true"
"ChIJL5vfII3xqzsR_R3VE-aN4Pc","Bharat Petroleum, Petrol Pump -Rowther & Co","Subramania Nagar, Suramangalam, Salem","11.6725901","78.12016870000001","true"
"ChIJJ9HbACTxqzsRyneflQX7vEo","KPNFUELSERVICE","SANKAGIRI, Main Road, Neikarapatti","11.6769539","78.11886230000002",""
"ChIJi6qXV336qzsRcLsrrkUUh2Q","JKP Water Tank","M3PX+6X5, Sundhar Nagar, Old Suramangalam, Salem","11.685511","78.0999887",""
"ChIJf5bn8zLxqzsRhY8VW2Dh8Mw","Mm car auto electricals","opposite 3 Rd, 6 jaya nagar petrol bunk, opposite 3 Rd, Mayanur, Meyyanur, Salem","11.6663568","78.13159759999999","true"
"ChIJtS1RaFrxqzsRjweltaOX8gM","Power gen Engineers","opp. Sivaraj Holiday Inn, No 15 sudarson Plaza, opp. Sivaraj Holiday Inn, Junction Main Road, Salem","11.675568","78.1266545","true"
"ChIJ0z-D-GXwqzsRW-XKoiGM7oM","IndianOil","Lock No 13011, Yercaud Main Road, Salem","11.675472","78.127136","true"
"ChIJ5Q8tkQHxqzsR95eiiBr1wyE","Hindustan Petroleum Corporation Limited","305, Suramangalam Main Road, Salem","11.6590979","78.1359212","true"
"ChIJbZoWKRjwqzsRsVvrIbd3BoA","IndianOil","449, Narasimman Road, Shevapet, Salem","11.6515374","78.138058","true"
"ChIJ8YUxNfvxqzsRGRwhsjkOGnM","AS Petroleum (Bharat Petroleum)","Steel Plant Road, Jagir Ammapalayam, Salem","11.6842188","78.1190713","true"
"ChIJjQ1W7fHxqzsRjR8ax2d3WG0","Hindustan Petroleum Corporation Limited","120, Cuddalore Main Road, Ammapet, Salem","11.6608049","78.19216519999999","true"
"ChIJ2yx9x6_xqzsR2CM83sKb_dA","Bharat Petroleum BP Petrol Bunk","Kannankurichi Main Road, Gurukkal Colony, Johnsonpet, Salem","11.6783905","78.1659436","true"
"ChIJB4utlR7yqzsRbSSlXjp26wY","IndianOil","Cuddalore Main Road, Ammapet, Salem","11.6631471","78.2062438","true"
"ChIJ737lzwbxqzsRwON27sKrA1A","IndianOil","No 5A, Lock, opposite Govt ITI, LG/7095, Yercaud Main Road, Salem","11.691435","78.162666","true"
"ChIJ1YtYstrxqzsRddbiv2I_mUg","Bharat Petroleum, Petrol Pump -K.S.K Agencies","Gorimedu","11.6943469","78.1633677","true"
"ChIJda9kSBbyqzsRdYxzL8U2MU0","Santhi Auto Agencies H P","NH 68, Udayapatti, Udayapati","11.6661217","78.2169183","true"
"ChIJ6Y8aOzDyqzsR3_Jv0Mvb4AY","IndianOil","SF No 228/1B, Sukkampatti, Kuyavan Kadu, Veeranam","11.6808806","78.2140879","true"
"ChIJPThkq0HyqzsRBGqx1lKC6kA","IndianOil","No 2/159, Masinaickenpatti, NH 68, Ulundurpet Rd, Salem","11.6708049","78.227997","true"
"ChIJ1VGaFVzxqzsR7Q5Zo_-XAio","Apps Trading Conpany V Market","No.3, Mel Bose Maithanam","11.6519097","78.16027079999999","true"
"ChIJ6YZxwCbxqzsRZMlDKDl2OZI","Hindustan Petroleum Corporation Limited","Ground Floor, V Market Road, Salem","11.6541326","78.1597453","true"
"ChIJ9_6fv7rxqzsR61eKG2sFAzA","IndianOil","Lock No 13013, 105, Salai Road, Salem","11.6600766","78.1691792","true"
"ChIJ-Q_bp8PxqzsRyOoBzeFiCS4","Bharat Petrol Pump","AMMAPET, Salem","11.6578642","78.1755968","true"
"ChIJTUusicbxqzsRhZvNPU8p8Z4","Hindustan Petroleum Corporation Limited","near Railway Gate, 33, Salai Road, Salem","11.6612755","78.17085809999999","true"
"ChIJg9lL6hPxqzsRiFU0yKt2HPc","Bharat Petroleum, Petrol Pump -Subramaniyam Pillai Traders","Maravaneri, Salem","11.6620524","78.1640554","true"
"ChIJg6jbf8vxqzsRuVxN3Hdnv4o","IndianOil","No 5, Lock No, 2008, Town Railway Station Road, Attur","11.659937","78.1589664","true"
"ChIJS_oGr8zxqzsRmL5GE-BIfCs","IndianOil","Ward No B, Block, TS No 9, 18, Bretts Road, I Agraharam, Salem","11.659301","78.156937","true"
"ChIJvcFzDjHwqzsRMe22ggosvE0","IndianOil","Lock No IG7103, PB No 910, Seetharam Road, Arisipalayam, Salem","11.657359","78.148842","true"
"ChIJvSBlTV_xqzsRmqbLN8dP_Ck","THE SALEM DISTRICT CONSUMERS COOPERATIVE WHOLESALE STORES LTD","Thammannan Road, Salem","11.6570765","78.14830169999999",""
"ChIJZWG3nirxqzsR5Lx9Qw7nnDY","PONNI COOP SUPER MARKET","No.1, Chathiram, Salem","11.6605453","78.1482216",""
"ChIJzwRYaQDxqzsRivYkTn_P-OE","ABIRAMI TRADERS","M52Q+3RG, National Highway 79, Salem","11.6501968","78.1895804",""
"ChIJDxrRAC_xqzsRFUWlLABUpRI","VIHAL ENTERPRISES","70A/127,Bg Road, Sankari Main Road, Sandaipettai, Shevapet, Salem","11.6515958","78.14231029999999",""
"ChIJ8crqhpLxqzsRg0JxbBh0pLA","IndianOil","No 4E Ward No, Ts 4, Door, C/20, Omalur Main Road, Swarnapuri, Salem","11.664597","78.145805","true"
"ChIJseNtyfTxqzsRCgyMlbUTHYQ","Bharat Petroleum, Petrol Pump -Sri Vari Fuels","Suramangalam Main Road, Salem","11.6550517","78.1404582","true"
"ChIJe4oOuRvxqzsRYCRhluj2ivQ","Hasthampatti roundana","M5G5+6VF, Sarada College Road, Hasthampatti, Salem","11.6755524","78.1596806",""
"ChIJ1RxOejvwqzsR0T7e4UOLCbg","Hindustan Petroleum Corporation Limited","Ground Floor, Leigh Bazar Road, Arisipalayam, Salem","11.6557701","78.13985009999999","true"
"ChIJ9b82orLxqzsRyxTYXYNQOx8","Hindustan Petroleum Corporation Limited","Ground Floor, Cherry Road, Hasthampatti, Salem","11.6762421","78.1577181","true"
"ChIJ0ZXi74zyqzsRcGawnjYF9po","Hindustan Petroleum Corporation Limited","Ground Floor Ramalingapuram, Chinnakavundapuram","11.6676951","78.2552972","true"
"ChIJLxmsfAXzqzsRgBGehvHf-j8","Hindustan Petroleum Corporation Limited","S No 98/4B, Harur Main Road, Salem","11.7030481","78.25719289999999","true"
"ChIJXWNdzEWNqzsROWJDLwd3844","Sivasakthi Traders Bharat Petroleum","NH 68, Salem - Ulundurpettai Highway, Mettupatti","11.6651091","78.3072012","true"
"ChIJsS3XXwDzqzsRruBBB4uGsQQ","⛽ BHARAT PETROLEUM RADHAKRISHNAN ENERGY STATION RK BUNK","near Notre Dame School, 49, near Notre Dame School, Gundukallur, Udayapatti, Salem","11.6609495","78.2188049","true"
"ChIJxQroH3jvqzsR8GQLkJ8z7rM","SHRI SIVASAKTHI FUELS","Sy. No 8/1C, Attur Main Road, Udayapatti, Salem","11.6661782","78.21692709999999","true"
"ChIJzdnBbgDzqzsRJBpW-GYhRk0","Satheesh Fuel Point(Bharat petroleum)","M6GX+G7F, Vazhapadi","11.6763197","78.248161","true"
"ChIJWQcxKBnyqzsR6BR_5fbWZFU","Reliance Petroleum","18/13A1 & 38/1A2 & 38/1B, Attur Main Road, Adhikarippatty, Udayapatti, Salem","11.665701","78.2099901","true"
"ChIJP51pXv3zqzsRVXWm8rQwXes","Nayara Fuel Station - Shanmugam Traders","Shanmugam Traders, 223/1A2, 223/1B, Vazhapadi","11.665485","78.26524839999999","true"
"ChIJxXpCBgDzqzsRFo9cO62mB_A","MANIMEKALAI FUEL PARK","CHENNAI HIGHWAY, Salem","11.6661403","78.26788189999999","true"
"ChIJTxEV8irzqzsR0iGMMtjwP9M","Bharat Petroleum, Petrol Pump -R R K Fuels","Veeranam, Salem","11.67748","78.210398","true"
"ChIJJ0OfegDxqzsRUtG5c64f0yg","Hindustan Petroleum Corporation Limited","Ground Floor, Block No 29, Ward AL, Ammapet, Salem","11.653256","78.1969889","true"
"ChIJN1m1ff_yqzsRQ6nYFDjq_MU","Bharat Petroleum - SRI MR Raahgul Agencies - BPCL","M6QX+83P, State Highway 18, Salem","11.688344","78.2477036",""
"ChIJMyncd4nxqzsRVUBO0sV9bQ8","Hindustan Petroleum Corporation Limited","SF No 144, 4A & 1444C, Thathampatty Road, Allikuttai, Salem","11.6735873","78.19916649999999","true"
"ChIJJYoCJlHzqzsRcvF_pu1TclQ","IndianOil","SF No 31, 4A, Belur, Vazhapadi, Minnampalli","11.686043","78.2691801","true"
"ChIJEzp1LyLzqzsRJb45f8ejWBM","Nayara Petrol bunk","P63W+868, Pallipatti Road, Valasaiyur","11.7032829","78.2455821","true"
"ChIJdwnfU3aNqzsRr2izuV1tjQY","Hindustan Petroleum Corporation Limited","S No 126/4A2B, Valapadi, Karumapuram","11.664571","78.29938299999999","true"
"ChIJjQ4qaiuNqzsRIgG5OgMZG14","IndianOil","S No 10, 4 5A, Agrahara Nattamangalam","11.6890336","78.2947331","true"
"ChIJ3eJwWXpzqzsRRQFEYGKTXR8","IndianOil","SF No 3/3, Iluppanatham, Salem","11.6862584","78.17395599999999","true"
"ChIJJ2OVGSz6qzsRXL-IvMptQoA","IndianOil","Lock No 13019, near Govt College of Engg, Kottagoundampatti, Salem","11.722192","78.07035499999999","true"
"ChIJQwwbYRz6qzsRLN_Nl8Ybyac","IndianOil","SF No 193/3, Omalur, Chettichavadi, Karuppur","11.7257542","78.0962538","true"
"ChIJyUL9K_r5qzsRz1-9E27rpvY","Hindustan Petroleum","","11.7361857","78.10191929999999","true"
"ChIJhS-rffz4qzsRQ_gv6csygo0","BHARAT PETROL BUNK","Omalur Taluk NH-7, Bangalore Main Road, Salem","11.7759534","78.0558503","true"
"ChIJGVSCGn_7qzsRNf09aOqET40","Bharat Petroleum Petrol Pump","Karuppur","11.7117052","78.0927083","true"
"ChIJ4zsIF2r7qzsRYT20S0dfWfU","Bharat Petroleum - TVS Dealership","P36Q+67P, Saminaickenpatti, Salem","11.7105804","78.0882058",""
"ChIJbVtEzQX7qzsR2Ui4h1HEqCg","Bharat Petroleum sri Bharathi Agency","Service Road, Vellakalpatti, Salem","11.7029796","78.1009007","true"
"ChIJ3wpHq1_7qzsRUTk54FnxIis","AD BLUE / DEF OIL DISPENSER","Bharat petroleum, Dalmia Board, to, banglore highway, Vellakalpatti, Salem","11.7028483","78.10078089999999",""
"ChIJkxQkC4X7qzsRAEkhO_zBYCA","Nayara Petrol Bunk - Shri Nalli Agencies","P433+8JX, Vellakalpatti, Salem","11.7032566","78.104227","true"
"ChIJe_YghkT5qzsR5Iy4c0KmuAw","ESSAR PETROLEUM, Fuel Station, Vellalapatti","P4W2+85W, Salem","11.7458514","78.10045749999999",""
"ChIJV31Jk-X5qzsRjZc1fWUwCEw","Raajam Fuels","P4W2+86R, Unnamed Road, Vellalapatti","11.7458585","78.1005186","true"
"ChIJ1w0MwTv7qzsRt2zcbaMo9I0","Nayara Fuels - Jothi Murugan fuels Dealer","Bus Stop, Narayanampalayam Pirivu Road, Mattukaranoor Road, Venkaynoor, Karuppur","11.725722","78.0668786","true"
"ChIJnbrkGy3xqzsRp8LQaymQiTs","IndianOil","Ground Floor, Jagir Ammapalayam, A.Ayyamperumalpatti","11.6933065","78.1119042","true"
"ChIJLSvNDs35qzsRT7yCK5SgofM","IndianOil","No 143/1B1143/3A, Omalur, Chettichavadi, Vellalapatti","11.7496926","78.10476280000002","true"
"ChIJ3ezsqnX5qzsR8bqiKTGSmyc","Hindustan Petroleum Corporation Limited","No 44, 3/A/2/A, Vellalapatti","11.7531763","78.10236450000001","true"
"ChIJdcrRi8_xqzsRwIKTbPeoQ-o","MANI PUREGAS DISTRIBUTORZ (LPG) / Aegis Puregas(LPG) Dealer.","Mamangam, opp. SKS Automobiles, 3/5, Omalur Main Road, Salem","11.6914684","78.1151318","true"
"ChIJIen2Et77qzsR8Aiond-yrR4","IndianOil","Survey No 168, 4B2, Attukaranur, Pagalpatti","11.6965728","78.0613049","true"
"ChIJR8jesEfwqzsR42ddccUSphc","IndianOil","Omalur Main Road, Narasothipatti, Salem","11.6830414","78.1247499",""
"ChIJ6yAIBmPwqzsRkBVB_yZiXo8","Sri Ranganathar & Co","Omalur Main Road, Narasothipatti, Salem","11.6830414","78.1247499","true"
"ChIJ1ZFUquDxqzsRa2WlLKWNg38","Biggybusiness","Salem","11.6897632","78.1364889",""
"ChIJ7dT7hy77qzsRGhDFMGhwIc4","Bharat Petroleum Petrol Pump , N.S.R. & CO.","PAGALPATTI, PO, Salem","11.7034816","78.04893109999999","true"
"ChIJO0lYQG_5qzsREwbD-27kT2w","Hindustan Petroleum Corporation Limited","Ground Floor NH 7, Deevattipatti, Omalur","11.7403871","78.0493","true"
"ChIJFaohmGfwqzsR0Qj8qlZ512E","IndianOil","Lock No 13004, near 5 Road, Omalur Main Road, Salem","11.677671","78.13243899999999","true"
"ChIJ6xFfZHL7qzsR2HeIRe6hifo","Hindustan Petroleum Corporation Limited","S No 126/2B1, 126/2B2, Omalur, Chellapillaikuttai","11.708689","78.040224","true"
"ChIJRRNNi675qzsRPDLtwVi-lsc","Bharat Petroleum, Petrol Pump -Shri Selvam Agency","OMALUR TOWN, Salem","11.7516771","78.04790510000001","true"
"ChIJXyBrr0LwqzsRe4wAMYikGnU","Hindustan Petroleum Corporation Limited","5, 5 Road, junction, Meyyanur, Salem","11.6750631","78.13409539999999","true"
"ChIJzcUavOj5qzsRpbLteU36oVE","Hindustan Petroleum Corporation Limited","No 55/21, Omalur, Pottipuram","11.7763257","78.0736855","true"
"ChIJpWP_m1z5qzsRcFZcvf7_LbM","IndianOil","S F No 152, 2A 3, Mettur Main Road, Omalur","11.7369931","78.03708879999999","true"
"ChIJDZP0Ixv7qzsRXv4jA8qLnz0","IndianOil","opposite Steel Plant Road, SF No 120/4, Irumbalai, Maramangalathupatti","11.6715107","78.0571825","true"
"ChIJrX-IOxv5qzsRxyjAl4smkxg","IndianOil","SF No 82/3B 82/4D 93/1, Kamalapuram NH 7, Rd, Bengaluru","11.765436","78.053238","true"
"ChIJ-4HOF2LxqzsRj6Yn455X23o","Laxmi Diesel Service","Sarada College Road, Salem","11.6761319","78.1469288",""
"ChIJcbCGaQDxqzsRS2Cl-LkZCIE","Hindustan Petroleum Corporation Limited","Ward E, Block 6, TS No 24/1, Kurumbapatti Road, Kombaipatti, Salem","11.7061028","78.1626979","true"
"ChIJy0qIVzH5qzsRKYkwGbiPxek","ANANDHA FUELS","115/1B1B1,Velagoundanoor, Tharamangalam main road, Omalur","11.7341918","78.03011649999999","true"
"ChIJqYDPFxPxqzsRpaAFuvFTmuA","Bharat Petroleum SRI KRISHNA ENERGY","Zoo main road, salem 8, Gorimedu","11.7147394","78.1662499","true"
"ChIJxVnyQNXxqzsR2-WeyLVri1U","IndianOil","opposite New Bus Stand Road, 323, Omalur Main Road, Hasthampatti, Salem","11.6676597","78.14238999999999","true"
"ChIJWVMWZ_DxqzsRSclbuSNS3i4","SRISHITHA & COMPANY","Adivaram Road, Yercaud Foot Hills, Kondappanaickenpatti, Salem","11.7168065","78.17774469999999",""
"ChIJL1DAbwDxqzsRWLhptKKEanY","Indian oil petrol Bunk","P58H+M5M, Kondappanaickenpatti, Salem","11.716695","78.1779466","true"
"ChIJx2TZToHxqzsRDhhJcfj8WtQ","IndianOil","TS No 164/1A1, 164/1A2, Kondappanaickenpatti, Salem","11.7082412","78.1760951","true"
"ChIJ__-jDxPxqzsRcN4YiQzjoYc","Annapurna Agencies","5A, Yercaud Main Road, Anna Nagar, Salem","11.7034455","78.1769503",""
"ChIJ6x0wQgDxqzsR5qO-EhGUk_o","Bharath Petroleum","law college, 159, Yercaud Main Road, busstop, Salem","11.6993405","78.1666735",""
"ChIJ9Z3siyrxqzsRm-PQiMIMzok","IndianOil","SF No 33/1C, Kannankurichi","11.695788","78.176514","true"
"ChIJH7DxNADxqzsR6nd01qt8MV4","Freedom filling station","Yercaud Main Road, Hasthampatti, Salem","11.6833333","78.16110730000001","true"
"ChIJp-zHTEbwqzsRiiDxF3iVSWM","IndianOil","opp. Hotel Karpagam, 323, Omalur Main Road, Fairlands, Salem","11.6677125","78.1432145","true"
"ChIJ5akcx3jxqzsRuzg6NoQ2Fm4","SANTHA","No, 49/P267, Jalal Complex, Advaitha Ashram Road Near PNB, Salem - 636004, Salem","11.6657979","78.1413008",""
"ChIJ4991gKX0qzsR6yY6PsxxI08","IndianOil","SF No 17, 28B18/1&18/4, Kuppanur - Yercaud Ghat Road, Achanguttaipatti","11.7460965","78.2816732","true"
"ChIJa6fJoNH1qzsRCqukK-PZnjM","Bharath Petroleum","Kombaikkadu","11.7868631","78.2106859","true"
"ChIJzagjJMT1qzsRDb5SrEjeI0k","Bharat Petroleum Petrol Pump , VEDHAMBALL FUELS","HARUR, East Coast Road, VIA, Salem","11.743916","78.27929","true"
"ChIJWf3uDAD1qzsR4q622-4w9bA","Kuppanur bus stop","P7VJ+Q2G, Kuppanur","11.7444369","78.2800666",""
"ChIJYWSL7W6NqzsRlBQZUJYEdcQ","V S Thirupathi Agencies BPCL - Bharath பெட்ரோல்","Ayothiyapattinam - Belur - Kilakkadu Road, Sarkar Nattamangalam","11.6930395","78.29770239999999","true"
"ChIJzStj7H_2qzsRIBfG9mS9IM4","Hindustan Petroleum Corporation Limited","Survey No 71, Yercaud - Kanavaipudur Road, Ondikadai, Mundagampadi, Salem","11.7804216","78.2010165","true"