place_id,name,address,latitude,longitude,open_now
"ChIJdQIwa-m-qjsR1Sb-vR3BSMk","IndianOil","Lock No 627, Trichy Main Road, Vallam","10.7268189","79.0829991","true"
"ChIJIZStPzq-qjsRL_F3tHdD8J8","Hindustan Petroleum Corporation Limited","Survey No 189, 17 & 190/1, Vallam","10.7278904","79.035001","true"
"ChIJI-sGC9S-qjsRuRaRRvgdxaQ","Hindustan Petroleum Corporation Limited","Ground Floor, Melavasthachavady SIDCO Indutrial Estate, Trichy Main Road, Thanjavur","10.7377122","79.1053929","true"
"ChIJC33IezC_qjsRBZOwWwA-ZMY","HP PETROL PUMP - BR AGENCIES","Medical College Road, Rahman Nagar, Thanjavur","10.7562818","79.09892599999999","true"
"ChIJ87iQdq29qjsRLkA5AddNE8s","Hindustan Petroleum Corporation Limited","Ground Floor, NH 36, Thirukanurpatti","10.688281","79.07344599999999","true"
"ChIJ-61pxDG8qjsRvm53ThVcx9E","IndianOil","Lock No 11012, 221/2, Thirukkanoorpattis, Pudukkottai - Tanjore Road, Kurungulam","10.685361","79.072121","true"
"ChIJGShP2AO8qjsRDV3-binD-qQ","Bharat petroleum (Amman Enterprise) Thirukanur Patti 4 Road","4 road Thirukkanur patti, Thirukkanur Patti, Thanjavur","10.7055116","79.0851821","true"
"ChIJrbhead2_qjsRxNnBxc8RO7k","Abinaya agency NAYARA PETROL BUNK","17,18,19 thiruvalluvar nagar, Vallam","10.7197909","79.0705705",""
"ChIJw9-rDOS-qjsRI_ujmY_dwUg","IndianOil","No 155/B3, Chennampatti Main Road, Pillayarpatty, Vallam","10.736284","79.08013199999999","true"
"ChIJucXGdgy9qjsRQ85qS-hx_-c","IndianOil","Ground Floor, Pudukkottai - Tanjore Road, Ponakulam","10.6463326","79.0456397","true"
"ChIJS2BjcXmVqjsRPjjMWKjc6aY","IndianOil","S No 126/2, Opposite Sastra University, Thirumalaisamudram","10.7309386","79.01860529999999","true"
"ChIJhbGkX0u_qjsRCxcomTgAe6Q","MPVR PETROLEUM","near Tidel park, Melavasthachavadi, Thanjavur","10.7377161","79.10539399999999","true"
"ChIJ1dR4px25qjsRafwjgBIPlM0","Hindustan Petroleum Corporation Limited","173 Nagapattinam Bye Pass, NH 67, Nanjikottai, Thanjavur","10.7382056","79.1192138","true"
"ChIJGfdBxQC_qjsRzCdY1_k5WCk","Hindustan Petroleum Corporation Limited","Ground Floor, Medical College Road, Rahman Nagar, Thanjavur","10.7567354","79.0989851","true"
"ChIJq6qqari7qjsRlNwxYq2nQ0U","Hindustan Petroleum Corporation Limited","Ground Floor, Vallam - Orathanadu Main Road, Marungulam","10.678421","79.1318695","true"
"ChIJ5wD4ALe5qjsRsJDo1ixxyXs","NAYARA ENERGY-Abirami fuels","Sekaran Nagar, Natarajan Nagar, Annai Sathya Nagar, Thanjavur","10.7463089","79.1151197","true"
"ChIJCYImn06_qjsRqonPth3SyT0","NAYARA PETROL BUNK.SAHANA AGENCIES","#3, Medical College Road, Rahman Nagar, Thanjavur","10.7581244","79.1005352","true"
"ChIJcU-3dRy9qjsRiAu_E5UP5zo","Hindustan Petroleum Corporation Limited","Survey No 31, 6/A/2, Gandarvakkottai, Pudunagar","10.6294584","79.0378929","true"
"ChIJIT4KOMW4qjsRmIBshc5CV9Q","Bharat Petrol Pump","Q43C+WPM, Pudukkottai Road, Kavery Nagar, Natchathira Nagar, Thanjavur","10.7548427","79.12181249999999",""
"ChIJE1pQDse4qjsRqSCgy19pbQM","COVAI LPG - AUTO GAS - THANJAVUR","OLD HOUSING UNIT BUS STOP, NEW BUS STAND ROAD, Thanjavur","10.764043","79.12437","true"
"ChIJGfUQubC7qjsR3uy0sE1FOTo","IndianOil","SF No 12, 1A, Orathanadu Road, Marungulam","10.6710725","79.1448338","true"
"ChIJYR5r0925qjsRXryYayI1dWc","IndianOil","Ground Floor Karambakudi, Mdr, Nanjikottai, Thanjavur","10.7343384","79.137824","true"
"ChIJ6Va_LAC5qjsR7CekHvU8rEs","Jio-bp","Survey No 202, 6C3 & 182/6A2, National Highway 83, Nanjikottai, Thanjavur","10.740659","79.12767699999999","true"
"ChIJKVTE69O4qjsR8xUsr-1n2Fk","Hindustan Petroleum Corporation Limited","opposite New Bus Stand, RS No 270/2, Neelagiri","10.7500528","79.1142227","true"
"ChIJ-T-fFvm5qjsRzNRD1zajimA","Bharat Petroleum, Petrol Pump -D. Balasubramaniam (New)","MC ROAD, THANJAVUR, Thanjavur","10.7547424","79.1218626","true"
"ChIJlVVJt8q5qjsRg5KD9Wj6EM8","Bharat Petroleum, Petrol Pump -Serajpur Auto Gas Centre","NO 1 SERAJPUR, NK Road, Thanjavur","10.7558323","79.1399978","true"
"ChIJP898C225qjsRrG0HfUtrcgs","Hindustan Petroleum Corporation Limited","SF No 283/1A5, VP Garden, AVP Azhagammal Nagar, Thanjavur","10.7573882","79.11855729999999","true"
"ChIJXSpxcVi4qjsRcnil4_wxxMI","IndianOil","S No 204/4, Vilar Tanjore, Bypass, Regunathapuram","10.757634","79.15515719999999","true"
"ChIJ2TVKQ8a4qjsR5f5-10ijsqg","Reliance Petrol Pump","Nirmala nagar RESIDENTIAL AREA, Thanjavur","10.7620628","79.12307450000002","true"
"ChIJs4RV9ky5qjsREe9RqBn3L3M","SANTHI FUELS BPCL petrol pump","1st street, Villar Road, kalaignar nagar, Thanjavur","10.7620854","79.147869","true"
"ChIJhRDwtZq5qjsRAi_D3evCZeY","IndianOil","Lock, 11035, NK Road, Ganapathi Nagar, Thanjavur","10.7667017","79.14019110000001","true"
"ChIJe14XAL25qjsR0QemDRV4Z0I","Hindustan Petroleum Corporation Limited","Ground Floor, NK Road, Thanjavur","10.766884","79.140743","true"
"ChIJHR0WIO2wqjsR6mx14x9w7_U","BEST FUELS-HP Petrol Bunk","M6FF+F6J, Thanjavur - Karaikudi - Kalaiyarkoil - Sayalkudi Road, Ulur West","10.6737138","79.223028","true"
"ChIJ45bT3Ue4qjsRQqJrZcTarM0","IndianOil","Lock No 13027, No, near Yagappa Chavadi, 555/1C2, Thanjavur - Pattukkottai Road, Azhiavaikal, Keelavastasvadi, Thanjavur","10.7113727","79.2075642","true"
"ChIJD7rBTbK3qjsRXBkA-j4kbWs","BEST FUELS HPCL DEALER, MELA ULUR, THANJAVUR TO PATTUKOTTAI ROAD","MELA ULUR THANJAVUR, TO, Thanjavur - Pattukkottai Road, Orathanadu","10.711743","79.20719179999999","true"
"ChIJO8HZeeexqjsR1KvBYr-lEy4","Bharat Petroleum Petrol Pump , S.V.AGENCIES","NO 137/7 &137/3B, TO, Thanjavur - Pattukkottai Road, Mela Ulur","10.685953","79.2187","true"
"ChIJwx9AFPuxqjsR4cz3i7DWkr8","Hindustan Petroleum Corporation Limited","No 94A/2B2, 3B/15, Thanjavur - Pattukkottai Road, Mela Ulur","10.6777834","79.2213179","true"
"ChIJZRSkUjy3qjsRo6B1tlf3y10","IndianOil","Survey No 38/12B2, Vandayarriruppu","10.7222703","79.2304736","true"
"ChIJSzHG-CW5qjsRuczj5orrPi8","Bharat Petroleum - SIVAPREETHA FUELS","P5QR+8VV, Paruthikottai","10.7391235","79.1926472",""
"ChIJoQR_c7i5qjsRxBCZgZc2saE","Bharat Petroleum","P5VW+XVF, Thanjavur - Kodiakkarai Road, Thanjavur","10.7449416","79.19717279999999","true"
"ChIJoetrGDG3qjsRgO_Kde64qnY","Wahab Brothers","SF No 270/9B1, Sadaiyarkovil, Raghavambalpuram","10.7152673","79.25442129999999","true"
"ChIJYd0WTrG4qjsR0VmWS4PXh4s","Bharat Petrol Pump பாரத் எரிபொருள் நிலையம்","Q4C8+MFF, Medical College Road, Prabha Nagar Extension, Sundram Nagar, Thanjavur","10.7716874","79.11617679999999",""
"ChIJ-3ITf5q_qjsRFjJG7YFQ-b4","IndianOil","RS No 180/4, Alakkudi, Kallaperambur","10.771782","79.05330699999999","true"
"ChIJgXp_ORfBqjsReV_egRjOZMs","Sekar Agencies","No.8, karambai, Vannarapettai","10.7898982","79.0869408","true"
"ChIJfy2ESgC_qjsR3Ry4iMQvxis","HP Petrol Bunk - JBS Agencies","4A, Reddipalayam Road, Natarajapuram North, Gandhipuram, Thanjavur","10.7710897","79.1069967","true"
"ChIJK3NnFwDBqjsRebCmIal7olQ","Bharat petroleum, petrol pump -SKM Agency","new bypass peacock road, new -sa, Sakarasamatham, Ramanathapuram Chief","10.8034545","79.0967943","true"
"ChIJJ3Dg6XW5qjsR-D7rEd2u_Uk","Hindustan Petroleum Corporation Limited","SF No 374, 10, Medical College Road, Thanjavur","10.7741597","79.121033","true"
"ChIJC5CQ_Lq4qjsRo-KOpIXGkbM","IndianOil","No 1 & 2, Lock No 11013, Medical College Rd, Jayalakshmi Nagar, TPS, Ganapathi, Thanjavur","10.7749255","79.12368029999999","true"
"ChIJhZUxDpy4qjsRx483g9aLHWI","IndianOil","Lock No 588 & 12006, Rtd 186, Thanjavur - Kumbakonam Main Road, North Gate, Thanjavur","10.7837122","79.1388955","true"
"ChIJqdYmTp24qjsR-BlhJk3Nff0","Bharat Petroleum, Petrol Pump -Bharat Agency","near indian bank, THANJAVUR TOWN PERIPHE, near indian bank, Kollupettai Street, Keelavasal, Thanjavur","10.7879368","79.1435309","true"
"ChIJ7cMf23y4qjsRoA7uczj0g3g","Hindustan Petroleum Corporation Limited","No1, Nagapattinam Road, Jothi Nagar, Thanjavur","10.7790115","79.1583021","true"
"ChIJiyad4mXHqjsRkKthUP8TpA8","IndianOil","Lock No 12007, Rtd 184, Thanjavur - Kumbakonam Main Road, North Gate, Thanjavur","10.7990209","79.137835","true"
"ChIJ2w7f0JC4qjsRD7Nj4YP8BKY","IndianOil","Lock No 603, RTD 182, Trichy Road, VOC Nagar, Thanjavur","10.775103","79.138391","true"
"ChIJ-2eFZJC4qjsRczBsF1RDcoc","Low Bridge","Lower Bridge, Graham Nagar, Shivaji Nagar, Thanjavur","10.7774979","79.14127959999999",""
"ChIJgShMdpC4qjsRPKsDeMRVuIw","IndianOil","No 2889, Lock, 11014, Srinivasam Pillai Road, North Gate, Thanjavur","10.7773601","79.1418801","true"
"ChIJdcua95u4qjsR17o1dZaJtU8","Hindustan Petroleum Corporation Limited","33, Court Road, Thanjavur","10.7829283","79.1385907","true"
"ChIJWwuGMeO5qjsRAnqoCGUtYH4","Bharat Petroleum, Petrol Pump -Sri Srinivasa Service","Q5H3+9PH, RING ROAD JN, TANJORE, State Highway, 99A, Evergreen Nagar, Thanjavur","10.77812","79.154426","true"
"ChIJ7-gQaizHqjsRSqP7i6-ywN4","IndianOil","Ward No 4, Block 3, Sy No 67/1 68 & 69/2, Cooperative Bldg, Theru, Thanjavur","10.7950811","79.13280220000001","true"
"ChIJVY7fwfnDqjsRnefFXKW2BU0","GKM Fuels","Ground Floor, Thiruvaiyaru, Ichangudi, Ariyalurma, Ayyanar, Kovil Street, Thanjavur","10.7934582","79.1470575","true"
"ChIJd5CxhmbHqjsR1OeHfthWFTI","Bharat Petroleum - Tanjore Filling Station","India","10.7966391","79.1374402","true"
"ChIJGwTiLWTHqjsR_3_A6eotx0k","TCMF LTD.,","India","10.7966381","79.1385607",""
"ChIJWzxW8idZVToRrQ0dDkPksEI","IndianOil","Lock No 21016, 14, Cutchery Road, Arisikara Street, Thanjavur","10.7806319","79.1702224","true"
"ChIJAxVy-STHqjsRkt8H-zQ7FNQ","Bharat Petroleum - SRI FUELS","Q5W6+FFX, Thanjavur","10.7962308","79.161237","true"
"ChIJZ0i8ZGzHqjsRlDv8hO2-SXc","Hindustan Petroleum Corporation Limited","Ground Floor, Gandhiji Road, Karanthai, Thanjavur","10.807701","79.138701","true"
"ChIJn9l-9sjHqjsRGICs7WuhFTo","IndianOil","opposite Kodiyamman, S No 3077/1, Rajaveedhi, Tanjore, Vayalur, Karanthai, Kalimedu, opposite Kodiyamman, Selliamman Kovil Street, Thanjavur","10.8111784","79.1391663","true"
"ChIJd5cQW0vHqjsRn9LCMo5Bq8c","IndianOil","Ward No 1, Block No 56, TS No 2010, 2030 & 2031, Palliagraharam, Thanjavur","10.8250658","79.1414348","true"
"ChIJoVRfpBq3qjsR6zBdxLrXj8I","Hindustan Petroleum Corporation Limited","Survey No 31/1 to 31/3 Papanasam, Raramuthirakkottai","10.7831746","79.2022877","true"
"ChIJUcE_xPq3qjsRW881RbtwNWY","JSV Fuels","Alangudi Bit","10.7818694","79.21031169999999","true"
"ChIJJ6AsMAC3qjsRa700ksXmJT0","BPCL PETROL PUMP Muthu Agencies","Q7H7+X2, Poondi I","10.7808181","79.2625497","true"
"ChIJF71a3bzBqjsRFSzKltBtvBM","Hindustan Petroleum Corporation Limited","Gr Floor, Thirukattupalli, Road Thiruppanthuruthi, Kandiyur","10.8599864","79.0744187","true"
"ChIJSeux6nHBqjsR7L330yV2UB0","HP PETROL BUNK - VV & SONS AGENCIES","HP Petrol Bunk, Road, Thirukkattupalli","10.8602182","79.0858135","true"
"ChIJjVxoCdrDqjsRtnX62xsRa-w","Bharat Petroleum Petrol Pump , SAGAYAMADHA PETROLEUM","PERUMPULIYURTHILLAISTANAM","10.8768594","79.08987809999999","true"
"ChIJDRvG5bTGqjsRAsc0-PYjk_A","IndianOil","Ground, Brahmasira Kandeeswarar Kovil, Thiruvaiyaru","10.8576916","79.1115825","true"
"ChIJV1_o3gnHqjsRzFu0gXPoXmc","IndianOil","Ground Floor, Thiruvaiyaru - Thanjavur Road, Kandiyur","10.8540142","79.1146065","true"
"ChIJkQ3U8vPBqjsRVHjZifusIK0","Hindustan Petroleum Corporation Limited","SF No 17, 2 Mukasa, Thiruvaiyaru, Kalyanapuram","10.8748526","79.10447169999999","true"
"ChIJDYUY3FXBqjsRrsy2Jr0qh2U","Arasabakaran Petrol Bunk","V4F3+XQ8","10.8749056","79.1044539","true"
"ChIJKzpT-f7DqjsR3_JGXHnqdrQ","Bharatgas","India","10.8795761","79.1065104",""
"ChIJA5ovUofpqjsRxRs--GhBObk","sathanur /maharajapuram","Sathanur","10.8767603","79.0156789","true"
"ChIJz8ojOf_DqjsRVn-RtM4NNGU","Shruthi Petrol Bunk","State Highway 22, Thiruvaiyaru","10.8811811","79.10805789999999",""
"ChIJPxSFD_7pqjsRgDf01IlFCng","Nayara Energy","State Highway 22, Maharajapuram","10.8764268","79.0094393","true"
"ChIJwSYWDO3tqjsRSO-fPuySwGQ","IndianOil","S No 194/1D & 193/1, Maharajapuram","10.8758432","79.00769629999999","true"
"ChIJcTZtPmrCqjsRQ4fbJxJK7FE","Suseela Agencies","Kandiratheertham","10.9009223","79.03998899999999","true"
"ChIJv6psnRTDqjsRjJz4F2yoIdc","Hindustan Petroleum Corporation Limited","Ground Floor, North Street, Thirumazhapadi","10.901021","79.03989419999999","true"
"ChIJRQGGWJzpqjsRCX8Ty1tu2-o","Valli Fuels","main road, Maharajapuram","10.8741756","79.0030269",""
"ChIJz4tLdOfFqjsRa_1O3lKmlX8","Bharat Petroleum","National Highway 45C, Pasupathikoil","10.8873097","79.1786499","true"
"ChIJUzBcU3LHqjsRoAorACDbZko","Nayara Petrol Bunk","Vayaloor, Narasanayagipuram","10.8390706","79.14848959999999","true"
"ChIJ_wN2sUvGqjsRVc3jxEZsh0M","Sridevi fuels Bharat Petroleum","Thittai","10.838032","79.174188","true"
"ChIJvU0huRXFqjsRumi2QppGNVU","NAYARA PETROL BUNK","Thirupazhanam","10.887352","79.12685379999999","true"
"ChIJ6Z8r_e_FqjsRPCyxC_oSwps","Hindustan Petroleum Corporation Limited","No 5, Railway Station Road, Ayyampettai","10.891205","79.1885521","true"
"ChIJj3pXL_DFqjsRjyd9ZO1b48c","Nissia Bharat Gas Agencies","1, Venkatraman Nagar, Ayyampettai","10.8955743","79.1921876","true"
"ChIJ0y2lMczJqjsRzfZ0x59GAfA","Bharat Petroleum Petrol Pump , SIVA AGENCIES","789 MAIN ROAD,SALIAMANGALAM, VIA, Thanjavur","10.824376","79.26993499999999","true"
"ChIJN81t42nJqjsRToTEgFSZxhY","Bharat Petroleum","R7C9+4WP, Irumbuthalai","10.8203497","79.2698295",""
"ChIJD5ACYfXFqjsReZKQ9sFH54M","Bharat Petroleum Thiyagu Quality Fuels & NAB","W53R+99X, Ganapathiagaraham road, Ayyampettai","10.9036713","79.1912301",""