place_id,name,address,latitude,longitude,open_now
"ChIJ5-jSaO2zsjsRejQ2dJAcFx4","Hindustan Petroleum Corporation Limited","Ground Floor, Chandragiri","13.5788416","79.311173","true"
"ChIJJaRAMIqzsjsRQMPjrHW0Bc8","Petrol Pump","Chandragiri","13.5887554","79.3175744","true"
"ChIJ-cZRhe2zsjsR7l7gEHPRjcA","IndianOil","No 12016/56, SH 61, Chandragiri Fort Road","13.5785085","79.3087491","true"
"ChIJM65qQr60sjsRJS0uQt3tf2g","Hindustan Petroleum Corporation Limited","near Cherlopalli - Alipiri Road, Sy No 135/2 Tirupati, near Cherlopalli - Alipiri Road, Chandragiri Road, Pudipatla","13.611536","79.35977299999999","true"
"ChIJgRc20sC0sjsRk51S2StjIkc","Bharat Petrol Bunk","J997+774, Alipiri Bypass Road, Saibaba Colony, Thatithopu, Cherlopalli","13.6181347","79.3632123",""
"ChIJ_2jqkRy1sjsR0GHTfHmHh8k","IndianOil","Survey No 27/C2 Chandragiri, Thondavada, Perumallapalle","13.5926001","79.3333","true"
"ChIJ2ZY91vi1sjsRlv9gJb1cLRY","Nayara Petrol pump","11/2A, State Highway 61, Akkarampalle, Chandragiri","13.5943644","79.33709499999999",""
"ChIJ6Xr8CwCzsjsRrG1DTswqfSA","Chandragiri sir bypas","H8Q8+693, Chandragiri","13.5880077","79.3159343",""
"ChIJF7O82uGzsjsRySqudXzyiRo","SMR The Best, BPCL dear/PETROL/DIESEL /CNG/120 KV EV/Adblue PumpStation","NH 140 Tirupati, to, Bangalore Road, Chandragiri","13.5787835","79.30132189999999","true"
"ChIJUXnI_eBNTToRkiK0G1CNaqY","Bharat Petroleum Petrol Pump , ROOPADEVI FILLING STATION","SY.NO.126, C. RAMAPURAM VILLAGE,TIRUPATI - PATCHIKAPULAM ROAD","13.5547198","79.40130979999999","true"
"ChIJIefIpyVNTToRR025sRt_dAo","Hindustan Petroleum Corporation Limited","S No 112/4C, RC Road, Ramachandrapuram, Tirupati","13.5507326","79.400987","true"
"ChIJi9CpJXC1sjsRrwMfbfiV6iA","SLV FUEL STATION-2","SLV FUEL STATION COMPLEX, Srinivasa Mangapuram Road, Pudipatla","13.610252","79.3399069",""
"ChIJ1VJplia1sjsRVpDs9aBrUoQ","Nayara Petrol Bunk","J86R+62C, Pudipatla","13.6105622","79.3400032","true"
"ChIJL11St9O1sjsRvsM1BMlgoPk","Bharat Petroleum Petrol and CNG station","J86P+63H, Chennai - Anantapur Highway, Kaluru","13.610557","79.3352215",""
"ChIJXbmp_EBNTToRkKeMqW0ewpM","KRR FILLING STATION","76/1, Ramachandra, puranam, C Ramapuram","13.5661133","79.4049752","true"
"ChIJHeK0V7-0sjsRqrCGTTwBdWA","IndianOil","Lock No 141, Alipiri Bypass Road, Tirupati","13.615481","79.363226","true"
"ChIJXVTA1TVNTToRpJBBlgGUV8w","IndianOil","Lock No 11, Survey No 153, A P H, B Colony, Chiguruwada South Khandriga","13.584224","79.4081559","true"
"ChIJPxrMLQC1sjsRGccr4epag1g","Hindustan Petroleum Corporation Limited","near Tirupati, Survey No 441, Mittapalem NH 71, Chandragiri, near Tirupati, Madanapalle Road, Narasinga Puram","13.615718","79.311269","true"
"ChIJCyL68jRLTToR5YeYgRLup7c","IndianOil","Lock No 3, AG collg, SV Agricultural College, 2/57, chandragiri road, Vidya Nagar Colony, Tirupati","13.6207936","79.3827158","true"
"ChIJCeYJSlJLTToRESe8entID0w","Bharat Petroleum Petrol Pump , SARAVANABAVA FILLING STATION","SY.NO.571, Chandragiri - Nagaiahgaripalli Road, Chittoor","13.621891","79.383768","true"
"ChIJdf5G_kuxsjsRm4BbCfjeUJ0","Hindustan Petroleum Corporation Limited","near Naidupeta, Ground Floor NH, Chandragiri, near Naidupeta, Puthalpat Road, Ithepalli","13.5790847","79.2786382","true"
"ChIJPyRq3ZlLTToRxzC7Uw8wpyo","Hindustan Petroleum Corporation Limited","No 1/10, Tiruchanoor Road, Srinivasapuram, Srinivasapuram, Padmavati Nagar, Tirupati","13.6147149","79.4359656","true"
"ChIJ_Xh9CgxLTToRCVSBk09u6BM","IndianOil","Survey No 228, DN Choultry, 1, Air Bypass Road, Padmavathi Nagar, Tirupati","13.622774","79.419681","true"
"ChIJ0cEMaaFLTToRXYwsh9RkTDo","Bharat Petroleum Petrol Pump","JCFJ+427, Old Tiruchanoor Road, Ashok Nagar, Tirupati","13.622798","79.4300426","true"
"ChIJpTdEHqRLTToRA-k8YXP6C9Y","IndianOil","Lock No 108, DN Choultry, Chittoor, Ramanuja Circle, Tirupati","13.6255142","79.4313872","true"
"ChIJVVTdEwhLTToRhJX0YOpHkxw","HP Petrol Bunk","19-9-41/B, Old Tiruchanoor Road, Kennedy Nagar, Ashok Nagar, Tirupati","13.6259396","79.43063149999999","true"
"ChIJXwAj-aRLTToRnt5t4IOJ4AA","Hindustan Petroleum Corporation Limited","1/A2/B7, Renigunta Road, Tirupati","13.6262655","79.4333005","true"
"ChIJa1OmJABNTToRaz4Wj2OuT3A","Nayara Petrol Bunk","HCMQ+V64, TT Road - Challavaripalli Road, Kuntrapakam","13.5846382","79.43808990000001",""
"ChIJa8Cy4rtLTToReaI02iU_uC4","Nayara Petrol bunk","JC39+V6M, Tirupati Bypass Road, Ambedhkar Colony, Vedantha Puram","13.6037897","79.4189822","true"
"ChIJ1-CtgExLTToRoX_F5htvM9k","Hindustan Petroleum Corporation Limited","Ground Floor, Park, near Avilala, RC Road, Avilali","13.609791","79.41330099999999","true"
"ChIJjzsp_u1LTToRkLMP9iME40Y","VKRR FUEL STATION","JC67+55J, Tirupathi Kothapallimitta Road, Ambedhkar Colony, Avilali","13.6104689","79.4129001",""
"ChIJe1d1PF5LTToR2ctCVR55M8Y","IndianOil","Survey No 93, 393/493/5, Avilala, Avilali","13.6109436","79.4132776","true"
"ChIJh_jJZQZLTToRXHWVLZahi7M","IndianOil","Sy No 236A, Lock No 143 Padi, Tiruchanur","13.599108","79.457937","true"
"ChIJVfgVb05LTToRTtK_sAi7hsE","Bharat Petroleum, Petrol Pump -K.G.N Company","Tiruchanoor Road, Tirupati","13.6118979","79.44153349999999","false"
"ChIJ0SA_5G9LTToRsCbziHacJ3I","KGN COMPANY BPCL","JC6R+QMC, Tiruchanur, Alivelu Mangapuram","13.6119334","79.44163209999999",""
"ChIJCYITyitLTToRddCNR0Rl4_o","Diesel Doorstep Delivery in Tirupati","Tiruchanoor Road, Tirupati","13.6128091","79.4484525",""
"ChIJ9ccgT6ZNTToRQ0CANue305c","Hindustan Petroleum Corporation Limited","Sy No 150/B, Pudi Road, Padipeta","13.5959497","79.4691888","true"
"ChIJ66oN6EJLTToRV8xxan3Q4YM","Ponnu MNM Petro Station Indian Oil","Tiruchanur, Konkachennaiahgunta","13.6129363","79.4520635","true"
"ChIJAZFu0Z1LTToRDeUYiX0LdEM","Hindustan petrolium","JCFC+3Q8, beside eega wines, Air Bypass Road, Bairagi patteda, Tirupati","13.6225624","79.4220332",""
"ChIJg3QrJN1LTToRfoMe6AvV4vM","Naga Sesha Sai Quality Fuels, Bharat Petroleum","Air Bypass Road, STV Nagar, Tirupati","13.6225737","79.42382049999999","true"
"ChIJ7TzTF-VLTToRHW1Qjpt1W94","Bharat Petroleum, Petrol Pump -Seven Roads Filling Station","TIRUPATHI 7 RD JN., CHITTOOR","13.6239864","79.435358","true"
"ChIJobV6kUNLTToRhkM0IjLybRM","Hindustan Petroleum Corporation Limited","No 19, near Ramanuja Circle, 3/16/A, Tiruchanoor Road, Tirupati","13.6259023","79.430775","true"
"ChIJ6YwP4GRLTToRY3YfZwKJGDw","IndianOil","Survey No 326/1A2/1, Tiruchanur, Padi","13.6210869","79.4527069","true"
"ChIJRcnOEwhLTToRDWLu7XhSZ5Q","Pasuparthy Petroleum Company (Bharat Petroleum)","near Gandhi Circle, 200, Tirupati Road, T P Area, Tirupati","13.6289617","79.424258",""
"ChIJCfJM839LTToRwXWHj6JPLx4","IndianOil","Lock No 269, D N Choultry, Tirupati","13.629416","79.424308","true"
"ChIJy6ZJYtZOTToR1Aqyh8i7Xdc","IndianOil","Lock No 9 Athur,Gajulamandyam, Near RTD 172 Km, Tirupati","13.5926698","79.5127756","true"
"ChIJ_2n79blPTToR0qAbPm0SIf8","IndianOil","Lock No 21 SV Puram, Vadamalapet, Appalayagunta","13.537288","79.527821","true"
"ChIJIbIBLtpLTToRLTwu5-Feeqk","Hindustan Petroleum Corporation Limited","Ground Floor, Tirupati Bypass, Renigunta, Thukivakam Rural","13.6172817","79.4927235","true"
"ChIJ6c0g7ytPTToRIhgavTNztJw","IndianOil","Survey No 92/1A, Kayam, Vadamalapeta, Desireddigaripalle","13.563287","79.495143","true"
"ChIJdwvmRStPTToRmaesiBR6tMg","Hindustan Petroleum Corporation Limited","Ground Floor, NH 716, Tirupati - Nagari Road, Vadamalapet","13.5631944","79.51655559999999","true"
"ChIJ89AQwThPTToRErQciKP8cQI","Bharat Petrol Bunk","HG39+X93, Unnamed Road, Ammavaripatteda","13.5548863","79.518408",""
"ChIJu1ydNgpPTToRaESHNw6m3BQ","Nayara Petrol filling station","HG2P+XCW, National Highway 716, Srinivasapuram","13.5524799","79.5360934","true"
"ChIJSf-FfQBJTToRLQ7ityhSgyg","CNG","JF8P+F93, Tukivakam","13.6161818","79.4858138",""
"ChIJyWzm5BpLTToRH9B-8fYUi9c","Hindustan Petroleum Corporation Limited","Survey No 935/1, opposite Mahathi Auditorium, 293, Kola Street, Balaji Colony, Tirupati","13.631832","79.412084","true"
"ChIJ8YweJAFLTToR2KYOH6DbL_0","IndianOil","Lock No 184, Chittoor,DN Choultry, Tirupati","13.636444","79.422246","true"
"ChIJV9L4Kmq1sjsRRVwW7mxwN7w","IndianOil","D N Choultry, Lock No 12022/56 Tirumala Hills, Tirupati Urban","13.6755637","79.3506938","true"
"ChIJv21Q2YO1sjsRyKH0606aGVg","Hindustan Petroleum Corporation Limited","Ground Floor, beside New D Type Quarters, Outer, Tirumala Outer Ring Road, Chittoor","13.677364","79.35376699999999","true"
"ChIJk5-Z9VlLTToR5oiCCKCAzAA","IndianOil","Survey No 893, The Superintendent of Police DN Choultry, Tirupati","13.6330422","79.4136056","true"
"ChIJm34AVudLTToRYPcYQUXZuVQ","SRI VIJAYALAKSHMI ENTERPRISES","JCM8+68P, Bazar Street, Varadaraja Nagar, Tirupati","13.6330755","79.4158272","false"
"ChIJdwPK0fZLTToRW_4UzH9RSqw","IndianOil","Lock No 114, KT Road, A P Housing Board Colony, Tirupati","13.6428801","79.4187042","true"
"ChIJe_FRsX1LTToRPORjTudWdI8","IndianOil","Door No 4042, Lock No 146, D N Choultry, Old, Mahaveer Road, Tirupati","13.633599","79.421046","true"
"ChIJ05buLQFLTToR85YOGDEuIsA","Petrol Pumps","575, 1 A, Tilak Road, Mallaiah Gunta Katta, Tata Nagar, Tirupati","13.6364835","79.4222619",""
"ChIJWUQfS_hKTToRZP-mGOzUOw0","IndianOil","D N Choultry, Lock 31 K T Rd, Bypass, Rd, Tirumala, Tirupati","13.6506582","79.4231239","true"
"ChIJvWne1vlKTToRwnccrpo-xRU","IndianOil","Lock No 183, Rtc Bus Stand, KT Road, DN Choultry, Tirupati","13.6519575","79.4225806","true"
"ChIJ327Zrk1KTToRD9GQlLquQ4M","Hindustan Petroleum Corporation Limited","Ground Floor, Karakambadi Road, Akkarampalle, Tirupati","13.6450818","79.4387615","true"
"ChIJ3cpkDUxKTToRWkIqvQDiQjY","IndianOil","L No 194, D N Choultry, Road, Mangalam, Tirupati","13.646297","79.441394","true"
"ChIJfQXsEQVJTToRnluttze5WGQ","Hindustan Petroleum Corporation Limited","Ground Floor, Ranigunta, Tirupati Road Industrial Estate, Chettypalli, Renigunta","13.6330739","79.4846678","true"
"ChIJY6JvO1VKTToR1_-mU6GbWwM","IndianOil","Lock No 187, DN Choultry, No 13/6/600/44/99, 211, Peddakapu Colony, Chittor","13.6424612","79.4272806","true"
"ChIJsRGmV6xLTToR_PCAStJZ3Zo","Venkat Residency","Kadapa - Tirupati Road, Akkarampalle, Tirupati","13.644224","79.43800619999999",""
"ChIJ09VRznRLTToRHhkmT13Iqd4","P VIJAYA KUMAR","Shop No.2, Road, Mangalam, Tirupati","13.645185","79.43845429999999",""
"ChIJYVsfgh9LTToR1zPE0busEzc","Essar Petrol Pump","JCWV+P99, Mangalam, Tirupati","13.646788","79.4434801","true"
"ChIJb-KWSjJLTToRI6ykjgsuAwo","Shell petrol station","Karakambadi Road, Tirupati","13.648151","79.445594","true"
"ChIJ5yDXK19LTToRsL5EH3lv55E","Bharat petroleum","JCXX+J79, near D mart, Karakambadi Road, Tirupati","13.6490418","79.4482328",""
"ChIJl5XDA8VLTToRZnTAlKe8Yvc","S. Saleem Basha Diesel & Petrol Works","India","13.6286648","79.4567361",""
"ChIJrfXssGJJTToRWti0UgamD7Q","P Madhusudan Bharat Petroleum","Chadalawada nagar, Chittoor, NH-205, Renigunta - Tirupathi Road, Renigunta","13.6314241","79.47127189999999","true"
"ChIJKRzwyxJJTToResBWuKXbBKw","Bharat Petroleum, Petrol Pump -Pasuparthypetroleum Company Renigun","RENIGUNTA( PPS -TIRUPATI R, CHITTOOR","13.6330292","79.4818167","true"
"ChIJc6nBUABJTToRZzu1DkWBXFU","Hindustan Petroleum Corporation Limited","Ground Floor, TP Area, Renigunta","13.6427957","79.5129726","true"
"ChIJh41J1F5ITToRmqLIZlSqaik","IndianOil","near Renigunta, L No 29 30, G Palli, Guruvarajapalli, Chittoor,Athur, near Renigunta, Srikalahasti - Tirupati Road, Tirupati","13.649119","79.5324852","true"
"ChIJ2QKMsNZJTToRoIelgVmNIHY","IndianOil","Lock No 103, Renigunta Kodur Road, Karakambadi, Athur","13.6854087","79.5088327","true"
"ChIJfU0s8Q5JTToRSWbzWlSqxkg","IndianOil","Lock 189 Renigunta, Athur","13.6362576","79.5004549","true"
"ChIJh7IrlQFJTToRheTKSizb-24","Bharat Petroleum","India","13.6403589","79.51380999999999",""
"ChIJU3wRlQFJTToRbztU18gP9es","Sravani Filling Station","441/4c, Banglore-Kadappa, highway, Renigunta","13.6406675","79.5139095","true"
"ChIJNbxZGcdJTToRyJwtQxaCA_c","Hindustan Petroleum Corporation Limited","Ground Floor, Karakambadi Road, Chittoor","13.661478","79.486753","true"
"ChIJfaim6jFJTToRQWN_3vVAZT0","IndianOil","Lock No 113, RCR Avenue, Karakambadi, Attur","13.6678004","79.50548839999999","true"
"ChIJ1wVA3rRJTToRsrXAb0fS1rU","IndianOil","Lock No 129, Karakambadi Road, Athur, Tirupati","13.664892","79.513762","true"
"ChIJ8a7DTalITToRtM-RbJ2jAXA","IndianOil","Ground Floor, Papanaidupet - Gudimallam Road, Chellur, Vikruthamala","13.607721","79.555083","true"
"ChIJIdi4oXBITToRtj6CKb_Vh9Q","IndianOil","Lock No 190 Mallavaram, Renigunta, Athur","13.6583","79.5534","true"