place_id,name,address,latitude,longitude,open_now
"ChIJEQ2IlklgqjsR_F7A5Tx2LHI","IndianOil","No 3, Panjapur Nagamangalam, NH 45B Velan Thottam K Kallikudi, Craw Ford Col, Manikandam","10.7327671","78.6323027","true"
"ChIJkZmacB1gqjsRljjaPCTPxM4","Bharat Petroleum","Panjappur, Tiruchirappalli, NH-45B, Trichy Madurai Highway, Trichy, Tiruchirapalli","10.75785","78.656143","true"
"ChIJ--G-ESthqjsR8zShAAr97VY","IndianOil","Lock No 631, Manikandam","10.729701","78.632627","true"
"ChIJtU3qDLVhqjsRgFfLdsggzwA","Bharat Petroleum, Petrol Pump -R. Venugoap Reddiar","Pottapatti-Nagamangalam Road, Indira Nagar, Surappatti","10.7034016","78.624743","true"
"ChIJY9tZcTdhqjsRVvlX_Ba82k0","GO GAS","QM32+39J, Panjappur","10.7527017","78.65088430000002",""
"ChIJyf-iUSVhqjsRo-87LaVElg0","Nayara Energy Limited,fueling station (Arumai Ammal Agencies)","94/4A, 5A, Trichy-Maduri NH, Alundur Village, Tiruchirappalli","10.6842489","78.60972679999999","true"
"ChIJPS0tjIhhqjsRNgz14rF2AtM","Bharat Petroleum, Petrol Pump -Ramalingam Agencies","Trichy-Dindigul Road, Bharathiyar Salai, Sangillyandapuram, Tiruchirappalli","10.769018","78.619847","true"
"ChIJATo0tohfqjsRsFPed2fkjCc","Nayara Petrol Pump Natchatra Fuels.Trichy","K Kallikudi Road, Tiruchirappalli","10.7720962","78.6260655",""
"ChIJ7Vz5JQCLqjsRWRZC1tl9EjE","Bharth Petroleum - Ananth Agenciess","PMCQ+F6R, Trichy Bypass, Balan Nagar, Tiruchirappalli","10.7213992","78.688565","true"
"ChIJGSEzVACLqjsRYZLDU6w5p-c","LRS Fuels HP","78, Ramachandra Nagar, E.pudhur, Tiruchirappalli","10.7705883","78.6646717",""
"ChIJI_UWGgCLqjsR88xe057sbwg","Indian oil Petrol Pump","PM7V+8X2, Outer ring road, Tiruchirappalli","10.7132729","78.694884",""
"ChIJQxzYo2-LqjsRC-Aj-wObM3U","Hindustan Petroleum Corporation Limited","Ground Floor, Olaiyur Main Road, Udayanpatti, Tiruchirappalli","10.740271","78.6919116","true"
"ChIJ2e_B5yOLqjsRblXw8fUTyH4","Hindustan petroleum K T S Agency","Olaiyur Main Road, Tiruchirappalli","10.7401119","78.6921364","true"
"ChIJu1BGallfqjsRkVVbMjwvgP4","Bharat Petroleum Petrol Pump , BP-CHOLAN NAGAR","ROADOPP TO DHINAKARAN OFFICE, TRICHY-DINDIGUL, Tiruchirappalli","10.7805632","78.63952119999999","true"
"ChIJfUejJIGLqjsRLKFN2cGAZ7o","Golden fuels bharat petroleum","K.K.NAGAR, TRICHY, Tiruchirappalli","10.7525025","78.69261379999999","true"
"ChIJBRrk2elZqjsRDWfmHbOAMJ4","IndianOil","behind Shivan Temple, No 454, 3rd Street, Thiruppainjili, Manachanallur","10.7662588","78.68586669999999","true"
"ChIJW5rHmcuKqjsRIgQp6k_osV8","IndianOil","No 32/12 Ward, AG, Block, New SF, 13, K, Sathanur Main Road, Tiruchirappalli","10.769612","78.684319","true"
"ChIJi53r1Uj1qjsRCwxTeemQku8","IndianOil","No 41 Anbil Dharmalingam Ngr, Edamalaipatti Pudur","10.780202","78.67417100000002","true"
"ChIJjxJJTdP1qjsR39L-Zf_FDDo","SVR Agencies Nayara Fuel Station","near Regional Transport Office Tiruchirappalli, 16/1A, TRICHY - DINDIGUL MAIN ROAD, near Regional Transport Office Tiruchirappalli, Pirattiyur","10.7909826","78.6483406","true"
"ChIJewPWJw-LqjsRtjW3sXTwfoQ","Hindustan Petroleum Corporation Limited","Ground Floor, Ramanathapuram Road, Sembattu, Tiruchirappalli","10.741727","78.7154255","true"
"ChIJW1veQCT1qjsRV-i9miUR4Uo","TVS Bharat Petroleum Pump","No.1,Chennai Highway, Service Road, TVS Tolgate, Tiruchirappalli","10.7875506","78.6951636","true"
"ChIJC2cfpiD1qjsRTLHi7Ijf0hM","Hindustan Petroleum Corporation Limited","Ground Floor, Bypass Road, Subramaniyapuram, Chennai","10.790301","78.702001","true"
"ChIJDTG5qNKLqjsRUNl1dp6_i2o","Perumal Agencies","Airport Near, Gundur","10.7291735","78.7192589",""
"ChIJs1MLsHKLqjsRRqUTa9IJsi0","IndianOil","Ground Floor, Tiruchirappalli","10.735995","78.7164006","true"
"ChIJ37uxmMyLqjsR1OG0H0odxGY","AMY FUELS","IOCL Coco, Gundur","10.7360128","78.7163832","true"
"ChIJuWoWMq2LqjsRxo1j7TuNKpM","IndianOil","No 282/9 T, S No 15/12 Ward Aw, Block 1, Kottapattu, Gundur","10.740408","78.71567399999999","true"
"ChIJTQSZIt-LqjsR0LGWG03bHD0","SREE KRISHNA AGENICES, HP Petrol pump + CNG Bunk","National Highway 336, Mathur","10.6946986","78.734693",""
"ChIJD2aXcNmLqjsR9p-uIZf5HFs","Bharat Petroleum, Petrol Pump -Roshan Enterprises","MATHUR( TRICHY- PUDUKOTTAI, PUDUKKOTTAI","10.686106","78.73616609999999","true"
"ChIJFasYFs-NqjsRbHLr6Avbnxs","IndianOil","Sy No 310/1 Navalpattu, Tiruverumbur, Anna Nagar, Tiruchirappalli","10.734521","78.755026","true"
"ChIJ4T5p6Sj1qjsRp1jsnfLeNOE","Bharat Petroleum, Petrol Pump -Raja Agencies","GANESHAN NAGAR TRICHY, Tiruchirappalli","10.7753026","78.6848143","true"
"ChIJN3QPItb0qjsRFcY2txocmpI","Indian Oil","India","10.7799324","78.702671",""
"ChIJGRquM_31qjsR3xh8Ve5vhcg","Bharat Petroleum - Samy Agency","4/634, Ponmalaipatti Road, Thendral Nagar, Tiruchirappalli","10.7742275","78.73257869999999","true"
"ChIJQyCoBZ71qjsR_MQZoybhrYY","SAMY Agency","QPFM+M43, Ponmalaipatti Road, Thirunagar, Tiruchirappalli","10.7741329","78.73278619999999","true"
"ChIJ2TLpRZCNqjsR_mvsa5C3Fvo","Jeyam Fuels","AIADMK, 299, SEZ Trichy, near ELCOT, Silambarasan A, IT Park Road, Police Colony, Police Colony, Tiruchirappalli","10.7374707","78.7648608",""
"ChIJ96B46L-NqjsR-7Lt8OwVHdk","HP Gas","QQ26+Q8C, Sholamadevi","10.7519293","78.7607685",""
"ChIJlQRuBACJqjsRnCgVVw8h6jk","Hindustan Petroleum Corporation Limited","Ground Floor, Mathur, Illupur Road, Amburpatti","10.661478","78.676671","true"
"ChIJwVz0TCX1qjsRKuaYFkO63rQ","AGMI Petrol Pump","Trichy - Madurai Highway, Kaja Nagar, Edamalaipatti Pudur","10.7845861","78.6910312","true"
"ChIJdRPpxTr1qjsRI2UXRZ9g9Ak","IndianOil","Lock No 13002, Chennai - Theni Highway, Mannarpuram, Tiruchirappalli","10.785367","78.690094","true"
"ChIJ93nARAD1qjsRkKw7mWJYSYc","IndianOil","Lock No, 601 Tollgate, No 5, Sangillyandapuram, Chennai","10.7892055","78.6960434","true"
"ChIJM1RjGwD1qjsRyiNAQd58M5s","LPG TRICHY","Tiruchirappalli","10.78971","78.69892469999999",""
"ChIJSbnyeC-NqjsR6RM7Vv1hiL8","IndianOil","No 653 B3, Sidco Development Plot, Thuvkudimalai, Tiruchirappalli","10.7659276","78.80141569999999","true"
"ChIJrSxqzi6NqjsRTog5aZshDfs","IndianOil","Ground Floor Bhel Township, Thuvkudimalai, Tiruchirappalli","10.7689709","78.79916519999999","true"
"ChIJ5VQ_qzHzqjsRnT71BSNeWD4","IndianOil - SWAGAT","Ground Floor, NH-67, Thiruverumbur","10.7841998","78.77909439999999","true"
"ChIJ8dVCgjjzqjsR3ztA5mwLRaw","Alm Enterprises Bpcl Petrol Pump","49/7, Thanjavur Road, Thiruverumbur","10.7899566","78.7704191","true"
"ChIJS0Li9_iMqjsRI6mVH7xjXuE","OFT petrol bunk","PQMM+7H2, OFT to HAPP Road, Thuppaki Nagar, Navalpattu","10.7331317","78.7838794","false"
"ChIJw0DwDz6NqjsRCyCeTBAipTM","Hindustan Petroleum Corporation Limited","S No 100/4, Thiruverumbur","10.7567967","78.77329569999999","true"
"ChIJO1H6sMGMqjsRV_gariXvv-U","HP PETROL PUMP - SALAM FUELS","HPC Dealer S NO.100/4, Navalpattu Village Thiruverumbur, Tiruchirappalli","10.7568062","78.7733952",""
"ChIJ09d83S-NqjsRAVh6iPkjxG8","Hindustan Petroleum Corporation Limited","Survey No 702/2, Plot No D/C/2, Thiruverumbur, Thuvakudi","10.762159","78.80536359999999","true"
"ChIJvWpbVz-NqjsR-H8bY1TIM90","Sai shanthi agency BPCL petrol bunk","555/2 ganapathi nivas, Ayyampatti","10.7744927","78.80920739999999","true"
"ChIJ1YV9cDONqjsRW16pvmHxV6c","Bharat Petroleum","QRF5+RMP, Jeevanantham Street","10.7745982","78.80920809999999",""
"ChIJ800CffVfqjsRj-qy9uUjeH4","ARK Fuels- Indian Oil Petrol Bunk","No.5, Trichy, to, Dindigul Main Road, Pirattiyur","10.7912963","78.65672839999999","true"
"ChIJD40H3gVfqjsREqw2j0l1sAY","IndianOil","Sy No 126, 4, Vayalur Road, Kumaravayalur","10.820192","78.621437","true"
"ChIJycwJ8nj1qjsR8vphmzJltZY","IndianOil","Vayalur Road, Puthur, Thillai Nagar, Tiruchirappalli","10.814411","78.664703","true"
"ChIJ__9PrHL1qjsRgfl_-E5wpw0","KR Fuels - Auto LPG Station - Cantonment","KR Fuels, No:20, Lawsons Road, Cantonment, Tiruchirappalli","10.8058674","78.6793326","true"
"ChIJ-yf6Aw31qjsR06YMy3Z3wtk","Bharath Petrol Bunk.","100, 1, Bharathidasan Salai, Cantonment, Tiruchirappalli","10.8049515","78.6859301","true"
"ChIJ9QVG05n1qjsRFOqGtTQV3Ms","Sri Hari Computers","RMGG+XPG, Woraiyur, Tiruchirappalli","10.8274338","78.6768359",""
"ChIJpUH-rhD1qjsRKco-Xz-NdOI","Hp petrol bunk","Bharathiar Salai, Bharathiyar Salai, Sangillyandapuram, Tiruchirappalli","10.8008063","78.6894353",""
"ChIJ4aMEzK_1qjsRLR8H_ipQ1lo","IndianOil","Ground floor, near Maingaurd Gate, Theppakulam","10.8271667","78.6934034","true"
"ChIJ85G9hJ9fqjsRJRt88nNDpGQ","IndianOil","No 1/103A, Main Road, Somarasempettai, Tiruchirappalli","10.812219","78.63478099999999","true"
"ChIJh4Kf6udfqjsR0iEndW70woE","Bharat Petroleum, Petrol Pump -Sundaram Agencies","Rajiv Gandhi Nagar, Somarasampettai","10.8125205","78.6387549","true"
"ChIJ6V2QIbpfqjsR1rbWpCGjvk8","Hindustan Petroleum Corporation Limited","Ground Floor, Somarasempettai - Thogaimalai Road, Chunabukarenpatti","10.7990044","78.61261209999999","true"
"ChIJn4DMyYpfqjsR9dK-mJf6_QU","Sri Annadurai Fuels Bharat Petroleum","Tiruchirappalli","10.8154432","78.6286696","true"
"ChIJS60VBQZfqjsRM35ZwhnmT6c","Hindustan Petroleum Corporation Limited","Survey No 61, 4 & 61/5, Vayalur Road, Srirangam, Malliampathu","10.8150124","78.64904179999999","true"
"ChIJ9fyFBYJfqjsRyXnl0BoH4AA","Go Gas","RM72+X6M, Ram Nagar Street, Ram Nagar, MM Nagar, Tiruchirappalli","10.8149719","78.65053499999999",""
"ChIJ--qBSs71qjsR9wz_iknO2RU","MRC ENTERPRISES,INDIAN OIL PETROL STATION.MUTHAPUDAIYANPATTY., MANAPARAI","No20/4671,NH-45Trichy-Dindigul main road, muthapudaiyanpatty, Tiruchirappalli","10.7933747","78.67876989999999","false"
"ChIJR1D5G371qjsRk7SM4XLmocU","Bharat Petroleum, Petrol Pump -Ramanathan Agencies","Vayallur Road, Bhima Nagar, Sangillyandapuram, Tiruchirappalli","10.8142622","78.6720912","true"
"ChIJjZF9-z_1qjsR9ozeBBZtBsE","IndianOil","Lock No 583, No 2, Trichy-Dindigul Road, Tiruchirappalli","10.7940031","78.68039519999999","true"
"ChIJtbGeaxX1qjsREikOCI6Qi_E","Bharat Petroleum - YESODHAI PETROL BUNK","Reliance Apartments, Voc Road, Cantonment, Tiruchirappalli","10.796241","78.681082","true"
"ChIJpb6rFwBfqjsRo91dgDICoHQ","வாடாவூர் 10th cross","RMM4+GPG, Thillai Nagar, Tiruchirappalli","10.833811","78.6568149",""
"ChIJTeu3ngb1qjsRgZQZmXzv57M","IndianOil","No. 19B, 34, Warners Road, Cantonment, Tiruchirappalli","10.804556","78.68225110000002",""
"ChIJyfV04gz1qjsRb79zGx5oNV8","MK CONSTRUCTION","Municipal Office Road, Thillai Nagar, Tiruchirappalli","10.8083096","78.68148889999999",""
"ChIJEYUIeZf1qjsRt8nF3K6eHAE","IndianOil","Municipal Office Road, Cantonment, Tiruchirappalli","10.8083431","78.6815142",""
"ChIJ29VaA-P1qjsREOW1-VrtWc8","Bala Enterprises","No.9/1, TNJ Complex, Thennur High Road, Tiruchirappalli","10.8197401","78.675792","true"
"ChIJH6gfAlz1qjsRj8K3SgCMQLs","Hindustan Petroleum Corporation Limited","No 17A, 1, Promenade Road, Cantonment, Tiruchirappalli","10.8064729","78.6837742","true"
"ChIJK9uK1J71qjsRPUEz9Hw3VWU","Nayara Petrol Pump","Salai Road, Ramlinga Nagar, Woraiyur, Tiruchirappalli","10.8218599","78.6759663","true"
"ChIJVRrVv_X1qjsRtWBzurye-C8","GNC petrol bunk","RM4M+8W6, Tiruchirappalli","10.8057775","78.68476629999999",""
"ChIJ6d6qlBb1qjsR6m8YQixqB1Y","IndianOil","Bharathiyar Salai, Sangillyandapuram, Tiruchirappalli","10.7984043","78.6866684","true"
"ChIJXwyC3fH1qjsRcOEE0zc2lpM","GNC&SONS (P) LIMITED","Bharathidasan Salai, 2c, Promenade Road, Cantonment, Tiruchirappalli","10.8050263","78.68587339999999","true"
"ChIJUTNVhCT1qjsR_7UtLpkixZ0","Hindustan Petroleum Corporation Limited","Sy No 177/2, Block 9, Police Check Post, near Lingam Nagar, TS No 40, Kulumani Main Road, Selvam Nagar, Tiruchirappalli","10.8351658","78.6636664","true"
"ChIJhWBTZ4z1qjsRTKZMwYohJuk","H P","India","10.8350298","78.6639622",""
"ChIJW5DRK9H1qjsR2uOox28kJ8M","Hindustan Petroleum Corporation Limited","Melapudur, Sangillyandapuram, Tiruchirappalli","10.8000439","78.6878969","true"
"ChIJJw6v9_D1qjsRV48pc2_TbBw","Bharat Petroleum, Petrol Pump -A. G. Mohammed Ibrahim & Co","CANTONRMENT, TRICHY, Tiruchirappalli","10.8000947","78.68792309999999","true"
"ChIJ7Xza5v71qjsRRiOFt-vU1ws","Hindustan Petroleum Corporation Limited","49, Madurai Main Road, Sangillyandapuram, Tiruchirappalli","10.8007536","78.68941629999999","true"
"ChIJlefWAQD1qjsR3aAhwHAHrHI","Bharat Petroleum - CHETTINAD SERVICE","RM2R+75V, Nagapattinam - Coimbatore - Gundlupet Highway, Bharathiyar Salai, Sangillyandapuram, Tiruchirappalli","10.8007096","78.690479",""
"ChIJNexiuHpeqjsRFuKwBF4OUyg","Arumugam Agencies, Essar Oil Fuel Station","RH2H+RJ2, Allithurai Road, Viyalanmedu","10.8020172","78.57900339999999","true"
"ChIJN5qLH5j1qjsR56pcW4dM62g","IndianOil","27A, Salai Road, Woraiyur, Tiruchirappalli","10.827644","78.67818799999999","true"
"ChIJBQ1UaaH1qjsRJQPtZekJPHA","Hindustan Petroleum Corporation Limited","Ground Floor, 9A Cross Road, West Thillai Nagar, Tiruchirappalli","10.821212","78.68353300000001","true"
"ChIJ6z_NqKT1qjsRmVzEwCUWssI","Hindustan Petroleum Corporation Limited","Ground Floor, 74 A, Salai Road, Thillai Nagar, Tiruchirappalli","10.827301","78.68430099999999","true"
"ChIJE9eVDNteqjsR3lOB8xSNeVs","Hindustan Petroleum Corporation Limited","Survey No 169/1, Trichy Bypass Road, Srirangam, Kulumani","10.8429165","78.6025645","true"
"ChIJtbj-O_D1qjsR5eecZqSK-v4","Bharat Petroleum, Petrol Pump -Tajmahal Enterprises","SALAI ROAD, TRICHY, Tiruchirappalli","10.8273568","78.6856565","true"
"ChIJ1W6bpxz1qjsRRYmpABheQe8","DHEEPAM LAMP OIL","India","10.8052062","78.6966485",""
"ChIJ4za0GdD1qjsRlYor4yPYflc","Reliance Petroleum","SURVEY NO.303, _1A, [ OLD, NH 45B,NEW SURVEY NO.120, SOUTH, Kallikudi, Tiruchirappalli","10.8018608","78.6977713","true"
"ChIJG_suyf70qjsR12_lCDL71tw","Bharat Petrol Pump","4A1, Thanjavur Road, Tiruchirappalli","10.8136366","78.7074619","true"
"ChIJzY_iS_j0qjsRlDtOZPbSPrA","IndianOil","NH 45, Chennai Byepass Road, Tiruchirappalli","10.8150871","78.71188719999999","true"
"ChIJmWs55EPzqjsRa6LFSW5k1zM","IndianOil","Lock No 1224, SF No 45/5A & 45/5A3, Agaram","10.7929109","78.7642346","true"
"ChIJvycxMiv0qjsRsJA55Acp1GI","KR Fuels-Auto LPG Gas Bunk","No. 5/18 Plot No. 5 & 6, Trichy Chennai Trunk Road, Tiruchirappalli","10.8581919","78.7025589","true"
"ChIJ_76-xir0qjsR0aoYLRKqMcE","Indian Oil Petrol Pump","Trichy Chennai Trunk Road, Srirangam, Thiruvanaikoil","10.8602874","78.7032437","true"
"ChIJc-STlWP1qjsRMiSLAtlAYzQ","Hindustan Petroleum Corporation Limited","Ground Floor, Thanjavur Road, Varaganeri, Ariyamangalam Area, Tiruchirappalli","10.8055506","78.712199","true"
"ChIJq6oa8fn0qjsRJSlXcv_8SIg","KRG","Palpanai Pvt.Storage Godown, Ariyamangalam Area, Tiruchirappalli","10.812668","78.7126778","true"
"ChIJYX62Cvn0qjsRcgQb8ebZX5k","Hindustan Petroleum Corporation Limited","Ground Floor, Thanjavur Road, Tiruchirappalli","10.813301","78.71080099999999","true"
"ChIJRzX_l9n1qjsRuxqTMZ5Ah50","Bharat Petroleum, Petrol Pump -Subhaga Agencies","TANJORE RD.,NH45,TRICHY","10.8134284","78.7117513","true"
"ChIJNZcDqTr1qjsRrUUS-nmo-xY","Propel Auto LPG","Jayavilas building, Chennai - Trichy Highway, Viswas Nagar, Tiruchirappalli","10.8141621","78.7118145","true"
"ChIJr9-h2QD1qjsRyHrjh0EeQiw","Sri Murugan Oil Mark","India","10.8146671","78.6974673",""
"ChIJ97Dk6AD1qjsRaazEnnkCFKw","SKY MOONE OIL FACTORY","RM8X+479, Thanjavur Road, Tharanallur, Tiruchirappalli","10.8152783","78.69823869999999",""
"ChIJFfUC-vL0qjsRIexWYINco4E","Reliance Petroleum","Sf No 261, 1A & 1D1, Thanjavur Road, Tiruchirappalli","10.8090823","78.7225808","true"
"ChIJrxUw8JL0qjsRc_QzZu7ZE2E","IndianOil","S No 250/2A3 & 249/1, Ariyamangalam Area, Tiruchirappalli","10.8054508","78.7272081","true"
"ChIJg1HoyMz1qjsRvY-qhe_07SI","Freedom Filling Station- IndianOil Corporation","Gandhi market, Police Station, near Female, And, Sub Jail Road, Tiruchirappalli","10.8161766","78.6946651","true"
"ChIJi369JKv1qjsRo0rYN-HQwQ8","Hindustan Petroleum Corporation Limited","12, East Boulevard Road, Tiruchirappalli","10.820801","78.701301","true"
"ChIJr8iMZsX1qjsRez4dkAwvA7s","Bharat Petroleum - Sri Vela Fuels","RP2M+GVV, Oil Mill Road, Ariyamangalam, Vivek Nagar, Pappakurichi Kattur, Tiruchirappalli","10.8013998","78.7344432","true"
"ChIJS9ilYHH1qjsRoV3pMC0QIXo","IndianOil","No 1, Goodshed Road, Tiruchirappalli","10.8237415","78.6922671","true"
"ChIJkX8_5Zn1qjsRQx_wfAWtKxo","Bharat Petroleum - Annamalaiyar Enterprises","QPRV+42M, old, Manjathidal, Tiruchirappalli","10.7903423","78.7425622","true"
"ChIJ8e_HDgDzqjsRbZvSgn539w4","ACS ENTERPRISES - Bharat Petroleum","Tanjore Main Road, QQW4+9RV, Balaji Nagar, Raj Nagar, Maharishi Vedathri Nagar, Pappakurichi Kattur, Tiruchirappalli","10.7958519","78.7572654","true"
"ChIJsV_Adc_zqjsReiZj-La9gpM","Bharat Petroleum, Petrol Pump -R.G.R Enterprises","Pappakurichi Kattur, Tiruchirappalli","10.7986669","78.75177049999999","true"
"ChIJ91alO570qjsRlzWK0rmB2Bc","M S M Oil & Maliga","India","10.8004691","78.74669279999999",""
"ChIJ3zg0oenzqjsR-ojL0FegfMs","Bharat Petroleum - NSV Agency","RPVX+PRF, Kallanai Road, Kilamullakudy","10.8443044","78.7495558","true"
"ChIJHQEwMY_2qjsRPBkqIHjNXT4","IndianOil","Ground Floor, Trichy Salem Main Road Thiruvasi, Bikshandarkoil, Tiruchirappalli","10.8867721","78.660898","true"
"ChIJHfkXKANZqjsR3CmXttZgZyg","Hindustan Petroleum Corporation Limited","SF No 40/3, Trichy Musiri Main Road, Killiyanallur","10.8922482","78.60844159999999","true"
"ChIJNTlvZHH1qjsRxpY7Ch_jHpg","Nayara Energy Limited - CM Fuels","98/6A1, Karur Main Road, Kambarasampettai","10.8539456","78.6717201","true"
"ChIJC2bG4-v2qjsRyW3CT8nIHGQ","Hindustan Petroleum Corporation Limited","Ground Floor Bikshandarkoil, Koothur","10.8623163","78.68785849999999","true"
"ChIJwUQ3e6xZqjsRT4FjjHEbC5Q","IndianOil","No 309/2, Sholanganallur, Cholanganallur, Sirukambur","10.9089679","78.6081238","true"
"ChIJxR2BMmb1qjsRN_FYZkYQXis","IndianOil","Block No 38, Srirangam, Thimmarayasammuthiram, Tiruchirappalli","10.8483391","78.6899482",""
"ChIJGYSgkGP1qjsR2RGd3AUQoSg","Bharat Petroleum Petrol CNG Pump , BP TRICHY CITY","Karur Bypass Road, Annamalai Nagar, Tiruchirappalli","10.830884","78.686031","true"
"ChIJfwbar8_1qjsRTIbtaLEgmFk","IndianOil","Ward A, Block No 20, TS No 10, Chinthamani, Tiruchirappalli","10.836031","78.689826","true"
"ChIJu4MJx0L1qjsR30jXNK_7HDk","AVE Agency Best petrolium services","15/2/1, Kosamettu Street, Melachinthamani, Tiruchirappalli","10.8373304","78.6914029",""
"ChIJ3-81SF32qjsRx0Rh7ASEj3s","Hindustan Petroleum Corporation Limited","Survey No 192, Madhavaperumal Kovil, near Nochiam, 3C & 192/5, Manachanallur Main Road, Tiruchirappalli","10.884851","78.691401","true"
"ChIJewLGEsz1qjsRiNzY3NBG4IY","Ranganathan Petrol Pump Bharat Petroleum","RMWX+856, Trichy Chennai Trunk Road, Srirangam","10.8457754","78.697886","true"
"ChIJERde61X1qjsR3YvyHbbIHjk","Hindustan Petroleum Corporation Limited","Ground Floor, near Chettiar Firm, Thiruvanaikoil, Tiruchirappalli","10.851001","78.70020099999999","true"
"ChIJWw79zrX1qjsRl2Sz1NvnLEM","BNC","India","10.8371361","78.6975187",""
"ChIJ3QPrDDb3qjsRj42eAtJNlo4","Nayara Petrol Pump G.M.oil Agency, Thaneerpanthal,Mannachanallur- 620015","148/5d Essar petrol bunk, Palayur Thaneerpanthal","10.9218023","78.6687491","true"
"ChIJRbUVtVD2qjsRujLDFT6CLvs","IndianOil","S No 61, 1A4A Manachanallur, Thuraiyur - Tiruchirappalli Main Road, Kovathakudi","10.8961901","78.6965151","true"
"ChIJE23UZ9z3qjsRlA7Kpwc87yg","Bharat Petroleum, Petrol Pump -Pari Fuel Filling Service","No.1.Toll Gate, Tiruchirappalli","10.8737882","78.7077924","true"
"ChIJz17HEbz1qjsRUWPCAf0XODw","IndianOil","Srirangam, Ward No 3 Block 4 Chennai Trichy Main Road, Vellithiur Taluk","10.8579515","78.7122059","true"
"ChIJZcKfmlhvqjsRjlp6eVAS87w","IndianOil","Ground Floor, Byepass Road, Manapparai","10.851248","78.71354769999999","true"
"ChIJy0NqMY_2qjsRV_RY92bbsZI","IndianOil","Lock No 598, Near Coleroon, Bikshandarkoil","10.874849","78.708377","true"
"ChIJBVdRFy_3qjsRVb39hnkaD1c","Hindustan Petroleum Corporation Limited","2B2A2, 183, No 184, 11A & 183/7B, Ragavendra Nagar, Tiruchirappalli","10.875201","78.708001","true"
"ChIJgYMe_Uv0qjsRk-RoLX5V5DE","Hindustan Petroleum Corporation Limited","SF No 14/4, Anaicut Road, Devadanam, Sanjeevi Nagar, Tiruchirappalli","10.8351675","78.70591399999999","true"
"ChIJyyyaMfj1qjsRNt0GsmlTmxc","BPCL Petrol Pump Cng","RPP4+354, Odathurai Road, Sanjeevi Nagar, Tiruchirappalli","10.8351425","78.7054441",""
"ChIJZXjra9H1qjsRzwWcVIilglQ","IndianOil","Sy No 20/4, Ward No 3 Block, 17, Thimmarayasamuthiram, Srirangam, Tiruchirappalli","10.841161","78.72153899999999","true"
"ChIJt2Hz4Ov2qjsRSGmZzipVRwY","HP PETROL PUMP - ARUN AGENCIES","H P Dealers Bikshandarkoil Trichinopoly DT, Koothur","10.8902","78.7207","true"
"ChIJoaCDHVT2qjsRH6FzeaBSwZ8","Bharat Petroleum","India","10.9011622","78.6975631",""
"ChIJW7UydwDxqjsRfmHY1hNFFKw","Kulithai","VPFX+MFR, Valadi","10.8744498","78.7490072",""
"ChIJ4RSd2pzxqjsRj96WxdsbL3U","Essar","VQF2+P7Q, National Highway 81, Valadi","10.8743382","78.750749","true"
"ChIJK0k4zav3qjsRLcJnm6M5bjE","Bharat Petroleum - Mani Service","WM6X+9QJ, LF Road, Manachanallur","10.9109634","78.6993883",""
"ChIJA5HwEwD3qjsRI82knjivTK0","Bharat Petroleum","WM6X+CQ4, LF Road, Manachanallur","10.9110162","78.69944029999999",""
"ChIJP-qIUezxqjsRxjRpD07A5nQ","IndianOil","RTD 52, Poovalur Road, Lalgudi","10.880372","78.818929","true"
"ChIJkd4ztbHxqjsRsgiO3GEwWz0","Bharat Petroleum, Petrol Pump -MRV Supplies","LALGUDI, Tiruchirappalli","10.881355","78.8195282","true"
"ChIJ196IbOzxqjsRISgyIxtq8Ls","Hindustan Petroleum Corporation Limited","141, Poovalur Road, Lalgudi","10.881801","78.819701","true"
"ChIJFYJ9mb_vqjsRf15-4sbgtHI","Hindustan Petroleum Corporation Limited","Ground Floor, Anbil Road, Lalgudi","10.876108","78.840847","true"
"ChIJd88sIeHxqjsRBoDuGYzaXyc","Hindustan Petroleum Corporation Limited","Tiruchirappalli, No 52/2A, 52/3A Peruvalanallur West, Lalgudi","10.9082142","78.82266709999999","true"
"ChIJ-8-KkST3qjsReWBzElAQoFU","Win Power","India","10.9164629","78.73167049999999",""
"ChIJ1_swuyP3qjsRlIDO5iE4OC8","IndianOil","No 84/4C, Manachanallur Road, Marudhur","10.9148852","78.7287085","true"
"ChIJ7-lQbfHtqjsR4KuXHTi77kE","essar petrol bunk","RRPV+428, Kallanai - Thiruvaiyaru Road, Koviladi village","10.8352877","78.8425724","true"