place_id,name,address,latitude,longitude
"ChIJ182ofVeEXjkR9y48JI9JoVk","Hindustan Petroleum Corporation Limited","Ground Floor, Char Rasta, Paldi, Ahmedabad","23.0121991","72.5637832"
"ChIJh2BKpI6EXjkRWIoSQM_53QM","IndianOil","Ground Floor, near SARDAR PATEL STADIUM, Saint Xavier's School Road, Navrangpura, Ahmedabad","23.0445025","72.5609958"
"ChIJXdgqNUSEXjkRg95o1zj2pHM","Adani Gas CNG Station","2HJM+WM5, Mirzapur Road, Mirzapur, Bhadra, Ahmedabad","23.0322562","72.58422709999999"
"ChIJSZf6uraFXjkRHSimL0iXiZQ","Adani Gas CNG Station","Near, Jamalpur St Road, Jamalpur, Ahmedabad","23.0115436","72.5863791"
"ChIJM2vaX12EXjkRmin18sV0jvM","Bharat Petroleum Petrol Pump , VATSAL PETROLEUM","Shahpur, Ahmedabad","23.0401564","72.5781921"
"ChIJq3sp8ViEXjkR_OPxshKVw-I","Bharat Petroleum","behind Karaka Building, Ashram Road, Muslim Society, Navrangpura, Ahmedabad","23.03102720000001","72.56982359999999"
"ChIJxY3ovk2EXjkRE72SmfEGsN0","Hindustan Petroleum Corporation Limited","Ground Floor, near Victoria Garden, Raikhad, Ahmedabad","23.021638","72.5814101"
"ChIJ53aK4DaEXjkRd4zlUZnONug","Hindustan Petroleum Corporation Limited","Ground Floor, nr. Zakariya Street, near Masjid Road, Ahmedabad","23.02745699999999","72.595914"
"ChIJ-VbgbASFXjkRYdOBdfq-tjs","IndianOil","Ground Floor, opposite Jain Merchant, Paldi, Ahmedabad","23.0085067","72.560295"
"ChIJnZw73k6EXjkRRB7me99SNvQ","HP PETROL PUMP NEW RELIEF SERVICE STATION","H P, Petrol Pump, Relief Road, Patthar Kuva, Ahmedabad","23.026258","72.5841453"
"ChIJMZjrykWEXjkRPyz65NrAZSY","Bharat Petroleum - Auto Services","2HJM+WM5, nr rani rupmati masque nr, Mirzapur Road, Mirzapur, Bhadra, Ahmedabad","23.0322277","72.5842059"
"ChIJky1TkkKEXjkRtoMmVLtYg1g","J Rasiklal And Company","2HQJ+QM6, Outside Shapur Gate, Ahmedabad","23.03940660000001","72.58164169999999"
"ChIJvQbSQEKEXjkRrS8YOdtBQAk","Hindustan Petroleum Corporation Limited","FP No 109 to 112, opposite Halimkhadki, Plot No 3, Shahpur, Ahmedabad","23.036466","72.586816"
"ChIJg8BObeaEXjkRhux8b9HuCLg","IndianOil","Ground Floor, near Old Goverment Polytechnic College, Ambawadi, Ahmedabad","23.0239975","72.5490092"
"ChIJtUU2jcqFXjkRh0SLHEnZgac","Hindustan Petroleum Corporation Limited","Ground Floor, near Astodia Gate Circle, Jamalpur St Road, Ahmedabad","23.0167633","72.5927942"
"ChIJl6qJ1qSFXjkRZqq40lijWtk","IndianOil","Ground Floor, opposite St Workshop, Behrampura, Ahmedabad","23.0027069","72.5792048"
"ChIJ74fXt6uIXjkRpGle8DRzq5M","Taiyo Solar","501 Vrundavan Enclave Near Reliance Petrol Pump, Ahmedabad","23.03846829999999","72.5540506"
"ChIJM-jSTECEXjkRpwtaxEjD5sc","Bharat Petroleum","near Delhi Gate, Shahibaug Road, Hatisingwadi, Bardolpura, Madhupura, Ahmedabad","23.039451","72.5885105"
"ChIJCyM2gGqEXjkRuqVaNjosASg","Hindustan Petroleum Corporation Limited","Ground Floor, Shahibaug Road, Ahmedabad","23.0414769","72.5887274"
"ChIJhxjaLaKFXjkRcu1uavt4_XA","Shell","BRTS Corridor, Behrampura, Ahmedabad","22.996258","72.57433"
"ChIJx7JgKeGAXjkRA7Pxqcc7CZA","IndianOil","Ground Floor Naroda, NH 8, GIDC, Nana Chiloda, Ahmedabad","23.0995128","72.66799139999999"
"ChIJ9YMjrtaAXjkRc5EbqyG6hoM","Hindustan Petroleum Corporation Limited","P, FP No 75/1, Survey No, 516/2, Naroda - Dehgam Road, Naroda, Ahmedabad","23.0798301","72.6678501"
"ChIJHc7dvtyAXjkRTSWx2tpOFGY","Reliance Petrol Pump","Naroda GIDC Road, GIDC Naroda, Ahmedabad","23.0924587","72.6730984"
"ChIJO2Kij8yGXjkRWrgQvf2Ihsc","IndianOil","Ground Floor, Naroda - Dehgam Road, Saijpur Bogha, Bilasiya","23.0686123","72.6455063"
"ChIJ9752N26BXjkR4cNidBF0iKE","IndianOil","near Raj Farm, Ground Floor Bhat, Gandhinagar, Chandkheda near, near Raj Farm, Bhat, Ahmedabad","23.1024969","72.6305627"
"ChIJyRPR5cyGXjkRWpH3mZGcWHI","Hindustan Petroleum Corporation Limited","Ground Floor, Naroda Road, Saijpur Bogha, Ahmedabad","23.0691901","72.64702009999999"
"ChIJe4gsv3GBXjkRxo285iJLfQA","Hindustan Petroleum Corporation Limited","Survey No 53/B, Airport Road, Bhat, Gandhinagar","23.105391","72.63102099999999"
"ChIJZxIXPsaGXjkRftnRsK26_wA","Adani Gas CNG Station","11, Sardar Road, Krishnanagar, Ahmedabad","23.0579494","72.64321919999999"
"ChIJS3xbtbuGXjkRWSSiNDxP1QE","IndianOil","Ground Floor, near Anand sugical hospitalc, Naroda Road, Memco, Ahmedabad","23.0545781","72.6313323"
"ChIJgVpWgOqGXjkRL-WNviZwulw","Har Siddhi Service Station","2JWR+VMJ, Thakkarbapanagar, Ahmedabad","23.0472085","72.64162639999999"
"ChIJAQAAACyHXjkRn7NAdz11XSY","IndianOil","Ground Floor, Naroda, Ahmedabad","23.08288","72.65673799999999"
"ChIJSUgKbbCBXjkR4khAyuKF1yE","Hindustan Petroleum Corporation Limited","1/P, Plot No CM, Naroda GIDC Road, Naroda, Ahmedabad","23.081951","72.657761"
"ChIJO1C3MUiBXjkRB0vLeT7HtoM","Div Cross Road","3MH3+8CF, Narol - Naroda Road, GIDC Naroda, Ahmedabad","23.0783182","72.6535364"
"ChIJYVkK49eAXjkRz-Y8hwp0ByQ","Ishwar Oil and Company","3MM7+93F, GIDC Naroda, Ahmedabad","23.0834293","72.66268509999999"
"ChIJL6coEQCBXjkRvxWBdDV-O9o","Jio","3MP8+RGG, GIDC Naroda, Ahmedabad","23.0870509","72.6663346"
"ChIJj9X7pNmAXjkRHyDF-hoDnfs","Naroda Rjil Ag3","3MP8+RGG, GIDC Naroda, Ahmedabad","23.0870509","72.6663346"
"ChIJf5b4ki2BXjkR_R-Eh4Uc3vk","IndianOil","8, Plot, No 41, Tps No 1 NH, Naroda, Ahmedabad","23.0755013","72.6519922"
"ChIJe_0uooWBXjkR478N_1kz8i8","BPCL Ravi Petroleum (CNG)","Airport Road, Hansol, Ahmedabad","23.0861965","72.63464929999999"
"ChIJIaYgaU6BXjkR0puxm2zrz1Y","NA & Sons petrol pump","3JCX+VMX, Makarpura, GIDC Naroda, Ahmedabad","23.0722383","72.6492425"
"ChIJFRvXqtaAXjkRSwY6d49f70I","HP Petrol Pump Opposite Amardeep Enclave","25, Naroda - Dehgam Road, Vasant Vihar 2, GIDC Naroda, Ahmedabad","23.0797292","72.6679288"
"ChIJu4LFNhuAXjkRFWVPJZEgUCc","IndianOil","Survey No 2, Basan, Firozpur, Shram Marg, Gujarat International Finance Tec-City, Gandhinagar","23.161501","72.697401"
"ChIJo9UhsN0qXDkR2Wr0M1WjWBM","Shree Siddheshwari Petroleum (BPCL)","opp. IIT On, 968/1/A 968/2/A, road, Gandhinagar","23.2061027","72.68840829999999"
"ChIJFVxa8x0rXDkR1l25a_BPTCU","Shree Sanwariya Petroleum","Survey no -359, Pirojpur","23.1703882","72.70856280000001"
"ChIJe4LLNOmBXjkRKPVDXlHrcuM","Nayara Energy - L S Desai Petrol Pump","National Highway 48, Pirojpur","23.1676159","72.70779759999999"
"ChIJqRAjugOBXjkRy480YHkk3vU","IndianOil","Ground Floor, Jethipura, Gandhinagar, Basan","23.163801","72.704301"
"ChIJif__L7AqXDkRxMTFa0Q2DjE","IndianOil","Survey No 244, Lavarpur","23.180901","72.70700099999999"
"ChIJQefeh2orXDkRDSMasx8_tZE","Jio BP - Umiya petroleum","Gandhinagar Bypass Road, Lavarpur","23.1838203","72.7022081"
"ChIJ5amh1UzVXTkRGYLkwdweGa8","Pavan Putra Petro Mall","5PM5+WXF, Gandhinagar","23.1848069","72.70991409999999"
"ChIJcbS0Mn4rXDkRE9AZnCm5wUs","Gujarat Gas CNG Station","Shahpur-lavarpur road, Gandhinagar Bypass Road, Gujarat International Finance Tec-City, Gandhinagar","23.1835582","72.6876972"
"ChIJ6YudmBOAXjkRD6mk5s4HUcw","Bharat Petroleum","India","23.1487619","72.69345830000002"
"ChIJLe5I0LaBXjkRWwb2QwB9M4g","Jaybhole Petroleum","Sadhanabhavan Brahmakumari, Valad","23.1487132","72.6933997"
"ChIJGVhp02OBXjkRe8e5d3VehSI","IndianOil","Ground Floor, Valad","23.14743649999999","72.69229419999999"
"ChIJjQsaZqArXDkRkFcOkm0F2rQ","Hindustan Petroleum Corporation Limited","Survey No 156P, Gift City, opposite Aranya Udhyan, Iim Road, Basan","23.196159","72.682395"
"ChIJJfhJLvQrXDkRmMb5WXkECsQ","MS / HSD GIFT Peteoleum - HPCL","village :, MS / HSD GIFT Petroleum, near Aranya udhyan, to, IIT-Gandhinagar road, Gujarat International Finance Tec-City, Basan","23.19620179999999","72.68231089999999"
"ChIJ3yg4CK4rXDkRip1eytkNt3M","Shreedhar petroleum","5MMC+H67, Gandhinagar","23.1847395","72.6706248"
"ChIJzeN3SIwqXDkRwCfA9b_375A","NAYARA","5MMC+V6M, Gandhinagar Bypass Road","23.18471809999999","72.67055119999999"
"ChIJMb8GoOzVXTkRTafuL5EFd6k","Jay Bhavani Pan Parlor","40, Shivalay Rd, Urjanagar 1, Kudasan, Chiloda","23.1824082","72.74748079999999"
"ChIJ9RE0sN0qXDkR0YymDIcBbR0","भारत पेट्रोलियम","6M4Q+C9W, Diversion Road","23.206122","72.6884525"
"ChIJfSWmn5HUXTkR1JJO2FzzybU","Sabarmati Gas CNG Station","Gandhinagar","23.2504079","72.742308"
"ChIJZeMh4JzTXTkRD-7UOEVTC1Y","Hindustan Petroleum Corporation Limited","Survey No 143, near Pandav Farm, Dhanap","23.281392","72.758271"
"ChIJr8u6tMPTXTkRY4z-HqDUyGs","Jio-bp pulse","Ground Floor, Mataji Temple, Survey No, opposite Giyod, 159/A, Dhanap","23.283821","72.761544"
"ChIJl9ib0t7TXTkREHjKS9Kibgs","KARTAVYA PETROLEUM","survey no 250, Dhanap","23.2691787","72.7555599"
"ChIJX-551gbTXTkRYPhOE-7rlrk","Hindustan Petroleum Corporation Limited","Survey No 196, Dhanap","23.269308","72.75514299999999"
"ChIJKe42qU7TXTkRSDTloX1tzrs","Bharat Petroleum Petrol Pump , AMBICA PETROLEUM","VILLAGE CHHALATEHSIL, Gandhinagar","23.290542","72.76334299999999"
"ChIJw8AkLwDVXTkRB3KQwsT5DYY","DEF AdBLue","7Q82+QQH, Himatnagar","23.2669377","72.7519879"
"ChIJZ7bYKgDTXTkRl0Y--2x4Ot8","Nayara Petrol Pump (Arbuda Petroleum)","8Q29+4J6, Chhala","23.3003217","72.7694315"
"ChIJo3CyhsvVXTkRlz5hNXWOjWw","IndianOil","Survey No 505 Dashela, Gandhinagar,Bilasia, Ahmedabad","23.258392","72.7463959"
"ChIJdXG1WL3TXTkRdwuIeuwR0eU","IndianOil","Ground Floor, Chhala","23.318977","72.778358"
"ChIJLc6pnSDPXTkRRF8St4aliTQ","Subodh Petroleum Hindustan Petroleum","Sabarkantha, NH-8, Sabarkath Road, Himatnagar, Himatnagar","23.4436","72.8517"
"ChIJD_yxE2_OXTkRolcw5gCvDmw","Hindustan Petroleum Corporation Limited","B No, 276, NH 8, Prantij, Oran","23.396125","72.819671"
"ChIJlbUlSADPXTkREUpCJBIDuZA","Jiobp Petroleum, Prantij","CRCP+9J3, Prantij","23.4206778","72.83756389999999"
"ChIJ98qlCADPXTkRNjNqFQU1h3Q","Shah Petroleum, Jio-BP Katpur, Prantij","Survey No.-318, near Kathpur Toll Plaza, National Highway 48, Katpur","23.4206059","72.8373095"
"ChIJyeoW0_bOXTkRGyUnhCv6Za8","Raj Petroleum","CRCP+8FG, Katpur","23.4208226","72.8361955"
"ChIJyV1sygDPXTkRuq6ciqZ4P-M","AIM Petroleum","National Highway 48, Katpur","23.4171011","72.834525"
"ChIJ98sSHQDPXTkRWhaNn2bQfM8","Nayara Petrol Pump","CVP3+M4V, National Highway 8, Tajpur","23.4367496","72.8528118"
"ChIJidcS9xrPXTkR7j0gsNVXasI","IndianOil","Ground Floor, Station Road, Balisana","23.431997","72.86126039999999"
"ChIJ-_FT4lLPXTkR4KZzfKOylK8","Hindustan Petroleum Corporation Limited","Ground Floor, NH 8, Prantij","23.443591","72.851731"
"ChIJddzxJCHPXTkROqdkmudnQLw","IndianOil","Ground Floor, NH 8, Balisana","23.4449117","72.855034"
"ChIJ830l0YHPXTkRxshoXWRs4dU","Keshav Energy","opp. IDBI BANK, Approach Road, Prantij","23.4427933","72.8583795"
"ChIJFRRMZqrPXTkRjOb-giJV5CE","Happy Shop HP Service Center Oran","Block 276, NH 8, Oran, Prantij","23.3957525","72.8198293"
"ChIJuzTbKnTPXTkRAAAAcNnzJQU","BPCL PRUTHVI PETROLEUM","CVFJ+88G, near GEB, HARSHOL ROAD, NAVA, Bakarpur","23.42330609999999","72.8808395"
"ChIJA9bqDa3HXTkR3pbMplYDj5A","Hindustan Petroleum Corporation Limited","Survey No 18, P NH 8A, Prantij, Dalpur","23.520741","72.93600099999999"
"ChIJJ_RhLoPHXTkRdvJ4oUe5kVM","Hindustan Petroleum Corporation Limited","Block No 186, near Sharda, NH 48, Chiloda Himatnagar Road, Salal","23.497482","72.90950099999999"
"ChIJsTDWFw7HXTkR6RE7CKtcOsA","L. M PETROLEUM","Salal","23.4970644","72.9090631"
"ChIJkzyQPcfHXTkRgkUw6ff2URc","IndianOil","Himmatnagar, Ground Floor Himmatnagar, Salal, Prantij,Hajipur","23.492005","72.90476029999999"
"ChIJWxb7hj7HXTkRpfkjJZKxAiQ","SHREE MAHAKALI AUTO FUEL","FWR3+PR8, Salal","23.4920103","72.9047477"
"ChIJU6VmiEjHXTkRGj_yUzP0kZg","IndianOil","Ground Floor, NH 48, Prantij","23.491101","72.90304499999999"
"ChIJg5WRSEPHXTkRQ7kZoMR7gKc","IndianOil","Ground Floor NH 8, Hajipur, Prantij, Dalpur","23.5178759","72.9349534"
"ChIJZXA7CgDHXTkRtwHEWD6xth8","Nayara Petrol Pump","87/P, At:, Hajipur","23.527685","72.9429533"
"ChIJ1QaYPWjHXTkReyL6g6tEG0Y","Someshwar Petrol Pump and Cng Station","Block No. 87, Taluka, Hajipur","23.5277536","72.9429129"
"ChIJvxeRAKnHXTkRrl313Jz-Olg","Sabarmati Gas CNG Pump","GWHV+367","23.5276553","72.9430428"
"ChIJL_VxCd_JXTkRtiIeM_DNJKM","PRAYOSHA PETROLEUM NAYARA","National Highway 48, Juna, Rasulpur","23.4742003","72.8811612"
"ChIJwzF6jum4XTkR98VsgIjLXBw","IndianOil","Ground Floor, Agiol, Mahavirnagar, Himatnagar","23.597608","72.967924"
"ChIJRa5TFT25XTkROgRvABjBt6s","Om Shree Mahakali Petroleum","cross road, Opp. Swaminarayan Temple, Towards Kankrol to Sahkari Jin, National Highway-8, Kanknol, Himatnagar","23.5807781","72.989133"
"ChIJXz09TP65XTkRPxjmzNW87eM","Dharti Fuel Center Hindustan Petroleum","At: JAWANGADH, HIMATNAGAR-SHAMLAJI N.H.NO.8, TA:HIMATNAGAR, DIST:S.K 383276, GUJ HN 8, Raigadh","23.5800523","72.9757886"
"ChIJ_4fyv7y4XTkRG6JbYoCwYkE","Hindustan Petroleum Corporation Limited","near Sahakari Jin, Survey No 870/1/Paiky, NH 8 Himmatnagar Shamlaji Hwy, Sahakari Jin Rd, near Sahakari Jin, Char Rasta, Himatnagar","23.581751","72.97415099999999"
"ChIJC5emy9yxXTkR_mRvAcVwapg","URJA PETROLEUM","nr. Naira Petrol Pump, Ilol Main Bazar, nr. Naira Petrol Pump, Davad Road, Himatnagar","23.5943366","72.97859729999999"
"ChIJ1c9UD__HXTkRYhY4iyI5Dbo","Aradhy Petroleum Nayra Petrol Pump","HX7P+FQ3, Piplikampa","23.563642","72.98692319999999"
"ChIJY4EK3JC4XTkR44JTiJdXZ6o","AMAZONE","India","23.5815395","72.96266469999999"
"ChIJw-5SwpO_XTkR10kyZsP4kG4","Laxmi Petroleum","Plot No. 777/3, NH-48, Kankrol, Himatnagar","23.5828522","73.014663"
"ChIJX6NBSPW5XTkR1Rtau-AYUlo","IndianOil","Ground Floor Agiol, near Railway Crossing, Ambawadi, Mahavirnagar, Himatnagar","23.5984","72.96809999999999"
"ChIJM-3xxfC5XTkRc_QT1kCVhz4","Bharat Petroleum - Bhagwati Petroleum","THASIA ROAD, HIMMATNA, KHED","23.5885111","72.96123709999999"
"ChIJxRuyCri5XTkRZ9zc2Exm7Uw","Bharat Petroleum, Petrol and CNG pump-Jamalbhai U. Kadiwala","HIMMATNAGAR, NH8, SABARKAN","23.5788565","72.95834119999999"
"ChIJeeYvOu64XTkRlbNFs7itP8Y","HP PETROL PUMP - PRATAPGARH MOTOR COMPANY","HP Petrol Dealer Himatnagar S.K., Palace Road, Gokulnagar, Ahmedabad","23.597993","72.95893099999999"
"ChIJhURh07W5XTkRp6QXBfCxOxI","ADHOC S D PETROLEUM & 1","Post Office Pratap Petrol Pump, Gandhi Road, Himatnagar","23.598108","72.95900449999999"
"ChIJtUdBBaC5XTkRvboU9b6ZtZk","Hindustan Petroleum Corporation Limited","Survey No, 2378 & 2379, Idar Road, Himatnagar","23.598124","72.958978"
"ChIJkVWlKqS5XTkRN_pGOAzlaBQ","PUJABEN PATNI","Post Office Ni Same, nr. Gandhi Road, Himatnagar","23.5982368","72.9590058"
"ChIJ694gr9i5XTkRb7jK54rm-ks","Mehta Automobiles","Mehta Automobiles, Autho.Dealer Indian Oil Corporation Ltd, N.H.8, Ahmedabad Highway, At, Piplodi","23.5701908","72.9543964"
"ChIJ_wGTCmvHXTkRwgpTEFysQFM","IndianOil","Ground Floor, Piplodi NH 48, Ahmedabad Himatnagar Hwy, Hajipur","23.5642137","72.9542744"
"ChIJ4a2uIc25XTkRRuTbvBZop6o","KUMAR PETROLEUM","Khed tasia road Besides prabhuta party plot, nava, Himatnagar","23.6190946","72.9829823"
"ChIJey5xUQDHXTkRcRXMpr1bPpM","Jio BP","HX53+R7W, Himatnagar","23.5596114","72.9531914"
"ChIJsxv0hHq_XTkRK4Fgea3arf0","Kishan Petroleum.berna.nayara energy Ltd.","Sabarkantha, NH-8, Sabarkath Road, Himatnagar, Himatnagar","23.5863","73.0311"
"ChIJ6-0RyOi_XTkRJhe0CUthM5I","Hindustan Petroleum Corporation Limited","Survey No 477, NH 8, Himatnagar, Karanpur","23.5989779","73.0781422"
"ChIJx54_RUOVXTkRKN1b97cJ3vY","IndianOil","Ground Floor Gambhoi, NH 08, Shravana","23.601175","73.100106"
"ChIJcxXZKwCVXTkRLIDiPmTyZ7g","Ganesh Energy, BPCL Petrol & Diesel","NH-48, Gambhoi","23.6002227","73.09058399999999"
"ChIJJwk2GfK_XTkRCqsP9uN8b1c","Sabarmati CNG Gas Limited","H3XH+G92, Karanpur","23.5987532","73.07839059999999"
"ChIJk9ZZ0oGVXTkRDX_1uPJD1ac","Bharat Petroleum Petrol Pump & CNG Pump , MADHAV PETROLEUM","HW SH-143AT, Gambhoi - Bhiloda Road, SARWANA, POST, Gambhoi","23.606074","73.098513"
"ChIJSXpulWiVXTkRrY5giQzLh78","Krishna Automotive","opp. Krishna Arcade Complex, near by Gambhoi, 01, Gambhoi - Bhiloda Road, Ranasan","23.5918101","73.10198559999999"
"ChIJgZIjzCjrXTkROZhsJHJst6w","Shiv Petroleum","P:-870, SH-143, Ranasan Road, Himmtnagar, Gambhoi","23.5794452","73.1042899"
"ChIJbUP9cQDrXTkRd3G78dRPqwM","N.V. PETROLEUM [INDIAN OIL]","H4F3+QF, Dhundhor","23.574558","73.10437999999999"
"ChIJ0csaS8CVXTkRsnB3Gycxo-A","Hindustan Petroleum Corporation Limited","S No 8/6, Himatnagar, Javangadh","23.604929","73.1696501"
"ChIJgwXa_9aVXTkRRidKmygMchg","Hindustan Petroleum Corporation Limited","S No 8/6, Himatnagar, Javangadh","23.604929","73.1696501"
"ChIJt8W2JTSTXTkRpbsZUzvgnlU","IndianOil","Ground Floor, Gadhada, Modasa Himatnagar, Shamlaji Road, Rajendranagar","23.600402","73.209628"
"ChIJ0wptH1SVXTkRpf8UNRJVsco","IndianOil","GF, Javangadh, Himmatnagar NH 48, Shamlaji to Himat Ngr, Rajendranagar","23.6016008","73.16310279999999"
"ChIJ8ytNWpmTXTkR1Z4GiIMhKgM","Hindustan Petroleum Corporation Limited","Survey No 309, Modasa, Gadhada Kampa","23.602684","73.217461"
"ChIJ9z4WxQeNXTkR2j2cjVLNwwY","Nayara Petrol Pump (formely Essar Oil Petrol Pump)","M827+63X","23.6506086","73.3127499"
"ChIJuwkiUcSTXTkRoeMQS66cO3Y","Nayara Petrol pump - Jay somnath petroleum","Nh 48 Road, Sunokh","23.6184229","73.2758443"
"ChIJwZjIWMGNXTkRWNMrQAluvhE","IndianOil","Ground Floor, Bus Stop, near Tintoi, SH 5, Kheradi, Modasa","23.61163","73.32538"
"ChIJL2Un6dHzXTkR9CFU5suqyQA","Chirag petroleum HPCL","1057 At, to, Modasa - Shamlaji Road, Shamlaji, Tintoi","23.5998008","73.31994949999999"
"ChIJ_xV79dXzXTkRYqGSFRuZLXc","Hindustan Petroleum Corporation Limited","Survey No 1057, Modasa SH 145, Shamlaji Highway, Modasa","23.599483","73.320011"
"ChIJPQGsutyNXTkRcwAyvSl-7Bg","Veer Petroleum BPCL","Asal","23.6544375","73.31643749999999"
"ChIJY6H-wdeNXTkRP1czDZ5eyjU","Shubham Kisan Seva Kendra","nr. Apmc, Railway Crossing, nr. Apmc, Tintoi","23.6210958","73.3352647"
"ChIJf6gXi2ONXTkRPPGoHHjA794","Hindustan Petroleum Corporation Limited","Sr No 1541, Modasa to Shamlaji Road, Tintoi","23.6241449","73.3356201"
"ChIJL91W_8-MXTkRF--RYGsCOaU","IndianOil","Ground Floor, Modasa, Tintoi","23.620497","73.335805"
"ChIJb7zxLgDzXTkRaY_m7aHJP7g","NAYARA ENERGY FUEL STATION ⛽ RUDANI ENTERPRISE","GJ SH 145","23.5869658","73.3164883"
"ChIJNfjZuHfzXTkRYwJbVFuMJr8","R.H THAKKAR I.O.C PUMP","H8M7+JJ7, Gujarat State Highway 145, Jivanpur","23.5840458","73.3140458"
"ChIJxScnDiXzXTkRD2BGlKokV6E","IndianOil","Ground Floor Manjal, Bolundra, Modasa","23.58346","73.3139107"
"ChIJdWRya1-JXTkRYspCLn6jwm0","IndianOil","Ground Floor, Samalaji","23.7083","73.3903"
"ChIJ0dNHkHKNXTkRj-osfLMp-J8","Bharat Petroleum, Petrol AND CNG PUMP-Bhagawanji Gordhandas & Sons","SHAMLAJI ,NH8, SABARKANTHA, SABARKANTHA","23.6824925","73.3658517"
"ChIJg0TwewCLXTkRQFBSglaBC3k","Shree shyam DEF uriya pump","M9QP+2G7, Nava Venpur","23.6875458","73.386304"
"ChIJA36cUzSLXTkR7UFQH1CVmq8","Nayara Petrol pump - Krushna Petroleum","Gujarat State Highway 145, Bhavanpur","23.667498","73.3675981"
"ChIJvSdEuAeNXTkRsE6PVNlS3qg","IndianOil","BirsaMunda Petroleum, Bhiloda Road, At, Palla","23.6918502","73.35068910000001"
"ChIJZ2zdFSqNXTkRznpug90zTAA","IndianOil","Ground Floor, Sabarkantha, Bhiloda, Palla","23.6997453","73.3515503"
"ChIJkak-pV2LXTkRxfGKrirsbfA","Hindustan Petroleum Corporation Limited","Sy No 11, Paiki 1, Ahmedabad Udaipur Hwy NH 48, Venpur, Bhiloda","23.7050701","73.391632"
"ChIJwzufz7GNXTkRjVH7a4EkxsM","Hindustan Petroleum Corporation Limited","Survey No 44, Bhiloda, Kherancha","23.6614129","73.3583115"
"ChIJzf1PGQCJXTkR1npclIukDME","Shree shyam DEF uriya pump","P98V+52C, National Highway 48, Venpur","23.715429","73.39250609999999"
"ChIJc70BRgCJXTkRE7usA0AaCWs","Shree shyam filing station","N H no 8, At navavenpur, Samalaji","23.7157053","73.39326989999999"
"ChIJz_VebIeNXTkRl15CGWxdzSA","Chaudhary petroleum - bpcl petrol pump","Nh-8,Sr. No 296,AT&PO-KHERANCHA, TA-BHILODA, Kherancha","23.65385079999999","73.34885109999999"
"ChIJk3b-UzSIXTkRCejbHvE0egc","Hindustan Petroleum","Ratanpur NH-8, Dungarpur","23.7632243","73.4449621"
"ChIJTfW5QzeJXTkRpxCQTLW1ALk","IndianOil","Ground Floor NH 8, Ratanpur, Border, Amzara","23.7636001","73.4452001"
"ChIJb9T_5DKIXTkRHR68LHZVIJk","Bharat Petroleum, Petrol Pump -Omshree Filling Station","Ratanpur","23.7619748","73.4508462"
"ChIJlWaZ78CJXTkR3GX88dp70QY","IndianOil","Ground Floor NH 8, Border, Khajoori","23.760597","73.453985"
"ChIJfXecPGyJXTkRa21xNpe3vnY","IndianOil","NH 8, Ratanpur Border, Khajoori","23.7525352","73.46498070000001"
"ChIJycGWstKJXTkRbA48cxQQrvY","IndianOil - SWAGAT","NH 8 Ratanpur, Border, Khajoori","23.7530912","73.46599379999999"
"ChIJ4x9X4pZjZzkR3fIqg9ICIE4","Essar Oil","QF6J+534, Lehana","23.76038429999999","73.4802076"
"ChIJw-5aYgFjZzkRDTFhbcR1QR4","IndianOil","Ground Floor, NH 8, Lehna, Bichhiwara","23.764013","73.483257"
"ChIJ4_5LE2SJXTkRyXJ_eXYBPfw","Vaikunth Petroleum","NHAI 8, po, At, Rangpur","23.7311901","73.4124224"
"ChIJs3O8yVt8ZzkRq-A3dmkitCo","Hindustan Petroleum Corporation Limited","Ground Floor NH 8, Amjhara","23.86805009999999","73.527501"
"ChIJG908axNjZzkRdyRTY9m4qyk","Hindustan Petroleum Corporation Limited","Khasra No, 693 & 694, NH 8, Baroti With Chak","23.838556","73.522926"
"ChIJo3zK_dN8ZzkRndxiqvPmvEU","Reliance Petroleum","Reliance Petrol Pump, NH8, Chainage 472/919, Village Baroti Nichli, Taluka Dunga, Bichhiwara","23.819407","73.518641"
"ChIJUU5zRABjZzkR_qntH2irrx0","ADHOC PC FUEL NH-48 BANOTHE BICCHIWARA","RG7C+96M, Nawa Gaon","23.81357059999999","73.52049699999999"
"ChIJe7B5zSxjZzkRFlNkwQGI9dc","IndianOil","Ground Floor, NH 8, Bichhiwara, Barothi","23.8133321","73.5203962"
"ChIJ37FEQABjZzkRkjGRCfBvnbQ","BP BICHIWARA ll","RG6C+638, Bichhiwara","23.8114054","73.5206018"
"ChIJTwq0HfF8ZzkRgP2tqTPbRSs","IndianOil","Ground Floor NH 8, Bichhiwara, Amzara, near Km Stone, 368 to 69, Dungarpur","23.85330099999999","73.5270101"
"ChIJcasWN_d8ZzkRkEythWJEmHQ","IndianOil","near Bhairavji Mandir, Udaipur Ahmedabad Road, Amjhara","23.8556","73.52579999999999"
"ChIJh2aa6S9jZzkR_B0t-Ia6LhQ","BPCL Petrol Pump - BP Bichiwara","NH-8, Udaipur Ahmedabad Highway Near Neelgiri Hotel, Distt Dungarpur, Village, Bichhiwara","23.804026","73.523029"
"ChIJxcPoRCVjZzkRMRRbXAvQSvA","IndianOil","Ground Floor NH 48, Amjhara","23.8019572","73.5230648"
"ChIJwycFXr9lZzkRbGGSk4jWk7Q","Kamakhya Petroleum","RH33+C45, Pavda, Baldiya","23.80352169999999","73.55285219999999"
"ChIJrVgiv41jZzkRgXVTE4hlovI","Hindustan Petroleum Corporation Limited","Ground Floor, NH 8, Udaipur Ahmedabad Road, Bichhiwara","23.79023200000001","73.521682"
"ChIJMdJGeiN5ZzkRM3ltj4Bs0II","Hindustan Petroleum Corporation Limited","Ground Floor, NH 8, Bhuwali","23.9495966","73.57770830000001"
"ChIJt4cu4FN5ZzkRrRTMgE04dkk","Jio-bp","KHASRA NO. - 2316 (OLD) 5301/2316 (NEW) , LHS TOWARDS :- UDAIPUR-RATANPUR H - 8 , VILLAGE :- SHISHOD , TEHSIL :- DUNGARPUR , DISTRICT:, Bichhiwara","23.9188756","73.56451349999999"
"ChIJH5_b4LF5ZzkRNzJMSSU_asY","Hindustan Petroleum Corporation Limited","Ground Floor, NH 8, Udaipur Ahmedabad Road, Bhuwali","23.936721","73.571021"
"ChIJxUpDvhZ5ZzkRGxqk-5zCR5U","IndianOil","Ground Floor, Bhuwali, NH 8,Harsawara, Udaipur Ahmedabad Road","23.9500638","73.5768607"
"ChIJM-IZq4p4ZzkRQBQFT8d9-6M","Hindustan Petroleum Corporation Limited","Ground Floor, NH 8, Kherwara Chhaoni","23.985282","73.60618199999999"
"ChIJn4KpYG7vZzkR6dteWP7EouE","IndianOil","Ground Floor, Khadi Oberi, Nichla Phala, Kherwara, Kherwara Chhaoni","24.0017998","73.6483303"
"ChIJ98Q-XfN5ZzkR17Xnph367a4","Bharat Petroleum, Petrol Pump -Anant Filling Station","KHERWARA, UDAIPUR","23.9997198","73.6403164"
"ChIJ6xb4u4udZzkRSMgn_S8hxwU","IndianOil","near Amantran Hotel, NH48, Kagdar Bhatiya","24.0283535","73.6577765"
"ChIJ8T6IjDadZzkRNDu2eekZZ5E","BP DIVYA DARSHAN FILLING STATION","NH.08, MADFALA KAKDAR ,THESIL- RISHABDEVO , UDAIPUR, UDAIPUR","24.0422625","73.6606355"
"ChIJI1mx9uWcZzkRE5nrYXzU80U","L AND R HP Petrol pump","3MFM+444, choraha, Rishabhdev","24.0727667","73.68283280000001"
"ChIJl2rFvnCbZzkRk2h1NyVDi1o","Bharat Petroleum Pump","Peepli B","24.1227568","73.694273"
"ChIJq_KUfpGcZzkRQT43kkC4EsM","IndianOil","Ground Floor NH 8, Rishabdev, Balua, Kherwara Chhaoni","24.0921001","73.68560099999999"
"ChIJ81AJsJGcZzkRyR0qUUkpLDc","Reliance Petroleum","KHASRA NO. - 230, 231 , LHS TOWARDS :- UDAIPUR , NH - 8 , VILLAGE :- THANA TEHSIL :- RISHABDEO , DISTRICT:, Udaipur","24.0947448","73.6872704"
"ChIJkUYlI0qdZzkR5vlU5fRa9ck","Jio-bp","Khasra No, 230 & 231, Nh 8, Thana","24.0947778","73.6872222"
"ChIJtefVfEOdZzkRzyoEB70BZX8","Hindustan Petroleum Corporation Limited","Ground Floor, NH 8, Rishabhdev","24.082024","73.68588299999999"
"ChIJeRqGgO6cZzkRom3enw6PaQs","Bharat Petroleum, Petrol Pump -Deepak Filling Station","RIKABDEV, UDAIPUR","24.0801505","73.6860117"
"ChIJWficOUGdZzkRmzWeFpaaPqk","Bharat Petroleum, Petrol Pump -Rishabhdev Filling Station","PIPLIYA, RISHABDEO, UDAIPUR","24.0756019","73.6856701"
"ChIJTS-z67udZzkRovUu9rh_QIM","Bharat Petroleum, Petrol Pump -Kesariyaji Filling Station","KESHARIYAJI,UDAIPUR AHMEDA, UDAIPUR","24.071544","73.6828031"
"ChIJF9-HBzqbZzkRmvx3xy-5k8M","Hindustan Petroleum Corporation Limited","Ground Floor, NH 8, Kalawat","24.115551","73.697182"
"ChIJE2L2eQCdZzkRMaPjF97chW4","Assam Oil","3M9J+HG, Rayana","24.0689375","73.68131249999999"
"ChIJQdbqwkidZzkRCSc7HJbvrYY","IndianOil","337/1, Km Stone, Ground Floor NH 8, Near, Balua, Rishabhdev","24.0685502","73.68130099999999"
"ChIJXWAwYlSbZzkRu7sLUq2KfVU","SHREE NEELKANTH FUELS","village- kalaliyakad Rishabdev udaipur rajasthan 313802 Rishabdev","24.1232324","73.6923523"
"ChIJZbl3FQadZzkRUr6E8c0Ep0s","Vartika HP Filling Station","Rajasthan State Highway 53, Rishabhdev","24.0618446","73.7004398"
"ChIJxUACwJ-dZzkRA_pGs4dnxa4","TATA DEF STATION (SUMAN AUTOMOBILES)","near RISHABHDEO, opposite SUMAN AUTOMOBILES, National Highway 48, Kanuwara","24.0528165","73.6667698"
"ChIJs4m7_nyaZzkRbD8xT5QMAY0","IndianOil","Ground Floor, Prasad, Sarada, NH 8, bypass, Parsad","24.1946872","73.7039327"
"ChIJCbG2BQCbZzkRmgMxb0t2du4","Parsad","5PV4+C2X, Parsad","24.1936109","73.70512269999999"
"ChIJ3zGhNn6QZzkRj89zcQYhYxI","Bharat Petroleum, Petrol Pump, Cng Gas -Sugam Filling Station","PRASAD, UDAIPUR AHMEDABAD, UDAIPUR","24.2064334","73.69971190000001"
"ChIJ5fi165GRZzkRTkMO25yxmuk","Petrol Pump","6M5X+2M9, Baroti","24.2075336","73.69924449999999"
"ChIJG3iAFIibZzkRa_I4rxNkH2A","SHIV RENEWABLE ENERGY","near Parai, Pandit hotel, near Parai, Parsad","24.1801814","73.6869174"
"ChIJ189dFQCRZzkRiE0N1kp6XEs","BALAJI ADANI CNG PUMP","6M8W+XG3, Baroti","24.216694","73.696274"
"ChIJHenqpmqSZzkR_1gvagema0c","Hindustan Petroleum Corporation Limited","Ground Floor, NH 8, Tidi, Udaipur","24.317201","73.677481"
"ChIJw6iDj2ONZzkRQaBW6N8_0k8","IndianOil","Ground Floor, Bori Kuan, NH 8, Girwa, Tidi, Barapal","24.351171","73.64814009999999"
"ChIJ1X39Q7HyZzkRk9ZQ4wo2pYk","Kisan Seva Centre","9JQP+4R9, Bhinder - Udaipur Rd, Udaipur","24.3878","73.63709999999999"
"ChIJK4O7kpbzZzkRi44W6Ffepbc","IndianOil","NH 8, Udaipur - Ahmedabad Highway, Barapal","24.3972379","73.63465819999999"
"ChIJMebZd3PzZzkRmC0yCwy0ucc","IndianOil","Ground Floor, NH 8, Barapal, Udaipur","24.3996128","73.6327912"
"ChIJt5LdJ7LzZzkRBhN7PooWRL4","GATEWAY FUELS","NH, vill, Barapal","24.4014394","73.6321542"
"ChIJa-4D5oaSZzkRv36QSdzQWuA","Hindustan Petroleum Corporation Limited","Ground Floor, NH 8, Tidi Dam Road, Udaipur","24.341201","73.66160099999999"
"ChIJk_9nqIrtZzkRSu9wvFt9cUs","IndianOil","Ground Floor Kaya, Road, Dhundi, Ahmedabad","24.4516001","73.6537001"
"ChIJD7o-YADxZzkRPEDXaZe52zI","V max petroleum","FMV3+C8W, Lai","24.4936053","73.6533194"
"ChIJ6-ey5eHxZzkRWFdNVhamUoU","Dalal Fueling Station","FMV3+C8V, Lai","24.4936221","73.6533058"
"ChIJRceCMSHuZzkRI4sd0mh2pto","HP PETROL PUMP - CHOUDHARY PETROLEUM HOUSE","Ahemdabad Road, Udaipur","24.496775","73.6551574"
"ChIJJZR2ghHvZzkR_ON04NCUUUw","IndianOil","Gokul Village Road, Sector 9, Udaipur","24.5448526","73.7153842"
"ChIJewCFak_vZzkR_rQE8e2iJZk","IndianOil","Ground Floor, Jaisamand Road, Dakan Kotra","24.5057911","73.737126"
"ChIJ11T2KNroZzkRHtZ1WZ18hls","IndianOil","Ground Floor Kaladwas, Girwa, Udaipur","24.5391","73.7620001"
"ChIJWZEmCavpZzkRKfVvH1WTcas","Nayara Petrol Pump - Shrinath Filling Station","Umarda road, Udaipur","24.5356389","73.7670387"
"ChIJ2W30PwDvZzkRgBKXRQ-ltMk","Girja Vyas Petrol Pump - RK Puram,Udaipur","GPV8+X47, Gokul Village Road, Gokul Village, Sector 9, Udaipur","24.5449036","73.7153039"
"ChIJ18nVVA7vZzkRrHIy8vLFu_E","Hindustan Petroleum Corporation Limited","Ground Floor, Jaisamand Road, Savina, Udaipur","24.5419101","73.7095701"
"ChIJMagXdMzoZzkRE9V3AxSjqbY","Hindustan Petroleum Corporation Limited","Ground Floor Kaladwas, Road, Eklingpura","24.549411","73.75195099999999"
"ChIJk5PJ2avvZzkR_h_3-64ioa8","IndianOil","Ground Floor Nela, Udaipur Byepass, H Magri, Udaipur","24.53153","73.697401"
"ChIJIQHUbinvZzkRYyscO6LksnY","KSV Filling Station","GMJW+JQC, Nela bypass road, Gordhan Vilas Rural","24.5315679","73.6968885"
"ChIJ46xLrxbvZzkR2NZJNK3WZ_4","Bharat Petroleum Petrol Pump , SHREE KISHAN FILLING STATION","Main Jhamarkotra Road, Udaipur","24.555521","73.73792999999999"
"ChIJX4nOShbmZzkRsaPgJwBMNuU","Hindustan Petroleum Corporation Limited","Ground Floor, NH 76, Bedwas, Udaipur","24.5939334","73.764814"
"ChIJp8FAJRHmZzkRxB4Rbi_pMYs","Nayara Petrol Pump Transport Nagar","1-C, Airport Rd, Janakpuri, N.B. Nagar, Bedwas Airport Road Janakpuri, N Bhairway Nagar, Bedwas, Transport Nagar, Jharnon Ki Sarai","24.59396049999999","73.7628625"
"ChIJ-wBsDMjnZzkR1FcZlr2bS3M","DEBARI GATE FILLING STATION","JQM3+2XW, VILLLEGE VADA, DHINKLI","24.6326046","73.7549628"
"ChIJiWs6tRfmZzkR7JtPqnkk2RE","Bharat Petroleum, Petrol Pump -Siddhartha Energy Station","SIDDHARTHA ENERGY STAT, Udaipur","24.5947015","73.76970220000001"
"ChIJ3ZP8HADlZzkRuVYxw0RJ6NI","Jagdish filling station","New, Old RTO Road, Pratap Nagar, Udaipur","24.5987314","73.7446966"
"ChIJSTN-38rnZzkR6kCce30BoLc","VC Filling Station","Airport Road, Nakoda Nagar, Udaipur","24.5915759","73.7552132"
"ChIJsbbkIVTnZzkRn_abbhZY0a8","CNG PUMP (UDAIPUR ECO ENERGY)","Bheru Singh Ji Ki Bari, Rajasthan Vidhya Peeth, At, Pratap Nagar, Udaipur","24.5916205","73.7542382"
"ChIJo2SnA-LlZzkRKQpbIHGfwQo","Hindustan Petroleum Corporation Limited","Khasra No 1157/231/A & 1154 Plot No 3/A/1, A/2 & B/1, Pratap Nagar, Udaipur","24.5950012","73.7465637"
"ChIJaSHZ-wjmZzkRQprDvHhucK0","MS Vishal Filling Station - Bharat petroleum","HQR2+VCX, Near Ambe Mata Mandir, Airport Road, Pratap Nagar, Udaipur","24.5922493","73.7511184"
"ChIJLwRH48HnZzkRnPqe3ZXXO6A","Bharat Petroleum, Petrol Pump -Eklingji Service Centre","Bhuwana, Udaipur","24.591305","73.75026559999999"
"ChIJHQuN5cTlZzkRj7yvricCsPQ","Hindustan Petroleum Corporation Limited","Khasra No 489, Airport Road, Sunderwas, Udaipur","24.586828","73.739229"
"ChIJs7PKIgDjZzkR0dTdTrkyO3k","SHREEJlCNG","NH 8, NATHDWARA ROAD, Mohanpura","24.710505","73.73172269999999"
"ChIJqwGNZaTjZzkR0bYUIL_iBJ4","IndianOil","Ground Floor, Mohanpura","24.71049290000001","73.7314253"
"ChIJdYld21bjZzkRigUAFYy3gXw","Royal Biodiesel Feeling Station","Opp. Prem Sagar Dhaba, NH-8 Eklingji Bypass,Nathdwara, Road, Udaipur","24.7238518","73.73163810000001"
"ChIJbz_bRgkLaDkRubEiYWIYp0g","Maharana Pratap CNG and fuel filling station BPCL","RQ66+966, National Highway 58, Rathujana","24.8109154","73.76051620000001"
"ChIJbeeffuwLaDkRHwrhWWKSr-A","Hindustan Petroleum Corporation Limited","Ground Floor, NH 8, Negdiya","24.838301","73.767501"
"ChIJF6-s0TwKaDkRAAAAsNq1lwU","Smart Fuel India","Shop 1, Udaipur","24.79028319999999","73.7601024"
"ChIJqQHdy14LaDkRc92sSyhkvlg","IndianOil","Ground Floor, Nathdwara, Delwara","24.78776199999999","73.75253"
"ChIJLYGVP5ILaDkR3thxB3kuyRQ","MAANSINGH FILLING STATION (BPCL)SISHVHI","Khasra no-1696/1390, Godaghati to Mavli Rd, Shishvi","24.834295","73.7984118"
"ChIJOdE-MfEJaDkROXrjNOhWFu4","IndianOil","Ground Floor Pipalwas, Kesuli, Bagol","24.835306","73.724289"
"ChIJxScY3vQLaDkRMroPHHch68I","Shree Mohan Filling Station","Bijli Vibhag Office, Old N. H. -8, near Police Station, near State Electricity Office, near Panchayat Samiti Office, Road, Delwara","24.7820414","73.7487278"
"ChIJqXJiWAALaDkR44cFNQg6gRc","AVVNL RSEB office","QQJ2+H28, Majera","24.7814116","73.7500761"
"ChIJ47FJVQANaDkR00faTYOqpqs","HMEL GHODAGHATI","VQ6C+7H, Dabiyon Ka Gurha","24.860628","73.771459"
"ChIJ615p6jgNaDkRy7qLHhBgPYE","Bharat Petroleum","bus stand, near Axis Bank, Nathdwara","24.9305653","73.8257592"
"ChIJ-egs4QINaDkRuNcz1wxTfCs","IndianOil","upli oden, Nathdwara","24.9096703","73.8049309"
"ChIJDWmAAwANaDkRjp_-S-PGvn8","Vishal Rajshree Filling Station","4, Rabcha Road, Udaipur","24.8838354","73.7904111"
"ChIJPTPQx8gNaDkRMQPLjkLGEck","IndianOil","Ground Floor, NH 8, Nathdwara","24.931401","73.826601"
"ChIJB8no3EYNaDkRSWNsYFmDsRc","Prabhu Lallohar","WRPG+95X, Rajsamand - Ajmer Road, Shiv Nagar, Nathdwara","24.9359805","73.8254963"
"ChIJ28ch1cBsaDkRITxOnQrbWg0","IndianOil","Ground Floor, Piparda","25.025801","73.85940099999999"
"ChIJXfyQNyptaDkRpkAzU2xwfBI","Bharat Petroleum & CNG, Tejpuriya","","25.0017928","73.8463104"
"ChIJUQLXBABtaDkR8cBvA1yL-CA","KANHAIYA FILLING STATION","opp. B.P. Petrol Pump, N.H. 8, Piparda","25.0211338","73.8569986"
"ChIJKUXENcRsaDkRuwNO1zQvV9I","Sbn electric works","opp. Kanhaiya bharat petrol pump, Piparda","25.0207498","73.8563745"
"ChIJhUHaSwBtaDkReiPpcLfhujU","(INDIAN OIL) MURLIDHAR FILLING STATION","NH 58, Rajsamand","25.0208535","73.8557376"
"ChIJD3YrK8dsaDkRtv066yqlUVw","Shiv Shambhu Filling Station","Piparda","25.01661379999999","73.85249259999999"
"ChIJXcEkWgBtaDkRhrMYyLO_gFw","Shri Shivanshika Filling Station - Indian Oil","229/30, NH 758","25.0263112","73.87638670000001"
"ChIJ-9HsWadsaDkR4hs71kZ7DCc","Jio-bp","KHASRA NO 1289, NH8, MILE STONE 207, VILLAGE RAJNAGAR, (LHS AJMER TO UDAIPUR TEHSIL &, Rajnagar","25.0512641","73.8586905"
"ChIJB5tABNhtaDkRTuovcC25ZRE","Hindustan Petroleum Corporation Limited","near Bus Stand, Ground Floor Nathdwara, near Bus Stand, Road, Kankroli, Dhoinda","25.045179","73.877451"
"ChIJQw6CgYFsaDkRUiwtOoYNf7E","Bharat Petroleum, Petrol and CNG Pump -Shrinath Filling Station","DHOINDA KANKRAULI, RAJ, RAJ SAMAND","25.0515454","73.88342"
"ChIJqwyO6HxraDkRpV5ne1AeNJI","Nayara Petrol Pump","Rajsamand, Mahaveer Nagar, kishor Nagar, Rajsamand","25.0573943","73.8788841"
"ChIJC0aM8HZraDkRRv_ESFjkysk","Bharat Petroleum Girdhar Petroleum","Shop No 2, near 100 Feet Tiraha, 100 Feet Road, Kankroli, Rajsamand","25.0557609","73.8840675"
"ChIJqyjBNfVraDkR7qu-gaTx7r8","IndianOil","Ground Floor, Jal Chakki, Kankroli, Rajsamand","25.0585686","73.88572789999999"
"ChIJm_pkZQBraDkREsUQi-5IIEQ","राजा राजसिंह चौराहा","SH 12, Mahadev Colony, Koyad, Rajsamand","25.0584452","73.8860282"
"ChIJAdIjD39raDkRfONWYdGvnNo","IndianOil","Ground Floor, Dealerjal Chakki, Kankroli, Sakroda","25.0579001","73.887101"
"ChIJLUhSUwBraDkRQmBwsl05ry0","Kelwada","3V8G+G7Q, Kelwara, Rajsamand","25.0663459","73.87572"
"ChIJi_ZEPV9paDkRHUri-xJpC6s","Bharat Petroleum Petrol Pump","Bhawa","25.0789106","73.93812539999999"
"ChIJyQZ7CwJpaDkRsiGbERrAl6k","K K Petrol Pump","4X46+FXM, Mahasatiyon Ki Madri","25.1062148","73.96243270000001"
"ChIJbxdRZHtpaDkRlCnlnmsdsws","IndianOil","Ground Floor, Bhada Bhanuja, Mahasatiyon Ki Madri","25.1172962","73.96304599999999"
"ChIJpRNmoA1paDkRIevCf3_HkNM","IndianOil","Ground Floor, Bhawa","25.0905186","73.9501751"
"ChIJGz26xuppaDkRfIbH7nSTCYY","Mahadev aashirwad filling station, bhawa, rajsamand, rajsthan","Nh 758,Villege bhawa, Rajsamand","25.0878086","73.948949"
"ChIJwQjV2NJmaDkRKRjfyqRQZrU","Petrol Pump","449F+556, Lapasiya Khera","25.1179074","74.12290519999999"
"ChIJE9YeuJ5naDkRgLgmQMEeoKc","Essar Petrol Pump","4397+CJG, Phiyabari","25.118552","74.0640871"
"ChIJ5ZUgJ59maDkRc9vDGol92P0","3 STAR","33MX+23Q, National Highway 162A, Kuraj","25.0825885","74.09774689999999"
"ChIJ2VhhG3BhaDkRGLnCDNvKKZ4","ANMOL PETROLEUM","NH-758 SANGAS, TEHSIL, Sahara","25.1282413","74.1738069"
"ChIJxczazXphaDkRayFa0tLEw_U","Sanwaliya Filling Station Essar Pump","45HF+G54, Udaipur Road, Potlan","25.1287672","74.17293769999999"
"ChIJvdLf-K2LaDkRxIzQPkhaLkE","रामदेव जी मंदिर। रामदेव नीवास","565G+V3M, Potlan","25.1597079","74.2251607"
"ChIJeeuTMAiLaDkRNf7pf0wDYMQ","Dilkhush Filling Station","568J+RPR, Gurha Khera","25.167103","74.2317542"
"ChIJLTpagDD1aDkRXFPK612xbKE","Surana Fuel Station Nayara Petrol Pump","Udaipur Road, Galodiya","25.19830239999999","74.2852274"
"ChIJpzIe_n_1aDkR5r0ZKhe3de4","Hindustan Petroleum Corporation Limited","Khasra No 37, 4/38/3, Sahada, Gayatri Nagar","25.198389","74.28590400000002"
"ChIJeZyBXxn1aDkRNL3DPmsSyqA","Sobhalal Laxmilal Hiran Petrol Pump","6785+H39, Mandal to Sargaon (DB) via Bhadu Bagore Amli Gangapur, Gangapur","25.2164171","74.257721"
"ChIJ7-29r1n1aDkR0Un-243MlbY","Gangapur Petroleum (BPCL Petrol Pump)","6742+W69, Sahara Chouraha Road, Gangapur","25.2072901","74.2506145"
"ChIJ31z8YTTzaDkRIJAAvqUxf8s","New Evergreen Nayara petrol pump","685F+3XH, Gatheela","25.2076904","74.32497099999999"
"ChIJU9XR-Cf1aDkR6nLhJwH6qao","Bharat Petroleum Petrol Pump , MEHTA PETROLEUM","MELONI KHERARAIPUR ROAD, Ward No. 3, Gangapur","25.21605929999999","74.2421677"
"ChIJ9ykIQF3taDkRxWeSapzCo00","IndianOil","Ground Floor, Gangapur Road, Karoi","25.2263848","74.4159366"
"ChIJb3Sw6gnzaDkR9LGa_Ai6zTg","Hindustan Petroleum Corporation Limited","Ground Floor, NH 758, Karoi","25.223101","74.40430099999999"
"ChIJDbgYHgDzaDkRuAM8XWWHSh8","Adani CNG Pump","6998+7P, Bhunas","25.2171136","74.36609969999999"
"ChIJuUjolWzzaDkRwsAbmQoiogs","Hindustan Petroleum Corporation Limited","Ground Floor, NH 758, Bhunas","25.217331","74.366001"
"ChIJ5-fsbZntaDkRHbbN14ZlmUQ","Hindustan Petroleum Corporation Limited","Ground Floor, NH 758, Gurla","25.267701","74.486301"
"ChIJfYro25DtaDkR6AiIt7ynWr4","Shakti Indian Oil","7F8M+VM3, State Highway 12, Mujras","25.2677754","74.4851379"
"ChIJrReuC2XsaDkRHeFwnQKsC48","IndianOil","Ground Floor, Amalda CO, Udaipur Road, Gurla","25.2679196","74.48486059999999"
"ChIJXy_2rGXsaDkR-rw0vffMhsg","ESSAR","India","25.26704","74.4843109"
"ChIJsUqHuPrpaDkRipoHluAOOrs","IndianOil","Ground Floor, G 19, Pur Road, Azad Nagar, Bhilwara","25.3257232","74.58289959999999"
"ChIJLVpJCwnCaDkRpZrDlSKmagc","BPCL Petrol Pump","Sector A, Bapu Nagar, Bhilwara","25.3322866","74.5965487"
"ChIJ6fyH-YvpaDkRVqfepz7cJRE","IndianOil","India","25.3182845","74.5646015"
"ChIJo4lhZZTpaDkRrJ6T_IRUCrQ","Bharat Petroleum, Petrol Pump -Navkar Filling Station","NH-76, VILL PUR, BHILWARA, Bhilwara","25.3312752","74.566124"
"ChIJ18s6I-7paDkR9pt6ztEHU3Y","IndianOil","Ground Floor, Samori","25.337215","74.55369340000001"
"ChIJw8eDUaLpaDkRTMmlQ7IIrT8","Hindustan Petroleum Corporation Limited","Ground Floor Sambodhi, near Ratnakar Steel Plant, Jindal Road, Bhilwara","25.3369027","74.55313819999999"
"ChIJueC-cobpaDkRm8xunY9PZC8","IndianOil","Ground Floor, NH 79, Bhilwara Road, Pur","25.3213769","74.586953"
"ChIJF434cxrqaDkRhF9D8xpQmsg","IndianOil","Ground Floor, Bhadokhara Attoon, Pur","25.3032369","74.5777327"
"ChIJ-63SaGvpaDkRP3_q9kD08_Q","DEVILAL","8HJR+5HP, Sector 4, Patel Nagar, Bhilwara","25.3304669","74.59145389999999"
"ChIJE_2EG9rpaDkRTA_EHHwrxbQ","IndianOil","near Kalaji Palace, Ground Floor Pansal, near Kalaji Palace, Gaon Road, Azad Nagar","25.34930009999999","74.587001"
"ChIJP1_v87HpaDkRNetpGUfVWHE","HP PETROL PUMP - NAHAR FILLING STATION","Hpcl Petrol Pump Vill Sambodhi Near Meja DAM, Udaipur","25.3585783","74.54593779999999"
"ChIJBQLBygPpaDkR0f30I54wGyc","Hindustan Petroleum Corporation Limited","Ground Floor, near Meja Dam, Samori","25.358592","74.545928"
"ChIJ240y4mzCaDkRCbAc8Sf37gg","Hindustan Petroleum Corp. Ltd.","8JV5+26C, Pansal, opp. Bhopal Mining Works, Road, Bhilwara","25.3425627","74.6080084"
"ChIJExhYj0vdaDkRIe9kAkdLGZk","Petrol Pump Essar","Jeepiya","25.4139933","74.6112562"
"ChIJvYRTdk7daDkRw1QRy-tMc3k","Hindustan Petroleum Corporation Limited","Ground Floor, Bhadali Khera","25.414957","74.610901"
"ChIJidbSbgDDaDkRmuyXmjiIM6g","My Eco Energy Indizel","CH3W+73F, Jeepiya","25.4031981","74.5951705"
"ChIJaZ46YmTDaDkRy6afKahUoRw","Bharat Petroleum Petrol Pump , SHYAMAL ENTERPRISES","E25 & E26 MADHAVNAGARAMER ROAD","25.403471","74.61424099999999"
"ChIJ03b3bUXdaDkRkqDRyuqs42Y","IndianOil","Ground Floor, NH 79, Badali Khera, Azad Nagar","25.42252329999999","74.6071089"
"ChIJqYIMS2bdaDkR1_0P01rt06U","IndianOil","NH 79 National Highway, Chouraha, Mandal","25.4356124","74.6030674"
"ChIJa3LwzXnpaDkR4zbbkf17_Zw","IndianOil","Ground Floor, Azad Nagar, Malola","25.3847731","74.5821823"
"ChIJ8YYwtyvpaDkR3TlYPjLXvCE","IndianOil","Ground Floor, Azad Nagar, Malola","25.3847731","74.5821823"
"ChIJO6NadonpaDkR5WDa5AFFVes","Nayara Petrol Pump - Seth Filling Station","Village After Jindal mines, On NH79 Bhilwara BY Pass Near by Dhulkheda, Bhilwara","25.3832079","74.5801327"
"ChIJ_-h-IADpaDkRmwesxosWO-M","SETH FS","9HMJ+63V, Dhool Khera","25.3831178","74.5801826"
"ChIJG32kUADDaDkRL012t11vePU","Shankar petrolium indian oil","near kankeriya bavji, 200ft, road, Bhilwara","25.3747713","74.61059809999999"
"ChIJW9hWaA3DaDkR6otQ1uQff2Q","IndianOil","Ajmer Road, Bhilwara","25.3777054","74.6224381"
"ChIJx1G7XZDnaDkRDJCScFe7i4s","Hindustan Petroleum Corporation Limited","Ground Floor, Mandal","25.4399901","74.5790501"
"ChIJLcv13_DpaDkRgG7pM7ZC9yQ","Hindustan Petroleum Corporation Limited","Ground Floor, NH 79, Narayanpura, Bhilwara","25.379701","74.578001"
"ChIJ_xus6wznaDkRUSx4KBtlCGs","Shree Bala ji Auto","Shree Bala Ji Furniture, Road, Bagor","25.4226402","74.56365540000002"
"ChIJ14NbZazCaDkR-G8BKGz0M-M","Monit Fuel Station","near D.n. TaTa motors, National Highway 48, Bhilwara","25.3762808","74.5788732"
"ChIJixytbC5JbzkRzvQqgUuZIiE","IndianOil","Ground Floor, Bairan, Banera, Babrana","25.5343199","74.5886963"
"ChIJK1TZBnbgaDkRnKnbeAvAweQ","IndianOil","Jaswantpura","25.564022","74.5927588"
"ChIJqYSZfJ_gaDkRV6bmCNLOqGo","Jio bp","India","25.5238178","74.589643"
"ChIJOWWs30ThaDkRmfwODoezlS8","CNG & EV Petrol Pump, Bharat Petroleum, Satya Sai Filling Station","near NEW BHILWARA MIDWAY, NH-48, near NEW BHILWARA MIDWAY, Nanakpura","25.5193586","74.592016"
"ChIJNbCmRQDhaDkRAKohxN6JPoQ","C- 5 UMESH","GH9M+4VJ, kanchan marg, D - Block, Vaishali Nagar, Jaipur","25.5178414","74.5846551"
"ChIJgwxrqgThaDkROq2Eh_ZZewU","Reliance Petroleum","Khasra No 616, 753/424, Nanakpura","25.5241108","74.5808188"
"ChIJMfmnYgDfaDkR0EuLy6bZCdk","Monika Sharma","GHJX+4J3, Balesariya","25.5302717","74.5990492"
"ChIJKbZ_iALeaDkROrYX4AT43lo","IndianOil","Ground Floor, Bhand Ki Bawdi, Mandal, Azad Nagar, Bhilwara","25.5098368","74.5935308"
"ChIJId5O7vfdaDkR2M-queB6rRE","ESSAR Pump- Dalmia's petrol pump","National Highway 48, Ramsinghpura","25.4961421","74.5997814"
"ChIJx6MNTVzdaDkRHTsVT-irpwM","INDIAN OIL","NH 48, Bhilwara","25.4929818","74.602409"
"ChIJEWDrfhzdaDkRuue4abHSnr4","M/S KHURD MATAJI ENTERPRISES","National Highway 48, Danta Nilawari","25.4898385","74.6033336"
"ChIJL4o-K_DdaDkRTgq34X2ypEI","HP PETROL PUMP - DAKSH PETROLEUM","Ground Floor, NH 79, Ramsinghpura","25.487661","74.604651"
"ChIJt4da7y3naDkRPGgoxvPrLAM","Sukhwal Petroleum","Mali Khera","25.4916348","74.5565539"
"ChIJZ-QAhjDnaDkRxkQQl_q7NPA","IndianOil","Ground Floor, Mandal, Beawar, Azad Nagar, Dhunwala","25.4863534","74.5611358"
"ChIJAxYw3dXhaDkRbjgRV2m-34M","Ravi Filling Station","Golden Quadrilateral, Jaswanpura","25.5672162","74.592581"
"ChIJ2Zhew8whaTkR2-fRfsLj-rQ","RAJ PETROLEUM","near Simla in hotel, NH-79 Ajmer road Raila National highway, near Simla in hotel, opposite to mateshwari guest house, and, Raila","25.6441257","74.5975836"
"ChIJAelP3TAhaTkRUBHLnr-zjBU","IndianOil","Ground Floor, NH 79, Balesaria, Raila","25.6442031","74.597905"
"ChIJPTOSkv_faDkRWIc837TW30I","Hindustan Petroleum Corporation Limited","Ground Floor, NH 79, Ajmer Road, Bhilwara","25.592501","74.594501"
"ChIJIY-Hm-ghaTkRIhO6AqRxWPw","BP Raila Pump","Dhuwaliya","25.66440649999999","74.6040125"
"ChIJafX43SEhaTkRkNwPgj050O0","Bharat Petroleum, Petrol Pump -Bp Raila","MJ73+QJF, Raila","25.6644471","74.6040331"
"ChIJqwP_FAkhaTkR4Cu36WCaUis","IndianOil","Ground Floor, Raila","25.665104","74.604401"
"ChIJoYGYbRkiaTkRoNBxXrUCDdo","IndianOil","Ground Floor NH 79, Sareri, Balesaria, Bhilwara","25.6954001","74.612201"
"ChIJIW9r_GAjaTkRpt6O0bIAC54","IndianOil","Ground Floor Hurda, Barantia, Sanodiya","25.70870009999999","74.616601"
"ChIJgVWGL5Y9aTkRH-nyx4jeUfs","IndianOil","near Mahindra workshop, Taswariya","25.847683","74.6167438"
"ChIJxwltGWM9aTkRc-X256H4wNo","Hindustan Petroleum Corporation Limited","Khasra No 1806, 1090 & 1808/1091, Hurda, Taswariya","25.850677","74.618054"
"ChIJg_sbW409aTkRVsfltp9nHTs","IndianOil","Ground Floor, Badla, Rupaheli, Hurda, Roopaheli","25.825077","74.615143"
"ChIJt5Iy-349aTkRiUQat1I-kHQ","Guru Panna Filling Center","Ajmer, On NH-79 Rupaheli Chouraha","25.824977","74.615471"
"ChIJw8Olhgs9aTkR3jPj_eVbEO8","IndianOil","Ground Floor, NH 79, Khari Ka Lamba, Hurda","25.8609214","74.6183464"
"ChIJUeNux2o9aTkRgKYzWGhUDwE","Hindustan Petroleum Corporation Limited","Ground Floor, Roopaheli","25.8045601","74.6158201"
"ChIJlXXjFgQ_aTkRu27_njYrd7U","Petrol Pump","Rajasthan State Highway 39, Bijainagar","25.9288461","74.6468318"
"ChIJe4aeZpk_aTkRTbMTL78bCo0","IndianOil","Ground Floor Bari Baral, Road, Bandanwara","25.948701","74.63220100000001"
"ChIJb__DN9A_aTkRnWEmplkq7IA","Hindustan Petroleum Corporation Limited","Survey No 328, Plot No 12 & 13, Bijainagar","25.92812799999999","74.63623799999999"
"ChIJDWziVSnhaDkRI33DPa6-FmA","IndianOil","Ground Floor, NH 79, 2, Baral road, Bijainagar","25.9276032","74.6304105"
"ChIJm00lYQBBaTkR8tCWkmZWlW4","Bharat Petroleum - Sathana Filling Station","XJCM+RF, Sathana","25.9730584","74.6338833"
"ChIJ1WoHupBBaTkRPjp_C4mRIfs","Bharat Petroleum Petrol Pump , CHOUHAN PETROL PUMP","KHASRA NO. 1479/1SATHANA, Bijainagar","25.9791346","74.635181"
"ChIJtz5vl-I-aTkRjs1l4l-dmWk","Reliance Petroleum","KHASRA NO. - 542 / 543 & 544 , LHS TOWARDS :- VIJAYNAGAR-GULABPURA , SH - 39 VILLAGE :- VIJAYNAGAR, TEHSIL :- MASODA , DISTRICT:- AJMER VIJAY NAGAR","25.921758","74.6532764"
"ChIJT_wt--U-aTkRMfFxzccN964","Hindustan Petroleum Corporation Limited","Ground Floor, near Bus Stand, Gulabpura","25.9120301","74.6574701"
"ChIJ1cQAF_s_aTkRFDXQtPdcS00","Hindustan Petroleum Corporation Limited","Plot No 1166/368, kekri Road, Bijainagar","25.925477","74.674191"
"ChIJbzUcE_NDaTkRTJcEXTHoFFE","CNG PUMP BPCL MAHAKALIKA FILLING STATION","Kheri","26.0847376","74.6795195"
"ChIJZzD0PABDaTkRmTiThmRZb4I","Jai Jwala filing station","3MJH+V2C, Bandanwara","26.0821904","74.6775122"
"ChIJaac8pl5FaTkRUGDYV2QIdyY","Hindustan Petroleum Corporation Limited","Plot No 2717, Ajmer Bhilwara Road, Bhinay, Bandanwara","26.117863","74.69377899999999"
"ChIJW0LEQI5FaTkRdg2_PgZxo5Q","HPCL - Kishanram Mohanlal","bhilwara road, Bandanwara","26.117896","74.6938522"
"ChIJA1pVVHtDaTkRgdjpgDiiLLU","IndianOil","Ajmer, Ground Floor Chhachhundra, Bandanwara, Bhinai","26.1213603","74.6810424"
"ChIJ5bZYKWNFaTkRdhzDriaELaM","IndianOil","Ground Floor Chhachhundra, Bandanwara","26.101686","74.716157"
"ChIJuzzPzmpBaTkRmaZF4e2fOg8","IndianOil","National Highway 48, Gowaliya","26.0579063","74.6699027"
"ChIJp3b5splEaTkRsoCYzJLcT3A","IndianOil","Ground Floor, NH 79, Bandanwara","26.1317165","74.6965422"
"ChIJUQjataRbaTkRDhN8UQCABEs","R. J. मोटर्स टाटा युरीया पम्प","6P69+WPV, Bandanwara","26.2115535","74.7185576"
"ChIJa9rc6vVbaTkR1C-hVh8Z0Q8","Hindustan Petroleum Corporation Limited","Plot No 2123 & 2124, Ajmer Bhilwara Road, Bandanwara","26.189885","74.7141516"
"ChIJWcU7-AdbaTkRMAFNbOyF9h8","Igl CNG pump","5PQ7+WMJ, Ajmer Road, Bandanwara","26.1898494","74.71413919999999"
"ChIJQ47aGABbaTkRPUfTNb8xtLg","PATNI ROADLINES LLP","5PM6+6G4, Nasirabad","26.1830148","74.7113174"
"ChIJP261ndlbaTkRmaX-A9wzYFI","Hindustan Petroleum Corporation Limited","Plot No 478, Ajmer Bhilwara Road, Nasirabad","26.247601","74.7192501"
"ChIJG9P9ykRYaTkR-wmG1FxRhiw","IndianOil - SWAGAT","Ground Floor NH 48, Near Dilwari Nasserabad Crossing","26.3118111","74.749111"
"ChIJ2--sxkRYaTkR0wE0P_n_3Xg","Suhani Filling Station-Hindustan Petroleum","Dilwada, Ajmer, NH-79A, Nasirabad Road, Nasirabad, Nasirabad","26.3169","74.7465"
"ChIJ0xERs0RYaTkRIKeyG49yBJs","IndianOil","Ajmer, Road, bhilwara","26.3176048","74.7455339"
"ChIJNbidIQBZaTkRgm1c_4G7jDc","Vijay vargiya ofice nasirabad","8P2M+PHR, Nasirabad","26.3018519","74.7338875"
"ChIJryjWODRZaTkRM_HLOZJmhnA","Bharat Petroleum, Petrol Pump -Jaswant Filling Stn (Resited Hsd)","DERATU, AJMER BHILWARA R, AJMER","26.2842811","74.75185259999999"
"ChIJ7zW7wWZZaTkRqEtJXmD51JE","IndianOil","Khasra No 1278 Dilwari, Nasirabad, Bijainagar","26.329716","74.75048799999999"
"ChIJa9Cst3VYaTkRj-flpgDllIQ","IndianOil","NH 79A, Dilbari, Nasirabad","26.3302869","74.7507595"
"ChIJF9K8cipZaTkRSyOMq5AKLyU","Hindustan Petroleum Corporation Limited","118/1478, Plot No 371, Ajmer Bilwara Rd, Dilwari, Nasirabad","26.3279607","74.7359068"
"ChIJQda6ZgBZaTkR6n4rgTjhBJg","RTC PETROL PUMP 6872 ⛽","7PFV+P4F, Nasirabad","26.2745411","74.7426265"
"ChIJ1_NozCtZaTkRdaid4ZVlO-8","Nayara Petrol Pump - Choudhary Laamor Filling Station","Khasra No. 5659 & 5660, Tehsil. Nasirabad, Derathu","26.2674095","74.7578209"
"ChIJI5QysXVYaTkR1GtFREQOM9c","dianOil","India","26.3457842","74.7530984"
"ChIJo-mtsHVYaTkReTx6jsPY7PY","IndianOil","Ground Floor, Nasirabad, Bijainagar","26.346","74.7528"
"ChIJle3Mx1NZaTkRkGhDkdT2-6g","Hindustan Petroleum Corporation Limited","Plot No 5428 SH 26, Nasirabad","26.266862","74.761665"
"ChIJt0P4QwBZaTkRxh2usoca5j0","HPCL LNG FILLING STATION","7PCH+9F2, Nasirabad","26.2708796","74.7286505"
"ChIJW6CUaWRZaTkR1IXDWVxc03w","Hindustan Petroleum Corporation Limited","Plot No 817/1, Ajmer Bhilwara Road, Nasirabad","26.270701","74.7288401"
"ChIJLUWkQWNZaTkR57rK5MYHZ6E","Jio-bp","Reliance Petrol Pump, Khasra No. - 817 / 1 , LHS Towards :- Bhilwara - Ajmer , N, Nasirabad","26.270862","74.727938"
"ChIJ9wFSBM37azkRdT4IOldEo9k","Verma And Company Srinagar Ajmer","CQVM+PW8, Shreenagar","26.4442987","74.7848156"
"ChIJRZ4s-UzjazkRXVzjEnu2tbA","IndianOil","Ground Floor NH 79, Shreenagar","26.4459721","74.786451"
"ChIJa9FJ6sf7azkRf11gGzEEKmg","IndianOil","Ground Floor Nasirabad, Shreenagar, Ajmer","26.4472607","74.788434"
"ChIJo1kTgFj7azkRiw8nYAqxIOY","krishna Petroleum","Ajmer","26.4449306","74.7952129"
"ChIJG7-X_UzjazkRz7qziOkdYQA","HP PETROL PUMP - NEHA PETROLEUM","NH-76 Vill Kanakhedi","26.4292697","74.7786194"
"ChIJN9fd_Rz7azkRjOs6IqtcVcQ","CNG Station Arihant Shree Nagar Ajmer","National Highway 48","26.4618159","74.80306569999999"
"ChIJ9WwXEkL7azkRvV5Rk9uZedg","Bharat Petroleum","India","26.4618385","74.80311309999999"
"ChIJdxGGkQfjazkRrJzWAKon6OY","Bharat Petroleum, Petrol Pump -Aarihant Filling Station","KANAKHEDI, Ajmer","26.4119346","74.7733985"
"ChIJZx2mfwDjazkRGK9koi_end0","D E F Uriea ⛽ pump","CQ4C+554, Nasirabad, Shreenagar","26.40539519999999","74.7704648"
"ChIJJ_CYPi_jazkR1STBpd_2smE","IndianOil","Ground Floor Kanakheri, Sri Nagar, Nasirabad","26.403023","74.770718"
"ChIJWevUxBH6azkRF6bNhmVB20c","IndianOil","Ground Floor, NH 79, Dhan Mandi, Kishangarh","26.5316052","74.8585107"
"ChIJz00wDYb7azkRJscXb644xww","HP INDIAN pump SILORA","GVM8+RPV, SILORA Rico ke pass, Kishangarh","26.5346083","74.866795"
"ChIJkVSdpbP7azkRqKyw3TsDlCA","IndianOil","Ajmer, Kh 732/201 975/200 981/211 Kishangarh, Udaipu","26.4897007","74.8267047"
"ChIJYyCYpAb6azkRCRIL8PxpZ0Y","RAPRASTHA GAS LIMITED","India","26.5395923","74.86720590000002"
"ChIJuUecNwDxazkRpJHIQ9ZEibc","Igl CNG pump,","GVX6+27M, Silora Road","26.547579","74.8606867"
"ChIJ4esECgDxazkRJgL_xN_FGI0","GUNSAGAR ENERGY STATION","09, Ajmer","26.5420897","74.8150003"
"ChIJEV2ZcCb7azkRFLQ71dxv4ak","Hindustan Petroleum Corporation Limited","Plot No 2/598, Kishangarh Nasirabad Road, Udaipur Kalan","26.481852","74.822182"
"ChIJoZ06uBz3azkRBtJ-M7HYr9U","Hindustan Petroleum Corporation Limited","Plot No 248, Jaipur to Udaipur Road, Kishangarh","26.5908585","74.9084926"
"ChIJ1dWHG9jwazkRMoS3R4dpxzI","Hindustan Petroleum Corporation Limited","Ground Floor, Agrasen Nagar, Kishangarh","26.589464","74.86202399999999"
"ChIJs28GegD3azkRWK3fkFlsDfQ","Lpg pump ⛽","HWQ3+FF9, Naya Gaon","26.5887862","74.90371429999999"
"ChIJedisAAD3azkRu0sFG2Oefr4","S S. BALURAM CNG PUMP NH 8","HWQ2+G92, Kishangarh","26.5887803","74.9008298"
"ChIJU10fHgD3azkRhzC3-fapwR4","ONLINE CNG 24 hours","HWQ2+H44, Kishangarh","26.5888997","74.90032099999999"
"ChIJd9ueLB_3azkR58wd953MNjk","IndianOil","Ground Floor, NH 8, Dhan Mandi, Naya Gaon","26.5885653","74.900312"
"ChIJ4QLCXQD3azkRdeCufu_3jH8","IndianOil","Dhan Mandi, Khasra No 246/2 NH 8, Tolamal","26.59145640000001","74.91412489999999"
"ChIJ_3iT0kj3azkRkSrzvhZ2v3Q","IndianOil","Khasra No 486/309 Tolamal, Kishangarh, Khandach","26.590768","74.918233"
"ChIJCbwM1EHxazkRW0woX_UYUa8","Nayara Energy Petrol Pump","Link Road, Madanganj, Kishangarh","26.5940251","74.8662566"
"ChIJX2ywKCL3azkRuFY7MLeBVz8","Hindustan Petroleum Corporation Limited","Plot No 1940/1, Maliyo Ki Badi SH 7E, Sarwar Road, Kishangarh","26.5549764","74.8874024"
"ChIJI5nO4S_xazkRz1kulDxqmJA","Hindustan Petroleum Corporation Limited","Ground Floor, Kishangarh Bypass NH 8, Jaipur, Udaipur Road, Kishangarh","26.601864","74.863439"
"ChIJa6cApf_3azkRixKL0rJXtrA","Jai Shree Shayam Petroleum","Maliyo ki badi, Kishangarh","26.5556423","74.8770923"
"ChIJ86IYd1r5azkRPt8G3aN11Os","IndianOil","Ground Floor, Jogiyo Ka Nada SH 7E, Kishangarh, Dhanmandi Road, Ajmer","26.545284","74.902069"
"ChIJ6UTIXCYJbDkRvFc8McVhcv0","Petrol Pump & CNG, Bharat Petroleum (BPCL)","J27X+M26, Bandar Seendri","26.6141536","75.0475214"
"ChIJjayBQgAJbDkRxZG3kisvC08","COCO INDIAN OIL","J27Q+6RQ, Bandar Seendri","26.6130909","75.0396069"
"ChIJc_6grUgJbDkRXz2gIvC_mb0","MAHAKAL PETROL PUMP Bandar seendri","J23Q+22J, Bandar Seendri","26.603168","75.03711"
"ChIJP7H-l3gRbDkRC0RX83hoDjk","IndianOil","Ground Floor NH 8, Ajmer Road, Dudu, Dantri","26.66577699999999","75.201988"
"ChIJWdU688a1bTkR38Lhc5GLB5A","IndianOil","Ground Floor, Jaipur to Ajmer Road, Dudu","26.6639712","75.200344"
"ChIJ67m_Fu8RbDkR_sY3T3LJQJI","Bharat Petroleum, Petrol Pump -Kargil Shaheed Sumer Singh Fill Stn","Ajmer-Jaipur Expressway, ROAD, Patan","26.6628282","75.1948713"
"ChIJjdlJXP0TbDkRWlQqtB-19c0","Reliance Petroleum","KHASRA NO. - 752, 753, 754, 755, 756, 757, 758, 759, 760 & 913 , LHS TOWARDS : AJMER-JAIPUR , NH -8, VILLAGE :- DUDU , TEHSIL :- DUDU, DISTRICT:- JAIPUR PIN_C, Mahela","26.679117","75.23313"
"ChIJazoO6jcTbDkRBZd-SXO2UAI","Bharat Petrol Pump - DKMC","Bharat Petrol Pump, DKMC, Dudu","26.6792526","75.233092"
"ChIJlXK2FOMTbDkRi9qEV47YpKk","IndianOil","Ground Floor NH 8, Ajmer Road, Dudu, Dantri, Jaipur","26.680497","75.234382"
"ChIJ23Mldf4TbDkR67U3raUdSEU","Hindustan Petroleum Corporation Limited","Khasra No 7361, 7240, Mojamabad Road, Mojamabad, Dudu","26.678836","75.24211919999999"
"ChIJGcxAnDYRbDkR7rAZIAtRwgw","Hindustan Petroleum Corporation Limited","Ground Floor, SH 37A, Malpura Road, Dudu","26.6624513","75.2475855"
"ChIJOY5kbQATbDkR7BgyMQjm080","Nayara Fuel Station","M6QW+WX8, National Highway 48, Dudu","26.6897979","75.2474431"
"ChIJXX84r4oRbDkRTzGMo38uZ9I","Nayara L R Filling Station","Khasra No. 752, 753, Padasoli, Tehsil. Dudu, Jaipur Jaipur, 754 & 1689, Village, Geji","26.6580205","75.1719646"
"ChIJFQ3K2w0VbDkRoutbI8nT1rA","Neel Choudhary Filling Station","near Neel Choudhary Hotel, Ajmer-Jaipur Expy, Sawarda, near Neel Choudhary Hotel, Jaipur","26.7404752","75.3129588"
"ChIJw-WRKGwVbDkRWmWib8Wg70Q",". Gurukripa Chaudhary Raj Hotel","P8WF+J9X, Palu Khurd Road, Palu Khurd","26.746616","75.32349599999999"
"ChIJJ3oCZewVbDkRMu_a2yOalIQ","Exol Park 50th Milestone","P7GW+FMQ, Sawarda","26.7262187","75.2967314"
"ChIJh9viBwAVbDkR9ll5cwb8jn4","RTO","Q84Q+GHV, Akoda","26.7564457","75.3377339"
"ChIJc2ZB97m1bTkRpydCYp1AKwo","IndianOil","NH 8, Ajmer Road, Palu Kalan","26.7570698","75.33837249999999"
"ChIJue6i6swVbDkRUkQWCtLdqeY","Hindustan Petroleum Corporation Limited","Ground Floor, NH 48, Jaipur Ajmer Road, Gidani","26.7159412","75.28245299999999"
"ChIJH2l0XxgVbDkRWDQkhYlJ5Xc","IndianOil","Ajmer Road, Palu Kalan Road, Mozamabad","26.75615579999999","75.3395391"
"ChIJKRUaIAAVbDkRtdUK_qqAICo","K M Traans Indian pump ⛽ जयपुर","Q85Q+F68, Mozamabad","26.7586566","75.3380736"
"ChIJmQ44CEEVbDkRe0WK7ozashc","Jaigurudev Jaygurudev indian oil Petrol Pump Gidani Rajasthan","P77H+MJ7, Golden Quadrilateral, Dudu","26.7150136","75.2791786"
"ChIJhbjl80EUbDkRtIHYywYSMOk","IndianOil - SWAGAT","NH 8, Gidani","26.708607","75.27216299999999"
"ChIJF6z52IY_bDkRuFPjqiFwOU0","Bharat petroleum","Q962+R9R, National Highway 48","26.7621115","75.35088309999999"
"ChIJD9k6_mkUbDkRhqYYD57aU1s","Hindustan Petroleum Corporation Limited","Ground Floor, NH 48, Delhi - Ajmer Expressway, Gidani","26.709011","75.271191"
"ChIJE9jwEwAVbDkR6xHkG1eqhNM","CNG pump","P75C+G9X, Dudu","26.709082","75.270844"
"ChIJHf36-mBHbDkRFGeTmq3blF0","IndianOil","Ground Floor Ajairajpura, Ajmer Rd, Bagru Rawan","26.8099158","75.4857248"
"ChIJyeAkEuBHbDkRZV3MpIEJbok","IndianOil","Ground Floor Sanganer, Bagru Rawan, Ajairajpura, Bagru","26.812493","75.4923501"
"ChIJH10fYetHbDkRcis1KldULgU","IndianOil","Ground Floor, NH 8, Ajmer Road, Bichoon, Jaipur","26.814077","75.505862"
"ChIJH0bloetHbDkR7TYZDS9JNWI","IndianOil","Ground Floor, NH 8, Ajmer Road, Ajairajpura","26.8159028","75.5089366"
"ChIJWTQCYwBHbDkRhIOj8rpWh-Y","A R TRADERS","RG85+8C6, near Indian oil petrol pump, Chhitroli","26.8162214","75.5090422"
"ChIJGwbPzHk5bDkR4chL49ynMe8","हिन्दूस्तान पेट्रोलीयम","QGP3+8W6, Chhitroli","26.78579879999999","75.5047578"
"ChIJGzTAbABHbDkRr6_o9_Pejt4","IndianOil","QCWP+544, Nasnoda","26.7951977","75.4350508"
"ChIJzwWih0lKbDkRLJKs1Kek-bM","Hindustan Petroleum Corporation Limited","Ground Floor, Jaipur Ajmer Road NH 48, Bagru, Ramchandpura","26.8523868","75.6461622"
"ChIJ8XGFub1JbDkRxsumew6PRz4","Bharat Petroleum","B-98, National Highway 48, Harchandpura at Deoliya","26.8365865","75.59548749999999"
"ChIJX8Rh9j6xbTkR4dPbsNWSde0","kailash chand & co","kailash chand & co. bad ke balaji stand thikariya ajmer road, Jaipur","26.849732","75.638213"
"ChIJL-7hrhpLbDkRsDznUF0_VUE","Bharat Petroleum, Petrol Pump -Kissan Filling Stn.","RAMPURABAS DEOWALIA, Jaipur","26.853709","75.6491973"
"ChIJkWzyS0xKbDkRwSgYPlW_8ss","IndianOil","Ground Floor, Road, Narsinghpura, Ajmer","26.854001","75.652401"
"ChIJGzjs3C5KbDkRvEqQXLpLcso","Bharat Petroleum Pump KC and Company","Near, Jaipur - Kishangarh Expressway, Omaxe City, Sodala","26.8469254","75.6279406"
"ChIJ9_eQy6pLbDkR1j48_S2vLu0","Hindustan Petroleum Corporation Limited","Ground Floor, NH 48, near Pink Pearl Water Park, Bagru, Jaipur - Kishangarh Expressway, Narsinghpura, Jaipur","26.85971229999999","75.6662351"
"ChIJ4UlL_Sg2bDkRzojx55umeRw","IndianOil","Ground Floor, Mahapura Road, Chirota, Kalwara, Bhamod","26.84564009999999","75.6678137"
"ChIJOZbOcgBLbDkRmj1EkHPb1_8","Bharat Petroleum भारत पेट्रोलियम","VM6F+F44, Kalwar Rd, Gopal Pura Mode, Jaipur","26.8610546","75.6679636"
"ChIJwzOOcABLbDkR3QgoT-VlUJE","Torrent PNG Gas Store Plant","Outside, Ashiana umang, Vertical Spine Road, Jhai","26.8246152","75.6554113"
"ChIJNc61iSFLbDkRYr0KgHV50cM","IndianOil","Ground Floor, Ring Rd, Bhambhoria, Mahapura","26.8479371","75.6773384"
"ChIJzyeymCpLbDkRDcIZYW0FgE4","Krishna Indian oil petrol pump","Village-Mahapura, On, Jaipur Ring Road, Jaipur","26.8478753","75.67763819999999"
"ChIJWQp71z5LbDkRadn0E3E0PrA","Bharat Petroleum","VM5H+R35, Unnamed Road","26.859506","75.67774419999999"
"ChIJ8-xBPwBJbDkRydM1X98-fAM","Chhitar mal kalyan shay and sons","VJ32+VR, Harchandpura at Deoliya","26.8547238","75.60211690000001"
"ChIJO0DNWQBJbDkRLlU86FDzenA","Bharat petrolium pump","VJ32+VQR, Sanjharia","26.8547436","75.6018998"
"ChIJ98Dn2xhJbDkR4oSDzYJTJmk","Jio-bp","next to Varun Beverages Factory, No 451/279, 453/279 Urf Nada, next to Varun Beverages Factory, Sanganer, Bagru","26.838741","75.602441"
"ChIJ2yAyUHBLbDkR5Rqf01bI9Bw","IndianOil","Pintu filling center, near bhankrota, NH-48, Ajmer Road, choraha","26.8646568","75.6811594"
"ChIJ2R_l6HRJbDkRIgTFmPpe1Gk","IndianOil","Ground Floor, Road, yam Nagar, Sanjharia, Theekariya","26.8561527","75.5992679"
"ChIJUWZQILNLbDkRBtENb_hiUqI","IndianOil","Ground Floor Bindayaka Road, Mahapura, Bhambori","26.886701","75.658958"
"ChIJ0f_cH-lLbDkRIWtCQYmZ0xQ","Nayara Petrol Pump","VM8J+8RG, National Highway 48, Bhakrota, Jaipur","26.8655208","75.681863"
"ChIJbxRqcle0bTkRXB3PKkI67qs","IBP Petrol Pump","NH 8, Bypass Rd, Shanthi Nagar, Mansarovar, Jaipur","26.8797397","75.7639599"
"ChIJ96_ZNf9scjkRdY8G4d2OjQM","Devashree Collection","Elements Mall, Shop No.219, Second, Ajmer Road, Near, DCM, Jaipur","26.8953752","75.7483757"
"ChIJ-2_NVoS0bTkRe7ggrNhURnk","Hindustan Petroleum Corporation Limited","near Durga Marg, 7 & 8, Gandhi Path Road, Guru Jambeshwar Nagar, Jaipur","26.9061701","75.7520401"
"ChIJ377ue1uzbTkRB5ip7gIP3Zc","Bharat Petroleum Pump","Officers Campus Extension, Hanuman Nagar Extension, Anand Nagar, Jaipur","26.92106270000001","75.73087989999999"
"ChIJx73cm2W0bTkRnbYSsp3zl_A","IndianOil","Sodala, Jaipur","26.9013939","75.7708961"
"ChIJdWouoiNLbDkR7UNW6X8zsjQ","Hindustan Petroleum Corporation Limited","Ground Floor, NH 48, Bagru, Jaipur - Jodhpur National Highway, Bhakrota, Jaipur","26.8726606","75.7016634"
"ChIJd8ah40y0bTkRROz7pr4N-kg","IndianOil","Gopalpura Bypass Road, Mansarovar, Jaipur","26.872401","75.77510099999999"
"ChIJhZZoMrW1bTkR5ZUKBFOT8gE","IndianOil","Ground Floor, Gopalpura Bypass Road, Jaipur","26.871001","75.781601"
"ChIJl2B7uoa1bTkRNtj_R3tNGlE","IndianOil","A1A2, Plot No, Badarwas, Vardhman Nagar, Jaipur","26.8872431","75.73492209999999"
"ChIJS9SLMTe1bTkRnvVW1n9kS5w","IndianOil","Ground Floor Parshavnath Colony, Ajmer Road, Jaipur","26.891689","75.743495"
"ChIJE45nfwC1bTkRobFRNTzW_V0","Traffic police van","27, Shakti Nagar Road, Gajsinghpur, Jaipur","26.87855889999999","75.7261779"
"ChIJJbzHSgC1bTkRE7aIpeD1u2Q","Bharat gas petrol","VPFH+V7Q, Narayan Vihar, Jaipur","26.87470759999999","75.7282421"
"ChIJ_WWvdQC1bTkRgxY4NJFWDr4","NAYARA PETRO PUMP","87, SC Road, Govind Nagar, Manyawas, Jaipur","26.8714618","75.7318866"
"ChIJ4wmWoY60bTkRHJLXDgPrC-U","Bharat Petroleum, Petrol Pump -Hira Service Station","VPRX+FP6, AJMER RD RHS JAIPUR, DCM, Jaipur","26.8972974","75.7532429"
"ChIJVVVVFY60bTkR7jAsCb4CNJs","Heera Service Station","4/7, Ajmer Road, Vidyut Nagar, Vidyut Nagar, Jaipur","26.8972694","75.75328209999999"
"ChIJV-B8MZq1bTkR871QB2osICI","Bhart Petroleum","Man Highway, Gandhi Path Road, Acharya Vinoba Bhave Nagar, B Block, Vaishali Nagar, Jaipur","26.9067587","75.7383171"
"ChIJk-TpAAC1bTkRxqGCKPBYNcA","Bharat Petroleum Pump","VP9R+V6Q, Manyawas, Jaipur","26.8697005","75.74060460000001"
"ChIJV2dXTAC1bTkROuD6vLfpkZs","Petrol pump","VQJ4+FCJ, Pandit TN Mishra Marg, Shiv Shakti Nagar, Brijlalpura, Jaipur","26.8811627","75.7559773"
"ChIJf9YjatK0bTkRhjASrPzSpeo","BABA RAMDEV OIL COMPANY","India","26.87490949999999","75.71791"
"ChIJ1T-ppBm1bTkR_IjduTp0hkQ","IndianOil","Ganga Jamuna Chauraha, New Atish Martket, Brijalpura, Gopal Pura Mode, Jaipur","26.879999","75.758102"