place_id,name,address,latitude,longitude,open_now
"ChIJU4Hn5QOKczkR2c-ocvfoUv0","IndianOil","Ground Floor, Tantpur Road, Agra","27.11411910000001","77.9223465","true"
"ChIJwyE8WVl0dDkRrfKUiin_PVY","Bharat Petrol Pump and CNG","Agra","27.0823412","77.9890921","true"
"ChIJv_ax4uR2dDkR0NxOQ4fheJI","Modern Service Station","5X7P+6XQ, Saraikhwaja, Arjun Nagar, Agra","27.1630784","77.987471","true"
"ChIJlxvjsjx1dDkRBHFICgcWuvc","Indian ges service","4X32+57F, Unnamed Road, Jarua Katra","27.102934","77.950679",""
"ChIJ44UA_8Z1dDkR9ifOMBMVJ4Q","IndianOil","Ground Floor Siroli, Patholi, Ring Road, Bamrauli, Rohta","27.1144784","77.9498124","true"
"ChIJubz38Ep1dDkRK0j2BCKJxqw","Hindustan Petroleum Corporation Limited","Ground Floor Malpura, Bypass Road, Siroli","27.118596","77.944626","true"
"ChIJbXQvUxGKczkR70A-dwSnZ3E","Bharat Petroleum","4W26+QC4, State Highway 39, Lalau","27.1018994","77.9110721",""
"ChIJIb2d3x11dDkRO_A738X66Ok","Hindustan Petroleum Corporation Limited","Ground Floor Sadar, Malpura, Bypass Road, Bain Khera","27.109038","77.968341","true"
"ChIJY87vuMh1dDkRf6kzYAPjyh4","Shri Ram","Mundhera","27.0798955","77.946725","true"
"ChIJLS_1SAB1dDkRjlcG7LqBPRQ","IndianOil","Ground Floor Jakhoda, 509 Command, Kakua","27.105752","77.98064","true"
"ChIJW6uLoFx0dDkRn0sF8CIkE58","सोनी ऑटो गैस","India","27.0896782","77.99107169999999",""
"ChIJO5BNfEF0dDkRIJ-_adMZJq0","IndianOil","Ground Floor, NH 3, Gwalior Road, Rohta","27.0969371","77.993532","true"
"ChIJb9GEtFx0dDkRM0ylNkrz6s0","IndianOil","Ground Floor Agra Gwalior Rd, NH 3, 509 Command, Rohta","27.091125","77.992081","true"
"ChIJwRnZMAB1dDkRSQ3rMBQi8yA","Pushpendra Singh jaat","3XFJ+FFW, Kakua","27.0737348","77.9811971",""
"ChIJwcX23813dDkRS3B8jGnsyhI","Bharat Petroleum Petrol Pump , T.R. FILLING STATION","NARIPURA - JAGNER ROAD NEAR GYAN INTER COLLEGE","27.14771399999999","77.977206","true"
"ChIJoyRKhC52dDkRLa-GbTjJNwY","IndianOil","Ground Floor, NH 11, Fatehpur Sikri Road, Arhera, Pathauli Village, Agra","27.161015","77.936302","true"
"ChIJy-sp0Qd1dDkRr5DlHfFrALw","Bharat Petroleum, Petrol Pump -Hukamchand Fakirchand(Kakua)","KAKUA, Agra","27.0723474","77.985421","true"
"ChIJj_0BEuZ3dDkRdcJrL59o9V0","Khandari","5XRC+5C3, near Petrol Pump, Bodla Road, Kishorpura, Bodla, Lohamandi, Agra","27.1578518","77.914648",""
"ChIJTw_YzPp0dDkRey8ZNS2nE6s","IndianOil","Ground Floor Gwalior Road, 509, Command, Kakua","27.067078","77.98322999999999","true"
"ChIJJe5QNQB1dDkRbJ-UPmo5v5s","Pradushan janch Kendra","Rampura","27.0871484","77.9981155",""
"ChIJZxQ-Yo2JczkRNRDeS4tsh9s","Bharat petroleum","5W44+96W, Unnamed Road","27.155984","77.9055655",""
"ChIJRfwTPkiJczkRRxd0WfwP940","IndianOil","Khasra No 169 Agra Jaipur Highway, NH11, Sahara Gaon, Agra","27.1550819","77.89622039999999","true"
"ChIJpdDsnh10dDkRQBfKG0v6bY4","Deep Automobiles","Sewla Jat Gwalior Road, NH 44 (Old NH 3, National Highway 3, Agra","27.1258723","78.00505489999999","true"
"ChIJlzIJ86N1dDkRlCXSUZSsv5c","IndianOil","NH 3 Sewla, Gwalior Road, Agra","27.126715","78.005363","true"
"ChIJJanPBs2LczkRPcSJDvudN0Q","NRO NAGLA SIKARWAR","3VW9+G2, Jitora","27.0963","77.8676",""
"ChIJb2Ig-r6LczkRi5BYRgfzd2M","Hindustan Petroleum Corporation Limited","Ground Floor, NH AB, Kiraoli, Jitora","27.097397","77.867277","true"
"ChIJ-y8PFqZ2dDkR0g1WxH_CAYo","Hindustan Petroleum Corporation Limited","Ground Floor, NH 3, Agra - Mumbai Highway, Sewla Jat, Agra","27.131501","78.00710099999999","true"
"ChIJ-8C4rhWJczkRyxdRBVGRFrI","Essar MG filling Station","Nehar Road Bichpuri, Agra","27.168077","77.90944999999999","true"
"ChIJIw1uPuh3dDkRa-P6a3RdEJE","IndianOil","Tata Gate Kheria, opposite Air Force Station, Agra","27.169511","77.965103","true"
"ChIJPzGQX5qLczkRiE6S7wwf3M4","Mohan Adtiya Filling Station","Nagla Sikarwar, NH AB, Byepass, New Dakshini","27.1003962","77.8623587","true"
"ChIJKxCkX2KLczkRTgeubRJzGK8","Hindustan Petroleum Corporation Limited","Ground Floor, NH AB Bypass, Nagla Sikarwar","27.100563","77.86223799999999","true"
"ChIJCR8nsQOLczkROvu3i1CO92Q","IndianOil","Ground Floor Tantpur Road, Barara, Akola","27.062087","77.879367","true"
"ChIJo_NHKNB3dDkRbJCTmZN-kSk","Hindustan Petroleum Corporation Limited","Ground Floor, Vayu Vihar Road, Kalwari, Agra","27.1768459","77.93950679999999","true"
"ChIJBWD9fEFxdDkRHNIxVLt6cek","IndianOil","Rajpur, Chungi, Agra Shamshabad Raja Kherah Marg, Agra","27.147229","78.0386697","true"
"ChIJq9NwfdB2dDkRebD8KcNEjS0","IndianOil","Mahatma Gandhi Road, Awantibai Crossing, Agra","27.1647817","78.0088576","true"
"ChIJQYtortB2dDkRMFJ7M85NgL4","Hindustan Petroleum Corporation Limited","Ground Floor, opposite Lauries Hotel, Mahatma Gandhi Road, Pratap Pura, Agra","27.168364","78.00919200000001","true"
"ChIJa9zcqz1xdDkRP9EPXLU5OI4","IndianOil","Ground Floor, beside Taj View Hotel, Fatehabad Road, Agra","27.161686","78.039811","true"
"ChIJiRO3k9d2dDkR6RZA5DG1xeQ","Bharat Petroleum","46, Mahatma Gandhi Road, Pratap Pura, Rakabganj, Agra","27.17179639999999","78.0092232","true"
"ChIJSe_c5wtxdDkR10umtX798wM","Petrol Pump","5356+X8V, Taj East Gate Road, Basai Khurd, Tajganj, Agra","27.15997699999999","78.0608104","true"
"ChIJ_9zA-IxzdDkRyJ9cXuB8qxI","Petrol Pump Gas Station","423H+533, Devri Road, Pachgain Khera","27.1028767","78.027672",""
"ChIJD258q41zdDkRtcjZEjPZmbg","Nayara Shree Ram Energy Center","422H+X7X, Pachgain Khera","27.1024841","78.02824939999999","true"
"ChIJ-VZAfzhzdDkRDRpv64MOI54","IndianOil","Ground Floor Agra Rd, Barauli Ahir, Devri, Iradat Nagar, Agra","27.078601","78.034601","true"
"ChIJBWCH_09xdDkRPBiLSqy9X9w","Hindustan petroleum petrol pump","Partap Pura, MG Road, Near Lawrise, Agra","27.14087","78.030954","true"
"ChIJR7ZDJ7h2dDkRD1BApNj42TE","Saiyan Filling Station","3, Gwalior Road, Idgah Colony, Agra","27.1484431","78.00806120000001",""
"ChIJJd9lUMFxdDkRzqeuKbNgtys","NAYARA SHREE JI FILLING STATION","Shree Ji Filling Station, Road, Maruti City Road, Shamsabad, Agra","27.1338789","78.0460013","true"
"ChIJOTW4fhoTdDkRwlYqOY3a0fI","IndianOil","Ground Floor, Agra Shamsabad, Road, Baroli Ahir, Agra","27.1435626","78.04300429999999","true"
"ChIJQamtxD1xdDkRxMgnqcslSjQ","Hindustan Petroleum Corporation Limited","Ground Floor, Agra Shamshabad Raja Kherah Marg, Rajpur Chungi, Agra","27.147301","78.038401","true"
"ChIJsS_yit1zdDkRvW8GEEnbAlY","Ramnager Petrol Pump","4368+C86, Ram Nagar","27.1110499","78.06577349999999",""
"ChIJARv1OjVydDkR3UctXkwkwvs","Hindustan Petroleum Corporation Limited","Ground Floor, MDR 113W, Gutila","27.1108437","78.0661224","true"
"ChIJOdbnztxxdDkRzZxAUWZbiwk","Jai shree raam","Parsvnath Panchvati, Kaveri Vihar Phase II, Tajganj, Basai","27.1479533","78.0510572",""
"ChIJ8a8QNiF3dDkRBf2rN1eS1Qw","Kumar Services","D1, Lekha Nagar, Agra","27.1623532","77.997742",""
"ChIJnWtPggFzdDkRsd2npDGhakA","Ramnager Petrol Pump","33WC+9FF, MDR 113W, Siktara","27.0959434","78.0711584",""
"ChIJpyfhztN2dDkR3WAd7LnoFOA","Hindustan Petroleum Corporation Limited","4/52, Baluganj, Agra","27.166201","78.01520099999999","true"
"ChIJ3eyns9B2dDkRgNXbT7JNyrI","Hindustan Petroleum Corporation Limited","Property No 33, 99, Mahatma Gandhi Road, Pratap Pura, Rakabganj, Agra","27.1670347","78.00856139999999","true"
"ChIJ28WIZ1BydDkR6Ymm9cVYjo8","IndianOil","Ground Floor Agra Shamsabad Rd, Lodhai, 509 Command, Agra","27.0958821","78.0752078","true"
"ChIJs8gxyCBxdDkRvMMyIcS19sg","Jai Bhole Baba Auto Repairing Centre","526R+4X4, Fatehabad Road, Nawamil, Agra","27.16025469999999","78.0424634",""
"ChIJ_QcfmLlxdDkR5EY1AnNIL9s","Rajkumar Sweet Shop","Billochpura, Tajganj, Agra","27.1620848","78.0396213",""
"ChIJDVQRTG1xdDkRWKNzlWZ7w-A","Agra Cng","5333+M6H, Unnamed Road, Tajganj, Basai","27.15418249999999","78.0531071",""
"ChIJY77s4zxxdDkRaR0VeB20orw","Ashok Haus","527Q+3MQ, Fatehabad Road, Nai basti, Rakabganj, Agra","27.1627041","78.0392207","true"
"ChIJR4zAHd13dDkRSQF0HCh5ZSM","Vinod Filling Station","52F4+7RF, Agra","27.17318969999999","78.0070321",""
"ChIJCbPm_KNxdDkRySeeA-YY01Q","IndianOil","near TDI Mall, Fatehabad Road, Basai","27.1583435","78.0562167","true"
"ChIJKRJ5NgB3dDkRsK8bBhT0jhY","Mahi trader's","Bramon chipitola, muradnagor, cumilla, ramchandrapur","27.175984","78.01169",""
"ChIJ83o_EgB3dDkRu1hX3Klb5aE","Mahalxmi petrol pump","52G5+M68, Bikaner - Agra Road, dayarampura","27.1766701","78.00807449999999",""
"ChIJQ406agB3dDkRjbEcY0n6YhU","BPCL- GAYATRI FILLING STATION","NH 19, agra delhi road, ajijpur kosikalan, mathura","27.1766701","78.00807449999999",""
"ChIJ7R74AgBxdDkRKhQ69P8H7fU","MADHU HIGHWAYS","147, Tora","27.1539204","78.0666195",""
"ChIJwbrANEpzdDkRPlRZGRX0hPw","Hindustan Petroleum Corporation Limited","No 219, Devri Road, Hari Nagar, Karaudhna","27.0417732","78.0395855","true"
"ChIJUXbj0UR1dDkR0NuVKcoLi6Y","Maa Pitambara filling Station ( Bharat Petroleum Corporation Ltd)","2XPR+XC, Garhi Usara","27.03744589999999","77.9910616","true"
"ChIJ9QmDSZlxdDkRAd2aZ_H2V98","Madhu Highways Petrol Pump","147, Fatehabad Road, Tora","27.1512589","78.07128879999999","true"
"ChIJ5a4zt9d0dDkRCr6BaPKcHNw","Jio-bp","Ground Floor Mubarakpur, Kakua, Nh 3, 44 Near Chainage 15/957, Agra","27.0409101","77.975363","true"
"ChIJe7pT6I1xdDkR6IeRnCAbqZk","Hindustan Petroleum Corporation Limited","Ground Floor, Fatehabad Road, Agra","27.1437777","78.0831844","true"
"ChIJTTWS7QZydDkRIqkhi3lSaT8","G K Filling Station","Fatehabad Road, Bamrauli Katara","27.1277602","78.1068178","true"
"ChIJh4LQNItxdDkRrujIf_HglRQ","IndianOil","near D Marques Marriage Hall, Khasra 31MI 32MI, near D Marques Marriage Hall, Kalal Kheria, Fatehabad","27.1484438","78.0773152","true"
"ChIJIXelidpxdDkRES2UW4rRXv4","Bharat Petroleum, Petrol Pump -Touraids (I) Travel Service","BASAI,VIP ROAD, Agra","27.1500398","78.0738437",""
"ChIJQ3HAcxALwTsR33xhMJUzv8I","IndianOil","Ground Floor, SH 62, Fatehabad Road, Nagla Garhu, Agra","27.1175612","78.12734669999999","true"
"ChIJ9fP5euxtdDkRlGUujXcQZmo","Metro Filling Station(CNG,Petrol Pump)","Fatehabad Road, Navameal, Nagla Garey, State Highway 62, Agra","27.1176219","78.1273594","true"
"ChIJ6-D4BDNtdDkRxJMdh03s-gk","Hindustan Petroleum Corporation Limited","Ground Floor, behind Bhudevi Cold Storage, Fatehabad Road, Kundol","27.107244","78.147948","true"
"ChIJC4ZJLwBtdDkRqf7LqLMb8Ng","R R filling station","445X+25P, Fatehabad Road, Kundol","27.1075769","78.1479477",""
"ChIJ69dgBUhzdDkRl9VqkYlENk4","Jio BP Reliance Petrol Pump, Ram Mobility Station","Khasra No.- 860, Shamshabad Road, Nawadakhera, Hirner Newadakhera","27.0495309","78.10677059999999","true"
"ChIJWYfMx1ptdDkRH_k6wNSqPyI","Petrol pump","444X+HCC, Kundol","27.1064458","78.1485197","true"
"ChIJH20ZNWJtdDkRUIlMa0THWFc","essar petrol pump","444X+HC9, Kundol","27.10742999999999","78.149137",""
"ChIJ78TTs6pydDkRqho4RcYlr4U","Bharat Petroleum","India","27.0435042","78.10991779999999",""
"ChIJyV092hx4dDkRIEFX6esXVHs","Vyom Premium Fuels","435/5 Chennai-Delhi Highway Road, Near, Mariam Tomb, Sikandra, Bahistabad","27.2170927","77.9400565","true"
"ChIJeUS8xnl3dDkRj8bOeNJLptk","CNG Filling Station","6X4H+H4W, Transport Colony, Agra","27.2064772","77.97782149999999","true"
"ChIJE5EWDL13dDkR7uSu3ETN3hs","Bharat Petroleum","5XR6+727, Sikandra-Bodla Road, Sector 1, Bodla, Lohamandi, Agra","27.1906539","77.9600432","true"
"ChIJN3hpNaZ3dDkRng88__lYGN4","Nayara Oil Shri Bankey Bihari Filling Station","5XMC+7C6, Maruti Estate Road, Manas Nagar, Badla Ki Sarai, Shahganj, Agra","27.1831602","77.9710243","true"
"ChIJS8Wr_6B3dDkRhTDSMxavN24","IndianOil","Bodla Road, Sulahkul Nagar, Lohamandi, Agra","27.1904183","77.97117399999999","true"
"ChIJjxxZKYJ3dDkRgnlFXquLpcc","CAPT SUNIL FILLING STATION","Plot No. T2, T3, T4, Opp Amar Ujala Press, National Highway 2, Transport Nagar, Agra","27.210562","77.971379","true"
"ChIJ5WBQDjOEczkRGCCJtiTIGGU","Pratap Filling Station Bharat Petroleum","Keetham, Agra, NH-19, Delhi, Road, Kitham","27.2098228","77.980892","true"
"ChIJgawtiEB3dDkRICJ0AnwqjTA","Bharat Petrol Pump","Delhi Gate, Professors Colony, Civil Lines, Agra","27.1968255","77.99959299999999","true"
"ChIJKeTdnGB3dDkRC12YudKKAJg","Bharat Petroleum","5WJM+CJW, Manghatai, Agra","27.1811076","77.9340871","true"
"ChIJFXbMTNh3dDkRHi1rz54aWUk","Hindustan Petroleum Corporation Limited","Ground Floor Bodla, Bichpuri Road, Mangtai, Bichpuri","27.180416","77.93108699999999","true"
"ChIJkQpn1OF3dDkR1YjNB5RMbck","IndianOil","Khasra No 271MI, Bichpuri Road, Bodla, Shastripuram, Dehtora","27.187493","77.940291","true"
"ChIJpZye3Z93dDkRZUHDiMThA24","IndianOil","Ground Floor, Sadar, Bhogipura, Kalwari, Agra","27.185345","77.951359","true"
"ChIJN2Ei3xiIczkRg9RBJ3ygMxk","Hindustan Petroleum Corporation Limited","Ground Floor, Sunari","27.1919936","77.9213729","true"
"ChIJUUYXy5V3dDkRrGdAFSZUTVQ","IndianOil","Sikandra-Bodla Road, Bodla, Agra","27.194845","77.955338","true"
"ChIJ54tb3-13dDkRBBpFg2K_Dio","Bharat Petroleum","6X33+CH4, Suruchipuram Colony, Lohamandi, Agra","27.2035234","77.9539576","true"
"ChIJk-Kzw4mJczkRCxPAlRdqe8w","Hindustan Petroleum Corporation Limited","Ground Floor, NH 2 - NH 11 Bypass Road, Lakhanpur, Agra","27.203638","77.91847899999999","true"
"ChIJVVWV4KF3dDkRw_E39PSZ5zs","Kamla Dubey Filling Station","4, Bodla Road, Sector 4, Manas Nagar, Avas Vikas Colony, Agra","27.1930578","77.96949289999999",""
"ChIJ9TU1cQB3dDkRtqM5yuCIC1U","Agra","5B/53, Krishna Nagar, Manas Nagar, Badla Ki Sarai, Shahganj, Agra","27.18144","77.9745183",""
"ChIJnfS_Lk53dDkRSTWEFUg6HaI","IndianOil","Khasra No 1544mi, Avantibai Chowraha to UP, Bainpur Mustkil","27.2114599","77.93716719999999","true"
"ChIJGwI2PAR3dDkRZYzGEjKxT6c","Hindustan Petroleum Corporation Limited","Plot No 6/155, Bodla Road, Prakash Nagar, Shahganj, Agra","27.1781817","77.980694","true"
"ChIJp5Cn-dR3dDkRs-8w1j5gSjM","CNG Station","Bajrang Nagar, Agra","27.21161949999999","77.95999979999999",""
"ChIJ51R0UYR5dDkR7jwDiAfTZZU","Green Gas Limited CNG Station","Sikandra, Agra","27.2172044","77.9397347","true"
"ChIJG4B7SRx4dDkR6bbOQYahzYI","Vyam Petrol And CNG Pump","Near, Chennai - Delhi Highway, Kailash Mode, Agra","27.21753859999999","77.94596829999999","true"
"ChIJ-QYTpoJ3dDkRT5Mcyr3Zykw","IndianOil","NH 2, Old Katra, Agra","27.2058128","77.9734081","true"
"ChIJlSBEYmd3dDkR82DviEUY8Po","PUC check point","Gurudwara, Delhi Rd,Highway Rd, Guru Ka Taal Flyover, Transport Nagar, Agra","27.210383","77.96841839999999",""
"ChIJ87qpwYd3dDkRgZRVb_WGIz0","VEDANSH BIO FUELS","India","27.2143646","77.9636625",""
"ChIJ2Uvq1qd5dDkRbjhM9rfD3tU","CNG Pump 1","6WCM+75W, Sikandra, Agra","27.22073619999999","77.9329599",""
"ChIJYdSzKnZ3dDkRze7mJGijjnI","Sarla Filling Station","kailashpuri, 7/5, Mathura Road, Bagichi, Agra","27.204335","77.9775487","true"
"ChIJ2YxzbHd3dDkRVMzzwQVZ1wI","Hindustan Petroleum Corporation Limited","Khasra No, House No, 7/5, Mental Hospital Road, Agra","27.20434299999999","77.977773","true"
"ChIJuUsDy2h3dDkRfiLzWvQmYp0","Hindustan Petroleum Corporation Limited","Ground Floor, opposite Amar Ujala, NH 2, Maharishi Puram Colony, Agra","27.210562","77.9713793","true"
"ChIJV-papfB5dDkRx3cEccC6qbc","HP SHAKTI FILLING STATION","Dawar Khanuwa Road","27.2215574","77.9296973",""
"ChIJk_uURo13dDkR43gaeuzLhl0","IndianOil","Amba Prasad Road, Gajanan Nagar, Shahganj, Agra","27.183496","77.988945","true"
"ChIJozMR5nl3dDkR41lzuZIihY0","IndianOil","Ground Floor, opposite GGL Station, Transport Nagar, Agra","27.206224","77.978386","true"
"ChIJC9IKKfZ5dDkRebO8N1UqgX8","IndianOil","Artoni Near Km, LHS In, Ground Floor, 187 to 192, H R Highway, Mohammadpur","27.2229985","77.92884590000001","true"
"ChIJZYxd47WJczkRaTS_Y9VZNGQ","IndianOil","Ground Floor, Atoos, Kirawali,BV Bichpuri, Bichpuri","27.190382","77.884112","true"
"ChIJt8aG6J6JczkRu8mAmWvIfTE","Totaram Kishan Seva Kendra","5VRM+79, Atus","27.1906954","77.8834651",""
"ChIJydOCAXt3dDkRi-CvupmLCcU","Laxman Mistry","First Floor, Raman Tower, 14, Sanjay Place, Agra","27.2091246","77.9827437",""
"ChIJ091OHXt3dDkRQyFTAfMov5k","एण्ड वर्कशॉप","India","27.2090533","77.983176",""
"ChIJBQRtQod3dDkRbIYBGX2UJL0","Nayara Petrol Pump","5XJW+7C9, Ashok Nagar, Shahganj, Agra","27.1806562","77.9960997","true"
"ChIJQYS-iGt3dDkRaeXnEt32COo","Brij Autos Madiya Katra Petrol Pump","Billochpura, Lohamandi, Agra","27.1988939","77.9916061","true"
"ChIJDzNPEQB3dDkRPhwKLKHLkv4","Jio","A, 1, 1/142, Beni Madhav Sarkar Road, Professors Colony, Pushpavihaar Colony, Agra","27.1980064","77.9983361",""
"ChIJLXkFlj53dDkRM82jBxVTZNs","Hukamchand Fakirchand (Petrol Pumps-Bharat Petroleum)","52R2+G9G, Mahatma Gandhi Road, Agra","27.19131","78.00094299999999",""
"ChIJvbRcmsF3dDkR_c6Yf5o1kHo","SS construction","44, Lajpat Kunj, Civil Lines, Agra","27.20187","77.998114",""
"ChIJvdrL0SR3dDkR347tOgTMrug","Farid General Store","Nai ki Mandi, Mantola, Agra","27.1842631","78.0046292",""
"ChIJQ2FSTz2JczkRgtrN-SA1Iq8","Hindustan Petroleum Corporation Limited","Ground Floor Bichpuri, Raibha Road, Anguthi","27.171431","77.86997099999999","true"
"ChIJ2eqnj3hxdDkRGx0Jhia_vLc","Bharat Petroleum, Petrol Pump -Jainab Filling Station","Jeoni Mandi Post Office Street, Civil Lines, Agra","27.1983262","78.0255213","true"
"ChIJP4EcRb5wdDkRFkeZaIUUMLg","IndianOil","Ground Floor, Rambagh Crossing, Agra","27.2029048","78.0410157","true"
"ChIJn0T1YqxwdDkR1FbTRHjiqzI","IndianOil","E 765, Kamla Nagar, Agra","27.2203913","78.02307359999999","true"
"ChIJP42QHJhwdDkROukVl8xS-B8","Hindustan Petroleum Corporation Limited","Ground, Hathras Road, Agra","27.21160099999999","78.04320100000001","true"
"ChIJvTQcpYBwdDkRxksZKhOjANI","Nayara Oil Petrol Pump","63C7+2Q2, Tedi Bagiya Road, Nagla Rambal, Kalindi Vihar, Agra","27.2200002","78.06438279999999","true"
"ChIJQ_K1r3ZxdDkR2MhiLPrQLSo","Bharat Petroleum, Petrol Pump -Punjab Auto Service","BELANGANJ,AGRA, Agra","27.1795221","78.02417299999999","true"
"ChIJ7XIwe81wdDkRNYrcVLjXNdg","NIGAHE GAREEB NAWAZ OIL COMPANY","India","27.1867523","78.02172139999999",""
"ChIJJfqTCiNxdDkRK2LhmkGr_Fg","Police Station Gudri Mansoor Khan","28, 84, Chhata Road, Kachori Ghat, Mantola, Agra","27.1885369","78.02198109999999",""
"ChIJdcARAs1wdDkRYzk7k4BAXFo","RATHORE OIL COMPANY","52QC+MQ5, Chhata Road, Kachori Ghat, Mantola, Agra","27.1891276","78.02197509999999",""
"ChIJ6cRGkEl3dDkRq0ZudpuuZ7E","IndianOil","No 58, Sanjay Place, Civil Lines, Agra","27.197085","78.004865","true"
"ChIJu_U8zWh3dDkRwa0PgJ5wj9M","GAIL Gas Limited TTZ Agra","Padamdeep Tower, G-10/8, Office No. 4C, 3rd Floor, Sanjay Palace, Sanjay Place, Madhu Nagar, Agra","27.197673","78.0062875","true"
"ChIJH13xHMxwdDkR15FxdasRUrg","Belanganj Petrol Pump","6/312-A, Barolly Building, 6/312-A, Agra Bikaner Road, Belanganj, Civil Lines, Agra","27.191458","78.0250038",""
"ChIJNwWvpDpxdDkRCcBDchxoDAs","Badharinath Mandir","52RG+R7J, Belanganj, Civil Lines, Agra","27.1920806","78.0256319",""
"ChIJufhYBwB3dDkRIplUGbJE2ZE","Vyas consultant","Shop no. 7, block no. 10 cloth market, Sanjay Place, Agra","27.19865699999999","78.00598099999999","true"
"ChIJT2bKTWJxdDkRce_Deu-1-mE","Shyamkamal Bharat petroleum filing station","8/205, Freeganj Road, Ashok Nagar, Free Ganj, Agra","27.1959586","78.0219838",""
"ChIJRZPEIthxdDkRYtQsaiZhkMs","Bharat Petroleum, Petrol Pump -A C Fuels","near ITMADU, YAMUNA KINARA, near ITMADU, Agra","27.1904011","78.0313066","true"
"ChIJ2bnFyJVxdDkRX6sXYtMdBxU","Hindustan Petroleum Corporation Limited","Ground Floor, Jeoni Mandi, Agra","27.2016956","78.0272354","true"
"ChIJVVtE-bZwdDkRyo5vLMqQdzk","IndianOil","Ground, Jeevani Mandi, Agra","27.2016099","78.0277684","true"
"ChIJm8KK0UVxdDkRA8o46RhR8TE","Green Gas Limited CNG Station","Ground Floor, 21/263, Jeoni Mandi, Civil Lines, Agra","27.2016158","78.027767","true"
"ChIJ--eIMk53dDkRwz9iTc8jF2I","IndianOil","Ground Floor, Gandhi Nagar, Naya Bans, Agra","27.207594","78.011337","true"
"ChIJc5wvuFN3dDkRI4a7VkEyfzA","BHARAT PETROLEUM L.p filling station","plot no 66, 67, Gandhi Nagar Road, Sultan Ganj, Gandhi Nagar, Civil Lines, Agra","27.20838719999999","78.013695","true"
"ChIJi6u84Ut3dDkRt-c4Lp90bJM","IndianOil","NH 11, Jaipur Road, Madhapur, Agra","27.2099299","78.00417929999999","true"
"ChIJAWktYTx3dDkRBgNhtKO8sNc","Keshav Gas Service & Electric","Keshav plaza, opp. Bhagwan talkies, Mahatma Gandhi Road, Agra","27.210302","78.0043372","true"
"ChIJHa1dwKd3dDkRR7vwlwwH8ao","Green Gas Limited CNG Station","6263+C5X, near Tulsi Cinema, Bypass Road, Kripal Colony, Sanjay Nagar, Pashupati Colony, Khandari, Agra","27.211103","78.0029754",""
"ChIJ7Tj2hFt3dDkR5ofio7CZWfE","IndianOil","Ground Floor, near Tulsi Cinema, Pashupati Colony, Agra","27.2111594","78.0030089","true"
"ChIJuZtmcQ1wdDkR6CysgFe8UGQ","Hindustan Petroleum Corporation Limited","Ground Floor NH 2, Kanpur Rd, Chhalesar, Agra","27.2163927","78.09042149999999","true"
"ChIJBeWfo9uldDkRkRQOsFj6wTk","Reliance Petroleum","khata no 37, khasra no 149, m/s horizon fuel centre, Industrial Estate, Sarsol","27.1977076","78.0461357","true"
"ChIJ85JOBWNwdDkRvOmRtBGh3tQ","IndianOil","Firozabad Road, Sahadra, Agra","27.211382","78.068497","true"
"ChIJSwre-KBxdDkRf3zaQkWwmeU","Kuberpur mandir","635W+FMX, mandir Road, Kuberpur","27.208737","78.096723",""
"ChIJfzmsJ1RxdDkR9DgrGFmtS8w","Bharat Petroleum, Petrol Pump -R A Nariman & Co ( P) Ltd","SHAHADRA CHUNGI, NH 2 Agra Bypass, Agra","27.2121104","78.06763769999999","true"
"ChIJEZ-bxGJwdDkR_Fdip6kMkLU","IndianOil","NH 2, Agra Firozabad Road, Shahdara, Agra","27.2122042","78.0672313","true"
"ChIJWzkPCQBxdDkRBPgeG-71LD8","CNG point","2, National Highway 2, Kuberpur","27.2182593","78.0994559",""
"ChIJdSMx1nNvdDkRTQtqDogM6fs","Bharat Petroleum, Petrol Pump -Narendra Filling Station","KUBERPUR, Agra","27.2183352","78.0993408","true"
"ChIJvyw1hQ9wdDkR5s-orO4o_wU","NRL Mahindra Aamir Cng Petrol Pump","2, National Highway 2, Kuberpur","27.218352","78.09936379999999","true"
"ChIJ9dfR905xdDkR93gh4FnfF1Q","Bhatia Highways - Bharat Petroleum, Petrol Pump","Foundry Nagar, Agra","27.2119589","78.04271659999999","true"
"ChIJr4rr0wNwdDkRqnGr91AIfMw","Reliance Petrol Pump","NH-2 Kuberpur, Agra","27.2231024","78.11011189999999","true"
"ChIJs1On1XV6dDkR89FL0I_1pm8","IndianOil","62GX+C5X, Hathras Road, Near Arora Petrol Pump, Foundry Nagar, Agra","27.2259103","78.0480077","true"
"ChIJjZf2IwB7dDkRfyQOdebexhk","Kalpana Kunj rambagh road agra Tedi Bagiya Agra","62GX+G97, Tedi Baghia, Agra","27.2262918","78.0484086",""
"ChIJ_b27zi97dDkR238FjWkx9Zg","Mithlesh Telecom","1 Om Market, Jalesar Road, Tedi Baghia, Agra","27.23071","78.04907",""
"ChIJCzxRiKxwdDkRNWf4SrnLX1E","E-Block Petrol Pump","E709, E Block, Block E, Ghatwasan, Kamla Nagar, Agra","27.214334","78.0222366",""
"ChIJMTE7ZvdvdDkRu69lGqqMpYU","IndianOil","Ground Floor, NH 2, Kuberpur","27.2254826","78.1228924","true"
"ChIJyzEqI0aGczkR8GtmP7K01MI","IndianOil","Ground Floor, NH 2, Runkata","27.2343682","77.87102279999999","true"
"ChIJl8ytBl6HczkRJS1ncwSgE7o","Hindustan Petroleum Corporation Limited","Ground Floor, NH 2, Mathura Road, Kiravali, Agra","27.232331","77.886611","true"
"ChIJfbibT7WHczkRsUnBpcHROwI","THAKUR JI WHEELS","18, Silver Estate Colony, Runkata, Agra","27.2328052","77.88378469999999",""
"ChIJpRDkIkaGczkRaFwh1VTu4MQ","IndianOil","Ground Floor, NH 19, Mathura Road, Agra","27.2352597","77.8704727","true"
"ChIJodqahk2HczkRy44LxNKt3pE","IndianOil","Ground Floor, 7th Km Stone, Bypass, Rohta","27.224786","77.86919929999999","true"
"ChIJRwATTTqGczkRZN-294lGuzM","Hindustan Petroleum Corporation Limited","Ground Floor Ronakta, Road, Kirawli, Loh Karera","27.2229787","77.8682934","true"
"ChIJh80mmEF6dDkRIIvw7YuWmqI","Bharat Petroleum, Petrol Pump -Kusum Autos","Nagla, Agra","27.2489536","78.0462953","true"
"ChIJW3--FxF7dDkRDdqBYjulRmY","IndianOil","Gata 628 NaraichMustkil, Khandauli Nh 509, Nandlalpur, Rambagh","27.2440463","78.0479301","true"
"ChIJKW9drG96dDkR9vX0qFcgA-c","HP PETROL PUMP -Yadav petrol pump","63H2+C38, Mauza Naraych Mustaqil Agra Jalesar Road, near Tehri Bagiya, Tedi Baghia, Agra","27.237565","78.051144","true"
"ChIJZ-oIzTF7dDkRSaH1d7dxZtM","Hindustan Petroleum Corporation Limited","Ground Floor, near Tehri Bagiya, Agra - Jalesar Road, Naraich, Agra","27.23756509999999","78.0511449","true"
"ChIJGdKAEcJ7dDkR9ie7Yx80iu4","IndianOil","Ground Floor, Agra Aligarh Road NH 93B, Ujrai, Khandauli, Bamrauli Katara","27.290694","78.035505","true"
"ChIJe_4uwnd7dDkRNDHO7K5-q7E","Megh singh filling station Nayara pump","Agra Jalesar road mudi, chauraha, Agra","27.2840115","78.0842837",""
"ChIJ9Z8207V7dDkR0tetd2yAiTw","Hindustan Petroleum Corporation Limited","Ground Floor, near Agra - Jalesar Road, Etmadpur Road, Mundi Jahangirpur","27.284308","78.083863","true"
"ChIJsfEi8h57dDkR1rjxpFKKi04","Shree Shree Ramdas Ji Filling Station","Agra - Jalesar Road, Mundi Jahangirpur","27.2851175","78.08505020000001","true"
"ChIJ45VNh8B7dDkR3G9y5FmlCYg","IndianOil","Khasra No 76, Etmadpur Road, Mundi Jahangirpur","27.2858154","78.0777694","true"
"ChIJ1bS0hohvdDkRaoI4CMEPvsM","IndianOil","Ground Floor, Bhagupura, Firozabad Rd, Dheera, Etmadpur","27.228533","78.144561","true"
"ChIJl5FoJodvdDkRlYLzqe63AEw","Agra Fuels Essar Oil Petrol Pump","NH-2, AH 1, Rahan Khurd, Agra, Etmadpur","27.22944439999999","78.15","true"
"ChIJ_-VGxrhvdDkRMPdB06eLZf4","Reliance Petrol Pump","Nawalpur","27.2292165","78.1535846","true"
"ChIJHQc4csF7dDkRmdZtoyEaqoc","IndianOil","near Agra, Ground Floor Khandauli Etmadpur Road, near Agra, University, Ramnagar, Agra","27.309901","78.040401","true"