place_id,name,address,latitude,longitude,open_now
"ChIJE-BeCy6idDkROdIHSPaTixA","Bharat Petroleum","Saharanpur, SH-80, Mathura Aligrah Road, Aligarh","27.8169479","78.02944959999999","true"
"ChIJC4kOw7yjdDkRuKInDa96M4I","M/s Raj Kiran Indane","R3V3+P3J, State Highway 80","27.8443385","78.05264700000001","true"
"ChIJZ6_tYRqkdDkRNCBShnsejnM","Essar Petrol Pump","V2MH+FWW, Bajna - Aligarh Road, Megh Vihar, Jalalpur, Aligarh","27.8837272","78.0298309",""
"ChIJhTpbdm2jdDkRtOgFTYsw-hI","IndianOil","Hathras Road, Mandir Ka Nagla","27.852905","78.077675","true"
"ChIJHwSQUmykdDkR1JFXCTDeLdU","Bharat Petroleum, Petrol Pump - Baba Hargovind Fuel Point","KOIL,ALIGARH CITY, Kanwari Ganj Road, Jalalpur, Aligarh","27.8852074","78.04596409999999","true"
"ChIJWx6qr3yfdDkR6FQK4OZzFrg","Essar Oil","QX9M+3VH, State Highway 80, Nagla Mibhiya","27.7676835","77.9847497","true"
"ChIJAc2bBRehdDkRgNpkiBXXTyQ","Hindustan Petroleum Corporation Limited","Ground Floor Aligarh, Mathura Road, Iglas","27.80367390000001","78.0166414","true"
"ChIJ58pWf7yjdDkRaC_r4k72J9w","IndianOil","Ground Floor, Agra Road, Khedia Khwaza, Bannadevi, Aligarh","27.8421734","78.05041310000001","true"
"ChIJi4Vd8JijdDkRJaBDXuiB820","IndianOil","Daulra Nirpal, SH-80, Mathura - Aligarh Road, Aligarh","27.8506","78.0572","true"
"ChIJhZQDPS-hdDkRINNqkIQ9dcg","IndianOil","Ground Floor Aisi, Kol, Akbarpur, Lodha","27.8555899","77.98081300000001","true"
"ChIJW13D15ijdDkRrl8tofPF5GU","Hindustan Petroleum Corporation Limited","Ground Floor, near Sanskar City, Daultabad","27.8515106","78.0588832","true"
"ChIJHZrk-wCjdDkRC5nLO-QNTUo","Hindustan Petroleum Corporation Limited","Ground Floor, Blk Lodha, NH 34, GT Rd, Kutubpur, Shahpur, Aligarh","27.86878","78.03506","true"
"ChIJcfy7GeSjdDkRE9QorBG3eNM","Madan dharam kanta (madan)","V328+74W, Hajipur Chauhatta, Aligarh","27.8507476","78.0653263",""
"ChIJ32_Lc5yjdDkRHD0Q6Z9drxo","Hindustan Petroleum Corporation Limited","Ground Floor Koil, Gonda Road, Makhdum Nagar, Aligarh","27.869601","78.044001","true"
"ChIJQ0ow5g2ldDkRyVEf3tEHHgQ","Essar Petrol - M S Filling Station","V2GH+86H, Essar patrol tanki ke brabar gali Mama ki dukan","27.8758001","78.028114",""
"ChIJZeX3ywWkdDkRqa0QP68M9KM","NAYARA","India","27.8759533","78.02840929999999",""
"ChIJmzsmQ52jdDkR_1tJ2b-0Hlc","Kamlesh Oil Company-ESSAR Petrol Pump","V357+QQM, Laxmi Nagar, Sasni Gate, Daultabad","27.8594566","78.0644317","true"
"ChIJgR203GKjdDkR6BApvxPmygw","Riddi 24×7 Yuria [Add Blue]PAMP Station","cut haiway, Ali Nagar, Aligarh","27.8677547","78.05841749999999",""
"ChIJ8-GvRwCjdDkRhC1WtMQhkho","Vashistha HP filling station","R3XG+J67, Mandir Ka Nagla","27.8490453","78.0755339",""
"ChIJ4XFiWnijdDkRpOBAXVc-kEY","RS POWER","India","27.8633","78.0672731",""
"ChIJcZV8qtWjdDkR2C_do4wp2A8","PARASHAR FILLING STATION ( INDIAN OIL)","Agra Road, Brahampuri, Mukundpur","27.83017499999999","78.08207999999999","true"
"ChIJLcythG2jdDkRJcBrTaE2oEk","Hindustan Petroleum Corporation Limited","Ground Floor, Infront of Rusa Medical Centre, Pala Sahibabad, Agra Road, RK Puram, Aligarh","27.853608","78.077375","true"
"ChIJv3fie4qjdDkR_BK9Gf9ATn4","Nayara Petrol Pump - Hindustan Filling Station","Bhujpura, Turkman Gate, Aligarh","27.8725776","78.0607055","true"
"ChIJFRG_EwCldDkRxUtH2okBU0g","Indian Gas agency","V2QH+MRF, Khair - Aligarh Road, Wajidpur Nada, Aligarh","27.8885919","78.0298332",""
"ChIJOWU6QROkdDkRsQoaU33eCS4","Yash fuel centre","V2PR+GGJ, Prem Vihar, Jalalpur, Aligarh","27.8863324","78.04125069999999","true"
"ChIJ-6te3j6kdDkRFNKzGtehXDw","Hindustan Petroleum Corporation Limited","Ground Floor, near Tata Dharam Kanta, Khair - Aligarh Road, Aligarh","27.8884193","78.03404929999999","true"
"ChIJnaPquU6ldDkR7-19AARk5YI","IndianOil","2/2, Khair - Aligarh Road, Bannadevi, Aligarh","27.89130609999999","78.0270646","true"
"ChIJq8m-kBikdDkR08aOpGJc_LU","IndianOil","2/2, Khair - Aligarh Road, Bannadevi, Aligarh","27.89130609999999","78.0270646","true"
"ChIJA8Ki2O6ldDkRde3YwgAuLaI","Hindustan Petroleum Corporation Limited","Ground Floor, Chauraha, Nadda, Ashrafpur Jalal","27.8914176","78.0321194","true"
"ChIJCe8v_5WfdDkRCrECH512bWY","GAYATRI AUTOMOBILES,NAYARA ENERGY,PETROL PUMP","near Mohraini, Village, Nagla Mishria, turning, Hastpur Chandfari","27.7676785","77.98475049999999","true"
"ChIJLYJzZACldDkRmUhZQYrVS4E","Indian cng pumb","V2VM+4HV, near cng pump, Khair Bypass, Ram Nagar, Jalalpur, Aligarh","27.892918","78.0342795",""
"ChIJC4JjnjKldDkRe2CFXuicIXA","Indian Oil CNG Station","V2RP+RPV, Chauraha, Khair Bypass, Nadda, Aligarh","27.8931076","78.034198","true"
"ChIJka_gGWOkdDkRLVU4RaWjwtU","Bharat Petroleum","India","27.8852781","78.0616694",""
"ChIJ48TPUqandDkRw3HnX8mdwMg","Radha Raman filling point","V2W4+XR5, Aligarh","27.8965847","78.0071414",""
"ChIJ6_opa--ndDkR3ys8rofScjk","M/s Shri Ramchandra Singh Filling Station","Luosara visawan, Aligarh","27.8968189","78.00516689999999",""
"ChIJX7QFEG6ndDkRf-22H-p1DKk","IndianOil","Ground Floor, Aligarh Palwal Road Kol, Lohsara Bisawan, Akravat","27.8971925","78.00574639999999","true"
"ChIJjZ2CJoOkdDkRNryhp5DmN_Q","IndianOil","Hathras Adda, Mahendra Nagar, Aligarh","27.87655659999999","78.0756644","true"
"ChIJ2_oNE4ikdDkRrXFKjwjMHtg","Nayara Petrol Pump Radha Madhav Filling Station","V3M8+XH2, Uday Singh Jain Road, Barahdwari, Aligarh","27.8848968","78.066391","true"
"ChIJfWwvZwCldDkReX9OYOWfQgQ","Gular Road","5/351, Gular Road, New Ashok Nagar, Aligarh","27.887255","78.0625883",""
"ChIJ0ftlvmGkdDkRH2aOa0ZiatE","Hindustan Petroleum Corporation Limited","Plot No 5/689, Gular Road, Aligarh","27.887929","78.061754","true"
"ChIJfTxYbIikdDkRs-Nc9Yr_St0","ESSAR","V3M8+XPM, Uday Singh Jain Road, Gudiya Bagh, Aligarh","27.8849501","78.0668046",""
"ChIJ0_Y2fKekdDkRTETUB_CCkVE","Hindustan Petroleum Corporation Limited","Ground Floor, NH 91, Etah Chungi, Aligarh","27.8753193","78.0962168","true"
"ChIJSRZn76CkdDkR2x-y4B8Ecz0","IndianOil","Ground Floor, Road, Aligarh","27.876811","78.09190100000001","true"
"ChIJRZ_7_I6kdDkRi3zWsDldjBI","Hindustan Petroleum Corporation Limited","Ground Floor, Kavar Kutta, GT Road, Aligarh","27.887601","78.073201","true"
"ChIJT1GOUWuYdDkR6doULTpsyYA","Hindustan Petroleum Corporation Limited","Ground Floor, near Mangalayatan Temple, Susayat Khurd","27.76389499999999","78.087572","true"
"ChIJIbe0igSjdDkR3D09zgZ6Zpw","MAHAJAN GAS TRADERS","R4P5+HF8, Isanpur, Agra","27.8364168","78.1086892",""
"ChIJE9M2ii2jdDkR-LuaXH8fvpY","IndianOil","Ground Floor Etah Agra Bypass Rd, Ishanpur, Bannadevi, Aligarh","27.841201","78.106901","true"
"ChIJx8d7xMq8dDkR6jMkVUfQDCs","ESSAR","India","27.8513385","78.1118699",""
"ChIJw9ETlZmjdDkR1MUa5bV8B5U","IndianOil","near Dhanipur, No 799/2, Grand Trunk Road, Aligarh","27.872206","78.10434099999999","true"
"ChIJmSRDOkeldDkRE_NWzsGf9SI","Jeevesh Shivaji","Chhawani Road, Flight, Naurangabad, Nagla Pala","27.8756454","78.08681039999999",""
"ChIJY3DcIh29dDkRr9mu7nxRLU0","Hindustan Petroleum Corporation Limited","Ground Floor, Bonair Etah Road, NH 91, Grand Trunk Road, Aligarh","27.8642546","78.1256867","true"
"ChIJm15_Y2eZdDkRbA_ZYSK1LaI","IndianOil","Ground Floor, NH 509, Old NH 93, KM 1657 Sahpur Madrak, Kol, Basai Kazi","27.7757121","78.08505260000001","true"
"ChIJf2OPI4WkdDkRerbY-btb_cM","GAUTAM SERVICE STATION","दुबे का पड़ाव, जी.टी. रोड, अलीगढ","27.88236809999999","78.0755039",""
"ChIJPY1SkZO8dDkRUHqSuL-9JGA","Bharat Petroleum, Petrol Pump -Durga Automobiles","BONER,ALIGARH","27.8596616","78.1403586","true"
"ChIJKVs9NACXdDkRYODjSVTfD4s","Pali rajapur","Q4H9+6MW, Pali Razapur","27.7781174","78.1192112","true"
"ChIJ_85tdvuXdDkRbCS26RxP50A","Bharat Petroleum","Q4H9+4QX, Madrak Road, Bhopatpur","27.7778565","78.1194901",""
"ChIJjbVy16-kdDkRZnzC5z-4qqQ","IndianOil","Koel, Etah, Chungi Bypass Road, Quarsi, Aligarh","27.886805","78.10161599999999","true"
"ChIJGT27_ZCkdDkRyGXF1qDhkyA","HP Petrol Pump - Naurangrai Jain & Sons","Ground Floor, Ramghat Road, New Vishnupuri, Aligarh","27.8879618","78.0800649","true"
"ChIJRSaGwoikdDkR1W-qaFANmf4","Jai Ram & Sons","Bans Godown, Sarai Hakeem, Aligarh","27.8862351","78.06951579999999","true"
"ChIJ6SPCCAC7dDkRx0n1JZWcEbg","GRS FILLING STATION","V4HF+J76, Ozone Road","27.8798037","78.12369749999999","true"
"ChIJ9___SIikdDkRGRqFP_ciF84","Kilat Ganj Aligarh","V3P8+GPM, Shivpuri Road, Patthar Bazar, Aligarh","27.8863436","78.0667978","true"
"ChIJZbS9GgC9dDkRYEYLNCcqtsE","Vivek Motors (D.E.F) Uriya","V542+9F5, Kishan Garhi","27.8558993","78.1512337",""
"ChIJDwer0dqldDkRFUuaVNzArCk","IndianOil","Ground Floor, near Malviya Putakalaya, Raavan Teela Road, Malgodam, Aligarh","27.8904897","78.0728173","true"
"ChIJoZ0ofJOkdDkRVFlkxtg7la0","IndianOil","Ground Floor, Marris Road, Aligarh","27.894243","78.08217599999999","true"
"ChIJjy_f6IqkdDkR_gBND41ySDo","Hindustan Petroleum Corporation Limited","Ground Floor, GT Road, Sarai Rehman, Aligarh","27.893745","78.0671322","true"
"ChIJ80HeDYuldDkR8j114QF3YbI","Bharat Petroleum, Petrol Pump -Uma Automobiles","Ramghat Road, Phase 1, ADA Colony, Aligarh","27.8966906","78.092212","true"
"ChIJUz0regCldDkRnAX0QvnoqU4","Mahavir Filling Station Nahroi Hathras","V3WQ+X62, Aligarh - Kanpur Road, Nahroi, Agra","27.8973944","78.0880129",""
"ChIJCapYG1y8dDkR-rP3uKKkDPE","Jio-bp","No 202, Kh No 5/2, Purani Subzi Mandi Sashi, Maha Maya Ngr, Koal, Aligarh","27.8527402","78.1624176","true"
"ChIJKyOi5qSldDkR-Ks3Jw6Rhcw","IndianOil","Ground Floor, Kayam Byepass Rd, Asadpur Kayam, Aligarh","27.89575529999999","78.1087323","true"
"ChIJsdZIlvOkdDkRj7BbOh3RGR8","Narottam Motor & Engg. Works","opposite Head Post Office, near Tasvir Mahal, Civil Lines, Aligarh","27.8976556","78.0740002","true"
"ChIJdRvaxbW7dDkRA3iibSqe0Lg","Sangwan Filling Station","Sangwan City Road, Aligarh","27.8920027","78.1224405","true"
"ChIJuwLllki8dDkRM180qCHuIXc","Essar - Dev Filling Station","Panaithi, Aligarh, NH-91, Aligrah Kanpur Road, Aligarh, Aligarh","27.8463","78.17519999999999","true"
"ChIJk_mgkDa8dDkRL_O6-UNs1eE","Hindustan Petroleum Corporation Limited","Ground Floor 145, Km Stone, near Sahore Drain, Grand Trunk Road, Panaithi","27.84287429999999","78.1830858","true"
"ChIJReBfW6m_dDkRQscVonWPv50","IndianOil","Ground Floor, NH 91, Bannadevi, Jasrathpur","27.8327219","78.2057667","true"
"ChIJn9PUDfu9dDkRhvkOK2C_CDo","BPCL- Pavitra Devi fuel station","Khasra No. 127, Panethi, Gangiri Road, Aligarh","27.8543557","78.2008309","true"
"ChIJ980hTzWXdDkR7gtUk0sfVLg","Sima Devi Petrol Pump","near by Parrori, 101, Aligarh","27.7651039","78.1758265",""
"ChIJIYvj4Hi_dDkRvWs8haA4Z3w","Anupam kisan seva kendra Petrol pump","Nanau, to, sasni Road, Aligarh","27.7992722","78.224398",""
"ChIJwzH4IriXdDkRToyhqFrvb8Y","RAKESH SIKARWAR PETROL PUMP","Veghapur Sassi Hatteras, Road, Sasni","27.7655889","78.1343247",""
"ChIJf2BA8Nq_dDkRCsxmm5E2_U4","IndianOil","Raipur Koil, Sasni Road, Nanau","27.80106899999999","78.2265309","true"
"ChIJ_VOZWjSkdDkRN_v6AgbYTfA","IndianOil","No 804/4, Soot Mill, Raavan Teela Road, Aligarh","27.912762","78.038857","true"
"ChIJXwqqbk-kdDkR9k9tPx3Szkk","Roadways Bus Gas Filling Station","115, G-9, Baraula Bypass, Sarvoday Nagar, Kundan Nagar, Chauhapur, Aligarh","27.90668589999999","78.0498757","true"
"ChIJiSPoi1ykdDkRXvXRajolZXo","IndianOil","Ground Floor, World Bank Colony, Bannadevi, Aligarh","27.899086","78.056221","true"
"ChIJPZL1LFykdDkRnj0KUtod5WM","Shree Nath Indane Gas Sewa","Ismail Manzil, GT Road, Bannadevi, Aligarh","27.8979019","78.05893449999999","true"
"ChIJ65PclPOkdDkRpN3vkj4cKGo","Hindustan Petroleum Corporation Limited","Ground Floor, opposite Head Post Office, Civil Lines, Aligarh","27.8998462","78.0722195","true"
"ChIJg6rbbACldDkRq-PSh2NGa2I","Dheeraj Pradhan Energy center","V2XQ+2PR, near Gagan public school, Khair Bypass, Aligarh","27.8976209","78.0392684",""
"ChIJd4f0JD-kdDkRf_BCVIu_F5E","Bharat Petroleum, Petrol Pump -J. P. Filling Station","ALAPUR GARIA,, Aligarh","27.8979959","78.0400137","true"
"ChIJvadLz6ildDkR8km50RfN_DA","IndianOil","Soot Mill, Chrauhagt Road, Aligarh","27.911488","78.039444","true"
"ChIJu2G93TWkdDkRXEh6Uat1v2I","Hindustan Petroleum Corporation Limited","Ground Floor Koil, near Sootmil Chauraha, GT Road, Aligarh","27.9109436","78.04082679999999","true"
"ChIJ9U02HzakdDkR9cKYNodrNM8","Hindustan Petroleum Corporation Limited","Ground Floor, Koil Near, Sootmil Chauraha, Aligarh","27.909301","78.042001","true"
"ChIJ64bIPQCldDkRWQ9eTcmUlVA","Tej Filling Station","W26R+F83, GT Road, Sarsaul","27.9111349","78.0408085",""
"ChIJkXSaIDakdDkRO6SQObImqyw","IndianOil","Ground Floor, Delhi Road, Aligarh","27.909051","78.042389","true"
"ChIJLQKrv9indDkRyahT8utDAyI","S.D.FILLING POINT - NAYARA ENERGY PETROL PUMP","Village Lodha, Khair Road, Aligarh","27.9019288","77.9894948","true"
"ChIJo0RN1-aldDkRDBeFROciNio","M/s shyam sunder mittal","W23W+9M9, Ramghat road, Aligarh","27.9034015","78.0467496",""
"ChIJP5oa_dGldDkRh9Y-5jLsqzU","Reliance Petroleum","Khata No 37, Khasra No 149, Industrial Estate, Koal, Bhikampur","27.921723","78.03052699999999","true"
"ChIJE0TBfACldDkRvIIhxg7zV5c","Jio BP Petrol Pump","near Royal Residency, 2a, GT Road, Lekhrajpur, Aligarh","27.9217914","78.0307703",""
"ChIJ9Y-gbgCldDkRWXcTeGShy70","Kaka Dhram Kata","W2FJ+2F5, Sarsol, Aligarh","27.9225074","78.031223",""
"ChIJlUjFnRuldDkR0OhSUmGRWtQ","Bharat Petroleum Petrol Pump , GIRRAJ FUEL POINT","VARDAN MANDAP NEAR RTO OFFICE","27.9032996","78.05062099999999","true"
"ChIJ77gPeNqldDkRpdUTgoBtaaI","IndianOil","opposite Darshan Oil Mill, 6th Milestone, Delhi Road, Farrukhabad","27.9267488","78.0276162","true"
"ChIJQc_R596ldDkREHYjIAkYq94","Bharat Petroleum","W2MF+F6J, GT Road, Sikandarpur Bhuarawali","27.9337049","78.0230084",""
"ChIJV1YTWwCldDkRteO97EipJyQ","H P Petrol Pump(Tasveer Mahal)","Stat Highway 29, Fuller Road, Aligarh","27.9007809","78.0714714",""
"ChIJI19Z6GqldDkRXXR3dTc3TPs","IndianOil","Khasra No 131134 & 136, Maheshpur, Manjur Garhi, Aligarh","27.94511719999999","78.08576479999999","true"
"ChIJOcJdme-6dDkRtaTr9qLJ1YE","Paras HP Petrol Pump","W4QV+532, Ramghat Road, Sector 1, Talanagri, Talashpur, Harduaganj Dehat","27.9378867","78.1426299",""
"ChIJ3VkIPsekdDkRJ3H0f9f3Y74","IndianOil","Site 3/9B, Beedha Nagargt Road, Ramghat Road, Vikram Colony, Aligarh","27.8998108","78.0950981","true"
"ChIJrUyS046ldDkR8zJzDLKH7Vo","Rahim Husain","Jeevangarh, Pulia, Aligarh","27.9125737","78.0977834",""
"ChIJO52HT96kdDkRElL7WlO7Xk8","University Petrol Pump, A.M.U.","AMU Campus, Aligarh","27.91702639999999","78.0900485","false"
"ChIJJ3hiIQCldDkRxQx3ObnGKLY","Hindustan Petroleum Corporation Limited","Ground Floor, Quarsi Bypass Road, Dhorra, Dhourra Mafi, Aligarh","27.916838","78.096587","true"
"ChIJ-9Wxg82kdDkRHPDrCsPYQXU","Hindustan Petroleum Corporation Limited","Ground Floor, Ramghat Road, Quarsi, Aligarh","27.91000099999999","78.107801","true"
"ChIJS9DkHwCldDkRyfmuZgmVWIc","CITY ENERGY STATION","W3FP+63V, Dhaurra Mafi","27.9231159","78.0851607",""
"ChIJgxteEACldDkRTERxJ-aA4b4","Hindustan Coal Traders","4/28, Sherwani Hall Road, Aligarh","27.9262914","78.0765334",""
"ChIJ6Xj5PLmldDkRJAG7bwI0MQ0","IndianOil","Ground Floor kol, near Lifestyle Mall, Quarsi Byepass Rd, Dhourra Mafi, Aligarh","27.9295006","78.088707","true"
"ChIJ5wy_hhCldDkR0AMyd3oJzt0","Jamalpur Petrol Pump","D, Mahek Street, 4/778, Hamdard Nagar, Jamalpur, Aligarh","27.931735","78.07972939999999","true"
"ChIJG4gykxGldDkRlNtgRuxz0c4","Hindustan Petroleum Corporation Limited","Ground Floor, Anoop Shahar Road, Hamdard Nagar, Jamalpur, Aligarh","27.9317754","78.0796914","true"
"ChIJfzrQ6yi7dDkRSMPQL8b6f3g","IndianOil","Plot No 167, Autroli Road, Talashpur, Aligarh","27.919221","78.12050099999999","true"
"ChIJk324jqW7dDkRSTP-eeQbnls","Hindustan Petroleum Corporation Limited","Gata No 18, Panethi, Sadhu Ashram Road, Koil, Barkatpur","27.903896","78.178794","true"
"ChIJe92-khq7dDkRenhhzydTDuU","Bharat Petroleum, Petrol Pump -Shahid Kanchi Singh Filling Station","Ramghat Road, Aligarh","27.9298576","78.1333021","true"
"ChIJcRhTotm7dDkRrQoyJ1Bylf4","Bharat Petroleum","India","27.91610769999999","78.1979374",""
"ChIJadi7ku-6dDkR53ApOc8167Y","Vardhman Fuel Point","Ramghat Road, Sector 2, Talanagri, Harduaganj Dehat","27.9378227","78.1436216","true"
"ChIJR7IbyUG5dDkRFh2H_N4zEoc","IndianOil","Ground Floor, Bhudasi, Jalali Rd, Barotha, Harduaganj","27.9064787","78.20620079999999","true"
"ChIJnQvpt_G6dDkRQ7-xwoSMqEQ","Hindustan Petroleum Corporation Limited","Ground Floor, Ramghat Road, Harduaganj","27.9406464","78.14652760000001","true"
"ChIJhUPFCPG6dDkRF-La4goaNNs","Arvind Automobiles","W4RX+C74, Ramghat Road, Harduaganj","27.941","78.1482",""
"ChIJQU7QkTm7dDkR8EhxEFOF_rQ","IndianOil","Ground Floor Atrauli, Main Road, Harduaganj, Aligarh, Barotha","27.943439","78.150201","true"
"ChIJwX3jAqeodDkRkm3H15l6w8A","Hindustan Petroleum Corporation Limited","Ground Floor, NH 91, Aligarh Ghaziabad Road, Bharatri","27.962062","78.00458499999999","true"
"ChIJecULklmvdDkRP3E0r9GDUIk","Police chowki amrouli","X3Q3+MVV, Barauli Road, Amrauli","27.989234","78.0546729",""
"ChIJhTiQGqSpdDkRApoiAdjucZs","VSN CNG Energy - Indian Oil Adani Gas","Village Palla Sallu, Gabhana, NH 34, Aligarh","27.9958332","77.9855314","true"
"ChIJW4fgx-SodDkRyXwh27iB_24","Bharat Petroleum, Petrol Pump -Jadhons Fuel Point","GABHANA, Aligarh","27.9965233","77.9859611","true"
"ChIJPfnBGqKvdDkRcSbETcZDMq0","Hindustan Petroleum Corporation Limited","Ground Floor, Pala Majra Kastari Vaishya","27.999871","78.054934","true"
"ChIJ60ScNgCpdDkRO3ZQFgTPWD8","Rishabh","XX76+GRW, Sujapur","27.9638708","77.96208659999999",""
"ChIJDTzKuAqldDkRaqYwgBw1gpo","Nayara petrol pump","W3R8+6JR, Ramgarh Panjipur Bypass Road, Manjoor Garhi","27.94062","78.0665235","true"
"ChIJlznGVQCvdDkR3Qk6inFBhbc","Petrol Pump","2353+4G, Pala Majra Kastari Vaishya","28.0078316","78.0538045",""
"ChIJ8YNijAqpdDkRDcb-NHNCf6A","Reliance","India","28.0233709","77.9748164",""
"ChIJgXqFphmwdDkRcc57EkH-ooY","BPS AUTOMOBILE Bharat Petroleum","India","27.9886614","78.1196969",""
"ChIJL2i21qSvdDkRWay5l32N1XU","Nayara Petrol Pump - Indu Aseem Filling Station","2434+MC6, Anupshahr - Aligarh Road, Aligarh","28.0041572","78.1060036","true"
"ChIJ8U7bo0CwdDkR1_dbipDCDxQ","Hindustan Petroleum Corporation Limited","Ground Floor, Kasimpur Road, Koil, Aligarh","27.998168","78.134176","true"
"ChIJhzlcwbqvdDkRPoTu9f19Ev0","IndianOil","Ground Floor, Sumera, Jawan, Barauli Rd, Baraula, Sunana","28.0361329","78.089052","true"
"ChIJq6qq-gm6dDkRJ-wFGVl-ZtQ","JAY FILLING STATION, NAYARA PETROL PUMP","X5CP+QVV, Safedpura","27.9719958","78.18717099999999","true"
"ChIJpduUt_G6dDkRBDLumhFFqXo","IndianOil","Ground Floor, Ramghat Road, Narauna, Barotha","27.995969","78.22754719999999","true"
"ChIJ54IjaQ67dDkRxf0rzDoYH7Y","Bharat petrolium filling station - monika enterprises","Ramghat Road, Gwalra","27.96787280000001","78.1816386","true"
"ChIJf8sZSyy7dDkRiNO2M_ebRFI","Hindustan Petroleum Corporation Limited","Ground Floor, Ramghat Road, Gwalra","27.968059","78.182495","true"
"ChIJl11LZ2-7dDkRspmBU-43VOE","Hindustan Petroleum Corporation Limited","Ground Floor, Ramghat Road, Gwalra","27.968059","78.182495","true"
"ChIJCVvPuGm3dDkR6P6YJjL1obU","Hindustan Petroleum Corporation Limited","Ground Floor, Atrauli, Ramghat Road, Narona Akapur, Aligarh","27.993998","78.22645399999999","true"