place_id,name,address,latitude,longitude,open_now
"ChIJh6Em7r0AoDkRUjx55-gJ48w","IndianOil","Ground Floor, Budaun Road, Bareilly","28.3140397","79.38842489999999","true"
"ChIJp6Hhp1gAoDkRvWtS4uuOsqY","IndianOil","Lal Fatak Road, Bareilly","28.3068257","79.4092404","true"
"ChIJectb674AoDkRiUHp7uxzh-w","Bharat Petroleum, Petrol Pump & CNG Station -Guru Nanak Filling Station","Bareilly - Badaun Road, Subhash Nagar Colony, Bareilly","28.333509","79.3989722","true"
"ChIJrcZJu4D_nzkRyU3i9ENWeCU","IndianOil","Ground Floor Bhandsar, Kyara","28.260701","79.420701","true"
"ChIJ88MxzpWqCjkRE5jw4nhxz8w","IndianOil","Ground Floor, Km Stone, 63 & 67 SH 33, Bareilly - Badaun Road, Akha","28.2824885","79.36270069999999","true"
"ChIJkR-eJHgAoDkRvkiIOYY-I6c","HP","India","28.2938115","79.3821047",""
"ChIJh1h_3HgAoDkRxIfSKAmUd54","Trimurti Filling station Nayaraggggff petrol pump","79XM+53C, Bareilly","28.2979329","79.38265059999999","true"
"ChIJP7ve5dsBoDkRXK3IxH0GymE","Hindustan Petroleum Corporation Limited","Khasra No 42, Bareilly Badaun Road, SH 37, Maheshpur Thakuran, Bareilly","28.312925","79.387317","true"
"ChIJXeJIoV8AoDkRhyHajT33Rzk","IndianOil","Ground Floor, Kareli","28.304501","79.405801","true"
"ChIJp4toOxWrCjkR6ZsxYyDMIDc","Shri Hanumant Filling station","88HH+4HJ, Jitaur Mustqil","28.3278431","79.3289018",""
"ChIJVWJ7qewBoDkRMYlKlHpp9gk","Patel Filling Station","01 Trikal Food Fareedpur, Bukhara Faridpur Road, Bareilly","28.2882302","79.4077695",""
"ChIJQYGbUyBVdTkRVWWGwKT3OI8","Hindustan Petroleum Corporation Limited","near Bareilly - Badaun Road, Ground Floor Kaimua, Aonla, near Bareilly - Badaun Road, Chandpur","28.254375","79.351717","true"
"ChIJO_3WsLUBoDkR0R5e7ht6lS0","Patel Filling Station","near Trikal Food And Agro Industries, 0002, near Airtel Tower, Mirzapur, near Trikal Food And Agro Industries, Bukhara Faridpur Road, Faridpur","28.2857643","79.4111753",""
"ChIJt6Ck1b0BoDkR8ZOqrxgkQX0","Palada Petrol Service","near Bharat Petroleum, Road, Kargaina","28.3334834","79.3991502",""
"ChIJRyNIMBEBoDkRbh1q4GkN57s","RECHARGE SOHF","20, Bareilly","28.3457639","79.3900565",""
"ChIJXZuiFthUdTkR13ieW4UE3gk","Raj Filling Station (Nayara Energy Pertol Pump) Bholepur","Makrandpur Dharajit","28.2421737","79.33414719999999","true"
"ChIJu05KsV2rCjkRI964z_Wx2u8","IndianOil","Ground Floor, Gaini Bariley Rd, Aonla, Kishan Singhpur","28.3367517","79.30990779999999","true"
"ChIJUcdojdtUdTkRAWKA9EmlMTk","IndianOil","Ground Floor, Alampur Jafarabad, Bareilly - Badaun Road, Saidpur Kani","28.2377033","79.328229","true"
"ChIJT9CWbh4BoDkR5_BvYtqwUe4","Bharat Petroleum, Petrol Pump -A.J. Sons","IZATNAGAR,NAINITAL ROAD,BA, Bareilly","28.3518992","79.409909",""
"ChIJ55uUcQCtCjkRI4r9qWG65mI","Hindustan Petroleum Corporation Limited","Ground Floor, Rampura, Aliganj Road, Aonla, Visharatganj","28.292901","79.280011","true"
"ChIJU7nxTRMHoDkRmQfk_s5zTKM","IndianOil","Ground Floor, City Station Road, Bareilly","28.359211","79.400803","true"
"ChIJIQqeTGYBoDkR1U5tfCbm7RM","IndianOil","Ground Floor B Site, B Class Canopy, near Police Chowki, Nakatia Bridge, Bareilly","28.3309851","79.4609948","true"
"ChIJDZVBC9YAoDkROTUiE8E3V0c","IndianOil","No 35A, Civil Lines, Bareilly","28.3481718","79.4242074","true"
"ChIJXzwYVO0BoDkRHXCTkOrikFY","Hindustan Petroleum Corporation Limited","Ground Floor, NH 24, Mohanpur, Bareilly","28.320892","79.46728499999999","true"
"ChIJr5WrdAADoDkRaIrpERa73qg","Khandelwal Fuel Station","8FC9+F96, Nariyawal","28.3211513","79.4683792",""
"ChIJAdEkdQYDoDkRG-8uojCW-Qw","IndianOil","NH 24, Nariyawal","28.313129","79.475197","true"
"ChIJhePsAtcDoDkRtPYAZaDRGQw","Drive Well Service Station CNG","Unnamed Road, Bhindaulia","28.3048811","79.4800837","true"
"ChIJkaLAPy4CoDkRCilJGHkfVlQ","Bharat Petroleum","India","28.3050922","79.48033629999999",""
"ChIJab-9ATsCoDkRirhbNesGCtg","Guru Filling Station","7FXM+7M4, Transport Nagar, Bhindaulia","28.2981381","79.4841927","true"
"ChIJjUax_iYDoDkRJkW8W8t9VeI","IndianOil","Ground Floor, Transport Nagar, Bareilly","28.297511","79.48610099999999","true"
"ChIJfdKfovkBoDkRD2g69MUbgbg","Bharat Petroleum, Petrol Pump -Auto Paradise","CIVIL LINES , BAREILLY, Bareilly","28.3499208","79.4194682","true"
"ChIJvwL0nbEDoDkRnJ4wNI_KEso","Girdhari Lal KSK Filling Station","Bithri Chainpur, Road, Nariyawal","28.3237871","79.4839174",""
"ChIJdxS9ujMBoDkRdYh39_eI-c8","Central Up Gas Limited CNG Station","9C2R+P38, Pilibhit Bypass Road, Sindhu Nagar, Bareilly","28.3518","79.44019999999999","true"
"ChIJIycuCEEBoDkR_demyf5qZXo","IndianOil","Ground Floor, Gangapur, Bareilly","28.352373","79.436891","true"
"ChIJZRgdaUACoDkRvOmN14CnKCw","Fuel Station","7FRV+WJP, Invertis University, Rajau Paraspur","28.2923315","79.49406619999999",""
"ChIJq23lckQBoDkRxhGfLZpICHM","Isaiyon Ki Puliya","bus station, between ram vatika and satellite, Ram Vatika, Bareilly","28.3529663","79.436731","true"
"ChIJv1W2QNMAoDkRjmsinNpKAuQ","IndianOil","Ground Floor, Civil Lines, Bareilly","28.352501","79.418503","true"
"ChIJqzOoVWQBoDkR0IH0b87n2WI","Hindustan Petroleum Corporation Limited","900, Civil Lines, Bareilly","28.352948","79.418301","true"
"ChIJh1Z1hTMBoDkROraTAr7076M","Bharat Petroleum, Petrol Pump -Vijay Filling Station","SATELLITE BUS STAND,BAREIL, Bareilly","28.3533242","79.4437122",""
"ChIJ0wJBBVsHoDkR-CzrD9a91Ys","Reliance Petroleum","Civil Lines, Bareilly","28.3542713","79.4186241","true"
"ChIJEWDIsiUHoDkR2rBppkCujXw","Hindustan Petroleum Corporation Limited","Ground Floor, Shahamatgunj, Bareilly","28.355794","79.43362599999999","true"
"ChIJ2UZuONMAoDkREZONPZwcS78","Hindustan Petroleum Corporation Limited","86, Civil Lines, Bareilly","28.354869","79.417711","true"
"ChIJV-VpGYwBoDkR7YwAKs4L3Lw","Krishna Super Service Station","Maliyo Ki Puliya, Shahjahanpur","28.3561231","79.4336278","true"
"ChIJv1qQDAADoDkR5MHsIJ-uYxc","Fuel STATION","8FHQ+57, Urla Jagir","28.3275344","79.4883038",""
"ChIJ64r6txMDoDkROV1vA6aQ0Cg","Hindustan Petroleum Corporation Limited","Ground Floor, near Transport Nagar, NH 24, Shahjahanpur Road, Rajau Paraspur","28.285131","79.49699799999999","true"
"ChIJM7QASqYHoDkRfXC5PJtrnwA","Bharat Petroleum, Petrol Pump -Harichand Lala & Sons,A/C Shamatga","SHYAMGANJ,SHAHJAHANPUR RD,, Bareilly","28.35677029999999","79.4335471","true"
"ChIJS-TDNCYDoDkRH7DVThFeJMc","Bareily cng pump","National Highway 30, Rajau Paraspur","28.2850717","79.4970439",""
"ChIJNWK1_ykHoDkRFsUK_aD4QoY","HP PETROL PUMP - BANSAL SALES AND SERVICE","Avdesh KR, Lala Shiv PD, Agrwal Bagh RAI Bahadur, Semal, near Amar Ujala Press, C/O, Kheda","28.3572097","79.43226039999999","true"
"ChIJ2zfIEFUHoDkRbOvmC3SD9Hg","Hindustan Petroleum Corporation Limited","Ground Floor, Sindhu Nagar, Bareilly","28.3572801","79.4321801","true"
"ChIJ_eOWpPQHoDkRmlmw8wbHcnY","HP Petrol Pump","Hp Petrol Pump, Bareilly","28.3573882","79.4323388",""
"ChIJh7qv2asDoDkR61S5ebW8KRg","Oil Pump","Bareilly Uttar Pradesh Fareedpur, Bareilly","28.28206190000001","79.4975166",""
"ChIJ1-TQbtQGoDkRgkdQfVXwApk","Bharat Petroleum, Petrol Pump -R.A.Nariman & Co.","SHAMATGANJ,SHAHJAHNPUR RD,, Bareilly","28.3584607","79.430065","true"
"ChIJPaP2ZAAHoDkRsm0mjnUmu9Q","Home","Sindhu Nagar, Bareilly","28.35928","79.4320244",""
"ChIJl4uUUwD_nzkRlqnzCiR-ABU","Hindustan Petroleum Corporation Limited","Khasra No 863KA, Bukhara Faridpur Road, Simra Boripur","28.234417","79.451087","true"
"ChIJy9qNSSAHoDkR1DcQqF0DmW0","AVYAAN FUEL POINT","76, Mohalla Jasoli, Bareilly","28.3597286","79.4030641",""
"ChIJa9MUHk8HoDkRnP7PuiCgA2I","Deval filling station baraur nawabganj distt. Bareilly u.p","Deval filling station baraur nawabganj, distt, Bareilly","28.3670355","79.4304381","true"
"ChIJv5DYVob4nzkRHOvuH5ZHtHE","Indian Oil","7G76+562, Karanpur Jerh","28.2628971","79.51051389999999",""
"ChIJtYW1E48DoDkRyPMr4jCVnm0","IndianOil","Ground Floor Balipur, Purnapur, Umedpur Bhuta","28.352541","79.502479","true"
"ChIJ1X7vk174nzkRwEyU_IR6uUE","Chandra Sales Bharat Petroleum and CNG","Jerh, Bareilly, NH-24, Bareilly Shahjahanpur Road, Bareilly, Bareilly","28.2422","79.51989999999999","true"
"ChIJbT-XoV74nzkRSKnux8qJsAM","Indian Oil","6GRC+M7P, Jerh","28.2417151","79.5207185",""
"ChIJx31uKwcEoDkR1-GLVtdOQg4","Nayara Petrol Pump","9F6G+8G4, Major District Road 149W, Green Park Colony, Kanthri","28.3607543","79.4763315","true"
"ChIJhfj2EwAEoDkRfwBI90eU0vU","IndianOil","Bisalpur Road, Kanthri","28.359281","79.47138199999999","true"
"ChIJ9-QCRIH4nzkRn6oPL7TB6GA","Shaheed Balwant Filling Station","National Highway 24, Kesharpur","28.2640565","79.51084860000002","true"
"ChIJ05Rwyon4nzkRqfSf7R2v2Cc","Highway Fuels CNG PUMP IOCL","Karanpur Jerh, Bareilly, NH-24, Bareilly Shahjahanpur Road, Bareilly, Bareilly","28.25409999999999","79.514","true"
"ChIJPylF6Kf3nzkRcbHHlb917a8","IndianOil","Ground Floor, Faridpur","28.2719617","79.5719309","true"
"ChIJ37TwQUIHoDkRQVpAuvpbCmo","Bharat Petroleum & CNG Station","99FW+C58, National Highway 24, Phool Bagh, Quilla Chhawni, Bareilly","28.37353339999999","79.395451","true"
"ChIJxeTMLEIHoDkR6GoAgynQEZs","IndianOil","Qila, Rampur Road, Bareilly","28.3723126","79.3968118","true"
"ChIJU6g_gxcHoDkRekyvO7QvoyU","Bharat Petroleum Petrol Pump.","Om Energy Station SH 37 15-17 Nanital Bye Pass Road, Izatnagar, Bareilly","28.379119","79.4134976","true"
"ChIJg4v6kCQHoDkRwp9tIvq4zvw","HP Petrol Pump","9CC8+2CC, Janakpuri, Bareilly","28.3700699","79.416022","true"
"ChIJt5t4YuEGoDkR6btxy8kpFj0","Indian Oil Corporation Ltd.","9CMH+FJC, Rajendra Nagar, Bareilly","28.383681","79.4290049",""
"ChIJ19glqd0GoDkR6kzSmQQ2vss","IndianOil","Ground Floor, Stadium Road, Bareilly","28.37660319999999","79.4338131","true"
"ChIJ8dVhTqsHoDkRDAUcH2b9P4E","IndianOil","Ground Floor, 25, Nainital Road, Krishna Nagar, Izatnagar, Bareilly","28.404791","79.424538","true"
"ChIJ_8pLVVMGoDkR4D61yoUZLNw","AJ Sons Bharat Petroleum Corp Ltd.","92, State Highway 37, Krishna Nagar, Izatnagar, Bareilly","28.4052055","79.4247378","true"
"ChIJnyJGlO8GoDkRCnsITYt0gbw","Hindustan Petroleum Corporation Limited","Ground Floor, Pilibhit Road, Delapeer, Bareilly","28.388291","79.43803659999999","true"
"ChIJG4bLaS4HoDkRvKP-ioqMF2w","Awasthi Retail","Saidpur Hawkins, Izatnagar, Bareilly","28.3843479","79.40007659999999",""
"ChIJy5Qjdr8HoDkRpkNEA-ORRig","Shree Balaji Energy Point","127/4, Gokilpur, Meerganj, Bareilly","28.3867153","79.4004179",""
"ChIJfR9CAACpCjkRYxRGotwFNQc","Hariyali petrol pump karimnagar","98G7+3J, Bhat","28.375182","79.31405199999999",""
"ChIJaeI0szQHoDkR97EO2uIw-UM","Central Up Gas Limited CNG Station","Karamchari Nagar, Bareilly","28.3862614","79.4027464","true"
"ChIJSWz2v4wHoDkRsweJUCaqCKs","Sidh Baba CNG Station","9CP3+G35, Karamchari Nagar, Bareilly","28.3864375","79.4028125","true"
"ChIJMTWf0j6oCjkRf9VTBt6h9lg","Hindustan Petroleum Corporation Limited","Ground Floor, C.B.Ganj, Bareilly","28.412639","79.361576","true"
"ChIJd-kkjRsHoDkRitFpF4MuBm0","Gujral Petrol Pump","9CM9+QM9, State Highway 37, Izatnagar, Bareilly","28.384414","79.4192329",""
"ChIJN0L2AwAHoDkR_-LXGEe1DTM","Bareilly","9CM9+VPM, Flyover, Shastri Nagar, Izatnagar, Bareilly","28.3846018","79.41925979999999",""
"ChIJ06hNiBsHoDkRtwPWTBk9nsI","Bharat Petroleum","9CM9+WV2, Flyover, Bareilly","28.3847598","79.4196266",""
"ChIJizxauSAHoDkR58kIzXcRI2Y","Indian Oil Corporation Limited Marketing Division","82, Prem Nagar, Bareilly","28.372609","79.424297","true"
"ChIJedCIFWyoCjkR8DqXz5Sb_as","Indian Oil Petrol Pump Swaroop Filling Station","C9G3+FM2, Parsakhera Industrial Area, Parsakhera","28.4261479","79.3541414","true"
"ChIJ4T1fzOAGoDkRqCZkA_TlxRI","Hindustan Petroleum Corporation Limited","No C, 19, Deen Dayal Puram, Bareilly","28.3798557","79.4307031","true"
"ChIJ7T8cYAAHoDkR57lQJjnt3RY","Sanjay Nagar","9CGP+433, Sanjay Nagar, Prabhat Nagar, Meerut","28.3752525","79.4351834",""
"ChIJ5cFlcHOoCjkRI9qkMj8Av3k","SHUBHI FILLING STATION","near bharat lpg bottling plant","28.434684","79.3555705","true"
"ChIJTyCJAgAHoDkRnE9SGfFPkFA","LPG pump","9CPP+756, Delapeer, Rajendra Nagar, Bareilly","28.38567","79.435385",""
"ChIJJdrX6uUGoDkRys7FYW0783g","Satya Service Station","N H 74 Delapeer, Ekta Nagar, Bareilly","28.3857478","79.43569839999999","true"
"ChIJn-cQQpEGoDkRl6Iyl89BlCU","Hindustan Petroleum Corporation Limited","Ground Floor, Delapir Bypass, Tula Sherpur, Bareilly","28.386874","79.454514","true"
"ChIJQXjAxrAGoDkRLTmeAbRQzc0","MAHESH HP","PLOT NO.158/19&158/19A, Pashupati Vihar Colony, PILIBHIT BYPASS, Bareilly","28.3664","79.45439999999999","true"
"ChIJiVimebEHoDkR_ZbGWN1s27U","Hindustan Petroleum Corporation Limited","Lala Begum, opposite University Gate, PN 158/19 & 158/19A, Pilibhit Bypass Road, Jagatpur, Pashupati Vihar, Bareilly","28.36642699999999","79.454405","true"
"ChIJ61ucXGoHoDkRNM-7N--xE38","IndianOil","Bus Stand, near Phoenix Mall, Joginawada Road, Bareilly","28.381241","79.455162","true"
"ChIJk_fbkaEHoDkRPeqvJ6tZlWw","Adesh Filling Station","near neelkath hospital, PLOT NO 4 AND PART OF 5 Rajeeve enclave, near neelkath hospital, 100 Futa Rd, Delapeer, bypass, Bareilly","28.38727059999999","79.45050379999999","true"
"ChIJtTBlCJMGoDkRca2MWFVvOSE","Bharat Petroleum","India","28.387293","79.45056009999999",""
"ChIJt562CTcHoDkR2_tuQP1Prao","Ajeem","Gargaiya Road Nawabganj, Pilibhit Road, Bareilly","28.4055791","79.44864199999999",""
"ChIJ5e7TkDEFoDkRcVtMcaF1kWU","Dohra CNG Pump","9FMG+29M, Chandpur Bichpuri, Bareilly","28.3825897","79.47590850000002","true"
"ChIJt2ZaimwFoDkR57UYWdvVMPA","Hindustan Petroleum Corporation Limited","near Bareilly Bypass Road, Ground Floor Itawa Beni Ram, near Bareilly Bypass Road, Mohanpur Urf Ram Nager","28.375397","79.49726299999999","true"
"ChIJ6WiRjYEFoDkRC5ScF4llbc4","IndianOil","Chandpur Bichpuri, Bareilly","28.382534","79.478051","true"
"ChIJmX_EYlgHoDkRc-8zl7-_yXE","Petrol Pump","CF55+VXR, 001, Peebhauda, Peer Bahora, Bareilly","28.4088001","79.4642361",""
"ChIJdV3bTGMGoDkRzNVTjJ6wnvU","IndianOil","Old, Pilibhit Road, Peer Bahora, Bareilly","28.408001","79.459099","true"
"ChIJrfsGlwoFoDkRPSnwhykHSAE","Ranjeet Singh Petrol Pump","01, Chena Murarpur","28.4231369","79.5291593","true"
"ChIJpd-u9t8FoDkR0H0BzLlvf5E","रिजवान वैल्डिंग वर्क शॉप","India","28.4261063","79.4707075",""
"ChIJ-xyhu7EFoDkRj5im0dsu6e8","Bansal Sales And Service","Bansal Sales And Service, Pilibhit Road, Mundia Ahmed Nagar","28.4289222","79.4753836","true"
"ChIJdS7jfQIdoDkRpR0-MDxWFx8","IndianOil","Ground Floor Amlonipur Bhuta, Bareilly","28.3357942","79.57067099999999","true"
"ChIJyycnOSYdoDkRn3piWXtoLw4","SHREE HARI FILLING STATION AMLONIPUR UTTAR PRADESH","Amlonipur","28.33553090000001","79.57243369999999",""
"ChIJm8B6-HioCjkRsZCWp6sysUI","Hindustan Petroleum Corporation Limited","Ground Floor, Rampur Road, Bareilly","28.438232","79.343988","true"
"ChIJExv06F6mCjkRbozVsIjgk1M","IndianOil","Gata No 603, Meerganj, Kurtara","28.4804951","79.3168993","true"
"ChIJD6Vu-ywJoDkRnDZ95P0dqHY","GANGWAR Brothers Bharat Petroleum Corp ltd","Bareilly Bypass Road, Pardholi","28.447987","79.39342189999999","true"
"ChIJV7PjXEynCjkRRxHjabhSvVs","Daulat Ram Gupta","Unnamed Road, Fatehganj Pashchimi","28.4619933","79.30576479999999","false"
"ChIJ3UopaUoGoDkRZ4PSJ8Cl3J4","IndianOil","Ground Floor, Bareilly - Nainital Road, Bareilly","28.4274278","79.4306314","true"
"ChIJ5e0iHECnCjkRfRBrWXhsyPE","Hindustan Petroleum Corporation Limited","Ground Floor, Road, Abhaypur, Agras","28.498418","79.3788301","true"
"ChIJZ6_jPAgJoDkRrbqNqjR6zgU","IndianOil","Ground Floor Nau Nagla,Agras, road, Bhoji Pura","28.4942531","79.39686309999999","true"
"ChIJzfys8RWnCjkRGD2AzGc4wcw","Hindustan Petroleum Corporation Limited","Ground Floor, Fatehganj West, Sorha","28.503731","79.355237","true"
"ChIJ2QFWElCnCjkRi1XSQIHK8CE","Petrol Pump","F79V+75G, Thiria Khetal","28.468187","79.2929552",""
"ChIJsS2az6gHoDkRgW9H907gKn0","Jio-bp","Ground Floor, near 10 Km Milestone, Sh 37, Izzatnagar, Dohna Pitam Rai","28.451414","79.4366459","true"
"ChIJnQtxN9ilCjkRRl6gSSTbCuk","Hindustan Petroleum Corporation Limited","Ground Floor, NH 24, Thiria Khetal","28.469391","79.28807900000001","true"
"ChIJCVBAblIHoDkR5ZSbz10AidI","Pachauri Filling Station CNG PUMP","Mundia Ahmed Nagar","28.4356505","79.469217","true"
"ChIJZbfvywkGoDkR-2igVzY4080","Bharat Petroleum","India","28.4354031","79.4692835",""
"ChIJu5fmO8wJoDkRt1Cj75s5NR8","IndianOil","Ground Floor, Bhoji Pura","28.4858231","79.4449179","true"
"ChIJR1hpwmIJoDkRgmPtmzxwebU","Bhojipura Service Station","near Ram murti medical college, SH 37, Bareilly - Nainital Road, Bhoji Pura","28.4864554","79.44427979999999","true"
"ChIJD7O9cOIPoDkRoqolfQQUDek","K S K. Patel filling Station","Plot no.-502 ,Tulsipur , Rithora, Marg, Abheypur Keshonpur","28.4641143","79.487123","true"
"ChIJBznRkngPoDkRnBkr9gHs9Hg","IndianOil","Ground Floor, NH 74, Pilibhit Road, Bhandsar","28.461101","79.514601","true"
"ChIJF6lYwy0PoDkRAMW-y_rWZak","Bharat Petroleum, Petrol Pump -National Filling Station","PILIBHIT ROAD,RITHORA,BARE, Bareilly","28.461391","79.5141561","true"
"ChIJM5E__IIPoDkRfXSuSYtTgE8","Hindustan Petroleum Corporation Limited","Ground Floor, Pilibhit Road, Rithora","28.463399","79.51745799999999","true"
"ChIJp5oqwyIFoDkRwXgMoTNT3hE","Mohd Imran petrol pump","Main Kunwarpur Banjariya, 01rithora Road, M.J.P Rohilkahand University, Bareilly","28.4276151","79.5534567",""
"ChIJXRtQvmIPoDkRbRDNVoRZ2Is","Highway petroleum","FHJ3+HQR National Highway, 30, Sithra","28.4814896","79.5543787","true"