place_id,name,address,latitude,longitude,open_now
"ChIJ330rKSpHkTkRMMQT8gF2t1k","Hindustan Petroleum Corporation Limited","Ground Floor, Nausad Kalesar, Rd, Barwar Khurd, Sahjanwa","26.738066","83.291089","true"
"ChIJrxjTI1VBkTkRRR6QHPIP9Kc","IndianOil","Birdh Ghat, National Highway 28, Lalpur Tikar","26.7324353","83.3395633","true"
"ChIJF5VLB41DkTkRgldwkNlFLvc","IOC Petrol Pump","P9M6+JC2, Rajiv Nagar Colony, Chakara Doim","26.734018","83.3610083","true"
"ChIJM27UCC9BkTkRYcNvgqMwnBo","IndianOil","Ground Floor, Block No C Piprauli, Sahjanwa, Jarlahi, Bhiti Belipar","26.6837129","83.3188685","true"
"ChIJPd9t439BkTkRedMsm6gVIK4","Hindustan Petroleum Corporation Limited","Ground Floor, Gorakhpur Bypass, Ekala","26.706415","83.321651","true"
"ChIJVUkdxMdBkTkRE6E2DQQ-Tj4","IndianOil","near Pani Ki Tanki, Sadar, Varanasi - Gorakhpur Highway, Bagha Gara","26.711575","83.32981199999999","true"
"ChIJfVOe1dZAkTkRbWUzXIwQy8g","IndianOil","Ground Floor Khazni, Gorakhpur Road, Piprauli Khurd","26.723415","83.28810899999999","true"
"ChIJW_P9c9FBkTkRyYiPc8BWKiM","Kanha fruit company chapiya gorkhpur","P7GW+Q9J, Khajani - Gorakhpur Road, Chhapiya","26.7269577","83.295895","true"
"ChIJYywNhJpAkTkRaGoWOr02Utk","Hindustan Petroleum Corporation Limited","Ground Floor,Nausad Khajni Road Jaitpur, Sahjanwa, Nandapar","26.7010215","83.2623188","true"
"ChIJS06wVFZBkTkRB5cw3_0QkrI","Hindustan Petroleum Corporation Limited","Ground Floor, Nausad, Gorakhpur","26.725801","83.333801","true"
"ChIJUycV4dRHkTkRiR1jQaHrSXQ","Aditya Enterprises","Infront Of Aman Guest House, Sector 5, GIDA, Barwar Khurd","26.7371506","83.29402379999999",""
"ChIJpUE4fXZHkTkRqVykmVpNEUU","Rajbhar tola Koliya mafi","P8Q6+G9C, Gorakhpur","26.7388238","83.3108872",""
"ChIJR329D8pGkTkRdJ7sE461kOU","Kolia Petrol & CNG Pump","P8Q7+9Q8, 28, National Highway, Kolia, Kolia Mafi","26.7386831","83.3142507",""
"ChIJc5_MxztHkTkR2Es6L0v7FM0","Torrent Gas CNG Station","National Highway 28, Kolia, Kolia Mafi","26.7387019","83.314228","true"
"ChIJs3WjrqxGkTkR0B3xdS7tfjc","HP PETROL PUMP - GAURAV AUTOMOBILES","Ground Floor, Nausad, Haraiya, NH 28, Lucknow Road, Gorakhpur","26.734401","83.33030099999999","true"
"ChIJy1_c6NtBkTkRj0MaEnuOnYc","IndianOil","Ground Floor, Nausarh, Lalpur Tikar","26.7330744","83.3335921","true"
"ChIJoaireY5BkTkRjdKcIEQdzxo","IndianOil","Nausarh, National Highway 28, Lalpur Tikar","26.733558","83.332956","true"
"ChIJ32QBdzI_kTkRJv3Mj2PDYLQ","Bharat Petroleum, Petrol Pump -Shivam Filling Station","KATGHAR, KHAJANI, GORAKHPU, Gorakhpur","26.6738414","83.2491163","true"
"ChIJnU_y1mNDkTkRGw2ENM0HmLE","Torrent Gas CNG station","Kamla Motors & Engineering Works, Plot No. 16, Nausar Chowk PO- Nausar, Belipar, Khajani - Gorakhpur Road, Sadar, Gorakhpur","26.7325839","83.3395922",""
"ChIJ2Zu97ypDkTkRtUSgglgAi6Q","Bharat petrol","P8JR+VJC, opposite BPCl Petrol Pump, Gorakhpur","26.732731","83.3413538","true"
"ChIJk5_wZjNHkTkROEy_z2e_KE4","IndianOil","Ground Floor, Sahajanwa, Mahi","26.7318205","83.260064","true"
"ChIJaQYiFgA_kTkRdFRtGzo0MVU","HP PETROL PUMP","Satuahhar chauraha, Khajani","26.6580455","83.24842780000002",""
"ChIJM7afYmVDkTkRSFVdpjKu7R4","Bharat Petroleum, Petrol Pump -Sundaram Service Station","Sidhartha Enclave Road, Rail Vihar Colony Phase 3rd, Taramandal, Gorakhpur","26.7339992","83.3562437",""
"ChIJ8VXnxVpHkTkRc_fbI6rnbu4","IndianOil","28, National Highway, Jhungia","26.7447458","83.260527","true"
"ChIJhVwQkQZDkTkRqj0P1kJAEzI","Satya General Store","Dk General Store, near Kalabag, Gorakhpur","26.6608867","83.3695262",""
"ChIJ1csWDi9DkTkRC0uy5mTeLEk","Bharat Petroleum, Petrol Pump -Ganga Automobiles","MAHEWAMUSTAKIN,TPT NAGAR,G, Gorakhpur","26.7341409","83.36174679999999","true"
"ChIJV3NBwlE_kTkRe42dN58i51s","Hindustan Petroleum Corporation Limited","Ground Floor Sahjanwa, Bhauwapur, Gadar","26.697391","83.226044","true"
"ChIJEzAnBwA_kTkRXYDzgrwalaE","Hindustan Petroleum Corporation Limited","Ground Floor, Katghar Bighai Road, Satuabhar","26.6747326","83.2276802","true"
"ChIJA7SlbPlHkTkRlks64B0Hhvc","M/S PRAGATISHEEL AUTOMOBILES","P7W4+72P, KALESAR SQUARE, ROAD, Sahjanwa","26.745703","83.2550775",""
"ChIJ0SLldllHkTkR-jFzfj00cGY","Hindustan Petroleum Corporation Limited","Ground Floor Chhapia, NH 28, Kaalesar","26.7458066","83.254941","true"
"ChIJG1rvMgBDkTkRRk7Nlijphnw","Indian Oil Petrol Pump","Azad Chowk, Azad Nagar, Gorakhpur","26.7342608","83.36485019999999","true"
"ChIJERaz4NZDkTkRSZ6VQ7TGQ1s","IndianOil","NH 28, Old, Transport Nagar, Gorakhpur","26.7348035","83.364992","true"
"ChIJ89l2TRBEkTkRyObiKUYhQvg","Laldiggi Petrol Pump","Transport nagar Road, 273005, Gorakhpur","26.7491661","83.3494017","true"
"ChIJO-MX5pdFkTkR4MbscGo2FJU","IndianOil","Sadar, Mahewa, Munderi Chak, Domingarh Road, Gorakhpur","26.749498","83.34915199999999","true"
"ChIJ7UyKn39EkTkRzuxl_-Lc4zM","Hindustan Petroleum Corporation Limited","Ground Floor, Daudpur, Gorakhpur","26.738201","83.376401","true"
"ChIJb6PxhnpDkTkR1JaBV_x6dRM","Sundram service station Bharat Petroleum","near SBI bank, Taramandal road Bharat petrol pump, near SBI bank, Taramandal, Gorakhpur","26.7258689","83.3871722","true"
"ChIJW4xy_4dDkTkR_DzEsGaIJO0","IndianOil","H.P. Dubey Road, Betiahata, Gorakhpur","26.736126","83.368607","true"
"ChIJQzWkfMNckTkR4FXpJt6E8qw","IndianOil","Deoria Bypass Road, Divya Nagar, Khorabar, Gorakhpur","26.70638499999999","83.438081","true"
"ChIJoy5mro9EkTkRERqeojPLQMI","Bharat Petroleum Petrol Pump","Kawwa Bagh Colony, Gorakhpur","26.7510983","83.3875358","true"
"ChIJqa4aiatEkTkRmAm-D_gm328","Hindustan Petroleum Corporation Limited","Ground Floor, Gorakhpur - Deoria Highway, Girdharganj, Gorakhpur","26.7438401","83.4182101","true"
"ChIJxXBeIl5EkTkRxlDflZqxb1Q","Petrol Pump","Dharmashala Flyover, Bilandpur, Gorakhpur","26.760494","83.3750671","true"
"ChIJ23IBG8BDkTkR2p1nIMdFf7U","Hindustan Petroleum Corporation Limited","Ground Floor Lahsari, Mirzapur Road, Sadar, Dangipar","26.689401","83.395431","true"
"ChIJM7b_ewBDkTkRLa7j1ALM1gY","Shukla Filling Station","P98P+3F9, Pipara","26.7151621","83.38624920000001","true"
"ChIJHdGfZU9DkTkRNp2lCF0MIJk","AARAV YADAV","786, Taramandal, Gorakhpur","26.7177664","83.3941286","false"
"ChIJN6wS8zZDkTkROOgIs_79LdA","Hindustan Petroleum Corporation Limited","Gata No 1419/1, Siktaur","26.701271","83.409151","true"
"ChIJ6ZISXwBDkTkR2Rb9t4V9a6A","Torrent cng filling pump","PC26+J38, Gaighat Buzurg","26.7015389","83.41021549999999",""
"ChIJm25OtmlDkTkRrc-Dvywg9JI","Hindustan Petroleum Corporation Limited","PC26+P3Q National Highway, 27, Gorakhpur","26.7018125","83.41018749999999","true"
"ChIJxx3pXX9DkTkR2I7PAJrE2hA","Hindustan Petroleum Corporation Limited","Ground Floor, Kusumhi Bazar, Mednipur, Gaighat Buzurg","26.702161","83.410111","true"
"ChIJP8a12SlDkTkRqh7M5M6iBgQ","Online cng station /Gorakhpur bypass","KMS 270 Gorakhpur Byepass, National Highway 27, Gorakhpur","26.70193089999999","83.4104582","true"
"ChIJEZfT3oJDkTkRhLt7dC_6LlQ","Happy happy tent house","P9GH+R5F, Azad Nagar, Gorakhpur","26.7270783","83.37805499999999",""
"ChIJKe_sewBDkTkRxDxsp80Tes4","Indian Oil Petrol pump","P9JC+72Q, Chilmapur Road, Manaspuram, Azad Nagar, Gorakhpur","26.73073729999999","83.370215","true"
"ChIJvQ6DBABDkTkRkCT8dDEVE18","J k filling station","454, Azad Nagar, Gorakhpur","26.7309318","83.37024",""
"ChIJpQVQVz9DkTkRNme8HoJt6nA","Aparna pollution center","LIC, indian oil ⛽ pump, Deoria Bypass Road, Taramandal, Gorakhpur","26.733387","83.37771","true"
"ChIJC8rjM4BDkTkRY6TNZaULUn8","IndianOil","near LIC Building, Ramgarh Buddha Nagar, Gorakhpur","26.7339058","83.3777418","true"
"ChIJA8JRDgBDkTkR7DkCJI9ohL8","Indian Oil Divisional Office","Deoria Bypass Road, Divya Nagar, Gorakhpur","26.734047","83.378146",""
"ChIJVY_-LYBDkTkR_GiNKQx2ysk","Vaishno Petro Shoppe","near LIC, Taramandal Road, near LIC, Deoria Bypass Road, Gorakhpur","26.7340649","83.3782894",""
"ChIJscyuAUlFkTkROaNrP7Ykndc","भारत पेट्रोलियम","P9PF+QC5, Taramandal Road, Mahuesugharpur, Shakti Nagar Colony, Gorakhpur","26.7368994","83.373616",""
"ChIJI3ELRl9pkTkRyKG4p0JwFUk","Hindustan Petroleum Corporation Limited","Gata No, 1235 Bansgaon Road, Mahaveer Chhapra Road, Gorakhpur","26.6397955","83.3670649","true"
"ChIJpUfuJf9pkTkRjaVRDXbLVQ4","S&J Group Torrent CNG","J9PG+HRG, National Highway 24, Chandauli Khurd","26.6370848","83.37688899999999","true"
"ChIJ6wGxfnpEkTkROJfggMM4d7o","Miranda Bharat Petroleum, Petrol Pump","ST. ANDREWS COLLEGE, Qazipur Khurd, Gorakhpur","26.7448385","83.368568","true"
"ChIJKxDrYGVEkTkRslVAglVjxmc","Town Hall PETROL PUMP","P9X9+Q9X, VindyaVasini Nagar, Gorakhpur","26.7494849","83.3684907",""
"ChIJZ3SJuDJokTkRZ7411dxsIio","Kailash manas Petrol Pump","Mehrauli, Mahadeeh","26.629752","83.3796869","true"
"ChIJtXqxM2REkTkRKYSrDFDmVHc","Hindustan Petroleum Corporation Limited","Ground Floor, Golghar, Gorakhpur","26.752901","83.371101","true"
"ChIJX5jpiqZFkTkRwiH4d-NjjXI","IndianOil","near Khaitan Automobiles, NH 28, Mohaddipur, Gorakhpur","26.7495781","83.3990154","true"
"ChIJU_z1gmZEkTkRV3hZTxqB0Js","HP","Golghar Post-golghar Gorakhpur DT UP, Varanasi","26.7539383","83.3714823","true"
"ChIJD2gCvi5FkTkReIyxUGpDmT0","Usha Filling Station","Reliance Pump, Gida, Sahjanwa","26.7538357","83.378607",""
"ChIJOZki93ZdkTkRdAe6ZDxBdwc","Hindustan Petroleum Corporation Limited","Ground Floor, near Deoria Bypass Road, Urf, Khorabar, Jangalsikari Urf Khoraba","26.7094604","83.4418719","true"
"ChIJV1ZlxbtckTkRDD8bVmPMlIQ","Hindustan Petroleum Corporation Limited","Ground Floor, Gorakhpur - Deoria Highway, Raneedeeh","26.72252409999999","83.435756","true"
"ChIJc68NU2tEkTkRbMsbMIrU1Fw","IndianOil","Ground Floor, Nasirabad, near Buxipur Road, Chauraha, Gorakhpur","26.753747","83.357618","true"
"ChIJjeIEYwBdkTkRKT3kUH_02jE","ARS Petrol Pump","PC5V+R32, Gorakhpur - Deoria Highway, Divya Nagar, Awas Vikas Colony, Kunraghat, Gorakhpur","26.7095014","83.4426259",""
"ChIJZdmmSQBdkTkRWgI2oJhpbTM","ARS पेट्रोल पंप","Bypass road, NH 28 Terminal, Divya Nagar Vistar, Khorabar, Khorabar Urf Soobabazar","26.7094924","83.4427315","true"
"ChIJ_-tWMQBdkTkRzvBMxVtkLZg","Bharat petrol pump","MCXW+JGM, Tal Kandala","26.6990875","83.44631129999999",""
"ChIJqYVQpeVFkTkRBwa-32tnqEo","Bharat Petroleum","PCX5+M28, Mohaddipur, Gorakhpur","26.7490928","83.4073149",""
"ChIJ_WXgzqREkTkR-7ZzA9TNdj4","City Fuel Centre With In & Out Store","PCX4+MXC, opposite RKBK Showroom, Kasia - Gorakhpur Road, Mohaddipur, Gorakhpur","26.74918989999999","83.4073998",""
"ChIJpV_KFlVbkTkR3DOgdYLHx0Y","New Ashoka Filling Station","PCRF+678, Awas Vikas Colony, Rapti Nagar Phase-4, Gorakhpur","26.7405353","83.4232023","true"
"ChIJfwFlmSRbkTkRMP2JkFChKmw","IndianOil","Deoria Road, Mahdeva","26.740313","83.423523","true"
"ChIJ7YKR2VdckTkReYsSsBco_4w","IndianOil","PF37+9W6, Deoria Road, Jangal Sikri, State Highway 1, Gorakhpur","26.7033192","83.4646191","true"
"ChIJq6qqqupdkTkRU_GNL3316oE","Indian Oil Petrol Pump","Gorakhpur","26.6712014","83.4856913","true"
"ChIJd-PtZlBnkTkRc735OdVqaQQ","IndianOil","Ground Floor Luxmipur, Haveli, Jhangaha","26.638887","83.497528","true"
"ChIJCch9NgldkTkRoy1FS0G2Gls","Bharat Petroleum, Petrol Pump -Kesharwani Travels","JUNGLE SIKARI, KHORABAR,GO, Gorakhpur","26.7080388","83.4562998","true"
"ChIJ248_CbRdkTkRxuBVpwKQBPk","Gurudev fuels Mobile dispanser","MFV9+Q8C, indian oil pump madapar fourlane baipass, National Highway 28, Gorakhpur","26.6944372","83.4682579","true"
"ChIJOZM9nOtckTkRfjI_NBZ78Qs","Nayara Petrol Pump","Jungal Sikari, Khorabar, Gorakhpur","26.7131802","83.4474","true"
"ChIJk2LepjldkTkRm5Vj6N9rTvQ","IndianOil","Ground Floor, SH 1, Ramnagar, Ramnagar Karjaha","26.6910366","83.4886926","true"
"ChIJPRMoawBdkTkRD2zQ1zFa-5o","Bharat petrol pump ⛽","PF9X+4J6, Vahrampur","26.7172896","83.49912359999999",""
"ChIJpWXTjfldkTkRXgYTvUAUc94","Hindustan Petroleum Corporation Limited","Ground Floor, Bansapti, Laxmipur, Jhangaha","26.65370099999999","83.498111","true"
"ChIJyXhc9x9ckTkRekwuztiBLTk","Gurudev Fuels Plaza","N.H.27, Gorakhpur Bypass, Bhaisaha","26.7193872","83.50632399999999",""
"ChIJM1nz8B9ckTkREWDNb3SO2-k","IndianOil","Ground Floor NH 28, Tamkuhi Rd, Bhaisaha, Near Madapar Km St No 282, Sardarnagar","26.719641","83.506373","true"
"ChIJX3AJtj9bkTkRINqtIXmY4TI","IndianOil","Jungle Ramgarh Urf Sarka","26.7463499","83.4875885","true"
"ChIJDTGs_8RfkTkRFVev647_aPs","Bharat Petroleum, Petrol Pump -Tirupati Enterprise","GAHIRA, GORAKHPUR, Gorakhpur","26.674421","83.5204404","true"
"ChIJ78p-osNHkTkRDFeKDfRMFUs","IndianOil","Ground Floor Sadar, Jagatbela, Near Gorakhnath Mandir, Jangal Kauria","26.8105973","83.2759985","true"
"ChIJbb-KWchFkTkRAzklzpdJT3U","Hindustan Petroleum Corporation Limited","Ground Floor, Sonauli Road, Rajendra Nagar, Gorakhpur","26.792101","83.355201","true"
"ChIJq2MsA784kTkRDF9sjmte8i4","Reliance Petrol Pump","Gorakhpur Road, GIDA Industrial Area Phase 1, Sahjanwa","26.7495352","83.2316719","true"
"ChIJj_vfaMA4kTkRsOBcroH9Qoc","IndianOil","Lock No, 13018, National Highway 28, Sahjanwa","26.751377","83.22831099999999","true"
"ChIJXTRmLfBFkTkR_76UhKOFZog","Bharat petrol pump","fornt of bharat petrol pump, Moharipur, Gorakhpur","26.8180606","83.3495362","true"
"ChIJaY_AJ_1HkTkR9pFywbRjJFQ","Vegetables wholesaler","Nh29, East, Gorakhpur","26.79978239999999","83.29017449999999","true"
"ChIJ_SIUqzNHkTkReVKojFgsYog","HVH & SON'S FILLING STATION","Ground Floor Jungle Kaudia Bypas, Karnjahwa","26.799871","83.290481","true"
"ChIJfcJlCABFkTkR4AoyLinmXtY","Awadh Petroleum BPCL","Q8GW+9GQ, Green City Road, Shaheed Abdullah Nagar, Netaji Subas Chandra Bos Nagar Colony, Rajendra Nagar, Gorakhpur","26.7759622","83.34635569999999",""
"ChIJ4yYmwWJFkTkRcT6eSNSBT_I","Khatu Sales Corporation","behind indian oil petrol pump, Durgabadi Road, Gorakhpur","26.7637607","83.3513351","true"
"ChIJCTy7JABFkTkRNgmxwbupf3c","Cp family petrol pump","charan lal chowk, 1, Ghasikatra Road, Alinagar, Bade Kajipur, Gorakhpur","26.75903229999999","83.35828339999999","true"
"ChIJX-2laJ5FkTkROxpt1gItag8","IndianOil","Ground Floor, Durga Bari Road, Gorakhpur","26.7630457","83.35959900000002","true"
"ChIJ61XCs59FkTkRRrD2aOzCI-E","Fuel Station","Aryanagar, Gorakhpur","26.7587991","83.3621245",""
"ChIJo3S4DABFkTkRNW9fw0SRo-k","Indian Oil Petrol pump Gorakhnath","Gorakhpur - Sonauli Road, Rajendra Nagar, Gorakhpur","26.7842113","83.3568264","true"
"ChIJPXkOvV9FkTkRZhhBXGXcCaM","VINAYAK FUELS","117, 118, SUMALI HOTEL, 119, Bobina Road, Alinagar, Gorakhpur","26.7613832","83.3632228",""
"ChIJszSrtslFkTkRlaXJUR2Tq5Q","MAA DURGA AUTO SERVICE","India","26.7909338","83.35589709999999",""
"ChIJ11m0R7hFkTkRQ46Rk8aOnCE","Petrol pump","near Rani sati Mandir, Shyam vihar colony phase2, near Rani sati Mandir, Nakha road, Dayanand Nagar, Gorakhpur","26.7845989","83.36286","true"
"ChIJ39fZg0ZFkTkRkIUCD0H2fm0","Sachin","Sukla Care, Hn Singh Road, Gorakhpur","26.7704961","83.36832810000001",""
"ChIJ_wr3ur9FkTkRklPgfxEbx0g","Ranjeet Kumar Rkp","Q9P7+PHX, Gorakhnath Road, Bargadwa, Gorakhpur","26.7868523","83.3639946","true"
"ChIJ1TtZiMFFkTkRboodbWRGdoM","IndianOil","NH 29E, Lachhipur, Bargadwa, Gorakhpur","26.803694","83.352463","true"
"ChIJwS-m_elFkTkRFD8SrnLLgyQ","RELIANCE PETROLPUMP","R83X+FJH, State Highway 1, Bargadwa, Gorakhpur","26.8059217","83.3516966","true"
"ChIJk96wQYlFkTkRnI5jtUFATww","Hindustan Petroleum Corporation Limited","Ground Floor, NH 29E, Gorakhpur - Sonauli Road, Bargadwa, Gorakhpur","26.8074689","83.3511793","true"
"ChIJT1ZdcPpEkTkRD8vn_ZuSWqU","Hindustan Petroleum Corporation Limited","Ground Floor, Geeta Vatika, Geeta Vatika Road, Shahpur, Gorakhpur","26.772801","83.38620100000001","true"
"ChIJk1X-b95EkTkRSU-F7TNYrQA","IndianOil","Shahbazganj Sadar, Pipraich Road, Shivpur, Gorakhpur","26.779552","83.40220599999999","true"
"ChIJ17dBAwVFkTkR2C8saQW0jYg","Bharat Petroleum Petrol Pump","Q9VQ+744, Usha Nagar, Gorakhpur","26.793135","83.38783269999999","true"
"ChIJoxaWH6dFkTkRY6oX9Gkehnc","IndianOil","Khajanchi Chauraha, Bargadwa Road, Vijay Nagar, Gorakhpur","26.7993223","83.37671379999999","true"
"ChIJVRBt2Q9FkTkRTK4Qsw4ZHSA","IndianOil","Ground Floor, Chrgawan, SH 81, Medical College Road, Khajanchi Chauraha, Gorakhpur","26.7977717","83.3895414","true"
"ChIJFeuxm1JFkTkRxbedY0VepoM","Shri Sai Juice Corner","1, Geeta Vatika, Gorakhpur","26.7724579","83.3860742",""
"ChIJa-2YnvlEkTkR6hZEjFrGywY","IndianOil","Medical College Road, State Highway 81, Basharatpur, Shahpur, Gorakhpur","26.77479599999999","83.383057","true"
"ChIJwURbMQBFkTkRh0U9L8X77Dc","Hindustan Petroleum Corporation Limited","Gata No 589, Sadar, Shahpur, Gorakhpur","26.7684627","83.39230959999999","true"
"ChIJv130pVVEkTkReZQpccCXZIY","IndianOil","Ground Floor, Basharatpur, Gorakhpur","26.7802819","83.37687729999999","true"
"ChIJB-4GM_xEkTkRqOdvtzrP5qU","Hindustan Petroleum Corporation Limited","Ground Floor, Medical College Road, Basharatpur, Gorakhpur","26.780801","83.38510099999999","true"
"ChIJ2_qXfnlFkTkRaEy0P41ldpk","Bharat Petroleum Petrol Pump - Lekhraj Fuel","near POLICE CHAWKI, जेल बायपास मार्ग, पाद्री बाज़ार, गोरखपुर","26.7797712","83.4040677","true"
"ChIJ_fQs4B5FkTkREd9rSMq0Ur4","Bharat Petroleum","Q9QX+F2H, Fatima Hospital By-Pass Road, Shatabdipuram, Gorakhpur","26.78869379999999","83.3976069",""
"ChIJZUGaQrRFkTkRm8S5qzhHfV8","Hindustan Petroleum Corporation Limited","Ground Floor, Padri Bazar Chowk Road, Basharatpur, Gorakhpur","26.791901","83.39450099999999","true"
"ChIJc7nb6rtFkTkR49AvXJGaTVE","V.K. FILLING STATION","4, Khajanchi Chauraha, RailVihar Ph-2 Colony, Raptinagar Phase -4, Gorakhpur","26.79764669999999","83.3890495",""
"ChIJ12TZTGREkTkRrTD4C_MI2Mc","IndianOil","Ground Floor, Golghar, Gorakhpur","26.7977932","83.3894038","true"
"ChIJAf0i7ORbkTkRk7G9D1fmTQU","Hindustan Petroleum Corporation Limited","Ground Floor Kushmi Bazar, Khadraich","26.755888","83.50012699999999","true"
"ChIJm9DghVVZkTkR9K58j-Ya4ik","Hindustan Petroleum","PGW4+FWH, Khararaiech Khurd","26.7461909","83.5073718",""
"ChIJU0_diRdbkTkRRQyZ-x0_b8Y","Hindustan Petroleum Corporation Limited","Gata No 924, Sadar, Vishwakarmapuram, Gorakhpur","26.7903499","83.4290623","true"
"ChIJeyqXKQBbkTkRC4RvyVpSvrI","Manoj filling station","QCRH+5GM, Pipraich - Gorakhpur Road, Vishwakarmapuram, Jangl Dhoosar","26.79062099999999","83.4288028",""
"ChIJiSoFHNlEkTkReIijxtuc2Mw","Hindustan Petroleum Corporation Limited","Ground Floor, Pipraich - Gorakhpur Road, Jangl Tinkonia No1","26.786081","83.41721299999999","true"
"ChIJbQmr3KtFkTkR6LTFphm1xAQ","RAVINDRA NISHAD","Latif Nagar, Padri Bahar, 237, Gorakhpur","26.7842278","83.41215129999999",""
"ChIJT2u3CQBbkTkR5Zr52uuN7z0","M/S Mahadev CNG Torrent CNG GAS pump","QFX2+R7F, Tura Bazar, Jangl Dhoosar","26.799561","83.4506608","true"
"ChIJReQ0WQBbkTkRwdXXUUnJo6s","Priyanshu fuel station","RF24+VCR, Padri Bazaar, Jangl Ahmad Ali Shah Urf","26.802316","83.455169",""
"ChIJLdTGgOhbkTkRSUmgJrCAcP0","IndianOil","Ground Floor, Pipraich - Gorakhpur Road, Turwa Bazar, Gorakhpur","26.8026591","83.4590494","true"
"ChIJ1blH5rtbkTkRI9AfqamXlnU","IndianOil","Ground Floor, Pipraich - Gorakhpur Road, Sadar, Jangl Subhan Ali","26.8056938","83.4716107","true"
"ChIJsyX-yMpbkTkRBLFlrN4qau0","Csc Common Service Center","7, Jaungal Aurhi, Gorakhpur","26.81442059999999","83.4625212",""
"ChIJe0YfeQBFkTkRGsETzZfRJug","Aryan oxygen gases","rapti Nagar phase 4, Gorakhpur","26.8012746","83.38807109999999",""
"ChIJR77cQmtFkTkRFk4-UICrvv4","IndianOil","SH 81, Medical College Road, Gorakhpur","26.8090966","83.3958076","true"
"ChIJT3Ve7slIkTkRxuYin4aojVI","IndianOil","29, National Highway, Tal Jamuar","26.8526735","83.33006689999999","true"
"ChIJGXgW68JIkTkRan56orWQLrY","Nayara Petrol Pump","V868+CGP, National Highway 29, Gay Ghat","26.8610991","83.3163271","true"
"ChIJVd9STxRPkTkRLdcAdhXVp5U","IndianOil","Ground Floor Vishunpur, Balapar, Road, Tikaria","26.857203","83.360722","true"
"ChIJOx5F8DVJkTkR3jDPnMZw4ic","IndianOil","R8X6+3H, Prempur","26.8477056","83.311484","true"
"ChIJ_eMJS61JkTkRBCTETky8Jw0","Hamara Pump Prakash, Deehaghat","V72R+2QF, Deehghat","26.84994499999999","83.2920973",""
"ChIJ7w_7kulFkTkRpPb0Kkpe4Vc","Hindustan Petroleum Corporation Limited","Ground Floor, Jungle Kaudia, Deehghat","26.84994929999999","83.29209829999999","true"
"ChIJm-LHI4hJkTkRFrvGKqU6kNA","C N G Pump","Almamaterschool, State Highway 1, Maniram","26.8490634","83.33028929999999",""
"ChIJM3OSpgtPkTkRfDQ8VC0DSZ4","JAI SHIV INDANE SERVICE GODOWN","MAHUWATAR CHAURAHA, opp. CENTRAL BANK, Omkar Nagar, Siktaur","26.8313151","83.3494058","true"
"ChIJl1XrjxtJkTkR6UG-HYnF3gM","Hindustan Petroleum Corporation Limited","Ground Floor, near Campearganj Road, NH 29, Extension, Jangal Kauria","26.880502","83.30759499999999","true"
"ChIJ88UG5qpPkTkRSylkONXqp38","माँ बमंत इंडियन गैस सर्विस (बैजनाथपुर)","V92G+MHF, Baijnathpur","26.85068559999999","83.37606459999999",""
"ChIJLSsvm6dFkTkRCUltchqryJ0","IndianOil","Jungle Nakha, Street Number 1, Sadar, Gorakhpur","26.800632","83.372343","true"
"ChIJ-_IalwZQkTkRM43HiOblZrk","IndianOil","SH 81 Gorakhpur Maharajganj, Road, Persia, Gorakhpur","26.837875","83.42844400000001","true"
"ChIJS-VLPOFOkTkRSP8QbQjY4UA","IndianOil","Ground Floor Tikaria Road, Maniram, Gorakhpur","26.881115","83.361013","true"
"ChIJFQmSpVtFkTkRBI__5pH9zPc","गोपी स्वीट्स","India","26.8235289","83.4076036",""
"ChIJJ3ezcQBRkTkREy6nMhLtwYs","SHARMA SHOPS","RCMG+G87, Pipraich Road, Sarai Gulharia","26.8337812","83.42578499999999",""
"ChIJ8yUEOqlbkTkRWk7jIDSjNYQ","Saurabh Fuels","Pipraich Road, Jangl Pakri","26.8294375","83.4399375","true"
"ChIJtVhYOABbkTkRIzZboda64Ko","Sharma Shops","RCHR+2JH, Jangl Pakri","26.8275573","83.4416114",""
"ChIJXXppfQlbkTkR5F3R0P-Lr28","A S Automobile","Pipraich Road, Jangl Subhan Ali","26.8293347","83.4426289",""
"ChIJo1kIZwBbkTkR9rIEIeURRPg","Deepak Kumar Rao","RFMM+VPH, Bankat","26.83468169999999","83.4843688","true"
"ChIJ1XR8XFlQkTkRLHAcwmBWahs","Hindustan Petroleum Corporation Limited","Ground Floor, Gorakhpur Maharajganj Road, Rampur Buzurg","26.864701","83.459501","true"
"ChIJD9xN_J1XkTkRaAGghHamNlE","Hindustan Petroleum Corporation Limited","Ground Floor, Sadar, Bhathat, Pipraich","26.851981","83.511321","true"
"ChIJWx2O7ZxXkTkRJfpvd33wtJw","Hindustan Petroleum Corporation Limited","Ground Floor Pipraich, Sadar, Bhathat, Sohasa","26.851981","83.511321","true"
"ChIJs-eV_AtXkTkRCp7ah3AXv_4","Kirana Store","3554Royal Ghodadeur, Samdar Khurd","26.8602555","83.51085189999999",""
"ChIJXyEhxBtRkTkREqFC-Qr6gMU","Bharat Petroleum Petrol Pump - Kashi Prasad Filling Station","Mirapur","26.8898832","83.47936949999999",""
"ChIJ3Y1q2RtRkTkRNuL3FXQI8cw","IndianOil","Ground Floor, SH 81, Bhathat","26.8898971","83.4800072","true"
"ChIJz2nxBgBRkTkREU-katH6mWY","Sahai auto tractor service centre","VFRJ+338, Mirapur","26.890015","83.480265",""