place_id,name,address,latitude,longitude,open_now
"ChIJbxpjfKU8kDkRaQr1gXhCBuI","Nayara Petrol pump","MJHQ+FVQ, Unchani Kalan","25.6787113","82.6397479","true"
"ChIJO2gDZmAikDkRThPU8o1fvmM","Bharat Petrol Pump","Kishunpur","25.6144404","82.58243949999999","true"
"ChIJCa5GEPU9kDkRWZhhk4L8pK4","auraila hp","MHGX+394, Pipara","25.675147","82.598445",""
"ChIJh4XsApoQkDkRdoQkZthAiHk","HP PETROL PUMP - HAMARA PUMP MACHLISHAHR PRASAD FS","Tehsil, Plot NO 461 Village Jamalpur, Machhali Shahar","25.6585288","82.58146719999999","true"
"ChIJC1znVMY9kDkR4KQOIk8KNFY","IndianOil","Ground Floor, Sheetalganj Sikrara Road Ajoshi, Ganapur","25.6822766","82.5612812","true"
"ChIJMyqHfWUXkDkRL1jb334BCKo","DEEPCHANDR YADAV","63, Post, Kailawar","25.6841785","82.5574601",""
"ChIJl9JpcQAjkDkRncvvoAvecIw","Prayagraj","JHVW+5GJ, Kumbh","25.642967","82.59626709999999",""
"ChIJAVSz-IoXkDkRdA6xJHMmCw4","Adarsh Vegetable","122mithepar, Mithepar","25.6853618","82.55550509999999",""
"ChIJGSS6XTQ9kDkR80h9_W0jI_I","IndianOil","Ground Floor Mariahu, Unchani Kalan","25.6819681","82.6416943","true"
"ChIJ1YXs2AMjkDkRQT7aZ3sKNbU","Bharat Petroleum, Petrol Pump -Jai Pratap Filling Station","Madiyahu, Jaunpur","25.6386137","82.6190237","true"
"ChIJ6dhdeBojkDkRsYG_nFPrXck","IndianOil","Ground Floor, Sheetal Ganj - Sikarara Road, Ajoshi","25.6336014","82.61589839999999","true"
"ChIJ1V2SzmQ7kDkRwYWy-HJfY3k","Bharat Petroleum","India","25.702284","82.655554",""
"ChIJEUPxzmQ7kDkRlJWZWaITE7c","Marat Petroleum","PM34+9J4, State Highway 5, Phoolpur","25.7022459","82.6555767",""
"ChIJW6ODjAQ9kDkRmswHLChP51w","IndianOil","Ground Floor, Fatehganj, Dhirajpur","25.73931799999999","82.59748200000001","true"
"ChIJab3WPmwXkDkR5XbeU0fFK3s","Matoshri Filling Station- BPCL","Bathua, Sikarara","25.7087771","82.5377706",""
"ChIJVVSUIoM9kDkRU1KGZphXHYI","Maa Sharda Filling Station Badauna Fatehganj","PJQ9+829, State Highway 36, Sarai Rai Chand","25.7382918","82.61760629999999","true"
"ChIJ5_OcQMw7kDkR9Mvlgfn7phM","Hindustan Petroleum Corporation Limited","Ground Floor, Mirzapur Road, Jahangirabad, Jaunpur","25.708038","82.658866","true"
"ChIJMSrCNXY7kDkRK0i1LT1GpqQ","IndianOil","Ground Floor, Harbaspur","25.71345900000001","82.662183","true"
"ChIJRZrt5a49kDkRp57q9ZeO8rA","IndianOil","83 Sadar, Gujar, Pukhta, Sarai, Bishunpur Pul","25.742346","82.566852","true"
"ChIJcRr96VsikDkRmE5Ks1y6XFA","Hindustan Petroleum Corporation Limited","Ground Floor, Mariahu","25.609982","82.590195","true"
"ChIJFyrpqZ47kDkRfGVAx_dxiOk","Hindustan Petroleum","PMC7+5R5, Jaunpur City Staion Road, Naiganj, Olandganj, Jaunpur","25.7204","82.6646","true"
"ChIJ7_kn8-s6kDkRm5IfUbpyoBY","Hindustan Petroleum Corporation Limited","Ground Floor, Maharoopur, Fareedpur","25.698981","82.709041","true"
"ChIJfwig7fc6kDkR2v49qjCMb1Y","IndianOil","Ground Floor Jagdishpur,Sarai, Jaunpur","25.715649","82.702902","true"
"ChIJmdW5L7c7kDkRG1SbvsvZy_I","Bharat Petroleum, Petrol Pump -Prime Allied Sevice Corp.","WAZIRPUR,JAUNPUR,DST JAUNP, Jaunpur","25.7342256","82.6828961","true"
"ChIJ-8hQ27k7kDkRESg6Dmazazo","IndianOil","Ground Floor, Sunder Nagar, Jaunpur","25.735257","82.680072","true"
"ChIJkXauIsA7kDkRERR6as7YcFo","Bharat Petroleum","NH-231, Badshahpur Jaunpur Road, Mahatma Gandhi Marg, Nayiganj, Jaunpur","25.7400737","82.6706805","true"
"ChIJfUIJuUo6kDkRwEg4T0UvGQU","IndianOil","Ground Floor, Civil Lines Road, Jaunpur","25.73863709999999","82.6926684","true"
"ChIJJaytQtA6kDkRDxHilNF3mhQ","Yadav Service Station","MPH2+X4G, Kajgaon - Jaunpur Road, Gaddipur","25.6799335","82.7003266","true"
"ChIJqREizgM7kDkRP1V4dkriRt0","Bharat petrol pump","PM5P+XM2, Jaunpur","25.7098999","82.68664299999999","true"
"ChIJSfu5nc47kDkRO-1jN4sN9cE","IndianOil","Ground Floor, Harjupur, Jaunpur","25.702693","82.706283","true"
"ChIJVz9gyYU7kDkRa9cVVjPqcn4","Baijnath Petro Mart Bharat Petroleum","Vill- Mustafabad, Van Vihar Road, Jaunpur","25.7233459","82.67887619999999","true"
"ChIJhYwyS3o7kDkRERwqd3qU-8c","IndianOil","Ground Floor, Pukhta Sarai, Sirkoni, Jaunpur","25.692011","82.71477399999999","true"
"ChIJmUPjVgA7kDkReI6OExdj59k","CNG pump","MPR7+XW2, Misirpur","25.6923867","82.7147583",""
"ChIJYS0tH_c6kDkR6fjbSaYchWI","Girija And Son's Bharat Petroleum","Hisampur, NH-56, Varanasi - Lucknow Road, Jaunpur","25.71269999999999","82.7047","true"
"ChIJOx5Sr_c6kDkRlbY3QFg_6BE","Reliance Petroleum","Ground Floor, Jaunpur Nh 56, Jafrabad, Hisampur","25.714577","82.70414009999999","true"
"ChIJb03wwFw7kDkRn-wvNexGmcs","Hindustan Petroleum Corporation Limited","Ground Floor, SH 5, Sadar, Raibhanipur","25.72830099999999","82.670501","true"
"ChIJ8Xxl4qs7kDkRAeaEqBPisPM","IndianOil","Ground Floor, Chandpur","25.730243","82.67191","true"
"ChIJqZkP21Y6kDkRDWxH3vg7Hsc","IndianOil","Ground Floor Jagdishpur, Sarai","25.7214356","82.6988477","true"
"ChIJE0kmFKM7kDkROT-TA8zfFNo","Bhagwan Das. & Sons , Ranjan Enterprises","PMGV+CWM, Vill - Jagadishpatti ,Matapur","25.72609079999999","82.6948063",""
"ChIJbfAaEio7kDkR1CF0Bhbr6iw","KSK Hunsepur Indian Oil","Zafrabad Road, Husepur","25.727916","82.7003142",""
"ChIJvVh20_4kkDkRJp1MBEO6BJI","अनमोल एल्युमिनियम एण्ड ग्लास वर्कशॉप सेन्टर","India","25.62525669999999","82.686303",""
"ChIJvfS5t7g7kDkRMeWrsnt0SLM","IndianOil","Ground Floor, Polytechnic Chauraha, Pukhta, Sarai","25.737409","82.675806","true"
"ChIJJaRpWwAlkDkRTjjFNtiWe28","Kgn car ac repair","MP9J+C6V, Sirkoni","25.6686153","82.7305524","true"
"ChIJSexLTVQlkDkRIDORXh1ebss","Bharat Petroleum","Sirkoni Jaunpur Varanasi road, NH56, Jaunpur","25.66748199999999","82.7322373","true"
"ChIJCy3wErQ7kDkRSjJytWlfxgo","Naiganj kumar petrol pump","PMRC+6F4, Rajgarh Colony, Olandganj, Jaunpur","25.7405125","82.6712031","true"
"ChIJ-cjEkOY9kDkRRSnrs1U5j2k","Bharat Petroleum, Petrol Pump -Kumar Petro","NAIGANJ,JAUNPUR,DST JAUNPU, Jaunpur","25.7399845","82.64784970000001","true"
"ChIJSb_ziB07kDkRALlDCqymb3c","Bharat Petroleum Petrol Pump , GREENLAND FUELS","PMWC+HJ5, Sultanpur Road, Katghara, PARAGANA - HAVETEHSIL, SADAR, Jaunpur","25.7467524","82.6718408","true"
"ChIJsbWxUc87kDkRUKI37zuZPSQ","Hindustan Petroleum Corporation Limited","Ground Floor, Jahangirabad, Jaunpur","25.745731","82.68130099999999","true"
"ChIJK0mouFU7kDkRHiuqUbRZxbM","IndianOil","Ground Floor, Jahangirabad, Pukhta Sarai, Olandganj, Jaunpur","25.746311","82.680911","true"
"ChIJr_-UPag7kDkRpDkOFcP35FI","Bharat Petroleum, Petrol Pump -Girija & Sons (Ms)","SARAIPOKTA,WOLNGANJ,DST JA, Jaunpur","25.74653529999999","82.6843753",""
"ChIJ5-y2OwA7kDkRT2JBZUixSNw","Om Filling Station Indian Oil","to, Bhadohi Rd, Ankara, Jaunpur","25.7479531","82.6837596",""
"ChIJsSkfpjo6kDkRLGnSDzhnsb4","Indian Oil Petrol Pump.","Gata No.23, Baloch Tola, 11/2, Rauja, Chachakpur, Sadar, Jaunpur","25.7466786","82.6965599","true"
"ChIJuYzaJYQxkDkRadVKFYeef8U","Kisan Sewa Kendra Husepur Petrol Pump","Husepur, Kabulpur","25.6737626","82.76774859999999","true"
"ChIJAbyHawAxkDkREYlz1Zo5ByY","INDIAN OIL","PP5W+JX5, Imalo","25.7090317","82.7473662","true"
"ChIJDSqhgXIxkDkR0MWvAdJjFW4","IndianOil","Gata No 399 Amahit, Sadar, Husepur","25.679294","82.77688599999999","true"
"ChIJ_1kZmO8xkDkRM8IzVbo2mgU","Petrol pump","MQHV+63, Kharchalpur","25.6780625","82.7926875","true"
"ChIJ9WHmSwAxkDkR_GLg2NvqxtQ","Balaji filling station","PQFR+CR2, Meerapur","25.7225327","82.7911271",""
"ChIJdWS_GwA7kDkR0BJ6cSVw2IA","Dharmapur gaav","PPXJ+7V, Dharmapur","25.7472996","82.7320618",""
"ChIJ22MRVDAxkDkR4P-hCXq52tI","IndianOil","Ground Floor Kerakat, Mufti Ganj","25.71438999999999","82.80493","true"
"ChIJG8uCbfExkDkRQO8_A09vLOA","Hindustan Petroleum Corporation Limited","Khasra No 631, Jaunpur kerakat Road, State Highway 36, Saremu, Sadar, Kabiruddinpur","25.749901","82.751601","true"
"ChIJgYK2FQAxkDkRlhXmrLXfAOo","Maa Durga filing station","PQX3+Q9J, Saraiya, mod, Dharmapur","25.7498148","82.7531363","true"
"ChIJz_zHAJA_kDkRaA294CWVmKI","IndianOil","Ground Floor NH 56, Baispar, Dhirajpur","25.761723","82.6097688","true"
"ChIJ-261qcM9kDkRpDXXwgYyWKw","Bhartiya petrol pump","Lalabazar, QH3G+HM4, Hasrauli, Shivghulam link road, Jaunpur","25.7536228","82.5758547",""
"ChIJ8awHBAA9kDkRNWiWeNijm6M","कृष्णा पुरम","QH2G+R5X, Hirapur","25.7521125","82.5754844",""
"ChIJU62gjxk9kDkR10r0Bf9etR4","Bharat Petroleum, Petrol Pump -Muradganj Filling Station","MURADGANJ,JAUNPUR,DST JAUN, Jaunpur","25.7550779","82.629364","true"
"ChIJ90YCuGg_kDkRUnurMwQatIU","IndianOil","National Highway 731, SAWANSHA, Baksha","25.7833485","82.57805030000002","true"
"ChIJSSS3n4M_kDkRMI6fqcmo_SU","Vishambhar Oil Services","Chhunchha","25.7917794","82.61322489999999",""
"ChIJ3QAYx9k9kDkR8vdWshIGcCw","IndianOil","No 56, Kulhanamaun","25.750628","82.648243","true"
"ChIJIZekKcE_kDkRhsHUWF1gt78","IndianOil","Karanja Kala, Ground Floor Pukhta Sarai, Harbaspur, Jaunpur","25.8021306","82.6221942","true"
"ChIJaRRmeL47kDkRij_4881Srqw","Reliance Petroleum","CIVIL LINES,OPP.PRAKASH NURSING HOME,KHATA KHATAUNI NO 51 ARAZI KHASRA NO 196 VI","25.7608111","82.66091899999999","true"
"ChIJnRKrY88VkDkRpOw97-_qxwY","IndianOil","Ground Floor, NH 71, Sadar, Baherwa, Lakhmipur","25.7995229","82.5592935","true"
"ChIJo2REZAA5kDkRqdReUIIGA7g","Hindustan Petroleum Corporation Limited","Ground Floor, Palhamau","25.797041","82.655424","true"
"ChIJt8zGmwo5kDkR_sLq7GcTODM","Krishna Service Station Bharat Petroleum","SH - 5, Village - Khanpur Akbar, Post - Sadar, (Jaunpur - Shahganj Road), Jaunpur","25.7888","82.69109999999999","true"
"ChIJt7YHu607kDkRp8XiNOOA1DA","Bharat Petroleum Petrol Pump , AYUSH SERVICE STATION","ARAZI NO. 94/1, MOHALLA GADAN AZINITEHSIL SADAR","25.7605981","82.68099959999999","true"
"ChIJu3O0RJY7kDkRh6c2EkD3NM8","Hindustan Petroleum Corporation Limited","Gata No 94, 96, 121, Sadar, Sukkhipur, Jaunpur","25.762801","82.688501","true"
"ChIJwTxv6-05kDkRRdv76Pasfy0","DHARMA AMAR FILLING STATION","Sakarmandi, Jaunpur","25.76835939999999","82.6881691",""
"ChIJrZ6sdmI5kDkRaVGqDq-zHuY","Tejas Kingdom","Enayatpur Katka Road, Jaunpur","25.7745993","82.6807458",""
"ChIJpe5YdZs7kDkRzV1M4K7JfHM","CNG Bharat Petroleum, Petrol Pump -Maa Sheetla Filling Station","PACHHATIA,MANDAVIVER,DST J, Jaunpur","25.753662","82.70755109999999","true"
"ChIJp0-OECM6kDkR3uJ7lH7p2Qw","IndianOil","Ground Floor Panchhatia, Azamgarh road, Aurahi","25.7546095","82.7097531","true"
"ChIJKyZxbgA7kDkRvj3jYA2YYs0","Ashok Stmabh अशोक स्तंभ","Pathak Petrol Pump, Jaunpur - Azamghar Road, Panchhatiya, Tiraha","25.75488769999999","82.70972239999999",""
"ChIJaYta-xg5kDkRQIrqVqvu_TM","Sonkar filling station (Bharat petroleum station)","QP94+54V, Unnamed Road, Chhabilepur","25.767977","82.705291","true"
"ChIJ-QQDMQA5kDkRjaD0N4t0PHs","Aarya Aarvi Online CNG","Shitala Dham Chaukiya, New Mandi Road, Jaunpur","25.7659271","82.711941",""
"ChIJXWKBm6A5kDkRwaZkg4x-v9A","IndianOil","Shahganj Road, Siddikpur","25.790591","82.69182099999999","true"
"ChIJK7wGCxw6kDkRU_RnrshGYGY","IndianOil","Ground Floor, Mahrupur,Shahganj, Jaunpur","25.759249","82.719673","true"
"ChIJs_NVEK0wkDkRxi1AR8dSt0k","Sainath Filling Station","Premapur","25.7639574","82.7436319","true"
"ChIJxQAlkTI3kDkR7sXVdUCZ8sI","Hindustan Petroleum Corporation Limited","Ground Floor, Vidhar, Gaurabadshahpur, Chorsand","25.768901","82.766201","true"
"ChIJjZ3POgExkDkRL9sKP3GhuFo","IndianOil","Ground Floor, SH 66A, Jaunpur - Azamgarh Road, Mehrupur, Ahmadpur","25.7653551","82.7501869",""
"ChIJIYjkfxs3kDkR6H9H365WmU0","Sharda Shankar Service Station","Jaunpur, Jaunpur Azamgarh","25.7684161","82.7502475","true"
"ChIJHz7srzQ3kDkRaaRvNQLWS0I","IndianOil","Ground Floor Gaura, Badshahpur, Sadar, Saloni Mahimapur","25.7864993","82.7367002","true"
"ChIJhRdkPAA3kDkRuIv3JGjLXNg","Paramshila Devi Yadav","QPQP+J33, Saloni Mahimapur","25.789007","82.73517079999999",""
"ChIJB-187eE5kDkRP9MibeUE7V8","IndianOil","near Mobile Tower, Ground Floor, Patahana Kafarpur Link Rd Patahana, near Mobile Tower, Sadar, Kafarpur","25.8099139","82.7252713","true"
"ChIJ9yIDeAA5kDkRVzz07Pc7uWk","Vijay Filling Station","RP9G+GG, Bhakura","25.8188716","82.7263028","true"
"ChIJCX3QljI3kDkRNidcSrk-odc","HP PETROL PUMP - SUSHIL FILLING STATION","Bithar PO Chorsand, Gaurabadshahpur, DT","25.7765732","82.8088504","true"
"ChIJw8LUs6NqkDkRNHOZoDernoE","IndiaIndian Oil Petrol Pump","Leduka","25.8707579","82.5546014",""
"ChIJf_v4028_kDkRraWit-e64Mw","D S KSK petrol pump","Kolhalganj bazar, Jaunpur","25.824207","82.6182956","true"
"ChIJm4z2MwAVkDkRbpAhVTCRFpI","Bharat petroleum, Sri Hari petroleum naupedwa","RG8W+QQ9, Udpur","25.8169086","82.54699839999999",""
"ChIJ597EeM8_kDkR8fwhrFu25HM","IndianOil","Ground Floor, Malhani Marg, Aurahi","25.849234","82.638289","true"
"ChIJT9oklm0VkDkR48oCjdFuIrU","Petrol Pump","RG8V+CGW, Mahmadpur","25.8161034","82.54381289999999","true"
"ChIJsaz5I-AVkDkRDPi5JookVwA","Bharat Petroleum, Petrol Pump -Mahendra Service Station","NEOPEDWA BAZAR,LKO RD,DST, JAUNPUR","25.8178059","82.54184409999999",""
"ChIJ5XskfgAVkDkRFbW19ZmfyeM","Niraj Filling station(Indian Oil)","RGGJ+R7Q, Kataka Chak English","25.8266003","82.5301746",""
"ChIJdUnldwBrkDkRYpHssy9q5Ak","Brijesh Chauhan","61235 Leduka BajarBelava Mod Gram Belava, Jaunpur","25.8705786","82.5601319",""
"ChIJT7imCzBBkDkRwjuLB98u-ak","IndianOil","Koiridaha Road, Shahganj, Malhani","25.871383","82.646945","true"
"ChIJJVuXIPo4kDkRzVXvxbx8euM","IndianOil","Ground Floor, Karanja Kalan","25.820164","82.686272","true"
"ChIJVUnFdN85kDkRrhgUMjW98eo","Bharat Petroleum, Petrol Pump -S.L. Filling Station","DEOKALI,SADAR,DST JAUNPUR, Jaunpur","25.8422984","82.6789699","true"