place_id,name,address,latitude,longitude,open_now
"ChIJPfKsEhd6dzkRp4znozZi3_4","IndianOil","Jhansi - Lalitpur Road, Bijoli","25.383646","78.553276","true"
"ChIJHaPO-X17dzkR6sndJEMN64Q","Mobile store","442, Bhel Rajagarh Road, Jhansi","25.3767703","78.5311311",""
"ChIJFajKUAt7dzkRNe64u3xFeWs","Bharat Petroleum, Petrol Pump and cng pump - Mahadev Motors","Shivpuri - Lalitpur Bypass Road, Bijauli Industrial Area","25.367299","78.5423984","true"
"ChIJ--l66P1xdzkRUb7LIV8T13Y","IndianOil","476 Mi, Dongri","25.4174759","78.4830018","true"
"ChIJNRj_bzh6dzkR46LasEbxN7c","Reliance Petrol Pump","N South Corridor Road (NH-26), Bijaul Industrial Area, Bijauli, Jhansi","25.369588","78.544403",""
"ChIJZZ9uBbF7dzkReCClENyk2DY","Hindustan Petroleum Corporation Limited","Ground Floor, Jhansi - Lalitpur Road, Khailar","25.3472467","78.5352134","true"
"ChIJmZv2inJ7dzkRaa6MAYzmcuQ","Saurabh Kirana Store","Shastri Nagar, Main Road, Ballampur, Ballampur Road, Jhansi","25.3898547","78.5488135",""
"ChIJnemlegV6dzkRksXR82XQa8o","Bharat Petroleum, Petrol Pump - Prakash Motors","N South Corridor, Road, National Highway 26, Hansari, Jhansi","25.3940667","78.5554198","true"
"ChIJ2QpCeqJ7dzkRPc_jNstSZIg","IndianOil","Ground Floor, Municipal Board, Jhansi - Lalitpur Road, Chauraha, Khailar","25.331619","78.52848399999999","true"
"ChIJqd0NnAN6dzkRk3-RWeNAouY","Tayalco Filling Station (Indian Oil)","9HW6+5HR, near Pac, Jhansi - Lalitpur Road, Bijoli","25.395484","78.561403",""
"ChIJE8SptZx7dzkRxHNDwA-z_xs","BHEL Veerangana Petrol Station","Pankaj Ghavri, Gate No.3, Jayanti Park Road, Township, BHEL Area, BHEL Jhansi Factory","25.3194127","78.5247511","true"
"ChIJCUveWAB7dzkRKjz_VeNQYYQ","BPCL PUMP","Simrawari","25.3095064","78.5121286",""
"ChIJA13Eyip3dzkRANzDlDlJM8Q","IndianOil","No 944, Lock No, 11020, Civil Lines, Jhansi","25.449394","78.566223","true"
"ChIJ_____0t3dzkRFp9Wq3ppnGI","Om Shanti Filling Station (Reliance Petroleum)","Civil Lanes NH 26, Bijoli","25.4222557","78.5717631",""
"ChIJK6Es2C15dzkRcmFO_15oZBw","Hindustan Petroleum Corporation Limited","Kh No 981/3, 982, Gundrai, Orchha","25.346931","78.622917","true"
"ChIJ2Q96yxl3dzkRTzyfxMyOzrE","Hindustan Petroleum Corporation Limited","500, Sadar Bazar, Jhansi","25.43791450000001","78.5820954","true"
"ChIJbRz55zp3dzkRj-0bBKRh384","IndianOil","Ground, Sadar Bazar, Jhansi","25.438828","78.579819","true"
"ChIJgeZpnyx3dzkRm6cg-vxItAY","HiP PETRjuOL PUMP - VENKTESWAR HP CENTRE","Vill Rampura Tehsil Madogarh","25.445018","78.567567","true"
"ChIJL0Y0jRtxdzkRe_656oevL6I","IndianOil","Plot 2359, Isai Tola, Sadar, Khati Baba, Jhansi","25.4413957","78.5412138","true"
"ChIJwWJHUwB3dzkRIGAf0wFBxwc","Shivhare petrol pump jhanshi","Civil Lines, Jhansi Rly. Settl","25.4467449","78.5675047","true"
"ChIJQwBupLN3dzkRUxaZESn_SpQ","Aahil Filing Station","near by Hyundai Showroom, 80, Civil Lines, Jhansi","25.4487804","78.5663062",""
"ChIJb2zygyh3dzkR4wcI-CWl-jw","Bharat Petroleum, Petrol Pump - V R Motors","CHXG+CV2, Jhokhanbagh Road, Jhokan Bagh, Jhansi","25.4485195","78.5771263","true"
"ChIJ37glPtVwdzkRxZ2fiERjDC8","Bharat Petroleum, Petrol Pump - Anil Automobiles","CHX8+R2P, Shivpuri - Jhansi Road, Civil Lines, Cantt, Jhansi","25.4495971","78.5650754",""
"ChIJVcM5LEd3dzkRXyz-F-unGk8","Bharat Petroleum, Petrol Pump - Anand Fuel Station","CIVIL LINES, NATRAJ MOBILE, Jhansi","25.4496285","78.56512320000002","true"
"ChIJcxiCZJd3dzkRgWOQOM8ImiU","IndianOil","Elite Chauraha, Civil Lines, Jhansi","25.450247","78.57017499999999","true"
"ChIJ80-uTlOddzkRqdxhISNE-ck","Bharat Petroleum, Petrol Pump - Kshatriya Filling Station","jhansi , NH-76, Jhansi khjuraho Road, Laxmanpura","25.4123","78.6636","true"
"ChIJ3VlMvpR3dzkRnY44x9Tn1G4","IndianOil","Jhansi - Mauranipur Highway, Bhagwantpura","25.4280174","78.6324623","true"
"ChIJu0QDhb13dzkRi7u_pKrwYRk","Hindustan Petroleum Corporation Limited","Ground Floor, Bhagwantpura","25.4327093","78.6269081","true"
"ChIJ5x9_RtuCdzkRlR-zAjlxAPA","IndianOil","Ground Floor Ghughuwa, Nohat Ksheer, Barua Sagar","25.3978191","78.6919075","true"
"ChIJHbIkhgdxdzkR7ZRHaqwoWA0","IndianOil","Ground Floor, Shivpuri Road, Jhansi","25.4569306","78.5208869","true"
"ChIJDbbbJidxdzkRr1a8BpenADw","Bharat Petroleum, Petrol Pump - Amber Filling Station","Sipri Bazar, Jhansi","25.4524641","78.5501912","true"
"ChIJWWA9K0BxdzkRXuG4Su0Dgwk","Hindustan Petroleum Corporation Limited","Ground Floor, NH 27, Shivpuri - Jhansi Road, Raksa, Jhansi","25.457301","78.499201","true"
"ChIJwfsG7x9xdzkRsyHyf6a3cL0","CUGL Mother Station JHANSI","FG49+7WH, Lahargird","25.4556971","78.51986","true"
"ChIJa71gdwBxdzkRpXufngJ7BqY","Shorvi Fuels petrol pump","FG4C+QMG, Shivpuri Road, ganesh Vihar, Jhansi","25.4569443","78.52169350000001",""
"ChIJCek1cx1xdzkROpYOMxhCvhA","Manish Petrol Pump","126, Bankers' Colony, Jhansi","25.4600154","78.5320108",""
"ChIJL67V1BhxdzkRawahTNEIqzU","IndianOil","Lock No IG3630, Shivpuri - Nagra Road, Nandanpura, Jhansi","25.454689","78.540672","true"
"ChIJAaP9wxJxdzkRgL3bLC-un98","HP PETROL PUMP","Village Sijwaha NH-27, Raksha, Shivpuri -Jhansi Road","25.4707079","78.53379199999999","true"
"ChIJqRusaQdxdzkRtVZ8X9UR01E","Bharat Petroleum, Petrol Pump -Prakash Motors","RAJGARH, LALITPUR ROAD, Jhansi","25.4546054","78.549854",""
"ChIJ2wC_WU9vdzkRSm8pcomSwHI","Bharat Petroleum, Petrol Pump - R.B. Chhajju Singh & Sons","Shivpuri - Gwalior Bypass Road, Raksa, Jhansi","25.4626308","78.4475484","true"
"ChIJl2yIS3RvdzkRaJ5mTHfFoe8","Bharat Petroleum, Petrol Pump -Janki Dhyanchand & Sons","DAGARWAHA, SHIVPURI ROAD, Jhansi","25.46265","78.4467169",""
"ChIJXQddMkBxdzkRfK9ERUQuU3s","IndianOil","Gata No 149, 150 & 151, Nayagaon","25.480103","78.54775099999999","true"
"ChIJTbLom4tudzkRS2PUgJQnlSM","Anand Motors","FC8G+J2, Dhikoli","25.4788741","78.4382469","true"
"ChIJEW8hzfN3dzkREIG9wJbwUx4","Deepraj","1171, Talpura, Jhansi","25.4509235","78.5702862",""
"ChIJb3LRsS1xdzkR_WETidDblQU","IndianOil","Ground Floor, Buddha, Gwalior - Jhansi Road, Abbotganj, Jhansi","25.491787","78.554046","true"
"ChIJy_-ltlFxdzkR4hWGefz0f5M","Bharat Petroleum, Petrol Pump - Vishnu Automobiles","Shankar Road, Ansal Colony, Jhansi","25.4872875","78.5580241","true"
"ChIJqfRgUyBxdzkReLWvWiB4a9Y","CUGL CNG Station, Bhagwati Filling","near sutimeel, Gwalior Road, Jhansi","25.4917975","78.5540944","true"
"ChIJ6T1IHS53dzkR7DW28DkI1hw","Hindustan Petroleum Corporation Limited","Araji No, New No 145, House No 277, near Aantiya, 3009 to 3011, Antiya Talab Road, Jhansi Khas","25.45932089999999","78.5710927","true"
"ChIJgyqsCk5xdzkREOsPO-f0SdI","IndianOil","Gwalior Road, Ansal Colony, Jhansi","25.484186","78.560585","true"
"ChIJNbFofQV3dzkRoNayhoa0XBk","UPC HP","Shop No.102, ASHIK CHAURAHA, Loha Mandi, Jhansi","25.45915939999999","78.57123229999999",""
"ChIJWVm2GTR3dzkRKJ5ms00qbq8","SRI RAM HP petrol pump","ASHIK CHAURAHA, College Road, Sharda Hills Colony, Panchkuiyan, Loha Mandi, Jhansi","25.4590542","78.5712794","true"
"ChIJ_TJLoj5zdzkRMieykgMJ1R8","IndianOil","Gata No 1038, 1039, Rd, Punawalikala, Raksa","25.5143851","78.47673259999999","true"
"ChIJCz0BFoN3dzkRWRWZ_53pF20","Hindustan Petroleum Corporation Limited","Gata No 790, near Bhani Devi Goyal School, 26, Balaji Unnao Road, Nayagaon","25.478783","78.56805899999999","true"
"ChIJVWreOslzdzkRHMImj3fgfVo","IndianOil","Ground Floor, near Grassland Institute, Gwalior - Jhansi Road, karari","25.5131464","78.5282945","true"
"ChIJjdO8FoRvdzkRs590zdEhw0w","Hindustan Petroleum Corporation Limited","Ground Floor, NH 25, Shivpuri - Jhansi Road, Raksa, Dagarwaha","25.4674214","78.4219883","true"
"ChIJ6TBXwzB2dzkRcAy4B77Ut0M","Bharat Petroleum, Petrol Pump - Srikrishna Energies","Shop No.00, NH 25, Jhansi","25.4662803","78.6409323","true"
"ChIJ1a-F1TF2dzkRIgbngQRF5Eo","IndianOil","Ground Floor, Municipal Board, Chauraha, Kanpur - Jhansi Highway, Jhansi","25.4656905","78.6455881","true"
"ChIJj8g09yd3dzkRuApXNGql9ag","H.P. PETROL PUMP - RAJHANS AUTOMOBILES","HP PET Dealers NEW Road Fort Jhansi","25.451606","78.57825199999999","true"
"ChIJo3PWslp3dzkRQFniGoF56LI","Bharat Petroleum, Petrol Pump -V R Motors","JOKHAN BAG, Jhansi","25.4506364","78.588943",""
"ChIJDd3mSrd3dzkRXIGyGbLHBG4","Hindustan Petroleum Corporation Limited","Ground Floor, Shivaji Nagar, Jhansi","25.4525406","78.5886921","true"
"ChIJE2i4daF3dzkRSPsMKvlLcOA","Marutee Petroleum And Highway Service","Marutee Petroleum NH 25 Chirgaon, Jhansi","25.4680807","78.5814698",""
"ChIJU_P6bC13dzkRMhPRYckNRns","Jan Seva Kendra","00, Shivaji Nagar, Jhansi","25.4505956","78.59487010000001",""
"ChIJ-a9htBZ3dzkRmcNMDI2MxRc","Lalit Chaudhary","Shop Number 24, Bada gaon, Jhansi","25.4472476","78.5955044",""
"ChIJOwW1zxx3dzkRGjSZAGdpNrI","Bharat Petroleum, Petrol Pump - United Brothers","National Highway, 39, Kanpur - Jhansi Highway, Shivaji Nagar, Jhansi","25.4500022","78.5993998","true"
"ChIJ7fLe1lJ3dzkRKUPP5EZbGvU","IndianOil","Shivaji Nagar, Jhansi","25.4504664","78.5998883","true"
"ChIJo2IrFDx3dzkR13uNDe9PG6o","IndianOil","Ground Floor, Kanpur Road, Jhansi","25.452381","78.60284399999999","true"
"ChIJTw7dGwJ3dzkR-evs_IMtjb8","Sanchit Petroleum","Beside Bundelkhand University Kanpur, road, Jhansi","25.4531021","78.6052943","true"
"ChIJDaML0rp3dzkRlizk1v0HV8U","IndianOil","Talpura, Risala Chungi, near Bundelkhand University, Jhansi","25.4527437","78.6055019","true"
"ChIJPxqBh7R3dzkR7N2xztT--4w","Bharat Petroleum, Petrol Pump - Aarya Filling Station","Bundelkhand University, Jhansi","25.4552453","78.6110787","true"
"ChIJlcaCEd93dzkRV3pW3Low8uE","Bharat Petroleum, Petrol Pump - Pinaki Fuels","MERI, JHANSI BYPASS, NH 27 OPPOSITE SAROJ HOSPITAL Shivpuri - kanpur Jhansi bypass,Kanpur, bypass, Jhansi","25.4802465","78.5977236","true"
"ChIJQx7Hu1V2dzkRChBwJ8qPzG8","Water Pump","India","25.458654","78.6133909",""
"ChIJe80uRgB1dzkRmTlyUpqAhOM","Indian oil lav kush enery station","GH3G+WVC, Balaji Unnao Road, Jhansi","25.5043728","78.57723469999999",""
"ChIJazXtjBt1dzkRCCCocuEwvTE","HP Petrol Pump","GH4G+MRJ, Balaji Unnao Road, Ansal Colony, Jhansi","25.5067045","78.57701999999999","true"
"ChIJ_dQi5ux1dzkR6n3cidZqB58","Hindustan Petroleum Corporation Limited","Arazi No, 606 & 603, Bhojla","25.5075253","78.5771168","true"
"ChIJbR_Bbfp1dzkRYlG08yyXE-0","Bharat Petroleum, Petrol Pump - Dada Kalicharan Filling Station","GH6G+2XJ, Balaji Unnao Road, Jhansi","25.5102112","78.5778739","true"
"ChIJt1UP53l3dzkRucidcmkrAyo","Bharat Petroleum, Petrol Pump - Shakti Filling Station","Digara-Bhagwantpura, bypass, Jhansi","25.4617571","78.6504528","true"
"ChIJIdrOg0B3dzkRohcWp2CcSto","Hindustan Petroleum Corporation Limited","Ground Floor, NH 25, Kanpur - Jhansi Highway, Digara","25.4644653","78.6489318","true"
"ChIJgaTL9IWddzkRuhApu9mHdBc","Hindustan Petroleum Corporation Limited","Ground Floor, near Goramachia, NH 27, Jhansi - Kanpur Highway, Jhansi","25.4700889","78.663972","true"
"ChIJdQFUSNNwdzkRIsqGscRF9HI","Parecha Automobiles","FM99+XRF, Civil Lines, Goramachhiya","25.4699356","78.6695542","true"
"ChIJqWozn5qddzkRA1afOi-5D3U","Reliance Petroleum","Ground Floor, Goramachiya, near Maida Hill, Jhansi","25.4701175","78.669607","true"
"ChIJZfz0ZYyddzkRQBTthhwxsiA","IndianOil","Ground Floor, Municipal Board Chauraha, Goramachiya, Digara","25.466801","78.677742","true"
"ChIJ8R6olieddzkRXplu_4XH65k","Bharat Petroleum, Petrol Pump - Richhariya Highway Halt","National Highway 27, Digara","25.47105","78.6825709","true"
"ChIJdUILMwCddzkRh7Qc1m99-Ks","Bharat Petroleum, Petrol Pump - Radhey Radhey Filling Station","FMCM+P3, Digara","25.4718304","78.68270509999999",""
"ChIJfQbDw7qddzkR1arDQ2i-1eM","IndianOil","Ground Floor, Suetha Kalan Chauraha, Municipal Board, Goramachhiya","25.473288","78.689041","true"
"ChIJe02dTo9zdzkRnQAmirTiwxY","CNG ADANI STATION SHAHEED SINGHRAN FILL ST","GGP5+JQJ, Gwalior - Jhansi Road, Ambabai","25.5365808","78.5093871","true"
"ChIJ6fz0fVdydzkRXvMkRp5ltE0","IndianOil","Ground Floor, Gwalior - Jhansi Road, Ambabai","25.5366214","78.5093534","true"
"ChIJsyBdH71zdzkRZ-LzdC-La58","Bharat Lodhi","HF3X H9X, Gwalior - Jhansi Road, Ambabai","25.5541374","78.4988379","false"
"ChIJlVeFrLBydzkR0BNtWQExTJ0","Hindustan Petroleum Corporation Limited","Ground Floor, NH 75, Gwalior Road, Ambabai","25.5740391","78.4921079","true"
"ChIJq2Q9cVFzdzkRyq0LM12jPIA","SM Filling Station","Sm Filling Station, near Alpine Public School, Ambabai","25.5743512","78.4931788","true"
"ChIJTZTQEvJ0dzkR17GAX4tMxoc","IndianOil","near Dulhe Raja Mandir, Ground Floor Isagarh, near Dulhe Raja Mandir, Bara Bazar, Kot","25.5574503","78.5931497","true"
"ChIJe6RpyMV0dzkRMoNXSfT4g5w","Hindustan Petroleum Corporation Limited","Ground Floor, Datia Unao Road, Unao","25.5795397","78.5957734","true"
"ChIJHQGmSQB1dzkRN_PD6BSnH34","GS FUEL FILLING BIRGUWAN","GJVR+3R, Birguwa","25.5426466","78.6420531",""
"ChIJ-Y4KKpJ1dzkRbPyRhPCe9p0","Indian Oil Shri Vishnu Purohit Energy Station","Tatya Milk Works, Paramedical Road, Mawaigird","25.5508891","78.64605089999999","true"
"ChIJlxC2I7t1dzkR5xualbbvqKg","Khiriya gas godam","HM44+XF7, Unnamed Road, Mawaigird","25.5574201","78.6561837",""