place_id,name,address,latitude,longitude,open_now
"ChIJ7efIhrh1czkRjRPjTskj3As","IndianOil","Ground Floor, Mundeshi, Bharatpur Road, State Highway 33, Barari","27.4029467","77.6302588","true"
"ChIJY0wolFNxczkRdzH-Jk-jW9U","IndianOil","Ground Floor, Arya Samaj Road, opposite Jai Gurudev, NH 2, Chaudhary Digamber Singh Marg, Ngr, Mathura","27.47075929999999","77.6602863","true"
"ChIJlWDHCIx0czkRRuyYSHrnrf8","IndianOil","Ground Floor, Sonkh Road, Uspar, Mathura","27.443491","77.60153","true"
"ChIJT279Whx1czkRVxoYixoG1lk","Hindustan Petroleum Corporation Limited","Ground Floor, SH 33, Bharatpur - Mathura Road, Sadar, Mathura","27.412709","77.637796","true"
"ChIJyWHzDtR0czkRAtmBQGWVQoA","IndianOil","Ground Floor, Lalpurmathura, Bachgaon - Sonkh Road, Bachgaon","27.417561","77.566638","true"
"ChIJGW3V3sJ1czkRrNeZj_FefSM","Hindustan Petroleum Corporation Limited","Khasra No 390/1, Bharatpur - Mathura Road, Tarsi","27.4268729","77.6433112","true"
"ChIJF_TojyV0czkRhZlkDF6YMQc","IndianOil","Ground Floor, Bharatpur - Mathura Road, Tarsi","27.4315262","77.6460161","true"
"ChIJuUFJvl91czkRZ30J6oEYVtc","Hindustan Petroleum Corporation Limited","Ground Floor, Govardhan, near Bharatpur - Mathura Road, SH 33, Kosi Khurd","27.380695","77.609917","true"
"ChIJvVoOMAB1czkRDhAfKWh3ZTY","BPCL Jaya Filling Station","CMP2+M3Q, Bharatpur - Mathura Road, Bad","27.4364683","77.6497213","true"
"ChIJgQqjzx8LczkRW_e3c9WufL8","Petrol pump","Road, Sonkh","27.4087117","77.54644329999999",""
"ChIJleJ6AABzczkRkGZRl6SXQmY","Sitaram Filling Station","FJCM+F4, Maholi","27.4711514","77.6327604","true"
"ChIJRSGKJ6F3czkRi5pnFW9xniU","petrol pump","Bad","27.4158168","77.6707924",""
"ChIJyTKOH2GfczkRxpBRwTgqNPg","Jio-bp","Khasara No 172, Bharatpur - Mathura Road, Rasulpur","27.362566","77.579788","true"
"ChIJ_wc5QpBtczkRPJPCKqUGHVo","IndianOil","Ground Floor, Arya Samaj Road, Sonkh Road, Pali Khera","27.4786044","77.64128360000001","true"
"ChIJ9WPWAJlxczkRK9bpeQqB820","Bharat Petroleum, Petrol Pump -Chaturvedi Automobiles","JAI GURDEV BYPASS ROAD, MA, Mathura","27.4683519","77.66013679999999","true"
"ChIJUQAOQlNxczkRAU_LG2UNNgs","Chaturvedi Auto Mobiles","Agra Marg Nh2 Near Uma Moters, Delhi","27.4683504","77.66031079999999","true"
"ChIJ0WTHvVdxczkRsFNlb42Tu-U","एस शुभ ऑयल मिल","India","27.4764493","77.65548969999999",""
"ChIJTbVhZABxczkRRi_pBl8cIyQ","Jaigurudev Petrol Pump","23/89, Dampier Nagar 4, Mathura","27.47466039999999","77.6583041","true"
"ChIJ--iYxVZxczkRrcQLQxKq-HQ","Indian Oil","India","27.4746382","77.6583563",""
"ChIJIdV51Px2czkR_dV07Wi2hkM","Hindustan Petroleum Corporation Limited","Ground Floor, near KM Stone 151, NH 2, Mathura Bypass, Aurangabad, Mathura","27.4350667","77.6959536","true"
"ChIJs20qNR13czkR3WJKTqy4ygA","IndianOil","Ground Floor, Adooki,Aurangabad, Near, Gokul Barrage Road, Mathura","27.435902","77.700829","true"
"ChIJFfLxmrZ2czkRWqSLAQd3BNw","Hindustan Petroleum Corporation Limited","Ground Floor, Police Station, opposite Narholi, Dhauli Piyao Road, Mathura","27.4616233","77.67280149999999","true"
"ChIJBSogIil2czkRAt98eBqm5oc","IndianOil","Ground Floor, opposite Mathura, Refinery Gate 1, Barari","27.381374","77.69101599999999","true"
"ChIJKYeIxoGdczkRm9sCb1xY0WA","IndianOil - SWAGAT","Ground Floor, near Mathura, near, Refinery Gate 9, Barari","27.3737556","77.698603","true"
"ChIJRQimqy5xczkR4auOuleVVy4","Petrol Pump vijay filling station","Yodha Circle, NH2, Road, Civil Lines, Mathura Cantonment, Mathura","27.4758454","77.6934929",""
"ChIJDw4WK1R2czkRjQq7ZhVNnOI","Torrent Gas CNG Station","CMCV+9G3, LIG-49A, National Highway 2, Kadamb Vihar, Ronchi Bangar, Bad","27.420928","77.69380679999999","true"
"ChIJrxM90iB3czkR7u08kh_Mo8Y","Hindustan Petroleum Corporation Limited","Ground Floor, NH 2, Azampur, Mathura","27.434786","77.6955167","true"
"ChIJ5Wv6LgB3czkRQTGhzKzdzFs","Hp petrol pump","CMPW+2FG, C146, Indupuram Colony, Ronchi Bangar, Narsipuram Colony, Mathura","27.4352164","77.6962586",""
"ChIJf3vygbF3czkRU6hEBXeohrc","BP Brij Fuels","Bad","27.4028335","77.6943647","true"
"ChIJhShtTgp3czkR-fk7dymi0Vc","Bharat Petrol CNG Pump","CPM2+WXJ, Gokul Barrage Road, Narsipuram Colony, Mahaban Khadar","27.4348263","77.70238309999999","true"
"ChIJwcWmOMx3czkRJ4Lf8sW9twk","CNG pump","FM6F+M37, Thana highway, Mathura","27.461664","77.6726686",""
"ChIJi4npaCt2czkRz5hpaYSRW20","HPCL MATHURA DEPO RKPL","Baburi Sharqi","27.3827003","77.6977272",""
"ChIJoQUIvSl2czkRu3-SPi0moFc","BPCL complex/ Petrol & CNG Pump","NH 2, Baburi Sharqi","27.3790817","77.6921438",""
"ChIJMSuUwq6dczkRW4knq4qlgUY","GAIL Gas CNG Station","9MGW+M69, Baburi Sharqi","27.3766603","77.69562479999999",""
"ChIJ8SWJqxCdczkRdgVHWc_Eeqc","HPCL PETROL PUMP- HP Auto Care Centre Mathura","H-9 SITE, B INDUSTRIAL AREA, Baburi Sharqi","27.3765153","77.69541790000001","true"
"ChIJDSxQ4tGdczkRt-CnnH_GuEA","Hindustan Petroleum Corporation Limited","Ground Floor, Site B, opposite Mathura Refinery, UPSIDC Indl Area, Baburi Sharqi","27.37645","77.6954308","true"
"ChIJ-ST-qi5xczkRWXaF1S0Jzio","Bharat Petroleum","FMGV+8CC, Shankar Road, Civil Lines, Mathura Cantonment, Mathura","27.4758178","77.6935307",""
"ChIJoZFZI2R3czkRDoHp9HopDX4","IndianOil","Ground Floor, Mahaaban, Hayatpur","27.4437418","77.735738","true"
"ChIJkdD_V7d3czkRdjIHPQ4biqk","Kardam house (muskan)","Tiwari petrol pump, University colony, Mahaaban, Mathura","27.4440547","77.73632409999999",""
"ChIJKUCmPXqdczkRx7Y2QtaFJWw","Hindustan Petroleum Corporation Limited","Ground Floor, NH 2, Agra Mathura Road, Barari","27.3686901","77.70621009999999","true"
"ChIJH9Z7rLNxczkRZKnU00LLk1c","BR Light Traders","39a, Transport Nagar, Mathura","27.4811356","77.65376309999999",""
"ChIJq6qdWSlxczkRzQPFjFiNe2k","Vijay Filling Station","10, Mathura Cantonment, Mathura","27.4862156","77.6953161",""
"ChIJT7Be8glxczkRU-FM4GP_Y08","Madhavan","FMRF+XF7, Mathura","27.4924134","77.673673",""
"ChIJYYMSL3J5czkRGsFOyt51ARk","Nayara petrol pump","FR62+J33, Mathura","27.46150489999999","77.80017409999999","true"
"ChIJrz7RtvB4czkRCynuKwLAQGk","Hindustan Petroleum Corporation Limited","Ground Floor, Mathura Sadabad Road, Mahaban, Baldeo","27.419737","77.797409","true"
"ChIJQfUTA8R3czkRYNQQYgtwB4w","IndianOil","Goshala, Ground Floor, Arya Samaj Road, Lohvan Rawal Banger Bet, 7/11, Mode, Mathura","27.473342","77.73360699999999","true"
"ChIJ7y-zmSd5czkRsLxTglADZcg","Krishna Filling Station","Baldev Road, Bandi","27.4641419","77.79999029999999",""
"ChIJoVqd3TadczkRkNKK6RsgZ6w","Satya Laxmi Enterprises","Mathura, Agra Mathura Road, NH-2 Baran","27.3605941","77.7185824","true"
"ChIJX5IwumudczkRizst0ZOFbOE","Swastik Enterprises Reliance Petroleum","Baran, Mathura, NH-2, Delhi Agra Road, Baran, Baran","27.3604","77.7186","true"
"ChIJ93BOY555czkRCge9SjP5__E","Bharat Petroleum, Petrol Pump -Shri Badam Singh Filling Station","BALDEV, Mathura","27.415801","77.81976259999999","true"
"ChIJ4cVXSztzczkROl8rKJgCD7o","Bharat Petroleum","FHWM+377, Mathura - Dinga Marg, Pandupur, Nagla Kasi","27.4951666","77.5831671",""
"ChIJUxepVWlxczkRKKj2MtRq2X8","IndianOil","Ground Floor, Sonkh Road, Krishna Nagar, Bati","27.4967906","77.6614031","true"
"ChIJm9nRPmJxczkR8kAN7-UBSdg","जगदीश सर्विस स्टेशन आई०ओ०सी०एल०पेट्रोल पंप","Goverdhan Chauraha, Rajput Nursery National Highway 2, Krishna Nagar, Mathura","27.4976303","77.6528462","true"
"ChIJIbyCdMMMczkR7A7DU8pNMUg","IndianOil","Ground Floor, Mathura - Govardhan Road, Aring, Mathura","27.4884937","77.5436021","true"
"ChIJH5Kz8m5xczkRjcHgyGrwCeI","Petrol Pump","FMX9+GP4, Azad Nagar, Mathura","27.4987676","77.66933259999999","false"
"ChIJPyjSVYpxczkREQHkHT0-IWg","Hindustan Petroleum Corporation Limited","Ground Floor, NH 2, Bypass, Charora, Mathura","27.5328805","77.6562982","true"
"ChIJQbb644pxczkRK8McSs-yzk8","IndianOil","near Mathura, Ground Floor, NH 2 Arya Samaj Road, near Mathura, Bypass, Garravkendra, Mathura","27.533943","77.656013","true"
"ChIJvUSitHVxczkRvexFaKk-j-E","HP Petrol Pump","Bhuteshwar Road, Ganga Vihar Colony, Chowk Bazar, Mathura","27.510877","77.6723155","true"
"ChIJZaaaM7BzczkRKqacQPxEWR4","T. N. Gautam CNG Filling Station, Goverdhan Road, Satoha, Mathura","T. N. Gautam CNG Filling Station Satoha, Goverdhan Road, Mathura","27.4982261","77.6226769","true"
"ChIJKTSEKu9zczkRpU7JkSQc9Nw","Bharat Petroleum Petrol Pump","FHVH+P62, Govardhan","27.4942602","77.57801979999999",""
"ChIJ46OWOaINczkRme_9sk2gyN8","Bharat Petroleum, Petrol Pump -Maa Kaila Devi Filling Station","Mathura - Deeg Marg, Khamini","27.489923","77.5492411",""
"ChIJ5-kHNrpxczkRWSOBMZVtUAk","IndianOil","Ground Floor, Arya Samaj Road, Kankali Road, Bhuteshwar, Mathura","27.496532","77.670672","true"
"ChIJR9FB_XFxczkRzlwgaXpyJu4","Hindustan Petroleum Corporation Limited","Ground Floor, Deeg Gate Road, Mathura","27.502665","77.670288","true"
"ChIJ0ScsJABxczkRzsXgXC9Zleo","HPCL Highway","GMM4+3G2, Chennai - Delhi Highway, Vrindavan","27.532734","77.656019",""
"ChIJo89EAzBxczkRuGxSCSUTwpI","Bharat Petroleum, Petrol Pump -Auto Aid","CHHATIKARA ,MATHURA, Mathura","27.5316089","77.65754489999999","true"
"ChIJC4BGBotxczkR80nN4q45-m4","Torrent Gas CNG Station","GMM4+7RJ, Mode, National Highway 2, Jaisinghpura Bangar, Chhatikara","27.5332138","77.6570129","true"
"ChIJJxTpnhpyczkRDfkjghw7HRY","Barmasel Petrol Pump","Siva Sakthi Apartment, Daba Gardens, Seethammadara, Visakhapatnam","27.5444772","77.6424103",""
"ChIJ4f-uJH9xczkR_GBr-uS96z8","Cng pump mathura","NH19","27.5331535","77.6569445",""
"ChIJsySl3Q9yczkR_fZcH9Hg1Fc","IndianOil","Ground Floor, NH 2, Arya Samaj Road, Chhatikara","27.5466059","77.6408594","true"
"ChIJVdOO5VtxczkRMwTs6tUm2MM","Narendra","sanatani momos Bale Do Palace, Mathura","27.5300356","77.6613078",""
"ChIJD-6xLxJxczkRqMADPP1wGF0","D D PLAZA MATHURA","DD Plaza, Manoharpura, Mathura","27.4946505","77.6761829",""
"ChIJgxOujtdxczkRtXxBvnoVxg4","Hindustan Petroleum Corporation Limited","Ground Floor, Masani Road, Mathura","27.51204959999999","77.6729649","true"
"ChIJ089_KhVxczkRqPZCsWAziVw","Bharat Petroleum ratan chand and sons","beside DD Plaza, Junction Road, Sonkh, Adda","27.4943491","77.6767003","true"
"ChIJW3CV0x1xczkRGYi-3vJzztA","IndianOil","1123Ab, 1124A & 1125, Plot 162, Hariganj, Arya Samaj Marg, Mathura","27.5014943","77.6784619","true"
"ChIJC304Ih1yczkRdB1oraK8DAY","SANWARUYA GAS LIMITED","GMW2+7F4, Vrindavan","27.5456316","77.65119419999999",""
"ChIJlRXtAW9tczkRTGzfCy6FO3w","Hindustan Petroleum Corporation Limited","Ground Floor, Radha Kund Road, Chhatikara","27.555801","77.568604","true"
"ChIJy3Uvfut6czkReBFlsWXTADk","IndianOil","Ground Floor, Laxmi Nagar, Jamuna Paar, Mathura","27.51012799999999","77.70451899999999","true"
"ChIJPSamUmJwczkROFsSwwkNgpw","Hindustan Petroleum","GPCJ+P35, Raya Road, Shahpur Gausana","27.5217508","77.7302351","true"
"ChIJIQLbU2JwczkRwD0H4IAl4z4","Hindustan Petroleum Corporation Limited","Ground Floor, Mat, Shahpur Gausana","27.5219401","77.7304218","true"
"ChIJf_nrWjFxczkRz-plYv6cEnw","Biotech Fuel","Main Road, Arini, Mathura","27.4977782","77.6903025",""
"ChIJS0lJnvtxczkRimO8y78Zm5k","Kapoor autombiles","Lohban ki bagichi, Sadabad Rd, Mathura","27.5076758","77.7150388","true"
"ChIJHe7eqOJxczkR9WXjiOYRSf4","Dhangar filling station","Dhangar filling station baldeo, road, Sukhdevpur, Mathura","27.50251399999999","77.72219439999999","true"
"ChIJ36Qq0uxwczkRpAMOoRSunRA","कार्ष्णि गुप्ता कम्यूनिकेशन","GP3C+FQ4, Major District Road 102W, Raipur Mai Banger","27.5036329","77.721961",""
"ChIJA3CsnPJxczkR9BPsO6N581k","Hindustan Petroleum Corporation Limited","Ground Floor, Tiraha Barage Road, Laminagar, Raya","27.4968425","77.727161","true"
"ChIJHap2e_VwczkRw7MliazkxAA","JioBP Petrol Pump, Mathura","Mathura - Hathras Road, Amethi, Lohaban","27.51802039999999","77.720012","true"
"ChIJq-ZB5-txczkRSCa6SZfLS8c","IndianOil","Gayatri Tapo Bhoomi, Ground Floor Vrindavan, Rd, Masani, Mathura","27.5426284","77.67204160000001","true"
"ChIJf3JHF4lxczkRwrMo2yrrF_s","Bharat Petroleum Shree Vrindavan Fuels","GMVC+JM3, Bhuteshwar Road, Vatsalya Gram, Vrindavan","27.5440187","77.6716843","true"
"ChIJ80G0MGBwczkRZ1X8Xc_xRCE","IndianOil","Ground Floor, Anand Vihar, Raya Road, Mathura","27.5198147","77.724389","true"
"ChIJDUf7N2BwczkRbb6JgdnrK7U","Torrent Gas CNG Station","GP9F+XRM, Raya Road, Laxmi Nagar, Mathura","27.519963","77.7245453","true"
"ChIJwZ9ESN1xczkRL_EJuTG2UwY","Bharat Petroleum, Petrol Pump -Bhagwati Fuels","LOHAVAN, MATHURA-RAYA ROAD, Mathura","27.5196173","77.7256761","true"
"ChIJH7Qxv916czkRQa8BZkKAVPg","Bharat Petroleum","Shivpuri, SH-80, Hathras Mathura Road, Mathura","27.549","77.7837","true"
"ChIJR1EAawBxczkRIzh0VZrLQ4M","अंबेडकर पार्क दीवाना खुर्द हनुमान बगीची","GPQR+GMX, Diwana","27.5388518","77.74172949999999",""
"ChIJ8Zy7Uup7czkRNM8epXLJ3qQ","PREM SINGH KSK","BAHADURPUR, Karab","27.49653229999999","77.7959122","true"
"ChIJS2sDOap7czkR-YMQTKMyNe8","Mohankumar","Mohankumar Karab, A, Vellalapatti","27.4821764","77.7995572",""
"ChIJPVtoJgh7czkRKyDLC7xZweQ","IndianOil","Mathura - Aligarh Road, village malhe, Raya","27.5402796","77.77078279999999","true"
"ChIJJzsxfgB7czkRhiEWcV2K3j8","Malhe cut","NH 530B, Bhainsara","27.5400314","77.7725682",""
"ChIJr2lfc6t7czkRd31vHSxsqWM","IndianOil - SWAGAT","GQX4+W35, Ground Floor Arya Samaj Road, Manth, Dhaku Near 107 Km LHS Noida To Agra, Suraj","27.549671","77.755293","true"
"ChIJrcPDPgB7czkROhX2pwT8sAY","CNG PUMP within Indian Oil","GQX4+W35, Suraj","27.5497567","77.7552322",""
"ChIJMZHewtJ7czkRngm-T0l2CuA","Vrindavan Cut (Agra Bus)","Cut, Expressway, Vrindavan","27.5510937","77.7538524",""
"ChIJQenCih5wczkRraOirBO6Y_Y","IndianOil","Ground Floor, Mant Road, Airakhera, Panigaon Khader","27.562717","77.726608","true"
"ChIJiTS6CYxtczkRMFz3Qczooz0","IndianOil","Ground Floor, NH 2, Arya Samaj Road, Chhatikara","27.5620914","77.62603849999999","true"
"ChIJtX6bhIRtczkR5y7mn3WPb2U","IndianOil","Ground Floor, Nh 2, Chhatikara","27.5691243","77.6206461","true"
"ChIJH_7WLwBtczkR6Y3jLtbgkDY","Shri Keshavdev Fuel Station (IOCL)","HJ7F+J8, Chhatikara","27.564089","77.6233529","true"
"ChIJqyETu6ZtczkR9Xb0qwwOIX8","Tanvi Motors","HJ6F+VW5, Chhatikara","27.56214749999999","77.624872","true"
"ChIJWapgOaVtczkRzogbUYCFn5k","Hindustan Petroleum Corporation Limited","Khasra No 1217, Sadar, Jait","27.5907901","77.6006101","true"
"ChIJlQgXWwATczkRD46BJdpPlKw","Neeraj malik","HH84+WF4, Ral","27.5672619","77.55621",""
"ChIJa_6Xi4JvczkR404BkOguVMc","GAIL Gas Ltd CNG Station","HM74+XJ3, Opp Omaxe Chhatikara, Road, Vrindavan","27.5648873","77.65655890000001",""
"ChIJr8MTOOZsczkR5DnNzXoDD9U","Shree Om Filling Station","Bharthia","27.609308","77.5886987",""
"ChIJpStfEgBvczkRQ-7uIX3dnJQ","Green Gas Limited","HM85+2P4, Vrindavan","27.5650088","77.6593394",""
"ChIJF33lXpZvczkRE5bCRoDthdw","Hindustan Petroleum Corporation Limited","Ground Floor Jaith, Sunrakh Road, Vrindavan","27.5798236","77.65593969999999","true"
"ChIJ2-ICx5htczkRy3s4YzwBwmI","IndianOil","Ground Floor Ajhai Kurd, Chaumuhan, near KM Stone, 127 To 490, Chhata","27.6119254","77.5863505","true"
"ChIJR4kVCTYNczkRBzj0ivkEzO8","IndianOil","Ground Floor, Chatikara Road Junhaidi, Badhauta","27.54464919999999","77.53857289999999","true"
"ChIJvVFT4v9vczkR1qaaYsCLvls","SHRI SATYAPAL SINGH FILLING STATION (INDIAN OIL PETROL PUMP)","police chowki, near Keshav Dham Road, to, Vrindavan Flyover Road, Rukmini Vihar, Vrindavan","27.564571","77.674111","true"
"ChIJI78MKShvczkR9770hZrFKuE","INDIAN OIL","HMCR+4F6, opposite Jaipur Temple, Tarash Mandir Colony, Vrindavan","27.5704288","77.6911172","true"
"ChIJrfD47iZ7czkRXWNmUGU7w30","IndianOil","Ground Floor Hathras Mathura Road, Airakhera Road, Raya","27.5558042","77.7946592","true"
"ChIJ90scGEl7czkRgYQ-lOxT8KI","IndianOil","State Highway 33, Pirsua","27.5653494","77.81805489999999","true"
"ChIJIc2rKeplczkRooz8p6r4IGg","ESSAR FILLING PETROL PUMP","HQFH+Q5M, Narbehansi","27.5744609","77.77792219999999","true"
"ChIJh_nrBdR6czkRUc_FwybNp5M","IOCL Petrol Pump (KP Filling Station)","HQ8P+573, Raya - Mant Road, Thana Amar Singh","27.5653887","77.7856842",""
"ChIJrclcL_p7czkRWsM642LJqEI","IndianOil","Ground Floor, Raya Maant Rd Airakhera, Raya - Mant Road, Thana Amar Singh","27.56538149999999","77.7857289","true"
"ChIJMRgMxYJ7czkR-_FZVr5xetI","J P Filling station","HQ4Q+GQJ, Rusinga madaim, Raya","27.5563367","77.7893788",""
"ChIJFWSL1YFvczkRIJPKdXecqnU","IndianOil - SWAGAT","Ground Floor Arya Samaj Road, Manth, Bheem Banger Near 100 Km RHS Noida To, Mathura","27.6128555","77.7419449","true"
"ChIJv0hnPABvczkRhPti9rDXp3w","Swagat indian Oli CNG pump","JP7R+6WP, Arruwa Banger","27.6130849","77.7423269",""
"ChIJHzU4gRh7czkRDwF4rtWT_Ws","Sree Balaji Flling Station ESSAR","GQXX+8P7, Raya, Sadabad Road, Mathura","27.5483","77.7993","true"
"ChIJsYWvNQBlczkR825QOtQmsAU","Kavya filling station","HRX3+8M, Gaiyara","27.5982967","77.8044967",""
"ChIJQX2Wem17czkR6LFPhzLnBxg","IndianOil","Arya Samaj, Ground Floor Sadabad Road, Road, Raya","27.53930099999999","77.816001","true"
"ChIJNe_5oqJvczkRLpaZtodXR14","IndianOil","Ground Floor, Math Raja, Mant Road, Raya","27.629751","77.71942299999999","true"