place_id,name,address,latitude,longitude,open_now
"ChIJTes6zV5hDDkRGiu7AecRgaM","Madhu Transport Petro Division","Delhi Road, Partapur, Aminagar Urf Bhurbaral","28.92192279999999","77.64994349999999","true"
"ChIJg-OAs0JhDDkRekZt2XU5PuY","Nayara Petrol Pump - Chandra Prakash & Sons","Khasra No. 700/1 & 711, District & Tehsil Meerut, Baralpartapur","28.9166136","77.6419587",""
"ChIJ4X64UQmyczkRamOdjlqt0Hc","Raj Service Station Bharat Petroleum","Bhoor Baral, NH 58, Meerut","28.9270208","77.6421577","true"
"ChIJ116r8AxhDDkReA_FjijLZqc","Hindustan Petroleum Corporation Limited","Ground Floor, Delhi Road, Bhood Baral","28.899414","77.628387","true"
"ChIJN5KfhONjDDkRUM1If_A5OuQ","Allen Oil","WMG5+4FP, Sector 2, MDA, Meerut","28.92532559999999","77.6587164",""
"ChIJ9w2-4QhhDDkRduWXxgehYe4","Indian Oil Petrol & CNG Pump","Kadrabad, Aminagar Urf Bhurbaral, Meerut NH-58, Delhi - Meerut Expressway, Mohiuddinpur","28.8947785","77.6219665","true"
"ChIJk5yGZPtjDDkRdvMNounCMy4","cng pump meerut","WMJ5+6X6, Block 4A, Sector 2, Partapur, Meerut","28.9305288","77.6598973",""
"ChIJUdQTIvpjDDkR9aU5hL2BBCI","IndianOil","Rithani, Delhi - Meerut Expressway, Meerut","28.93434899999999","77.663528","true"
"ChIJ4bxtDKxhDDkRQVcvLyaMV70","IndianOil","Ground Floor, Anaj Mandi Road, Mohiuddinpur","28.883659","77.61231699999999","true"
"ChIJ10aHfExgDDkRN4YQAFP7KvI","Bharat Petroleum And CNG Station","VJC3+XR6, Govindpuri, Modinagar","28.8724086","77.6045145","true"
"ChIJU7K47G1kDDkRMMPAGfIYE0Q","Hindustan Petroleum Corporation Limited","Ground Floor, Crossing Meerut, near Mevla Phatak, Delhi Road, Meerut","28.9545168","77.68087960000001","true"
"ChIJUyNcEp1jDDkRTTeYARM9c-Q","Nayara Petrol Pump.","Khasra No. 397,Village - Julheda, Tehsil - Sardhana,, Meerut","28.9301246","77.6977845",""
"ChIJKadof7tnDDkRIXCf2V4jP6E","NCR FUEL BPCL Petrol & CNG Pump","XH8R+587, Meerut","28.9651299","77.5909449","true"
"ChIJE2iIUXtkDDkR3OQLW047Dng","Nayara Petrol Pump","Plot No. 2CP, 101, Madhavpuram Road, Madhav Puram, Meerut","28.9560756","77.6940894",""
"ChIJ52S4HGhkDDkRD4Z3MIwZM-Y","IndianOil","Ground Floor, opposite Ramlila Ground, Delhi Road, Meerut","28.965661","77.687103","true"
"ChIJQ6KQ0VxkDDkRsw8K8KZm5kQ","IndianOil","Delhi Road, Shambhu Nagar, Beripura, Meerut","28.968987","77.68856099999999","true"
"ChIJxzeR2VxkDDkR1p7jGHYp8d0","Hindustan Petroleum Corporation Limited","Ground Floor, near Delhi Chungi, Delhi Road, Brahmpuri, Meerut","28.968871","77.6888628","true"
"ChIJh2nbRABhDDkRNEvROARgzxU","Hasil khan auto service","00, Partapur, Meerut","28.9168183","77.64135499999999","true"
"ChIJP5_-cydhDDkR9gcB0GFI4Os","Golu Filling Point","Sector 2, MDA, Aminagar Urf Bhurbaral","28.9140336","77.6430527",""
"ChIJoZjxQENhDDkRjsWQkPs_wFw","IndianOil","Khasra No 683, Modinagar Muzaffarnagar Road, Bhoor Baral, Meerut","28.9188749","77.6413915","true"
"ChIJ-3qS_INhDDkRI92Dmfr8tSU","Baral filling point","WJ9R+X7V, NH58, Partapur, Aminagar Urf Bhurbaral","28.9199759","77.6406622","true"
"ChIJdY8XlY9hDDkRe4CbFEaSej0","Mukul Kumar","Delhi Road, Meerut","28.9228707","77.6410114",""
"ChIJLwreWwBhDDkRWU9HLRnh6Eg","MARWARI CNG STATION","07, Royal Kunj, Partapur, Meerut","28.9236946","77.64098229999999","true"
"ChIJA53592NhDDkR2J2E8T2qhpk","Bharat Petroleum, Petrol Pump -Chaudhary Service Centre","PARTAPUR, MEERUT DELHI RD","28.92067149999999","77.649159","true"
"ChIJr9qsAtRhDDkRVkLjiiOu4Xk","Petrol pump","Partapur, Meerut","28.9268136","77.6483313","true"
"ChIJp3y8IExjDDkRQl9FK6gE-JM","Hindustan Petroleum Corporation Limited","Gat No 341 Acchronda, Gagol Road, Meerut","28.909943","77.656303","true"
"ChIJr3jx4ghhDDkR7lNVxgG1lXY","GAIL Gas CNG Station","VJVC+VRJ, Mohiuddinpur","28.894709","77.6220012",""
"ChIJqasuevNjDDkRbHBoGSp539Q","Hindustan Petroleum Officers Hostel","WMH8+XJ9, Unnamed Road, Shatabdi Nagar, Block 4A, Sector 4, MDA, Meerut","28.9299042","77.66662459999999",""
"ChIJq6qq6vljDDkRYMXqLIJOQPg","Rithani filling point","Rithani, Meerut","28.936174","77.66363439999999","true"
"ChIJM5F-D0ZhDDkRhYDvo4K6nVI","BR FUEL SERVICES","Ikla - Inayatpur Road, Ikla","28.891565","77.6084439",""
"ChIJOxpTNpljDDkRli8wZKSjSU4","Nishant Jha Global Pvt.Ltd.","Pani Ki Tanki, Nishant Jha Global Pvt.Ltd. C 89, Pocket C, near Ghopla Road, Shatabdi Nagar, Sector 1, Rithani, Meerut","28.9340592","77.669162","true"
"ChIJU5ALqGNjDDkRvPEwxErl3KE","Nayara petrol pump","NH34, Rithani West, Phase-II, Industrial Area, Rithani, Meerut","28.9382666","77.66561589999999",""
"ChIJexHVvrpmDDkRXjkdbB8TQ-E","GAIL Gas CNG Station","Sushant City, Sector - 3, Ansal's Sushant City, Meerut","28.9510425","77.6411238","true"
"ChIJa3Mii0FjDDkRQKlEHgN5ocA","Ashoka Mail Ke Pass Nato Wali Gali","362, Ritani Village, Rithani, Gagol","28.9405912","77.66884979999999",""
"ChIJ9Zc2LN93AjoRaZRG3ujZlfk","IndianOil","near Shopprix Mall, Bijli Bamba Bypass Road, Noornagar, Meerut","28.94420679999999","77.6798108","true"
"ChIJO5RStpdmDDkRj1g-WD6ROHI","Bharat Petroleum","XJ7Q+4W4, Ved Vyas Puri, Meerut","28.9627528","77.6398243",""
"ChIJfaPDMGljDDkRBHa8I6ZVx34","Deluxe filling point","WMRP+389, Delhi - Meerut Expressway, Jainpur, Meerut","28.940157","77.685859","true"
"ChIJC3gG0IhjDDkRtldIE8Lv-Vw","Shree Tirupati Filling Point","Supertech Green Village, 27, Jainpur, Meerut","28.9402248","77.6858658",""
"ChIJ-cIkP4RjDDkRT8UXXnacKNE","Hindustan Petroleum Corporation Limited","Ground Floor, Hapur Bypass, Jainpur, Meerut","28.9356999","77.69173529999999","true"
"ChIJ71QbI5FmDDkRyQJ8rzcHTrs","IndianOil","Ground Floor, near Anaj Mandi, Baghpat Road, Rampur Pawti","28.968031","77.63889499999999","true"
"ChIJR59fd79nDDkRynhH0wrw7Cs","IndianOil","Rampur Pawati, Abdullapur, Meerut","28.96826300000001","77.63438099999999","true"
"ChIJs6wo9_1nDDkR9m-Bc5-QvWo","SHIV SHAKTI CNG STATION","near Vishwakarma industrial estate, Panchli Khurd","28.9674997","77.6240201",""
"ChIJP5jLCMRnDDkRrUlbUVpDhGs","Pollution Centre","00, Baghpat Road, Rishi Nagar, Meerut","28.9694741","77.6496526",""
"ChIJ2V36Z7VnDDkRmxTBA5v0vb4","Bharat Petroleum Petrol Pump - Shri Jagdish Filling Station","opposite Shyam Apartments, 94 B, Baghpat Road, Malyana, Meerut","28.9696434","77.6530284","true"
"ChIJQdTXWBRnDDkRwrNS6Vkam8o","HP Petrol Pump - Vishal Baffar Super Filling Station","Ground Floor, NH 334B, Baghpat Road, Meerut","28.967091","77.609993","true"
"ChIJNyRn0HhhDDkR3H7wulbT15c","Bharat Petroleum, Petrol Pump -Raman & Co..","NH-58,KADRABAD, GHAZIABAD","28.86546959999999","77.598614","true"
"ChIJ5Q33gxNnDDkRbFrrAO9_jcE","Baghpat - Meerut RO","XMC5+7GG, Baghpat Road, Ratan Nagar, Rishi Nagar, Meerut","28.9706935","77.65882599999999",""
"ChIJJ6_mcY1lDDkRQ-DV2IKViyA","Bharat Petroleum, Petrol Pump -Raman & Co.","DELHI CHUNGI, MEERUT CITY, Meerut","28.9574862","77.683517","true"
"ChIJ8TUxPCRkDDkR6gYLFGyeceM","IndianOil","Ground Floor, Baghpat Road, Meerut","28.970459","77.660027","true"
"ChIJ8aY0H_5hDDkROO2P-4aw2ww","IndianOil","Ground Floor, Behrampur, Gejha","28.9163619","77.56673219999999",""
"ChIJHfgwHwBjDDkRdHXdT5Td-Ns","SANYAM BANSAL DODO CNG OUTLET","WPF4+2PQ, Meerut","28.92259199999999","77.7068685",""
"ChIJYWhHxzxlDDkRae-06XlPJ9s","Bharat Petroleum, Petrol Pump -Sekhon Filling Centre","B 425, Transport Nagar, Gupta Colony, Meerut","28.963058","77.68277549999999","true"
"ChIJ-5SjOwBlDDkR9BYg3nYoXMo","Meerut filling station","WMWX+JPG, Noornagar, Lisari, Meerut","28.9465543","77.6993435",""
"ChIJKfglJ5ljDDkRspqC1Uvk3n0","ANAYA","Petrol Pump, Meerut","28.9134551","77.710869",""
"ChIJXWqpk8JjDDkRXlh0wU1MFvM","PARVENDRA KUMAR","Petrol Pump, Meerut","28.9104501","77.710869",""
"ChIJO4vkLwFPDDkRrHPi8XSNWMI","RANA TRADERS","Petrol Pump 58, Meerut","28.9104501","77.710869",""
"ChIJ3WL8KfRjDDkRbgTne3CCEgI","ABHISHEK","Petrol Pump, Meerut","28.9088899","77.7107697",""
"ChIJd9tYDrVjDDkR1gg6iPCesPo","AASIF","Petrol Pump 49, Meerut","28.9088899","77.7107697",""
"ChIJ3UBmPeFlDDkRtqnrWdf-fvM","Vivekanand Dubey","Jcic, Gich","28.9759672","77.6628269",""
"ChIJpXwUFABlDDkRcpM-YiYYhHk","Bharat petroleum pump","निकट बि.पी.एस. स्कूल, Bhola Road, Khadoli, Meerut","28.9793771","77.6536407","true"
"ChIJ0UCpVENjDDkRBVUW4QU38Do","GAIL Gas CNG Station","E Block, Lohia Nagar, Meerut","28.9338588","77.7283114","true"
"ChIJg7FCpFxjDDkRNjcF3aq539M","Nayara Petrol Pump","98/1, Hapur Road, B Block, Lohia Nagar, Meerut","28.9359802","77.7275636","true"
"ChIJWcVGtJlkDDkRoQw2q95r9fo","IndianOil","Ground Floor, Hapur Road, Meerut","28.955322","77.719201","true"
"ChIJe06DmqVkDDkRwjuTEfw_lSE","IndianOil","No G3, near PVS Mall, Shastri Nagar, Meerut","28.9547405","77.7329096","true"
"ChIJ81b8flJ7DDkRiKcG5WvaDTc","Hindustan Petroleum Corporation Limited","Ground Floor, State Highway, near Medical College, Garh Road, Meerut","28.9598305","77.74847659999999","true"
"ChIJ____v0VkDDkRyFGxM0sW37g","Petrol Pump,Bharat Petroleum.City Fuels","Jain Nagar, Devpuri, Meerut","28.9730816","77.6890703",""
"ChIJLSIGp1tkDDkRS2X7cnn6GVk","Hindustan Petroleum Corporation Limited","Ground Floor, near Metro Plaza, Baghpat Road, Meerut","28.9734714","77.6907672","true"
"ChIJhx0N5_pkDDkR2naD-pA2q_0","IndianOil","Ground Floor, Eves Chopla, opposite Eves Hospital, Meerut","28.981453","77.709351","true"
"ChIJwc4MJ2ljDDkRGOW1pj1IhdA","Hindustan Petroleum Corporation Limited","Khasra No 391 Bijli Bamba Bypass Road, Hapur Road, Bajaut, Meerut","28.9306752","77.7177621","true"
"ChIJQ4qPEWhjDDkR870VD30hbo8","Bharat Petroleum, Petrol Pump -Christ Filling Station","Hapur Circle, Meerut","28.9335026","77.7212914","true"
"ChIJHfPOYNljDDkRUHAAAC0u4tg","GAIL Gas CNG Station","WPMF+CJR, National Highway 34, Meerut","28.9336068","77.72400750000001","true"
"ChIJyziVaKljDDkRbRJl-EGqZaE","IndianOil","Plot No, BC/03, Pocket B, Ram Manohar, Lohia Nagar, Meerut","28.938726","77.726441","true"
"ChIJH7cMYgBjDDkRfnroxJ2k5HU","HP Petrol Pump Sahara Fuels","Khasra No 93M, Main, Hapur Road, Jamna Nagar, Meerut","28.942654","77.724463","true"
"ChIJU1GoCMFlDDkRWzSdply7brI","Sameer Shop","Shyam Nagar Road, Shyam Nagar, Meerut","28.9498387","77.70386409999999",""
"ChIJGzWjQFNlDDkRq2OfBYWiSgc","Rais Ahmad Shop","01, Hapur Road, Meerut","28.9485018","77.7214218",""
"ChIJB-nbauRjDDkRS9KP3dd9-Zk","Sabbal filling center","Vill. Phaphunda, Hapur Road, Meerut","28.8913798","77.7404418","true"
"ChIJ89D8VmNlDDkRdsVsMzhW0os","Shuaib Malik","853, Prahlad Nagar, Meerut","28.9511516","77.7180285",""
"ChIJQb6POwBlDDkRtJNW4jy1gr8","Aatika filling station","XP59+5F2, Hapur Road, Ansar Block, Karim Nagar, Rambagh Colony, Meerut","28.9578944","77.7186517",""
"ChIJ3zKURQBlDDkRc_yZtE3akKc","Nayara","XP59+5F2, Hapur Road, Ansar Block, Karim Nagar, Rambagh Colony, Meerut","28.95785709999999","77.7188268",""
"ChIJJ685nhNlDDkRZ3L7N47T99I","Bharat Petroleum, Petrol Pump -Bhagwan & Company","HAPUR ROAD , MEERUT, Meerut","28.96022","77.7176193","true"
"ChIJu0GgRqRlDDkREvfuOhfrEug","IndianOil","Ground Floor, Hapur Road, Meerut","28.9620735","77.7164229","true"
"ChIJp2YJLQBlDDkRCqgJMyBEKnc","Namberdaar petrolium","74, Hapur Road, Islamabad, Meerut","28.9646766","77.71565439999999","true"
"ChIJ0fRrHABjDDkR0_PNsqcWSJw","Hindustan Petroleum Corporation Limited","Ground Floor, near Community Health Centre, NH 334, Hapur Road, Bhagwanpur","28.873734","77.741646","true"
"ChIJmwqKIRtlDDkRi89flYkVgPM","Pradoshan Kendra","Medical, Garh Road, Meerut","28.9668705","77.73140769999999",""
"ChIJS-r3_UJkDDkRpRvoeAxIGhg","M/s. Babaji Petroleum","XM9P+866, Beripura Road, New Punjabi Pura, Beripura, Meerut","28.9682761","77.6855145",""
"ChIJSbQtNqN7DDkRBsKQhX53iOk","IndianOil","Ground Floor Bhawanpur, Abdullapur, Rajpura","28.980137","77.799416","true"
"ChIJUXNpyQqIDDkRKPnP7WXH6AA","Hindustan Petroleum Corporation Limited","Ground Floor, near DAV Inter College, SH 18, Hapur Road, Meerut","28.849212","77.74230899999999","true"
"ChIJI-9NtEV8DDkRmcZZ_n9lR74","Hindustan Petroleum Corporation Limited","No 524/1, Garh Road, Sisoli","28.921803","77.80646399999999","true"
"ChIJLS3jLL99DDkRPSPy003QJ94","M Shaan Electric And Gas Service","WQV9+Q75, near Canara Bank, Garh Road, Kamalpur","28.9443835","77.7682334",""
"ChIJZx6c0ad7DDkR75fhpqEN78s","Essar","WQX6+VJJ, Garh Road, Jai Bhim Nagar, Meerut","28.9497182","77.761501","true"
"ChIJKwuFs1l7DDkRo9YpDjciygM","AS AUTO GAS","Ear Baba Dhaba, Garh Road, Meerut","28.952305","77.75847460000001",""
"ChIJR7SSB1l7DDkRUBzpsbo0fKs","Bharat Gas Grahak Seva Kendra","Jay Bheem Nagar Merath, Near Road Ajay Hospital, Xq35+4Rq, Jai Bhim Nagar, Meerut Delhi","28.9529996","77.75984009999999","true"
"ChIJQQt9tlB7DDkRB0c_x-Z6X7w","Indian Oil Petrol Pump - Astha Fuels","116/B, Garh Road, Opposite, Takshila Colony, Meerut","28.955099","77.75537","true"
"ChIJnUP3zlB7DDkRFdFXJlQyPxA","Reliance Petroleum","House No 149 & 150, Khasra No 965 & 969, opposite Medical College, Sh 14, Garth Road, Meerut","28.9551658","77.7547811","true"
"ChIJT81qaAB7DDkRbhCX-oFAYgw","Purvi YBPL","XP5X+CWX, Rohta Road, Nai Basti, Fazalpur, Meerut","28.9586034","77.7498482",""
"ChIJy6W-M959DDkR26F3y8BlWmQ","IndianOil","Ground Floor Rajpura, Near MIET, Nagla Mal","28.888132","77.833733","true"
"ChIJgypizH5-DDkRhI3l7g7hJCw","Nayara Petrol Pump, SHRI RAM FILLING POINT","Patti Kherki","28.9053344","77.840592","true"
"ChIJo7qSzqx_DDkRHU8dWZiPUtM","Shri ram filling point","Garh Road, Patti Kherki","28.9057972","77.8407983","true"
"ChIJA6MPmbNkDDkRkopd-EarHc4","IndianOil","Ground Floor, near Krishna Plaza, Garh Road, Tejgarhi, Meerut","28.9633941","77.74181159999999","true"
"ChIJ3Yx-UAd9DDkR4uOkjKWXpZ0","Pradhan petroleum","VRFG+WPW, Mundali","28.8751877","77.8268058",""
"ChIJpWiQvFBjDDkRg3uEF2zdm-E","BP Petrol Pump","NH334","28.861368","77.74228939999999",""
"ChIJfzyDop9lDDkRC3XqasAeXwM","Petrol pump","XP8P+695, Garh Road, Shastri Nagar, Meerut","28.9655205","77.7359986","true"
"ChIJDR6zS7ZkDDkRhJtZilT21RM","IndianOil","Ground Floor, University Main Road, Meerut","28.968557","77.7368347","true"
"ChIJlYaWSrZkDDkRRS-NtFnnEDs","GAIL Gas CNG Station","XP9P+CM4, CCS University Road, Mangal Pandey Nagar, Ramgarhi, Meerut","28.96852329999999","77.73671639999999","true"
"ChIJvfUEFfB_DDkRzNeICtD5hcA","Jio BP PETROL PUMP","Jio BP Petrol Pump, Garh Road, Meerut","28.90292359999999","77.8486703",""
"ChIJTXVIrGh-DDkR-rpCUY3NXhw","Hindustan Petroleum Corporation Limited","Ground Floor, SH 14, Garh Road, Bhatipura","28.90015249999999","77.8541426","true"
"ChIJVWxMHgB7DDkR8kP-GCZoSbY","Rk.energy station","XQPM+45G, Road, Rali Chauhan","28.9853036","77.78294559999999","true"
"ChIJ-5z6ZIl7DDkRLOGzdOpAAUQ","Hindustan Petroleum Corporation Limited","MDR No 42W, Kila Parikshit Garh Road, Parikshitgarh, Meerut","28.98543699999999","77.783168","true"
"ChIJzyHb73hmDDkR1p_urO6tTTc","Hindustan Petroleum Corporation Limited","Ground Floor, near Rohta Road, Shobhapur, Meerut","28.9984623","77.64658759999999","true"
"ChIJh8Q1l3hmDDkRiJGevPjcDEg","IndianOil","Ground Floor, Rohta Road, Meerut","28.99280199999999","77.652824","true"
"ChIJnwCHXjNkDDkRbvZ1tAgrSzI","Hindustan Petroleum Corporation Limited","Ground Floor, near Railway Crossing, Rohta Road, Aurang Shahpur, Diggi, Meerut","28.9856965","77.6704681","true"
"ChIJvzFu0YplDDkRTCF0iXTJ4uM","IndianOil","Sardhana Road, Kanker Khera, Meerut","29.0311737","77.6772001","true"
"ChIJrX8yLoplDDkREGQ3MHLmFTc","Nayara Filling Station - Kanker khera Filling Station","2MJJ+JF6, 279/1, Shradha Puri Road, Sant Vihar, Sector 4, Shradhapuri Phase 1, 6/209, Sector 6, Shradhapuri Phase 1, Meerut","29.0313839","77.68150709999999","true"
"ChIJHX5C2ghlDDkRjbvlPgJvXts","Federal Auto Stores (Bharat Petroleum)","Roorkee Road, Meerut Cantt, Meerut","29.0039133","77.7043381","true"
"ChIJDwILceFkDDkRYGbiDWr4HME","Club HP","XPQ9+52W, Police Lines, Meerut","28.9879888","77.7175899","true"
"ChIJM_fpGYdmDDkRVPFR_EGu3Ks","जी ऑटो गैस सर्विस","XJJW+XFM, Bhola Road, Khadoli, Meerut","28.9824726","77.6461817",""
"ChIJBSL1h3tmDDkRck4u8hFvreo","Hindustan Petroleum Corporation Limited","Ground Floor, NH58, Khadoli, Meerut","28.99106749999999","77.6454498","true"
"ChIJNUCNIJJnDDkRV3_U7bJkis0","NAYARA PETROL PUMP KHADAULI BHOLA ROAD MEERUT M/S PIHU POLLUTION CHECK CENTER","Nayara Petrol Pump, Bhola Road, Meerut","28.98063770000001","77.6507171",""
"ChIJZY9yZgBnDDkRNPFV8dYeePI","Patrol pump","688, Khadoli Bhola Road, Doral, Meerut","28.98035849999999","77.6506527","true"
"ChIJkWIgx5pnDDkR5P5CHE6NIks","Bharat Petroleum Petrol Pump","XJWR+RGM, Major District Road 34W, Lakhwaya","28.9971521","77.64125589999999",""
"ChIJfS-RC9hnDDkRlGybRLnPRTE","IndianOil","Ground Floor Khadauli, Pepla, Marg, Bhola","28.9886913","77.621625","true"
"ChIJzxSoagBnDDkRThI9UQxM5bw","Yashree Petroleum","Rohta Road, Lakhwaya","28.9993705","77.6345071",""
"ChIJh2tsDQBnDDkRroevv0Fr3YQ","Mittal house","Mell Ford City, Rohta Road, Meerut","28.992855","77.65338299999999",""
"ChIJK8ME8HNmDDkRoZBPVWFBOHI","GAIL Gas CNG Station","2J3W+2W, NH58, Meerut","29.0026663","77.6472417","true"
"ChIJ-_a_bKtnDDkROsAVjZ_Zq7g","Bharat Petroleum Petrol Pump , SHRI KRISHNA FILLING STATION","VILLAGE SHOBHAPUR, NH58, Meerut","29.00924649999999","77.6523737","true"
"ChIJqZn3mAlnDDkRe41YbWqavXc","Ncr Fuel (Bharat Petroleum)","NCR FUEL BPCL PETROL and CNG PUMP, Baghpat Road, Kitholi, Meerut","28.9773","77.5919",""
"ChIJ19-lMQBlDDkRUPVJfAE2ZYM","IGL GAS PUMP","XM9J+PQ8, Transport Nagar, Raghukul Vihar, Gupta Colony, Meerut","28.9692895","77.6819436",""
"ChIJOTZb8f9kDDkRNhlRV19KEoI","IndianOil","Ground Floor, opposite Roadways, Transport Nagar Road, Meerut","28.9681132","77.6828766","true"
"ChIJGYrEVNRlDDkRu0L7z695YeI","GYANDEEP FILLING STATION","40/8,40/9 Baghpat road Raghunathpur ( NH 334B, Baghpat Road, Raghunathpur","28.9734989","77.6879695","true"
"ChIJDeq6kxtnDDkR528t-18uKhg","Bharat Petroleum, Petrol Pump -Popular Petrol Pump","MEERUT BY PASS NEAR SHUBHA, Meerut","29.0238412","77.60653119999999",""
"ChIJLzeKcSpnDDkR3lZ7iL6WldY","IndianOil","Ground Floor Kitholi, Meerut Baghpat, Rd, Jamalpur Majra","28.9651701","77.58663299999999","true"
"ChIJQTq8uUxlDDkRAltxPmdQEpM","IndianOil","Ground Floor, Delhi Road, Meerut","28.97009899999999","77.689099","true"
"ChIJ3TjKn1xkDDkRjuG5-1f2DaI","Agarwal Gases","Bhagirath Palace, 231, Delhi Chungi, Xmcq+Hr5, Delhi Road, Guru Nanak Nagar, Shambhu Nagar, Beripura, Meerut Delhi","28.9714375","77.6895625","true"
"ChIJ82GPmlxkDDkRA1zE--eP05s","Raman & company","Purani Delhi Chungi, Delhi Road, Meerut","28.970886","77.6899669","true"
"ChIJ1_Q_tgFlDDkRXVw1RdLwEvk","B K Lubricant House","opp. KCC Complex, 865, Kaiser Ganj Road, Meerut","28.9808099","77.6957577",""
"ChIJTwLxGCBlDDkRQX7rE2Zj9yU","Hindustan Petroleum Corporation Limited","Ground Floor, Bus Stand, near Mawana, Saket, Meerut","28.992861","77.72297499999999","true"
"ChIJFaVCl31lDDkRS9tUj0w0Qsw","IndianOil","Roorkee Road, Vivek Vihar, Daurli, Meerut","29.035088","77.707191","true"
"ChIJt6h-goZvDDkRXfdGDHKW8VM","IndianOil","Ground Floor, Roorkee Road, Meerut","29.041826","77.707101","true"
"ChIJtccmbdtlDDkRwpANK8qmUq4","Kapil Shop","01, Meerut","28.9844649","77.70641379999999",""
"ChIJ4_ryXgBlDDkRbcevP10Wj2Q","SHAKUNTLA FUEL STATION","RP9X+7GG, Meerut","28.9844618","77.7064137",""
"ChIJVwTaEQJlDDkRqYuLJqpDYtQ","LIBERTY","Shop No. 5, Ganga Plaza, Meerut","28.9909246","77.706172",""
"ChIJR33Sm-NkDDkRdZeP-iGR2ss","IndianOil","No 28, Kuchery Road, Meerut","28.9860388","77.7141802","true"
"ChIJ816_0kNkDDkRvCRaaBrXcmw","IndianOil","No 195, Gupta Colony, opposite Roadways Bus Stand, Meerut","28.9886779","77.7000163","true"
"ChIJ49krV2xlDDkRJYa1E_fRygs","Hindustan Petroleum Corporation Limited","Ground Floor, Eastern Kutchery Road, Meerut","28.9881287","77.7179841","true"
"ChIJs19R-wNlDDkRVxZpP_zYk-s","IndianOil","Begam Bridge, Budhana Road, Meerut","28.9954826","77.70605809999999",""
"ChIJqw4wFgRlDDkRLGmru4l3mqo","Hindustan Petroleum Corporation Limited","Ground Floor, Begum Pul, Old Delhi Dehradun Highway, Meerut","28.997363","77.7059833","true"
"ChIJwyoMtu1kDDkRaioLQvV06S4","Petrol Pump Hapur Road","XPC7+V8W, Islamabad, Meerut","28.97224439999999","77.7133366","true"
"ChIJV90bXVBlDDkRenCFPPWmVbg","Bharat Petroleum, Petrol Pump -Ashok Auto Stores","Roorkee Road, Meerut","28.99915809999999","77.70531729999999","true"
"ChIJn7zFMahlDDkR-oQjWxZlX8g","Hindustan Petroleum Corporation Limited","Ground Floor, near Bombay Bazar, Hanuman Chowk, Cantonment, Meerut","28.99862569999999","77.6986456","true"
"ChIJ3fx0hsJkDDkRc9XdbgM-Fe4","IndianOil","Ground Floor, Buddh Vihar, Suraj Kund Road, Mohanpuri, Meerut","28.9781004","77.723213","true"
"ChIJUZMhPXxlDDkRrsl9bQ4oOqw","NAYARA PETROL PUMP -UNIQUE SERVICE STATION","547, Suraj Kund Road, Phool Bagh Colony, Panchsheel Colony, Meerut","28.9772064","77.7230646","true"
"ChIJ8R8hcIhlDDkRgJLFMnQ8jms","GANPATI NARAYANA ENTERPRISES","Petrol Pump, Meerut Road, Meerut","28.9776726","77.7251816",""
"ChIJodidjZhLDDkRNhCpAgcPCOk","ANAYA","133 Baraut Road, Baoli Road, Meerut","28.9776725","77.7251816",""
"ChIJOWmWLjxLDDkRpcF5lw8HRLA","PARVENDER KUMAR","148 Baraut Tiraha, Bye Pass Road, Meerut","28.9776725","77.7251816",""
"ChIJgyl276hLDDkRoh6VarHRKrY","RANA TRADERS","135, Baraut Rd, Meerut","28.9776725","77.7251816",""
"ChIJ1zwdlqdlDDkRR_wvG2bK8fw","Bharat Petroleum, Petrol Pump -Meerut Automobiles Co.","Cariappa Road, Meerut","29.00308080000001","77.699319","true"
"ChIJ2ed4ctlkDDkRMp6cGthNGlI","IndianOil","44, Prabhat Nagar, Meerut","28.989035","77.728966","true"
"ChIJwSJmZxhlDDkRgwwKjD8ZaqE","Military Petrol Pump","2P2C+892, Lalkurti Bazaar, Meerut Cantt, Meerut","29.00075339999999","77.7209027",""
"ChIJpVmEtyplDDkRqnESGdRcfpU","Maa Sharda filling station","NH-34, Km 2-12, Chhatarpur Road, Mahoba","28.979353","77.73199","true"
"ChIJh_sEuEB7DDkRuAAMLLwhlEE","Nayara Petrol Pump","XQPH+JHQ, Kila Parikshit Garh Road","28.9865977","77.7789833",""
"ChIJtbDEeQB7DDkRXc9zey1HsCg","BNM ENERGY cng station","XQQC+8G6, Kila Parikshit Garh Road, Abdullapur, Meerut","28.9882898","77.7712693",""
"ChIJb44pGRl7DDkR61W2ooztVJo","BANSAL FUELS","XQQF+953, Kila Road, Coral Spring Colony, Abdullapur, Meerut","28.9886682","77.77116269999999","true"
"ChIJR5bkOgB7DDkRNDngno4DlNo","Bharat petroleum","XQQ4+XQ8, Kila Road, Prabhat Nagar, Meerut","28.989916","77.7569527",""
"ChIJJ7FTFDp7DDkRgu-ug99W_w4","GAIL Gas CNG Station","XPXX+Q6X, Krishna Garden, Ganga Nagar, Meerut","28.9994832","77.74811","true"
"ChIJITz5bMd6DDkR5tCkNBjVNkg","Hindustan Petroleum Corporation Limited","Ground Floor, NH 119, Mawana Road, Rajpura, Meerut","29.016892","77.76043419999999","true"
"ChIJ_xBL3c97DDkREG6yoB0A1g8","IndianOil","Mawana Road, Rakshapuram, Meerut","29.0107265","77.7492927","true"
"ChIJAczasABlDDkRKQKMtQNvk24","Abacus Kids Zone (abacus smart classes), Tirupati Garden, Ganga Nagar, Meerut","Mawana Road, Meerut","29.0060527","77.7432168","true"
"ChIJafy_LwB7DDkRYPpvIX9hf-M","Dheer Energies BPCL","2QC9+942, Meerut - Pauri National Highway, Salarpur Jalalpur","29.0208785","77.7677029","true"
"ChIJS3qgbrx7DDkRyZL5QlIqdqE","Hindustan Petroleum Corporation Limited","Khasra No 258, Nan, Pachpeda","28.98093800000001","77.819923","true"
"ChIJ-a04w4Z7DDkRRAJgDfwLvGk","Bharat Petroleum, Petrol Pump -Bhoop Singh Filling Station","VILL. MUSSOORIE, Meerut","29.040844","77.7930095","true"
"ChIJyQefXH96DDkRCY_R3w74_QY","NAYARA ENERGY PETROL PUMP (ROYAL FILLING STATION)","India","29.0433749","77.7955496","true"
"ChIJzx1PGzRpDDkRtFjXYklQohg","IndianOil","Ground Floor, BN Nanu Sarurpur, Sardhana","29.094201","77.648201","true"
"ChIJRZp5UgBpDDkR2h6QhU59E3U","Dabathwa Meerut","3J7P+J2F, Sardhana Bypass Road, कंकर खेरा, कैंट, Meerut","29.0640622","77.635035",""
"ChIJQQe-tOFpDDkRwwOmfToCCAs","Hindustan Petroleum Corporation Limited","Khasra No 650, NH 709A, Batjevra","29.050175","77.651018","true"
"ChIJqZBwqOFoDDkRf2VytCaGfFo","Bharat Petroleum IGL Cng Pump","India","29.0718082","77.62715109999999",""
"ChIJ_fvI5OFoDDkRFFIErSu3rEk","IndianOil","11 & 13, Ground Floor Dabhautha, near KM Stone, Sardhana Road, B N, Nanu","29.0740957","77.6254067","true"
"ChIJhdP_QwBpDDkRH_7wR3roUfQ","Reliance Jio BP Petrol pump-Dabathwa Meerut","3JP8+956, Budhana Road, Dabathwa","29.0847817","77.6149921",""
"ChIJMTXvyF9vDDkRxYONnZeMosw","बालियान स्पेयर पाटस","2MPG+54W, Service Lane, Nangla Tashi, Meerut","29.0354869","77.67533279999999",""
"ChIJ8ycEsGBvDDkRKX35dVe6slE","Bharat Petroleum","2MQG+9R4, Khirwa Road, Nangla Tashi, Meerut","29.0383814","77.6770868",""
"ChIJ45Jth2BvDDkR517AHT6jQgk","Hindustan Petroleum Corporation Limited","Ground Floor, near Kanker Khera, NH 58, Meerut Bypass, Crossing, New Sainik Colony, Meerut","29.0363036","77.6770073","true"
"ChIJdwCvoKJvDDkRvny8N9qt7ZA","R.K. filling station","Khirwa Road, Kanker Khera","29.0370164","77.6779859","true"
"ChIJuZRiJABvDDkR6rtti8UmkK0","Hp petrol pump","2MRP+HJ5, NH58, Dantal, Meerut","29.0413917","77.68653170000002",""
"ChIJa6cID81nDDkRAcbO8L19T_g","IndianOil","Ground Floor Pargana, Amanullapur","29.021874","77.591439","true"
"ChIJ6wypLHhpDDkRt_AhIcTigYg","Naraya Petrol Pump","2HGP+763, Pooth Khas","29.0256272","77.5855368","true"
"ChIJW8xsh6plDDkR-63UtcdXrBY","Amit Kumar Filling Station","2MGQ+JFM, Kanker Khera, Meerut Cantt, Meerut","29.0265782","77.6886854",""
"ChIJB33liUNvDDkRtw0PHysEhVo","GAIL Gas CNG Station","2MVW+VVJ, Queensland Park Colony, Modipuram, Meerut","29.0447222","77.6971514","true"
"ChIJ204rhZtvDDkR4ASxcdpvmeI","Nayara Petrol Pump Shyam Fuels","3P35+R2F, NH58, Pallavpuram, Meerut","29.0545745","77.7075618","true"
"ChIJSVN2GqNvDDkRVRsLLYOTQZw","Bharat Petroleum, Petrol Pump -Anupam Fuels & Services","PALLAVPURAM, PHASE -2, Meerut","29.0629294","77.70897130000002","true"
"ChIJH1kiw95pDDkRAAAA0PrS_A0","Rahul Telecom","3HP8+V6H, Sardhana Road, Bhawa-Nagla","29.0871808","77.5656064",""
"ChIJ3y6vxm9uDDkRhPkG_E9nEUY","Reliance Petroleum","Khasra No 1733K, Khatauni No 303 Muzaffarnagar Meerut Road, Nh 58, Daurala","29.115812","77.7128601","true"
"ChIJ323V8HBuDDkRgL52wWn4n3A","Bharat Petroleum(Ashok auto store)","4PC7+24G, Daurala Rural","29.1200726","77.71284039999999",""
"ChIJG9etfopvDDkRYeGPf9d4w8A","Bharat Petrol","4P25+R6J, Daurala Sugar Mills","29.1020857","77.7080064",""
"ChIJARdTYy1xDDkRXbSlZbzHs3s","Akshay chauhan","AA PETROLEUM, Modipuram, Meerut","29.0601731","77.7615976",""
"ChIJtVlzYDJvDDkRXyhKWpUdxKM","IndianOil","National Highway 334, Daurala Sugar Mills","29.1059336","77.7112011","true"
"ChIJn28Rb-ZvDDkR5UNSoblU3Mo","Hindustan Petroleum Corporation Limited","Khasra No 128, Mohammadpur Hayak","29.118016","77.720627","true"
"ChIJRakfNwBxDDkRaLwoZrozgSk","Ms hsd Panchsheel HP Fuel Station","3QX7+J8H, Mithepur","29.0990746","77.7633729",""
"ChIJtZDpjvxwDDkRw_fNIYtzpJk","Petrol Pump","Mail","29.0857621","77.8000122","true"
"ChIJfYl4ssVxDDkRCaeqnZ0yihM","IndianOil","Ground Floor, Meerut Pauri Highway, NH 119, Abdullapur, Incholi","29.0582046","77.8120826","true"
"ChIJB5x3CsxwDDkRk8BVlsgkV_8","PETROL PUMP, MASOURI","3RGJ+GVG, Meerut - Pauri National Highway","29.0763129","77.8322124",""
"ChIJZ351cZVxDDkRXcmubIWVutI","Hindustan Petroleum Corporation Limited","Ground Floor, Mussoorie Road, Daurala","29.1117078","77.77042039999999","true"
"ChIJu6wLVepxDDkRgrerDgQ3Vn0","IndianOil","Ground Floor, Lawar NP","29.1126757","77.7653863","true"
"ChIJA0SLdrB3DDkRl2faOJhBMAE","Pramila Energies- Bharat Petroleum, Petrol Pump","N.H. 34, Meerut - Pauri National Highway, Nangli isha, Meerut","29.08873099999999","77.8465373","true"