place_id,name,address,latitude,longitude,open_now
"ChIJ5faGGqD9CjkR3VogBf-fOCc","IndianOil","Hashampur Gopal","28.80178249999999","78.68026019999999","true"
"ChIJoYrpCgDjCjkRvhRdOo6dIZk","Hindustan Petroleum Corporation Limited","Ground Floor, Moradabad - Sambhal Road, Bilari, Naseerpur","28.7110324","78.7034331","true"
"ChIJd7k_Km77CjkRi3v1RQqyUxw","Essar Petrol Pump","QQW6+FRG, Sambhal Road, Transport Nagar, Moradabad","28.7961887","78.7620626","true"
"ChIJr8w64wz8CjkRm20cJbAPNhQ","Hindustan Petroleum Corporation Limited","Ground Floor, Delhi Road, Majhola, Moradabad","28.8309507","78.7393483","true"
"ChIJAygEWcLkCjkRratUmEUS1Xg","Petrol Pump","PQRH+RCW, Sikri","28.7421026","78.7785813",""
"ChIJUzsAJw_9CjkRl3r4mKUiPfU","Zaki Malik Gas Service","Gumsani - Ratanpur Road, Bakania","28.79023949999999","78.6927279","true"
"ChIJwbCYL3TjCjkR1PYjrGtOFvM","HABIBI FUELS","GATA NO 247 248 VILLAGE YOUSUFPUR NAGLI, PAKBARA ROAD, Dingarpur","28.7483798","78.6854999","true"
"ChIJFeYvgt_jCjkRoiQ5rdaDR6k","CNG ONLINE PUMP JATPURA","PPXJ+HWH, Jatpura","28.74893979999999","78.73237019999999",""
"ChIJa7lXUXnjCjkRwmIBDUIckKQ","Pushplata Indian Gas Service","Rasoolpur Main Chouraha, Moradabad","28.7380181","78.6911034",""
"ChIJ1YuYVK3jCjkRijry32I1c1g","J.H FILLING STATION","Aarafpur","28.7460579","78.7306244","true"
"ChIJGQSSZgDjCjkRed5pNJcJvZU","Jio bp petrol pump","PPXM+HHC, Moradabad, Sambhal Bahjoi Marg, Jatpura","28.74892599999999","78.73388829999999",""
"ChIJp7ve1kXjCjkRHc2AqbMHghw","IndianOil","Ground Floor Dingarpur, Bilari,Bahadur Nagar, Moradabad","28.745211","78.730991","true"
"ChIJh31-VpTjCjkRXLSyRSp43zg","Hindustan Petroleum Corporation Limited","Khasra No 26, Taharpur Doyam, Moradabad","28.7426867","78.72803429999999","true"
"ChIJg1_zfJXjCjkRWpJLggmhB-Q","Alifbrax","09, Power House, Sambhal Road, Taharpur I","28.7415573","78.7308309",""
"ChIJp7Dp923jCjkRXmjv5yG6F8Y","Hindustan Petroleum Corporation Limited","Ground Floor, Narora Chauraha, Budaun Delhi Rd, Gunnaur","28.732058","78.695192","true"
"ChIJhXfWOgDjCjkREoylU6l0iww","Hindustan Petroleum Corporation Limited","Khata No 607/2, Pakhwara Road, Dingarpur","28.732058","78.695192","true"
"ChIJbct9JKj8CjkRaj5AbvRIR9M","IndianOil","Bastaur, 24, Ground Floor, Sambhal Road, Bn Pac, Mohammadpur","28.770071","78.747091","true"
"ChIJwSFIES_jCjkRNRhZ1ErwqQ4","Essar petrol Pump","PPJ9+9VC, Sambhal Road, Dingarpur","28.73205139999999","78.7204967",""
"ChIJn1cE_B3jCjkRoC0kPqDcDLI","IndianOil","Gata No 175 Allapur Bhikan, Bilari, Azam Nagar Chopra","28.7277211","78.70252719999999","true"
"ChIJAd8yIVn8CjkRXBX376-ESzo","BPCL","Vill. Lakri Fazalpurmbd, Delhi-Lucknow Bypass, Moradabad","28.807506","78.7182953","true"
"ChIJv5KZssD9CjkRXljnrHldf5k","IndianOil","Ground Floor, 24, Moradabad Bypass Road, BN PAC, Gannor Deya Mafi","28.80551149999999","78.7239877","true"
"ChIJvVXpRQADCzkRw7aLPSH0w6k","Ram Ratan Filling station gumsani","QM53+7GR, Gumsani - Ratanpur Road, Gumsani","28.7591146","78.654733",""
"ChIJvU0YaQTjCjkRD4HquEEKpBM","GS Enterprises Fuel Station","Dingarpur, Moradabad, 69W, Moradabad Sambhal Bahjoi Marg, Moradabad, Moradabad","28.719","78.70909999999999","true"
"ChIJ6_JJncP9CjkRiGSlQyhf4kQ","M.S.P Filling Station","near Tractor agency, Village Lalwara, near Tractor agency, Dingarpur Road, Pakwara","28.8141365","78.6735928",""
"ChIJm2g28QbjCjkRtFn7dxAE0jA","Hindustan Petroleum Corporation Limited","Ground Floor, Kundarki - Dingarpur Road, Gurer","28.7169034","78.7231285","true"
"ChIJJzgCLAD7CjkRkgZYsVqCj_M","Indian Oil","RP4X+MWJ, Moradabad","28.8068263","78.7495413","true"
"ChIJf_It97v7CjkROg7AFys9Y1o","SINGH AUTOMOTIVE ENERGY","MAINTHER PULIYA, Muzarrif Road, Moradabad","28.8071568","78.74972679999999",""
"ChIJY2uO-PD7CjkRcD30G7w7JNc","Life CNG station","RP6W+67Q, Near Venus India Factory, Lakri Fazalpur Road, Mini By Pass, Moradabad","28.8105983","78.7457416","true"
"ChIJyTLYJU79CjkRMQlgaKVs6aM","Hindustan Petroleum Corporation Limited","Khasra No, 48, Lakri Fazalpur Road, Chak Fazalpur, Moradabad","28.81276699999999","78.743392","true"
"ChIJCWwq7cr7CjkRLt7TURqBYNY","Sabri Filling Station","Mini Bypass, Near, Lakri Road, Transport Nagar, Moradabad","28.7989988","78.7583913",""
"ChIJn2piYAD9CjkRravXDN6vKIs","Hindustan Petroleum Corporation Limited","Ground Floor, Delhi Road, Moradabad","28.8252599","78.7111678","true"
"ChIJadoEUDLjCjkRs8z-GHu5GTg","BPCL -Janta Filling station (बीपीसीएल-जनता फिलिंग स्टेशन)","Kundarki - Dingarpur Road, Gurer","28.7152017","78.7269072","true"
"ChIJp-zLaL_9CjkRKb2sbutKFE0","IndianOil","Ground Floor Pakbara, Chaudharpur","28.8234753","78.68359319999999","true"
"ChIJB0E4gHr8CjkRi98iQsddNFc","Horizone Petrol Pump ( Indian Oil )","RP8Q+WH5, lAKRI FAJALPUR OLD BYPASS, Lakri Fazalpur Road, Lakadi Fajalpur, Moradabad","28.81726629999999","78.7389922",""
"ChIJvWqriiHjCjkRj91Y1EiNwGo","IndianOil","Ground Floor, Sambhal Road, Bilari Naseerpur, Dingarpur","28.70964699999999","78.70240299999999","true"
"ChIJc7eWukD8CjkRfohAfnTuDP8","Bharat Petroleum, Petrol Pump -Shri Vasu Filling Station","Delhi Road, Lakri Fazalpur, Moradabad","28.8264601","78.7200799","true"
"ChIJK7RWi0sdCzkRKUDynSnMcJI","IndianOil","Ground Floor, Akhtiarpur Thillupura, Gumsani","28.7471997","78.639524","true"
"ChIJaUatEwD7CjkRC8ZdWa8TXps","Nro Nanpur","QQ8C+5PX, Moradabad - Chandausi Road, Nanpur","28.7654913","78.7718697",""
"ChIJF2mAQGr7CjkRHQdq-7_Ubdw","S H FILLING STATION","QQ8C+5PX, Moradabad - Chandausi Road, Nanpur","28.7655077","78.7719778","true"
"ChIJcypBfQD9CjkRMKX5xjQ1B88","Guru Kripa Energy Station","RPGC+RVH, Lakri Fazalpur, Moradabad","28.8270608","78.7222208",""
"ChIJT3kt_MH7CjkRNm_Iu1BmCXA","Hindustan Petroleum Corporation Limited","Ground Floor, NH 509, Hussainpur, Moradabad","28.7649943","78.7725914","true"
"ChIJRUU1eHH7CjkRMf8A0Vcer-k","Makin Shabri Filling Station Bharat Petroleum","State Highway 43, Moradabad - Chandausi Road, Transport Nagar, Moradabad","28.7996165","78.76444579999999","true"
"ChIJ-1hJJ6L7CjkRj_w9KHg8QKE","IndianOil","Ground Floor, Kohinoor Tiraha, Moradabad","28.805057","78.7659343","true"
"ChIJWWRohJ39CjkRwYjfHK1mwPQ","Fuel Station","RMF7+VM4, Guretha","28.825365","78.6644669",""
"ChIJDa_bphL8CjkRBOB2SSzIwjA","Reliance Petroleum","Khasra No 983B To 990B Majola, Delhi Road, Majhola, Moradabad","28.82951219999999","78.73611629999999","true"
"ChIJYUM6wjv7CjkRWYgYPorVd_I","Hindustan Petroleum Corporation Limited","Ground Floor, Kohinoor Tirana, Pandit Nagla, Karula, Moradabad","28.8051332","78.76799419999999","true"
"ChIJFYEcopP9CjkRMc-KEd-8Pzk","Rama Filling Station","near Bharat Petroleum Burawali, Hasanpur Road, Moradabad","28.8305048","78.73935870000001",""
"ChIJf7Z0-sLkCjkRZtVvoLxxTRI","HP PETROL PUMP - M R FILLING STATION","NH-509, Chandausi Road, Village Kanakpur Doyam, Domghar","28.7420997","78.7783717","true"
"ChIJN99F9sLkCjkRBEJK0UszKzU","M R Filling Station hindustan petroleum","Kanakpur Doyam, Moradabad, NH- 509, Moradabad - Chandausi Road, Moradabad","28.7421785","78.77879589999999","true"
"ChIJO5Dpb7jlCjkR1ILuAGzkWxQ","Hindustan Petroleum Corporation Limited","Ground Floor, NH 93, Moradabad - Chandausi Road, Kanakpur, Moradabad","28.7423776","78.7792334","true"
"ChIJUdLaU6L7CjkRRPDuNj2gKeI","Hindustan Petroleum Corporation Limited","Ground Floor, Chandausi Road Rehmat Nagar, Eidgah Road, Galshaheed, Karula, Moradabad","28.8168776","78.7727295","true"
"ChIJKeKKilL6CjkRmLb5k0ljmo0","IndianOil","Ground Floor, Katghar, Moradabad","28.8208955","78.7956914","true"
"ChIJyZ7DMbz7CjkRJyx6BfbMuP4","IndianOil","Ground Floor, opp. Gandhi Nagar, Rampur Road, Gandhi Nagar, Moradabad","28.825335","78.773766","true"
"ChIJ0cevIrz7CjkRopfhTXlG5V4","Bharat Petroleum Petrol Pump","RQGF+5R2, Rampur Road, Gandhi Nagar, Moradabad","28.8253839","78.7745163",""
"ChIJD9NMJBn_CjkRUO04N9s_GPA","Hindustan Petroleum Corporation Limited","Ground Floor, near Agwanpur Railway Crossing, Kanth Road, Mughalpura, Moradabad","28.8313809","78.78950069999999","true"
"ChIJUwaDPOz7CjkRYgjIHuF-_z4","Petrol Pump","NH 24, Budh Bazaar, Moradabad","28.8357542","78.7627461","true"
"ChIJO6WcjAj7CjkRpVu_UP9XnBE","IndianOil","Ground Floor, Pandit Nagla Bypass Road, Moradabad","28.806963","78.781464","true"
"ChIJrzHjksP7CjkRfRpY_l4DpcE","Pavan Singh","Main Bazar, near Petrol Pump, Jaintipur Road, Moradabad","28.8147036","78.7720152",""
"ChIJq6d2CDv7CjkRT27u-_jRNiA","Nijakat Hussain","opposite Public School, Sambhal Road, Karula, Moradabad","28.8148173","78.7717735",""
"ChIJeTz43av7CjkROqa6svHaopQ","Hindustan Petroleum Corporation Limited","Khata No 216, Seohara Govind, Khasra No 153, Moradabad","28.8146783","78.7877983","true"
"ChIJeTQ5D7D7CjkR698UL98clWU","IndianOil","Ground Floor, Station Road, Moradabad","28.821732","78.781944","true"
"ChIJb7hVp7r7CjkRnwt0V1WUjPw","Gopaljee Petroleum","24, Rampur Road, Dalpatpur","28.8219886","78.7816141",""
"ChIJobtobej7CjkRa9LyKTNEp0Q","MD. Bux CNG Filling station","RQFG+5XR, Rampur Road, Shivpuri, Moradabad","28.8231245","78.7773237","true"
"ChIJFfXnB1L6CjkRPElTqXZKCRw","दीप विक्रम ऑटो पार्टस","RQCX+V5P, Rampur Road, Hayat Nagar, Pital Nagri, Moradabad","28.8222049","78.797949",""
"ChIJ284JlMf7CjkRpPkjHeqUiA4","LPG gas refilling","RQGV+M4R, Hayat Nagar, Katghar, Moradabad","28.8267292","78.7927507","true"
"ChIJfxo8tsD7CjkRUmpfaXOCEB8","NIDHI FIRE SERVICE PVT LTD","RQH4+HM3, near Ramlila Ground Road, Shri Ram Nagar Colony, Vikas Nagar, Line Par, Moradabad","28.8288879","78.7566717",""
"ChIJSTPvL5X7CjkRl9tnkbUrSuQ","Hindustan Petroleum Corporation Limited","Ground Floor, near Moradabad Railway Station, Rampur Road, Moradabad","28.8306423","78.7680973","true"
"ChIJTT-x11HkCjkRb-1QZRIO9VE","IndianOil","Ground Floor NH 93, Kulwara, Bilari","28.70646129999999","78.7844805","true"
"ChIJnxRwkAP7CjkRgXYbX4PeqUs","Bharat Petroleum, Petrol Pump -Maqdoom Sabri Filling Station","NH-93, Moradabad","28.8360577","78.7737167","true"
"ChIJ0Zf36FLlCjkRde42AOvehlE","ITM Automobiles fuel station","Moradabad - Chandausi Road, Kulwara","28.701114","78.78525660000001","true"
"ChIJu5m-syDjCjkRg0FWnrn7akY","IndianOil","Dingarpur Rd, Kundarki","28.7028409","78.74096130000001","true"
"ChIJa-laLKjxCjkREJjmndP7g5w","Hindustan Petroleum Corporation Limited","Ground Floor, Bareilly Road NH 9, Mundha Pande, Chamraua","28.817841","78.891826","true"
"ChIJb31yO2v6CjkR_LvniBrSwUA","IndianOil","Mustafabad Ahatmali","28.8346694","78.81925799999999","true"
"ChIJs4ueUADxCjkRu0uPnXQeEIg","Bharat Petroleum, Petrol Pump -Gopaljee Petroleum CNG Pump","MUNDHA PANDEY, Moradabad","28.82758059999999","78.8589495","true"
"ChIJhSeg4ojxCjkRgxwnz6_taqQ","Jio-bp","opp. Chandra Dhaba, Ground Floor Nh 24, Dilari, Dalpatpur, opp. Chandra Dhaba, Moradabad","28.8282101","78.859169","true"
"ChIJ0XM5mZDwCjkRBzKo84-tZJE","IndianOil","Ground Floor, Delhi Moradabad Road NH 24, Laxmipur Kattai, Kankar Khera","28.83072429999999","78.8500105","true"
"ChIJgYH1Kdb7CjkRqC8O46gFkZs","IndianOil","Ground Floor 24, Bn Pac, Dalpatpur","28.8203882","78.883495","true"
"ChIJw7_zd6LlCjkRsFJFrun5F4U","IndianOil","Gata No 419420 Mohanpur, Bilari, Akroli","28.705706","78.82294499999999","true"
"ChIJ-f7cXmr6CjkRJ1Bgfm59OA4","Bharat Petroleum","RRM9+65M, Rampur Road, Mustafabad Ahatmali","28.8330909","78.81792260000002",""
"ChIJrTi1ZLDvCjkRrN0cdlOUpmQ","Dev Shankar Kisan Sewa Kendra","PV8V+8QQ, Unnamed Road, Lal Tikar Mahesh Nagli Mustahk","28.7158347","78.8944892",""
"ChIJD8aAPq3vCjkRDUUU6dJJF4c","IndianOil","Ground Floor, Lala Tikar Mu,24 Bn Pac, Moradabad Raunda, Chauraha, Road, Moradabad","28.7151975","78.8946959","true"
"ChIJVYfafUXxCjkRPTq6fVecNwU","IndianOil","near Toll Tax, Ground Floor, NH 9 Rampur Road, Niyamatpur Ekrotia, near Toll Tax, Plaza, Moradabad","28.8139552","78.9050298","true"
"ChIJBaVrMrP-CjkREWMCmJ-RSl0","IndianOil","Ground Floor, Kanth Road, Moradabad","28.867596","78.747597","true"
"ChIJq6ray9r-CjkRFbC3AFUuUVQ","Bharat Petroleum, Petrol Pump -Laxmi Automobiles","NEAR S.S. CHILDREN ACAD,KA, Moradabad","28.8861768","78.7348753","true"
"ChIJNSjEqDgCCzkRu59-Jzt1B-4","CNG Siti Moradabad","National Highway 9, Dhanupura","28.8198619","78.6280178","true"
"ChIJl7hZ2dX9CjkRiwZdPKX09EQ","Rajan Petrol Job","15 Gautam Bhidh Park, Road, Moradabad","28.84982819999999","78.73868709999999",""
"ChIJj3JSuuD9CjkRCzgzXAwAf_s","Aman P.V.C Panel","Indra awas colony, Kashiram Nagar, Moradabad","28.8454775","78.7470774",""
"ChIJYyyLjrH7CjkRCMIIx5TaaUs","Shiv Beauty Corner And Gift Shop","Kashiram Nagar, Moradabad","28.84340319999999","78.7513652",""
"ChIJRZF4MnD_CjkR1cdJt7LRn-I","Jagdish Saini","Moda Tahiya, By Pass, Moradabad","28.8626781","78.6573471",""
"ChIJAeUOqHP_CjkR64hf103JMZU","HP PETROL PUMP","Harthala, Moradabad","28.8739911","78.7387785",""
"ChIJ4VG-jBYBCzkRjE9UWxp8FbA","IndianOil","Kanth 24, Bn Pac, Maudha, Moradabad","28.8596699","78.65480339999999","true"
"ChIJl6jbVlL5CjkRp4FWUmmea0A","IndianOil","Ground Floor, Kanth Road, Moradabad","28.86197099999999","78.75067899999999","true"
"ChIJ52bUcwD_CjkRt-sgCmj33BQ","Shree Mukut Automobiles","VP9W+3X3, Himgiri Colony Road, Harthala, Moradabad","28.8676356","78.7474304","true"
"ChIJu-PGhbT-CjkR_vXr0T9uM4Q","Hindustan Petroleum Corporation Limited","Ground Floor, Kanth Road, Moradabad","28.87019530000001","78.74516510000001","true"
"ChIJu9vTtVf5CjkRTV5lA24R5AI","IndianOil","Ground Floor, Kanth Road, Moradabad","28.854828","78.756493","true"
"ChIJJTpMGDj_CjkRysXlKUSVa4Y","Hindustan Petroleum Corporation Limited","Ground Floor, Harthala, Moradabad","28.88340759999999","78.7328055","true"
"ChIJYw0ZQRoCCzkRSxJdgUMWtHk","IndianOil","Gata No 10 Chak Gindora, Chaudharpur","28.833834","78.641762","true"
"ChIJZcZ53vP_CjkRQqx70STerow","IndianOil","Ground Floor, Mahlakpur Nizam,Aghwanpur So, Mahlakpur Nizampur","28.8929864","78.70284439999999","true"
"ChIJL5cpASb-CjkRxO491N2pSPA","Hindustan Petroleum Corporation Limited","Ground Floor, Hakimpur Rd, Pakwada, Marg, Mugalpur Urf Aghwanpur Mustahk","28.87965549999999","78.662519","true"
"ChIJ3aN9Anz_CjkRmn26ISOVa6A","IndianOil","Ground Floor, Kanth Road, Moradabad","28.886767","78.734411","true"
"ChIJT3WhVGsCCzkRpc07yuKlpP0","IndianOil","Ground Floor Chaudharpur, Lodhipur Rajput","28.820447","78.6397643","true"
"ChIJv02uS6X_CjkRwPvq30x9rHQ","Hindustan Petroleum Corporation Limited","Gata No 149, Hakimpur-Agwanpur Road, Fatehpur Bisnoi","28.8955756","78.6677077","true"
"ChIJlwM5ucUDCzkRaOrL248xGp0","Torrent CNG pump","RJ9G+QWX, National Highway 9, Dhanupura","28.8194942","78.6273552","true"
"ChIJ1QIgXwH7CjkR95WB3WmkOaw","Balamview Fuel Station","Real Complex, 14, Jamia Naimia Road, Moradabad","28.8419985","78.7831942",""
"ChIJzdgga6X7CjkRS1TOgkopy9w","IndianOil","171, Jama Masjid Rd 24 Bn Pac, Rasulpur Nagla Khem, Moradabad","28.8398522","78.8068457","true"
"ChIJ5VeRtj36CjkRwSwtyqBYE3Y","Nayara Petrol Pump","Rasulpur Nagla Kham","28.8424268","78.8131737","true"
"ChIJ_7quqrj7CjkRY26u_Vc-S-w","Cng pump","Rampur Road, Tajpur Mafi","28.8395545","78.8266312","true"
"ChIJP4mCCkOpDjkRUiaqpNw8C1Q","IndianOil","Ground Floor, Kashipur Tiraha, Rampur Road, Ekta Vihar South, Moradabad","28.8395649","78.82663769999999","true"
"ChIJ57WGRBv6CjkRdbkxfg98Yws","IndianOil","Ground Floor, SH 41, 24, Bn Pac, Chak, Begampur","28.8523549","78.82580740000002","true"
"ChIJmctsTQD5CjkR5p7x6uJvwtY","हटहट चौराहा","VRFM+GQF, Hathat","28.8738014","78.8344068",""
"ChIJh5C6x-P5CjkRr3NUBWOx8M8","IndianOil","Ground Floor SH 41, 24, Bn Pac, Thakurdwara, Hathat","28.875866","78.834671","true"
"ChIJPdzKYgD5CjkRM70cv95tAxI","Shobhit saxena","WQ2V+W5W","28.9023635","78.792953",""
"ChIJMV3_s7nxCjkRlzoqA1ltoaQ","NATIONAL FILLING STATION (Bharat Petroleum)","Kashipur Road, Veerpur","28.8428167","78.8859877","true"
"ChIJ20IwL6HxCjkROXmdai9wyGU","Nasir filling station","RWX3+68V, Bujhpur Asha","28.8493739","78.9016202",""
"ChIJh92vauLxCjkROIcUzysC0dQ","IndianOil","Ground Floor, 24 BN, Pac Khushalpur Road, Bujhpur Asha","28.849834","78.901611","true"
"ChIJPXbirn33CjkRv7zhDNeXi-Y","Hindustan Petroleum Corporation Limited","Ground Floor, Moradabad - Kashipur Road, Sirswan Gaur","28.8982033","78.8405651","true"
"ChIJRxEtqRTxCjkRcsvv5k7mbog","Jai Durga Filling Station [ Nayara Energy Petrol Pump ]","Moradabad, 202/2 Boojpur Asha Near karanpur chowki","28.8547168","78.9111034","true"
"ChIJfXsySELxCjkRdOHGqlBpPio","IndianOil - SWAGAT","Plot No 437, Niyamatpur Ekrotia Akhtiarpur, Thillupura, Moradabad","28.810427","78.9134296","true"
"ChIJfTbh1IH3CjkR30BLoBFwtvU","IndianOil","Ground Floor, Sirswa Gaur, NH 734, Moradabad","28.9067578","78.8412249","true"
"ChIJF5Sr1YT_CjkRBsx-N5owWSo","Royal filling station","Serua Dharampur","28.9176504","78.6985629",""
"ChIJP7S43tf_CjkRToFgDXz8up4","IndianOil","Ground Floor, Kanth Road, Aghwanpur, Akbarpur Sihali","28.914154","78.712971","true"
"ChIJ34Ub8w3_CjkRV5c2LcHOV5g","JAIN FILLING STATION","JAIN FILLING STATION, Agwanpur","28.9110542","78.7156849","true"
"ChIJsSekSm__CjkR7iqg6BQKtR4","Hindustan Petroleum Corporation Limited","Khasra No, 1039M, Kanwar Path, Mugalpur Urf Aghwanpur Mustahk","28.9291671","78.7194102","true"
"ChIJNTpzSI9VCjkREkI3-eqUX_Q","IndianOil","Ground Floor Ladawali, Kanth Road, Kanth, Aghwanpur, Moradabad","28.942586","78.68277599999999","true"
"ChIJMbKXDlJVCjkRO6x7EuShGaA","HMS Petrol Pump","XM2X+MV8, Sarai Khajru","28.950609","78.700007","true"
"ChIJH4wAK8n5CjkRynyxeMJCcYQ","IndianOil","Khasra No 369, 24, Dilari - Moradabad Road, Bn Pac, Saidpur Khaddar","28.9175847","78.75515759999999","true"
"ChIJX4RlBcn4CjkRxDBXX7T7kSo","Bharat Petroleum Corporation Limited Satpal","WQ94+F4V, Islampur Rampura","28.9187376","78.7552958","true"
"ChIJSUPeAgABCzkRNqy_bQDpDTs","Ganga Automobile","VJXP+WMF, Nazrana","28.8998125","78.6366719","true"
"ChIJOSwZT_VVCjkRNE2ngrDSzN8","Hindustan Petroleum Corporation Limited","Khasra No 270, Dilari - Moradabad Road, Badera","28.971499","78.7415274","true"
"ChIJTySA3g_4CjkRxpOmjgSdHoE","IndianOil","Ground Floor, Baheri Brahmnan, Bhojpur","28.940027","78.825475","true"
"ChIJrQh5XrNXCjkRxgBS26EbSoY","IndianOil","Ground Floor, Mansoorpur,Baheri Brahmnan, Mansoorpur","28.972056","78.792581","true"
"ChIJm1ysuTdXCjkRkHrMaaM7T5Q","IndianOil","Ground Floor, Baheri Brahmnan, Bhojpur","28.956867","78.82513399999999","true"
"ChIJP3kLYuVXCjkRvThEmQ34PgY","IndianOil","Moradabad, Ground Floor, Mooradabad Bypass Road Thakurdwara, Baheri Brahmnan","28.9736893","78.80198229999999","true"
"ChIJ4QdJbgD3CjkR5vOVk5jj-TA","RKS AUTOMOBILE","WVC9+G3, Sardar Nagar","28.9213448","78.86769869999999","true"
"ChIJUzEfPAD3CjkR1IKitwqwOuA","Bhagwati Filling Station CNG","Rana, Sugal Mill, opp. Torrent Gas Pump, Moradabad","28.9243176","78.8715782","true"
"ChIJY-LgiLf3CjkRl55jjgflMWs","IndianOil","Ground Floor, Tanda Bajpur Road Dungarpur, Daryal","28.927953","78.875587","true"
"ChIJA09ZyIf3CjkRe8gFxHkH5o8","Bharat Petroleum","WVPQ+VWJ, Bhojpur - Kashipur Road, Malwara Urf Manpur","28.9372063","78.8897782","true"
"ChIJlW70Ed9ZCjkRPPnTjasRy-M","IndianOil","near Shahi Garden Marriage Hall, Khasra No 121 Devipur Mustahkam, near Shahi Garden Marriage Hall, Jalpur","28.9785595","78.84585539999999","true"