place_id,name,address,latitude,longitude,open_now
"ChIJYc2hKIkzhTkR4I9ASbaX7bI","IndianOil","Ground Floor Karehada Uparhar, Sadar, Asrawe Kalan","25.3702672","81.77384909999999","true"
"ChIJsQbeEvYzhTkRKsSshsUnf3M","Hindustan Petroleum Corporation Limited","Gata No 1106, 1107 1109 & 1110, Sadar, Asrawe Kalan","25.391288","81.74264099999999","true"
"ChIJ0x3_dQAzhTkRr2BijzhlX4M","BALAJI FILLING STATION","8PQV+R66, Birwal","25.3401972","81.7420819","true"
"ChIJo-zpblwzhTkReMlRxMaocdc","IndianOil","Ground Floor, Asrawe Kalan","25.3820871","81.72962419999999","true"
"ChIJl4JsXuE1hTkRsahOj59lBHw","Bharat Petroleum","SARANAPUR,KARCHANA,DST ALL, Prayagraj","25.351467","81.83234879999999","true"
"ChIJqWjKJNU1hTkRoTFymPe9fzY","IndianOil","Ground Floor Dandupur, NH 30, &, Rewa Road, Arail, Prayagraj","25.3559182","81.8339855","true"
"ChIJTWDP_B03hTkR5I_NuIJhTJ8","Bharat Petroleum","BADALGANJ,REVA RD(NH) DST, Prayagraj","25.3369685","81.8281102",""
"ChIJW5_rD401hTkR2YLr_sz8uhM","BABA FUEL CENTER","9R7P+GX4, Naini, Mohiuddinpur","25.3637637","81.8374638","true"
"ChIJXwhSGS43hTkRszxhuO-1LGc","Jio-bp","Ground Floor Nh 27, Ghoorpur, Prayagraj","25.33786109999999","81.8293056","true"
"ChIJc7iXFAYxhTkR5iohxHL1Ps0","IndianOil","Ground Floor Leudi, Bagbana, Bara, Sendhuwar","25.3121491","81.7571006","true"
"ChIJwSYJJV41hTkRB85QNqa43-c","Bharat Petroleum","DHANUA,ALBD-REWA RD,DST AL, Prayagraj","25.3767923","81.8398407","true"
"ChIJ_8Cov7w1hTkRVVCRkdrVEIg","Seth Automobile Diesel","Dandi, Dadari Ta. Naugawan","25.3758125","81.8400625",""
"ChIJl9_Dspc1hTkRrJktGs8RSUg","Hindustan Petroleum Corporation Limited","Ground Floor, NH 27, Rewa Road, Prayagraj","25.3756798","81.84050359999999","true"
"ChIJx65tl4I1hTkR5x9Wb9nYV3s","IndianOil","Ground Floor, Mama Bhanja Talab, NH 30, Rewa Road, Arail, Prayagraj","25.373906","81.841051","true"
"ChIJ_z58qBw1hTkRVvuYzrbMqYc","IndianOil","Ground Floor NH 30, Rewa Road, Dhanua Road, Arail, Prayagraj","25.3819448","81.84020319999999","true"
"ChIJM9ATHmI2hTkRLxtnEC_C2yc","Star","India","25.3233499","81.8235163",""
"ChIJHzn9wWE2hTkRGT7iryLzHIM","IndianOil","Ground Floor, NH 27 Iradatganj, Bongi, Bara, Bagbana","25.3216958","81.82349529999999","true"
"ChIJrbwZngc1hTkRvIJEJP2c_qQ","Bharat Petroleum","RK-36A, Radha Kunj, Kalindipuram, Prayagraj","25.429059","81.78796679999999","true"
"ChIJCWzWLxs1hTkR_JQ0XXc7B_c","Bharat Petroleum","DANDI,ALLBD-REWA RD,DST AL, Prayagraj","25.3977248","81.84072119999999","true"
"ChIJ504_fhE1hTkRdaLZLJI-8Jo","Hindustan Petroleum Corporation Limited","Ground Floor, Tignauta","25.403901","81.83880099999999","true"
"ChIJMQgu3Nw1hTkRkciRvazgTSo","Janta Petrol Pump","National Highway 30, Gangotri Nagar, Prayagraj","25.4041557","81.8388262","true"
"ChIJUQvCEZI1hTkR0mfOLp9ecGk","Bharat Petroleum, Petrol Pump","CRJ2+MF4, 60 Feet Road, Kasari Masari, Prayagraj","25.4316336","81.8011983","true"
"ChIJD3iH3M00hTkRfnZhsnHrb78","Hindustan Petroleum Corporation Limited","Gata No 178, 60 Feet Road, Sadar, Kareli, Bajupur","25.4296333","81.8077828","true"
"ChIJ9fypyrQ0hTkRXzZk1Q_DNiI","Square Service Station","India","25.4335078","81.7964732",""
"ChIJNUTTrFXLmjkRaIm6NAzYhWQ","IndianOil","Near Sankatmochan Shri Hanuman Temple, Dussa Road, Dussa, Jhalwa, Prayagraj","25.4361582","81.781454","true"
"ChIJS1SGJMnLmjkRoJKmKbBBLvw","Hamara Pump Bhikpur Medwara - Best Petrol Pump in Allahabad/ Petrol Pump in Allahabad","Bhikpur Medwara, Kaushambi Road, Prayagraj","25.4363574","81.78109289999999",""
"ChIJK9RMxvszhTkRp8jkxp5Ii6M","IndianOil","Ground Floor, Katahula Gauspur, Sadar, Bamrauli, Asrawe Kalan","25.4282508","81.73919819999999","true"
"ChIJP9v6DqzMmjkRBxDS9OJU5zk","Indian Oil","CQPF+PCR, Near Jhalwa Chauraha, Jhalwa Road, Prayagraj","25.4368724","81.77351829999999","true"
"ChIJ_____29KhTkR1XFQLwzFzuE","BHARAT GAS PLANT","211009, Naini, Prayagraj","25.3791939","81.87706709999999",""
"ChIJSSIC7So1hTkRRD1U0UPwJJA","Bharat Petroleum","10, Mahewa Patti Purab Uparhar","25.41246989999999","81.8438939","true"
"ChIJM_fL_zA1hTkRwu7xzzTku9Y","Hindustan Petroleum Corporation Limited","Ground Floor, Shaukat Ali Road, Meerapur, Katehra Dariyabad, Prayagraj","25.4267564","81.8366944","true"
"ChIJGx9iL0o1hTkRVs2QEfMIFXU","Bharat Petroleum","Jalkal Vibhag, near by karyalaya Adhi Kashi Abhiyawa, Lowther Road, Jone, Mutthi Ganj, Prayagraj","25.430915","81.846347","true"
"ChIJOySE3C01hTkR2Hbs31btOLM","Bharat Petroleum P. C. & Co. Attarsuiya Petrol Pump","CRJJ+2J9, near Sankat Mochan Mandir, 118/119, Attarsuiya, Kalyani Devi, Prayagraj","25.4302122","81.8317371","true"
"ChIJaf9uCHlKhTkRJk37MenrGU8","IndianOil","Mirzapur Road, Nai Bazar, Naini, Prayagraj","25.381621","81.869675","true"
"ChIJy_5lPIA1hTkRsdCTUhyCDPo","Hindustan Petroleum Corporation Limited","Plot No 23 & 25, Daud Nagar, Naini, Prayagraj","25.389301","81.86450099999999","true"
"ChIJ6yyOYe01hTkRANnUGyIfqmM","IndianOil","Mewa lal ki Bagiya, Mirzapur Road, Naini, Prayagraj","25.3926225","81.86395879999999","true"
"ChIJAamuPBxLhTkRc17N3CtGBlw","Hindustan Petroleum Corporation Limited","Ground Floor, Pura Fateh Mohammad, Karchhana, Prayagraj","25.4040751","81.8730037","true"
"ChIJg8FxMKA3hTkRcsrGSOzyZZg","Sainik Fuel Station","Muradpur, To, Bhandara Road, Choraha, Karma","25.3198506","81.8492902",""
"ChIJLUWDBbI1hTkRrcRQ6Ho-HgY","IndianOil","LN Ig 3636, Yamuna Bank Road, Prayagraj","25.414821","81.856461","true"
"ChIJkepSM1ZLhTkRsxpL3Om-HUI","Oxygen gas","8WW3+C25, Unnamed Road, Prayagraj","25.3460103","81.90262059999999",""
"ChIJ98IPmQtLhTkRqO324Vgv6xo","Bharat Petroleum","9W55+GR5, Prayagraj","25.3587583","81.9096248",""
"ChIJ9xH4EABJhTkR-mzOluVfd6s","Petrol pump","8WP2+VQ2, Rehi Taluka Panwar Kalan","25.3371511","81.9019149",""
"ChIJw2ItRSBJhTkRh398ZLL-yQc","Bharat Petroleum, Petrol Pump - Jamunapar Automobiles","NAINI,VISHAWEMBERPUR,DST A, Prayagraj","25.3349838","81.9042777","true"
"ChIJK_hJPHw3hTkRI0rRX6doKrQ","Bharat Petroleum, Petrol Pump - Nand Service Station","8V47+PX9, Chheoki - Karma Road, Balapur","25.3067852","81.8649869","true"
"ChIJmfUvp-JJhTkRGy3J_nrB_bE","IndianOil","Ground Floor, karchhana, Balapur","25.3045628","81.8634062","true"
"ChIJxwy1B8pJhTkR-YvOtF-ZWUE","IndianOil","Ground Floor Samogar, NH 76E, Naini, Industrial Area, Prayagraj","25.3315986","81.906089","true"
"ChIJzelZNAA1hTkRvvgVSXOZWq4","shahpur","25/16B, Mutthi Ganj, Prayagraj","25.4298056","81.8391944",""
"ChIJH5-m3dFJhTkRZWpNYw9xAVQ","HP petrol pump","8WH5+Q9G, Jaiswal Nagar","25.3294436","81.9084613",""
"ChIJHVXckys1hTkRcy5Qyog5lJY","Hindustan Petroleum Corporation Limited","Ground Floor, Shaukat Ali Road, Meerapur, Atala, Prayagraj","25.431131","81.8264542","true"
"ChIJV09s-HVJhTkRkVt8zIsOscQ","Hindustan Petroleum Corporation Limited","near Allahabad, Plot No S1 NH 35, Mirzapur Road, Industrial Area, Naini, Prayagraj","25.3286808","81.9090521","true"
"ChIJieG5MGQ3hTkRNgHfrdmkrKQ","Hindustan Petroleum Corporation Limited","Gata No 245 Chhittupur, Gauhania, Karma Road, Karma","25.29948499999999","81.862796","true"
"ChIJK6TtYjU1hTkR_o8sbUrdAuo","Meteor Power","CRMV+RG9, Kala Danda, Prayagraj","25.4345427","81.8438524",""
"ChIJb6XDJoJJhTkR7mv7dhZZIC4","HP Petrol Station","8WG5+WR2, Bajha","25.32725679999999","81.9095081","true"
"ChIJ-wdYk0w1hTkRltZhmfLKLoQ","AHIL","India","25.4347378","81.8510773",""
"ChIJvQY9-XlJhTkRWFc5LdMMJ9w","BPCL, LPG Bottling Plant, Naini Allahabad","Newada Samogar","25.3347373","81.915071","true"
"ChIJU_2pMLPKmjkRYwrYm3ukoUg","Bai Ka Bagh Petrol Pump","330/69 B, Bai Ka Bagh, Prayagraj","25.437102","81.850324",""
"ChIJ7ZXiosrKmjkR5DXxATiYovQ","IndianOil","13, KP Kakkar Road, South Malaka, Prayagraj","25.437521","81.843811","true"
"ChIJRU34DVPLmjkRg2I2b-Y-V-g","IndianOil","Bai Ka Bagh, Old GT Road, Prayagraj","25.43741799999999","81.851441","true"
"ChIJVyp8WFg1hTkRGAYvvfZ-k00","Hans Travel Pickup Point","335, Krishna Nagar, Kydganj, Bai Ka Bagh, Kydganj Road, Krishna Nagar, Kydganj, Prayagraj","25.4363786","81.8608232",""
"ChIJ9y55ZkZLhTkRKTp4lyAG4Ag","IndianOil","Varanasi - Allahabad Road, Jhusi","25.425957","81.93940099999999","true"
"ChIJ31ybNl9LhTkRyH8hxCSQAWY","Hindustan Petroleum","Khanupur, Allahabad, NH-2, Allahabad Varanasi Road, Jhunsi, Jhusi","25.4241","81.9519","true"
"ChIJUcbqy1hLhTkRFGiBw2i5p1U","Hindustan Petroleum Corporation Limited","opposite Jain Mandir, Ground Floor Allahabad Varanasi Road, Jhunsi, opposite Jain Mandir, Andawa","25.4250858","81.95195369999999","true"
"ChIJbZOqzmpLhTkRtazqKtJHWeo","IndianOil","Ground Floor, Phulpur, Chak Churawan,Chhatnag, Khanpur Mkt Rd, Hanuman Ganj","25.403239","81.939876","true"
"ChIJG05sewBJhTkRp1lyKYhodgo","Kailash Mobility Services Indian Oil","8WC7+MXV, Rampur Karkhana","25.32174","81.91491500000001","true"
"ChIJhbdymn5JhTkRG4D7AOivGZM","वेदांश(DEF) यूरिया पंप","Mirzapur Road, karchhana, Shri Rampur","25.321463","81.9152628",""
"ChIJ5Tcur1hNhTkRcuzzll9wiGk","IndianOil","Ground Floor, Sarai Inayat Kakra, Uparhar, Phulpur, Prayagraj","25.3786949","81.979813","true"
"ChIJO6C934FJhTkRL_ppJx8777M","Hindustan Petroleum Corporation Limited","Ground Floor, Tamkuhi Raj, Latwa Muralidhar, Prayagraj","25.3038091","81.9255745","true"
"ChIJ2aTIZEZLhTkRTJmZvVvSI_0","IndianOil","Andanva, Chak Hariharban","25.4270206","81.9360525","true"
"ChIJF0oP8QdLhTkRVQ_2GPHiygA","Bharat Petroleum, Petrol Pump - Maa Bhagwati Petroleum","CWFV+PR5, Varanasi - Allahabad Road, Khanupur","25.4242612","81.9445963",""
"ChIJjYelaQBLhTkRM7gZEjUsZqI","Dariyabad tahsil Sadar meerapur Shaukat Ali road Allahabad","CWGP+JRP, Jhusi Kohna","25.42703","81.9367833",""
"ChIJyU7MPhNLhTkRl75WgCDyE4I","Hindustan Petroleum Corporation Limited","Gata No 656, Old GT Road, Handia Marg, Phoolpur, Prayagraj","25.4271166","81.93689719999999","true"
"ChIJM39Pf7FLhTkRK-E4l5dHlX4","Bharat Petroleum","JHUNSI,ALLAHABAD,DST ALLAH, Prayagraj","25.4301504","81.906584","true"
"ChIJt-5H_dZKhTkR51nNuf2CCk4","Rahul Treders","India","25.43090600000001","81.9064607",""
"ChIJ-de5AABNhTkRU7wa6Sp53Sc","Hindustan Petroleum Corporation Limited","Ground Floor, Jhunsi Hanumanganj Road, Dubawal Uperhar","25.375589","81.989553","true"
"ChIJ4VbHq8ZLhTkR6EhCryONYW0","Hindustan Petroleum Corporation Limited","opposite Jain Mandir, Ground Floor Allahabad Varanasi Road, Jhunsi, opposite Jain Mandir, Andawa","25.4250858","81.95195369999999","true"
"ChIJfdgWdU9LhTkR16MS5wEC0Oo","BHOLA HP petrolpump","Jhunsi Road, Andanva, Jhusi Kohna","25.4320144","81.9397662",""
"ChIJxZcboX5LhTkROd49TdXSNU0","Hindustan Petroleum Corporation Limited","Khasara No 41MI & 42 SH 7, Phoolpur, Jaunpur Rd, Jhunsi Road, Prayagraj","25.43203","81.9398135","true"
"ChIJG0cXmaNNhTkR9-ddpHRhyKo","IndianOil","Sarai Inayat Road Nasirapur, Chauraha, Phulpur, Andawa","25.42496469999999","81.9580586","true"
"ChIJW85XVSfLmjkRBkZPdVr-3nw","Hindustan Petroleum Corporation Limited","8, Hastings Road, Prayagraj","25.452501","81.822501","true"
"ChIJ00xkJtHKmjkRzt-MlkDcOmI","Bharat Petroleum, Petrol Pump - Moolnarain & Sons","CRVH+GG4, Leader Road, Miurabad, Prayagraj","25.4437539","81.8288165",""
"ChIJX9AbFj3NmjkR7VxbcgSRqBo","Hindustan Petroleum Corporation Limited","Ground Floor, NH 2, Bamrauli, Prayagraj","25.45110039999999","81.72265449999999","true"
"ChIJ0YHnJsXKmjkRNtcb4oQI6wE","IndianOil","Ground Floor, Civil Lines, Prayagraj","25.45011899999999","81.834321","true"
"ChIJA3WwB-jKmjkR6NJX99wFeDY","IndianOil","Civil Lines, Prayagraj","25.4597263","81.8334943","true"
"ChIJU5eRGMHKmjkRob8BZGFVntM","Hindustan Petroleum Corporation Limited","No 8, Edmonston Road, Civil Lines, Prayagraj","25.455201","81.841101","true"
"ChIJj-2au-SaDRQR9K5WV8fsgiM","Bharat Petroleum","near Navgraha Mandir, Lowther Road, Rambagh, Prayagraj","25.43888219999999","81.8467587",""
"ChIJWRrs3KjLmjkRZvvjRtbWZ8E","Bharat Petroleum, Petrol Pump - India Auto Service","NH-2, Jayantipur, PO, Dhoomanganj, sulemsarai","25.448586","81.78245390000001","true"
"ChIJMZpDUwTLmjkRt6WSu8noHms","Bharat Petroleum, Petrol Pump -Moolnarain &Sons","SULAMSARAI,ALLAHABAD,DST A, Prayagraj","25.4469061","81.7891844",""
"ChIJebW1aqzNmjkRziWDwr7QbuY","Preeti Automobiles","Sarai Khande rai, Plot No. 1470, Katra Road, Pratapgarh","25.4527578","81.7689607",""
"ChIJd6uVawDLmjkR975CUTver30","Type 3 45 Phase 1 KENDRANCHAL COLONY","FQ4H+8J6, MIG Preetam Nagar Colony, Dhoomanganj, Prayagraj","25.4557764","81.7790248",""
"ChIJZaB6zLXLmjkREKf_rzrikHE","Raj automobile Bharat Petroleum","SULEMSARAI,CHAUFATKA,DST A, Prayagraj","25.4433975","81.7993772","true"
"ChIJravGNMfMmjkRudrjlV9XTXU","Hindustan Petroleum Corporation Limited","Ground Floor, Bamrauli Road, Chak Mundera, Prayagraj","25.4488162","81.7552328","true"
"ChIJVxK2C6fLmjkR45ApLUjVpmg","Hindustan Petroleum Corporation Limited","Ground Floor, Road, Karbala Road, Rajrooppur, Prayagraj","25.4397864","81.80760719999999","true"
"ChIJrxoi3zPLmjkRP9e8oVxMpog","Benigunj Petrol Pump","Major District Road 138E, Rajrooppur, Prayagraj","25.439899","81.8076191","true"
"ChIJl7nkd9XKmjkRFnSnk4Grynk","HAIDERI OIL","CRQF+57F, Noorullah Road, Khuldabad, Kala Danda, Prayagraj","25.437936","81.8231651",""
"ChIJHZnhttDLmjkReoS0gtT65f0","Bharat Petroleum, Petrol Pump -Janta & Co.","NURULLAH RD,MINHAJPUR,DST, Prayagraj","25.443068","81.8247195","true"
"ChIJbaQTxyPNmjkROaEb8MYVN-k","HP PETROL PUMP - SHAHID LALMANI FILLING STATION","Naini Industrial Area, Naini, Allahabad-mirzapur Road, NH-35, Kanpur","25.4493732","81.72832819999999","true"
"ChIJ6VDgM97NmjkR9LNvURL0p_U","Hindustan Petroleum Corporation Limited","Ground Floor, Bamrauli Uparhar","25.44930099999999","81.728201","true"
"ChIJLWAvyt3NmjkRyaFkxodgdFU","Yadav","CPXH+M7C, Grand Trunk Road, Bamrauli Airport Area, Bamrauli, Prayagraj","25.449191","81.7281512",""
"ChIJtT2ATDrLmjkRbt7acvK9n54","DIWAKAR SHUKLA","Prayagraj","25.4640823","81.8169709",""
"ChIJ00irHCPNmjkR_e3RsIDJflA","IndianOil","Grand Trunk Road, Bamrauli, Prayagraj","25.4497032","81.7271476","true"
"ChIJhU7-RQPNmjkRWWEH3HrmUk4","Hindustan Petroleum Corporation Limited","Ground Floor, Bamrauli Uparhar","25.4497613","81.72713139999999","true"
"ChIJpWonOT3NmjkRB4Jf3nmzRrE","Jio BP","Grand Trunk Road, Begum Bazaar, Bamrauli, Prayagraj","25.4497438","81.7260589","true"
"ChIJ-1Xu-yLNmjkRQIACAQSDbSc","IndianOil","Kanpur - Allahabad Highway, Bamrauli, Prayagraj","25.450434","81.726181","true"
"ChIJG0xlK5jLmjkRChpmu7izfkM","Meera CNG Filling Station","Civil Lines, Prayagraj","25.4538552","81.8285047","true"
"ChIJu2WDy6HNmjkRjXMV2QL0Nqk","IndianOil","Grand Trunk Road, Begum Bazaar, Bamrauli, Prayagraj","25.451578","81.722565","true"
"ChIJv4DvM9zKmjkRzexOJHZr1m0","Bharat Petroleum Speed Motors","Purshottamdas Tandon Marg, Civil Lines, Prayagraj","25.4555644","81.8289466","true"
"ChIJK46rvcTKmjkRg6UjHxxOw9o","Hindustan Petroleum Corporation Limited","8C, S, Sardar Patel Marg, Prayagraj","25.4523375","81.8346504","true"
"ChIJ6Xi_EcPKmjkRVFwtcQfUGCw","Bharat Petroleum","CIVILLINES,ALLAHABAD,DST A, Sardar Patel Marg, Civil Lines, Prayagraj","25.4552148","81.8354605","true"
"ChIJFSl5buTLmjkRuOjqHhi4ZI4","BABU SAHAB PETROLEUM","15, 40, Mahatma Gandhi Marg, Civil Lines, Prayagraj","25.44956119999999","81.8375485","true"
"ChIJqQ7oCQDLmjkRe-dUyvnyzX0","Hewett road","43-55, Swami Vivekanand Marg, Mohatsim Ganj, Prayagraj","25.4411438","81.83938239999999","true"
"ChIJQ-yWM8_KmjkR5qeYoopviAs","Hindustan Petroleum Corporation Limited","1A, Kamla Nehru Road, Prayagraj","25.445801","81.838701","true"
"ChIJJa23weTKmjkR3ojNUQUPcOA","JEET GAS FILINGS AND SERVICE CENTRE","near Yadav Sweet House, 12A, Newada Road, Ashok Nagar, Prayagraj","25.4692909","81.8294703",""
"ChIJa8o8wEPLmjkRPhPtzEyixnw","Bharat Petroleum","40, Zero Road, Prayagraj","25.4385871","81.84145470000001",""
"ChIJF4N7x2DLmjkRkfK9-YnC86Y","Arya Group","60/80 D, Sardar Patel Marg, Prayagraj","25.4622248","81.83599219999999","false"
"ChIJGSSa_OnKmjkRdZhV4UOO8S4","IndianOil","Ground Floor, 45thornhill Road, Civil Lines, Prayagraj","25.4594641","81.837856","true"
"ChIJSUpEGtzKmjkRE34J6KXf5ss","IndianOil","Elgin Road, l, Civil Lines, Prayagraj","25.452487","81.8409229","true"
"ChIJ7e6Dv-rKmjkROw8GNmhW3Ro","Hindustan Petroleum Corporation Limited","Ground Floor Stanley, near Mayo Hall Chauraha, Kutchery Road, Prayagraj","25.46094399999999","81.842333","true"
"ChIJL0iLu8PLmjkRZAw7MVsHzUs","Rohit Gas Station","FRCQ+54H, Maulvi Ganj, Prayagraj","25.47043439999999","81.8378626","true"
"ChIJm5lM5FW1mjkRfaN5BmYmBGE","NRL Petrol Pump","""86/43"", NH 96, Madhwapur, Prayagraj","25.44279989999999","81.8670595","true"
"ChIJSZy1i67KmjkRThVYlwMIz2Q","Indianoil-Adani Gas Pvt Ltd CNG Station","Mahatma Gandhi Marg, George Town, Prayagraj","25.444249","81.85819819999999",""
"ChIJV8I75KzKmjkRLbilUn8oIM4","IndianOil","Ground Floor, Bairahana Street, Prayagraj","25.438866","81.858292","true"
"ChIJxVT42k3LmjkR3HWjw22zXaM","Indian Oil","CVX4+W2X, Lowther Road, George Town, Prayagraj","25.4498724","81.8551129","true"
"ChIJl9q51qvKmjkRU9ECRLzI_w4","Hindustan Petroleum Corporation Limited","Plot No 87/B, Tula Ram Bagh, Prayagraj","25.442801","81.863001","true"
"ChIJtz4pK6XKmjkRFi0nyBEN1Ms","Bharat Petroleum","Lowther Road, Darbhanga Colony, Prayagraj","25.4512492","81.8552266","true"
"ChIJJ_b_g6jKmjkRzmDfpw5SQfU","IndianOil","CVX7+F7H, Bharadwaj Ashram Road, Darbhanga Colony, George Town, Prayagraj","25.448624","81.863396","true"
"ChIJTWlgBVa1mjkRGgJNpBuTONs","Hindustan Petroleum Corporation Limited","Ground Floor, Alopibagh, Prayagraj","25.44397099999999","81.86682100000002","true"
"ChIJJQb5QQDLmjkRr7CnCP5av_w","Prayag PUC","103, Tagore Town, Prayagraj","25.4565256","81.85991539999999",""
"ChIJye63xKPKmjkRdsonlwBk4KQ","IndianOil","1B/8, Jawahar Lal Nehru Marg, Fatehpur, Sadar, Bichhua, Prayagraj","25.4565946","81.8599017","true"
"ChIJByL95uG1mjkRW3Rdsz0GdKE","Viranj Kirana Store","56, Sanjeet House, Allahpur, Prayagraj","25.4493096","81.8690168",""
"ChIJg215_JPKmjkRMDbazbwm7vc","Bharat Petroleum","Kutchery Road, Old Katra, Prayagraj","25.4664266","81.84951579999999","true"
"ChIJZ5jYRJHKmjkRKPWZtfnoME8","Hindustan Petroleum Corporation Limited","Ground Floor, Kutchery Road, Kutchery, Prayagraj","25.46680010000001","81.85050009999999","true"
"ChIJ9YLBwJfLmjkRyG8_INXCkCU","Bharat Petroleum","CITY,DST, Stanley Road, Prayagraj","25.4780057","81.8497391","true"
"ChIJkYmhU6NMhTkRbFghSxNWGpc","Reliance Petroleum","Ground Floor Pholpur, Nh 2, Baghipur, Jhusi","25.4249167","81.96416669999999","true"
"ChIJqYg3mm6zmjkRHfCw8NYiB48","Bharat Petroleum","Malawa Building, Sahson, Prayagraj","25.474427","81.9692929",""
"ChIJ9VP0vqu0mjkRzdK97uXlD0U","NAYARA ENERGY FUEL STATION (Utkarsh & Harsh Filling Station)","2, Jhunsi Road, Rahimapur","25.4461623","81.9495721","true"
"ChIJvQ7QaAC1mjkR6mcp3fcQ7Sc","Hindustan Petroleum Corporation Limited","Gata No 9/2, 10/2 & 11/2, Jhunsi, Rasulpur, Prayagraj","25.467398","81.923166","true"
"ChIJ2yHRPACzmjkRFbsCYiHMIN8","Rohit kumar","M.g polytechnic college, Habibpur","25.45562799999999","81.9540056",""
"ChIJTTXsfPizmjkR31yfwl2Uq4Y","Raj Petro City-BPCL Saray shankar","Habibpur, Rahimapur, Jhusi","25.4533645","81.9553957","true"
"ChIJzyummlezmjkRq7A7tKLaV1U","Bharath Petroleum","India","25.4533232","81.955539",""
"ChIJV8AWgF2zmjkRVBFGw9msP6o","IndianOil","Ground Floor, near Andawan, Jaunpur Road, Prayagraj","25.46601099999999","81.961564","true"
"ChIJo30FnzuzmjkRMrncA68bxdM","Indianoil-Adani Gas Pvt Ltd CNG Station","FX86+GJ9, Jhunsi Road, Malawan Bujurg","25.4662974","81.9616235",""
"ChIJYxH30TSzmjkRhI6mPwANQQA","Hindustan Petroleum Corporation Limited","Gata No 1521, to, Jaunpur - Prayagraj Road, Prayagraj","25.471036","81.96577300000001","true"
"ChIJiyzHV5izmjkROPWesDbwnKU","Amar Singh Petrol Pump","FXFF+5RQ, Kaserua Khurd","25.4729624","81.97461140000001","true"
"ChIJcRoQqGyzmjkRC0tmBs4OHVw","IndianOil","Ground Floor, Phulpur, Manikapur","25.4728212","81.974926","true"
"ChIJnQcPP59NhTkRe3GXuzcB3-A","SHRI RAJARAM & SONS","Gata No 133, to, Hanumanganj Road, Tendui, Phulpur, Sahson","25.443295","81.988815","true"
"ChIJxWT0kIRNhTkRFou4ef6vhYs","Bharat Petroleum, Petrol Pump - Baba Automobiles","CXMR+QR4, State Highway 7, Tendue","25.4343859","81.9920915",""
"ChIJwzCa35tNhTkRCul4NqbSHkQ","Hindustan Petroleum Corporation Limited","Gata No 195, near Varanasi - Allahabad Road, Old, Grand Trunk Road, Phulpur, Abusa","25.424578","81.991801","true"
"ChIJx0XE4x_KmjkRmSqiJQU15pQ","IndianOil","Gaddopur, Phaphamau","25.530207","81.845184","true"
"ChIJodT94EPJmjkRjZKUJzdYe44","Bharat Petroleum, Petrol Pump - Ashutosh Service Station","TIKARI,NAWAB-GANJ,DST ALLA, Prayagraj","25.54655349999999","81.78278499999999","true"
"ChIJSScdbwDPmjkRd5_ohM43SKM","Maharaj Ji filling station","GQXF+RJ4, Atrampur Urf Nawabganj","25.5500617","81.77338999999999","true"
"ChIJXbapik3PmjkRXFdoh6Sl9zk","Sri Radhe bharatgas gramin vitral","kaudihar Bazar Road, Saraswatipur Urf Kaudihar","25.5566683","81.7617164",""
"ChIJi2rD60TJmjkR4tNbJtKKMLQ","IndianOil","Ground Floor, Hathigawa Sahavpur Road, Soraon, Madhesa","25.560375","81.790506","true"
"ChIJkVypgIbJmjkRvEnreU0hM68","IndianOil","Malaka Road, Harihar, Phaphamau","25.535009","81.830505","true"
"ChIJBS0mQwDJmjkR9lBLdcw90SA","Jaunpur services station","Malaka Road, Harihar, Phaphamau","25.5350455","81.83061959999999","true"
"ChIJfzTdtJjPmjkRDB139PV1VCw","IndianOil","Ground Floor Saraswatipur, Varanasi - Kanpur Road, Soraon","25.56273579999999","81.7567755","true"
"ChIJGYcQVY_JmjkR77nA0LobquQ","Hindustan Petroleum Corporation Limited","Ground Floor, Allahabad Faizabad Road NH 96, Phaphamau, Soraon, Rudapur","25.5318859","81.84109509999999","true"
"ChIJlSLSJmrLmjkRoaJjnBSZslU","Bharat Petroleum, Petrol Pump - Jabbar Singh & Sons","PHAPHAMAU,GADDOPUR,DST ALL, Prayagraj","25.5300455","81.848649","true"
"ChIJaf3vj9HJmjkRZkvd6NrJQJ0","IndianOil","Ground Floor Kanjia, Soraon","25.5763134","81.7828751","true"
"ChIJozrmIwDLmjkRXzybZtAE-iY","Hindustan Petroleum Corporation Limited","Plot No 58/2 59/71, Stanley Road, Myorabad, Prayagraj","25.478874","81.849998","true"
"ChIJVW1CszKhmzkRGhCvbAfZ8P4","IndianOil","Ground Floor, NH 24B, Banaras Road, Dedaur, Lucknow","25.525197","81.8604271","true"
"ChIJG7h7fP61mjkRCvmWW6TNfKU","Bharat Petroleum: Ajay Service Station","PHAPHAMAU,SAHSON RD,DST AL, Prayagraj","25.5292107","81.8711174","true"
"ChIJZQl0VXK2mjkR20coHpVPfPY","IndianOil","Ground Floor, Jaitwar Deeh, Smile Ganj,Sarwai, Saraon, Phaphamau","25.541846","81.890717","true"
"ChIJpUtjZ7DJmjkRU5LZWQQr_74","Bharat Petroleum, Petrol Pump - Star Fuel Centre","Prayagraj - Pratapgarh Road, Malak Chaturi","25.5665875","81.8353346","true"
"ChIJXXMDEHfKmjkRLB_ifhDX75E","Teliarganj Petrol Pump","Neem Sarai Road, Prayagraj","25.498119","81.8627921","true"
"ChIJI-juSH_KmjkRIYLmckbHA5o","Vijay Gas Service","74 Pura Gadaria, Shivkuti Road, MNNIT Allahabad Campus, Teliarganj, Prayagraj","25.4896796","81.86496129999999",""
"ChIJwYPHsgPKmjkRxN5rgW6T9fc","P. ENTERPRISES","India","25.5280944","81.85872069999999",""
"ChIJux4GcCfLmjkRzTYm8_CFSg8","Aditya Petrolium","D 275, Shantipuram, Phaphamau","25.5302902","81.8567846",""
"ChIJFxn_UQDJmjkRqJ49VqrDgXc","फाफामऊशांतिपूरम","GVM3+JGR, Phaphamau","25.5341192","81.8537532",""
"ChIJDXlYfAC3mjkRTkMA5KFUdDc","Petroleum","GVMF+6V, Phaphamau","25.533061","81.87466400000001",""
"ChIJnRV13G3JmjkRx6_egxVZp3Q","Indian gas","GVV3+V24, Korsand","25.5446452","81.85257419999999","true"
"ChIJuZqd_sPJmjkRIlajVqctxnQ","Dev Durga Filling Station- bharat Petroleum, Petrol Pump","GVW3+MGC, Shantipuram Road, Korsand","25.5466907","81.8537571","true"
"ChIJZy-EXZi3mjkRG0Alvt2dm5g","Hindustan Petroleum Corporation Limited","Gata No 1484, 1487, Soraon, Padila, Prayagraj","25.537346","81.903137","true"
"ChIJV-8cuPW3mjkRW_AlUHVJVt4","IndianOil","Ground Floor, Jagdishpurpure Chanda Soraon, Phulpur, Sahson, Prayagraj","25.537315","81.904241","true"
"ChIJrdhVJQDJmjkRPgLiUfhC5hY","Hindustan Petroleum Corporation Limited","Ground Floor, Gohari","25.567401","81.85200100000002","true"
"ChIJc-cIpbPJmjkRUIlzOOW--cU","IndianOil","Ground Floor, NH 330, Shivgarh Road, Soraon","25.573503","81.83685299999999","true"
"ChIJn0BXGLK1mjkRGckI8ThafzY","Bharat Petroleum, Petrol Pump - Prabhu Service Center","Banaras Road, Jagdishpur Purechanda","25.534174","81.923807",""
"ChIJtynZY6SzmjkRm5xpUBSoBtY","Hindustan Petroleum Corporation Limited","Ground Floor, Garapur Road, Phulpur, Sahson","25.508001","81.9629001","true"
"ChIJU9U7EQC0mjkRAAAAcDYrH2M","IndianOil","Ground Floor Devaria, Phulpur, Garapur, Buxie, Khurde","25.5357039","81.9523993","true"
"ChIJbZ6hy9qzmjkRDJWjuIztLB8","Bharat Petroleum, Petrol Pump - Aruvanshi Fuels","FXVF+G8Q, Banaras Road, Ramnager","25.4938432","81.9733624",""
"ChIJO-Lu6AqzmjkRHdXzlhBklj4","IndianOil","Ground Floor, Chandarpur Basmuha, Phulpur, Buxie Khurde, Tharwai","25.4884444","81.97711919999999","true"
"ChIJg-iYzkazmjkRLG03JBv0CsU","Bharat Petroleum, Petrol Pump - Sahson Ser. Stn.","SAHSON,SORAON,DST ALLAHABA, Prayagraj","25.4858685","81.9782578",""
"ChIJXxqMm_CzmjkRVJdeCqbfhyw","Sahson Service Station","Sahson Chauraha Fafamau, Road, Sahson","25.4854732","81.9783983","true"