place_id,name,address,latitude,longitude
"ChIJSdySCrF3AjoRMR2ogWwAx3Q","Petrol Pump","H9F3+P56, India Exchange Place Road, Chitpur, Barabazar Market, Kolkata","22.5742931","88.352904"
"ChIJpVpFpzN2AjoRcJmPbVjETPo","Bharat Petroleum, Petrol Pump -B D Auto Corner","62, Jatindra Mohan Avenue, Ward Number 10, Kolkata","22.595603","88.36527"
"ChIJ9RgYsqh3AjoRZPzxgHJu7Co","Central Services","3 & 5, Ganesh Chandra Avenue,, Kolkata","22.568523","88.352651"
"ChIJx8BKArh3AjoRrBnAEf33U98","Posta Petrol Pump","207, Maharshi Debendra Road, Jorabagan, Kolkata","22.58725","88.3528043"
"ChIJvzCmQrF3AjoRKxzN-JV9AY0","Hindustan Petroleum Corporation Limited","116B, Rabindra Sarani, Bara Bazar, Kolkata","22.580241","88.35720099999999"
"ChIJT4ASrqh3AjoRh1oTMSIcjeE","Bharat Petroleum","2, Ganesh Chandra Avenue, Bara Bazar, Bowbazar, Kolkata","22.5694513","88.3537875"
"ChIJC-xhwUV2AjoRIMNW91an8Qs","Bharat Gas","H9HF+FGG, Acharya Prafulla Chandra Road, Rajabazar, Garpar, Machuabazar, Kolkata","22.5786873","88.37383679999999"
"ChIJLbra0AB3AjoRg6GIMc_SWEQ","Bharat Petroleum","H965+G9Q, Surendra Nath Banerjee Rd, Rani Rashmoni Road, Wellington, Taltala, Kolkata","22.5613355","88.358486"
"ChIJnVxuTEV2AjoRIXj0vVZZONU","IndianOil","120/2, Acharya Prafulla Chandra Road, Machuabazar, Kolkata","22.5834643","88.3742357"
"ChIJA5lvUEZ2AjoRbOdPFHL9_FU","Hindustan Petroleum - Manicktola Service Station","near IndianOil, 120/2, Acharya Prafulla Chandra Road, Manicktala, Goa Bagan, Machuabazar, Kolkata","22.5842788","88.374386"
"ChIJ21MbKDd2AjoRkBbXd4TqSRw","IndianOil","151, Bidhan Sarani Road, Hati Bagan, Shobhabazar, Kolkata","22.5933047","88.37030349999999"
"ChIJOz6EL_l2AjoRvSO7qJmy-8Y","IndianOil","P9, Doctor Suresh Sarkar Road, Scheme 4, Maula Ali, Raja Bazar, Kolkata","22.5604338","88.3681656"
"ChIJLxnC6TV2AjoR1x30qMpTQNA","Hindustan Petroleum Corporation Limited","17, Abhedananda Road, Kolkata","22.589131","88.366861"
"ChIJ64X5Jvx2AjoRGizedc7NOlc","IndianOil","160, Acharya Jagdish Chandra Bose Road, Maula Ali, Bowbazar, Kolkata","22.55801599999999","88.366013"
"ChIJ59sZF6J3AjoRcPeSrOOu0IE","Hindustan Petroleum","Hindustan Petroleum Retail Regional Office (2nd Floor), 6, Church Lane, Kolkata","22.570225","88.3447076"
"ChIJi0pH4DN2AjoRA1al7hH7cao","The Bengal Petroleum Company","65, Sri Arvind Sarani, Kolkata","22.5950398","88.3675347"
"ChIJt6Godht3AjoRTSndzw3QQcg","Hindustan Petroleum Corporation Limited","69, Park Street, Kolkata","22.551411","88.35416099999999"
"ChIJhex19g93AjoR4fTfM3AloCg","IndianOil","No 57, Taltala, Kolkata","22.553003","88.353073"
"ChIJF_-8TOV2AjoRif_RxnmakCI","Bharat Petroleum Petrol Pump","120, CIT Road, Paddapukur, Entally, Kolkata","22.552089","88.37177"
"ChIJU5spNy52AjoRa90qR16JHek","Super Avenue Service Station","Shyambazar Metro, 80/1, Bhupendra Bose Avenue, Station Gate 4, Kolkata","22.600708","88.3696182"
"ChIJEdzt5Kh4AjoRu-S58bmFB5A","Hindustan Petroleum Corporation Limited","Ground Floor, NH 6, Kolkata - Mumbai Highway, Domjur, Nibra","22.6067701","88.2537301"
"ChIJW2ZMsfJ4AjoRVSYG8r64hkI","Hindustan Petroleum Corporation Limited","No 01, Unsani, Moukhali, GIP Colony, Jagacha, Howrah","22.5863911","88.276215"
"ChIJT7WCOF1_AjoRNpamjdbk2Xc","Hindustan Petroleum Corporation Limited","Ground Floor, NH 6, Mahiari","22.599201","88.2278601"
"ChIJZ_dcuu6B-DkRfftIaVqCnXo","IndianOil","Lock No 439, Domjur, Baluhati","22.6268105","88.2321552"
"ChIJvc93X-d4AjoRiozv5EKtKbs","IndianOil","Ground Floor, mouri, Panchpara, Andul, Radhadasi","22.57020009999999","88.26580009999999"
"ChIJ21NPsG1_AjoRBONoeSWKlvU","IndianOil","Lock No 516, NH 6, Biparnna Para, Jangalpur","22.5900351","88.2187953"
"ChIJm8haNAB5AjoRHAeqaIkA9Pg","Bharat Petroleum, Petrol Pump -Atulanand S/S","SALAP, HOWRAH, Howrah","22.6110415","88.2684312"
"ChIJ-xVxgwt5AjoRwu35wFp6izQ","IndianOil","Unsani, On, Kona Expressway, Howrah","22.59407939999999","88.263464"
"ChIJc4jAa6l4AjoRC53ofa8FKR4","IndianOil","J64W+9R3, Ground Floor Andul, Mouri, Prasastha, Domjur, Ankurhati, Howrah","22.605813","88.247009"
"ChIJ03HqRReD-DkRUwrSf2fvD3U","BGCL LCNG cum Mother Station, Salap More","J76C+P5F, Salap, Howrah","22.61180539999999","88.2704342"
"ChIJu-aCggR_AjoRHTz4b6DEngQ","Ankur Filling Station","J65V+7W8, Ankur Filling Station HP Petrol Pump Retail Outlet Ankurhati Battala near Axis Bank Ankurhati Branch, PO-Salap, PS, Domjur, Howrah","22.6081538","88.2448137"
"ChIJQb8WgVB_AjoRs1Xak9V_Vac","IndianOil","Ground Floor, Ankurhati Road, Andul, Howrah","22.6016254","88.2365041"
"ChIJb0Hmg5Z5AjoRMAx7Mk-idsM","Mini World","2, Andul Road, Andul Mauri, Andul, Howrah","22.5835945","88.249265"
"ChIJb-bZOwB_AjoRGJ96lYGFstY","Andol bus stop, HP petrol pump","H6MV+W77, Andul Road, Andul Bus Stop, Kamrangu, Duillya, Howrah","22.58470329999999","88.2431233"
"ChIJuVExpDV_AjoRhtI89kz98g0","Hindustan Petroleum Corporation Limited","Ground Floor, Andul Road, Duillya, Howrah","22.584351","88.24326099999999"
"ChIJNc-Wk_CB-DkRWla373PeS9k","Hindustan Petroleum Corporation Limited","Ground Floor, Domjur, Makardah, Howrah","22.623421","88.239671"
"ChIJbX2lrpJ5AjoRGJOpdY7fa2Y","Kumar Shop","Dashnagar, Balitikuri, Howrah","22.610594","88.2874843"
"ChIJrcIoQ6R5AjoRqjHVwjs8ZfU","Hindustan Petroleum Corporation Limited","Dag No 1085, Amta Road, Dasnagar, Balitikuri, Howrah","22.6058454","88.2896641"
"ChIJEcXZ7zd_AjoRjQfDzx-aTUs","SADHUKHAN BROTHERS","Andul Road, Andul Mauri, Andul, Mahiari","22.585521","88.2370286"
"ChIJMeroHt14AjoRudFkZkRYZuk","HP Petrol Pump Adhoc Shroff Brothers Mourigram","H79C+33H, Panchpara, Andul Road, Panchpara, Mourigram, Howrah","22.5735246","88.26330349999999"
"ChIJ17S6hniAAjoRMUKSHrGbw70","IndianOil","Lock I 468 NH 6, Mouri, Andul, Howrah","22.5703728","88.1678316"
"ChIJVb4ukmCAAjoR2-Qamt16pEs","IndianOil","Ground Floor, Joynagar, Panchla, Andul, Ranihati","22.565323","88.15001099999999"
"ChIJi01BzJOAAjoRg2PCsVwW3Zs","IndianOil","L No, 531, Banharishpur, Kulai","22.546423","88.152819"
"ChIJhbFhpseAAjoRGYCeVVmcRtU","BROADWAY SERVICE","G4HW+8JR, Badshahi Road, Beldubi, Nalpur, Howrah","22.5285346","88.14696920000002"
"ChIJabErAQB_AjoRm6Ph9jEMfuE","Highway Service Station","H5C8+4X5, State Highway 6, Paniara, Dhulagori, Sandhipur","22.5704764","88.16819939999999"
"ChIJla17C-SBAjoRJ1i0kr_45dc","Bharat gas office, Ranihati","H555+PCG, Biki Hakola","22.5592754","88.158723"
"ChIJJbB4PhWBAjoR84TwkuplfsQ","IndianOil","Lock No 419 Bombay Road, Mouri, Paniara, Andul, Howrah","22.557731","88.159156"
"ChIJP-VNPoaAAjoR1SymfIxM46Q","Bombay Service station","Paniara, Ranihati, Howrah","22.5574105","88.15936119999999"
"ChIJjyB9VWN_AjoR7T-WDnmQrlI","Bharat Petroleum, Petrol Pump -Bhambra Auto Centre","JALADHULAGORI,HOWRAH, Howrah","22.5740138","88.1793618"
"ChIJ66-Yw05_AjoR1bEiUQJJsTk","SOHAN vai","H52C+H3R, Jala kendua, Dhulagori, Banharishpur","22.551916","88.17098"
"ChIJj0R7LwCBAjoRXkky67T94CA","NISHTHA FILLING STATION","H5P5+RV6, Gangadharpur","22.5870314","88.15963219999999"
"ChIJx5AxbACBAjoRfBFJpuJPNnc","Shinning club","H44V+W58, Biki Hakola","22.557295","88.1429515"
"ChIJ72N1gsh_AjoR6NMVEvPBKzk","IndianOil","Jaladhulagori Toll Plaza, Lock No 539 NH 6, Andul Mouri Road, Howrah","22.57375499999999","88.184803"
"ChIJtVKSrGeBAjoRFw3HVHg5omU","Indian Oil Franchise","22bigha, Amta - Ranihati Road, Mallik Bagan","22.5668968","88.1380045"
"ChIJz7pUqGd_AjoR0jkK4s0oJ6M","Bharat Petroleum, Petrol Pump -Raibarielly Service Station","DHULAGORI,NH-6, Howrah","22.5750983","88.188189"
"ChIJd0GGHw5_AjoRVqQDBjAyuIE","IndianOil","Ground Floor Mallikpara, Panchla, Andul, Jujarsaha","22.5786145","88.18846099999999"
"ChIJa5-Mg_9_AjoRJ36BlviD_30","IndianOil","Lock No 1009 Dhulagarh, mouri, Andul, Howrah","22.573661","88.19209699999999"
"ChIJkdM2nT2AAjoRlBRkZwgwmjc","Hindustan Petroleum Corporation Limited","Ground Floor, Panchla, Jujarsaha","22.594231","88.148021"
"ChIJ14-QW6yBAjoR6VZj185eskc","IndianOil","Ground Floor Subharara, Panchla","22.5657943","88.1303028"
"ChIJ0aaq5rp_AjoRnGvElkEA8Cw","Hindustan Petroleum Corporation Limited","Ground Floor, NH 6, Kolkata - Mumbai Highway, New Korolla, Howrah","22.5765601","88.19591009999999"
"ChIJh1hLh2GGAjoRYWyW3HvbgP4","Bharat Petroleum (Himayet Service Station)","BAHIR Parijat, Fatepur, Kalibari, Bhatura, GANGARAMPUR","22.463133","88.1048474"
"ChIJn8vauHGHAjoRc4WHSe_pDNU","IndianOil","Ground Floor, NH-6, Jadurberia, Uluberia, Howrah","22.477663","88.090627"
"ChIJDbW5YwCFAjoRx4a0gj2qwJU","IndianOil","F3HM+7G2, Banitabla, Uluberia, Howrah","22.4781256","88.08376109999999"
"ChIJVxFTmuGFAjoRqJXkNzbOv2A","Hindustan Petroleum Corporation Limited","Ground Floor, NH 6, Bombay Road, Kaijuri, Uluberia, Howrah","22.477301","88.074101"
"ChIJEYIewjmEAjoRKjdLlm9NgSc","Hindustan Petroleum Corporation Limited","KM Stone, Ground Floor NH 6, 52 & 53, Bombay Road, Kaijuri, Uluberia, Howrah","22.4784279","88.07389529999999"
"ChIJiSI731mFAjoRZGYyi1hwr3k","Bharat Petroleum Petrol Pump","ULUBERIA,MAHESHPUR, NH-6, HO, Howrah","22.4780494","88.06422160000001"
"ChIJlUZmDJqFAjoRX5uDoMrc62I","Indian Oil Corp. Ltd. RO - Haris Filling Station","NH-16 (beside Patton Int'l Ltd.), Vill. Malanchaberia, P.O, P.S, Birshibpur, Uluberia, Howrah","22.4786025","88.06014259999999"
"ChIJBUlHH2CFAjoRcV3SlixJnYI","Jagannath Service Station","Vill-Jagatpur,PO-Brindabanpur,PS-Ulubaria,Dist-Howrah NH-6,Near Ulubaria Left Side of NH, Howrah","22.4975441","88.0724146"
"ChIJeSctKdGHAjoR9Elwv8h7big","Hindustan Petroleum Corporation Limited","JL No 95 NH 16, Jagatpur East Road, Uluberia, Howrah","22.4904464","88.1150593"
"ChIJr5U7c1SEAjoR8Ieteb38drg","IndianOil","Ground Floor, Birshibpur, Uluberia, Bahira","22.46949","88.055466"
"ChIJpWr6uPeEAjoRyOcs-prGWPk","IndianOil","Ground Floor NH 6, Birshibpur, Alipur, Howrah","22.478614","88.049497"
"ChIJs9fuCa6FAjoRDoIHUIoPsdE","Hindustan Petroleum Corporation Limited","Ground Floor, Dulopur, Uluberia, Baniban Jagadishpur","22.509701","88.06210100000001"
"ChIJJ0RhILebAjoRmNgVjtbT8pM","Bagnan gas Supply Indane godown","FXF4+GHQ, Mankur Road, Hijlak","22.4738281","87.956479"
"ChIJd-mY51OZAjoRkmocAjiJS30","IndianOil","Ground Floor Barunda, Bagnan, Agunsi Bhuinara","22.4621066","87.93220989999999"
"ChIJQQTEY4CZAjoRNcbIR5-haac","BHARAT PETROLEUM BALAJI SERVICE STATION","NH-6, Barunda","22.46092800000001","87.932617"
"ChIJLRxXu9OZAjoRzDlz9d1MjUY","SREE KRISHNA SERVICE CENTRE","Badshahi Road, Barunda","22.4622426","87.93287649999999"
"ChIJrXDVx8ybAjoRkLUVElRtJ7Y","IndianOil","Ground Floor Tenpur Nabasan, Bagnan, Agunshi, Howrah","22.464775","87.94691499999999"
"ChIJe5oOxkKZAjoRDMNS1367Yvo","Sri ganesh repiyaring centre","CVVG+GCX, Kolaghat","22.4438915","87.87606629999999"
"ChIJmwLElJGbAjoRLWkrDPtYUAA","IndianOil","Subsit, Bagnan","22.4860413","87.9356723"
"ChIJYxOlmqKZAjoRBDRGBXk4kpo","saikat Jana","Hare Krishna And, Bathanberiya, Kolaghat","22.46674849999999","87.86703969999999"
"ChIJ25v6ryG7AjoR5l8eDSoK_1Q","IndianOil","Ground Floor, Station Bazar, Panskura, Bara, Gokul Nagar, East, Midnapore","22.391904","87.740245"
"ChIJO7NeHi27AjoRms9FksWvdto","Hindustan Petroleum Corporation Limited","SH-4, Dakshin Mechgram Road, Mecho Gram, Panskura","22.4118046","87.74438339999999"
"ChIJSwx8Tqa6AjoR0uynFchP6cQ","IndianOil","Ground Floor, Nekra Paschim","22.3998611","87.69371939999999"
"ChIJndBymc66AjoRrYRE7fIZptY","IndianOil","Ground Floor, Panskura","22.409153","87.745522"
"ChIJGV8-hSq7AjoR26nVIC6VJvA","IndianOil","Ground Floor Naranda, Panskura","22.4039573","87.7283874"
"ChIJBw0hUEe7AjoRRQY1Jodv70M","IndianOil","Ground Floor Naranda, Panskura, Balidangri","22.406843","87.72367899999999"
"ChIJ17U8_RKlAjoRYJPhqh1w8l0","Bharat Petroleum - Dhuliara","CQ88+56, Mecho Gram, Balisar","22.4152667","87.7651983"
"ChIJ-TnYZhu7AjoRR-xnRuuclso","Hindustan Petroleum Corporation Limited","Plot No 504, 506 & 507, Panskura - Tamluk Road, Rupdaypur","22.3794553","87.7422339"
"ChIJbUoqCQe7AjoRmdHi9_NwOMk","Hindustan Petroleum Corporation Limited","Plot No 435 P, JL No 99 Panskura, NH 16, Dharmapur","22.405318","87.706023"
"ChIJYXlkmae6AjoREUPAJjlNi1s","IndianOil","Ground Floor, Panskura - Puraton Bazar Road, Balidangri","22.398854","87.70063999999999"
"ChIJ3UDEwa67AjoRvuE_7HG6FX0","Hindustan Petroleum Corporation Limited","JL No 204, Plot No 533, Panskura - Tamluk Road, Gumai","22.370666","87.748751"
"ChIJmY3SHgCxAjoRShfew0K9pRI","IndianOil","Ground Floor, Nekra Paschim","22.40398","87.69483249999999"
"ChIJY8Vr6TWlAjoRfySP2z-AWcw","Bharat Petroleum, Petrol Pump -Surenkari Filling Station","HATISHAL, Khukur Daha","22.4441625","87.7533503"
"ChIJJfUuZQClAjoRWzWJQ-WxE80","Sanjay","CQQ8+HM, Kantabani Shasan","22.438549","87.768177"
"ChIJecrbz4VPHToR5M1rpk6nJxE","Hindustan Petroleum Corporation Limited(R.KFUELS)","9CM6+7PG, Kolaghat - Pansila - Cuttack Road, Samudrapur","22.3835841","87.41052030000002"
"ChIJQaW6hj9PHToRczx6ROyn3wQ","Hindustan Petroleum Corporation Limited","Plot No 1473 & 1474, Samudrapur","22.383365","87.40944050000002"
"ChIJG15DKedPHToR9HQzTCg6ePE","IndianOil (BANDHAN FILLING STATION).","Kolaghat -Pansila-Cuttack Rd, NH16, Samudrapur","22.3835889","87.4092891"
"ChIJa70eT8ZPHToRx39IL0E6TMo","Patrol","নামাজি petrol pump, Madpur, Baragere","22.380971","87.4401406"
"ChIJez8WRwBPHToRSCvhLW6sMtk","Namaji petrol pump ⛽","9CPR+56P, Madpur, Baragere","22.3848437","87.44060429999999"
"ChIJ86hmfgBPHToRs8IowvkAEWA","Basanta Filling Station (HP petrol pump)","Lockgate, Madpur, Kharagpur","22.3634838","87.43563069999999"
"ChIJd-JIVqBFHToRDzkOXPydJLs","Bharat petroleum","99QG+3F2, Pairachali - Hirbandh - Manbazer - Barabhum - Balarampur Road, Balihati","22.3876477","87.3761327"
"ChIJ48J3n403HToR7TEvwstbpZE","IndianOil","Ground Floor, Lohabaran Chak Deulia Chak, Narayangarh, Harishpur, Kharagpur","22.190509","87.389753"
"ChIJ11nzIQA3HToR0_8L0t12LTU","BINAPANI FILLING STATION (Bharat Petrol Pump)","59FR+6M9, Chennai - Kolkata Highway, Kasba Narayangarh","22.1730431","87.39171999999999"
"ChIJHVqNW3s3HToRZBgfj19BAVs","IndianOil","Ground Floor, Kasba Narayangarh","22.1518478","87.3848591"
"ChIJ9cwIWhE3HToRI16xobF9grs","Hindustan Petroleum Corporation Limited","JL No 233, LR Khatian No 98/1 & 332/1, Plot No 612/P, Kasba Narayangarh","22.20582109999999","87.39054139999999"
"ChIJx9vHwlM6HToRvxKftAj47Xk","Hindustan Petroleum Corporation Limited","Ground Floor, Belda","22.0815316","87.3456873"
"ChIJ1zZ-6wE7HToR4vtMGZwwG6o","Hindustan Petroleum Corporation Limited","Ground Floor, Belda","22.0690724","87.3401882"
"ChIJKyeLkAE7HToRB8WSF2T81FE","IndianOil","Ground Floor, Belda","22.0688001","87.33940009999999"
"ChIJJ2OI65E7HToRWsYHtDKvdQI","BELDA FUEL SERVICE STATION","FUEL SERVICE STATION, Belda","22.062128","87.355419"
"ChIJV9Jmi5E7HToRRL_lMABgNO4","Jio-bp","Jl No 318, 142P & 143P, Khatian No 5, Yadavchowk, Belda","22.06199449999999","87.3553068"
"ChIJ_TDwPwE7HToRoFWLdjreWaM","Anand Grocery Store","Ananda Grocery Store, Belda","22.0786039","87.3293691"
"ChIJFYWXXT86HToRt-oIv4VDdes","IndianOil","Ground Floor, NH 60, East, Belda","22.09816039999999","87.3577267"
"ChIJ3ZAkJxE7HToRtvSkcLt4iiA","IndianOil","Ground Floor Belda, East, Midnapore","22.056908","87.32879199999999"
"ChIJIabxsXs7HToR-P4QUkjio8I","IndianOil","Ground Floor Rasulpur, Lal Nagar","22.05604379999999","87.3704932"
"ChIJ-y6UXbU7HToRrHvz_u2DNR0","IndianOil","Ground Floor Phandar, Keshiary Road, Belda, East, Midnapore","22.093641","87.3118801"
"ChIJM2UMPUc7HToRgX_qVcDNrf0","Hindustan Petroleum Corporation Limited","Midnapore, Ground Floor Belda, Keshiary, Kolaboni East","22.0424024","87.3200007"
"ChIJE5uAzQchHToR-UrGaIQwFgA","IndianOil","Ground Floor Karakpur, Dantan","21.96183169999999","87.27345299999999"
"ChIJV-IThaIjHToRuU-0gnx-JDA","Bharat Petroleum Petrol Pump , ANNAPURNA SERVICE STATION","Dantan","21.9643031","87.27556890000001"
"ChIJc9z4QL8jHToR5tLT1orLfS4","Dantan Petrol Pump","X73H+X4W, Karakpur","21.95498689999999","87.27783409999999"
"ChIJ4ShnHcojHToR5oWEPhKaVCg","ANNAPURNA SERVICE STATION","X76J+74Q, Unnamed Road, Krishnapur","21.96071659999999","87.2803708"
"ChIJOxxrJgAjHToR98AkjrGhJvY","Bishnu Highway Seevices","W7W7+FJ, Kunja Baghra","21.94615899999999","87.264106"
"ChIJdwXGuyIhHToRpQXbukYKa8k","Hindustan Petroleum Corporation Limited","Ground Floor, NH 16, Panitunia, Dantan","21.9216248","87.267758"
"ChIJiUgHGhYjHToRv0ilNCWUOVQ","Debolina Telares","Dantan PS, NH-60, West Medinipur, Tarrui","22.0003796","87.27603669999999"
"ChIJyR1-WPghHToR9G3mxSHpFHc","Jls Pvt Ltd","Market Jaleswar Road, Jaleswar","21.8463034","87.24632350000002"
"ChIJL7MeU3ffHDoRtnSrQf5X4zs","Hindustan Petroleum Corporation Limited","Ground Floor, Jaleswar","21.80883499999999","87.2519155"
"ChIJOw6vv93fHDoRCGMcNyxGSfw","Hindustan Petroleum Corporation Limited","Ground Floor, near Ganesh Talkies, Jaleswar","21.8082252","87.2283652"
"ChIJlZzPScPfHDoRG4uIGj7RhEE","IndianOil","Ground Floor, Badabazar, Jaleswar","21.805404","87.2324069"
"ChIJL8IuULjfHDoRYw-wpo-WVt4","IndianOil","Ground Floor NH 60, Alalpur, Jaleswar, Nahara","21.8010259","87.2437297"
"ChIJRzznVQAhHToRJvVcPu8K1s4","IndianOil - SWAGAT","Mirzapur","21.8674586","87.2564235"
"ChIJnWrhKwAhHToRmk-ONBVTfbY","Kalichandi indian oil","V795+225, Kolaghat - Pansila - Cuttack Road, Sonakania","21.867535","87.25678219999999"
"ChIJMx_TU7jfHDoRuc5DkZrHCIM","Gayatri Filling Station","R62V+7M2","21.800643","87.2441352"
"ChIJcYDCrVXhHDoRtsWWrUX8OIU","IndianOil","Ground Floor NH 60, Gudikhal, Junabalda Near, Amarda Road","21.7409505","87.1448589"
"ChIJlTtF2LvjHDoR4EvQ0KKUEvs","Sahu Petroleum","Q4MQ+W5W, Amarada","21.7848631","87.1379469"
"ChIJX4SvViviHDoRr2C90oiTYe0","Bharat Petroleum","India","21.78490979999999","87.1375765"
"ChIJy4rA7jLiHDoRmHQ33XmH_iA","ଷଡ଼ଙ୍ଗୀ ଗ୍ରୋସରୀ ଷ୍ଟୋର","India","21.786324","87.1306723"
"ChIJAQAAQLX6HDoRxWaA5e-N3E8","IndianOil","Ground Floor, Gahirasimulia Dandika, Basta, Bazar, Baharda","21.6574048","87.0608015"
"ChIJ7ScL3DvlHDoRLPHAOniLXuM","Hindustan Petroleum Corporation Limited","Ground Floor, Basta, Haldiapada, Kundapur","21.6972555","87.08377019999999"
"ChIJ96nf0avlHDoRtb0iTeYmtFQ","Hindustan Petroleum Corporation Limited","Ground Floor, near Jaleswar Balasore Highway, NH 60, Baulagadia, Basta","21.7003981","87.08895919999999"
"ChIJlyLSkgrlHDoRDoI0hPy96Sw","Bharat Petroleum Petrol Pump , MAA LAXMI FILLING STATION","GANDHICHAK, TO, Basta-Baliapal Road, Arjuni","21.6818521","87.09245760000002"
"ChIJg-lcoCT7HDoRSa343zp7H2o","Ms Stalin Filling Station","NH 60, Baulagadia, Barunagadia, Basta","21.7022448","87.0916707"
"ChIJDeSivkP7HDoR7GYR5sg20sk","IndianOil","Ground Floor, Baharda Bazar, Basta","21.7030987","87.05680439999999"
"ChIJXbRkJh7lHDoRaTxwMzMuz4Q","Binayak Filling Station, Bharat Petroleum","Mathani, Kharagpur City Road, Gahirasimulia","21.6613013","87.0636969"
"ChIJM0gwTLP6HDoReMjf4ekoN3M","Shivam Petroleum","Kharagpur City Road, Dandika","21.657221","87.06200580000001"
"ChIJ1QUDY7DlHDoRQD5uGV0HxJI","Hindustan Petroleum Corporation Limited","Ground Floor, Darada","21.6778752","87.11468819999999"
"ChIJzV0_0pHlHDoRpB4xUImHOzg","IndianOil","Ground Floor Karanjia, Basta, Kusudiha, Bazar, Baharda","21.6773318","87.1162712"
"ChIJg8ZrGADxHDoResVqJyXsUII","SHREE ENERGY POINT","H2F4+JC8, Bahadalpur","21.57478","87.0070817"
"ChIJt3Qs2hTxHDoRh0xNUy8-Is8","Oil Point","Raisuan Market, Station Road, Haldipada","21.5848782","86.9935749"
"ChIJl3UicP_wHDoRzGUkR_mTqMo","IndianOil","Ground Floor Gobinda, Basta, Alumeda","21.5944595","87.0210322"
"ChIJl39T7k_3HDoRBw6UWz875y8","Bharat Petroleum, Petrol Pump -Bluemoon Fuels","ODANGI NH60-BALASORE, Balasore","21.55389349999999","86.9616233"
"ChIJE9nAhsz3HDoRlGKL03bK7-U","Balasore Highway Service Bharat Petrol Pump","NH-60, Odangi","21.5527838","86.9610201"
"ChIJK1iCwon1HDoRasy_3aa-UMU","Hindustan Petroleum Corporation Limited","Ground Floor, Haripur","21.5107074","86.902844"
"ChIJ4xV_yD9fHDoR7pQZ6x9OIdE","IOC Petrol Pump","Kalidaspur, Balia, Balasore","21.51928449999999","86.8805517"
"ChIJNSgylZr1HDoR8gTq4k9Jr-k","Bharat Petroleum Petrol Pump","GW47+2F7, near Suraj Hotel, Artung, Balia, Balasore","21.505047","86.9136729"
"ChIJm6BMclpfHDoR-wEvIb7ko_o","Hindustan Petroleum Corporation Limited","Ground Floor, NH 5, Remuna Golai, Saraswatipur","21.529501","86.895701"
"ChIJZUGhcHX1HDoRDx25hICzP3Y","IndianOil","Railway Colony, Balasore, Baleshwar","21.493957","86.9202644"
"ChIJH_IgjJ_1HDoRn3fjVEd_OzY","BNKP Petrol Pump","Station Chowk, OT Road, Balasore","21.49669879999999","86.92193979999999"
"ChIJp2TONcBfHDoRdZcz8MBhv08","IndianOil","Ground Floor, Saraswatipur Balasore, Chhanpurvia, Kuruda, Brahmanda","21.4672853","86.881446"
"ChIJA3pd_bRfHDoRPU6XTu4f2Zs","Bharat Petroleum, Petrol Pump -Doshi Automobiles","NH5 BALASORE, Balasore","21.513234","86.89342239999999"
"ChIJ2TrXbABfHDoR5l0KPAl9NvU","SP.Petrol Pump kalidaspur","GV8Q+2W2, Kalidaspur, Balia, Balasore","21.5150169","86.8897655"
"ChIJ4yHRgF9fHDoRYH3xBeROEQE","IndianOil","Ph No, 2316/Bls, National Highway 16, Januganj","21.5159263","86.8932501"
"ChIJPZFQm2FfHDoRbKE5gARn4wk","Reliance Petroleum","Ground Floor, Ganeswarpur","21.5131026","86.90017979999999"
"ChIJ0SQIsOtfHDoRxzv_x5Qe-Mk","Pk Fuel Station","Kalidaspur, Remuna, Balia, Januganj","21.5127445","86.8814022"
"ChIJVapbWJdfHDoRE8lVM3ba8v8","Hindustan Petroleum Corporation Limited","Ground Floor, NH 5, Chhanpur","21.482001","86.886501"
"ChIJG5WFXpBfHDoR6LI3yzO6s4Y","LPG Gas Plant","FVJQ+6V9, Artung, Balia, Balasore","21.4805452","86.8897339"
"ChIJfaC_TABfHDoR46As8gUvZAY","Sri Laxmi Petrol Pump","GV67+4HF, Emami Bypass, Narahari Pur","21.5102533","86.86415"
"ChIJr1aQ7hv1HDoR0D3p5T9FgU8","Padmabati Behera","near Central School Chack CENTRAL HIGH SCHOOL, Balasore","21.5012467","86.92029269999999"
"ChIJ7UFODEP1HDoRq3OVjyYzRGQ","Bharat Petroleum, Petrol Pump -Biswanath Kashiprasad","O T ROAD BALASORE, Balasore","21.492526","86.91920909999999"
"ChIJn69uD21fHDoRtqlmbjWKzUc","Bharat Petroleum Petrol Pump , SHREE RADHA KRISHNA FILLING STN","MEGHADAMBARUNEAR TAMULIA GATE","21.4750216","86.8956321"
"ChIJa5Jf6qH1HDoRiO54HBqCH78","Hindustan Petroleum Corporation Limited","Ground Floor, OT Road, Balasore","21.4993029","86.9235102"
"ChIJ5f5khqH1HDoRG9jFKTdUGmg","Hindustan Petroleum Corporation Limited","Ground Floor, OT Road, Balasore","21.500451","86.924351"
"ChIJeYQ4JbpgHDoRCHimUaIH2Uc","Hindustan Petroleum Corporation Limited","Ground Floor, NH 5, Seragarh","21.4282625","86.8337864"
"ChIJG_GWKOlmHDoRALfujmc7B5I","Hindustan Petroleum Corporation Limited","Ground Floor, National Highway 16, Khantapara, Olipatna","21.3819501","86.7975901"
"ChIJkRhy2O5mHDoRcdXBI64b2BI","Bharat Petroleum","Bkhanaga, Baleshwar, NH-5, Baharagora Chennai Highway, Balasore","21.3822","86.7962"
"ChIJraAh_JhgHDoRQrCBcJnFb_M","Hindustan Petroleum Corporation Limited","Ground Floor, National Highway 16, Sergarh, Balasore","21.437113","86.844438"
"ChIJmwuaYZxgHDoR1V9oQzfIlqQ","IndianOil","Ground Floor, NH 5, Seragarh","21.4405943","86.84838839999999"
"ChIJ3dLyardgHDoRjdR-J59QMUM","IndianOil","Ground Floor NH 16, Seragarh","21.4249094","86.8301374"
"ChIJZfybluhmHDoRjvYLIuCITKI","Jio-bp","153 Khata No 226, Plot No 117/26, 30/34, 52 Olipatna, Balasore","21.3841611","86.7981502"
"ChIJ5UXZYqdhHDoRFVU5hINuyPE","Money Send","Odisha Khantapara","21.3858965","86.8320744"
"ChIJqXCLLOlmHDoRfgxxbeeUW5E","M/s Shree Abhiram Service Station","9QJW+PRG, National Highway 16, Nuapada","21.3818021","86.7970642"
"ChIJEyfCMQBnHDoRfYvb1YFiMsw","BP MANKHANI","9QJW+M78, Khantapada","21.3820937","86.79607519999999"
"ChIJ7ZS5Q1xuHDoRLFzXw1771hw","Bharat Petroleum Petrol Pump","Ground Floor, OD-BLS-BHB-21W-036, National Highway 16, Utareswar, Soro","21.2928429","86.6854563"
"ChIJjXfK7l1vHDoRb-rMb_GrWvc","BPCL PETROL PUMP MANGAL FUELS","Dandaharipur","21.325205","86.7347891"
"ChIJg5YBrAFvHDoRoXWTpP-Q3Ik","Reliance Petrol Pump","8P33+CCF, National Highway 16, Soro","21.30358829999999","86.7035396"
"ChIJtZHaRJBvHDoR4mqhF4BmB0A","IndianOil","Ground Floor, Soro, Angula","21.2948293","86.69112779999999"
"ChIJe6I6AWBvHDoRbZzAfHvr-hs","Shree Mahabir Service Station Soro","UTTARESWAR, Soro","21.2932257","86.68763849999999"
"ChIJNdxTQlxuHDoRcqZLjGCBACw","Hindustan Petroleum Corporation Limited","Ground Floor, OD-BLS-BHB-21W-036, Utareswar, Soro","21.2917301","86.6848901"
"ChIJN4Q2_ZJvHDoRlVbsAjk36iU","Bharat Petrol Pump","7PH2+GXC, Soro - Anantpur Road, Soro","21.2788","86.7023845"
"ChIJv7oYKzlvHDoRRJbFU1Ca7nM","Durga filling station (Petrol Pump)","Soro - Anantpur Road, Soro","21.2786616","86.7022042"
"ChIJmVGI0elvHDoRuNOxnJ1iik8","Adani Total Gas CNG","8PGP+GGV, Dandaharipur","21.32635149999999","86.7363112"
"ChIJBxIGYDNvHDoRMrLWpbFC_NA","IndianOil","Ground Floor, Kamanpur, Tentulipokhari, Soro","21.275672","86.70567199999999"
"ChIJl5sHE5RuHDoRm15Qhl-DYrQ","Hindustan Petroleum Corporation Limited","Ground Floor Champo, Bagudi Road, Angula","21.318117","86.6772419"
"ChIJNbT1Pti7uzsRACVI4YoXfrw","IndianOil - SWAGAT","Bahanaga","21.3311845","86.7437688"
"ChIJC11cKPRlHDoRvgHnlR0OYUM","Adirupa Filling Station Iocl Dealer.","8PJV+5VV, National Highway 16, Keshapur","21.33048399999999","86.74468739999999"
"ChIJnc-Z0jtvHDoRUISRzHDi1dM","Manmath filling station","Mahisasuri soro santragadia, road, Soro","21.3476635","86.70248269999999"
"ChIJkXXHxKRvHDoRaRi-3Ts6o5o","Jena Shop","Jena Veraity Store, Collage Road, Soro","21.284823","86.6723512"
"ChIJJ83PsuZvHDoRdpFBv2FXX_w","Hindustan Petroleum Corporation Limited","Ground Floor, Brahmana Sahi, near Soro, Collage Chowk, Soro","21.2863525","86.6687772"
"ChIJ4bb72q5zHDoR0VW-9ETnVHw","Minz Fuel station Bharat Petroleum - Petrol Pump","Jamujhadi","21.1949388","86.6265952"
"ChIJKa8zeQBzHDoRc9tSKaX3KyM","Nayara Petrol Pump Jasmine Filling Station","5MR2+P6Q, Basudevpur - Balasore Road, Sunguda","21.191835","86.65060079999999"
"ChIJuxJt9g1zHDoRbSXO7U3rPqM","Indian Oil Petrol Pump - Sambit jyoti Highway Service","NH16, Kaniari, Markona","21.1915904","86.6180995"
"ChIJdYGtEj4KHDoR5qUAJWfyl7M","Hindustan Petroleum Corporation Limited","Ground Floor, Charampa","21.0833596","86.5154372"
"ChIJ49ZCAQALHDoR-2RIIDJf1fs","CNG bhubaneshwa pump","4G8V+JJP, Chennai - Kolkata Highway, Tisalpur","21.1165958","86.5440806"
"ChIJh6ZUxdwLHDoRbBetTbnjT-M","Kabi Oils","1000, Kabi Chunti Road, Bhadrak","21.0836478","86.5232802"
"ChIJkd-kOZMLHDoRgBYGjPf1NF0","Subh Oils","Subh Oils Parsinga, 123, Bhadrak","21.0817387","86.5253079"
"ChIJH0PzAwALHDoR0NdcL7KotLI","Sharma Engeneering Work Shop","3GP8+3R2, National Highway 316A, Charampa","21.0851686","86.5169451"
"ChIJf4DLAs35GzoRBEW_6YGbev4","IndianOil","Ground Floor, Dhamnagar Chak, Bahudarada","20.982488","86.409504"
"ChIJIaQ-UoD3GzoRZLd1Ic5Y7X4","Hindustan Petroleum Corporation Limited","Ground Floor, NH 16, Rajendrapur","20.996931","86.42799099999999"
"ChIJxQOxPQD3GzoRSAH3ljGsoIg","Ahalya Energy Station","Bahudarada","20.998432","86.43158"
"ChIJdYYUMgD3GzoRvLCMlJJBOJM","Indian Oil, Bahudarada","XCXJ+GJ7, Barapadi","20.9987957","86.43155329999999"
"ChIJV2-EOZ77GzoRfJ32D_Qe9mQ","Shyam Sundar filling station","Bhadrak","20.9595191","86.41758399999999"
"ChIJj6sZgwn5GzoRLmytD0qBx_4","Hindustan Petroleum Corporation Limited","Bhandari Pokhari, Ground Floor NH 18, Bhadrak","20.9652259","86.3869608"
"ChIJ18J9OwT5GzoRNDCqMnfMMlo","Shreye Sadhya Highway Fuels HPCL","National Highway 16, Bhandari Pokhari","20.9653516","86.386797"
"ChIJr5jqRfv5GzoRnd0gVfA3Oj8","Saina Services - Nayara Energy Limited","Barikpur to Kenduapada Road (MDR-8B ChakaChinamali ,Kenduapada,Barikpur Bazar","21.0208092","86.3918791"
"ChIJoTD-9T39GzoR7ZC5bwJvigs","Basudev Ksk","1138, Sathipur","20.9326428","86.2575584"
"ChIJfZ02rbVXGToRxNtUZEWcq1g","Bharat Petroleum, Petrol Pump -cng Prasanta Filling Station","SATHIPUR, Jajpur","20.9237578","86.2490299"
"ChIJYV0uHwBXGToR1ytK975tfwQ","IndianOil","W6FX+727, Balipasi","20.9241682","86.24818139999999"
"ChIJXbpnrtFZGToRI_5HU6aHMik","Hindustan Petroleum Corporation Limited","Ground Floor Kuakhia, Madhuban Road, Kolathala","20.82194209999999","86.18746329999999"
"ChIJk4T1fahZGToRSaT0pNvHa7w","Hindustan Petroleum Corporation Limited","Ground Floor, Kuakhia - Sarifabad, Rasalpur, Sarangapur","20.816481","86.206071"
"ChIJQTZrwvRXGToR-zOOh9hct2k","Best Recharge","V6X9 J35, Soti","20.8988221","86.2183414"
"ChIJ6SusKgBZGToRgtjtaupPyJY","Shree Gopal Filling Station - Nayara Energy","R676+V5M, Bari - Jajpur Highway, Baransa","20.8147046","86.2104172"
"ChIJpY1Ac31bGToRVGgevcKRsPg","IndianOil","Ground Floor Gangadharpur, Jarakaps, Dharmasala, Jaraka","20.7653305","86.1264396"
"ChIJJYcsvNFbGToR14Xgw_o0HiI","PRIYABRATA ROUT","Shop No 1, Jaraka","20.7651855","86.1621217"
"ChIJRyN9KfZbGToR3XPPBJ6AbrY","IndianOil","Ground Floor Badamangalpur, Dharmasala, Areikana","20.7651693","86.16222239999999"
"ChIJtZO_haFbGToRdPHNi55uW08","SANJIBANI PHARMA &FUELS","Kaima, Jaraka","20.7650015","86.1632399"
"ChIJq_xp93JcGToR8Q-_h_85YAs","Hindustan Petroleum Corporation Limited","Ground Floor, Dharmasala","20.7550302","86.1524342"
"ChIJLxDffCFbGToRG3MgvjCDN5U","Bharat Petroleum, Petrol Pump -P C R Filling Station","JARAKA-JAJPUR, JAJPUR","20.765241","86.13481259999999"
"ChIJSTwp2gdcGToR-5umZM3ELyQ","Hindustan Petroleum Corporation Limited","near Kaima, Ground Floor Dharamsala, near Kaima, Santi Bazar, Digambarpur","20.7610599","86.1679061"
"ChIJTbKINWRdGToRRyy7nRssCFM","Reliance Petroleum","NH-5, IN FRONT OF SADBHAV CONSTRUCTION, POST OFFICE DHARMASALA, DISTRICT:, Chandikhol","20.7526123","86.1506473"
"ChIJARqAGgBdGToR3INlgESnsXU","Jaraka","Q522+W8R, Sankaridiha","20.752395","86.150847"
"ChIJW-R28W1cGToRLlUGG3tnDmk","Jio-bp","Ground Floor Nh 5, Dharmasala, Shankharidiha, Infront Of Sadbhav Construction","20.75222219999999","86.1502086"
"ChIJ5Q3YBmxcGToRMLwnbzsCogI","IndianOil","Rathia, Haridaspur","20.7472511","86.1499111"
"ChIJXzJc8ZFfGToR5qRKBaxNCdI","Bharat Petroleum Petrol Pump , MAMALI FILLING STATION","AT & P.O. KAIMAP.S, Dharmasala","20.75462","86.18009300000001"
"ChIJ8awc9G1dGToRJbmA2OlaGZQ","IndianOil","Ground Floor, Subhadrapur","20.8020089","86.1654018"
"ChIJDS2vJtBbGToR2w6ngrxmOaI","IndianOil","Lock No Ig 197 104, 2 Sets, Kuakhia, Durgapur","20.8025296","86.1653086"
"ChIJFV6fT2FdGToRBNlpYy5Af9E","Bharat petrol pump with CNG","Badshahi Road, Dharmasala","20.7401212","86.1457434"
"ChIJt7q6r-5dGToRiT5N3YSNiVo","NAYARA Premium Pump - Omm Maa Bhubaneswari Fuels","Premium Pump ⛽, NH-16, Chennai - Kolkata Highway, Saroi, Neulpur","20.7353974","86.14373839999999"
"ChIJT4LRHdZbGToR4_P0swlZjTQ","IndianOil","Ground Floor Prathamkhand, Areikana","20.8058947","86.175488"
"ChIJO1HSXmVdGToRqgqp9vuAwJU","IndianOil","Ground Floor, Saroi,Arakhpur, Dhanmandal","20.7331335","86.1417891"
"ChIJfXpBZ-1nGToRn-E9KdyrsBE","Bharat Petroleum, Petrol Pump -Dolphin Petroleum","MANGULI BADCHANA- NH5 - CU, JAJPUR","20.6561076","86.1129028"
"ChIJ0W-Lno5nGToRKt4ZYDuksGs","IndianOil - SWAGAT","Ground Floor, Chakdeulkur, Badachana, Deulkur","20.661067","86.11940799999999"
"ChIJ1YKPLd1nGToRxnRkj6IGMt8","IndianOil","Inayat, Lock No Ig 185 102, 1 Set NH 5, Ngr, Bandala, Chhatia","20.6371125","86.09360629999999"
"ChIJuxjzkCRdGToRmh0TQ1DzMVA","Hindustan Petroleum Corporation Limited","Khata No 46, NH 16, Plot No 661, Bharchhan","20.673542","86.130195"
"ChIJD6lqiJ5pGToRm4REgEHuAmQ","Hindustan Petroleum Corporation Limited","Ground Floor NH 5, Bandalo Road, Chhatia","20.6230811","86.0795886"
"ChIJISraetptGToR9XEHV-yuXnc","Hindustan Petroleum Corporation Limited","Ground Floor, NH 16, Cuttack Chandikhol Road, Kairapari","20.5512697","85.98549589999999"
"ChIJzQJggWxsGToR_JmDUdm0bkw","Hindustan Petroleum Corporation Limited","Ground Floor Kairapari, Tangi","20.553071","85.989511"
"ChIJaRwAFQBtGToRBBoA0T4_rb0","GAIL CNG FILLING STATION","HX3Q+8WJ, Kairapari","20.553335","85.9897535"
"ChIJ8dvP0Q9sGToRkPDtwIFSaBU","IBP Petroleum Petrol Bunk","Eluru By pass Road 2, Tangi","20.5596757","85.9998447"
"ChIJtbzHOYlrGToRbFq7FWw34nw","Petrol Pump","Haduotta","20.5756875","85.9851875"
"ChIJhcOeCABtGToRnyRWdnL_D5Q","Basudev Filling Center","Nakhara, Chaudwar","20.5603949","85.9497118"
"ChIJF2AfYjZtGToRjowh0JHmq98","Maa Tarini Filling station","Nakhara","20.5600344","85.9494959"
"ChIJKTnUEFltGToRDcdsVscda-M","Hanuman Filling Station","Cuttack","20.5301875","85.9490625"
"ChIJ5TBJBydtGToR6MXxgMU27oI","Mirza Roadlines Room no-8","Chandi Filling station manguli","20.5338177","85.9406745"
"ChIJO75sz2UNGToRZ9fPPSaxxz0","Bharat Petroleum Petrol Station","FW74+93H, Gandarpur, Cuttack","20.4638534","85.9040083"
"ChIJ-0ez42ENGToRCpN5NDlvkmI","Hindustan Petroleum","Sikharpur, Near Gurudwara, NH 5, Sikharpur, Cuttack","20.4733373","85.90569510000002"
"ChIJhfuUNGENGToRyjl4ZfjfqLY","Essar Petrol Pump","Gandarpur, Cuttack","20.4673634","85.9067891"
"ChIJmR0ktoMNGToRMrmDqbSFhNo","Hardhik & co. (Bharat Petroleum Petrol Pump)","FV8P+6MR, Bajrakabati Road, Samanta Sahi, Siba Bazar, Cuttack","20.4656149","85.88663009999999"
"ChIJpakVAnkSGToR_R22wwnsNd8","Hindustan Petroleum Corporation Limited","Ground Floor, Maachhua Bazar, Cuttack","20.4760651","85.8822457"
"ChIJUd1_bJ8NGToR6GclmOflPQk","IndianOil","Lock, 11004, Ring Road, Khan Nagar, Arunodaya Colony, Cuttack","20.450931","85.886337"
"ChIJi1TNRbgSGToRSnsWKgX03ZM","IndianOil","Lock, 12001, NH 5, A D Market, Jagatpur","20.4967377","85.9216976"
"ChIJZUTZ1fINGToRll1JI_GP5kY","IndianOil","Ground Floor, Choudhury Bazar, Cuttack","20.4634686","85.86831450000001"
"ChIJnxOCkQsSGToRQXWmYSHKNLM","IndianOil","Mission Road, Buxi Bazaar, Cuttack","20.4775299","85.86546539999999"
"ChIJNb8OEKoNGToRHKW5VYr47PU","IndianOil","Ground Floor, Bajrakabari Road, Srikoruan, Urali","20.43119","85.8902367"
"ChIJS-OJzWYNGToRMzDwvE24vr0","NAYARA","India","20.4673494","85.9068125"
"ChIJGUID1mYNGToRu8CXiDNr6yU","TRUPTI MARUTI SERVICE STATION","India","20.4672039","85.9074363"
"ChIJNwUBIwANGToRggVQpyqfkBI","BPCL NRO sikharpur","FW88+84Q, kanheipur","20.4658397","85.9153484"
"ChIJ0VSyfUsNGToRFk8vDEAunAM","Hindustan Petroleum Corporation Limited","Ground Floor, College Square, Cuttack","20.4661437","85.8966566"
"ChIJm2-kvm4NGToRACMO8jEiOXk","OMP Petrol Bunk","Cuttack - Paradeep Road, Cuttack","20.4567854","85.9038806"
"ChIJ7RNsVnANGToRAHB9zo0pGwM","JAGANATH OIL","India","20.4588955","85.8973221"
"ChIJmZNVMr0NGToRxx4jm1B6kpU","IndianOil","Lock No 21007, Naya Bazaar, Cuttack","20.454592","85.910934"
"ChIJLW_Mnu8NGToRSMhUAeM6by4","Jay Jagannath Store","FW48+HWV, near SBI Atm, Naya Bazaar, Cuttack","20.4564989","85.91728499999999"
"ChIJc1p0olUTGToRGajQQpTcxb0","Jk Pvt Ltd","Behera Colony, Professors Colony, Cuttack","20.4740959","85.88962629999999"
"ChIJFxS7NoMNGToRxaNVE0M_O9k","Hindustan Petroleum Corporation Limited","Ground Floor, Mahatab Road, Cuttack","20.461701","85.8860701"
"ChIJbfQcYRAKGToRA-bN67qZpd8","IndianOil","Lock No 21018 Mancheswar, Rasulgarh, Bhubaneswar","20.296764","85.85999199999999"
"ChIJI_kJaRILGToRc5bx_H18Nno","Hindustan Petroleum Corporation Limited","Ground Floor, Nakhara, Phulnakhara","20.3503951","85.9008729"
"ChIJG8188tcKGToRk2te2P44sQk","IndianOil","Ground Floor, Panchabati Bazar Jagannathpur, Jayarsasan, Balianta, Bhubaneswar","20.329908","85.921021"
"ChIJT-iRl3egGToRerVssFZ01Lc","Bharat Petroleum, Petrol Pump -Ray Fuel Point","Balianta, KHORDHA","20.2811965","85.90062569999999"
"ChIJnwsCaqwLGToRySxlp6RXvbs","Hindustan Petroleum Corporation Limited","Ground Floor, NH 5, Pahala","20.3343071","85.8832733"
"ChIJJ4kDYj4KGToRlc1SUL12BDM","Shanaya Gas","8V57+HXV, Murali Marg, Satya Vihar, Rasulgarh, Bhubaneswar","20.3089989","85.8649172"
"ChIJBWVRXQALGToRLlavcz0ufME","Maa narayani gas store","8VVP+CVJ, Pahala","20.343587","85.8871396"
"ChIJHwdAzqYLGToRoYn8HYa9rrM","Hindustan Petroleum Corporation Limited","Ground Floor, Phulnakhara","20.3475301","85.88659"
"ChIJZTMkeSQKGToRROJL8a-Dtyg","Laxmi Gas Filling","India","20.3120046","85.85593039999999"
"ChIJt1ci3xAKGToRWNMU9cCL3Pk","ଜଗା ବଳିଆ ଚା ପାନ ଦୋକାନ","7VX6+GGM, Cuttack Road, Sector A, Mancheswar Industrial Estate, Bhubaneswar","20.2988271","85.8612878"
"ChIJCfBxVjgLGToR3gueH3B62tE","Bharat Petroleum, Petrol Pump -S K Rahaman & S F Rahaman","BHUBANESWAR","20.29790269999999","85.86033189999999"
"ChIJvVqPfAALGToRWfSdqC9cGag","Biswaswar fuling station","9V3Q+PVC, Bhubaneswar","20.3543071","85.88964879999999"
"ChIJPR9FVXULGToRwGWROvwc1qE","IndianOil","Ground Floor, Infront of Harley Davidson Showroom, National Highway 16, Balianta, Pahala","20.354823","85.889411"
"ChIJsc_pUx8LGToRyas2S75kB4w","Maa Magala Aquarium Shops","Maa Mangla aquarium Shops, Dalanai bazer Dalanai Bazer, Puri","20.2978687","85.8522028"
"ChIJt1Vv90YLGToR3bNmvQJIORw","Lic Premium Point","Plot No. 1069, East Canal Road, Bomikhal, Rasulgarh, Bhubaneswar","20.2895319","85.861526"
"ChIJ1UNAAYELGToR1l9jtvIP3w4","Fule Pump","9V6Q+RR4, Nakhara 25, Cuttack","20.3620186","85.889568"
"ChIJQ3T08r0LGToRH3knph8IwEI","GAS POINT","2972, near Shibani Enclave, Dayanandnagar, West Canal Road, Bomikhal, Jharapada, Bhubaneswar","20.28559719999999","85.86117019999999"
"ChIJn7sXbcsJGToRkp80lWPjdw4","Exal Life Style Pvt Ltd","8R3Q+HVM, Utkal Univarsity, Vani Vihar, Bhubaneswar","20.3039745","85.8396655"
"ChIJazvmfZGnGToRdFCkR3KP9ec","IndianOil","National Highway 16, Baramunda, Bhubaneswar","20.26515","85.79245759999999"
"ChIJhdmuyIanGToR4J2lmZgnF3Q","Hindustan Petroleum Corporation Limited","Ground Floor, Fire Station Road, Paika Nagar, Baramunda, Bhubaneswar","20.276661","85.801921"
"ChIJF554g9enGToRncGUqGCz-Is","IndianOil","National Highway 16, Patrapada, Bhubaneswar","20.2435987","85.76889949999999"
"ChIJY6NTFtEJGToRgBXeV_7N5oA","Bharat Petroleum: Krishna Filling Station","in front of ISKON Temple, 1060, NH 5, Nayapalli, Bhubaneswar","20.2885914","85.81452449999999"
"ChIJQzaM6EOnGToR2dZTyI793Ac","IndianOil","No IG193, Lock, 2, Unit 1, Bapuji Nagar, Bhubaneswar","20.264434","85.832234"
"ChIJH-DBn0anGToRwrNzwE-iK6I","Bharat Petroleum - Rajdhani Service Station","4, Raj Path, Unit-2, Ashok Nagar, Bhubaneswar","20.2636743","85.8345859"
"ChIJgxb0aN4JGToR9eqoDynWyUs","IndianOil","Lock No IG3784, Jayadev Vihar, Bhubaneswar","20.2860267","85.8264524"
"ChIJF4CpaG-nGToRfc3x3KlLu5Y","Bharat Petroleum, Petrol Pump-Khandagiri fuel station","Bhubaneswar","20.2549707","85.78732289999999"
"ChIJzZeezU2nGToR1PbFYPXWivg","CNG Gas station, GAIL","6QWJ+MH6, Shreekhetra Vihar, Khandagiri, Bhubaneswar","20.2466552","85.781466"
"ChIJyQfe9OynGToReYrwXSCJ5jQ","IndianOil","Ground Floor, Jagamara, Bhubaneswar","20.267427","85.801253"
"ChIJX3bU1_OnGToRQF-7F2ovH5c","IndianOil","Ghatikia, Khandagiri, Bhubaneswar","20.272111","85.782111"
"ChIJyywFhh6nGToRofRF1lZ6-D8","My Fuel","Maa Kali Building, Petrol Pump, Ghatikia, Bhubaneswar","20.2706351","85.77731080000001"
"ChIJ41yEqJynGToRCcibrlr4XnE","Petrol Station BP","82, University Agriculture Farm Road, Soubhagya Nagar, Baramunda, Bhubaneswar","20.268196","85.8027254"
"ChIJx8mvZWWnGToRvvTE8vOT-Jo","IndianOil","Lock No 23008, NH 5, 10/2, Aiginia, Kuber Puri, Bhubaneswar","20.2452","85.7787"
"ChIJUyc9osanGToR2fizalKDQec","Karan Mobile","Bus Stand, 136, RBI Colony, Baramunda, Bhubaneswar","20.2751885","85.7908999"
"ChIJsU1XBgCnGToRaZk8W56A_5M","Sumeet Security Service","7RC3+5QP, Lane 4, Satabdi Nagar, Baramunda, Bhubaneswar","20.2704544","85.8044547"
"ChIJjfC4-oinGToRxQmLuLdwBZY","Hindustan Petroleum Corporation Limited","Ground Floor, Baramunda, Bhubaneswar","20.2769701","85.7954201"
"ChIJWQuvVQCnGToRnXjZCyBbzN4","Kk","7QHV+GWM, Baramunda, Bhubaneswar","20.2788292","85.7947875"
"ChIJk-j6SXenGToRm2LNz_bY6pk","Sahoo babu","L-197, Bhubaneswar","20.2805591","85.796087"
"ChIJL02ZUrinGToRX7qtsSs5gBc","CNG FILLING GAIL POKHARIPUT","Pokhariput Main Road, Pokhariput, Bhubaneswar","20.2438207","85.80991949999999"
"ChIJfSKpypGrGToRlZNMN56Kdrs","Bharat Petroleum Kasi Motors","Kanjiama","20.1954634","85.6562762"
"ChIJUZMIfV6rGToRNmVGiotPxuo","Bharat Petroleum, Petrol Pump -Kasi Motor Service Station","KHURDA, Khordha","20.1865903","85.6204834"
"ChIJNU964WCpGToRnibaMNXXrPs","Hindustan Petroleum Corporation Limited","Ground Floor, Rajpath, Bhatakuri","20.2094501","85.6881401"
"ChIJLTCLypqrGToRefo9C-wqLXw","BPCL Petrol Pump - Bhagabati Highway Service Station, Khordha","National Highway 16, Pitapalli","20.1941","85.6524"
"ChIJZ3IzoJqrGToRgwfNvPQ-pH0","Hindustan Petroleum Corporation Limited","Ground Floor, Bypass Road, Khordha","20.1953801","85.6536101"
"ChIJO8gQOZCrGToRpR1e6JTD8gI","SHREE JAGANNATH OIL","5MW4+455, Khurdha Bypass Road, Khordha","20.1952523","85.65547049999999"
"ChIJGZefVGOrGToRnFvRQZwPjmA","IndianOil","Ground Floor, Main Road, Mukundaprasad, Bagheitangi","20.1872332","85.6331471"
"ChIJt-H4Q4GsGToRlVS49bUjz-k","RASUDEV OIL","India","20.1768996","85.63928609999999"
"ChIJ86mhYR-tGToRvpiSB8fyNlI","Jio-bp","Plot No, 31/A, National Highway 16, Industrial Area, Mukundaprasad, Khordha","20.176364","85.640126"
"ChIJ5wrL8WerGToRo_fj_RNyKT4","Binod Bihari KSK","5JRF+WC6, Gurujanga, Khordha","20.1922752","85.6235066"
"ChIJyyAzO2qrGToRTu8Ldp2zchU","NISAMANI TRADERS","5JXF+XVC, Gurujanga - Kumbharbasta Road, Gurujanga, Khordha","20.1999344","85.624646"
"ChIJ2dPm8GerGToRYsEfClFYKAg","IndianOil","Ground Floor Gurujang, Bagheitangi","20.192001","85.6233767"
"ChIJ0SImCgCtGToRzXfPBYGQlBQ","PRAYAGA AGENCY","5MFC+HH7, Jatni - Pipili Road, Pipili","20.1739134","85.6714179"
"ChIJMVLuJuKtGToR2EzHmRp2JIU","IndianOil","near Gada Khordha, Ground Floor Nh 16, Jagannathpur, near Gada Khordha, Chaka, Khordha","20.17291999999999","85.62761499999999"
"ChIJJ7YNMgCrGToRqLpZQrYF6To","Nayara Energy -Gini Trading","5JQ5+FPC, New Medical Road, Khordha","20.1888082","85.60971550000001"
"ChIJ0SCZr02rGToRYlrJJvtrhIk","Sahil","Farang","20.2239546","85.6722219"
"ChIJNbRJTUStGToRivm3MzVdMqQ","IndianOil","Ground Floor, Sanapalla, Kalyanpur","20.17827639999999","85.61090220000001"
"ChIJt_oVOwCpGToR8LRhuuGDBXk","BPC bunk truck parking","6M5Q+22R, Odisha Mouza - Bhatakhuri, Gangapada","20.2076156","85.68752719999999"
"ChIJZwvBo9ipGToRUTMcEbyhqS8","AROHI ENTERPRISES","Odisha Mouza - Bhatakhuri, Gangapada","20.2080549","85.6874361"
"ChIJ98xz82CpGToRYL9f35-2oFk","Petroleum","India","20.2083168","85.6875295"
"ChIJ7SzC49ysGToRt2fKiBmOWl4","IndianOil","Khata No 95/77, Plot No 311 Shialiapatna, Khordha, Bangida","20.142987","85.619925"
"ChIJC5pWp5dTGDoRnCR1App0Dhs","Khurdha","4HCH+RJ8, Dadhimachhagadia","20.1219986","85.5792051"
"ChIJ-f9adyBTGDoRCir1hQ2sLBM","Hindustan Petroleum Corporation Limited","Ground Floor, NH 16, Dadhimachhagadia","20.12217069999999","85.5787826"
"ChIJ9XeE0-dSGDoRSJmbcbTrArg","IndianOil","Ground Floor, Kuradhamalla","20.1212898","85.57933829999999"
"ChIJYb6f0-dSGDoRJPSz2sEZuSE","Inland","India","20.1212541","85.5793856"
"ChIJeww5LilTGDoRu0QexGXMYOg","Hindustan Petroleum Corporation Limited","Ground Floor, NH 15, Dalaiput","20.138656","85.59473899999999"
"ChIJj7KrPZ9TGDoRdZugJ-SfZvI","IndianOil","Ground Floor Deulatangi, Dadhimachhagadia","20.13751169999999","85.56073669999999"
"ChIJkY-_hR2tGToRzmOAbvP_m7A","HIGHWAY FILLING STATION","5J23+H53, near Madina Dhaba, Daleiput Road, Dalaiput","20.1513875","85.60291989999999"
"ChIJB1L9UcusGToRQKOtrbxo_vI","Bharat Petroleum","India","20.1518338","85.60272479999999"
"ChIJm69teQBTGDoRWcm7MipiqgE","DEF adblue यूरिया पम्प","3HV9+VRX, Katikata - Jaipur Road, Kiajhari","20.0945878","85.5693823"
"ChIJUYSyQMusGToRgyhhuHErQ5o","THE ORIGINAL ENGINE OIL","India","20.1540474","85.60399129999999"
"ChIJoycRHTFTGDoRnD78RWXbFTU","IndianOil","Ground Floor, NH 16, Malipada","20.0892518","85.56622329999999"
"ChIJ3WYxQL6tGToRasccynqB7uc","Meghdoot filling station (Indian Oil)","near Ex Military kitchen, National Highway 16, Palla","20.1597904","85.60754070000002"
"ChIJE0YROqNTGDoRhDP-hoY5G08","Hindustan Petroleum Corporation Limited","Ground Floor, near AAA School Road, Khordha","20.169651","85.582386"
"ChIJ8Z4Yg89NGDoRF37LS7wmCBQ","Bharat Petroleum Annapurna Filling Station","2GXM+337, National Highway 16, Kalibati","20.0476647","85.5326566"
"ChIJQePyUZBOGDoRjmdZQ5tFHu8","IndianOil","Ground Floor Birakesharpur, Jankia, Chouk, Rameswar","20.02153","85.50754669999999"
"ChIJkbYSE-JPGDoRfTMmxGFfYF8","Hindustan Petroleum Corporation Limited","Ground Floor, Hanumantpur, Jankia","20.0466083","85.4969083"
"ChIJ-fo7MABPGDoRNLsb4QzwnEE","Maa Ugratara DPS Filling Station- Nayara","2G82+GVQ, Bagheiput","20.0163264","85.5022231"
"ChIJAUrK-hlMGDoRrf6QW95RNos","Samantaray filling station","Padmapur U.P School, Nua Jagannath Sadak, Nirakarpur","20.0073741","85.5297691"
"ChIJC0DpMEVOGDoRfBvVrUJzUyc","HP Petrol Pump","At/po Olosingh Hanumathpur, PS: Jankia Dist:, Bhubaneshwar","20.0479671","85.49225539999999"
"ChIJ7-VnYMtNGDoRVmH6ipEipJ4","Bharat Petroleum, Petrol Pump -Annapurna Filling Station","NH5-JANKIA-KHURDA, Khordha","20.0594689","85.54784459999999"
"ChIJa995Mw5NGDoR_AfHnQl02E8","IndianOil","Ground Floor, NH 16, Jankia","20.0667537","85.5497615"
"ChIJHTAzlNxOGDoRGkVcOdgJyq8","Bharat Petroleum","India","20.0067426","85.4876049"
"ChIJHeDYoJxPGDoRXEcUoef5xpM","GAIL CNG Kuber Filling Station","2F4Q+M2H, Katikata - Jaipur Road, Ratamati","20.0066785","85.48761789999999"
"ChIJBWAVLAxHGDoRY3s7q8H3plE","IndianOil","Ground Floor, Tangi","19.9189737","85.3878015"
"ChIJQYR6I0xHGDoRZul9_Q_Z2vU","IndianOil","Ground Floor, Kandhanayagarh","19.9548976","85.4021942"
"ChIJC5pE86dHGDoRAAAAMPIPv2g","RAGHUNATH FUEL POINT","W9FW+RMR, Tangi","19.924608","85.3966464"
"ChIJ0TydT65JGDoRAwRDfBXaH0Y","IndianOil","Ground Floor, Road, Sundarpur, Mangalajodi","19.93364279999999","85.4490235"
"ChIJ1_247OoVGDoR0naMcvd4U_o","Prabhukrupa Fuels ksk","Q6VR+JMP, Old Asian Highway 45, Gamei","19.79409979999999","85.24170819999999"
"ChIJGUXZy8gVGDoR-J6HJB15kHs","IndianOil","Plot No 1237, Khata No 578/159, Brahmanakusadihi, Balugaon, Ankulachati","19.7949488","85.2428139"
"ChIJ1WpQ090WGDoREVE2ouzJoik","Bharat Petroleum D. Ramamurty. Patra & Sons","Main Road, Balugaon","19.7492704","85.2076546"
"ChIJc-lZLNwWGDoRQoSHwOtDFFQ","Hindustan Petroleum Corporation Limited","Ground Floor, NH 5, Balugaon","19.74923009999999","85.20700099999999"
"ChIJb09FRD0XGDoRReHYKFUlE_I","Shree Krishna filling station","P6X4+4M2, Balugaon","19.7477665","85.2066373"
"ChIJBepc55QXGDoR-segc8AzCd8","HP Gas Office","4r, Bidyadharpur Road, Bidyadharpur, Cuttack","19.74638299999999","85.2072372"
"ChIJndxii7QTGDoRrbW6vM4NaVw","Dilip Kumar Das","Pretol Pump, Banapur","19.78643","85.1751938"
"ChIJoyA12lgRGDoRmDmkcGoJX64","Banapur Petrol Pump","Q5MF+GGJ, Pandiripadar, Banapur","19.7870073","85.1746634"
"ChIJ0zFxUhgVGDoR-ef3I4KCRSw","IndianOil","Ground Floor, Near Solari Dhaba, Bypass, Balugaon","19.800424","85.245841"
"ChIJEcniGQARGDoRvu3_8bmuhpc","Annu","Indian oil petrol pump, Banapur","19.7800296","85.1696971"
"ChIJGep_O4cRGDoR7oU33h_axfE","Lingeswar special chaat","petrol pump, Banapur","19.7800296","85.1696971"
"ChIJ955u-esRGDoRBhKJIuCeOyY","IndianOil","NH 16, Balugaon","19.7458124","85.1835294"
"ChIJAQAAABsaGDoRZgjJasG6Zqk","IndianOil","Ground Floor, Narayani Road, Chhak, Aitipur","19.68017099999999","85.173885"
"ChIJI7o-IuIbGDoRNFocC24wjdI","BHAGIRATHI MOBILITY STATION","RELIANCE PETROL PUMP, PATHARAKATA, PLOT NO 862/1690, PLOT NO 862/1689 KHALIKOT, LANGALESWAR, KESHPUR, DIST, Khallikot","19.6729948","85.16821639999999"
"ChIJlx2Mc_sbGDoRD4ByrzBVRWk","Jio-bp","Ground Floor, Patharakata","19.6730582","85.1679035"
"ChIJZYqKWrAFGDoRxCK-BvVMxUE","Lingraj Fuels-Nayara Energy","in front of Exercise office, Keshpur Road, Khallikot","19.6076181","85.1060528"
"ChIJo6fxQhUbGDoRhmMGA3dEWZ4","IndianOil","Ground Floor, Keshpur","19.6237972","85.1286013"
"ChIJqeJbOgADGDoRp9URWimrHk8","Ramadevi Filling Satation - Nayara Energy","H38V+RVQ, Khallikot","19.5670781","85.0947477"
"ChIJqZCH5J35FzoR4W782a14c_k","IndianOil","Ground Floor, Rambha","19.43040839999999","85.07053909999999"
"ChIJSQ7YYjn7FzoRMBrX5PMP_kM","IndianOil","Ground Floor Nh 16, Pallibandha","19.39451","85.065968"
"ChIJFRBSXxf5FzoRhMeHWDemlWc","Omkar Dinbandhu Filling Station","F35J+4F, NH16, Subalaya","19.4578125","85.0811875"
"ChIJcQPzfwb9FzoRGxMI_R9mTeQ","IndianOil","Ground Floor NH 5, Chhatrapur, Agasti Nuagam","19.3507367","84.9738783"
"ChIJ26iMhwb9FzoRSWvd1EYrREU","OMM OILS","9X2F+HHX, Service Road, Chatrapur","19.3514986","84.9739735"
"ChIJKQjHU3L9FzoR6Ghw7TMo6bo","Bharat Petroleum, Petrol Pump -Maa Adishakti Filling Station","NH-5,GANJAM Dist., Chatrapur","19.3471","84.9580016"
"ChIJhd263xr9FzoRXsP5TAzmkLM","Bharat Petroleum, Petrol Pump -Orissa Pisciculture Dev. Corpn. Ltd","HIGH SCHOOL SQ., CHATRAP, Ganjam","19.3520376","84.9851162"
"ChIJ5ah3gc_9FzoR06_4jEa8yNE","IndianOil","Ground Floor NH 16, Humuri, Chatrapur, Agastinuagam","19.364285","85.00769199999999"
"ChIJwUBTzEVXPToR4aAMiFf8GWc","IndianOil","Ground Floor, Narendrapur, Jaganathpur","19.3231993","84.868123"
"ChIJ8Tbnz0VXPToRTeRj4NMUtCM","Bharat Petroleum, CNG & Petrol Pump -Bhambra Highway Service Station","BERHAMPUR, GANJAM","19.3235139","84.8692829"
"ChIJxbMNhahQPToR6V0Lh7xOckg","IndianOil","Ground Floor Gopalpur Jn, Badakusasthali, Berhampur","19.309402","84.84700149999999"
"ChIJ-THkyOFXPToR858_4A5II8Q","M/s Pankaj Filling Station","NH 16, Jagannathpur Pukudibanha Junction","19.3219067","84.86512809999999"
"ChIJvYpquOFRPToRu0oGw8f0Yn8","TULASI FILLING STATION NAYARA","8V74+V9X, Dura Bahadurpetta","19.3142427","84.8550722"
"ChIJQwZ1eWxXPToRg52j8fQ_OKk","Reliance Petroleum","Narendrapur, Antarbatia","19.32719639999999","84.88329499999999"
"ChIJfTvaYwBRPToRW4bZMJz5740","Devika Filling Station - Nayara","8R7W+V29, Bima Nagar, Brahmapur","19.3146659","84.8451185"
"ChIJpZVzWmxXPToRVUj37pery8s","IndianOil","Ground Floor, Nh 5, Raghunathapur","19.32715","84.88468"
"ChIJYxugwt1ZPToRA6TQ2OnF3-k","IndianOil","Berhampur - Gopalpur Road, Dura Bahadurpetta","19.2983057","84.8671864"
"ChIJk57DksFXPToR_pAhEYcrJxI","Nayara petrol pump (Aditya Fuel Station)","in front of Tata colony, Narendrapur, Tata Colony, Brahmapur","19.3472461","84.8702843"
"ChIJHfZwKp9QPToROXo8glGZ3bI","IndianOil","Ground Floor, Khodasinghi, Ankuli, Brahmapur","19.31135829999999","84.8333017"
"ChIJkYzqUb1XPToRojlrIIcRiBo","Hindustan Petroleum Corporation Limited","Ground Floor, NH 5, Chamakhandi","19.3321536","84.9100654"
"ChIJdTGfwypFPToRAMm2yjJ3NHw","IndianOil","Ground Floor, Golanthara, Kanisi","19.25867629999999","84.77270949999999"
"ChIJeU06EWNDPToRIpFW1mEwAZU","IndianOil","Ground Floor, NH 5 Ganjam, Tamarapalli, Girisola","19.2043349","84.7437381"
"ChIJu4VTumRDPToRjFljufh4Cwk","TRINATH FILLING STATION NAYARA PETROL PUMP","6P2V+C6V, Brahmapur","19.20112109999999","84.74303689999999"
"ChIJUS7ro0dFPToR_c5Owe0eS6Y","Pandit service centre","6QV8+CC7, Unnamed Road, Konisi","19.2435253","84.76604189999999"
"ChIJTWfd481aPToRrdrO8lfhBeA","Hindustan Petroleum Corporation Limited","Ground Floor Haldiapadar, opposite Auto Nagar, Ralaba","19.2693589","84.7783091"
"ChIJlyZBrlZDPToR-N3-I6Nefvg","Prabha Filling Station","Golanthra Biswanathpur Road Haradanga Village Land mark, Bhairavi Temple Road, Brahmapur","19.1893686","84.7562123"
"ChIJr7Nf8-JDPToRizDOybjRjd8","Reliance Petroleum","in front of ROLLAND INSTITUTE OF ENGINEERING, NH-5, BHALIGARH","19.1956336","84.7346513"
"ChIJV2UCL31DPToRcUUE38stZUg","Jio-bp","Ground Floor, Valiagad, NH 5, Girisola","19.1953041","84.7342498"
"ChIJP101mndDPToRJuzC7ZpZt9o","Girisola Mini Depot","5PVM+WFV, Girisola","19.1948528","84.7336737"
"ChIJxdMClLZDPToRENlDfZZCsDA","Bharat Petrol Pump","5P87+PPF, Ganjam","19.1668031","84.7142891"
"ChIJKWXqtaNDPToR4qOIkw3_ryE","Bharat Petroleum Ghar COCO","Chennai - Kolkata Highway, Brahmapur","19.180514","84.724947"
"ChIJ___PDZ9DPToRzMBxefB4bBE","HPCL Coco Girisola","5PPH+799, BH 5, Girisola","19.1856704","84.7284876"
"ChIJLxlzEQBDPToRq3V_B1nfN_g","Shree Ram Nayara","4PM4+74, Suvani","19.133154","84.70525599999999"
"ChIJDZmEYDBDPToRhZPv-iZl0DE","Kamakshi Filling Station","Suvani","19.1315101","84.7051534"
"ChIJ_6r4fgBDPToR5AL5kO7uwco","Hindustan Petroleum Corporation Limited","Ground Floor, National Highway 16, Subhani","19.128281","84.703948"
"ChIJGSK5XwBDPToRvZBKzfdga6I","Shyam Sundar Highway Unit","NH16, R Subani","19.1272783","84.7043923"
"ChIJWUJoxlFDPToRbLyTGtppp0E","IndianOil","Ground Floor Kalabada, Chikiti Badapalanka","19.12697","84.705075"
"ChIJqefb8mRBPToRLU7Irjw90pI","Bharat Petroleum","4MFQ+J99, Ichapuram Main Road, Ichchapuram","19.1240288","84.6884821"
"ChIJeUhZ3MVDPToRcPVK8w_yeDM","IndianOil","Ground Floor, near Balangir Court, Chennai - Kolkata Highway, Balangir","19.1788954","84.7234525"
"ChIJ_QhjcqNDPToR79TGebXriz8","Samalai Filling Station Indian Oil Petrol Pump","Girisola, Ganjam, NH-5, Baharagora Chennai Highway, Berhampur, Brahmapur","19.179071","84.723117"
"ChIJuX1cvERBPToRoZIj4eoqxLU","SAPPA VAIKUNTA RAO","Railway Gate, Ichchapuram","19.1186803","84.6805311"
"ChIJ55NmNotDPToRMWiZpCTWVig","Bharat petroleum and restaurant","AH45","19.18092499999999","84.725205"
"ChIJ9UMM6KFDPToRAJ2PAsoKy4w","BPCL Petroleum Shakti filling station","Girisola","19.18332999999999","84.7275634"
"ChIJVx8m9klDPToRENbZRTqsdsM","Hindustan Petroleum Corporation Limited","Ground Floor, NH 16, Girisola","19.185941","84.728312"
"ChIJp4vuOgBBPToRNecN-CfKuSw","General store","4M9J+667, Ichapuram - Buddipeta Road, Ichchapuram","19.1180312","84.68054149999999"
"ChIJQ8tkzlNqPToRCKCmrAx1F4A","IndianOil","Ground Floor G Balarmpur, Dharmpur, Jarada","19.0683247","84.65538760000001"
"ChIJ4U3oVONTPDoRIyn5Ax_K_9Q","IndianOil","Ground Floor Nh 5, Kojjeria Junction, Mandal, Kaviti","19.0628798","84.6481818"
"ChIJQ13zFBBrPToRFesfdMxx2Nc","IndianOil - SWAGAT","Bus Stand, Lock No T1/69, Survey No 209/101112 Karapadu, near Ichchapuram, Srikakulam","19.0497001","84.63629999999999"
"ChIJqUmugt9rPToRHAqHRByE6L0","IndianOil","Ground Floor Ichapuram road, Karapadu Toll plaza, National Highway 16, Kaviti, Kojjiria","19.0680215","84.6482308"
"ChIJdTk6u51BPToRYpjd30QfpHg","IndianOil","Ground Floor, Srikakulam - Ichchapuram Highway, Ichapuram","19.0663618","84.65112839999999"
"ChIJ55wegCprPToR9H8I44FE96s","SHANTI FILLING STATION","Petrol Bunk, Jadupudi","19.0326485","84.6190891"
"ChIJm2aiAVprPToR7cQy9aJilvQ","Bharat Petrol Pump","2JH9+WJW, Asian Highway 45, Jadupudi","19.02985499999999","84.6190733"
"ChIJGyahBGZrPToR7dtdyaxAyLA","IndianOil","Ground Floor Jayantipur, Jarada, B, Patrapur","19.095291","84.617144"
"ChIJj-iSCD4TPToRP-jmcfPv3Jo","IndianOil","Lock No T2/256 Kanchili, Jadupudi","18.9843001","84.58590099999999"
"ChIJXwyi2J4TPToRLYjCX4n6d7I","IndianOil","Birusuwada, Chapara, S No211, 3P 2001, Sompeta","18.9564248","84.5786571"
"ChIJR-nxlaUTPToRxqxL-BIOrjA","SRI SAI LAKSHMI SURYA AGENCIES","Indian Oil, Sompeta","18.9561375","84.57889109999999"
"ChIJGxUCUdITPToRNSCpVanuFoo","Bharat Petroleum Sri Sai Rama Filling Station","S NO. 211.3KANCHILI - SOMPETA ROAD","18.9550232","84.58001399999999"
"ChIJgQDBPwATPToRDq4CIGgJ8y0","DEF AD BLUE (यूरिया)","near King fish restaurant, NH16, near King fish restaurant, Sompeta","18.949613","84.5655392"
"ChIJcVksCxYTPToR2uxhtzmXTrw","VBR Traders","WHWR+4F8, Sompeta","18.9452269","84.59152739999999"
"ChIJtf27xIgOPToRAALhQgm4DcY","IndianOil","Lock No T1/173 NH 5, Cheepi, Binnala","18.8645001","84.5098"
"ChIJdxCa6fkPPToRwXgwbeNplDY","SVN ENERGY STATION, Indian Oil petrol Pump outlet","Main road, to, Haripuram","18.8469249","84.51155589999999"
"ChIJh-yLgbUHPToRBpfG1t_1sZQ","IndianOil","Lock No, T1/167, Antharakudda, Kasibugga","18.7630173","84.4256367"
"ChIJU3VNRAAHPToREdO-zi3Z3U0","K V GOPAL&SONS FUELS","opp. Prajna Collage, Old NH5 Road, Kasibugga","18.7662216","84.43164829999999"
"ChIJF8EXetEHPToRpYnJt876iZs","ESSAR PETROL PUMP - KML Enterprises","near Ayyappa Swami Temple, Old NH5 Road, near Ayyappa Swami Temple, Kasibugga","18.7658216","84.4307712"
"ChIJNVPIsLUHPToR9sFbRAGKKk4","Petrol","QC5J+HV7, Poondi - Akkupalli - Kasibugga Road, Kasibugga","18.7589057","84.43215959999999"
"ChIJEf-A5UgGPToRvAV7ymsNDEs","Hindustan Petroleum Corporation Limited","Survey No 220, 4 to 6, Mogilipadu, Palasa","18.781441","84.41380099999999"
"ChIJTw3H7wwHPToRRS1jwsfZeDw","IndianOil","S No 60/2, Lock, T1/53, Goppili Road, Puroshottampuram, Palasa","18.7689001","84.417"
"ChIJ90wNfEwGPToRORguy4KQd7E","Nayara - Krishna Prasad Filling Station","seeta ram Nagar, G J College, near Palasa, Palasa","18.7751097","84.4116042"
"ChIJSSFXM4wHPToR5aQbFuW5HvA","SRI LAKSHMISUDHA PETRONILAYAM","Main Street, Kasibugga","18.759275","84.4208869"
"ChIJBby9LHwHPToR-Bh_6sSIzz0","Jayalakshmi Fillingstation Station Pump 5","Pundi Road, Palasa","18.7258127","84.3892046"
"ChIJg5R9etgHPToRHUBrkJJ8aFo","Jayalakshmi Fillingstation Pump4","Pundi Road, Palasa","18.725805","84.3892088"
"ChIJ00ecge0HPToRd_nVsxc65xU","PUMP 3 - JAYALAKSHMI FILLING STATION","Palasa, Pundi Road, Kasibugga","18.7259162","84.3891731"
"ChIJGSSGR2MHPToRb-3ZLzXK3Io","PUMP 1 - JAYALAKSHMI FILLING STATION","Palasa, Pundi Road, Kasibugga","18.72600289999999","84.3891845"
"ChIJEewEbB0HPToRP5HkEfLP2_Q","Petrol bunk","P9GQ+7PV, Bendi Gate, Venkatapuram","18.7257349","84.3893119"
"ChIJZ2G_P4gHPToRYud2XufsCqI","PUMP 2 - JAYALAKSHMI FILLING STATION","Palasa, Pundi Road, Kasibugga","18.7260337","84.38924020000002"
"ChIJQQRA2z4HPToRRdwXkMfFnvU","Hindustan Petroleum Corporation Limited","Ground Floor Palasa Mandal","18.728195","84.393097"
"ChIJl2kd0DWrPToRDm6eiHsEZH4","IndianOil","Lock No T1, Nandigam, Thotaneelapuram,Goppili, Palasa","18.7159001","84.352901"
"ChIJU7nJBwAHPToRzKgte3r9HOM","Sri Raja Rajeswari Energy station","P9MX+5M7, Garudakundi, Sariyapalle","18.732909","84.399165"
"ChIJMRkArgWqPToRUOdn27HiuNc","Jayaram Petrole Fills","Kasirajukasipuram","18.7143708","84.34598450000001"
"ChIJ5S5MCL4BPToRnP7SBVMv77s","NAYARA FILLING STATION","80-9A, 80-9B, Tekkalipatnam","18.7390775","84.3311969"
"ChIJhRtd2HpTPDoRZBU1wKZWHt0","Petrol Bunk Tekkali","J68Q+63J, Tekkali Main Road, Tekkali","18.6155827","84.237628"
"ChIJbzpfwnpTPDoR1zxRz5jSnxk","Hindustan Petroleum Corporation Limited","D No 16/2/78 Old NH 5 Road, Mellaputi Road, Srikakulam","18.614741","84.237201"
"ChIJ4_Pm93dTPDoR4xC-fuirHbE","Bharat Petroleum, Petrol Pump -Ayush Enterprises","TEKKALI, SRIKAKULAM","18.6088225","84.23154339999999"
"ChIJw84ezS5OPDoRPtEEtW4tQHg","IndianOil","G5C2+VF8, NH16, near Kothapeta, Kotabommali","18.5214118","84.15061539999999"
"ChIJoxYpsW1PPDoR630D91Kx5ro","Santhosh Auto Garaje","Kotabommali, Mainroad","18.5201566","84.16453849999999"
"ChIJ83002d5RPDoRyjdDadBtvUA","BP PETROL PUMP - BP AUTO CARE CENTRE KOTABOMMALI","NH- 5, Tarlipeta Village, Kotabommali Mandal","18.5302997","84.1603615"
"ChIJ390e395RPDoRukdqUdoc3fA","Shant Petroleum","India","18.5306844","84.1604244"
"ChIJEc37OedRPDoRFjbUUwj9cFg","Bharat Petrol COCO Bunk & Ghar Dhaba - BP Kannevalasa","G5M8+PGH, Kurudu, National Highway 16","18.53430329999999","84.166347"
"ChIJP0Zu8NVRPDoR6HUmjsnBM6g","Bharat Petroleum, Petrol Pump -BP Ghar Kannevalasa","KANNEVALASA NH 5, SRIKAKULAM","18.5425545","84.1673287"
"ChIJ7XrBDQBRPDoRQAs4M6xg9ns","Hindustan Petroleum Corporation Limited","Ground Floor, NH 5, Kotabommali","18.545573","84.174961"
"ChIJDzLKiiNHPDoRXHjMMIqsWc0","IndianOil","Lock No T1, Narasannapeta,Jhadupudi, near Rtd 280, Srikakulam","18.4178001","84.04339999999999"
"ChIJj0XZPsZGPDoR-DXBStc9eKA","Bharat Petroleum","Gunduvilli Peta, Srikakulam, NH-5, Ichapuram Road, Narsanna Peta, Narsanna Peta","18.4011122","84.02843980000002"
"ChIJcW6w_JpGPDoRKMMMTHW_XKw","Hindustan Petroleum Corporation Limited","near Old Bus Stand Road, D No 23/289, Singupuram - Narasannapeta Road, Srikakulam","18.4203849","84.0464346"
"ChIJubjpMvRGPDoRgmYfyI9RaOM","IndianOil","S No 71/7, Amplam","18.401056","84.056204"
"ChIJXXDoTitBPDoRiH37KHFK1oQ","IndianOil","Lock No T1, 211, Singupuram - Narasannapeta Road, Komarthi","18.3861001","84.0161"
"ChIJb6XnJtpFPDoRSekPVM_uaGA","IndianOil","Lock No T1/213, Jilledu Valasa, Narasannapeta, Davadi, Narasannapeta","18.4363061","84.071195"
"ChIJacDgqTMVPDoRtYsGilStGb4","IndianOil","Survey No 119/5B6/7, 811B NH 5, Palakonda Road, China Bazar, Singupuram","18.3271577","83.9032099"
"ChIJzdavoREVPDoRthCySRUAKmc","Hindustan Petroleum Corporation Limited","S No 145, Ram Lakshman Junction, near Deepa Mahal, Bankers Colony, Srikakulam","18.297681","83.904151"
"ChIJBf5osxEVPDoR1YzWhGDf0p0","IndianOil","Lock No T1 51, China Bazar, Srikakulam","18.2969001","83.90299999999999"
"ChIJC6Sf2CgVPDoRd2VLWCPPJnc","IndianOil","Lock No T1, 299, Palakonda Road, China Bazar, Srikakulam","18.3212896","83.8940796"
"ChIJFTCV-kIVPDoRwMPsvlUKXPM","IndianOil","S No 261/1, China Bazar, Srikakulam","18.3098424","83.919722"
"ChIJqbKHfjo_PDoREGQBc0RO0FM","SRIKAKULAM SERVICE STATION BPCL","National Highway 16, Srikakulam","18.3233149","83.93759539999999"
"ChIJCUwH7M8VPDoRY8QzGg-mM7I","Sri Surya Petrol & Diesel filling station, BPCL","Pedapadu Road, Visakha Colony, Srikakulam","18.3063208","83.9142481"
"ChIJAQAAcNs_PDoROhssdZpF8F4","HP GAS GODOWN","8W2R+G77, SANIVADA","18.301276","83.9406844"
"ChIJdaNBQAAVPDoRnE0ROu1Y8nA","Jio-bp","Sy No 31, 8 & 31/9, Arasavilli, Srikakulam","18.289378","83.914594"
"ChIJjWT4GiIVPDoRH3am6zlF8DI","IndianOil","Ground Floor, China Bazar, opposite Industrial Area, Srikakulam","18.2968978","83.90307519999999"
"ChIJx4VbHsw_PDoRWLJ4oYRSS_k","Sri Venkateswara Filling Station , Jonnalapadu","7WRW+2PG, Srikakulam","18.2900521","83.9468326"
"ChIJdcyNRxc_PDoRUNVPUG272OY","IndianOil","Ground Floor, Post Gara, Ramachandra Puram","18.2905964","83.9486806"
"ChIJ9wGH4ss_PDoRFE50ZFqr7CE","Hindustan Petroleum Corporation Limited","Survey No 31/20 & 21 Lingalavalasa, Ramachandrapuram, Voppangi","18.2907245","83.9489456"
"ChIJx0QIoyYVPDoRSyOu0kZZAd8","Bharat Petroleum - Sri Siva Priya Filling Station","Palakonda Road, Chinnabondilipuram, Hudco Colony, Balaga, Srikakulam","18.3136355","83.8944889"
"ChIJ5VYwlBgVPDoRJpFrsM4y-aM","IndianOil","Ground Floor, near Raitu Bazaar, Illisipuram Main Road, Srikakulam","18.305401","83.8964017"
"ChIJz_VWLgAVPDoRx7tJzXVUDYg","Hindustan Petroleum Corporation Limited","Survey No 424, TS No 476, Arasavilli, Arasavalli","18.2878406","83.9102442"
"ChIJ816b7yEVPDoR-6lhjHFymtI","Hindustan Petroleum Corporation Limited","TS No 712, near Day & Night Junction, S No 169, Palakonda Road, Srikakulam","18.3068701","83.8941301"
"ChIJVUSbsbkVPDoRtvrmkn_xRC0","Bharat Petroleum, Petrol Pump - Srikakulam Service Station","Surya Mahal Junction, Surya Mahal Area, New Colony, Srikakulam","18.2947937","83.9006837"
"ChIJN0pcUQQVPDoRb-uCji2r38U","IndianOil","Survey No 234, Ward No 24, Potti Sriramulu Junction, China Bazar, Srikakulam","18.2961513","83.89520329999999"
"ChIJG7XHFE4VPDoRPKvFvLQfk4E","IOB PETROL BUNK","7VRW+GV5, Old Bus Stand Road, Arasavilli, Srikakulam","18.2912545","83.89724389999999"
"ChIJE_Y6EgANPDoRlmdAczFG7y0","Bharat Petrol bunk OTP/CARD AVAILABLE","6QV6+67, Budumuru","18.243011","83.76065280000002"
"ChIJpzNETfATPDoRoRHWzfCmA0A","Bharat Petroleum Petrol Pump , PODUGU SWAMULU & SONS","National Highway 16","18.2605529","83.7883458"
"ChIJ40l1Ty4TPDoRWJOFhtEYEvQ","Nayara Energy","7Q7V+HPJ, Allinagaram","18.2639698","83.794274"
"ChIJyedzA7kJPDoR0xuzuS6vyjk","IndianOil","Sy No 138/7, Kosta","18.1728214","83.67720589999999"
"ChIJ_5XyjNEOPDoRehISVKWkczw","Hindustan Petroleum Corporation Limited","NH 5, JR Puram, Survey No 82/10 to 13, 82/33 & 34, Ranastalam","18.191701","83.683131"
"ChIJq6qqGsQIPDoRhFKMv1jpQJA","IndianOil","S No 123/7, NH 16 Nelivada, Ranastalam","18.1591019","83.65245039999999"
"ChIJpxlKwr4OPDoRNgN4svsTudY","Hindustan Petroleum Corporation Limited","Ground Floor, near Puram Post, NH 5, Ranastalam","18.2092493","83.6946438"
"ChIJKUcNU7kOPDoR9nAHvq6Ig-Y","Ranstalam hp gas Station","6M6V+974, Garikipalem","18.2108859","83.6932094"
"ChIJDU78AAAJPDoR7P6BpZkN35I","ADI ENERGY STATION","5JWR+HW, Kammasigadam","18.196428","83.642332"
"ChIJn9zTPFcPPDoR0nImA2Cqj1U","Bharat petroleum corporation limited","Patharlapalli Road","18.1437563","83.7024522"
"ChIJt6g8_gD4OzoRiWxrSbTgXdk","Bharat Petroleum, Petrol Pump -Gandhi Fuel Station","PUSAPATIREGA, VIZIANAGARAM","18.1280625","83.58967550000001"
"ChIJZePz4uH5OzoRGBvNDS8ZHJc","Hindustan Petroleum Corporation Limited","Ground Floor, NH 16, Pusapatirega","18.0830709","83.54999029999999"
"ChIJ1a755kj9OzoRJDJpVxpWle4","Hindustan Petroleum Corporation Limited","Ground Floor, NH 16, Bhogapuram","18.018505","83.4856921"
"ChIJgwE502z8OzoRKlbeiBSsOJs","HP PETROL PUMP - SRI BALAJI ENTERPRISES","HPC Dealers NH16, Bhogapuram Village & PO Bhogapuram, Visakhapatnam","18.018944","83.485445"
"ChIJ4cJHmA79OzoRu-kAMY76km4","IndianOil","Ground Floor, NH 16, Amatamravivalasa, Bhogapuram","18.0091291","83.4826777"
"ChIJCdUMGnz9OzoRVAD2MdelLIo","IndianOil","Ground Floor, Nh 16, Old Nh 5, Bhogapuram","18.009111","83.482693"
"ChIJf59AIgT7OzoRpuJN8661ixQ","Bharat Petroleum - Sathya Maheswari Agencies","2GP3+VV, Bhogapuram","18.0367493","83.50406459999999"
"ChIJayYlXgD7OzoR-qkViJToO_4","Cng filling stetion","2GP3+VV, Bhogapuram","18.0368309","83.5041695"
"ChIJg2QEYrHiOzoRkqR5RBSrY8o","Hindustan Petroleum Corporation Limited","Ground Floor NH 5, Rajapulova, Maharajupeta","17.952421","83.416311"
"ChIJrzJ4oP5XOToRtmFCOqaeefU","Bharat Petroleum","CJM petrol Bunk, Kothapeta CJM Road, Chittivalasa","17.9323499","83.42717239999999"
"ChIJneFp3dEVPDoRc7tMYITv_iM","IndianOil","Ground Floor, Rajapulova","17.9551739","83.4174908"
"ChIJp06vKDT9OzoRumndvFDze8w","IndianOil","Lock No T1/52 Modavalasa, Vizianagaram, Annavaram","17.9642001","83.426901"
"ChIJ3ynjcuZpOToRxGt50W4aCsA","IndianOil","lock No T1 30, 4/171, Akkireddypalem, Rajapulova","17.9643069","83.4320233"
"ChIJ479SIM39OzoR2iSiHmAg53s","Satya veerabhadra filling station","National Highway 16, Polipalle","17.9647072","83.4323117"
"ChIJd1zVDADjOzoRAwxkrQOhOoY","CNG bunk","XCH8+QH6, Denkada","17.9794212","83.4163981"
"ChIJs5CdJtTiOzoRr6FyxEHUZxY","IndianOil","Survey No 4/1/5 NH 43, Annavaram, Modavalasa","17.9801164","83.4164874"
"ChIJ-2T6Y2ZXOToRYoTDZMu5x3Q","Nayara Energy Limited Petrol Station","Gudivada - Annavaram - Pedanagamayyapalem Road","17.9353781","83.43769979999999"
"ChIJH-3V04NZOToRs3GhifM29n8","Fuelstop","opp. Sukhibhava Appartments, beside Medicover Hospital, Anits Back Gate, Visakhapatnam","17.9198987","83.4204156"
"ChIJSVhVFefjOzoRfnWATtDIOtg","Bharat Petroleum Petrol Pump , VENGAMAMBA FUEL STATION","PADMANABHAM MANDALSURVEY NO.115, 1, Visakhapatnam","17.9607658","83.38134699999999"
"ChIJeYKnABFzOToROK4Kd7psL_E","Jio-bp","Ground Floor, Ravada, Bhogapuram","17.9810978","83.4504126"
"ChIJU2ZdXlheOToRWyvIPAjhLxg","Hindustan Petroleum Corporation Limited","Ground Floor, Road, Anandapuram, Sontyam","17.870781","83.291941"
"ChIJh1vG4mdeOToRLFxS74DggiY","Sontyam Petrol Pump","V76M+755, Visakhapatnam","17.8606469","83.2829963"
"ChIJXTK5B2heOToRXlMhzc9juvs","IndianOil","S No 12/1 Lock No T125 & 26 Anandapuram, NGR Puram, Chinnamushidiwada, Visakhapatnam","17.8606001","83.282701"
"ChIJRaR0QgReOToRHjaRT1GPb14","IndianOil","Ground Floor, Pendurthy,Chinamushidiwada, Rampuram","17.844798","83.25730399999999"
"ChIJ7-ZwUONfOToRhl0olixG23w","Bharat Petroleum, Petrol Pump -Sree Kanya Petro Station","GUDILOVA, VISAKHAPATNAM, Visakhapatnam","17.88636","83.3269191"
"ChIJ-TbfxkZkOToRycmxB98Oiss","Hindustan Petroleum Corporation Limited","S No 130/2, Sabbavaram","17.802348","83.13963199999999"
"ChIJc4bN8kRkOToRlJ8YadxAAoM","IndianOil","Ground Floor Patha Road, Main Rd, Adduru, Sabbavaram Agraharam","17.8017001","83.1349"
"ChIJuWhpMdhmOToRe6kmGOxjpoc","Bharat Petroleum","S NO 221 Penduthi Village Mandal, Pendurthi, Visakhapatnam","17.8235255","83.2048142"
"ChIJEZNsVJ9mOToRVGCjl8tBYO8","IndianOil","Ground Floor, Pendurthi, Chinamushidiwada, Pinagadi","17.81001","83.1699"
"ChIJT-4Y56JmOToRZAkWmY2pVIc","Hindustan Petroleum Corporation Limited","S No 64/22/25/26, Pinagadi","17.8127108","83.1742161"
"ChIJ16wMtJZmOToRGjnyevV_RlQ","Hindustan Petroleum Corporation Limited","S No 85/2, 3, 7 & 8, Pendurthi Vepagunta Pinagadi, Road, Rampuram","17.804964","83.178381"
"ChIJC7XOh1BlOToReyEtZPfpbWY","IndianOil","Lock No T1/28, Adduru","17.8034001","83.1405"
"ChIJl_yoLABlOToRhF1V-RDc4ec","Vizag","R42M+8VJ, Sabbavaram Agraharam","17.80083","83.134655"
"ChIJfUeVPABlOToRGZAiN_en63Y","VSP-0-J-006","R42M+8VJ, Sabbavaram Agraharam","17.8008013","83.13460719999999"
"ChIJpUTDL4pjOToRGVrn27HuJSI","Hindustan Petroleum Corporation Limited","S No 80/1, 80/2 & 80/3, Sabbavaram Road, Gullepalle","17.8350106","83.1388702"
"ChIJ84FCRQBlOToR7rrI3F7Bg8E","Nayara petrol bunk","Q4QF+W34, Sabbavaram","17.7897607","83.1227031"
"ChIJyfQwWf1lOToR5gr0yrWFMmc","Sri Ganesh filling station","Iruvada","17.7797915","83.1290464"
"ChIJ9RL9VeZnOToRFNvd8SI-RMc","IndianOil","Ground Floor, Pendurthi, Visakhapatnam","17.81811099999999","83.206411"
"ChIJt6Z21dlmOToRNBp50jL2olY","Dora Filling Station","India","17.8232388","83.2049361"
"ChIJ_XDLNNhmOToRbMGWnJCAiaw","Hindustan Petroleum Corporation Limited","Survey No 188, 2B, Kothavalasa Road, Pendurthi, Visakhapatnam","17.8252406","83.2042687"
"ChIJX8Xv0-BxOToR19Mk1VJ4wwU","IndianOil","S No 249/3, Donkada","17.7291734","83.04700249999999"
"ChIJpVlXSHpwOToR-ZSdumUKVXU","IndianOil","S No 241, 14P/16P/17P, Donkada","17.727745","83.04459200000001"
"ChIJHd4h57BxOToRykyM5VqL7_I","Bharat Petroleum, Petrol Pump -Sri Nina Services","REBACA, ANAKAPALLE, VISAKH, Visakhapatnam","17.7263659","83.04444199999999"
"ChIJhbgNXC5xOToR5-76No_HO0E","Hindustan Petroleum Corporation Limited","S No 77/10 Sabbavaram Rd, Anakapalle, Rebaka","17.7182397","83.0387063"
"ChIJ7_AXMPJ2OToRoWN48oUMdr0","Bp ghar kasimkota Petrol Bunk","MX85+MMV, National Highway 16, Kasimkota","17.6667386","82.95918739999999"
"ChIJ8UKIVN12OToRAZYyjG_7tec","Hindustan Petroleum Corporation Limited","S No 188, NH 5, Kasimkota","17.6738648","82.9721064"
"ChIJ4U0c-tx2OToRtVwdLq4tzi4","Nissi Filling Station Hindustan Petroleum","Pasinikada, NH-5, Tuni, Anakapalli, Vishakapatnam","17.67644","82.974966"
"ChIJSf3nN_R2OToRmEi_q7DLKcw","Sri Venkata Ramana Filling & Servicing Station","D. NO. 26-137 NH-5, Kasimkota Kasimkota Post & Mandal, Kasimkota","17.6661662","82.95229049999999"
"ChIJwQOcCGh2OToR5Q-p8LYY95o","Hindustan Petroleum Corporation Limited","S No 6/11 NH 5, Kasimkota, Anakapalli, Bayyavaram","17.660061","82.939121"
"ChIJIxlvKy5xOToRZn38ga2Doo4","Hindustan Petroleum Corporation Limited","S No 731/2 NH 5, Anakapalle Pudimadaka Road, near Anakapalle, 4 Roads, Junction, Anakapalli","17.675121","83.001111"
"ChIJ3ULxjtZwOToR4YvwN8O8dKY","Mogalapalli Venkataramana Hindustan Petroleum","MXQX+XQV, Main Road, Anakapalli","17.689989","82.999434"
"ChIJrdI4QSdxOToRcKXS0EZBh-w","Hindustan Petroleum Corporation Limited","S No 800/1, Tumpala Road, Anakapalle, Anakapalli","17.6932573","83.0020091"
"ChIJFYC8yzxxOToRoSqYpT8rnjM","Nayara Fuel Station","Nayara Fuel Station, Anakapalle Bypass, Anakapalli","17.6750728","83.010915"
"ChIJn8OuQ-h2OToREBadWrnNEuk","Sree Balaji Service Station","Pisinikada, Anakapalli","17.6725555","82.9706252"
"ChIJ5fJCptd2OToRc7JnEtCktsw","Hindustan Petroleum Corporation Limited","RS No 146/1, D No 3/113, Pisinikada, Kasimkota","17.6766877","82.97513599999999"
"ChIJJxKN2m93OToRNe2AbeywzQw","Hindustan Petroleum Corporation Limited","D, Sri Nilayam, NH 5, Kasimkota, Visakhapatnam","17.66561","82.9533019"
"ChIJUYo57_N2OToR_IKfjUNnE_c","Hindustan Petroleum Corporation Limited","S No 146 & 147 NH 5, Kasimkota, Venkupalem","17.6663917","82.9520838"
"ChIJ0eiP49l2OToRst4jgNorUnE","IndianOil","Ground Floor, near bypass junction, near A.M.AL College, NH16, కొత్తూరు గ్రామం, తుమ్మపాల","17.6808955","82.9818786"
"ChIJ4zxwMQB3OToRjV961S2l444","pka gnbC","MXJJ+9VJ, Kothuru Village, Tummapala","17.68109429999999","82.9822461"
"ChIJTdsLjCd3OToRg3l1JMSGZEU","Hindustan Petroleum Corporation Limited","Central Warehouse Corporation, Ground Floor Kundram Road, Opposit, Satyanarayanapuram, Tummapala","17.6889464","82.97462639999999"
"ChIJsUu5sCh3OToRY_pzDy3TrIM","Bharat Petroleum, Petrol Pump -Sri Ramakrishna Station","Anakapalle Bypass, Visakhapatnam","17.6596803","82.936287"
"ChIJw7pBFwtxOToRsVvBA8mmpvQ","Hindustan Petroleum Corporation Limited","8 Munagapaka, Plot No No 221, Pudimadaka Road, Nagulapalli","17.654182","82.9963139"
"ChIJ1Qqi9b1xOToRk1wxlHrVVeU","Bharat Petroleum, Petrol Pump -Sri Lakshmi Ganapathi Enterprises","Anakapalle Bypass, Visakhapatnam","17.6806206","83.0011377"
"ChIJK70Hyg93OToRUiDebnjBvYw","Hindustan Petroleum Corporation Limited","S No 403 NH 5, Kasimkota, Bayyavaram","17.6565582","82.9321648"
"ChIJW9XVLqqfOToRLA7Seb8AMAE","Ravi Sankar Petroleums-Indian Oil Petrol Pump","Yerravaram NH-5, Tuni, Elamanchili","17.5822174","82.866365"
"ChIJB1jZm6mfOToRpS9a5EuUwvA","Hindustan Petroleum Corporation Limited","D No 2/80, National Highway 16, Chakalipalem, Elamanchili","17.5809311","82.86666149999999"
"ChIJCcgiTv2dOToRxUME9TW2LMA","IndianOil","Ground Floor Rtd 82, Tallapalem","17.6366001","82.897001"
"ChIJAdH32PidOToRWkXRD4ivxDU","Hindustan Petroleum Corporation Limited","3 & 4, near Tallapalem, S No 187/2, Anakapalle Bypass, Junction, Ugginapalem","17.6427682","82.90450170000001"
"ChIJ8WL_Tm2eOToRCfnmnxoHnzw","Bharat Petroleum","India","17.6226546","82.8851052"
"ChIJ0Z9If1GeOToRrVSK7r2WP0I","Jio-bp","RELIANCE PETROLEUM RETAIL OUTLET, NH5, VILLAGE NUTHALAGUNTAPALEM NARASINGAPALLI, POST, KASIMKOTA","17.5940058","82.87228689999999"
"ChIJ29EjLlefOToR7lryfT22eWE","Sri Lakshminarasimha Service Station","JVMM+9F8, State Highway 159, Ugginapalem","17.6334116","82.8836925"
"ChIJ0y2-xMGdOToRjSwxtINAiwA","Bharat Petroleum, Petrol Pump -Srinivasa Service Centre","NH-5, UGGINIPALEM, VISAKHA, VISAKHAPATNAM","17.642435","82.90374949999999"
"ChIJc-MYPz-iOToRDF2gL30j81s","HP Petrol Pump","National Highway 16, Regupalem","17.5099652","82.8009067"
"ChIJT4yuypSjOToR21E4WB9zQPc","Bharat Petroleum, Petrol Pump -A.S. Petro Agencies","BAYYAVARAM, VISAKHAPATNAM","17.497512","82.7823954"
"ChIJ4ftxVj-iOToRV49_hrx-Rxw","Hindustan Petroleum Corporation Limited","1, 5, S No 279, 6 & 7, Regupalem","17.5091359","82.7996203"
"ChIJ2WsqCACjOToRcuhcpi5BB-M","GOVINDA MOTORS","GR62+38, Regupalem","17.5101525","82.80084389999999"
"ChIJa2VvdACjOToRuQQk4PfKqPc","Sri Venkata laxmi anjaniputhra filling station","FQGJ+94, Bayyavaram","17.4759375","82.7803125"
"ChIJfQ-hab2jOToR8FD7jLpp_q0","Hindustan Petroleum Corporation Limited","S No 98, Yerravaram","17.5181317","82.81175619999999"
"ChIJZT1Ouv6jOToR-7PHkC3bBXg","Regupalem HP Petrol Bunk","GR96+7P2, Regupalem","17.5181317","82.81175619999999"
"ChIJqTdyiU24OToRjLmQRA6hrO4","Hindustan Petroleum Corporation Limited","S No, 222/3, Nakapalli, Devavaram","17.377856","82.60156599999999"
"ChIJ3xH8lU-4OToRcjpY39T_9Io","HP PETROL PUMP - SRI SAI FUEL STATION","SNO:222/3 Devavaram Nakapalli Mandal, Visakhapatnam","17.3768292","82.598916"
"ChIJd3T9QwO7OToR5qOikZhuIHY","Bio diesel bunk","9MV3+283, Asian Highway 45, Vempadu","17.3925137","82.6533118"
"ChIJPYOXrUO4OToRrSQ3UZs8Qv0","IndianOil","Plot No 120, Lock No T1 42, Namavaram,Payakaraopet, Payakaraopeta","17.3739001","82.58659999999999"
"ChIJtYXQEEK4OToRikSg4se4T6A","Hindustan Petroleum Corporation Limited","Survey No 75, 4 Payakaraopeta, Padalavani Laxmipuram","17.372271","82.584481"
"ChIJS5Izbtq7OToRrmyt_Vi9jK4","IndianOil","S No 206/1, Donkada, Visakhapatnam","17.378545","82.661745"
"ChIJE8Pumcy7OToRV-chtsLU-3w","IndianOil - SWAGAT","Ground Floor, Bodugullam Agraharam,Nakkapalli, Agraharam","17.3942851","82.6631989"
"ChIJjxAjXgC7OToRhgYFvEoVY9Q","Cng fillng stetion","12, National Highway 16, Godicherla","17.3940747","82.6641969"
"ChIJoe3Mnsy7OToRAJv7UPU-DzQ","IndianOil","Lock No T1, NH 5 Vempadu, Bodugullam, Agraharam","17.393892","82.66449"
"ChIJl_CB1rPIOToROg2rXt0ttnc","Hindustan Petroleum Corporation Limited","Shop No 274, S-274/1A, 1A Tuni, Tetagunta","17.3232529","82.480931"
"ChIJb9zaN_TPOToRBgB3flZac6o","Sri Lakshmi Narasimha Petro Station","National Highway 16, Tetagunta","17.3104194","82.44952339999999"
"ChIJYw8m4aHHOToRJlbN7BTH1Eo","Bharat Petroleum, Petrol Pump -Chakka Sriramamurthy &Suryanarayana","NH-5, VELAMKOTHUR, EAST GO, EAST GODAVARI","17.3404356","82.511377"
"ChIJU4nWkinGOToRmTignQpRvxQ","IndianOil","Ground Floor Addaripeta, Tuni","17.3407454","82.5123254"
"ChIJxTjwMEnHOToR0cbVEGTuuqI","Nayara Petroleum Bunk","Lova Kothuru","17.358501","82.496556"
"ChIJXzAKI4rROToRWh-cd0JKEwY","Hindustan Petroleum Corporation Limited","Ground Floor, NH 5, Bendapudi","17.241541","82.361981"
"ChIJv3reEIrROToRc747TbjsIHc","IndianOil","Devasthanam, Ground Floor NH 5, Bendapudi","17.2410364","82.3620981"
"ChIJs0TT-X7ROToRjhB2Z9FO5Ts","Hindustan Petroleum Corporation Limited","S No 125, 1 & 2, NH 5, Kattipudi","17.2422701","82.34182009999999"
"ChIJ36azFDDOOToRhESYGRDGjus","Hindustan Petroleum Corporation Limited","S No 74/1/A, Sankhavaram","17.277711","82.400821"
"ChIJ1QXF0B7ROToReK6lQWVVfQU","Bharat Petroleum","National Highway 16, Bendapudi","17.2548436","82.37153119999999"
"ChIJYWfVGYrROToRGNu58mUp3Ns","Indian Oil SWAGAT bendapudi","India","17.2411011","82.36213939999999"
"ChIJGb68xYbROToRA_28PwCGvgA","IndianOil","Survey No 276/1276/2M/277/8A, National Highway 16, Kathipudi, Kattipudi","17.2433011","82.351423"
"ChIJt26l96DPOToRM0G_cg7UcYY","Hindustan Petroleum Corporation Limited","Ground Floor, Tondangi, Bendapudi","17.2678135","82.38908649999999"
"ChIJw0ZBBgDPOToR0HS7iG-9c44","SVVSS Filling Station","79CV+2WW, Road, Annavaram","17.2701232","82.39457589999999"
"ChIJXy05h1_POToR0iKUg7wAP6Y","Bharat Petroleum","Bharat Petroleum, Bendapudi","17.2723662","82.3928662"
"ChIJdTcHc-DPOToRfPGbLCTJ4d0","NAYARA SRI SATYA SRINIVASA FILLING STATION","mail road, Bendapudi","17.2732053","82.3944193"
"ChIJB1mDOCDbOToR9lzLL2k_Maw","Sri Sai Surya Agencies","S No. 481, Kathipudi - Kotananduru Road, Kattipudi","17.2418038","82.33705049999999"
"ChIJSa96EADROToRucv8W9FpkmU","IndianOil","Survey No 276/1276/2M/277/8A, National Highway 16, Kathipudi, Kattipudi","17.2433959","82.3351318"
"ChIJR5igiDzOOToRK4A2dzm3wHU","IndianOil","S/o 1/15, Satyanarayana Annavaram, Sankavaram","17.2701707","82.40254970000001"
"ChIJL9mbE6bNOToROWcaRrEK8NY","Nicky Petrol Bunk","Petrol Bunk, East Godavari, Krishnapuram","17.2221319","82.40664149999999"
"ChIJc1e1oQh-NzoR5c0bkWCXLXA","IndianOil","Lock No 533 & 432, Rtd 273, Prattipadu","17.229419","82.20377549999999"
"ChIJ-TCict3VOToRuw9JBr9s5fw","Sri Srinivasa (HPCL ) e-Filling Station","National Highway 16, Dharmavaram","17.2254119","82.2377655"
"ChIJt_LtxHN_NzoRIxMXGg2n6ew","Hindustan Petroleum Corporation Limited","Ground Floor, Road, Kirlampudi","17.2205624","82.1902942"
"ChIJndkyPgp_NzoRNE8fHgkfN4k","Varun Surya Agencies","Samarlakota road, Jagapatinagaram","17.2206914","82.1899976"
"ChIJL55qNhnWOToRZkIuai_MVug","IndianOil","Survey No 531, Prathipadu, Vommangi","17.2535001","82.220701"
"ChIJzxNrMm7XOToRwz3vJawhUJQ","Vijaya durga Agencies Vommangi","prathipadu mandal, Vommangi","17.25391","82.22061"
"ChIJQcxJlNZ9NzoRdnUULaugg6Y","Hindustan Petroleum Corporation Limited","S No 153/2A & 153/3A, NH 5, Prattipadu","17.2369301","82.17791009999999"
"ChIJKU05mxDVOToR4DxUAGr3_ic","Hindustan Petroleum Corporation Limited","Survey No 387/2, NH 16, Prattipadu","17.225411","82.237741"
"ChIJ7WBgXEN-NzoRTUKKXT3tuzM","IndianOil","Lock No T1 203, Kirlampudi, Kakinada","17.2041001","82.1833"
"ChIJn9lq64HXOToRp5XdbS7wUsE","Hindustan Petroleum Corporation Limited","Survey No 305, 4 Prathipadu, Vommangi","17.2649253","82.2175749"
"ChIJOQ_w0rJ5NzoRYeGwpsIVXXQ","Hindustan Petroleum Corporation Limited","S No 49/1, NH 5, Jaggampeta - Ramavaram","17.181781","82.071231"
"ChIJUbqlr615NzoRUYmj7HjaXn8","Sri Sai Surya Fuel Point Bharat Petroleum","Ramavaram, East Godavari NH-5, Rajahmundry Visakapatnam Road, Gandepalli","17.185323","82.07556100000001"
"ChIJGdGRMoTBNzoRxZjAdcKRPmQ","IndianOil","Sy No 109/2, Burugupudi","17.1948048","82.09047799999999"
"ChIJwfqXsgN5NzoRlr5zKEvlQaA","Hindustan Petroleum Corporation Limited","Ground Floor, NH 16, Burugupudi","17.1949624","82.0914464"
"ChIJf1zj0TZ4NzoRQUz8mr8x-Do","Hindustan Petroleum Corporation Limited","D No 11/15, NH 5, GNT Road, Jagganpeta","17.1731501","82.05765009999999"
"ChIJq4advzh4NzoRQPn2o9JNqhA","Hindustan Petroleum Corporation Limited","Shop No 303, 2A, Koneti Cheru, Jagganpeta","17.1650481","82.0611242"
"ChIJ8fR9gj94NzoRluHOgFkyMhc","ESSAR పెట్రోల్ బంక్","5366+7QQ, Kakinada Road, Jagganpeta","17.1607188","82.0619954"
"ChIJjyzUHX53NzoRt0v9vlAd4Tk","IndianOil","Lock No 11003/9, D No 9/129/C Main Road, Gurrumpalem, Jagganpeta","17.185429","82.040791"
"ChIJxYu_CwB5NzoR2hgVTXtt_nw","DEF (ADBLUE) FILLING STATION TATA ASHOK LEYLAND EICHER BHARATBAZ MAHINDRA (AND LUSE) AVAILABLE (AND GST) BILL AVAILABLE","6475+MW5, Krishnavaram","17.2141442","82.10984599999999"
"ChIJqcDbsQd2NzoRgdQ-dKSSiUU","IndianOil","S No 193/2B, Gurrampalem,Gandepalle","17.139753","81.95563299999999"
"ChIJf-T8qzZ1NzoRe1rbOkjsbQs","IndianOil","S No 831/1B1, Murari,Gandepalle","17.131778","81.948467"
"ChIJPTLgZN6fNzoR1DgXB8DUHuo","Nayara Petrol Bunk","549/1-549/2, Asian Highway 45, Murari","17.1274642","81.9371319"
"ChIJbWCGmj53NzoRmcCE3Nvnn1U","IndianOil","Survey No, 422/3A2, Gandeaplli, Murari","17.1416092","81.9754863"
"ChIJRevMM0p2NzoR03sr7QFEMD4","Hindustan Petroleum Corporation Limited","Shop No 512, Jagganpeta","17.1478456","81.9834806"
"ChIJ3QGiEOahNzoRTH-weggxOfA","IndianOil - SWAGAT","Lock No 11002, Rajanagaram","17.050843","81.855853"
"ChIJJ3qzOACfNzoRzgt2ZsDXFQk","BP Ch-bandham","3V6F+62X, Rajanagaram","17.0606155","81.872615"
"ChIJ9QcaTwChNzoRBdNJX_n6at0","Gulf Adblue station","2RQG+5P3, near vinayaka temple, Auto Nagar Road","17.0378907","81.8268015"
"ChIJD49204ahNzoR8Uxh9OoNlEU","D.E.F FILLING STATION","India","17.0346277","81.82805929999999"
"ChIJKy9SYwCjNzoRg3NlHD8ViDg","IndianOil Corporation Limited (Sri Sai Durga Fuel Station)","2VC2+8R, Srirampuram","17.0208108","81.8520351"
"ChIJ5QxGU6yhNzoRaY9gQe1zUdQ","CS station","CS V, 5-300, Kolamuru - Diwancheruvu Road, Rajamahendravaram","17.0662473","81.82907639999999"
"ChIJAfs6gXihNzoRwUYB6xfSLTQ","I9 Oils","India","17.0395795","81.82214599999999"
"ChIJiZoEf22fNzoRttJcG1ndEe8","Hindustan Petroleum Corporation Limited","RS No 138/1, near GSL Medical College, Rajanagaram - Dwarapudi Road, Elakolanu","17.0685528","81.8847409"
"ChIJJ6WOm3KfNzoRSyHAwMMiocE","GSL Filling Station","3V9P+HCH, Visakhapatnam-Ravulapalem Road, Jagannadhapuram Agraharam","17.0689394","81.88611139999999"
"ChIJv2QiryShNzoROimcG40BoyY","Nayara Filling Station","Godavari Fourth Bridge, Konthamuru, Rajamahendravaram","17.0495901","81.8105202"
"ChIJmxyweCKhNzoRPLXyFClDGO8","VENKATARAMANA FILLING STATION","VRFS, Kolamuru","17.0657634","81.8115052"
"ChIJsYdn39mlNzoRkaWb8lM5pok","IndianOil","Lock No, 21017/544, Gowtaminagar, Kovvuru","17.022859","81.72492"
"ChIJ7bU_YdelNzoR_3b5Q77_QoI","Bharat Petroleum","2PFF+4P2, Kovvur","17.0227633","81.72425439999999"
"ChIJv1gIgAimNzoRmKH4JeitxWI","Bharat Petroleum COCO PUMP","GNT Road Near Dommeru Village, Kovvur","17.0291932","81.7023026"
"ChIJXXQW4t6lNzoR54o3KgJNAGo","Godavari Gas Private Limited CNG Filling Station","2PF8+JPM, Kovvur Road, Nandamuru","17.0240955","81.7168008"
"ChIJw1fvHd-lNzoRcg6DxmGNAx8","GNC","India","17.0238977","81.71677199999999"
"ChIJE4sH4t6lNzoRHw6VW1toruc","ONGC GAS BUNK","2PF8+GPJ, Kovvur","17.0238307","81.71677799999999"
"ChIJ_WiwHAClNzoRJIhmcM6xULg","Sri ramakrishna petrol filling station","14-1-12/1, AGRB Road, Narasayya Nagar, Sri Rama Colony, Kovvur","17.024644","81.7159669"
"ChIJMzVDYAClNzoRKbMrTqvah00","Hindustan Petroleum Corporation Limited","Ground Floor, Under Pass, near Kovvuru - Chagallu Road, Kovvur","17.0241554","81.7156521"
"ChIJ3bw3CAemNzoRoukeBWhapHs","Hindustan Petroleum Corporation Limited","RS No 622/1 SH 9, Kovvur, Dommeru","17.0283462","81.6991183"
"ChIJsbpTGTakNzoRtbb5PWSHvOo","Hindustan Petroleum Corporation Limited","opposite Forest Check Post, RS No 782 & 792, Srinivasapuram, Kovvuru","17.004621","81.74147099999999"
"ChIJn5ks06ClNzoRadPvCrPHB5I","Hp gas","2QCC+FJP, Unnamed Road, Seethampet, Rajamahendravaram","17.0212035","81.7715769"
"ChIJHeuR5HujNzoR7D2t3UXoWMs","IndianOil","Lock No 12011/252, Alcot Gardens, Rajamahendravaram","17.0305056","81.7752532"
"ChIJIZDaWGilNzoRVbaugx4LmlM","Hindustan Petroleum Corporation Limited","Ground Floor, Seetanagaram Road, Seetanagaram, Rajamahendravaram","17.0260953","81.7756075"
"ChIJP5rpgZOrNzoRaFBk-H4XNFU","BPCL","2HQH+FGR, GNT Road, Brundhavanapuram","17.0387491","81.57875039999999"
"ChIJHZ5YX5yrNzoRElw09gCHTaw","IndianOil","Lock No 297, 37 & 5249/37, Devarapalle","17.0353373","81.56362949999999"
"ChIJzegKeJOrNzoRu-b14RIjRnk","Hindustan Petroleum Corporation Limited","Ground Floor, SH 9, Yernagudem, Devarapalle","17.038038","81.578932"
"ChIJoy_w3pqrNzoR4_EUWqfoox0","Sri Satya Deva transport","2HRM+5WQ, Bandapuram","17.0404549","81.5848472"
"ChIJ4zj9wQqrNzoRPee9KlKFtRQ","IndianOil","Lock No 22030, 544 SH 7, Deverapalle Tallada Rd, Gowripatnam","17.0450663","81.5578458"
"ChIJw_3jfnWrNzoR9RRc0291thQ","Hindustan Petroleum Corporation Limited","RS No 1086, SH 7, Gopalapuram - Katakoteswaram Road, Devarapalle","17.041071","81.559231"
"ChIJ61mdIFWrNzoREQTilMaFl9A","IndianOil","Lock No 23013, 544&22007/544, Devarapalli - Kovvuru Road, Gowripatnam","17.03593","81.564674"
"ChIJT45neoOpNzoRQRvmdwlVIJU","BPCL - Sri Rama Fuels","R S NO.119/1C1 KOVVUR TO, NATIONAL HIGHWAY, Rajamahendravaram","17.0451526","81.6059035"
"ChIJrTGl41CpNzoR2mLnrs9HkLs","Bharat Petroleum","India","17.0314367","81.61083049999999"
"ChIJdVB81p-rNzoRH2Ml9O-kZh4","Nayara Petrol Pump - Rythumithra Filling Station","Chityala","17.0938171","81.5884517"
"ChIJH1z99ZyrNzoRodQW3QlWSdU","IndianOil","Ground Floor, Devarapalli - Kovvuru Road, Gowripatnam","17.0313691","81.6116815"
"ChIJq_8VWACpNzoR5mgw5KXNwbw","Hp petrolium","2JQ8+QG, Gowripatnam","17.0394095","81.6163718"
"ChIJO4LWlI-pNzoRQvdo1oKYqSE","IndianOil","S No 299, Gowripatnam","17.030502","81.612854"
"ChIJ29WHY4qrNzoRSExhQp0YA4U","IndianOil","West Godavari, Survey No 374/3A/1 Chityala,Yadavole","17.0924626","81.5985062"
"ChIJx_ZDVWpTNjoRUpU2yyfOmmo","Hindustan Petroleum Corporation Limited","RC No 373/2 SH 9, Devarapalli, Yernagudem","16.9970101","81.4911201"
"ChIJx5uvmqZTNjoRKMKi3aeUwJc","IndianOil","2, Lock, 21023/544, S No 308, Yernagudem","16.9849686","81.4670411"
"ChIJ6aGQ-WpTNjoR7GMPMSa4Gms","PSRG Filling Station(BPCL)","near Veeravalli Toll Plaza, NH-16, near Veeravalli Toll Plaza, Yernagudem","16.9845745","81.4670575"
"ChIJb6SBLQBTNjoR8NL5Po3kYSc","Bharat Petroleum, Petrol Pump -SVGPAC SOCIETY, Yernagudem","2G24+HMH, Yernagudem","17.0018677","81.50672449999999"
"ChIJlXvA4X6tNzoRQbnEE2-Ynk8","Hindustan Petroleum Corporation Limited","Ground Floor, Nidadavolu Yernagudem Road, Tyajampudi","16.974147","81.5279284"
"ChIJEbIGZgBFNjoR0gjQGJtekpU","HP petroleum","V8RH+3Q, Lakshmi Nagaram","16.890226","81.3294858"
"ChIJ5YFBBwxFNjoRZfKIc3Tz57U","Hindustan Petroleum Corporation Limited","Survey No 317/1, Dwaraka Tirumala, Gunnampalli","16.877097","81.3150648"
"ChIJacNoxFJFNjoRDyN2mGlG2oo","Sujaathaa Hp filling station","Gunnampalli","16.8750313","81.312742"
"ChIJWf8oE_BPNjoRuJcvpSnn1DM","Bharat Petroleum, Petrol Pump -Lamu Filling Station","DUBACHERLA, WEST GODAVARI","16.9053788","81.3497754"
"ChIJhTWAegJENjoRy9EZFloTTDg","Hindustan Petroleum Corporation Limited","Ward No 1, SH 9, Bhimadole","16.820971","81.259461"
"ChIJD8MG-lJBNjoRr3gOrrJSpyc","Srinivasa Enterprises Bharat Petroleum","West Godavari, NH-5, Eluru Rajamundry Road, Bhimadolu, Bhimadole","16.8105","81.2495"
"ChIJ-1rY0jtBNjoRRuutrYYYGWA","Bhimadole Indizel Fuel station","Q6XH+P5R, Muppavaram","16.7993531","81.2279043"
"ChIJEbglfRxENjoRwV_0wSsNstM","IndianOil","Lock No, 11009 / 926, Bhimadole","16.8258009","81.265901"
"ChIJuV2bnxNBNjoRWl2jcCAjfbI","Kilaram BPCL PETROL BUNK","Q6VF+358, Kothagudem","16.7926556","81.2229411"
"ChIJUxzXAwBBNjoRgrfQo8pBO0U","Hp petrol bunk","Q6JF+H88, Chennai - Kolkata Highway, Singavaram","16.7814997","81.2221052"
"ChIJp1LCHKNBNjoR5ZjqnwugXsU","Jio-bp pulse","Ground Floor, NH 16, Komirepalle","16.778825","81.2213233"
"ChIJKXYZF0hBNjoRbJQXeX7G8L4","IndianOil","Shop No 89, Lock No 1101, Singavaram, Denduluru, Singavaram","16.777591","81.2205503"
"ChIJRRn9uXNBNjoRt5mTCtfV-MY","Reliance Petroleum","Ground Floor, NH-5, Denduluru, Singavaram","16.7758838","81.2190023"
"ChIJS-V8b1JrNjoRbELkw30ClR8","IndianOil","Lock No 8413, 37, Sriram Nagar 6th Road, Sriram Nagar, Eluru","16.7271565","81.0827637"
"ChIJUx7vGkVrNjoRoAE_IzJ0cSw","HPCL PETROL PUMP - SRI MOURYA FUELS","Hindustan petroleum Of India, Chintalapudi - Eluru Road, Lunani Nagar, Komadvolu","16.7268692","81.091229"
"ChIJ11fCRdQUNjoRnEkiYxMzw8k","Bharat Petroleum","P488+PC9, Railway Station Road, Powerpet, Eluru","16.7167871","81.1161224"
"ChIJ16VmBHBrNjoR1H_gmROE-LA","Hindustan Petroleum Corporation Limited","RS No 288/2, Chodimella, Eluru","16.7334208","81.0885617"
"ChIJRQChZHprNjoR6snRcu-Jl3c","GGPL CNG Station,Eluru, Swati Fuel","P3GV+MMR, Rajarajeswari Nagar, Lunani Nagar, Komadvolu","16.7267494","81.0941315"
"ChIJsTCNYklrNjoRpYSaAofi3bs","IndianOil","Lock No 8467, 37 Eluru, Kandrikagudem","16.7260742","81.0937964"
"ChIJVeBxzBNrNjoRQI9iSrHPZ1A","CNG station BPCL","opp. SBI Bank, Chintalapudi - Eluru Road, Lunani Nagar, Komadvolu","16.7261173","81.0941311"
"ChIJ0UkCMGVrNjoRFOPMvzFQxEY","Hindustan Petroleum Corporation Limited","Survey No 66/1, Chintalapudi Road, Kandrikagudem, Eluru","16.724472","81.0937323"
"ChIJEy3RUwAVNjoRTyq2xOzIYv8","Kindness Wall Eluru Police","P37R+WR3, Ameenapet, Eluru","16.71462829999999","81.0923725"
"ChIJDWQQfgAVNjoRivEZWpr5Rd4","Police Petrol bunk","P37R+WR3, Ameenapet, Eluru","16.7145798","81.0923124"
"ChIJ8y-cICprNjoRCt7c9-UORoc","Hindustan Petroleum Corporation Limited","SR No 33/1, Jangareddygudem Road, Tengellamudi, Lunani Nagar, Eluru","16.726716","81.111294"
"ChIJ7VjqG7trNjoR1gO7GD3JqaE","Bharat Petroleum S S N Fuels","next to Peniel Church, Eluru","16.7248616","81.1112096"
"ChIJbRr6ZgRrNjoRECb4nRLDTpg","IndianOil","Ground Floor, SH 44, Yendapalli, Kothapalli","16.7590063","81.1131195"
"ChIJx-BZJ_5rNjoRd-UvJkPO7h4","Hindustan Petroleum Corporation Limited","Rs No 82, 2 & 82/3, Jangareddygudem Road, Denduluru, Kottapalli","16.76125","81.11341"
"ChIJvTJ5EgBrNjoRTP0AcpaNEIU","Hp petrol bunk MADHURI ENTERPRISES","Q467+CCM, Kotapalli, Denduluru","16.7610789","81.11354680000001"
"ChIJcVdHcv4VNjoRU8-baYHfjrI","Bharat Petroleum, Petrol Pump -The Eluru Petrol Supply Company","BRIDGE END, ELURU, WEST GO, WEST GODAVARI","16.7102473","81.0952064"
"ChIJfS2CfQAVNjoR_UHkiV8Dh6I","Apsrtc fuel filling station and EV filling station","beside New Bus Stand, N R Peta, Vijayawada Road, Narasimharao Pet, Eluru","16.7083707","81.0896302"
"ChIJN3yRiJoVNjoRM9pTKzge6WE","IndianOil","Survey No 39, Bus Station, near Eluru, 24 Peta, Eluru","16.70829299999999","81.08949740000001"
"ChIJE4sLjrkUNjoRJHqajfv2ooE","Kingmei Filling Station","P34V+F3J, Bypass Road, Narasimharao Pet, Eluru","16.7062031","81.092641"
"ChIJk81TGaYUNjoRt9QRaeC4P-8","W.G.Dist. Police HP Petrol pump","P34H+3Q9, Santhi Nagar, Eluru","16.7051598","81.0794798"
"ChIJ2wikTnsPNjoRpWudD2jUKcQ","Hindustan Petroleum Corporation Limited","Ground Floor, Kanulanu Road, Bapulapadu, Hanuman Junction","16.618881","80.97061699999999"
"ChIJc1SJ8aYNNjoRw5xaSfz5XeU","Pavan Putra Petro Park","JXGC+8P5, Machilipatnam Nuzvid Kalluru Road, Hanuman Junction","16.6257741","80.9718474"
"ChIJfUXbJwoONjoRGlQaqGhrtXY","HP PETROL PUMP - SREE RAJYA LAKSHMI OIL SERVICES","HPC Dealers Hanuman Junction-kanulomu Road Bapulapadu Mandal, Vijayawada","16.6134572","80.9711554"
"ChIJQQ-G0ucNNjoRLWXrdBbctEU","Nayara petrol bunk","Gudivada Road, Hanuman Junction","16.6311769","80.9743289"
"ChIJMUQrn4QNNjoRTG4wLuhN3gY","Bharat Petroleum, Petrol Pump -Sri Venkateswara Automobiles","NH 5 ROAD BAPULAPADU, KRISHNA","16.6343933","80.97370099999999"
"ChIJ87S_m8YNNjoRmfD1Glts9eQ","Bharat petroleum","Bus Stand, Bapulapadu, Hanuman Junction","16.6351784","80.9705187"
"ChIJcdXo4-4NNjoRbvhUKna6ipY","HP PETROL PUMP - S.G.F. JIVAVAT & CO.","D.NO, 1-48, NH 5, Perikedu, Vijayawada","16.63596","80.97231000000001"
"ChIJr1x3SsUNNjoRH3_m8lNWLrw","HP Petrol Pump","Hanuman Junction TO Vijayawada Road ON NH-5 L.H.S., Vijayawada","16.632234","80.95531199999999"
"ChIJwY2FTvsNNjoRnk09DhJeY-c","Nayara petrol Pump","JXM3+2W6, Hanuman Junction","16.6327359","80.9544737"
"ChIJS8bpyiwMNjoRXa9cuYbsJOQ","IndianOil","Lock No T1/338/9, near Hanuman Junction, Veleru","16.6274453","80.9427386"
"ChIJeaUgoEEONjoRB6KdL-QKDX4","Hindustan Petroleum Corporation Limited","Ground Floor, Bapulapadu, Kanumolu","16.594409","80.960859"
"ChIJCeB2uMYNNjoR4CDlKgQIpEU","Hindustan Petroleum Corporation Limited","Ground Floor, Nuzvid Road, Epuru, Hanuman Junction","16.664044","80.958185"
"ChIJt50TX5HiNToRYqM1lElEfHI","Essar Petrol Pump GANNAVARAM","HQ2V+3CX, Nuzvid Road, Gannavaram","16.5502314","80.79360129999999"
"ChIJ-bDpdyEINjoR11oJMVTJSdg","M/s K.V.KRISHNA RAO BPCL DEALERS","GRW7+QV5, National Highway 16, Gannavaram","16.54695169999999","80.8148537"
"ChIJd4ODxyMINjoR8YB7MvvtExI","IndianOil","Ground Floor, Gannavaram","16.5479713","80.8169391"
"ChIJq2FP7bH8NToRBEcd0v3dE3k","Hindustan Petroleum Corporation Limited","Ground Floor, NH 7, Nidamanuru, Vijayawada","16.510361","80.740783"
"ChIJbfvqZ8ziNToRdCv65gaTpFU","IndianOil","Bacon Factory, S No 228/6, Kesarapalli","16.5228173","80.7810628"
"ChIJI11ciVP9NToRikwG-eCE0Vo","Hindustan Petroleum Corporation Limited","Krishna, RS No 8/1A, Gannavaram Kankipadu Road Uppuluru, Kankipadu","16.4990415","80.776465"
"ChIJsan4aQDjNToRd2TXiUdssZs","Hindustan Petroleum Corporation Limited","Ground Floor, near Old Leprosy Hospital, Gannavaram","16.5381032","80.8038862"
"ChIJTYYNX5HiNToRpMu275L98ro","NAYARA","India","16.5502512","80.7935793"
"ChIJaznLKljjNToRXvKBQuV-rI8","IndianOil","S No 89/3A Gannavaram, Allapuram","16.562462","80.791827"
"ChIJzbn9OAD9NToRb7i0BhYexTQ","Cng after ganna varam air port","GP6R+983, NH 44, Nidamanuru, Vijayawada","16.5107964","80.7406589"
"ChIJ-0lvwIniNToR208D2THZomY","Hindustan Petroleum Corporation Limited","Ground Floor, Agiripalli Road, Gannavaram","16.5659375","80.7919014"
"ChIJ_yfY_636NToRhX73p42s9i8","IndianOil","D No 4, VD No 11/7, Lock No T1/9, Near Kalmandapam Moghul, 10/11, A S Rama Rao Road, Rajapuram","16.507236","80.643509"
"ChIJidW1eFPlNToRVHR0OxsXxLA","IndianOil","DN No 79, Door No 30/22/82, Lock No, T1/221/2/3, Eluru Road, Vijayawada","16.5158697","80.6386193"
"ChIJuUZCqgPwNToR6n5aU5YOndA","IndianOil","D No 39, Lock T1, 118/9/120, Vijayawada Road, Vijayawada","16.509089","80.624397"
"ChIJVVB2_gLwNToRUZMvsr4fawI","HP Petrol Bunk","GJ5F+QJR, Opp. Vijaya Krishna Super Bazar, Vijayawada Road, Vijayawada","16.5094975","80.6240282"
"ChIJWfJ3yv3vNToRtih9YKu5xU4","Hindustan Petroleum Corporation Limited","Ground Floor, Sambamurthy Road, Gandhi Nagar, Ongole","16.51522199999999","80.62571009999999"
"ChIJJQoZw3O1NToRHemPzssjBOg","IndianOil","D No 75, Lock T1, Vutukuru, Gampalagudem,Penugolanu, 211/2, Vijayawada","16.5156787","80.6251794"
"ChIJ-5AuRdn6NToRVtJmvzVxtzw","Arunasri Filling Station Hp Petrol Bunk","Ground Floor, Auto Nagar 100 Feet Road, Auto Nagar, Vijayawada","16.4981216","80.67247359999999"
"ChIJQWD4127wNToRfVcaAyxKg-A","Hindustan Petroleum Corporation Limited","Survey No 95/1, National Highway 16, Tadepalli, Guntur","16.4800299","80.6172966"
"ChIJv5dvd1jlNToRVY9q8x5FtRc","Hindustan Petroleum Corporation Limited","Ground Floor, CK Reddy Road, Ayodhya Nagar, Vijayawada","16.526525","80.63285599999999"
"ChIJ-aEjjmDlNToRqH8---M81tY","Hindustan Petroleum Corporation Limited","Survey No 57, Police Quarters Road, Ajit Singh Nagar, Vijayawada","16.5371391","80.6361755"
"ChIJE6-6tF_lNToRiB3fpJfRjp4","IndianOil","Lock T1/188/9/90, D, 66, Nuzvid Road, Vijayawada","16.537703","80.63647499999999"
"ChIJfyac9K_6NToRxbtF9YvUerM","Chennupati Petrol Bunk Bharat Petroleum","Katragadda Pitchaiah Street, Labbipet, Vijayawada","16.5017747","80.64240769999999"
"ChIJWzC2xS77NToRk2oiEHzqTIA","IndianOil","No T1/74/5, Krishna, D No 26, Lock, adjacent Kdloa Kalyana Mandapam, 6, National Highway 16, Sriram Nagar, Vijayawada","16.496899","80.652146"
"ChIJn_lF67j6NToRwR-yoFCrHKU","IndianOil","No T1/18/19, D No 7, Lock, 20/21/22, Sriram Nagar, Vijayawada","16.497814","80.65352600000001"
"ChIJqaT6awD7NToR0O7DPmflBJs","Bend circle","FMW3+7M8, Benz Circle, Vijayawada","16.4956621","80.6542015"
"ChIJP19XSvr7NToRisrpvrDDQ-0","Bharat Petroleum Petrol Pump , CITY POLICE SERVICE STATION","CITY ARMED RESERVE GROUNDSM.G. ROAD, Labbipet","16.5038666","80.63630119999999"
"ChIJwVxVbQD7NToRHGgZxRvdvjY","Bharat Petrol Bunk","GJ4W+FCH, Siddhartha College Road, Mogalrajapuram, Shanti Nagar, Labbipet, Vijayawada","16.5061904","80.64610549999999"
"ChIJbaKDLQD7NToR-IXRq-jP-do","Giribala Gjmr filling station","GJ4W+J88, Mogalrajapuram, Christurajupuram, Vijayawada","16.5065472","80.6458253"
"ChIJi7X38rH6NToR0dv4iVNCs4w","Hindustan Petroleum Corporation Limited","RS No 21/10, D No 32/9/18, Mogalrajapuram, Vijayawada","16.506801","80.6450101"
"ChIJh_qXXwD7NToRPM9f0V8O8d4","Yalamnchili NR Filling station","57-3, AH45, Patamatalanka, Benz Circle, Vijayawada","16.4951904","80.6611018"
"ChIJzySX4Uj1NToRGwFgQpmrxRY","Bharat Petroleum, Petrol Pump -Swathi Fuel Station","KOPPURAVURU, Guntur","16.362501","80.50098369999999"
"ChIJ24O9Qyf1NToRWStgnjM4n48","IndianOil","Back Gate, opp. Ramakrishna Venuzia Road, Road, Kaza","16.3716543","80.5355311"
"ChIJVapG2XH1NToR-GL5SJG8Zrc","Hindustan Petroleum Corporation Limited","Ground Floor, NH 5, Pedakakani","16.3353601","80.4885201"
"ChIJm_g_EicLSjoRm8jAyoOX-eg","Hindustan Petroleum Corporation Limited","Ground Floor, near Microwave Tower, NH 5, Service Road, Budampadu","16.2703915","80.469583"
"ChIJAUuW6jV1SjoRah5ztZtlIPY","A V Krishna Murthy & Sons - Best Bharat Petroleum Petrol Bunk in Guntur","D No 14-1-66 Stadium Road Opp Old Bus Stand, Guntur","16.2932981","80.4508216"
"ChIJwRm6N7UKSjoRzPuvAvzjKq8","IndianOil","D No 151, Indian Bank Colony, Lock T1/405/6/9, Guntur","16.296478","80.455437"
"ChIJWbShBTh1SjoRJKO6OUoXuzg","PDR & Son Petrol Bunk","Patnam Bazar Road, Lalapet, Guntur","16.2909479","80.4424417"
"ChIJ1VgMZEh1SjoRgqnbP7JDgGg","IndianOil","Ground Floor, Sambasiva Pet, Guntur","16.296856","80.444786"
"ChIJZ0CR8hR1SjoRgAELTVB48Ok","Bharat service station","Hpcl Dealers Near Medical Club OLD G.T Road,, Guntur","16.29139899999999","80.428579"
"ChIJO72KbxJ1SjoRtVEfewzjtYs","Hindustan Petroleum Corporation Limited","Ground Floor, near Medical Club, Old, Grand Trunk Road, Guntur","16.2915507","80.4285392"
"ChIJw9VS_KUKSjoRA2HVrHJ_bYk","Hindustan Petroleum Corporation Limited","Ground Floor, Varappadu, Guntur","16.3127725","80.46659199999999"
"ChIJsQbsybILSjoRitsWVSltkZw","IndianOil","Ground Floor, near Ankireddypalem, NH 16, Choutra, Y Junction, Guntur","16.26971","80.46668009999999"
"ChIJEaTJH8oLSjoRLvUVlAFKqyk","IndianOil","Ward 33, near Guntur - Ponnur Road, No 1218/B1A, Muthyala Reddy Nagar, Guntur","16.2689352","80.4698141"
"ChIJQx2BI8gLSjoRnSGTA-_hH7w","Nayara Petrol & Diesel Station","7FJ4+8PP, Guntur","16.2803525","80.45666849999999"
"ChIJ3VM85wx1SjoR65i2Lh4R4_8","IndianOil","Sy No 534, Bus Stop 19/7/87, 1 & 534/3, Ponnur Road, Sangadigunta, Guntur","16.281358","80.455072"
"ChIJ70z6LxYLSjoR3kkhA6tRC_0","Bharat Petroleum","India","16.2573779","80.4778092"
"ChIJUzn6mYsLSjoRCNDIgcTQuxw","Sivakumar","161-3, Mallaiah Lingam Nagar, Ali Nagar, Old Guntur, Guntur","16.2874618","80.4588411"
"ChIJj-MoqrALSjoROMeMJzcuJNc","IndianOil","Survey No 80/1, Budampadu","16.2542568","80.4827756"
"ChIJ-bqw4s4LSjoRrS5ene8NheU","Hindustan Petroleum Corporation Limited","Ground Floor, opposite RTC Bus Stand, Nandivelugu Road, Guntur","16.2937378","80.45561169999999"
"ChIJR5awrNh0SjoRhAiNX3axW20","Bharat Petroleum BP Guntur","opp. hanumaan statue, Service Road, Guntur","16.2705435","80.43825149999999"
"ChIJ3RejMFt1SjoRMAf3toqyFJA","HP Petrol bunk","D No 22, near Old Bus Stand, 4/17, Grand Trunk Road, Lalapet, Guntur","16.2929242","80.45061199999999"
"ChIJ3_Kc5SN1SjoRXQijYKq3dhA","Bharat Petroleum - AMARALINGESWARA FILLING STATION","India","16.2772953","80.43733"
"ChIJh8sKAwB1SjoR1hl9gLdDjuY","Hindustan Petroleum Corporation Limited","Survey No 242, 1A, Service Road, Guntur","16.2713254","80.43556260000001"
"ChIJadnJq-B2SjoRueqBbJqb6Z4","Hindustan Petroleum Corporation Limited","Door No 778/1, National Highway 16, Prathipadu, Yanamadala","16.242689","80.3266192"
"ChIJZWHidMB1SjoRJ5HOev6SvKk","Indian Oil","79RQ+454, Mahatma Gandhi Inner Ring Road, Nallapadu Rural","16.2902634","80.3879551"
"ChIJv48P_k96SjoRLt9gx2e0EJI","Ayyappa Swamy Filling Station Bharat Petroleum","National Highway 16, Edlapadu","16.1814831","80.244421"
"ChIJB9c4keF7SjoRlB8anAkQTQc","Petrol bunk BP Bharat Petroleum","56JV+53C, Edlapadu","16.18043309999999","80.24264939999999"
"ChIJQdJMgzZ7SjoRNtoKItNxXF4","Hindustan Petroleum Corporation Limited","S No 120/A1B2, Timmapuram Cross Road Edlapadu, Thimmapuram – Dintenapadu Road, Palnadu, Guntur","16.1494972","80.2029423"
"ChIJFxO0aut7SjoRfUkufqJ4m7I","Bharat petroleum","46X3+M35, Thimmapuram","16.1491451","80.2027317"
"ChIJs4N8tT5jSjoRGqGVieuVGto","BPCL Petrol Bunk","Nrt road, Chilakaluripeta","16.1011921","80.1611102"
"ChIJh9hHAEBjSjoRSEapRsjSJWI","Hindustan Petroleum Corporation Limited","D, No 5/406, near NRT Center, Chilakaluripet","16.09557","80.165317"
"ChIJ-aE5sUZjSjoRdSvHPKyoeOE","IndianOil","Lock No T2/231/2, D No 189, Chilakaluripet","16.1010381","80.1692168"
"ChIJC_fay65jSjoRmUSbJ54zFM0","Sri Joolakanti Oil Corporation - Hindustan Petroleum","Guntur, NH-5, Vijayawada Chennai Road, Chilakaluripet, Chilakaluripet","16.065377","80.15006199999999"
"ChIJnRpEkDFjSjoRO8XeuqURaY0","MPS FUEL STATION","near PURUSHOTAMAPATNAM BYPAS BPCL BUNK, Kotappakonda Road, Chilakaluripet","16.0882823","80.14169179999999"
"ChIJJedKV1ZjSjoR4nxsLtF8KKA","IndianOil","Sy No 345/1A2 & 345/1B1, Chilakaluripet, Purushottapatnam","16.0893912","80.1375641"
"ChIJ_wNE2xJjSjoRizBmuJkNoB8","Hindustan Petroleum Corporation Limited","Ground Floor, Kasturiba Road, Chilakaluripet","16.0860531","80.1641867"
"ChIJAyuInaJjSjoRQ0OaOP4NKtE","Jio-bp","Sy No 21/1 & 21/2 & 22/1 Nh 16, Guntur, Chinna Pasumarru Near Milestone No 360/600, Guntur","16.0720631","80.1547995"
"ChIJbV-m9adjSjoRWC5c3XY2aGQ","Reliance Petroleum","SY.NO:21/1, near NH MILE STONE, 21/2 & 22/1, National Highway 16, CHINNAPASUMARRU VILLAGE, Chilakaluripet","16.0720142","80.1551265"
"ChIJ_4FdEwBjSjoRZR0k_aPLnLY","Chilakaluripet CNG STATION","4539+4JP, Chilakaluripet","16.1028346","80.1690847"
"ChIJPbqnwUZjSjoRGhYk7V7all4","IndianOil","Lock No T2/235/6, D No 191, Chilakaluripeta, Annavaram","16.1025604","80.16952359999999"
"ChIJsQ8mewBjSjoRtJud64cai_U","Jio near Chilakaluripet cuttin","35C3+58, Boppudi","16.07045399999999","80.153373"
"ChIJVW2VL2hjSjoRVgGTyD3GYkw","IndianOil","Door No 190, Lock No, T2/233/4, Chilakaluripet, Annavaram","16.10651769999999","80.17080179999999"
"ChIJo2tgeU5jSjoRMlSMomYKgog","Hindustan Petroleum Corporation Limited","near Chilakaluripet, Survey No 330/2A/3B Chilakaluripet, near Chilakaluripet, Kotappakonda Road, Purushottapatnam","16.089576","80.17395599999999"
"ChIJXYEmJ6ljSjoR6OAgZZpXiZc","Hindustan Petroleum Corporation Limited","RS No 134, C NH 16, Chilakaluripet Bypass, Boppudi","16.066413","80.151124"
"ChIJMYUefU1jSjoR2EzHt_H3oRg","Mahalakshmi filling station (bpcl)","35JF+J6R, State Highway 45, Chilakaluripet","16.081607","80.1730233"
"ChIJKWcEEeljSjoRHHqYHrTzp1M","BPCL⛽VAMSI PETROLEUMS COMPANY CONTROLLED OUTLET","NH-16 TO, HIGHWAY ROAD, Chilakaluripet","16.1089676","80.1732248"
"ChIJI6-B_ypjSjoRD7OGHcqQkHc","IndianOil","No 8/12, Pothavaram Maddirala, Kotappakonda Road, Annavaram","16.093967","80.107434"
"ChIJ7Y6WytxhSjoRtDJnN_xaKVI","Hindustan Petroleum Corporation Limited","Ground Floor, National Highway 16, Bapatla, Martur","15.998431","80.110851"
"ChIJpaZAzNVhSjoR62ehGkoYERU","IndianOil","D No 224, Lock No T2/199/200, Marturu, Anatavaram","15.9811001","80.100901"
"ChIJy20At8O3NzoRy6qVQDqwNAs","Hindustan Petroleum Corporation Limited","NH 5, Y Junction, D No 6/55, Tanuku","15.9869771","80.10389599999999"
"ChIJiWWHielhSjoRyEN3HCax4wM","Jai Santoshi Matha Road Lines","X4W5+87X, Martur","15.9958581","80.108244"
"ChIJ19zCUV2LSjoRUJh1o6GLvgM","Lucky HP Petrol Bunk","NH 16, Service Road, Martur","15.9710735","80.09647"
"ChIJ14-PUuhhSjoRrinKbABwHQE","Nayara Petrol Bunk","2426+WPP, Rajupalem","16.0023421","80.1118165"
"ChIJqXxmCwBhSjoRvTwxRmdB16w","Bharath petrol limited","2479+966, Rajupalem","16.013722","80.11864"
"ChIJizApdQBhSjoRUPeH4FRSUYE","Sri Hari Fuels - BPCL","2479+966, Rajupalem","16.0138862","80.1186518"
"ChIJ4TA6H_-LSjoRxQKZAQNFmis","Bharat Petroleum","Asian Highway 45, Darsi","15.9506287","80.08693269999999"
"ChIJnQZV4a_1SjoRx5TcRvpnLLc","Hindustan Petroleum Corporation Limited","Ground Floor, Bhagavanrajupalem, Janakavaram Panguluru","15.870384","80.063501"
"ChIJJaCiLr_1SjoRKV4BUC8YS70","Hindustan Petroleum Corporation Limited","Survey No 511/A/2B, near Bollapalli, 512/C/1B1 & 507/1A1, Bhagvanrajupalem, Kondamanjuluru","15.874619","80.06677789999999"
"ChIJbWRXk7X1SjoRBOUYIvdiamk","IndianOil","Survey No 266/1, SH 285 Muppavaram, Janakavaram Panguluru","15.8417843","80.05864249999999"
"ChIJHUvR7yX1SjoRkR8CMdQgN4Y","INDIANOIL PETROL BUNK","Nh5 roads, Bollapalli","15.8969511","80.0727855"
"ChIJGz2w_PT5SjoRzIViQRvG4L0","Bharat Petroleum","ON, National Highway 16, Medaramatla","15.7383833","80.0215499"
"ChIJHUiHUf75SjoRB9KMr5nAndQ","Hindustan Petroleum Corporation Limited","Door No 12, opposite Police Quarters, 1/32, Bapatla, Bodduvanipalem Village, Anakapalle","15.743231","80.010201"
"ChIJ3f2uAQD5SjoR1A_gpnJo0u4","Mr fuel junction (Indian oil)","Medaramatla","15.7350454","80.0148107"
"ChIJ5-FMIC75SjoRVS1HK-3u9fU","Sri venkaiah Swami Filling Station","P2J6+R2C, National Highway 16, Medaramatla","15.7320513","80.0100069"
"ChIJT328zE35SjoR5IuRjHm7peo","Hindustan Petroleum Corporation Limited","Ground Floor, Addanki Road, Korisapdu, Medaramatla","15.726405","80.016198"
"ChIJN6Iyr8P5SjoRVuDW8YI64ZE","Bharat Petroleum, Petrol Pump -Sri Koteswara Filling Stn","MEDARAMETLA TOWN, PRAKASAM","15.723421","80.0161126"
"ChIJDct0I5L5SjoRRe2-nAa0f4o","Hindustan Petroleum Corporation Limited","Survey No 557/3A2 & 558/1A2, National Highway 16, Korisapadu","15.7194879","80.0127401"
"ChIJMzqs5PT5SjoRpAY-lA4xkPs","Sri Saptha Sungai Sevashram Bharat Petroleum","Thimmanapalem, Prakasam, NH-5, Guntur Chennai Highway, Korisapadu, Korisapadu","15.7190712","80.01191299999999"
"ChIJVVnkUr3-SjoRsZDzFLOL2XI","Hindustan Petroleum Corporation Limited","Ground Floor, NH 5, Maddipadu","15.630129","80.018269"
"ChIJt4Z_r0T_SjoRBm-vTIha95g","Hindustan Petroleum Corporation Limited","Survey No 72 & 73/1A, NH 16, Service Rd, Maddipadu","15.624411","80.02049099999999"
"ChIJ6-CTwtz9SjoRlPKLhMXZfk0","IndianOil","Survey No 230, Maddipadu, Vellampalli","15.6416513","80.008172"
"ChIJUXbaNST_SjoRzlt9sj0pQyg","IOCL Petrol Bunk--Dama Fuels","J24G+FXX, Seetharamapuram","15.606228","80.0274803"
"ChIJjch8eXv_SjoRF78qXpaAkPs","Indian Oil with CNG","Survey No 93/1A2 Maddipadu, Seetharamapuram","15.6055833","80.0277638"
"ChIJZSfrecf5SjoRv_0aBmQDSYE","M/s Venkateshwara Oil Filling Station, Essar Petrol Pump","J2X8+F8C, Guntur - Chennai Highway, Rachavaripalem","15.6486793","80.01576159999999"
"ChIJ25lX3k7_SjoRQz7cFL8aRSI","Venkatachalam Filling Station-Bharat Petroleum,Sitarampuram","H2WM+Q3X, Chennai - Vijayawada Highway, Maddipadu","15.5969916","80.03273329999999"
"ChIJT3uy41z-SjoR0dW8tfVaOKk","BPCL Fuel Station - GKFS","Doddavarappadu","15.592276","80.034095"
"ChIJq-G9j135SjoRI3Y_K_KvcTQ","BPCL Fuel Station - Manasa Enterprises","To, ONGOLE Road, GUNTUR","15.670036","80.01637"
"ChIJg9Jkn4P5SjoRbQjJww9aAVM","Sri Lakshmi Ganapathi Filling Station - BPCL","Gundlapalli","15.67005","80.0158352"
"ChIJ-y5JSqIBSzoR2BN8ZabBT_Y","Bharat Petroleum Pump","G28M+JF9, Near Kurnool Fly Over, Acharya Ranga Street, Sujatha Nagar, Ongole","15.5165278","80.0337474"
"ChIJSXrxMjUASzoRaBQdWWBhJIc","Hindustan Petroleum Corporation Limited","Ground Floor, Throvagunta","15.5514995","80.0661051"
"ChIJx7sNeJgBSzoRwxGCkeK5zfc","IndianOil","Lock No 22 & 23, No 6/228/20, Kurnool Road, MaruthiNgr, Reven Ward, Ongole","15.5183461","80.03111390000001"
"ChIJv9rn8ZQASzoRe8lGvAw6Q5I","IndianOil","SY No 560/2, Kothapatnam Road, Koppolu","15.4934839","80.07549949999999"
"ChIJe4f69_0ASzoRsV_dduKCw78","Hindustan Petroleum Corporation Limited","Police Station, beside CCS, Survey No 456 & 457, Kothapatnam Road, Ongole","15.5034711","80.05356809999999"
"ChIJe8og7LEBSzoRfQzdjArbNjY","Bharat Petroleum, Petrol Pump -Sri Lakshmi Srinivasa Agencies","Koppolu Vari Veedhi, Santhanuthalapadu","15.4923751","80.0771927"
"ChIJ20ZIuq4BSzoRWPQkb2Liv-g","Bharat Oil Corporation","G28W+HQG, opp. PAPA Rice Mill, Guntur Road, Nehru Nagar, Ongole","15.5164396","80.04694959999999"
"ChIJ2-2mGVUBSzoRHSxHd-L065Y","IndianOil","Ground Floor, Jail,Addanki Gate, Ongole","15.498662","80.05161199999999"
"ChIJI6li-oMBSzoRekNmAeRcz8Q","IndianOil","Lock No, D1/26, Ongole","15.51","80.0467"
"ChIJ5fb5HtsBSzoRRtyNn6Jian8","Hindustan Petroleum Corporation Limited","Ground Floor Addanki, near bus stand, Ongole","15.509801","80.046651"
"ChIJNWfr370BSzoRfkPIglk7WA8","Bharat Petroleum, Petrol Pump -The Prakasam Dist Motor Ops Spr","ONGOLE TOWN (PDMOP-OLD NH5, PRAKASAM","15.5227862","80.04676309999999"
"ChIJha_GFu8BSzoR-lAdZT1czCs","Hindustan Petroleum Corporation Limited","Ground Floor, Chirala - Ongole Road, Ongole","15.523122","80.046007"
"ChIJ28RKA68BSzoRL5k4TGM5LYU","IndianOil","Lock No D1/19, Ongole","15.5283684","80.0485424"
"ChIJS0B8xWMBSzoRUhfzQM0X_uA","Hindustan Petroleum Corporation Limited","Survey No, 194/2, Old Bypass, Mukthinutala Padu Rural","15.526912","80.047505"
"ChIJW4chZnwBSzoRwdPsLZYdxM8","Bharat Petroleum, Petrol Pump -G.V.S.Oil Filling Station","ONGOLE TOWN (NR NLR BUS, PRAKASAM","15.4961607","80.0488431"
"ChIJ_aFychwBSzoR-fGDqwprLQI","Hindustan Petroleum Corporation Limited","Ground Floor, Trunk Road, Ongole","15.4941901","80.0485601"
"ChIJ92gtTKYBSzoR2s55o0aRwWY","Sai Ratna Filling Station Hindustan Petroleum","Hpcl Dealers, Kurnool Road, RTC BUS Stand, Ongole","15.5126569","80.040762"
"ChIJPcStFHUBSzoRR54mlzITlL0","Hindustan Petroleum Corporation Limited","Ground Floor, NH 5, Throvagunta","15.5359209","80.0494464"
"ChIJ-753pyUBSzoRub3Ipyw79ic","Nusum Hari Krishna","Jai Prakash Colony, 5th Line, Ongole","15.5205854","80.03925470000001"
"ChIJC9okKx8BSzoR_NlatTczUiA","IndianOil","opp. Ramnagar, No 37/1/410/A Trunk Road, Addanki Gate, opp. Ramnagar, Ram Nagar 3rd Lane, Ongole","15.4893001","80.048"
"ChIJ2RwZY0YGSzoRrIx8vjg9lns","BP Ongole COCO Retail Outlet - Company Owned Company Operated","Surareddy Palem, Prakasam, NH-5, Guntur Chennai Highway, Tangutur, Tanguturu","15.3985305","80.03969649999999"
"ChIJbai7kvAJSzoRgOqyx2z_n5A","Jsc filling station","922Q+2GP, Tanguturu","15.3496423","80.0385141"
"ChIJU-v_kAIJSzoRuDHfHaYvlxc","INTURI FUEL STATION NAYARA PETROL PUMP","Tanguturu","15.3481506","80.03781839999999"
"ChIJFy4wHwAJSzoRdGS_I2N89No","IndianOil","Prakasam, Survey No 632/2, Lock No D1/317318 Tanguturu, Ananandapuram","15.3431642","80.03046669999999"
"ChIJOS574ycGSzoRaLpBbXwiHoM","Jio-bp","Ground Floor, Near Milestone 279, Nh 5, Tanguturu","15.3708446","80.0419199"
"ChIJSagWV90ISzoRhy13YVlJ4X4","Hindustan Petroleum Corporation Limited","Ground Floor, NH South Link Road, Tanguturu","15.334394","80.03091599999999"
"ChIJcVWQrEoJSzoRbd1GAe9Mv_A","PETROL PUMP","9367+28, Alakurapadu","15.360047","80.06329699999999"
"ChIJk1lRV2EHSzoRW7pxc0Povk4","Bharat petroleum","92QQ+5FX, T Naidu Palem","15.3879757","80.03874979999999"
"ChIJ26K1fR8JSzoR_yvUB4SNFHw","Hindustan Petroleum Corporation Limited","Survey No 129, Tanguturu","15.339539","80.07335499999999"
"ChIJbfhvDoMLSzoR05kmAWcxDtY","BALAJI BABA FUELS","Singarayakonda","15.2345747","80.0177665"
"ChIJAy-rU-8LSzoRsekKFR4wRJw","IndianOil","Lock No D1/122123 Mulaguntapadu, Kalikavaya, Singarayakonda","15.2651001","80.0255"
"ChIJOxa5TAANSzoRN2GZi3KF31I","Hindustan Petroleum Corporation Limited","Ground Floor, NH 167B, Kanumalla","15.244185","79.996371"
"ChIJ9QCCDoMLSzoRB0x3nwgrCDk","IndianOil","Lock No D1, Aba108/2A1A, Survey No 08, 108/2A1B, Singarayakonda, Kalikivaya","15.2345416","80.0177735"
"ChIJp_-RHxwNSzoRoTliuYTMoiU","Nayara Petrol and Diesel Pump","6XWH+HX9, Kandukur Road, Kanumalla","15.2464133","79.979986"
"ChIJ__RsXgALSzoRTnnbUD0qbrY","Sri Lakshmi Narasimha filling station","beside Nakshatra restaurant, Mulaguntapadu Road, Mulaguntapadu","15.2644431","80.0248137"
"ChIJxVYhKRMLSzoRBQ3SGGKEch4","BMR Fuels (BPCL)","82/1A, Trunk Road, Mulaguntapadu, Singarayakonda","15.268287","80.02596659999999"
"ChIJ1wKaO2ULSzoROVDT0hER2_Q","IndianOil","Lock No D1, 4950, Kalikavaya, Singarayakonda","15.2183001","80.0179"
"ChIJ2bXE-GJzSzoRqeeuhp24pv0","Hindustan Petroleum Corporation Limited","Ground Floor, opposite VRO Office, Ulavapadu","15.153802","80.007515"
"ChIJJyI98PZzSzoRvqwYC4NSOEg","Nayara Petrol Pump – KVR Filling Station","42C4+43G, National Highway 16, Chagallu, Karedu","15.1203184","80.0052071"
"ChIJpy9zUBFzSzoRY2lBB1Utu2s","Hindustan Petroleum Corporation Limited","Survey No 35, A2B NH 16, Ulavapadu, Chagollu","15.1053091","80.00890319999999"
"ChIJ-cvnF2BzSzoRD676d24cCsQ","Hindustan Petroleum Corporation Limited","Ground Floor, K Rajupalem, Ulavapadu, K.Rajupalem","15.1594586","80.0079987"
"ChIJq0J1OdJ7SzoR4rXMsbdDnyE","Hindustan Petroleum Corporation Limited","Ground Floor, Bypass, Indl Estate, Kavali","14.9481741","79.9988405"
"ChIJ6W3i7cJ7SzoRHzkTm1is6yk","IndianOil","No D1, Lock, Near Rtd 328 Kms, 21, Atmakur Road, Kavali","14.9313001","79.99549999999999"
"ChIJHasvPtJ7SzoRHxva6sNcbbI","Damisetty Srinivasa Naidu Filling Station-Hindusta","Madurupadu, Nellore, NH-5, Guntur Chennai Highway, Kavali, Kavali","14.947986","79.999023"
"ChIJoZBZFtJ7SzoR9L-a5K_UpoM","HP","India","14.947983","79.99899789999999"
"ChIJ_zQEJyl7SzoRSIZfs6gbSB8","NAYARA PETROL PUMP - Sri Ganesh Narayani Fuels","Survey No : 835, near Lorry Union Office, 2, Trunk Road, Kavali","14.9353975","79.99678279999999"
"ChIJUzVm2nZ5SzoRhu3mDQtBBuc","IndianOil","SY No 232/2A1, Sarvayapalem Road, Kavali","14.9330607","80.0123065"
"ChIJIRESYL15SzoRx-kqx_VyTy0","IndianOil","SY No 232/2A1, Sarvayapalem Road, Kavali","14.9330607","80.0123065"
"ChIJJ9poCgB7SzoRw3p9kqD2sa4","MG Filling Station ⛽","XXQX+Q76, Kavali","14.9903117","79.99843829999999"
"ChIJMZ6XIg97SzoRtQXoxjdGlWU","Hindustan Petroleum Corporation Limited","Ground Floor, NH 5, GNT Road, Vaddi Palem, Kavali","14.9246603","79.99489609999999"
"ChIJXzifiAh7SzoRYbq3cj0NtQE","DEEKAY AND COMPANY","1-2, Kavali - Patanapuram Road, Kavali","14.9246944","79.99447459999999"
"ChIJhZlxIel7SzoR3Kp888JC1Uo","Gurram's Petrol Pump","Trunk Road, Kavali","14.9246901","79.9944898"
"ChIJKa50pcuDTDoRgxfVGAu8JMs","Bharat Petroleum Petrol Pump","Ibrahimpet, National Highway 5, Kovuru Palli","14.7639466","79.98998519999999"
"ChIJldVQqXKDTDoRrVuGf20Km-Q","Hindustan Petroleum Corporation Limited","Ground Floor Bogolu, Viswanatha Rao Peta, Bitragunta","14.763799","79.990233"
"ChIJ70UYUZmDTDoRbqZ4IK4wxOc","IndianOil","Ground Floor, NH 5, Kadanuthala","14.7878526","79.9982922"
"ChIJbR8tAeaDTDoR8BPWB1l9NVY","IndianOil - SWAGAT","Ground Floor, Dagadarthi, Ulavapalla","14.7387928","79.9974773"
"ChIJsWRB0L2DTDoRA2WwrMGf86Y","Hindustan Petroleum Corporation Limited","Ground Floor, NH 5, Chennai Kolkata Road, Mungamur","14.7985235","79.99737789999999"
"ChIJSw67M7WDTDoR6zIH5vzujc4","Kavali Parking HPCL MGB Filling Station Gowravaram","sy no.445,445/3-c3,657/1-b,656/2,649/1, new, National Highway 16, Gowravaram","14.8078347","79.99501819999999"
"ChIJ6WN1Kw-CTDoRMf6jJeVAaJM","Hindustan Petroleum Corporation Limited","Ground Floor, NH 5 & 16, Chennai Kolkata Road, Kavali, Gowravaram","14.8078515","79.9950057"
"ChIJ-RlDyWiPTDoRTi9eAaDMt2o","P.T Diesel Pump","NH16, Post, Regadichilika, Kammapalem","14.6156353","79.9812225"
"ChIJR-dIzmiPTDoRJkfRJuWrSCs","Bharat Petroleum","India","14.6152928","79.98130429999999"
"ChIJkWaCmH-PTDoRf19bDgR7GP0","SVP Filling Station","Survey 650, Kammapalem","14.6026915","79.9821025"
"ChIJj7braBSPTDoRZJ3ddFQuZkY","Hindustan Petroleum Corporation Limited","Sy No 660/2, National Highway 16, Bodduvanipalem, Kodavalur","14.6022271","79.9822217"
"ChIJPRQi1BWMTDoRCYd2EiZkI30","Hindustan Petroleum Corporation Limited","Ground Floor, Nellore Kavali Road, Kovur","14.518046","79.987949"
"ChIJmcIg9naMTDoRLZpcZW9xdd8","Indian Oil - Hare Ram Fuels","G244+R9X","14.5071112","80.00597119999999"
"ChIJUzLsT8WFTDoR_o_UY_89N4A","Hindustan Petroleum Corporation Limited","Ground Floor, NH 5, Ramanapalem","14.532515","79.990805"
"ChIJob6SCC-NTDoRb8ewBQhjtag","Reliance petrol","GXMQ+CV7, Guntur - Chennai Highway","14.5325632","79.9900262"
"ChIJSy8qKrOPTDoRhdINhE-vI4s","Bharat Petroleum Petrol Pump , LAKSHMI NARASIMHAM","TRUNK ROADNATIONAL HIGHWAY -5 SRI POTTI SRIRAMULU","14.555231","79.98970299999999"
"ChIJmZe4v4aNTDoRsfbMIULrBpo","Bharat Petroleum, Petrol Pump -M.K. Fuels","POTHIREDDYPALEM, KOVUR, Nellore","14.5233564","79.9892376"
"ChIJHYzsGACPTDoRdsS7d0PP3MY","Srenivasa filling station hp","H282+WWF, Kodavalur","14.5673143","80.0022922"
"ChIJObpXms6OTDoRJWhJSn7As_k","IndianOil","Lock No D1/75 Kodavalur, Nellore","14.568384","80.0026101"
"ChIJ-dKwKwCPTDoRPZZuFkg0I5E","Indian oil petrol bunk","HXFM+PM, Basavaipalem","14.5743125","79.98418749999999"
"ChIJcVM3E5OOTDoRC-j7zRJPilw","Hindustan Petroleum Corporation Limited","Ground Floor Kodavalur, Ramachandrapuram, Yellayapalem","14.550698","79.959667"
"ChIJ7V5LexmNTDoRrd27v4EaP0g","Bhavani filling station","GX5C+8GM, Nellore","14.5083488","79.9712902"
"ChIJl07GLaOLTDoRBx19yx18MI0","IndianOil","Survey No 189, Kavez Canal, Garden, Door No 11/6/678, Kovur, Cherlopalem","14.5083108","79.97086089999999"
"ChIJ__xc04yNTDoRFVcpolwgL0Q","BHARAT PETROLEUM PETROL PUMP M/S SAIRAMA TRADERS","SY.NO.243/4, INAMADUGU JUNCTION, Padugupadu","14.5024638","79.9917167"
"ChIJ4yzx36OMTDoRMjAYGoUqqIQ","Hindustan Petroleum Corporation Limited","Survey No 326, Door No 722, Ward No 28, near Mypadu Gate Center, 2A & 2B, Ram Nagar, Nellore","14.4643622","80.00315549999999"
"ChIJX6HfOUnzTDoR6OT4zaiwE4c","Hindustan Petroleum Corporation Limited","Ground Floor, Muthukur Road, Nellore","14.4376465","79.9912946"
"ChIJQ_ClGMuMTDoRA6EeAh_cH9g","Hindustan Petroleum Corporation Limited","Door No, 11/21, Somasekara Puram, Nellore","14.4461612","79.98321680000001"
"ChIJW_-dW_KMTDoRniYktmwXR7M","Bharat Petroleum- B V R Filling Station","State Highway 57, Santhapeta, Pothireddypalem","14.4812686","79.9830238"
"ChIJOVLbihWNTDoRTsIP0-ltQv4","MVR FILLING STATION","F235+CHM, Nawabpet, Nellore","14.453559","80.00873220000001"
"ChIJpzC42amMTDoRPBXxEh1m788","Bharat Petroleum","India","14.4536436","80.00855229999999"
"ChIJiV-c_auMTDoR7mUOA8bTKck","Y G","India","14.4513212","80.0036916"
"ChIJe25RUqWLTDoR-xX43H6Zjgg","Bharat Petroleum Petrol Pump , NANDHAN FILLING STATION","SY,NO.259/2 &260, STONEHOUSEPETNAWABPET, near ALLIPURAM, Nellore","14.457439","80.014353"
"ChIJfzWwpqeMTDoRavxhjjUB75A","M/S D.S Filling Station Hindustan Petroleum","Hpcl Dealers Narukur Road, Nawab PET, Nellore","14.4598301","80.0070092"
"ChIJi8C9x4yNTDoRnA_VeXpxpdI","Hindustan Petroleum Corporation Limited","Ground Floor, Narukur Road, Nawabpet, Nellore","14.45984","80.0069944"
"ChIJUVgbvbGMTDoRWd3zsCu1jnY","శ్రీ వెంకటేశ్వర్లు సమోసా","India","14.4526287","79.9956224"
"ChIJG5fZOQCLTDoRco5ThDUAKp0","Hindustan Petroleum Corporation Limited","3rd, Mile Centre, S No 260/1, Mypadu Road, Nellore","14.4654282","80.0149045"
"ChIJj3Q-w3vzTDoRZR-evrtRyNI","BPCL: VS Kameswari filling station","CXQX+F4J, Ramji Nagar, Nellore","14.4387164","79.9977559"
"ChIJy0r2MQDzTDoRdPKEKMdxQyM","Indian oil by varidireddy brothers","opp. medicover hospital, beside benelli keeway showroom, NH16, Nellore","14.4371469","79.99868180000001"
"ChIJzfIegLaMTDoRNbMhEHW_Wwg","BPCL: PT Gopalachari and Sons Nellore","Ramji Nagar, Nellore","14.4508415","79.9893733"
"ChIJZfrS1LWMTDoRsbck7w3MkEY","मारत पेट्रोलियम","India","14.4505435","79.9891944"
"ChIJffwWFkzzTDoRl0xld9iaKWc","GASMART","CXRV+58G, 7th Street, Ramji Nagar, Nellore, Ramji Nagar, Nellore","14.4404331","79.9933417"
"ChIJdw1TKwCNTDoRZA_O66l0iEg","R K T Service Station","FX4Q+W26, Kapatipalem, Santhapet, Nellore","14.4572781","79.9875115"
"ChIJdQ2KZgCLTDoRa5r4_KoIXi4","Yanamala Grand Sri Hari Fuel Station","F2C9+JRH, Navalak Gardens, Allipuram","14.4715528","80.01961089999999"
"ChIJJ-_Qc76MTDoRc5mHM1CAMQk","IndianOil","Lock No D1, weavers colony, Nellore","14.466441","79.991409"
"ChIJuazj8mHtTDoRqc5mTU5VB-E","Hindustan Petroleum Corporation Limited","Survey No 2063/5, BIT 1, Dycus Road, Nellore","14.41382499999999","79.917931"
"ChIJKTsSBGfyTDoRRfnrS1XcbCs","Hindustan Petroleum Corporation Limited","Ground Floor, NH 5, Gudur Road, Chemudugunta","14.3886707","79.93925809999999"
"ChIJu942BQB1TToRUBZH0GHW8pc","Reliance Petroleum","National Highway-5, Tada Mandal, Ground, Akkampeta, Andagundala, Nellore","14.3928346","79.9316655"
"ChIJyTV6efbyTDoR0BySYYwItpM","IndianOil","1575, Grand Trunk Road, Thalpagiri Colony, Nellore","14.3995834","79.947566"
"ChIJO726eUyNTDoRa91OoLdbJwk","Bharat Petroleum, Petrol Pump -Kennard & Co Vedapalayam Nellore","AYYAPPAGUDI CIRCLE, Nellore","14.4031254","79.95133059999999"
"ChIJFXt7wvDyTDoREbBydpKZ-JE","LAKSHMI ENTERPRISES","India","14.4045159","79.9509455"
"ChIJGbbYIrD1TDoRdNygLqCCEyg","IndianOil","Survey No 59/6, Plot No123, Kakupalle Road, Vaviletipadu, Nellore","14.4039137","79.95487949999999"
"ChIJbTJC2iLzTDoRs5nxPtoPB_Y","Shell Petrol Bunk","Grand Trunk Road, Vedayapalem, Nellore","14.4079596","79.9536514"
"ChIJzTFVi_7yTDoRn5c6wY-SNBI","NAYARA","CX26+R9R, Padarupalli Main Road, Thayagaraju Nagar, Padarupalli, Nellore","14.4021034","79.9608952"
"ChIJg9n9PdDzTDoRKra9TEHiqZA","KNN Filling Station","Office, opposite Telugu ganga, Podalakur Road, Telugu Ganga Colony, Vengalrao Nagar, Nellore-1 Rular","14.4135861","79.9413239"
"ChIJAX4LNZfyTDoRj5v6ddY25pY","Hindustan Petroleum Corporation Limited","Ground Floor, Podalakur Road, Vasuda Nagar, Nellore-1 Rular","14.413901","79.932141"
"ChIJRfHT0gLyTDoR7-i_QN4oKow","IndianOil","India","14.3525884","79.9339066"
"ChIJYRw7J57zTDoRQLwBJ2-LsFQ","IndianOil Eswar Filling station","near jain temple, nh-15, near jain temple, Venkatachalam, Kakutur","14.3526828","79.9302218"
"ChIJw3tlgOPzTDoRqjMwMFdXAdo","Hindustan Petroleum Corporation Limited","Survey No 268/2, Kovvur Road, Pothireddypalem, Nellore","14.4106463","79.9634944"
"ChIJNTq4tebyTDoR7NmosnL-Y_0","IndianOil","Near Nippo Factory, Grand Trunk Road, Chandra Mouli Nagar, Rithwik Enclave, Vedayapalem, Nellore","14.4162807","79.958373"
"ChIJeWnRc-fyTDoRlvQXn9DZlyw","IndianOil","Lock No D1/56 Plot No 3637, Andhra kesari Nagar, Nellore","14.419301","79.956306"
"ChIJlfRkm-_zTDoRJGsM30UjEW0","Lavanya Petrol Pump","near Zp Schools, 23/12/1250, Podalakur Road, Nellore","14.4196854","79.9563517"
"ChIJb29_4ODyTDoRn_TpOfxL6As","Bharat Petroleum BPCL: Lalitha Filling Station","CX95+6W9, Industrial Estate, Vedayapalem Industrial Estate, Vedayapalem, Nellore","14.4180264","79.9598496"
"ChIJ_eWmay7zTDoRH7rnoUtnNi0","KONDAVEETI BHUVANA TEJA","12/36, 3rd Street, Road, Nellore","14.4215366","79.9566967"
"ChIJGeVUbEDzTDoRLLVdPdFlD0E","Hindustan Petroleum Corporation Limited","S No 15/5 & 14/1A, Venkatachalam, Golagamudi","14.3590523","79.97301329999999"
"ChIJyf2Y2vPvTDoRBRSlOXCaP7s","Hindustan Petroleum Corporation Limited","Ground Floor, Manubolu, Cherukumudi","14.2652517","79.90199319999999"
"ChIJGzbN-4rvTDoR0G8jg1tsHsw","Jio-bp","MILE STONE 153/8,NH 5,VILLAGE:ANUPALLIPADU,POST_OFFICE :, Manubolu","14.3011971","79.91008320000002"
"ChIJCXaRRjvxTDoR8qHB0P-98CU","Bharat Petroleum, Petrol Pump -C. Venkata Ramanaiah Filling Statio","GURUVINDAPUDI-KRISHNAP, NELLORE","14.2937986","79.92562509999999"
"ChIJr04XJw_lTDoRL81D082YcD4","IndianOil","Lock No D1/8, Near Rtd 152 Kms, Manubolu, Akkampeta","14.2249257","79.8809548"
"ChIJ9Suc8fLjTDoReD0UrCaeQPE","Bharat Petroleum (Sathwika Filling Station)","5V32+244, Venkatagiri - Gudur Road, Ashok Nagar, West Gudur","14.1536505","79.8498183"
"ChIJH8YCuQjlTDoRktLg0nr8RhQ","V M Reddy Filling Station","Sachivalayam, Baddevolu Main Road, Venkannapalem","14.1738489","79.9007247"
"ChIJixxHwQ7lTDoRcs0tfzAbsmI","Manubolu bunk","6VGJ+CF8, Chennai - Srikakulam Highway","14.2260363","79.8811911"
"ChIJr9mxyU7lTDoRlg1KN77tn3k","Bharat Petroleum, Petrol Pump -Gudur Filling Station Manubolu","MANUBOLU, NELLORE","14.2269906","79.88169769999999"
"ChIJLcXhQhgdTToRo7xFY0s0N7c","IndianOil","Lock No D1/29, National Highway 16, Ojilirajupalam, Armenipadu, Nellore","14.036917","79.895127"
"ChIJ1cC9XgAdTToR4RWQJVmdj4Y","Ad Blue DEF","2VPW+38X, Bhatlakanupuru","14.0347067","79.8957483"
"ChIJlYtQzxgdTToRF8wb0UKjeqA","Srinivasa Fuels-Bharat Petroleum","Rajupalem, Nellore, NH-5, Guntur Chennai Highway, Ozil, Ozil","14.0339288","79.8950942"
"ChIJY0KHQuDjTDoRPAgNLlQfRaA","Siddharth Rao Agencies - IOCL Fuel Station","S. NO: 148-1A, NH ROAD, BUDANAM VILLAGE, CHILLAKUR MANDAL","14.0783347","79.8898956"
"ChIJW4RUTwAdTToRVB8vTtNK1PI","Nayara Filling Station - Shri Rama Energy Station","Kammavari Palem","14.0715165","79.9169041"
"ChIJn4PaSL8DTToRPUysivOxugo","Dushyanth Krishna Fuels","Chillakuru, Kammavari Palem","14.070433","79.9194102"
"ChIJyQDbTq4aTToRa0nFK1YY4PI","Hindustan Petroleum Corporation Limited","Survey No 4/1C & 4/2 Juvvalapalem, Biradawada","13.9006926","79.911205"
"ChIJlzdzYawaTToRn7qn5TqkqzU","HP Petrol Pump","Biradawada Village, Juvvalapalem Panchayat,naidupeta Mandal,","13.897714","79.916269"
"ChIJyZBRV0EbTToR8KFtTRm5-QM","Raghavendra filling station","6, near Andhra Bank, 337, Rama Krishna Puram, Nayudupeta","13.9090343","79.899405"
"ChIJhWwjOwAbTToRHYW_mRZc2-I","Naidupeta","1-1-297, 2, Mangapathi Naidu Nagar, L.A.Sagaram","13.9145991","79.89636709999999"
"ChIJW_hnTMQbTToRYiRNtp_g4WQ","IndianOil","Survey No 280, 5281/7A & 281/8A, Muchalagunta, Naidupet, Thummur R","13.9148971","79.8960762"
"ChIJHSQWPUAbTToR9RlfBwMuvSk","Hindustan Petroleum Corporation Limited","Ground Floor, Tirupathi Road, Nayudupeta","13.9038677","79.89934079999999"
"ChIJV9B2g5YaTToRZMX8Zj69Ivs","HP PETROL PUMP - SIVARAGINI FILLING STATION","Nayudupeta","13.9039078","79.8989407"
"ChIJlSQXYwAbTToR0vqsVMUDFh0","Bharat petroleum .sri Karthikeya fuels","WWC2+6CW, Chennai - Kolkata Highway, L.A.Sagaram","13.9206192","79.9010837"
"ChIJAaOOcbAaTToRVqfKk2wBjWg","Bharat Petroleum, Petrol Pump -V.S.R. Filling Station","ON NH-5, Naidupet","13.9037292","79.90875950000002"
"ChIJSbZQh6EbTToRxyB1cCVkrVE","Hamsa Biodiesel Filling Station","WW25+C7J, Juvvalapalem","13.901256","79.908383"
"ChIJW_ub4a8aTToRTtjFH7dh0vY","IndianOil","Lock No D1/205, Nayudupeta","13.9015805","79.9094083"
"ChIJV9HzWgAbTToRMa1auiIheJM","Sri karthikeya fuels","VVVV+V82, Naidupeta Bypass, Nayudupeta","13.894631","79.8932548"
"ChIJ_YtiYQAbTToR3MUsL8yP0d0","Keerthika Filling Station BP","4-4-7, Puthalapattu - Naidupeta Road, Swarnamukhi River Area, Lothodu Gunta, Talavayipadu","13.8933857","79.8829658"
"ChIJbZFvZgAbTToRilUFJOHXzmY","IndianOil harsha petroleums","WVF8+M86, Graddagunta Village Road, Graddagunta","13.9241748","79.8657612"
"ChIJc_5XMD8aTToR3u5_CiD94GM","Hindustan Petroleum Corporation Limited","Survey No 193, 4 to 7, Naidupeta - Venkatagiri Road, Menakuru","13.9151136","79.86127189999999"
"ChIJRSKaD0MaTToROc2j3bDBebg","కృష్ణా హైరర్స్","India","13.9150884","79.861046"
"ChIJt2Bnk4YQTToRwben1brAulU","IndianOil","Survey No 97/1A Naidupet, Pellakuru","13.8812586","79.8700842"
"ChIJT8s-QgAbTToRPA0lt238SCA","HARSHA PETROLEUMS","WV85+432, Menakuru","13.9152545","79.8575431"
"ChIJr_2wrbwbTToREx9ZWLQ3cTk","IndianOil","SY.NO.165/4&165/5CNAIDUPET, Naidupeta - Venkatagiri Road","13.915411","79.85754"
"ChIJEY8sd_gNTToRxBjHnzkBAxw","Bharat Petroleum, Petrol Pump -Sree Parameswari Filling Station","KOTAPOLUR ON, NH-5, NELLORE","13.7756715","79.9617526"
"ChIJlRoKwpwNTToRWej_tdf-Vhw","SRI VAIBHAVALAKSHMI FILLING STATION BPCL DEALERS","DV Satram, Chennai - Kolkata Highway, Polireddy Palem","13.776491","79.96246380000001"
"ChIJadKlPlAPTToR6O8gFk9jnn0","IndianOil","No 124/5, NH 16, Doravarisatram, Akkarapaka","13.780546","79.955356"
"ChIJLwtSqrwMTToRkORP5DaCVXw","IndianOil","Lock No D1/21, Rtd 39, Sullurpet,Uchur, Sullurupeta","13.728214","79.99746900000001"
"ChIJm6TE75UNTToRvJbWNz29qlc","Bharat Petroleum, Petrol Pump -Sri Vaibhava Lakshmi Filling Stn.","POLIREDDYPALEM (NH-5), NELLORE","13.7943409","79.949562"
"ChIJvUr0r6Z0TToRCORoZG0uz7Y","Bharath Petroleum","M2W7+3F5, Indiranagar, Sullurupeta","13.6951395","80.0137379"
"ChIJGcswY7p0TToRqjEe13BAXbc","IndianOil","Lock No D1/190, Sullurpet,Uchur, Sullurupeta","13.699766","80.022967"
"ChIJowHsPIR1TToRH__ZzAPgLL0","Bharat Petroleum, Petrol Pump -Taj Enterprises","KONDUR, NELLORE","13.6607518","80.0131213"
"ChIJI_3gSgB1TToR3-iy0OzNiLI","JIO BP PETROL PUMP","Magi, Andagundala","13.6314722","80.02024999999999"
"ChIJPQqdOPh1TToRUdOeYVjk-68","Jio petrol pump Ram Chhabile","Magi, Andagundala","13.6314858","80.020511"
"ChIJQ6MIsRZ1TToRSP4Srp6gRpA","HP Petrol bunk","P246+7V8, Sai Nagar, Erapalem","13.7056586","80.0121959"
"ChIJOQ6IoFZzTToRdJ06KM9x0as","BP Petrol Pump","P243+5QJ, Mannar Polur","13.7054537","80.0044028"
"ChIJwZYEHlRzTToRlvUity6iPw4","Lakshmi Venkateswara Enterprises","Srikalahasti Road, Mannarpolur Village","13.705688","80.003901"
"ChIJp5XyHqF3TToRfvkeho8tuKw","Hindustan Petroleum Corporation Limited","Ground Floor, NH 16, Chennai to Vizag Road, Tada, Nellore","13.557319","80.056431"
"ChIJM2opxcF2TToRrVKe54qL8fk","K.MOHAN AND CO BHARAT PETROLEUM RETAIL OUTLET","Eluru By pass Road 2, Railway Over Bridge, on, National Highway 16, Tadakandriga","13.5941392","80.0304115"
"ChIJgdjXnMV3TToRjJzkofxCP_4","IndianOil","Ground Floor NH 5, Grant Road, Uchur, Pudi","13.575798","80.044206"
"ChIJCUGskv93TToR3ILbZ3fHVIE","BPCL COCO FUEL PUMP","H2JR+56, Sri City","13.5803999","80.040567"
"ChIJlVGgVgB3TToRbYKg9at5IgE","Tada","H2PQ+7G2, Tada","13.5856417","80.0387776"
"ChIJX78UwNZ3TToR86lmiKjEKXk","Bharat petroleum","G3Q8+FF3, Arambakkam","13.5388424","80.0658012"
"ChIJhcnDyGJ3TToR1IIFZEN-66w","IndianOil","S No 195/17B Egumadurai, Gummidipoondi","13.5417432","80.0212949"
"ChIJr_mMSYp3TToR_S3htWv4qLM","IndianOil","Tiruvallur, S No 252/4A2, Lock No 1094/1 Arambakkam, Gummidipoondi","13.5338023","80.0714407"
"ChIJJVJKUQB3TToR_E2VkROIJV0","Tada","J22G+GJ6, Tada","13.6012802","80.02651990000001"
"ChIJx_xTxb52TToRrgT4evAQTLE","IndianOil","Survey No 203 Tada, Irakam","13.60118","80.026195"
"ChIJ_97Tx9GBTToRA-Gm3-uUnA4","Hindustan Petroleum","C435+98V, Anthoni Pillai Nagar, New Gummidipoondi, Sinthalakuppam","13.4034892","80.1083098"
"ChIJH9P42LaBTToRs6xKqrgc6uw","Hindustan Petroleum Corporation Limited","Ground Floor, GNT Road, Gummidipoondi","13.3954904","80.1333607"
"ChIJnfkbK8SBTToR3x6nGIfLZIU","Muthuram Bharat Agencies (MBA), Gummidipoondi","GNT Road, Gummidipoondi","13.428473","80.1142938"
"ChIJ408rGcKBTToRNzJAaEFPEzk","Bharat Petroleum - Company Owned Company Operated Outlet(COCO)","GNT Road, Pappankuppam","13.4172124","80.1146797"
"ChIJYbwKxPiBTToRvuQ8B_alZMY","Essar Petrol Bunk","C4HF+3FH, Unnamed Road, Swamy Reddy Kandigai, Kottai Karai, Gummidipoondi","13.4276827","80.12374899999999"
"ChIJu0OPDPyBTToRNGNnkBqnixw","Bharat Petroleum- Thiruchitrambalam Fuels","to, Madharpakkam - Gummidipoondi Road, Gummidipoondi","13.4374238","80.1143941"
"ChIJHU6BUtuBTToRwN6YKqZHR58","Hindustan Petroleum Corporation Limited","Tiruvallur, No 87 Pethikuppam Gate, Gummidipoondi, Thervazhi","13.4372548","80.1169087"
"ChIJiXNhp4OBTToRPSNXabqOwSM","Bharat Petroleum Keerthana Fuel Service","C4FG+FM7, Peddikuppam","13.4238906","80.1265452"
"ChIJg0Nxrr2BTToR2tPFir_hA_I","KEERTHANA FUEL SERVICES 03","GNT Road, Gummidipoondi","13.4267637","80.12681979999999"
"ChIJXdNHn4GBTToR_sIymY1OBoY","Shri Sabhari commercial","C465+P9P, Anthoni Pillai Nagar, Gummidipoondi","13.4117014","80.10966239999999"
"ChIJoX6BTtuBTToRogzh8XBXYGY","INDIAN OXIGEN GAS","661/97, Gummidipoondi","13.4129802","80.1271708"
"ChIJtfr4QW-BTToRTCH4CKQO5wc","Indian Oil Petrol Pump","Gummidipoondi, GNT ROAD, CHINNAOBULAPURAM,GUMMIDIPOONDI TALUK","13.4124841","80.1268966"
"ChIJUbJnLY-BTToR4rSW1-Bjnmo","sekar enterprises petrol bunk","C44G+PXW, Gummidipoondi","13.4068684","80.1274602"
"ChIJR2VcFQOBTToRj7knqFDuwD8","Bharat Petroleum Petrol Pump , S.R. AGENCY","Pattupalli Rettambedu Road, VILLAGE","13.417393","80.13868099999999"
"ChIJOYrdlxCCTToRNgTcONN54CM","IndianOil","Tiruvallur, Lk No 1018, No 61, NH 5, GNT Road Chinna Oppalapuram Rd, Poondi, Arambakkam","13.453151","80.113579"
"ChIJySbWGJqDTToRCGFIQrreUlA","Bharat Petroleum, Petrol Pump -V.M.Shami Agency","GUMIDIPOONDI (NH-5), TIRUVALLUR","13.4532154","80.1146435"
"ChIJLwuNEW15TToRMFjjEfe5UK8","Bharat Petroleum Petrol Pump , SRI RAJESWARI AGENCY","VILLAGE, Pappankuppam","13.441174","80.080765"
"ChIJLezZZl6DTToRl8-OESgKTFE","Sree Chozhan Fuel Station (BPCL)- GNT Road - Elavur","Sy No:1281, G.N.T Road, Mahalinga Nagar,Elavur Village, Gummidipoondi","13.4656769","80.1117842"
"ChIJeaMwblGATToRGBsmS7-6yBQ","Rahul Fuel Station BPCL","Nangapallam","13.3897796","80.1350435"
"ChIJp-5GcFGATToR7TUJ0GiQlKc","Bharat Petroleum","India","13.3897898","80.1350799"
"ChIJ68RHsTN_UjoRjZIZHndRyYs","IndianOil","Lock No 1073/121, Lock No 1159, SH 51, Kumangalam, Ponniammanmedu, Ponneri","13.3222001","80.18406680000001"
"ChIJf6pvPQp_UjoR7dHSbwG7WMs","Hindustan Petroleum Corporation Limited","No 33/2B1, Ponneri, Durainallur, Puduvoyal","13.3233002","80.1440981"
"ChIJr1yhFwp_UjoRqKEk5hcp9Ok","SRI VENKATESWARA FILLING STATION","India","13.3232965","80.14409870000001"
"ChIJt2I7DMB_UjoR5f6WPrQVke4","Hindustan Petroleum Corporation Limited","Ground Floor, Mahindra City Gummidipoondi, Ponneri Road, Kavaraipettai","13.3390526","80.1586688"
"ChIJ1VXqzvqBTToREU_kOf0flvY","IndianOil","Lock No 1019, NH 5, Gpoondi, Kavaraipettai","13.3546766","80.1418138"
"ChIJA2h6iomBTToRApPpPKaT9OE","Madhuri veeran cycle shop","456, Raja Street, Kavaraipettai","13.3631819","80.139805"
"ChIJH2mRtwF_UjoRJQQicm_w7Ks","IndianOil","Sy No 124/3A2A, Peravallur, Thachurkoot Road, Puduvoyal","13.30639","80.1464251"
"ChIJy0nXHv5-UjoR60fkIN25Xn4","Bharat Petroleum","India","13.305162","80.14723939999999"
"ChIJM_tq2C1_UjoRAOCSzbteGZ0","Hindustan Petroleum Corporation Limited","Ground Floor, Ponneri Highway, Borex Nagar, Chinnambedu","13.3050383","80.1463713"
"ChIJQxT8Jep_UjoRT-QYZpwpv9w","KCN LAILA AMMAL AGENCY","Borex nagar pervullur village, post, Chinnambedu","13.3050346","80.1464697"
"ChIJLaUTcQB_UjoRwUiDCOs3gM4","BP - Coromandel (BPGhar - CoCo near Thatchur)","843X+W3R, Peravallur","13.3050228","80.1474346"
"ChIJr61RGGGATToRenzCgfN5--U","Hindustan Petroleum Corporation Limited","Ground Floor, Grand Northern Trunk Road, Kavaraipettai","13.3701901","80.1390401"
"ChIJj4rc0WiATToRVg4HeX_8ptE","Hindustan Petroleum Corporation Limited","Ground Floor, Panapakkam Sathyavedu Road, Kavaraipettai","13.368033","80.12956600000001"
"ChIJdwZhH2GATToR4ev1t-xbssY","SMILEAGE","India","13.3705267","80.1386836"
"ChIJz4gzMS9_UjoRWYMarquvUW4","Bharat Petroleum, Petrol Pump -S.S.P. Agencies","TATCHUR KOOT ROAD TO PULIC, TIRUVALLUR","13.3113078","80.1750678"
"ChIJt8ihegB_UjoRxuXPBpqnETE","BPCL MAGIZHAN ENTERPRISES","857H+VQC, Krishnapuram, Thadaperumbakkam","13.3146864","80.1793948"
"ChIJP4pd4at_UjoRjthDIVrqHqQ","Hindustan Petroleum Corporation Limited","Ground Floor, near Honda Showroom, to, Ponneri Highway, Krishnapuram, Thatchoor","13.3207276","80.1830399"
"ChIJ7yXI8BOAUjoRpI4MjLi8j0Q","Hindustan Petroleum Corporation Limited","Shop No 399, near Arani, 3B & 400, Market, IB Ponneri, Arani","13.333533","80.098161"
"ChIJ5UGY6LJkUjoRDRoKlRL1Xm8","HP Petrol Bunk torrent cng pump","HPC Dealers, Grand Northern Trunk Road, Pozal, Chennai","13.1689801","80.2006892"
"ChIJ08d8zbhkUjoRWsUlFU1d0jc","Bharat Petroleum Petrol Pump","5635+J48, Mettu Street, Mettuppalaiyam, Puzhal, Chennai","13.1540392","80.20783899999999"
"ChIJf16zaTZ7UjoRnNKZlF5x4wo","IndianOil","Lock No, 1161/121, SN 34, Madavaram Red Hills Road, Sumangali Nagar, Vadaperumbakkam, Chennai","13.178138","80.2118301"
"ChIJR0O37l57UjoR-RVDnA6nH7Y","IndianOil","Lock No 1040/122, No 2/373, NH 5, Bypass Road, Red Hills, Padianallur","13.189282","80.191177"
"ChIJh2ScMddkUjoRgXIxOWab82s","Hindustan Petroleum Corporation Limited","Ground Floor, Parking Yard, near Manjambakkam, Jawaharlal Nehru Salai, Madhavaram, Chennai","13.1622505","80.227036"
"ChIJ4U6b_tlkUjoRAQ3zEl3oEII","IndianOil","S No 468, 3, 200 Feet Ring Road, Madhavaram, Chennai","13.1598984","80.22705309999999"
"ChIJC6NLat1kUjoRTaX23K-EG_Q","HP PETROL PUMP - PRIYA AGENCIES","Srinivasa Nagar, Madhavaram, Chennai","13.1487171","80.2221864"
"ChIJsYxkEeZkUjoR48SKyoZOOe8","HP Petrol Pump - COMCO Madhavaram","46VC+CW7, A-37, National Highway 16, J Garden, Madhavaram, Chennai","13.1435513","80.2223127"
"ChIJ0a7CDOZkUjoRsrWycihrSKI","IndianOil","No 815 & 816, Grand Northern Trunk Road, NH 5, Madhavaram, Ponniammanmedu, Chennai","13.1429384","80.2227383"
"ChIJu9jS1uVkUjoRPLPHHIyzcpw","IndianOil","186, Grand Northern Trunk Road, Madhavaram, Chennai","13.1428828","80.2233025"
"ChIJjbe8lfFkUjoReIlaAI29WQk","IndianOil","Ground Floor, 200 Feet Ring Road, Ponniammanmedu, Chennai","13.135538","80.21661399999999"
"ChIJV5hS-x57UjoRi79unvQNh8g","JMR Fuel Enterprises Essar Petrol Pump","Priya Nagar, Vilangadupakkam, Perungavur","13.1979903","80.2283405"
"ChIJJ1uR2OVkUjoRbZkRD8o3rgE","HP Fuel Station","NH 5, Madhavaram, Chennai","13.138412","80.22913109999999"
"ChIJ3Q1135R8UjoRf64sJV_4Vpk","AVR BALASUBRAMANI SONS , INDIAN OIL","M G R Street Gandhi Nagar, Red Hills, Naravarikuppam","13.195395","80.16606290000001"
"ChIJ29k-YTNlUjoRFeFhDVGpiqM","Hindustan Petroleum Corporation Limited","No 447/1A1, Ambat, Puzhal, Tiruvallur","13.16896","80.20065"
"ChIJYzsWshVlUjoRSANU7HgdiUA","Hindustan Petroleum Corporation Limited","No 348, Wall Tax Road, Tiruvallur","13.16898","80.20071999999999"
"ChIJw_9z1BdlUjoRFAxV1a-8hLQ","Hindustan Petroleum Corporation Limited","Ground Floor, GNT Road, Puzhal, Tiruvallur","13.168981","80.200721"
"ChIJh6ky4BZlUjoRLAe5CH3F_fQ","IndianOil","Survey No 523/2, near Unit Of Tamilnadu Prison Department, Puzhal, Kadirvedu","13.167899","80.2005004"
"ChIJrYr6mFJ7UjoRrhjVrP_VlVE","IndianOil","169, GNT Road, Kavankarai, Puzhal, Kadirvedu","13.172142","80.198167"
"ChIJLW6dSCFlUjoRp_WK1sBEuWo","Thiru","4th17th Street, Kannappasamy Nagar, Kavangarai, Tiruvallur","13.168187","80.193362"
"ChIJ4wpyR8hlUjoR4WAundTNPuQ","IndianOil","No 7/8, Lk 1104, 121, Constable Road, Alagesan Nagar, Ayanavaram, Chennai","13.1023479","80.2414198"
"ChIJcyY02-hlUjoRXpeNUMKZVQo","IndianOil","No 1106, New No 63, Old No 31, Lock, 121, Perambur Barracks Road, Purasaiwakkam, Chennai","13.0950927","80.2591444"
"ChIJiypWKM9lUjoRdbfbVdRiAJY","IndianOil","Lock No 1048, No 36, 122, DKH Road, Ayanavaram, Chennai","13.0973957","80.24074019999999"
"ChIJv-SyblRvUjoR578fcTWXq-w","IndianOil","Lock No 1007/122 Ratan Bazaar","13.086373","80.281219"
"ChIJeWq9PeNlUjoRRbkJ4LkJxXQ","HP Petrol Pump","99, Vepery High Road, Periamet, Vepery, Chennai","13.0856493","80.26449490000002"
"ChIJCUYb8I1lUjoRWQbIdsO6pDE","IndianOil","Ground Floor, 1, Erukkenchery High Road, Vyasarpadi, Chennai","13.109632","80.26623599999999"
"ChIJLWWJT2FvUjoRC7pAqgC0KOs","Bharat Petroleum- Eshwanth petrol agency","89/35, Cemetery Road, Minakshi Ammanpet, Old Washermanpet, Chennai","13.1102471","80.28156899999999"
"ChIJdVufKkxvUjoR-34rKDuF89E","HP PETROL PUMP","HP Dealers NO2 Subramaniam Stree, Krishnamoorthy Nagar, Kodungaiyur, Chennai","13.0885399","80.2904638"
"ChIJeVMlSQ9mUjoRCWOa0n4SX44","IndianOil","Ground Floor, Egmore, Chennai","13.0758763","80.26414419999999"
"ChIJJ7mm0NxlUjoRIciyBQgNGF4","IndianOil","Door No 243, 1 243/2 & 243/3, Brick Kiln Road, Purasaiwakkam, Chennai","13.0919448","80.2511505"
"ChIJSbMssQpmUjoRMFGqqJ5fGLE","Bharat Petroleum Petrol Station","No:6, Raja Annamalai Road, Purasaiwakkam, Chennai","13.0804838","80.25493209999999"
"ChIJySB74A1mUjoR5houpKdlqGM","HP Fuel Station MSHSD AUTO CAR CARE Pantheon Road","36, Pantheon Road, Egmore, Chennai","13.0720634","80.2597931"
"ChIJv3H_Cr9lUjoRjwMgtgUgqwM","Propel Auto LPG","4742+7HJ, Perambur High Road, Jamalia Nagar, Jamalia, Chennai","13.105713","80.2513836"
"ChIJUVA9-HJmUjoRR90yFEjNe2Q","IndianOil","No 89, Lk 1035/122, Lock, 04687, Spur Tank Road, Chetpet, Chennai","13.072356","80.25160199999999"
"ChIJP-0lwWtvUjoRQ2GvkRswcw8","Hindustan Petroleum Corporation Limited","17/1L West, South Madha Church Street, Royapuram, Chennai","13.109759","80.294817"
"ChIJxR0BwBJmUjoRnMwj0r7Uprs","BP Petrol Bunk","below the bridge, No. 403/62, Pantheon Road, Egmore, Pantheon Road, Sulaiman Zackria Avenue, Egmore, Chennai","13.068756","80.255814"
"ChIJ-eu1_3ZmUjoR_zZDs6wfgAw","Hindustan Petroleum Corporation Limited","260, EVR Periyar Salai, Kilpauk, Chennai","13.078081","80.246301"
"ChIJ0yJyM9hlUjoRv7U67iPFdMU","Hindustan Petroleum Corporation Limited","9A, Balfour Road, Chennai","13.084136","80.24430699999999"
"ChIJSQLTus9lUjoRyXa4W8f7xHA","Bharat Petroleum Pump Station Ayanavaram","Medavakkam Tank Road, Nammalwarpet, Ayanavaram, Chennai","13.0936189","80.24127770000001"
"ChIJg3bmOX5vUjoRdY9s1X_g00A","IndianOil","Lock No, 1093/121, Kathivakkam High Road, Korukkupet, Old Washermanpet, Chennai","13.124465","80.277817"