place_id,name,address,latitude,longitude,open_now
"ChIJ7ZzG488ipDsR9Q1iqzuSV5A","IndianOil","Ground Floor, Mappila Bay, Ayikkara","11.859216","75.37606699999999","true"
"ChIJXThVn3ckpDsRbH42umFjl1w","IndianOil","Ground Floor Etakkad, Muzhappilangad","11.815689","75.437161","true"
"ChIJbdsOyhI9pDsRz31cd7Yutcc","Bharat Petroleum, Petrol Pump -Ramla Enterprises","Old Muncipal Bus Station, Ayikkara Government Hospital Road, Thavakkara, Kannur","11.8590206","75.3756277","true"
"ChIJf0NgrcAjpDsRxSEfTYTfyuU","IndianOil","Ground Floor, Mappila Bay, Ayikkara","11.859132","75.378518","true"
"ChIJIVcOgkgjpDsRzWUEHEgg0Lw","IndianOil","Ground Floor, Bypass Road, Thazhe Chovva, Chelora","11.860126","75.414509","true"
"ChIJRQxcLzYjpDsRf12y54m5Vis","Hindustan Petroleum Corporation Limited","Ground Floor, Thazhe Chovva, Kizhuthally, Bypass Road, Kannur","11.863381","75.410731","true"
"ChIJzbm50E8mpDsRq_cG2DOVpOk","N. Sadananda Pai & Co - Bharat Petroleum","QF2V+C7Q, TC Road, Vadikkal, Thalassery","11.7510976","75.4932462","true"
"ChIJA9AMdAAnpDsRg4xPw4h5jRU","Dharmadam Fuels IOCL Dealer","QFF9+8V2, Dharmadam - Melur Road, Edapuzha, Dharmadom","11.7736788","75.469512","true"
"ChIJSzgxggElpDsR0roReBe9vGs","MRPL Petrol pump","RCQR+WQQ, Koothuparamba â€“ Chovva Bypass Road, Kadachira","11.8399743","75.44193","true"
"ChIJNVFgvMclpDsRHkbT90MidNc","Hindustan Petroleum Corporation Limited","Ground Floor, Thalassery - Irikkur Road, Pinarayi","11.8071272","75.494721","true"
"ChIJl1cZaWIlpDsR89C5FA_ubJI","IBP AUTO SERVICE.KOTTAM.MAMBARAM","Vll/02, Mambaram","11.828644","75.494531","true"
"ChIJ-yhdSnklpDsRmEk3nMkQSfw","IndianOil","Ground Floor, Kannur - Kuthuparamba Road, Mambaram","11.828644","75.494531","true"
"ChIJJ5FSkzU9pDsRmVOFmeBx2P0","Hindustan Petroleum Corporation Limited","Ground Floor, Kannur Railway Station Road, Kannur","11.872832","75.3655885","true"
"ChIJaZ3-ZZ09pDsRBqEwJq7KbnU","Hindustan Petroleum Corporation Limited","Ground Floor, Alavil - Azhikode Road, Chalad, Kannur","11.877791","75.35736100000001","true"
"ChIJK-Ls4Kw9pDsRqlNXGYkXtIQ","Megha bharath gas godown","W932+9WW, Chirakkal","11.9034803","75.3523158",""
"ChIJtWvXXC8WpDsRjQV9BuH_9T4","IndianOil","Ground Floor, Azhikode","11.921863","75.334116","true"
"ChIJ857bs1U9pDsRsegpbdf4_nc","Bharat Petroleum, Petrol Pump -Alinkeelkannan & Co.","MK Road, KNR, Kannur","11.8730754","75.3653597","true"
"ChIJIb5oXtY9pDsRTcSVZAJGaAs","GG FUELS COUNTER 2","156 Gg Fuels Building, Kannur","11.8727036","75.36541500000001",""
"ChIJV8cFXXA9pDsR6dOBs6WU8uA","GG FUELS COUNTER 1","Gg Fuel Building, 123, Kannur","11.8727961","75.3655595","true"
"ChIJrewFrHEXpDsRelqc5lIrN2c","Hindustan Petroleum Corporation Limited","RS No 181/125 & 182/124, Azhikode North","11.9318534","75.3274911","true"
"ChIJA4JUVcsipDsRWs5r1pDToHY","Bharat Petroleum Corporation Limited BPCL Kannur","V99C+G66, Thavakkara, Kannur","11.8687765","75.37052729999999",""
"ChIJQRa51zM9pDsRYC_6mP33ykg","Anand Associates","Adithya Tower, opp. Civil Station, Kannur","11.8745175","75.3726006","true"
"ChIJ_xExSzc9pDsRBlC7IgAUngE","Bharath Petroleum/ Ramraj & co","Talap, Kannur","11.8790428","75.3704193","true"
"ChIJC--UGCw9pDsRG__ZE2gOAs0","Hindustan Petroleum Corporation Limited","Ground Floor, Thana, Kannur","11.874571","75.380651","true"
"ChIJE4sGWNQ8pDsRUo3AJ-bfbek","Bharat Petroleum Jayasree Petrol Pump","ROAD, Kannur, Thalassery","11.8727653","75.3915343","true"
"ChIJAzWPMoU9pDsRpHh7eZRnVxY","Hindustan Petroleum Corporation Limited","Ground Floor, Manna Road, Valapattanam, Kannur","11.9213984","75.35261349999999","true"
"ChIJV3tndGw9pDsRx2Dupo6BsDI","Bharat Petroleum, Petrol Pump -Harrisbrothers","near CIVIL STATION, Kannur","11.8752231","75.3730533","true"
"ChIJMWaTojE9pDsREaFpsQXqMV0","IndianOil","Ground Floor, near Civil Station, Puzhathi Housing Colony, Kannur","11.876154","75.373701","true"
"ChIJ4RMbjuU9pDsRp-II8kCDnzE","Murali Trading Company","Counter 3, Murali Trading Company, Caltex Road, Caltex, Kannur","11.8791944","75.37392299999999",""
"ChIJN09Ahms9pDsRvpxTrnwB9RE","IndianOil","Ground Floor, Thana, Kannur","11.8741033","75.3859097","true"
"ChIJEQ-J6kQ9pDsR86oHS8-nDEk","HARICHANDRA FUELS","Ground Floor, Kakkad Road, Kannur","11.881411","75.383881","true"
"ChIJtSyo8tQ8pDsRbFOJV757-Og","IndianOil","Ground Floor, Chovva, Attadappa","11.872427","75.392018","true"
"ChIJx4YC_tE8pDsRtCLKi78ZtU8","Hindustan Petroleum Corporation Limited","near Village Office, Ground Floor Mele Chovva, near Village Office, Kannur - Mattannur Road, Elayavoor","11.876323","75.3994058","true"
"ChIJ4YZO_x49pDsRor14CXwQTSY","Petrol Pump Kakkad","Kakkad, Kannur","11.8950625","75.3849375","true"
"ChIJR45BzUE9pDsRLdDWpLYLuPE","IndianOil","Ground Floor, Pallikkunnu, Kannur","11.9002725","75.3682182","true"
"ChIJUTpJKz09pDsR1kLbFDv0ORQ","Bharat Petroleum Pallikulam Petrol Pump","Ancham Peedika - Kolathuvayal Road, Chirakkal, Puzhathi","11.908133","75.3674403","true"
"ChIJCV6qVCk9pDsRJn7eeSQjcN4","Hindustan Petroleum Corporation Limited","Ground Floor, opposite Ramesh Store, Panankavu, Chirakkal, Kannur","11.9116019","75.374737","true"
"ChIJsfvCYLw9pDsRvYk5td8duqU","NAMANS SMOKE TESTING CENTER","W95R+7J8, Pulloopi Kadav, Puzhathi","11.908156","75.391582",""
"ChIJNWJPmp49pDsRcuWy7P8sNRA","A.M Water Service Station","W985+MP2, National Highway 17, Chirakkal","11.9166424","75.3592523","true"
"ChIJQwH0EAA9pDsRIAYrjt7foRk","cng online station","VCW6+38C, Kannur - Mattannur Road, Varam","11.8951877","75.4107507",""
"ChIJfz3Nzeo8pDsRRzcelD-Z0uo","IndianOil","Ground Floor, near Varam Hospital Road, Mundayad - Kakkad Road, Elayavoor","11.895134","75.410918","true"
"ChIJ_-zJEpk9pDsRXJ-tiWIUncc","Bharat Petroleum Petrol Pump , SREEDEVI AGENCIES","Chirakkal, Puthiyatheru","11.921241","75.361634","true"
"ChIJH6sAKhs9pDsRZVc1t1fsctg","Hindustan Petroleum Corporation Limited","Ground Floor, Manna Road, Valapattanam, Kannur","11.9213984","75.35261349999999","true"
"ChIJ28SVxqs9pDsRhrHa7TMfjWw","IndianOil","Ground Floor, Valapattanam, Kannur","11.921965","75.354558","true"
"ChIJ80EGuTA9pDsR_N_O8JSDZso","K C GOVINDAN","opposite to Amana Toyota, Valapattanam, Kannur","11.922375","75.35467580000001","true"
"ChIJq95rPsA9pDsRkyrwmpJFt20","ELITE PETROLEUM","Elite Petroleum MS, Varam","11.905309","75.4109193",""
"ChIJIaPv7Zc9pDsRRQzPSIzLqsM","IndianOil","Ground Floor, Chirakk R S, Kattampally - Kottali Road, Chirakkal, Kannur","11.924734","75.363341","true"
"ChIJR9V-a5A9pDsROE0yeHf4Cy4","IndianOil","Ground floor, Valapattanam, Kannur","11.924726","75.354523","true"
"ChIJWa0pS4k9pDsR6RMSk-KHqRQ","Umar Abdullah BHARATH PETROLEUM BPCL VALAPPATTANAM","W8HW+2RG, Valapattanam","11.9275565","75.347073","true"
"ChIJRSF3z9I9pDsRqtjhEn8mQ7E","Bharat Petroleum Pump- Pappinisseri Ceramics","W9P2+87H, Cottons Road, Chungam, Pappinisseri","11.9358229","75.3507364","true"
"ChIJGX0HUEslpDsR2-FACu7DM1c","IndianOil","Ground Floor Anjarakandy, Thalassery - Irikkur Road, Muringeri","11.875557","75.509576","true"
"ChIJndftkFk7pDsRMWuHr9LGX6M","IndianOil","Ground Floor Chakkarakkal, Mowancheri","11.890502","75.463308","true"
"ChIJQ6TJy2U7pDsRNgjHOYRrc60","Bharat Petroleum, C. R. Fuels","WC2V+MCP, Eachur, Munderi","11.9017206","75.4435826","true"
"ChIJtaG_sDw7pDsRNQyROQFV8I4","Bharath petroleum Chakkarakal - Vijaya Fuels","near Bus station, Chakkarakkal","11.8916789","75.4688705","true"
"ChIJRUxmQRI7pDsRLhr_2ija_Gk","Shivasakthi Fuels","Shivasakthi Fuels, 6-598/A, Kudukkimotta","11.9143886","75.45717499999999","false"
"ChIJ59LmDAA7pDsRN6YOqO-UNIU","HP Petrol Pump","WF74+QW3, Kudukkimotta","11.9143906","75.45728129999999",""
"ChIJ9w66vyQ7pDsRWqYKOUSoyao","Hindustan Petroleum Corporation Limited","Ground Floor, Mamba, Kannur","11.886026","75.48854399999999","true"
"ChIJIY2QIhE7pDsR3z16x9ncDzc","GAIL SV10M","WF9G+249","11.9175423","75.4753564",""
"ChIJ52VmFAA7pDsRUPo54BKdzek","Petrol pump Padannot","WFJ2+32, Padnnot Motta, Munderi","11.9288033","75.44986999999999","true"
"ChIJqcFL9eIXpDsRqbY9TVLPpM8","IndianOil","Ground Floor, Azhikkal","11.942487","75.311014","true"
"ChIJXRGvgO4XpDsRe21aKleEd6M","Hindustan Petroleum Corporation Limited","No 28/1B, Azhikode North","11.9446991","75.3102996","true"
"ChIJXcs9aTEUpDsRZoQtggW2cwY","IndianOil","Ground Floor, near Oliyankara Juma Masjid, Matool","11.9686592","75.28775379999999","true"
"ChIJmWhUTgAVpDsRdnnIGk6aCUw","Hindustan Petroleum Corporation Limited","Ground Floor, Cherukunnu","11.9774017","75.3185933","true"
"ChIJ14zmYgcVpDsRd1d7fgwvWZI","Bharat Petroleum, Petrol Pump -Sree Krishna Agencies","PAZHAYANGADY RD KNR, KANNUR","11.9812259","75.3152894","true"
"ChIJO6KkMgg-pDsR6Ev7xw4p3sY","Hindustan Petroleum Corporation Limited","Ground Floor, Nh 17, Pamballa, Keecheri, Pappinisseri","11.957766","75.3557261","true"
"ChIJIVxodPkUpDsRuEIjsMX4vTI","IndianOil","Ground Floor, Pazhayangadi Road, Cherukunnu","12.002122","75.28617299999999","true"
"ChIJd87xxD88pDsR-8EfLywaz18","IndianOil","Ground Floor, Kannadiparamba","11.939523","75.410288","true"
"ChIJ1yGrPEU-pDsRX-12NERITWk","Hindustan Petroleum Corporation Limited","Ground Floor, Dharmasala, Kanul","11.989331","75.375091","true"
"ChIJdSPPrvM-pDsRJ4LTz7YBq_c","IndianOil","Ground Floor, Kolmotta,Nanichery, Parassinikadavu","11.992938","75.391761","true"
"ChIJt8VITAA9pDsR7trqAGOBK-o","AV FUELS","Vaidhyarkandi, Chelery, Kannadiparamba","11.9500533","75.4130693","true"
"ChIJRQw5v0A-pDsR7DRMA5-D2RM","KCCPL Fuels","X9M8+P92, Morazha Kannapuram Road, Mangattuparamba","11.9842637","75.365887","true"
"ChIJwWyeSgA9pDsReVR5fJf3WMM","Padnnot","Al zain, pcm road, Kottam Road, p.o, Munderi","11.9369783","75.4185213",""
"ChIJ3SKEI4I_pDsR61LK5BmMcxM","Bharat Petroleum","Parassinikadavu","11.9845807","75.39600159999999","true"
"ChIJn-d80Jc-pDsRcHeUmwD8hzY","IndianOil","Ground Floor, Chirakkal - Mayyil - Kololam Road, Kambil","11.973212","75.41057099999999","true"
"ChIJhxbZxhE5pDsR676bAScwO-Y","IndianOil","Ground Floor, Pazhassi, Kandakai, Pavannur Motta","11.992503","75.468323","true"
"ChIJZcBnMLw7pDsRFGDtIlYqRYQ","Bharat Petroleum Chekkikulam Fuels","XC3W+VW4, Maniyoor","11.9549411","75.4470151","true"
"ChIJJfeMCQc7pDsRS1Y9HkfjfAA","IndianOil","Ground Floor, Chattukapara, Cheruvathalamotta","11.9558028","75.45979590000002","true"
"ChIJ-cxl7Nk7pDsRXAuJEZXYgJA","Bharat Petroleum","Valiyannur Nayattupara Road, Chattuvappara","11.9583877","75.468189","true"
"ChIJESlu3sk7pDsRda_XePuXOqo","NAYARA petrol bunk (marmoom fuels)","XF4P+6MJ, Kannan Peedika","11.9553145","75.4872587","true"
"ChIJmzWB-MU-pDsRLpSbGriK8Xg","Hindustan Petroleum Corporation Limited","Ground Floor, Gopalan Peedika, Kayaralam","11.9891912","75.4236719","true"
"ChIJ98BbXlc6pDsRoODDqRPvSGE","JAI JAWAN FUELS - Indian Oil Petrol Pump","Kannur - Mattannur Road, Koodali","11.924111","75.4924843","true"
"ChIJs4Wzli85pDsRj6dtjZoOJg8","IndianOil","Ground Floor, Rd, Kandakai, Chalode","11.996878","75.44501799999999","true"
"ChIJX2doVqg7pDsRbuSzDz_AC-0","Kalyani Fuels - Bharat Petroleum petrol pump","WGH2+4CM, Chalode","11.9278314","75.5010617",""
"ChIJv8BlWGg7pDsRqFHGaP7W1JY","IndianOil","Ground Floor, Edayannur, Chalode","11.928387","75.502113","true"
"ChIJI-l32sA7pDsR-OtE4_uK5b4","Hindustan Petroleum Corporation Limited","Ground Floor, near Chalode, Kololam Road, Junction, Edayannur","11.9379469","75.5043005","true"
"ChIJMQ5Ejq07pDsRTg1NR4GGNb0","Sajinafuels (Bharat petroleum)","XG62+458, Vaduvankulam","11.9602971","75.5004411","true"
"ChIJQ5yo_WQ5pDsRkXwhQL62ckk","PRAVEENA FUELS-Indian Oil Petrol Pump","Pavannur Motta","11.9899135","75.47901329999999","true"