place_id,name,address,latitude,longitude,open_now
"ChIJGTUa7ltwCDsRpIgUWnAXh7A","Hindustan Petroleum Corporation Limited","Ground Floor, NH 66, Eramalloor, Alappuzha","9.827889099999998","76.31018689999999","true"
"ChIJYV0HaXRxCDsR9FdY_nZw-_Y","Hindustan Petroleum Corporation Limited","Ground Floor, Cherthala - Arookutty Road, Arookutty, Alappuzha","9.8694601","76.321941","true"
"ChIJxerYa3dyCDsRuuHV30AafXA","IndianOil","Ground Floor, Palluruthy, Kochi","9.9172729","76.27505049999999","true"
"ChIJ1R6yaXdyCDsR14GFe5CPyuo","Bharat Petroleum Pump ATS","Palluruthy, Kochi","9.917589399999999","76.2752967","true"
"ChIJ8y4Gy3hyCDsRmxTIv0iKy3c","IndianOil","Aroor - Thoppumpady Road, Palluruthy, Kochi","9.923655100000001","76.272789","true"
"ChIJW0HjZGFwCDsRXJGm0Rba6mM","IndianOil","Ground Floor, Eramalloor, Alappuzha","9.8169012","76.313519","true"
"ChIJvZW05sBxCDsRz89tNNgnmVE","Bharat Petroleum Pump SR Fuels","177b, Keltron Ferry Road, Pazhangad, Kumbalangi, Kochi","9.8615075","76.2921755","true"
"ChIJY-satbxxCDsRYMPcNMTOrkY","IndianOil","Ground Floor, Aroor gram panchayat, Kochi","9.861208999999997","76.30568699999999","true"
"ChIJBe3k4gtxCDsRPkSuFLiF7Ug","Aroor industrial Estate","Elite Foods pvt ltd, Puthanangadi Road, Aroor gram panchayat, Kochi","9.883196699999997","76.3002922",""
"ChIJ6XpQLIlxCDsRPeHSQsQbzhM","Bharat Petroleum Petrol Pump & CNG Station St.Augustine Fuels","Aroor gram panchayat, Kochi","9.8816634","76.3025071","true"
"ChIJU_rqxEZwCDsRZwIpC8BZT50","IndianOil","Ground Floor, Thuravoor - Kumbalangi Road, Ezhupunna","9.827658999999999","76.298138","true"
"ChIJfwNeVGpzCDsROJ1GT3yn5pQ","IndianOil","Ground Floor, Edakochi, Kochi","9.897986699999999","76.29506479999999","true"
"ChIJobhavgRxCDsRkqi-5aqvJ4c","IndianOil","Survey No 146, 12A/2 Mattathibhagam, Cherthala - Arookutty Road, Panavally","9.851003000000002","76.327461","true"
"ChIJwwejF45xCDsRms8GyJMnTGU","George Fuels","47, Aroor - Thoppumpady Road, Palluruthy, Kochi","9.923035299999997","76.2728265",""
"ChIJ8_CHGhNtCDsRdXVjeYsAbrk","IndianOil","GROUND FLOOR, Thoppumpady, Kochi","9.9326916","76.26584009999999","true"
"ChIJAcAeUwJ0CDsR8aJYq9PdDzs","IndianOil","Ground Floor, Nadakkavu, Udayamperoor, Ernakulam","9.892275","76.371783","true"
"ChIJEbQkAt12CDsRCVDVxuuAiRQ","Hindustan Petroleum Corporation Limited","Ground Floor, Poothotta, Ernakulam","9.8551501","76.384041","true"
"ChIJnZQ7tIlzCDsRkwKw1iy3l4I","Hindustan Petroleum Corporation Limited","Ground Floor, Vaikom Road, Udayamperoor, Thrippunithura, Ernakulam","9.9190343","76.3620375","true"
"ChIJ10pZjT10CDsRtTTW-rRV-R0","Hindustan Petroleum Corporation Limited","Ground Floor, Kottayam Road, Mulanthuruthy","9.9052901","76.387621","true"
"ChIJM6EMR-53CDsRPcKmuFcD0cE","Bharat Petroleum, Petrol Pump -C.M.K Petro Product","Udayamperoor, Thrippunithura, Ernakulam","9.882268","76.37528499999999","true"
"ChIJFYu5EkN3CDsR8jqQ7uYR1aw","Bharat Petroleum, Petrol Pump -S.D.S. Petropark","Poothotta Bridge, State Highway 15, Thrippunithura, ERNAKULUM","9.8864437","76.3742913","true"
"ChIJuz_6Sx9xCDsRcdBM_WjSWec","Hindustan Petroleum Corporation Limited","Ground Floor, opposite Odampally UP School, Cherthala - Arookutty Road, Alappuzha","9.8182653","76.35104380000001","true"
"ChIJ36pjnOhzCDsRSMOmWCiVWHE","Petro Commercial Enterprises","MLA Road, Udayamperoor, Thrippunithura, Ernakulam","9.9120215","76.360992",""
"ChIJCdEKQFB1CDsRBj8SnTwBWVY","IndianOil","Ground Floor, Nadakkavu, Kanayannur, Manakunnam","9.9104622","76.36507189999999","true"
"ChIJSd8Di_p3CDsRL52wyiRRkZI","Bharat Petroleum Manickanamparambil Energy","V9GV+MM4, Mulanthuruthy Kanjiramattom Road","9.876625599999999","76.3942098","true"
"ChIJ_YODbKhwCDsR0Jb-nz1KD5I","IndianOil","Ground Floor, Poochakkal, Olavaipu","9.803244","76.353307","true"
"ChIJfxka7vF2CDsRR7fyI1vvDa8","IndianOil","Ground Floor, Kanayannur, Amballur, Ernakulam","9.863173699999999","76.39958229999999","true"
"ChIJA3GJRKN1CDsR99qEiSWY9vk","IndianOil","Ground Floor, Mulanthuruthy","9.900501","76.38851199999999","true"
"ChIJL7oCDHNtCDsRAlUQm60I510","IndianOil","P T Jacob Road, Mundamveli, Kochi","9.935673000000001","76.25104859999999","true"
"ChIJ88y07UJtCDsRm59K3g3sYV4","Bharat Petroleum Pump","X724+RXQ, Jawahar Road, Kappalandimukku, Mattancherry, Kochi","9.952093399999999","76.25748449999999","true"
"ChIJjz9cVW9tCDsRWnoo1v5v3r0","Hindustan Petroleum Corporation Limited","Ground Floor, Chullickal, Kochi","9.9450101","76.2594701","true"
"ChIJQcnn9XptCDsRU-x2TYL5nHA","Bharat Petroleum Pump","9/2865, Tagore Road, Harbour Bridge, Ernakulam","9.937067599999997","76.2612487","true"
"ChIJR3j1YIJyCDsRJzPIutktoy8","IndianOil","Fishing Harbour, Thoppumpady, Kochi","9.9369211","76.262604","true"
"ChIJJV5C2XptCDsR5tciazHo9aM","Hindustan Petroleum Corporation Limited","Ground Floor, Fisheries Harbour, near Cochin, Thoppumpady, Kochi","9.9387901","76.2620901","true"
"ChIJTbnl6kRtCDsRzTIFmkn6wp4","Hindustan Petroleum Corporation Limited","Ground Floor, Anavathil, Mattancherry, Kochi","9.9574201","76.257871","true"
"ChIJT3wzasQSCDsRjhUDWgGVlZg","IndianOil","Ground Floor, Azheekal, Murikkumpadam, Ernakulam","9.987093","76.24015","true"
"ChIJ4XvH4pxtCDsRgfpaqItkZs0","Pappangamukku","W6MW+WFM, P T Jacob Road, Moolamkuzhi, Mundamveli, Kochi","9.934829500000001","76.2461864",""
"ChIJ09l3lQxtCDsRT5zKxM1WSTg","Hindustan Petroleum Corporation Limited","Ground Floor Fort, Saudi Junction, Mundamveli, Kochi","9.934820100000001","76.246411","true"
"ChIJnbIyX2ltCDsRnn11VUssCCQ","IndianOil","Chullickal Road, Mattancherry, Kochi","9.9457013","76.2538125","true"
"ChIJd4eph0ptCDsRY6kzTghaObw","IndianOil","Ground Floor, Fort, Kochi","9.968343599999999","76.2445429","true"
"ChIJTT-B4E9tCDsRV3Y5ISLUg9k","IndianOil","P T Jacob Road, Thoppumpady, Kochi","9.9354034","76.2579133","true"
"ChIJkW3jd2htCDsRF0nex0i_Xk4","IndianOil","Kochangadi, Chullickal, Kochi","9.944537100000002","76.261627","true"
"ChIJR7zkBwBtCDsR4_eulVw20FU","Shamboor main rode 3 cross ghandhi nagar bangaloor karnadagham","no 43, M J Zakaria Sait Road, Panayapilly East, Kappalandimukku, Mattancherry, Kochi","9.951967200000002","76.25964479999999",""
"ChIJ5wC9bwATCDsRnSepDGm68mc","old bharath petroleum pump","X6HR+VCQ, Puthuvype, Kochi","9.9797161","76.2411054",""
"ChIJ3cqCocALCDsRFxXCZKwp7yA","IndianOil","Ground Floor, Vypin, Ernakulam","9.9808709","76.2410209","true"
"ChIJQeRF-JRyCDsR30zsWYJe9Nk","Mookken Devassy Thevara and Co","Mookken Devassy (Thevara) & Co. BPC Dealers Perumanoor Jn, Thevara, Kochi","9.948623099999997","76.2914763","true"
"ChIJ127geH1tCDsRaCFpQB-Y-iQ","IndianOil","Ground Floor, Willingdon Island, Kochi","9.9375977","76.270697","true"
"ChIJTYtIZoJyCDsRi0ZkcwTGW9g","IndianOil","Old NH 47, Willingdon Island, Kochi","9.9368911","76.272217","true"
"ChIJV9S0XH1tCDsRXlwxj5qo3RE","Hindustan Petroleum Corporation Limited","Ground Floor, Matsyapuri, Willingdon Island, Kochi","9.9389801","76.270361","true"
"ChIJG1XM-blyCDsRreGpMUUSPf0","IndianOil","Ground Floor, Mahatma Gandhi Road, Ernakulam","9.962243099999998","76.288491","true"
"ChIJIU4NzqZyCDsRX4237RDfo_c","IndianOil","Bristow Road, Willingdon Island, Kochi","9.9568484","76.2691625","true"
"ChIJDQPpBq5yCDsRXo5c2oh44xI","IndianOil","Ground Floor, Durbar Hall Road, Ernakulam","9.967718","76.28222629999999","true"
"ChIJP_mYGLdyCDsRE2wfyYIRE0A","Hindustan Petroleum Corporation Limited","Ground Floor, Sahodaran Ayyappan Road, Valanjambalam, Kochi","9.9649389","76.2899905","true"
"ChIJ04Y6qslyCDsRH15GPMcRLjk","Hindustan Petroleum Corporation Limited","Ground Floor, Sahodaran Ayyappan Road, Kadavanthra, Kochi","9.966028899999998","76.29701229999999","true"
"ChIJGdfTD00NCDsRpSdATKWSRBo","Hindustan Petroleum Corporation Limited","Ground Floor, opposite Maharajas College Ground, Mahatma Gandhi Road, Kochi","9.9754901","76.28468099999999","true"
"ChIJu0PfoctyCDsRiB4bJPE5a2U","Bharat Petroleum","Kaloor - Kadavanthara Road, Ernakulam","9.9710992","76.2985478","true"
"ChIJRaD9EAJzCDsR2xBe5pkGiuM","IndianOil","Ground Floor, Bypass, Kundannoor, Maradu, Kochi","9.9379001","76.318499","true"
"ChIJSffcxANzCDsRIZaCk6dWV7E","Bharat Petroleum Pump","W8PC+XGV, Kochi-Madurai-Tondi Point Road, Maradu, Ernakulam","9.9374936","76.32128809999999","true"
"ChIJHwD7a85yCDsRQzMufjWrteg","Bharat Petroleum Pump PC Auto Fuels","X893+2JX, Sahodaran Ayyappan Road, Elamkulam","9.9676206","76.3041164","true"
"ChIJteoPAgJzCDsRNThdpsCkYKU","IndianOil","Ground Floor, NH 47, Kundannoor Bridge, Maradu, Ernakulam","9.9431","76.3186367","true"
"ChIJgdcN8bgSCDsR5xVGzw6XQvE","IndianOil - SWAGAT","Ground Floor, opposite Ictt, Vallarpadam, Ernakulam","9.985009999999997","76.2482939","true"
"ChIJ06rehscSCDsRQX5ya9ctRLo","Bharath Petroleum - COCO Outlet","X6PX+628, Vallarpadam, Kochi","9.9855296","76.2475919","true"
"ChIJN4VJIkANCDsR6T17TFdJgnI","Bharat Petroleum pump (CNG Available )","near Purva Grandbay, Abraham Madamakkal Road, Marine Drive, Ernakulam","9.990231599999998","76.2712821","true"
"ChIJ9ZTVW0QNCDsRDHk_SvhrdKM","Hindustan Petroleum Corporation Limited","Ground Floor, Banerji Road, Kochi","9.9879801","76.28593099999999","true"
"ChIJcZ775idzCDsRuHQtNA8Uw68","Hindustan Petroleum Corporation Limited","Ground Floor, NH Bypass, Vyttila, Kochi","9.9639974","76.3187918","true"
"ChIJ64MhwytzCDsRcqMMQQUYMMs","Bharat Petroleum Company Owned Pump and CNG Filling","Hub Bus Terminal, Vyttila Mobility Hub Road, Vyttila, Ernakulam","9.9703261","76.3215876","true"
"ChIJqWAkJGcNCDsRUFJCsQvc7Zc","Hindustan Petroleum Corporation Limited","paramara 680014, Tatapuram Sukumaran Rd, Kacheripady, Ernakulam","9.997320799999999","76.2778428",""
"ChIJ91BknCUNCDsRWmOEislfXOw","IndianOil","Ground Floor, Thammanam, Ernakulam","9.9861901","76.30905899999999","true"
"ChIJE7PTI0ANCDsRbQdMMd3snMI","IndianOil","Ground Floor, Kaloor, Ernakulam","9.995344099999999","76.292686","true"
"ChIJATa4l3pzCDsRItN_16E4zRY","Hindustan Petroleum Corporation Limited","Ground Floor, Kochi","9.9365814","76.2725566",""
"ChIJgXPCgitzCDsR6PgbEe03Tf0","ONE TEEPEYEM FUELS","Teepeyem Fuels, NA, Old NH 47, Willingdon Island, Kochi","9.936981399999999","76.2721059",""
"ChIJB-uHYstzCDsRDvkuLX1-0-Y","C1 TEEPEYEM FUELS","Teepeyem Fuels, NA, Bristow Road, Willingdon Island, Kochi","9.937007499999998","76.2721461",""
"ChIJuUKabLxzCDsRyhee11I6KtA","Bharat Petroleum Pump MD Confrate Fuels","MATTANCHERRY HALT, KOCHI, ERNAKULUM","9.938162199999999","76.2719102","true"
"ChIJg2t8qglzCDsRYlyw5TKY9qE","IndianOil","S No 976/1, Thevara, Kochi","9.943368699999999","76.29466769999999","true"
"ChIJ0-YS08lyCDsRU2qDYJfnHu0","Melamparampil Agencies","Opp Malayala Manorama, S.A Road, Ernakulam","9.9658983","76.2947804","true"
"ChIJg66Ci0sNCDsRAP4dSSDCFKY","Diesel Indian Oil Pump KSRTC","X7HQ+2G2, Shenoys, Ernakulam","9.9775051","76.2887774","true"
"ChIJKWHrFQANCDsRDJi4Nttv1S8","WILSON AGENCIES","X7JM+J5G, Jew Street, Padma Junction, Pullepady, Ernakulam","9.981569499999999","76.2829687","false"
"ChIJp_yxr05zCDsRKHsuXbOdSdA","IndianOil","S No 369, National Highway 85, Maradu, Ernakulam","9.938700899999999","76.32547459999999","true"
"ChIJT6IK_VBzCDsRgx8wtEIxcxQ","IndianOil","Ground Floor, Sahodaran Ayyappan Road, Kochi","9.968240099999997","76.31287019999999","true"
"ChIJtYcBywtzCDsRHkeedraO7yc","IndianOil","Ground Floor, Kanayannur, Poonithurs, Vyttila, Ernakulam","9.968220599999999","76.3129251","true"
"ChIJYwP9RIMNCDsR-bdBLnYk2dk","IndianOil","Ground Floor, Manorama Junction, Kochi","9.9682496","76.31292309999999","true"
"ChIJpaWcoRVzCDsR9n07pdwKemE","Hindustan Petroleum Corporation Limited","Ground Floor, Vadakkekotta, Thrippunithura, Kochi","9.9523767","76.33763189999999","true"
"ChIJs-kJ22BzCDsRqpVUCYdoqzk","EVM Honda Tripunithura","near Passport Office, near Indian Oil Pump, Karingachira, Thrippunithura, Ernakulam","9.952456399999999","76.3590303","true"
"ChIJ35PF-W5zCDsRTfJeaD59pZg","Bharat Petroleum","XX/1160, East Fort Gate Junction, State Highway 15, Thrippunithura, Ernakulam","9.9462555","76.34857889999999","true"
"ChIJT14k2mBzCDsRKR7lO5Wu8LE","IndianOil","ground, Karingachira, Thrippunithura, Ernakulam","9.9522228","76.3588534","true"
"ChIJ1cZ3UaF0CDsRv9PXciLZcwU","IndianOil","Ground Floor, Ambalamugal, Ernakulam","9.960108","76.368872","true"
"ChIJKx_kbKR0CDsRWC7BkG_kRcc","Bharat Petroleum COCO Pump - Chitrapuzha","X96C+H23, Ambalamugal, Kochi","9.96138","76.37005409999999","true"
"ChIJ9dACm60MCDsRzh16otaD6Co","Bharat Petroleum, Irumpanam - Company Owned Company Operated","Seaport - Airport Road, Irumpanam, Kochi","9.978978799999998","76.3529152","true"
"ChIJu_Od7q0MCDsRzyFwEVrj_3o","IndianOil","Ground Floor, Irumpanam, Ernakulam","9.98061","76.35319319999999","true"
"ChIJc3SXkLp0CDsR51fXvKOT298","BP AMBALAMUGAL (BPCL COCO OUTLET)","Refinery, Opp: Kochi, Chithrappuzha-Ponjassery Road, Ambalamugal, Kochi","9.965696499999998","76.3771433","true"
"ChIJF6bkeK8MCDsR5xN8OeTUZ3o","Hindustan Petroleum Pump - COCO","Seaport - Airport Road, Irumpanam, Kakkanad","9.9869007","76.3523069","true"
"ChIJy8O_3icNCDsRILn2uVldIBU","Hindustan Petroleum Corporation Limited","Ground Floor, NH47 Bypass, Chakkaraparambu, Kavaraparmbu, Ernakulam","9.985883599999998","76.3156912","true"
"ChIJqd_UiSMNCDsR6xJkbBKc-GE","Supergas Auto LPG Station TVA Fuels","# 35/2953 - C, Thammnam, Puthiya Road, Ernakulam","9.990766799999998","76.30950059999999","true"
"ChIJC_HsKJt0CDsRs5OQzO91InU","Bharat Petroleum, Petrol Pump -Super Agencies","THIRUVAMKULAM, ERNAKULUM","9.944947599999999","76.3722074","true"
"ChIJecTfphdzCDsRPUFAelpaCBI","IndianOil","Ground Floor, near Petta, Junction, Poonithura, Ernakulam","9.950827","76.33086899999999","true"
"ChIJy3nmr6ZzCDsRKtwFEdbH3uc","IndianOil","Ground Floor, Thrippunithura, Ernakulam","9.95267","76.3382","true"
"ChIJrfLsJQBzCDsRgOPrmkbepyE","Viren filling Station","X934+7HH, Karingachira, Thrippunithura, Ernakulam","9.9531949","76.35649289999999",""
"ChIJw_-748F1CDsRSMO0np9j168","IndianOil","Ground Floor, Kottayathupara, Chottanikkara, Kadungamangalam, Ernakulam","9.934250999999998","76.375033","true"
"ChIJndX7lZVzCDsRi7-9W8lv_68","IndianOil","Karingachira, Ernakulam","9.9603754","76.3610152","true"
"ChIJBZeI3uR1CDsRDAmFJbeT5VY","Bharat Petroleum Pump - Chottanikkara-Thiruvankulam Road","W9QF+PX4, Bypass Road, Chottanikkara, Thrippunithura, Thiruvankulam","9.9392731","76.3749668","true"
"ChIJA6VpcQB1CDsRIIliaHSYemA","VRINDAVAN ENERGY HUB","24/668a, Thiruvankulam - Chottanikkara Road, Chottanikkara, Thrippunithura, Thiruvankulam","9.943309599999997","76.3740081",""
"ChIJsezop81zCDsRzYsIBrCj3C8","Saga energy hub","X994+723, Irumpanam, Thrippunithura, Ernakulam","9.9681462","76.35504569999999",""
"ChIJw1u_8RZzCDsRXWC8EyYt7Wc","BPCL PETROL PUMP SAGA","X994+2MX, Seaport - Airport Road, Irumpanam, Thrippunithura, Ernakulam","9.967616399999997","76.3567403","true"
"ChIJKRnzTQBzCDsRX2lNpS5xKjM","Anil sing","X994+4GH, Irumpanam, Thrippunithura, Ernakulam","9.9678233","76.35636749999999",""
"ChIJkVePxiJ0CDsRj-0rTi48Z6I","IndianOil","Ground Floor, Chottanikkara- Manchakkad Kavala Road, Mulanthuruthy","9.933539000000001","76.385944","true"
"ChIJFfOqhLp0CDsRq65NOc4De5c","Bharat Petroleum - PDPP","Ambalamugal, Kochi","9.9659975","76.3774845","true"
"ChIJxz82-qoNCDsRHfLBncfU--0","Hindustan Petroleum Corporation Limited","Ground Floor, Seaport - Airport Road, Irumpanam, Ernakulam","9.986908","76.352035","true"
"ChIJv5XmibQTCDsRG1Xf9tuTZ2A","Nayara Energy Petrol Pump","26JC+PP8, Perumpilly, Njarackal","10.0317807","76.22183559999999","true"
"ChIJn50mXH0RCDsRxR2GasTXOpY","IndianOil","Ground Floor, Nayarambalam, Kochi","10.058201","76.21435","true"
"ChIJwfIuebMTCDsR5ZLn8y2yRao","Hindustan Petroleum Corporation Limited","Ground Floor, Elamkunnapuzha, Kochi","10.032304","76.22134830000002","true"
"ChIJ7eUDg9cTCDsR3xdL77Gkook","IndianOil","Ground Floor, Vypin, Azheekal","9.999049999999999","76.2385001","true"
"ChIJ5zYYVL4TCDsR5-OT-MFxprs","IndianOil","Ground Floor, Azheekal, Murukkumpadam, Ernakulam","9.992683","76.2387598","true"
"ChIJu-BRbxATCDsRSfyp9f6_HJ0","Bharat Petroleum Pump (Company Owned Company Operated )","National Highway 966A, Mulavukad, Ernakulam","9.9943516","76.2634595","true"
"ChIJ7dWChRANCDsRKBWQbcCtmIk","MOOKKEN DEVASSY PALARIVATTOM & Co.","SN Jn, Palarivattom - Edappally Road, Old Rd, Palarivattom, Ernakulam","10.0037567","76.3051826","true"
"ChIJUT9FQXENCDsR5Kd7I6bu56Y","IndianOil","Edapally, Elamakkara, Kochi","10.010624","76.287148","true"
"ChIJ97cOlIgNCDsRGIwn-N5T-PY","IndianOil","Ground Floor, Divine Nagar, Chittoor Road, Kochi","10.028625","76.27510699999999","true"
"ChIJMbwrRa4NCDsRiLtLVxs5AME","IndianOil","Ground Floor, NH 47, Edappally, Kochi","10.026573","76.30957800000002","true"
"ChIJFxLP2rMNCDsRiEwv6xB1aGU","IndianOil","Ground Floor, Edappally North, Kochi","10.0326635","76.31214969999999","true"
"ChIJVRtYk_sMCDsRn3B1L3puUsc","IndianOil","Ground Floor, Chembumukku, Ernakulam","10.011539","76.322805","true"
"ChIJWVgvVd0NCDsRXnWgYNCJRlM","IndianOil","Ground Floor, Cheranallur, Cheranellore","10.0502274","76.2945914","true"
"ChIJk3MAY7QNCDsRf3Gv37n420s","Bharat Petroleum Pump & CNG Station","National Highway 544, Pathadipalam, Edappally, Ernakulam","10.0355439","76.3142956","true"
"ChIJUc2wHfQMCDsRqAHRXvRpTt0","Bharat Petroleum Pump COCO","Civil Line Road, Padamugal - Palachuvadu Road, Vazhakkala, Kakkanad","10.0146689","76.33484779999999","true"
"ChIJBQf8eKYNCDsRJ0MulrNlk60","HPCL QUARTERS","X7WG+XMH, Kannachan Thodu Road, Ayyappankavu, Ernakulam","9.9974442","76.2767404",""
"ChIJc0mhIMINCDsRjDXVGi8jwZQ","Hob chimmin service center","65, Tata Pipe Line Cross Road, Tatapuram, Ayyappankavu, Kochi","9.9948493","76.2796761",""
"ChIJyQrOi9ANCDsRCUSnhUp9-zk","Rani Fuels - Bharat Petroleum Pump","Chittoor Road, Vaduthala, Kochi","10.0156422","76.2764766","true"
"ChIJ57X3fKUNCDsRY37mMBFziSQ","Kottoor Fuels","41, Vc Antony Memorial Building, 2819, Banerji Road, North Kaloor, Kacheripady, Kochi","9.988069499999998","76.2855914",""
"ChIJ22yiDA8NCDsRxqMSDn732cI","Bharat Petroleum","bridge metrol piller, near North, Ayyappankavu, Ernakulam","9.9874438","76.2853537","true"
"ChIJV5NTEQANCDsRzwgQ6pRMIY0","Hp petrol pumb","X7QP+59V, near hp petrol punk, Thammanam, Kochi","9.98798","76.28593000000001",""
"ChIJ0d0xCAANCDsRKBgER2yAYg8","Kaloor Bus stand","X7VR+MQV, Kaloor, Kochi","9.994234199999998","76.29192139999999",""
"ChIJ5UXjcwANCDsRtyO-o69gu_E","Jay Kay Fuels (Indian Oil)","272X+499, Kaloor, Kochi","10.0002188","76.2984522","true"
"ChIJMV_Af4QNCDsRWf-w_1W_n6Y","VTG Tools Rental,Hardware & building materials","St Francis Xavier church road, junction, Kathrikadavu","9.983628699999999","76.2954566","true"
"ChIJWRD09BINCDsRdnaKleXSSl4","IndianOil","Ground Floor, Kathrikadavu, Kaloor, Ernakulam","9.983395199999999","76.29628919999999","true"
"ChIJ68-QFQANCDsRySr7TIqScLQ","Indian Oil Petrol Pump","2863+Q6W, Mamangalam, Elamakkara, Kochi","10.0121953","76.3029889","true"
"ChIJF7apzl0MCDsRioFswWlEcR8","IndianOil","Seaport - Airport Road, Kakkanad","10.0255076","76.3385053","true"
"ChIJlR_IOZIMCDsRsEg_E7VcU9k","Jio-bp","Ground Floor, opposite Cochin, Seaport - Airport Road, CSEZ, Kakkanad","10.0066636","76.34511789999999","true"
"ChIJJRCGP0MMCDsR3N6l-eI9xzw","Bharat Petroleum, Petrol Pump -Veekay Fuels","Seaport - Airport Road, Vazhakkala, Kochi","10.0314297","76.3362841","true"
"ChIJAQAw72sMCDsRPWZhbEuKS1A","Bharat Petroleum Pump","28PW+P4V, Thrikkakara, Mundampalam, Ernakulam","10.0368747","76.3453035","true"
"ChIJm4oFsvYLCDsRpsN13NWl0kA","Hindustan Petroleum Corporation Limited","Ground Floor, Vk Colony, Kuzhivelippady, Pukkattupady","10.048576","76.369297","true"
"ChIJA6KJc6QLCDsRSXmmxoerZPc","IndianOil","Ground Floor Veegaland, Kumarapuram, Ernakulam","10.0286587","76.39300759999999","true"
"ChIJkXcz_ykMCDsR_-PBN27UYDU","Hindustan Petroleum Corporation Limited","Ground Floor, near Premier Junction, Kalamassery, Ernakulam","10.062211","76.323211","true"
"ChIJsUOVFpsOCDsR1U58b27yckA","IndianOil","Ground Floor, Thaikkattukara,Muttom Kalamassery","10.07004","76.33056599999999","true"
"ChIJR5j7hc0NCDsRRt4OTusiQEk","Sterling Fuels,NAYARA PETROL BUNK","Edapally - Arkkakadavu Road, Padivattom, Edappally, Ernakulam","9.9968308","76.3256277","true"
"ChIJvVWpPzsNCDsRDyWC5RkuQPI","Hindustan Petroleum Corporation Limited","Survey No 303/2/6 Kanayannur, Vazhakkala, Kakkanad","10.0148251","76.3366466","true"
"ChIJM2QQ1PoNCDsRqN044d3NffA","Bharat Petroleum, Petrol Pump -K.A.Abdul Majeed & Sons","Palarivattom Edappilly Old Road, Vennala, Ernakulam","9.9952752","76.3236107","true"
"ChIJnbc9YwANCDsRIpJd6eFOT8A","IndianOil","Ground Floor Mavelipuram, Kakkanad, Thrikkakara, Kochi","10.023659","76.339877","true"
"ChIJbSpTHFgNCDsRGfkaXO8HhGY","Bharat Petroleum Pump","2984+44V, Kalappurakkal, Kakkanad","10.0153705","76.35531","true"
"ChIJ8ySp3pwNCDsROfpvASbr-n4","Indianoil-Adani Gas Pvt Ltd CNG Station","33/2440 F, 4th Floor, Compass Tower Post Office, NH 47, Haritha Bye Lane, Kuthappady, Thammanam, Kochi","9.985734899999999","76.31572059999999",""
"ChIJQRVI7u8NCDsRE1FYSSYYTuc","IndianOil","Byepass Road, Padivattom, Kochi","10.0107721","76.3117326","true"
"ChIJR0lNrscNCDsR5WnusFNQkAM","IndianOil","Ground Floor, Infopark Road, Kusumagiri, Kakkanad","10.0161916","76.36064929999999","true"
"ChIJZcHm1ooNCDsRTKGK6lJ-EZI","Sarath fuels Bharat Petroleum","THAMMANAM, ERNAKULUM","9.985709899999998","76.3090242","true"
"ChIJi0uuHokNCDsRzdr-WrDplXw","Surya Enterprises - Bharat Petroleum","Navodaya Junction, Kochi","10.0269154","76.3590105","true"
"ChIJhSQQmqgNCDsRYA0pFpNXeks","Hindustan Petroleum Corporation Limited","Ground Floor, Edappally, Kochi","10.0217733","76.306597","true"