place_id,name,address,latitude,longitude,open_now
"ChIJ_Wwd9Tm7BTsR5jxe60C6-5M","Hindustan Petroleum Corporation Limited","Ground Floor, opposite Madhyamam, NH By Pass Road, Ambalathara, Thiruvananthapuram","8.4530846","76.94583329999999","true"
"ChIJoYpIEzK7BTsRymBYuNWgO8A","Hindustan Petroleum Corporation Limited","Ground Floor, NH 47, Bypass Rd, Karimbuvila, Thiruvallam, Thiruvananthapuram","8.4441065","76.9517824","true"
"ChIJ2Y3q9Dy7BTsRe1tLnTZSr9o","Bharat Petroleum - Arjun Fuels","Ambalathara, Manacaud, Swagath Nagar, PO, Paravankunnu, Thiruvananthapuram","8.457417999999999","76.950195","true"
"ChIJxSmLHD27BTsRxPOgz1bYDoE","IndianOil","Ground Floor, Kallattumukku, Attukal, Ambalathara, Thiruvananthapuram","8.459167700000002","76.9510818","true"
"ChIJYxaChGy7BTsR0cxaMmvMAi0","IndianOil","Ground Floor, near New Rajasthan marble, NH Bypass, Manacaud - Muttathara Road, Vallakkadavu, Thiruvananthapuram","8.467159200000001","76.9387654","true"
"ChIJieK91pOlBTsRcNu5SjOl1j4","IndianOil","Ground Floor, opposite Police Station, Kottappuram, Vizhinjam, Thiruvananthapuram","8.3818808","76.9955974","true"
"ChIJuUYy7726BTsRhdUG0xlqF_Y","IndianOil","Ground Floor, Nemom","8.461739099999999","76.99416699999999","true"
"ChIJx-wGToilBTsR0y2hqcDmOgc","IndianOil","Vizhinjam - Balaramapuram Road, Mukkola, Vizhinjam, Thiruvananthapuram","8.386311100000002","77.008301","true"
"ChIJ38A9WaS6BTsRxbH_CdT6j8g","IndianOil","NH 47, Nemom","8.4562998","77.00169369999999","true"
"ChIJndEzjgm7BTsRBa3eWrjua4s","Bharat Petroleum Nana Auto Fuels","FWJX+92X, near Kollam Supreme, Mahatma Gandhi Road, East Fort, Chalai, Thiruvananthapuram","8.480977","76.94761489999999","true"
"ChIJD93SOQC7BTsROGr2s2Zy8iQ","IndianOil","NH 47, Karamana, Thiruvananthapuram","8.481163100000002","76.96309699999999","true"
"ChIJn4uAuAC7BTsRZKAhKWf3oxE","Hindustan Petroleum Corporation Limited","Ground Floor, Cape Road, Killipalam, Thiruvananthapuram","8.481580100000002","76.959451","true"
"ChIJ6Ubzb6i7BTsRDgfBYeB-Acw","Hindustan Petroleum Corporation Limited","Ground Floor, Power House Road, Aryasala, Chalai, Thiruvananthapuram","8.484700099999998","76.95359100000002","true"
"ChIJtVkymu-vBTsRewp3i1Hv8Xk","IndianOil","Ground Floor, Punnamoodu, Naruvamoodu","8.4306421","77.02433599999999","true"
"ChIJXZDMS6C7BTsRDH1J-kevKLQ","Varma Travels Fuel Centre","FWMV+W47, Padmavilasam Road, Fort, East Fort, Pazhavangadi, Thiruvananthapuram","8.484793000000002","76.942807","true"
"ChIJCX-5wqa7BTsRa5qgi60g4RU","Bharat Petroleum - Radhakrishnan & Brothers","Power House Road, Thiruvananthapuram","8.4858571","76.9483446","true"
"ChIJb1EqQla6BTsR7oq4uCJ_488","IndianOil","Ground Floor, Kunjalumoodu, Karamana, Karumom","8.485157000000001","76.971327","true"
"ChIJ64pfk6a7BTsRi0EzrGsWY_U","Indian Oil","FWPX+QH3, Overbridge, Pavithra Nagar, Santhi Nagar, Thampanoor, Thiruvananthapuram","8.4868814","76.94892279999999","true"
"ChIJ7WAoYuSvBTsRjM_BJFhwA7M","IndianOil","Survey No 170, 10 10/1 & 10/2, Neyyattinkara, Pallichal","8.436209399999997","77.0248811","true"
"ChIJ93KLEgClBTsRuwD_qNPwT-s","Indian Oil Petrol Pump","CXF7+8CQ, Pachalloor Road, Pachalloor, Thiruvananthapuram","8.4231313","76.9637772","true"
"ChIJAaP3OQClBTsR1ozo5khhJBg","Alfar Fuels","CX79+VWP, Pachalloor Road, Vazhamuttom, Thiruvananthapuram","8.4148125","76.9693458","true"
"ChIJmwO3oyilBTsRi7CRw1F6Xpw","IndianOil","Ground Floor Thiruvallam, Pachalloor, Thiruvananthapuram","8.431004599999998","76.96974019999999","true"
"ChIJOZqzxDylBTsRziq-rayhBRw","IndianOil","Ground Floor, CGO Complex Vellayani, Venganoor Road, Poonkulam, Thiruvananthapuram","8.4220651","76.977009","true"
"ChIJbSjtHJelBTsRDB8iJpKg-Kk","Hindustan Petroleum Corporation Limited","Ground Floor, Vizhinjam, Thiruvananthapuram","8.385010099999999","76.991101","true"
"ChIJWXDvfoCvBTsREMEOpf70UUQ","IndianOil","Ground Floor Chavadinada, Venganoor","8.4020001","77.00880099999999","true"
"ChIJBYQ-fAC7BTsR6Zu05CZsLfo","Kalidas Petroleum","FX9F+97R, Kaimanam Thiruvallam Road, Krishna Nagar, Snehapuri, Thiruvananthapuram","8.4684791","76.9731267","true"
"ChIJjf1JgWK7BTsRBP4AsrRcbK0","EASWARA Gas Stove Service","FXC8+C79, Thaliyal, Thiruvananthapuram","8.471046","76.96574629999999","true"
"ChIJNVsXOQCvBTsRyzBepc-lRzs","India Oil Panna Pump","C226+G6P, Vizhinjam, Venganoor","8.4013318","77.0105878",""
"ChIJpzBLMwClBTsRrSNrAIYOXJo","Nayara petrol pump","Geetha Bhavan, Kattachalkuzhi Mangalattukonam Road, Mukkola, Vizhinjam, Kovalam","8.3828113","77.0029971","true"
"ChIJ8_5HrVe7BTsRr37rXJbK_DA","Bharat Petroleum - Vijaya Fuels","near Vijaya Fuels, Panvel - Kochi - Kanyakumari Highway, Kaimanam, Pappanamcode, Thiruvananthapuram","8.4742338","76.9764359","true"
"ChIJtRr9FgCvBTsR0RwKGCaMrOw","Kamala Fuels Nayara","92Q6+CWJ, Vizhinjam - Uchakkada Road, Mukkola, Vizhinjam, Kovalam","8.388510999999998","77.011774",""
"ChIJszeSWwCvBTsRg9AW8rcIK2M","Petrol Pump(NAYARA) Kidarakkuzhi","92Q6+CWJ, Vizhinjam - Uchakkada Road, Mukkola, Vizhinjam, Kovalam","8.3883124","77.0119242",""
"ChIJTwrIKAC7BTsRpPm_NNXkVeg","Aravid Gas Godown","FXFJ+Q7Q, Chirakkara Temple Road, Haritha Nagar, Kaimanam, Pappanamcode, Thiruvananthapuram","8.4744539","76.98095479999999",""
"ChIJV4NcIzi7BTsR0EVrBJBJJG0","Kerosene Pump","FWGP+Q6V, Puttenpalam road, Puthenpalam, Pavithra Nagar, Subhash Nagar, Thiruvananthapuram","8.4769986","76.9355406",""
"ChIJBbcURACxBTsRpTSYUXcqPB0","Indian oil petrol pump","C2X7+69M, Pallichal","8.447785399999999","77.01323239999999",""
"ChIJwU335-K7BTsRPP244u-UOkA","Bharat Petroleum - VR Agencies","Killipalam, Karamana, Thiruvananthapuram","8.481449699999999","76.9609759","true"
"ChIJm9T5vv-6BTsREt7qenivltg","Hindustan Petroleum Corporation Limited","Ground Floor, Karamana Junction, Thiruvananthapuram","8.4816101","76.965971","true"
"ChIJL1NsFXO7BTsRfF__Glj_i1Y","IndianOil","Ksrtc, Bus Depot, East Fort, Thiruvananthapuram","8.4834345","76.9480282","true"
"ChIJGed9s6m7BTsRkJALmRvDLc4","Emarald Auto Fuels (HP)","HPC Dealers, Chalai, Thiruvananthapuram","8.48447","76.95582","true"
"ChIJt07SNS67BTsR2NVXtK025P8","Hindustan Petroleum Corporation Limited","Ground Floor, Chalai, Thiruvananthapuram","8.484470099999998","76.955821","true"
"ChIJCTuOJwCvBTsR1rrUe3ENRhU","Petrol pump","92VC+497, Star Traders Uchakkada Mukkola Rd, near Santhinigedhan School, Uchakkada - Nellimoodu Road, uchakkada, Vizhinjam, Venganoor","8.3927952","77.02091829999999",""
"ChIJlddXtae7BTsR5cZ8Ky3ZBEM","American Auto Stores","Opp. Railway station, Power House Road, Thiruvananthapuram","8.4855587","76.9499994","true"
"ChIJmXOIJAC7BTsRtF5QhgoQp5Y","Tiru","FWJJ+X2P, Eanchakkal, Thiruvananthapuram","8.4824513","76.93007089999999",""
"ChIJ1ab8TPGvBTsRlXiIxlj0Gqs","Ammu Fuels HP Petrol Pump","92J9+HC3, Payarumoodu Road, Vizhinjam, Kottukal","8.3815946","77.0183136","true"
"ChIJk3h-sbOvBTsRID-jdO_6uuk","Hindustan Petroleum Corporation Limited","S No 576/23 & 576/23/1, Punnamkulam Road, Vizhinjam, Thiruvananthapuram","8.3815533","77.0183315","true"
"ChIJlWlAN527BTsRe_w_O8bhFIM","IndianOil","NH Bypass, Attakulangara - Enchakkal Road, Vallakkadavu, Thiruvananthapuram","8.4835321","76.930336","true"
"ChIJB4PKPbKvBTsRNQleHxcpEmM","Reliance Petroleum","opposite Telecom Centre, Ground Floor Neyyattinkara, Balaramapuram, opposite Telecom Centre, Pallichal","8.4262962","77.0421408","true"
"ChIJCd0_q8mvBTsRuU3y5sGMUYE","Bharat Petroleum","C2FX+H56, Near Balaramapuram Junction, Main Road, Balaramapuram, Thiruvananthapuramm","8.423917","77.047899",""
"ChIJhezwa0yuBTsRAPsJRH-DspI","Bharat Petroleum - Sree Nagaraja Fuels","BALARAMAPURAM, TRIVANDRUM, Thiruvananthapuram","8.4154602","77.060448","true"
"ChIJsd26RRivBTsRiLU1ru7PNc0","Indian oil","Balaramapuram - Poovar Road, Nellimoodu","8.3801174","77.0469243","true"
"ChIJFcW9pl2uBTsRwUC67Y2zaS4","Hindustan Petroleum Corporation Limited","Ground Floor, Koottappana, Neyyattinkara","8.4087801","77.07759100000001","true"
"ChIJYQu0XoK6BTsRvqBmkJIOhxk","Bharat Petroleum BP Petrol Pump AVJ Fuels","F2G5+MCX, Choozhattukootta","8.476744999999998","77.0085979","true"
"ChIJG0F48YiuBTsRwhE-qkDd81M","K Krishnankutty & Co","Indian Oil Petrol Pumb, near Akshaya Complex, Neyyattinkara","8.3978865","77.0896892","true"
"ChIJo4W2fdSuBTsRKY-QgRqwlk4","IndianOil","Ground Floor Manaveli, Kanjiramkulam, Mulluvila Road, Thiruvananthapuram","8.3602531","77.06186699999999","true"
"ChIJHX5fQwCvBTsREurqP0XctWI","Petrol Pump Mangalathukonam","C25P+Q94, Venganoor","8.4095184","77.03585919999999",""
"ChIJsw15YgCvBTsRCNF0eAWpNgk","Indian oil petrol pump","C2JH+H43, Vedivachankoil, Pallichal","8.4313878","77.02779819999999","true"
"ChIJiTlWSwCvBTsR7q1q7N1GPEA","Thiruvananthapuram","C2PG+4G2, Remya Auditorium Entrance Road, Pallichal","8.435263899999999","77.0262771",""
"ChIJIek5RwCvBTsR2ToIed-4jQQ","Vedivechan Kovil","P.O, Balaramapuram","8.435843499999999","77.0405473",""
"ChIJE38uDpSvBTsRAlo_YTHMvWQ","AMBUJA FUELS _ BPCL","near RAILWAY STATION, THEMPAMUTTAM KATTAKADA ROAD, Balaramapuram","8.4350372","77.05304029999999","true"
"ChIJD2hXBiqvBTsROeUi_UsuTAs","Hindustan Petroleum Corporation Limited","Ground Floor, near Balaramapuram - Poovar Road, Nellimoodu","8.385169300000001","77.0483005","true"
"ChIJdf8KETSwBTsR04BBmpdy470","IndianOil","Ground Floor, Ooruttambalam, Govindamangalam","8.4602006","77.0515787","true"
"ChIJLUQElBSxBTsR9dJtETV3PKo","Bharat Petroleum- Petrol Pump-AMJ Associates Auto Fuels","Vizhinjam - Balaramapuram - Kattakkada Road, Ooruttambalam","8.454648299999999","77.0602442","true"
"ChIJJbUySS-vBTsR5ew-FafJZjI","Hindustan Petroleum Corporation Limited","Ground Floor, Kanjiramkulam","8.366920099999998","77.050201","true"
"ChIJB8HhdMaxBTsRb_YGcgWrqso","Hindustan Petroleum Corporation Limited","Ground Floor, Kottamukal, Ooruttambalam","8.4562643","77.06903779999999","true"
"ChIJe__I-VCwBTsRNZNgL8Cp8hY","Nayara Energy - Shanu Fuels","F2HW+6V3, Valiyarathala - Kanavila - Malayinkeezhu Road, Malayinkeezh","8.4780107","77.0471701","true"
"ChIJ0W7cFwCvBTsR2dnisKyZrq0","Bharat Petroleum - Rams Fuels","9368+X5M, Manaveli, Athiyannur","8.361753799999999","77.0651717","true"
"ChIJt6qX9JWuBTsRXW_tUQPjxX8","IndianOil","Ground Floor, Thazhe Varambil, Olathanni","8.380069","77.083568","true"
"ChIJKdFx-pKxBTsRj9UK8lObEBs","IndianOil","Ground Floor, Malayinkeezhu, Santhumoola, opposite Kannamangalam Shiva Temple, Thiruvananthapuram","8.4859968","77.0346983","true"
"ChIJ9eECO-2xBTsRNTz6LIs-84E","Nayara Fuel Station","F38G+PPV, Maranalloor","8.4670402","77.0761356",""
"ChIJU1DUlamvBTsR-T7_iai2k7A","IndianOil","Ground Floor, NH 47, Neyyattinkara","8.3925771","77.09318069999999","true"
"ChIJ26tzdBa8BTsRZbhX2G9rzbs","IndianOil","Ground Floor Titanium, Kochuveli, Thiruvananthapuram","8.5078391","76.897247","true"
"ChIJkz1kl4--BTsRoeCvANnvRUk","IndianOil","Bypass Attipra, Kulathoor, Thiruvananthapuram","8.534877","76.8817041","true"
"ChIJ-dH_QZG7BTsR7_Cp6EdZ3PQ","Hindustan Petroleum Corporation Limited","Ground Floor, Beach Road, Pettah, Thiruvananthapuram","8.497140100000001","76.934061","true"
"ChIJWdgBcr67BTsRAI5EERH6nTw","Bharat Petroleum - Gopala Krishna Fuel Center","Vanchiyoor, Thiruvananthapuram","8.4991569","76.9425741","true"
"ChIJGYVha7m7BTsRFUkOqgMf1Bw","IndianOil","Ground Floor, Mahatma Gandhi Road, Statue, Palayam, Thiruvananthapuram","8.499877099999999","76.948779","true"
"ChIJz-t5vt27BTsRbj-OnKqhcJ0","Hindustan Petroleum Corporation Limited","Ground Floor, Pattom Palace, Pattom, Thiruvananthapuram","8.518270099999999","76.942841","true"
"ChIJbTgCu1-5BTsRL7DwyQRPIGA","Bharat Petroleum - KI George","NSP Nagar, Kesavadasapuram, Thiruvananthapuram","8.5270265","76.9392088","true"
"ChIJqZOE4Uu5BTsRF1g0jc_Vido","Hindustan Petroleum Corporation Limited","Ground Floor, Pongumoodu, Thiruvananthapuram","8.5418101","76.92382099999999","true"
"ChIJ-18U7ce7BTsR54RUWqcSNuI","Hindustan Petroleum - Rukson Trades","TC 14/255, Mahathma Gandhi Road, Opp. Chandrasekharan Nair Stadium, Palayam, Thiruvananthapuram","8.5046628","76.9515229","true"
"ChIJrYkNwiy9BTsRENn7NfUD3GA","Hindustan Petroleum Corporation Limited","Ground Floor, Karikkakam, Thiruvananthapuram","8.507971600000001","76.9057353","true"
"ChIJB43_ZOC9BTsRRytwyf3o9fQ","IndianOil","Ground Floor, near KSRTCE Bus Terminal, Anayara, Thiruvananthapuram","8.5130584","76.9003323","true"
"ChIJebgvVQy8BTsRqdZZchGU6JI","IndianOil","near Anayara Bus Stop, Finesse Junction, NH Bypass, Venpalavattom, Thiruvananthapuram","8.5060281","76.90920299999999","true"
"ChIJ0_XNlVS_BTsR-b0ZzBZABbs","Hindustan Petroleum Corporation Limited","Ground Floor, near NISH Road, Ulloor - Akkulam Road, University, Aakkulam, Thiruvananthapuram","8.5241321","76.90365299999999","true"
"ChIJFT15I3u_BTsR-cGNI6E1OEk","Memalayil Fuels","No. 9, Sunrise Park, opp. UST Global Campus, Phase II, Aakkulam, Kazhakkoottam","8.533158","76.9041976","true"
"ChIJBaMjABG7BTsRaRZIHBfI9A0","IndianOil","GH Road, Pattoor - Vanchiyoor Road, Thiruvananthapuram","8.4969886","76.935766",""
"ChIJp9zyMqG5BTsR4gs5dHFjpS8","IndianOil","Ground Floor, near Medical College, Ulloor, Thiruvananthapuram","8.5282905","76.9283888","true"
"ChIJQcp0Xnu7BTsRTl-e7Yo5RSg","Hindustan Petroleum Corporation Limited","Ground Floor, near General Hospital Junction, Red Cross Road, Thiruvananthapuram","8.499510100000002","76.944401","true"
"ChIJ-6JEaQC7BTsR0RejP5L7RX0","IndianOil","General Hospital Road, Kunnukuzhy, Thiruvananthapuram","8.500383099999999","76.9455366","true"
"ChIJM7dJPbS5BTsRlPuVcA7P-bs","INDIANOIL-T.K.VARGHESE & SONS","Kochulloor, Thiruvananthapuram","8.5321248","76.9287902","true"
"ChIJBbAEZXi7BTsRiXPHmcyDx5U","KSRTC Yathra Fuels,Vikas Bhavan","Ground Floor, Vikas Bhavan, Depot, Vikas Lane, PMG, Thiruvananthapuram","8.508567900000001","76.9466386","true"
"ChIJn6lTkVC5BTsR2ECOIjFX7Cg","IndianOil","Medical College Ulloor Road, Thiruvananthapuram","8.535757799999999","76.92753259999999","true"
"ChIJxa6_ot27BTsRiov6nr1uHmU","IndianOil","Ground Floor, Salem-Kanyakumari Highway, Vrindavan Gardens, Pattom, Thiruvananthapuram","8.517873100000001","76.94276599999999","true"
"ChIJkUzEkqW7BTsRQZHrhYyJRP8","KSRTC Workshop","FXQ2+QQ8, Thampanoor Masjid Road, Overbridge, Thampanoor, Thiruvananthapuram","8.4894197","76.95194359999999",""
"ChIJt2Rt_q-7BTsR6RGEQDYLETA","IndianOil","Model School Junction, Chenkalchoola Colony, Thycaud, Thiruvananthapuram","8.4933361","76.953094","true"
"ChIJj0_JF8a7BTsR-fxmWevBCRE","Bharat Petroleum - M/s Unemployed Engineers Cooperative Society Limited","Bakery, Thycaud, Thiruvananthapuram","8.5008467","76.95383570000001","true"
"ChIJPSHpXk26BTsRp6hAcGfq8TA","IndianOil","Ground Floor, Jagathy, Thiruvananthapuram","8.501042","76.9670151","true"
"ChIJnX3Gm0e7BTsR8hSuD6Ju1AQ","Bharat Petroleum - Pradeep Filling Station","Vivekananda Nagar, Edapazhanji, Thiruvananthapuram","8.503823","76.9690097","true"
"ChIJm_ZRcsy7BTsRlw3EAcE_1Fc","IndianOil","Ground Floor, opposite KWA, Vellayambalam, Thiruvananthapuram","8.510208099999998","76.96024299999999","true"
"ChIJayLzQ9K7BTsRLgH_SLzdLBQ","Bharat Petroleum - M/s PK Parameswaran Nair","GX86+P4X, Opposite Jawahar Nagar, Belhaven Gardens, Kowdiar, Thiruvananthapuram","8.5168678","76.9603738","true"
"ChIJCaxp8yS6BTsRCPIe6xtO9rA","IndianOil","Ground Floor, Kanjirampara, Thiruvananthapuram","8.5181151","76.979935","true"
"ChIJ-xf6otO7BTsRGUVh6XJ61yo","HP Petrol Pump","Kowdiar, Thiruvananthapuram","8.5190615","76.96089889999999","true"
"ChIJx3peaJi5BTsR1rdDpRXjL6E","IndianOil","Kerala Police, Athani Lane, opposite Parade Ground, SAP Camp Road, Peroorkada, Thiruvananthapuram","8.524767299999997","76.9701442","true"
"ChIJj9K7ymy6BTsR5pWeLjZuBBo","IndianOil","Alumoodu Lane, Thirumala, Thiruvananthapuram","8.5054929","76.99395299999999","true"
"ChIJDxZ2Gp25BTsR7tsg2tblDvI","IndianOil","Ground Floor, Peroorkada Junction, Thiruvananthapuram","8.538706099999999","76.966469","true"
"ChIJC_5mefW5BTsRko_utGGrowk","Hindustan Petroleum Corporation Limited","Ground Floor, Vattiyoorkavu, Thiruvananthapuram","8.5274865","76.98986649999999","true"
"ChIJCbXJrKCwBTsR8DixdulgLrM","IndianOil","Ground Floor, Opposite School, Pallimukku, Peyad","8.511468999999998","77.010836","true"
"ChIJ09ytTgu5BTsR1eebqucK2cQ","IndianOil","Kudappanakunnu Road, Peroorkada, Thiruvananthapuram","8.5476195","76.9595743","true"
"ChIJTffVmKK5BTsRFK3j6ZMwh0U","Hindustan Petroleum Corporation Limited","Ground Floor, Puravoorkonam, Vazhayila, Karakulam, Thiruvananthapuram","8.5481401","76.974221","true"
"ChIJj879dpewBTsRRcFCswUWld0","IndianOil","Ground Floor, Peyad - Pidaram Road, Malayinkeezh","8.503579799999999","77.02285619999999","true"
"ChIJB2cAfwC7BTsRGB6PAPBof-A","COMPANY OWNED PETROL PUMP (A R FUELS)","A R FUELS ADHOC, Poojappura Main Road, Jagathy, Thiruvananthapuram","8.4941377","76.96564","true"
"ChIJo4W87n67BTsRk6cvb2Uv9c0","Bharat Petroleum - A Veeraraghava Iyer & Co","VAZUTHACAUD - THYCAUD RO, Thiruvananthapuram","8.500747200000001","76.95884699999999","true"
"ChIJ0bfAB7m7BTsRQ2r6mICE_hA","IndianOil","Ground Floor, Karamana - Poojapura Road, Poojapura, Thiruvananthapuram","8.488266","76.9725069","true"
"ChIJcVIt-nm7BTsRAkK4qW0Y2M8","Bharat Petroleum - Supplyco","TRIVANDRUM, Thiruvananthapuram","8.507445499999998","76.96214739999999","true"
"ChIJewEi9JOwBTsRUAAUVYhUGSM","Bharat Petroleum, Petrol Pump (Sai Fuels) Karipur","TRIVANDRUM -KATAKADA ROAD, Thiruvananthapuram","8.5011341","77.028711","true"
"ChIJ5RHLIBWxBTsR3MkrboaLObQ","IndianOil","Ground Floor, Amachal, Kattakkada","8.505938","77.07836","true"
"ChIJJxSieYmxBTsRQKaFh8NG5Bk","SAI FUELS","BPCL Petrol Pump, Karipur, Malayinkeezh","8.501146599999998","77.0287125","true"
"ChIJiZyKGv6wBTsRy6_WNWGwUUI","HP PETROL PUMP - SREE GANESH FUELS","HPC Dealers, Meppukada, Malayinkeezhu P.O","8.488438499999997","77.04507029999999","true"
"ChIJH4pKeqSxBTsRstVCd4b7s-0","Nayara Energy, Christ nager.","F3W2+R2G, Anthiyoorkonam","8.497072999999999","77.0500629",""
"ChIJZ_EpgeO7BTsR8UhCniAGHmM","Bharat Petroleum - KK Fuels","Thirumala, Thiruvananthapuram","8.496740299999999","76.99542389999999","true"
"ChIJGeokMwCxBTsRIFfI_9I43f0","Indian Oil Petrol Pump (IOCL)","G2CH+FP3, Kollamkonam, Peyad","8.5211265","77.0293063","true"
"ChIJ__OANbKxBTsRIv8Q_Old_G4","Jio BP Petrol Pump, Epsilon fuels","Kottappuram, Kollode, P.O, Kattadada, road, Malayinkeezh","8.4950376","77.0613406","true"
"ChIJ93f49k67BTsRsnFVRfDqvGU","A R FUELS","Vettamukku Road, Thirumala, Thiruvananthapuram","8.503481599999997","76.98887119999999","true"
"ChIJj6WUYGq6BTsR9twIBGom5rw","IndianOil","Ground Floor, Vettamukku, Thirumala, Thiruvananthapuram","8.5075567","76.98565049999999","true"
"ChIJBT_RoqaxBTsR-JUfLP0599s","SK Petroleum | IndianOil","Neyyattinkara Kattakkada Road, Kandala, Maranalloor","8.4824377","77.072632","true"
"ChIJS3E7B1K7BTsRzI9-u4wh1Hw","Annakkutty Bharatgas Service","Annakkutty Bharatgas Service, Vattiyoorkavu, Thiruvananthapuram","8.5258869","76.99175699999999",""
"ChIJzw7Wx8a3BTsRwQfyPro8CcM","Bharat Petroleum - Naga Fuels","Near Puliyarakonam Junction, Vattiyoorkavu - Kulasekharam Road, Puliyarakonam, Vilappil","8.5383266","77.02058509999999","true"
"ChIJ_U-CGmyxBTsRqezEhtIy33M","Bharat Petroleum, Petrol Pump -M. S. Fuels","Kattakkada","8.502745599999997","77.0787806","true"
"ChIJL07REQCxBTsRydBwMQ2QOIw","Hp petrol pump","G39P+V33, Poovachal","8.519628799999998","77.0851793","true"
"ChIJ30m10T_ABTsRmd3UJS4Kw8s","IndianOil","Ground Floor, Mangalapuram, Thiruvananthapuram","8.5650965","76.8750012","true"
"ChIJ6307wpa_BTsR1zrqf1tkDI0","IndianOil","Ground Floor, Alumoodu, Kaniyapuram","8.5650965","76.8750012","true"
"ChIJMZj97cbqBTsRZA09lKEpi-s","IndianOil","Ground Floor, Perumathura, Thiruvananthapuram","8.5650965","76.8750012","true"
"ChIJTSxb6EDqBTsRmbXToOqWssI","Hindustan Petroleum Corporation Limited","Ground Floor Koonthalloor, Chirayinkeezhu Near Erattakkalunge, Thiruvananthapuram","8.5650965","76.8750012","true"
"ChIJDyNtPs2-BTsR__Ytcbj_sqs","IndianOil","Chekkalamukku, Sreekaryam, Thiruvananthapuram","8.5549731","76.91682399999999","true"
"ChIJA8O2WaLABTsRk1Ka7E9zufA","IndianOil","Ground Floor, Pothencode","8.6173661","76.896898","true"
"ChIJoVlPDhS_BTsRsx1DHTy77yU","IndianOil","Ground Floor, Kazhakkuttom, opposite Police Station, Kodikulam","8.5707811","76.871681","true"
"ChIJMWVBXQC_BTsRP5qqQq0tQps","IndianOil","NH Road, Kazhakkoottam","8.573641000000002","76.869884","true"
"ChIJASD5GgC_BTsRyta2ec_4vdQ","ANAGHA FUELS Bharat petroleum","Ajish n Roopa, Sreekariyam - Pothencode Road, Sabari Nagar, Chempazhanthy, Thiruvananthapuram","8.5629448","76.9124555","true"
"ChIJjfRfMEm-BTsRk3KMMc-Nobo","Bharat Petroleum, Petrol Pump -St Jude Fuels","MEENAMKULAM, Thiruvananthapuram","8.5580156","76.8541173","true"
"ChIJQxvgAAC_BTsR0jOPg_xS-u0","Hindustan Petroleum Corporation Limited","Ground Floor, Pothencode Road, Kazhakkoottam","8.58883","76.87862650000001","true"
"ChIJvdwrdgC_BTsR02-czEvNWa8","Hindustan Petroleum Corporation Limited","Ground Floor, Pothencode Road, Kazhakkoottam","8.58883","76.87862650000001","true"
"ChIJUfkwFgC_BTsR3zX1uCwJT4I","Hindustan Petroleum Corporation Limited","Ground Floor, near Marine Fuels, Saint Andrews Road, Thiruvananthapuram","8.576075799999998","76.8529859","true"
"ChIJDU8_4NK_BTsRVvb_SsdV2jA","IndianOil","Ground Floor, Psachira, Pallipuram, Pothencode","8.5956701","76.86152489999999","true"
"ChIJw3Bwoxe5BTsR5RHpkcDhIxA","IndianOil","Kottamugal, Mannanthala, Thiruvananthapuram","8.556619099999999","76.943321","true"
"ChIJz2UCmqfABTsRS6I7M9nqjnk","Hindustan Petroleum Corporation Limited","Ground Floor, 7/100, Plamoodu, Kariyam-Pothencode Road, Plamoodu, Plamoodu, Ayiroopara, Pothencode","8.6109701","76.904491","true"
"ChIJiwlgfgDBBTsRksXPtJNv6TM","Reliance JIO bp","JV9X+QFQ, Pothencode","8.619465999999997","76.8987284",""
"ChIJZXMCYzzBBTsRO0XeYdelpNQ","Bharat Petroleum, Petrol Pump -Kamala Fuels","POTHENCODE, Thiruvananthapuram","8.620892999999999","76.8922528","true"
"ChIJAcmu_MC5BTsRSm7f6sHZ-CY","IndianOil","Ground Floor, Nettayam, Cheriyakonni","8.5516141","76.989642","true"
"ChIJ45h9Oxa4BTsRfbx8J0pwNjM","Hindustan Petroleum Corporation Limited","Ground Floor, near 10 KM Stone, Chenkotta Road, Maruthinakam, Thiruvananthapuram","8.592340199999999","76.9950009","true"
"ChIJldEhhg-4BTsRaN2ZUEzwXVo","IndianOil","Ground Floor, near 11th Stone, Nedumangad","8.6042996","76.99853689999999","true"
"ChIJHx_3UtW5BTsRwZ8SW1yOfWw","IndianOil","Vazhayila, Peroorkada, Thiruvananthapuram","8.5459938","76.9736631","true"
"ChIJryV1Sqa5BTsRX5cKBuGbMkc","MELATHIL FUELS, IOC Petrol Pump","Thiruvananthapuram - Ponmudi Road, Azhicode","8.5779744","76.9965165","true"
"ChIJeYi2ppm4BTsRAM9MRnVb638","IndianOil","Ground Floor, Vettinad - Velavoor Road, Vattappara","8.602911099999998","76.94520299999999","true"
"ChIJNchfq3G5BTsRfhcCeqYQ8lY","Reliance Petroleum","Ground Floor, Valicode, Thiruvananthapuram - Ponmudi Road, Nedumangad","8.598083299999999","76.9953333","true"
"ChIJFUzZ_gS4BTsRNcs2US_YyuM","Hindustan Petroleum Corporation Limited","Ground Floor, Pazhavadi, Nedumangad","8.605060099999998","77.00204099999999","true"
"ChIJj6OeRQDHBTsRONRpCz6emrQ","BPCL petrol pump - AS fuels","Venkavila","8.6156698","76.9906752","true"
"ChIJx9V1Sou5BTsRKSDFtgCnYtA","Bharat Petroleum - Mohandas & Co","TRIVANDRUM -VITHURA ROAD, Thiruvananthapuram","8.6111974","76.9979221","true"
"ChIJT6aWBQDHBTsRO4iRCYrY2h4","Hindustan Petroleum Corporation Limited","Ground Floor, SH 47, Venkavilla, Anad","8.6199063","76.9857838","true"
"ChIJfZaFYZi3BTsRz8DE6zX9MMk","IndianOil","Ground Floor, Vellanad - Kuthirakalam Road, Mundela","8.579557099999999","77.03246299999999","true"
"ChIJRaJ1bUO2BTsR1D7tsilSOAA","Hindustan Petroleum Corporation Limited","Ground Floor, opposite Old Age Home, Tholoor, Aryanad","8.585428799999999","77.0749763","true"
"ChIJFxvKVF22BTsRERMqFQuUNXg","IndianOil","Ground Floor, Aryanad","8.583516099999999","77.079083","true"
"ChIJHcH1uaK2BTsR5QCB2RWpmuM","IndianOil","Ground Floor, Pezhummoodu","8.5507788","77.0919373","true"
"ChIJ_5KBf_22BTsRUJTKxpQtwpM","Hindustan Petroleum Corporation Limited","Ground Floor, Vellanad","8.5640701","77.05662099999999","true"
"ChIJa1zA7yW3BTsRHPcZrtwSmvc","Deva Fuels","Kurinjilakkode Mundela, Nedumangad","8.591465699999999","77.02296919999999","true"
"ChIJkYG5Wb23BTsReUIcvYghQCE","Bharat Petroleum","H2WJ+9G4, Konganam","8.5958987","77.0313283",""
"ChIJPxnr7ee3BTsRe1TJIgdcIf4","IndianOil","Ground Floor, Kambanimukku, Aryanad, Aryanad","8.569602099999997","77.064407","true"
"ChIJX_-oAQC3BTsRl7yIRHGftZ4","BPCL Petrol Pumb - Conpex Energy","H2X8+7M2, Nettirachira, Nedumangad","8.5981314","77.0162462",""
"ChIJH-4XIUO2BTsRhb6E1cKP56s","HP Petrol Pump - United Petroleum","Hpcl Dealers, Tholoor, Opp.oldage Home, Aryanad, Cochin","8.5847705","77.0764346","true"
"ChIJEcRiVV22BTsRUYfnR5_ODcQ","Tholoor Aryanad","H3MH+CQG, State Highway 45, Cherukulam, Aryanad","8.583556699999999","77.07946319999999","true"