place_id,name,address,latitude,longitude
"ChIJSbFJOlsBDTkRElSokgEoE5c","IndianOil","District Centre 1, Plot No 1/A/3, Sector 10, Rohini, New Delhi","28.7162842","77.1176122"
"ChIJjd8bRk4BDTkR_l-47flCpiM","Bharat Petroleum, Petrol Pump -M.L.Sethi Service Station","Sector 5, Rohini, Delhi","28.7181079","77.1104007"
"ChIJI4VqQ_YDDTkRc_ySOb8zUoM","IndianOil","S18, Site No 2, Road No 43, Service Centre, Road, Pitampura, New Delhi","28.6887307","77.1047244"
"ChIJUVxaIvsDDTkROdYA4ANhRF8","IndianOil","near JAIPUR GOLDEN HOSPITAL, Outer Ring Road, Mangol Puri, near JAIPUR GOLDEN HOSPITAL, Rohini, New Delhi","28.6970115","77.11263509999999"
"ChIJLfZKwQIEDTkRvuesI7qJ-U8","IndianOil","Mongolpur, Sector 1, Rohini, Khurd","28.7013349","77.0919067"
"ChIJE-ZKt04BDTkRIv1JAozAQwE","IndianOil","Metro Station, No 3/B4, Distict Centre 1, near Rithala, Rohini, New Delhi","28.71961","77.1003616"
"ChIJafh5Bv4DDTkRTz2U7fB5GCE","Hindustan Petroleum Corporation Limited","Ground Floor, Community Centre, Sector 3, Rohini, New Delhi","28.7039993","77.1079105"
"ChIJdT4t06wGDTkRqMKkkY5ABcM","IndianOil","No A2, Local Community Centre, Sector 5, Rohini, New Delhi","28.7121742","77.1025433"
"ChIJKcu6C_gDDTkRoIwK7Tz4RJg","IndianOil","near marble Market, Ground Floor, Outer Ring Road Mangolpuri, near marble Market, Sector 2, Rohini, Delhi","28.6940717","77.102746"
"ChIJcTmCXJUDDTkR4xDCGIjtrHc","Bharat Petroleum, Petrol Pump -Sanjeev Filling Station","Mangalam Place, Delhi","28.7007988","77.115183"
"ChIJ8U5zuxoEDTkRTpFS3XIt0Ws","Indraprastha Gas Limited CNG Station","adjoining IBP Petrol Pump, Outer Ring Road, adjoining IBP Petrol Pump, near Mangolpuri Crossing, New Delhi","28.6905472","77.0975954"
"ChIJiR1qfAkEDTkRmADseX-jTFQ","Delta Petroleum","Ba-64, Pitampura, Outer Ring Road, Mangolpuri Industrial Area Phase II, Phase 2, Pocket A, Industrial Area, Mangolpuri, Delhi","28.6868129","77.0991409"
"ChIJAcjyLhEEDTkRLNDEk39np1k","IndianOil","Lock, 650, Mangolpuri Road, Industrial Area, New Delhi","28.6876856","77.0854864"
"ChIJZcI-bbUGDTkRDerttQMW9B0","igl cng pump","P3HX+362, Paul Colony, Rithala, Rohini, Delhi","28.72763309999999","77.0980131"
"ChIJ-fdPC2gBDTkRK6CPsJvC_Uw","Hindustan Petroleum Corporation Limited","Community Centre, near Telephone Exchange, Sector 9, New Delhi","28.7182071","77.1268388"
"ChIJ8SUmzRIEDTkRGbtQlYUOJjg","IndianOil","No 8/1, Mile Stone, Rohtak Road, Mianwali Nagar, New Delhi","28.6798355","77.08897019999999"
"ChIJwc8x5HcEDTkR_X0Ai1RnD8k","Bharat Petroleum Anil filling station","F-15,22,1st Floor,Ansal Utility Commercial Centre,Opp Jwala Heri, Market, Road Number 30, Friends Tower, A 2B Block, Paschim Vihar, Delhi","28.6705188","77.1023277"
"ChIJd1xboDABDTkRTmR04x4jdI4","IndianOil","No E4, Lock, Code I/379, near Garg Trade Centre, Sector 11, Rohini, New Delhi","28.7349274","77.1138939"
"ChIJ6YQadWoBDTkRYUQwniZqty8","IndianOil","Ground Floor, District Center, opposite White House Apartment, 2, Sector 13, New Delhi","28.7248505","77.12600069999999"
"ChIJB_QM44UDDTkR1E4RRQOaiyE","Indraprastha Gas Limited CNG Station","Out Ring Road, Near Milansaar Appartment, Dda Mig Flats, New Delhi","28.6759886","77.0944815"
"ChIJI1E-VzADDTkRAs4E5x2K9-w","IndianOil","Ring Road, Naraina Industrial Area Phase 1, New Delhi","28.6247671","77.1343701"
"ChIJWfxv_2kDDTkRONsLKlxsDiA","BPCL - Welcome Autos only petrol pump","Block V, Rajouri Garden, New Delhi","28.6372227","77.1196889"
"ChIJq6qqFVIDDTkR8eS1fUsZVF8","Indraprastha Gas Limited CNG Station","near Junk Market, Phase -2, Mayapuri, NEW DELHI","28.6188891","77.1127126"
"ChIJMTgtgVwDDTkRklDsimSM3FI","Indraprastha Gas Limited CNG Station","near DDU Hospital, C/o SAKSHAM (BPCL), Beriwala Bagh,, Hari Nagar, near DDU Hospital, New Delhi","28.6306991","77.1112787"
"ChIJN4ux8VADDTkRUWcghWh9X5c","IndianOil","Lock No 363, near Hari Nagar Depot, Jail Road, Janakpuri, New Delhi","28.62332889999999","77.1016211"
"ChIJf7ZQEacEDTkRhRzSBwKejb4","IndianOil","Ground Floor, Block L, adjacent to OM Sweets, Hari Nagar, New Delhi","28.6275732","77.1006617"
"ChIJIT0unxkdDTkRW82z72CFigw","Hindustan Petroleum Corporation Limited","near RR Hospital, Dhaula Kuan Enclave I, Dhaula Kuan, New Delhi","28.59026","77.15751"
"ChIJwXk4XK8EDTkRlg1oEpXzNGM","Hindustan Petroleum Corporation Limited","near Delhi Haat, Block C, Janakpuri, New Delhi","28.62268","77.09561"
"ChIJI1cZa3MDDTkR3Nf07l3AATk","IndianOil","Lock No 988, Lock Code I/390 Bijwasan, Raja Garden Ring Road, Tagore Garden Extension, New Delhi","28.653112","77.1237349"
"ChIJwUAtWhYdDTkRg22_0S3leCQ","Hindustan Petroleum Corporation Limited","Ground Floor, Metro Station Dhaula Kuan, Delhi Gurugram Road, Crossing, Dhaula Kuan, New Delhi","28.5928372","77.1637908"
"ChIJHz6ViQIDDTkRCmEhU7om05A","Hindustan Petroleum Corporation Limited","Ground Floor, Metro Station, near Kirti Nagar, Kirti Nagar, New Delhi","28.653682","77.1473965"
"ChIJXxNbMPsCDTkRbzjukWK34Kc","Indraprastha Gas Limited CNG Station","opp. by Shadipur Depot, Sardar Patel Road, opp. by Shadipur Depot, Patel Road, Patel Nagar, New Delhi","28.652421","77.156206"
"ChIJaasTMfsCDTkRMu3pvUXcqZw","IndianOil","DTC Bus Depot, opposite Shadipur, Patel Road, New Delhi","28.6525902","77.15596339999999"
"ChIJOQtKTnEDDTkR30p55dCwGP4","BPCL AUTO CARE With CNG Felling","B - 31, Block B, B-30, Vishal Cinema Road, Shivaji Place, Vishal Enclave, Tagore Garden Extension, New Delhi","28.6535629","77.11892399999999"
"ChIJ0VYFrL8CDTkR3M7B0xIxpms","IndianOil","near Npl Pusa Institute, Dr KS Krishnan Road, near Npl Pusa Institute, Pusa Road, New Delhi","28.63939","77.17393"
"ChIJJ-9BUAADDTkR_dTH1TvMKdY","Hindustan Petroleum Corporation Limited","near Police Station, 4/6, Shivaji Marg, Motinagar, New Delhi","28.66021369999999","77.1464302"
"ChIJayARBGUdDTkRlZQoFOw5Z_M","Indraprastha Gas Limited CNG Station","Sanmartin Marg Near By Taj Palace Hotel, Chanakyapuri, New Delhi","28.59173119999999","77.1757456"
"ChIJaVGCAkUDDTkReuXAEvhYSOM","Narina Vihar cb188 Sahil service center","189, Block CB, Naraina Village, Naraina, New Delhi","28.6239005","77.1342581"
"ChIJYfyIeAADDTkRBmWmrsw542g","ASC GAS AGENCY","J48J+J2V, Kirby Place, Delhi Cantonment, New Delhi","28.6166063","77.1300404"
"ChIJG5xiw9AcDTkRoNu5JovBpU4","IGL CNG Station Brar Square","near Army College Of Medical Science, Ring Road, Brar Square, Delhi Cantonment, New Delhi","28.6066166","77.1416733"
"ChIJj0X8pwQZDTkRvsGqIm9Co0Y","Hindustan Petroleum Corporation Limited","Ground Floor, Mehrauli-Gurgaon Road, Sector 17C, Gurugram","28.476711","77.066541"
"ChIJYeJrLOQYDTkR5Gt7v3-BJd4","Haryana City Gas CNG Station","Near Near HUDA City Center Metro Station, August Kranti Marg, Sector 29, Gurugram","28.4635142","77.0733094"
"ChIJ00QJN2QfDTkRFib7Vu7uNds","Bharat Petroleum, Petrol Pump -Shri Ram Fuel Centre","Mehrauli-Gurgaon Road, Sikanderpur, Gurugram","28.482508","77.1030363"
"ChIJSUzX7VUYDTkRerzmun1vS4Q","Bharat Petroleum","Delhi - Jaipur Expressway, Block A, Sector 30, Gurugram","28.465562","77.0556369"
"ChIJ7_wwzYIZDTkRzxNFVBH848o","Hindustan Petroleum Corporation Limited","Ground Floor, near Tau Devi Lal Park, Sector 23A, Gurugram","28.50453669999999","77.05440949999999"
"ChIJYV4InFoYDTkRDF7SsyJjaYM","Haryana City Gas CNG Station","Delhi - Jaipur Expressway, Sector 15 Part 2, Gurugram","28.4580247","77.04713"
"ChIJGUFk7VoYDTkRKyZonNFDqwE","Cng Pump sec 15","14, Delhi - Jaipur Expressway, LIG Colony, Sector 31, Gurugram","28.4563465","77.0470625"
"ChIJkwLJ9rcYDTkRBbnSd_tVJQY","Bharat Petroleum Retail Outlet","141, Saint Thomas Marg, DLF Phase 5, Sector 43, Gurugram","28.449704","77.09149719999999"
"ChIJO8DzUiYZDTkRlBB3Dl1ZIoE","Bharat Petroleum, Petrol Pump -Jawala Service Station","Delhi - Jaipur Expressway, Sector 31, Gurugram","28.45586579999999","77.04639900000001"
"ChIJlWegzOAbDTkR6XqthgtsRJk","IGL KAPASHERA","Nera Mcd Toll, Delhi Gurgaon Border, near Chetak Logicstic, opp. Surya Vihar, KAPASHERA, NEW DELHI","28.520952","77.08228"
"ChIJIQqd2x8bDTkRqvqXaJ6gcrk","Bharat Petroleum, Petrol Pump -Jaipur Golden Tpt.Co.Ltd.","BORDER, Kapas Hera, New Delhi","28.5222258","77.0819688"
"ChIJ74Up6uYbDTkRxSKiGXBb0S8","Naveen Gas Services","1188, Gali Number 12, Kapas Hera Extension, Kapas Hera, New Delhi","28.5229353","77.0782625"
"ChIJs7-bMcoZDTkRIqBQutcQjeg","Hindustan Petroleum Corporation Limited","Ground Floor, Sector Road, Sector 12A, Gurugram","28.472691","77.03096099999999"
"ChIJo44tZogZDTkRzwROTiSomYc","IndianOil","near Ansal Plaza, opposite Sector 23, Sector 1, Palam Vihar, Gurugram","28.5129539","77.0435676"
"ChIJ6ZPHmrsYDTkRExoPBfdhzs4","SKN-HCG CNG Station","Sector 52A, Gurugram","28.4422851","77.08596949999999"
"ChIJx3sSpMUZDTkRdM_ade68XR4","Bharat Petrol Pump","LT Atul Kataria Marg, Part- 6, Masani Village, Sector 6, Gurugram","28.4805719","77.0253108"
"ChIJDeq4n-sYDTkRWCnKwb7H68g","Haryana City Gas CNG Station","44, Institutional Area, Prem Puri, Sector 32, Gurugram","28.45215809999999","77.0752005"
"ChIJvbugwQ8ZDTkRPMm8zdy1ovI","Ola Electric Mobility Swapping Station","F3PF+M79, Lane Number 6, Sector 18, Gurugram","28.4866682","77.0732402"
"ChIJtWuyNEgZDTkRuLtm-0oSJRY","IndianOil","tehsil, near bus stop, Rd tauru Goela, mewat, Tauru, Gurugram","28.4881634","77.070118"
"ChIJAQAAAAcZDTkR5v2pbAgdsYs","Rajan Autocare","Sector 17 C, Fifaco Chowk, Mahadhari, Mahadhari, Gurugram","28.4767312","77.0665204"
"ChIJBRRxo5ojDTkR3TxQMuelLtk","Hindustan Petroleum Corporation Limited","Ground Floor, near Police Post, Badshahpur Sohna Road, Bhondsi, Gurugram","28.346201","77.067391"
"ChIJIQWwvJojDTkRkQNA5pWaDj0","Raghav Fuels","Vill, Badshahpur Sohna Road, Bhondsi, Gurugram","28.3459487","77.06771189999999"
"ChIJ8RWFxzcjDTkRQTROH5TQITc","Bharat Petroleum Petrol Pump , GROVER PETROMART","VILLAGE BHONDSITEHSIL, Sohna - Gurgaon Road, Gurugram","28.3395234","77.0681833"
"ChIJSfsF0xslDTkR1HPlxLz61pw","Hindustan Petroleum Corporation Limited","Ground Floor, Toll Plaza, near Ghamroj, Sohna - Gurgaon Road, Ghamroj","28.3301705","77.0678655"
"ChIJbd_9GlgjDTkRWksujzz72BY","IndianOil","Ground Floor, Sohna - Gurgaon Road, Fazilpur, Gurugram","28.3651955","77.059997"
"ChIJN1jlF10kDTkRmk4rd7QlVgc","Indraprastha Gas Limited CNG Station","8368+5HF, Badshahpur Sohna Road, Alipur","28.3104358","77.0664139"
"ChIJnShZFF0kDTkR7uTYPZpd8y4","IndianOil","Sohna - Gurgaon Road, Alipur","28.3089449","77.06628309999999"
"ChIJM9duN9kjDTkRLsDGfAX5RJU","COCO BP BADSHAHPUR","92HV+J47, Aklimpur - Teekli Road, Gurugram","28.379037","77.042794"
"ChIJs89CWgAlDTkRlxmqdWluIE0","Jio BP Petrol Pump","8358+8JR, Alipur","28.3085015","77.0665001"
"ChIJz6eKV1skDTkRO8W6pBSYBnA","Hindustan Petroleum Corporation Limited","Ground Floor, Sohna - Gurgaon Road, Alipur","28.30475999999999","77.06724"
"ChIJq2oiwyUmDTkRwjOWRh1l0AU","Hindustan Petroleum Corporation Limited","MDR 133 Ballabgarh Pali Dhoj, Sohna Road, Sohna","28.254584","77.135401"
"ChIJcxZ7dWIvDTkRAvzM6YvFiTI","Pawan saini","RO ON, Palwal - Sohna Road, Sohna","28.242108","77.072135"
"ChIJ-05pfFMpDTkRbhh9MvdrBok","Bharat Petroleum, Petrol Pump -Om Filling Station","VILLAGE NUNERA, GURGAON","28.2427341","77.1202234"
"ChIJ8WZLnfAnDTkRGXSURR4aJRY","C. S. FUELS KHARODA","747G+296, Unnamed Road, Kharoda","28.2625262","77.1258795"
"ChIJ7bnJpT0nDTkRl1syTWpkok8","IndianOil","Ground Floor Sonha, Km Stone, near 2 Km to 4, Lake Road, Damdma","28.2663331","77.0915594"
"ChIJX_Kp5GEvDTkR0q1nQUfbMj4","IndianOil","Ground Floor, Palwal - Sohna Road, Bhirauti, Gurugram","28.2420283","77.07431679999999"
"ChIJrYpXcQAvDTkRMl_PeeXXZqs","CNG","near Sani Mandir, 10, near Sani Mandir, Gahlot Vihar, Durga Colony, Sohna","28.2417464","77.07435459999999"
"ChIJeba3mYklDTkRZT6MVPscDao","IndianOil","Delhi – Alwar Road, Sohna","28.244454","77.0724637"
"ChIJiZdL_WElDTkR4QzbXX9uPVk","Bharat Petroleum, Petrol Pump -Raghunanadan Service Station","Badshahpur Sohna Road, Sector 38, Gurugram","28.2567809","77.0695017"
"ChIJw5RJKAAnDTkRzvu2rHKq6fM","Hindustan Petroleum Corporation Limited","Ground Floor, Sher Shah Marg, opposite Hanuman Mandir, Permit Lane, Abhepur","28.2876287","77.10785070000001"
"ChIJ8UgNAREvDTkRhnjkq1Xxa3U","CNG machanic Faruk","63Q9+CQW, National Highway 248A, ITI Colony, Sohna","28.238625","77.06944299999999"
"ChIJbaUSewAnDTkRHmVrCAY8ABc","Ch.kishan lal filling station & CNG pump","748X+6JM, Nimot","28.2655906","77.1490474"
"ChIJp7WjTwAnDTkRKtRTy4hUVSM","REYANSHI FILLING STATION","74Q4+Q7X, Abhepur","28.2896042","77.10591889999999"
"ChIJhbBvK5glDTkRUVKkXo6H-xg","Raghunandan Filling Station","7369+Q3C, Sohna Rural","28.2619421","77.06765279999999"
"ChIJ6Q5MpmQvDTkRkmk7vzKCH7I","IndianOil","Ground Floor, Tel Exchange, opposite Sohna Road, Bhirawati","28.2358802","77.0690718"
"ChIJJwH3oaIlDTkRjDQkXlx5-8I","IndianOil","Ground Floor, near GD Goenka School, Sohna - Gurgaon Road, Bhirawati","28.2648275","77.0666444"
"ChIJ9a8fTAAlDTkR887lMRCqXhM","Govardhan hp","Ashiyan T1, behind Ashiana Mulberry, Sohna","28.27158","77.06681999999999"
"ChIJnQs_ehAvDTkRZc27gJJDuMA","IndianOil","Ground Floor Sohna Alwar Road, National Highway 248A, Sohna","28.2302723","77.0666431"
"ChIJq6qqusorDTkRkd8ww5INwDs","IndianOil","Ground Floor Mindkola, Nuh Rd, Chhainsa, Palwal","28.13337599999999","77.156795"
"ChIJEb9Ns0kqDTkRciLxy89vuvw","Prasad filling station Petrol Pump","45M4+9VC, Palwal","28.1334348","77.15712789999999"
"ChIJ80nqQHIqDTkRZs16vVgnPp8","IndianOil","Ground Floor Mandkola, Palwal, Chhainsa","28.133678","77.184738"
"ChIJgbpyYpArDTkR2rGQv7HazvY","SAHEED RAMPAL FILL. STATION","45M5+2CH, Major District Road 132, Nuh","28.1325688","77.1586172"
"ChIJO8Z5bI8rDTkRyeuquC8rDt4","Hindustan Petroleum Corporation Limited","Ground Floor, Mandkola","28.13276979999999","77.1644774"
"ChIJu70XD3crDTkRaFJ2iTL2Y4I","IndianOil","Ground Floor, Sohna Mindkola Road Gangoli, Nuh, Bhirawati","28.15191","77.121895"
"ChIJF-cG5X0rDTkRpmm9P0VXgPA","Bharat Petroleum, Petrol Pump -Shaheed Rampal Filling Station","MINDKOLA,PALWAL NUH RD,MEW, PALWAL","28.1325957","77.16684529999999"
"ChIJ8yjfiVkpDTkRP0i4yXc3h5k","IndianOil","Ground Floor, Nuh, Sohna-Mandkola Road, Kherli Dausa","28.1600967","77.115999"
"ChIJ-TS9ZQDVcjkR4aSvO2vHPmQ","M/s PRA GAS, CNG Station","24GF+W78, Jaisinghpur","28.0272833","77.1232164"
"ChIJ22suHQDVcjkRK076Cdl0YuM","PRA GAS","Usman Market, near Bay, 112, Nuh Hodal Road, Village, Chilavli, Nuh","28.027545","77.1231233"
"ChIJNcS08_rVcjkRXSsXBOTg18A","Essar Petrol Pump","24M7+2G3, Nuh Hodal Road, Jaisinghpur","28.0325001","77.1138064"
"ChIJCyOsQADVcjkRj8q6jCjhOoI","Hindustan Petroleum Corporation Limited","MDR No 132, Nuh Hodal Road, Tajpur","28.0342526","77.1090718"
"ChIJVbHFslDVcjkRdtYyZebqvYo","IndianOil","Ground Floor, NHAI Rest Area, Delhi - Mumbai Expressway, Tajpur","28.0356006","77.11937329999999"
"ChIJn-TvJ3LVcjkRNgWXR273_5U","Rest Area & Facility","24PC+49, Tajpur","28.0353458","77.1209644"
"ChIJVbdlPgDVcjkRpTLAanrkHmY","IndianOil","Ground Floor, NHAI Rest Area, Delhi - Mumbai Expressway, Tajpur","28.0354477","77.1208023"
"ChIJr0KTs2bVcjkRRKqk4SiEgX8","Hindustan Petroleum Corporation Limited","Ground Floor, Nuh Hodal Road, Thekra","28.0164153","77.14134349999999"
"ChIJfajigwDVcjkRRZEIXaEhc1E","Satish HP Filling Station","Shop no 30, Filling Station, Thekarka","28.0163217","77.141845"
"ChIJyUlxZlvVcjkRS28V9-OBvM8","HP Pump","Shop no, near by Mewat Hospital, 27 Rd, Thekda Mode, Nuh","28.01580109999999","77.14345469999999"
"ChIJMd_I4n3TcjkRX18tv_6Q1Io","IndianOil","MU No 173, Khata No 1833, 1820, Nuh Hodal Road, Ujina","28.042713","77.094773"
"ChIJUWDO8kXTcjkR1LtpDSWqvT0","ESSAR Petrol Pump, Ujina","Ujina","28.0474831","77.08663709999999"
"ChIJQ7co_9jTcjkRIUELmM6C2WI","Bharat Petroleum, Petrol Pump -Vimal Filling Station","UJHINA,NUH HODAL RD,MEWAT, MEWAT","28.0477684","77.0855579"
"ChIJFecqV0nXcjkRP4LhN8rLNyE","IndianOil","Ground Floor Pinangwa, Punhana, Luhinga kalan","27.8953961","77.10873269999999"
"ChIJVXQwGCLRcjkRZuQLpCY6kuk","Hindustan Petroleum Corporation Limited","Ground Floor, Badkali Punhana Road Ferozpur Jhirka, Marora","27.909423","77.064881"
"ChIJT8gxmTPRcjkRut1iQGznnxs","Shri Om Fuel Point","W372+MP, Marora","27.9138896","77.0518056"
"ChIJa2-GJW_RcjkRtuWPKjlkFZ4","Hindustan Petroleum Corporation Limited","Ground Floor, Badkali Punhana Road, Punhana, Pinangwan","27.90168899999999","77.094594"
"ChIJ6a6qocnQcjkRjo5A-TjbAeY","IndianOil","Ground Floor, Punhana, Berkeley Road, Lohinga Kalan, Pinangwan","27.902136","77.095123"
"ChIJabn67S3XcjkRjtxgXh3gILQ","Hindustan Petroleum Corporation Limited","Ground Floor, Punhana, Rehpuwa","27.9213369","77.1127283"
"ChIJo2YG2oTRcjkRYdel_wErvbE","Badarpur filling station","Vill. Badarpur, bhadas sikrawa, Road, Badkali","27.9470407","77.0431662"
"ChIJEQi2xpDRcjkRqM0nciwa2iU","Bharat Petroleum","W2WV+V7Q, Major District Road 135","27.9472027","77.04322049999999"
"ChIJF5ShH-fXcjkRGuAtZY5tzuk","Lalaram Tanvar filling station","V4P3+9R8, Pinangwan","27.8859216","77.1045654"
"ChIJXwmV9YnDcjkRYWa5Ujz_yV8","Reliance Petrol Pump","QW9W+HV5, Firozpur Jhirka","27.7688965","76.9472323"
"ChIJ_Qw8EgDDcjkRdjeL3_iL_C0","Adani CNG station","PXQM+FM, Maholi","27.7388178","76.9846385"
"ChIJ5-iEHV7PbzkR0zl6eeTmkls","IndianOil","No 69/9 Rhs, Delhi - Mumbai Expressway, Gurugram","27.7388398","76.9845622"
"ChIJwQjO55DDcjkRWekpMc-7EfI","petrol pump","PXQM+C8H, Firozpur Jhirka","27.7385681","76.9833538"
"ChIJOZAjJADDcjkRTw-pS-2y874","Jagat dhaba","PXQM+78, Maholi","27.7381762","76.9832953"
"ChIJjwQxTwTDcjkRyWOi0s8Fx1Y","Shiv filling station","Q262+W3C, Ghata Shamasabad","27.7623121","77.00012629999999"
"ChIJlfTMOFHDcjkRPH4CnjuFYQQ","Numbardar Fuel Station","QX7X+J45, State Highway 22, Ghata Shamasabad","27.7641937","76.99665879999999"
"ChIJRUTSjLbDcjkRks7rysvnSEU","D E F TRUCK URIYA PUMP","near by Royal Restaurant Eistideam Ke Samne, Shop No 12, Bharatpur Man Road, near by Royal Restaurant Eistideam Ke Samne, Alipur, Ferozepur Jhirka","27.7722939","76.97840459999999"
"ChIJ769Z7ifFcjkRJsv1qtrkuZE","SRL FILLING STATION","State Highway 22, Kameda","27.7733532","76.9754267"
"ChIJu00usoLEcjkR2DSPpumnfr4","Hindustan Petroleum Corporation Limited","Ground Floor Firozpur Jhirka, Kaman Road, Kameda","27.773574","76.975585"
"ChIJgaMeDQDDcjkR7M9iB8Ou1BI","ansar D E F youria wale","QW2W+H82, Hasanpur Bilonda","27.7513869","76.9457772"
"ChIJVb1oc1NJDTkRUO6HYaPdooA","IndianOil","Ground Floor SH 13, Alwar Road, Agon, Firozpur Jhirka","27.7515989","76.945714"
"ChIJFf6zvwPDcjkRHE00yrCQCy0","Om Auto Parts","near by Court, Shop No 36 Delhi Alwar Road Ferojpur Jhirka, near by Court, Nuh","27.7464579","76.9412601"
"ChIJZd9vkOvDcjkRGSTnUddxhZo","IndianOil","Ground Floor, near Pathkori, And, Gurgaon Alwar Road, Aharwan, Rawli","27.7338134","76.9427925"
"ChIJTfJa-_DdcjkRo0RYuHzawf4","Hindustan Petroleum Corporation Limited","Ground Floor Basaimeo, Ferozpur Jhirka, Bewan","27.7601907","77.0305018"
"ChIJDeVRnZXccjkRLs8UOnUQKSg","Bharat Petroleum","Q25M+7MV, State Highway 22, Dhaulet","27.7582274","77.0341634"
"ChIJCc9HbwDFcjkRMlyTf6ZexgM","Kameda Bharat","QXFC+Q8M, Kameda","27.7744706","76.9707869"
"ChIJcds1Z47pcjkRXb1XBRt1rdQ","Karan Singh kirana stor and restorent","JWHR+QJR, Rasgan","27.6294865","76.94151649999999"
"ChIJZzpBr2HpcjkR-TTCYM2Sl2k","जिया ई-मित्र","MW5V+M85, Golki","27.6591428","76.9433468"
"ChIJG0GZhL7pcjkRJ82Oeb5o_IE","Bharat Petroleum, Petrol Pump -Mahindra Filling Station","DOHA,GGN ALWAR RD,MEWAT, MEWAT","27.6713938","76.9530654"
"ChIJtQEDkbXpcjkRrj4qhoOaiVc","IndianOil","Ground Floor Kolgaon, Ferozepur Jhirka,Agon, Gurugram","27.6731001","76.9478001"
"ChIJoWAz94PDcjkR6Hz751RriZA","Hasan Khan","Nkn K, MXM8 2RCGG Mhsn","27.6825603","76.9670084"
"ChIJy5HKPcDDcjkRj_hHaAuv5qk","JABIR KHAN","JABIR 5255, JABIR 5255, Agon","27.6835182","76.9658025"
"ChIJ81kJIADtcjkR8z2AZ7qG3qQ","HP Petrol pump","GV26+99, Bhayari","27.50145719999999","76.8609592"
"ChIJG8HvfQDtcjkRCC8WkrjJpUg","Petrol pump","GV25+XX3, Bhayari","27.502402","76.85961739999999"
"ChIJh9gG1CvzcjkR74Ol5b6fmSs","IndianOil","Ground Floor, Bharatpur Road, Barodameo","27.4792871","76.8787155"
"ChIJozEc7_LscjkRX-dgJByVgd0","IndianOil","Ground Floor, Milkpur","27.5524343","76.8625854"
"ChIJYRPnGoPycjkR8aJ2dvv89XQ","IndianOil","Ground Floor, SH 14, Barodameo","27.4820067","76.8626127"
"ChIJ--_ZGq2NcjkRUH1GMwCzPj8","Nangal tappa fuel station","CQPC+MW5, Nangal Tappa","27.4366471","76.772351"
"ChIJBdWnUE9_cjkRcpTYG_0Rzlw","IndianOil","Ground Floor Nagal, Ramgarh, Alwar, Badla","27.4370166","76.7721644"
"ChIJPVBSu26LcjkRdLbnIqjElqE","IndianOil","Ground Floor, Laxmangarh Malakhera Road, Chimravali Sikh, Bedar, Alwar","27.3627291","76.78072519999999"
"ChIJvw7JTk2LcjkRpbOZmNp_zS8","Bharat Petroleum, Petrol Pump -Parasnath Filling Station","MAUJPUR ALWAR, Alwar","27.3628089","76.7964969"
"ChIJsbOROcCLcjkRaWxn6gIv-jg","IGNITE ENERGY STATION","ON SH-44, TEHSIL- LAXMANGARH, Maujpur","27.3641679","76.8216591"
"ChIJzSEwbbhmcjkRkNdvajqQxjc","Hindustan Petroleum Corporation Limited","Ground Floor, Reni","27.181942","76.738177"
"ChIJrVdRJgBlcjkRXhRooGZ6RI8","HP Petrol pump","Petrol pump at, Delhi - Mumbai Expressway","27.11826789999999","76.6635639"
"ChIJu2oW8ABxcjkRWQ1LL70P_ws","Bharat Petroleum, Petrol Pump -Harsh Kisan Service Center","KESHOPURA DAUSA, DAUSA","27.0881684","76.63438119999999"
"ChIJN3NwAQBvcjkR8BNZlzw4VNM","Nayara petrol pump","3PW3+4WF, Dubbi","27.0953096","76.70479040000001"
"ChIJ1VfpGwB1cjkRUe2ZkiTEVlA","Kandoli kalalakhoh","WF75+2M9, Kalakho","26.91253720000001","76.4592275"
"ChIJs9Zz-DL1bTkRzHXCpuN_V98","Hindustan Petroleum Corporation Limited","Ground Floor, Garh Road, Bhandarej","26.8983783","76.41906660000001"
"ChIJSdvxa4SLbTkRs8cUv4Lv2aQ","Gurjar Filling Station","Mitrapura","26.9113724","76.40738309999999"
"ChIJgyzTEV51cjkR-wIXIRYgrAo","Bharat Petroleum","India","26.9150186","76.4613373"
"ChIJWcIVA8yLbTkRIRVgR8kTKoQ","IndianOil","W94R+WM5, NH 11, Agra-Jaipur Road, Dausa","26.9080488","76.3937332"
"ChIJ42EOgBF1cjkRUFmRuAPsytM","Bharat Petroleum, Petrol Pump -Arihant Petroleum (Nrl)","KALAKHO DAUSA, Dausa","26.9190384","76.4755546"
"ChIJF6ITG3-LbTkRwpVi_oaRt2w","Tata motors def yuriya narasi GURJAR","Dausa","26.9087702","76.39155240000001"
"ChIJpU8U5U_1bTkRDRrjDoDSqKo","ESSAR - गजानंद फिलिंग स्टेशन भाण्डारेज","Dausa","26.8796346","76.4436563"
"ChIJdeQH53_6bTkRlmaD7DdYJ84","IndianOil","Ground Floor NH 11A ,Dausa Lalsot Rd, Rahuwas, Chharda, Dausa","26.692972","76.31741699999999"
"ChIJz8gQDLr3bTkRyAKha_--GW8","Parsadi lal Suresh meena","to, Chhareda Road, Rahuwas","26.7383463","76.3493869"
"ChIJ49uYOQDxbTkRLuc_fdPweVk","Chudiyawas","P79W+5VR, Nichooniya","26.7179805","76.2971463"
"ChIJf9V35GL7bTkRMUvadOcBWJo","Hindustan Petroleum Corporation Limited","Ground Floor, SH 24, Didwana","26.602681","76.304008"
"ChIJ0xEXAXj8bTkRhW2YoIIzeWA","Hindustan Petroleum Corporation Limited","CH No 34/960 to 35 NH 11 A, Lalsot","26.603095","76.328848"
"ChIJAb7Tp8XkbTkRojpUdTEq8cI","Pachwara Filling Station","J7G4+WW9, State Highway 24, Ramgarh Pachwara","26.6272859","76.2573524"
"ChIJE3MVKtL7bTkRhF7hLsFMX50","Hindustan Petroleum Corporation Limited","Ground Floor, NH 148A, Salempura","26.6467216","76.3225233"
"ChIJW1b0Rnz8bTkRcW2dAEt31KQ","HP PETROL PUMP - NARDYA FILLING STATION","Village Deedwana SH-24 Tehsil Lalsot, Jaipur","26.594398","76.321227"
"ChIJv9eWLgAPbjkR0L4igHEy0iw","Jio BP petrol pump 2","965X+9MF, Thari","26.3584256","76.2491841"
"ChIJM08keQAPbjkRJxHBg-PSrWg","Jio BP petrol pump 1","9752+97, Thari","26.3588986","76.2506291"
"ChIJBY8FkbgPbjkRiYkMbwaFKAk","IndianOil","Ground Floor Lalsot Rdbonli, Sawaimadhopur, Baroni","26.3322848","76.25511329999999"
"ChIJ127YbsUPbjkRGzBwrm7CMVA","Ambay Filling Station","Kasba Bonli","26.3295746","76.2372342"
"ChIJs_1UHfMFbjkRUlHDbt9qPiY","Hindustan Petroleum Corporation Limited","Khasra No 326, Jastana Road, बौंली","26.338299","76.272959"
"ChIJ7-wbI9YRbjkRcQdyDwDjZVY","Hindustan Petroleum Corporation Limited","Khasra No 1387, Jastana Road, बौंली","26.314101","76.21760100000002"
"ChIJf_oxltQRbjkRFTggvTOpKIc","MR. JITENDRA SAINI","Jatawti","26.2398991","76.2467533"
"ChIJS40w7_ARbjkRkq1AXycpYcY","IndianOil","Unnamed Road, Hindupura","26.2443563","76.23824870000001"
"ChIJlQ5ZyssRbjkRbzrsfQR-CKA","Choudhary Petroleum Ksk","1642, CHOUDHARY PETROLEUM KSK BAS TORDA, Bonli","26.2540819","76.2045622"
"ChIJRWxy-egXbjkRnsIRYpCgabk","IndianOil","Ground Floor, Bhagwatgarh","26.1462647","76.2510132"
"ChIJ0RgJz0olbjkRNRdeywA5D3o","IndianOil","Ground Floor, Alapur, Sawai Madhopur Road, Kushtala","25.9703619","76.2716769"
"ChIJ3QaKwlAlbjkR-iPdNiaBH2Q","IndianOil","Ground Floor, Dhumon Kalan","26.0281171","76.2782507"
"ChIJyTcaXzwlbjkRdNSdcoIC1vs","IndianOil","Ground Floor, Dhumon Kalan","26.028608","76.278554"
"ChIJQx-VLgAlbjkRzKZqNdOi8Ls","Kapil Filling Station","X7CH+FM, Jaisapura","25.9711944","76.2791944"
"ChIJ2ULaeaUxbjkRA22RZtXFNco","Hindustan Petroleum Corporation Limited","Khasra No 386, 387, Lalsot - Kota Mega Highway, Bagawda","25.8866522","76.233733"
"ChIJQWz6VOoxbjkR8nCVr7IJf_c","Essar Oil Petrol Pump","V68C+GW5, Khijoori","25.8662712","76.222368"
"ChIJ5e6QlaEzbjkRUC4xP4EIIO0","IndianOil","Ground Floor, Lalsot Kota Mega Highway Indergarh, Lalpura, Antarda","25.765801","76.184401"
"ChIJbx4EUpjMbzkRpM4FF94VMz4","IndianOil","Ground Floor, Indergarh","25.7296926","76.1877745"
"ChIJ11VM8v3PbzkRQa1bn5ry284","IndianOil","Ground Floor, Amli, Badakhera","25.5783846","76.23152429999999"
"ChIJfXrLLYXFbzkRA1yD9EfIVco","Hindustan Petroleum Corporation Limited","Khasra No 66, SH 33, Laban","25.561214","76.21529799999999"
"ChIJ_8Llu3DNbzkRgcqMFzSPgfA","IndianOil","Ground Floor Mega, Lalsot - Kota Mega Highway, Lakheri","25.6251568","76.191982"
"ChIJyUpX-AnCbzkRu1yfI1TvjFU","IndianOil","Near, 8 line, Mandawara","25.3855436","76.1956207"
"ChIJt6tadADDbzkR1RHqoLsXhzg","Jio BP Petrol pump","C6Q4+W42, Kunethiya","25.4396236","76.2040093"
"ChIJW_gqcADDbzkRVdeSKh60D1g","BP DME 352 Petrol pump ⛽","C6Q4+V39, Ramnagar","25.4396524","76.20523190000002"
"ChIJ5ZYICQDDbzkR1_jreiVRvPg","Bpcl","C6Q4+W42, Kunethiya","25.4397565","76.2052696"
"ChIJH7SrmQfsbzkRH6CppP4nl9g","Hindustan Petroleum Corporation Limited","Khasra No, 490 & 490/1 SH 70, Sultanpur","25.2883332","76.1691231"
"ChIJUZeaJgnsbzkRfZaXyeGlTqs","IndianOil","Ground Floor, Kota Road, Sultanpur","25.284301","76.163701"
"ChIJG9SHOwDtbzkRRvknOU6wpmY","Uttam petroleum corporation","75M6+695, Sultanpur","25.2830079","76.1609838"
"ChIJnV0zs8WSbzkRA7usxGPmTwc","Petrol Pump","Digod","25.2183187","76.0711049"
"ChIJIxV1TRCTbzkRD_hsCukUDbg","Bharat Petroleum, Petrol Pump -Surendrakumar Jinendrakumar","SIROH/ SIROHI-SUMERPUR ROA","25.194179","76.0706613"
"ChIJI1JuKADzbzkRRmW_sjP9Q6Q","सांवरिया मेटल्स सीमलिया","Nh-27, Baran Road, Bijolia","25.1690982","76.099542"
"ChIJYWU8MbjybzkRKkY3CM2cBws","Hindustan Petroleum Corporation Limited","Khasra No 418, 2 & 657/4 NH 27, Karadiya, Kota","25.1691255","76.0981911"
"ChIJSa4EQ7jybzkR5GYZBdL22zc","Hindustan Petroleum Corporation Limited","Village Similiya baran Road Nh-76,dist-kota, Kota","25.168485","76.099238"
"ChIJQcxWMyTtbzkR32Ap7C7-Q48","IndianOil","Ground Floor, Digod","25.2295905","76.1002401"
"ChIJ2aRRVYxjZTkRbT9DZZmBr7s","IndianOil","Ground Floor, Ladpura, Mandana","24.9418303","75.9516634"
"ChIJkZV8IT9jZTkRc62NyImP6J0","Govindam Enterprises BPCL Filling Station","National Highway 52, Mandana","24.9389002","75.94930149999999"
"ChIJZTCuzuljZTkRIy-IOdth8Lk","BPCL Mandana Bharat petroleum","WWPX+VR, Mandana","24.937122","75.9494663"
"ChIJLwr6egBhZTkRN0nV-h74p1Q","Purva Fuel Station","X2V3+58F, Delhi - Mumbai Expressway, jaora, Ratlam","24.9929293","76.0032897"
"ChIJEWhaFPliZTkRi5gatzdx_c0","Gawalera Filling Station","NH 12, Kota","24.9502883","75.9421818"
"ChIJmWO5fPFiZTkRY8PjCS_JSJQ","HP PETROL PUMP - HP FUELING CENTER","Ground Floor, Road, Mandana","24.959551","75.938281"
"ChIJ4dnlouxjZTkRHPUtQ1WNonw","UMA Filling station Nayara RRO","WWHX+HV2, Major District Road 7","24.9288876","75.9496484"
"ChIJe2ViHaxlZTkRGIuT4Y1LjtQ","IndianOil","Khasra No, 330/205, Ladpura, Bhanwariya","24.8496487","75.9819184"
"ChIJg3goTwATZTkRHYPauZEKsKc","Jay Shree Kotri Shyam motors def urea pump","Nh52, Jhalawar Road, Dobara","24.8443796","75.98812769999999"
"ChIJjfmQtg9lZTkRmGTRuidiehs","Mewati Def urea pump","Dara","24.8440268","75.9882817"
"ChIJ_dHaGwBnZTkRVgGxJPH26u4","धर","R2P2+JWV, Kota Road, Dara","24.8366211","76.00230789999999"
"ChIJ5RMPe3JmZTkREYP8O2J-Xl4","Ratan Filling Station-BPCL Petrol Pump","Darah, Kota, NH-52, Kota Jhalawar Highway, Kota","24.8357496","76.00400309999999"
"ChIJZWFxWxNmZTkRsw97alyq5T8","Hindustan Petroleum Corporation Limited","Khasra No 398, NH 52, Dara","24.8320381","76.0096039"
"ChIJG8Eav5luZTkR0AAgZNhth4s","Bharat Petroleum Petrol Pump , MORAK FILLING STATION","RAMGANJMANDI, Kota","24.72257099999999","75.965378"
"ChIJt6qqqtpuZTkRhYp4wGS-Jmw","JAIN BROTHERS FILLING STATION","N.H-12,DHABADEH,Jhalawar highway, DHABADEH","24.725772","75.99525899999999"
"ChIJ5cW0DIVuZTkRwrAACBeyYjQ","IndianOil","Ground Floor, Ramganj Mandi, Binda Khedi, near Mangalam Cement Factory, Jhalawar","24.7217933","75.955455"
"ChIJaSxc2kxpZTkRRoLqEtXXMP8","Bharat Petroleum, Petrol Pump -Mahakali Highway Services","MORAK, JHALAWAR ROAD, KOTA","24.7306049","75.9935943"
"ChIJCdleBf1rZTkRTMpQ_zSF1tM","IndianOil","Ground Floor, Jhalawar Road, Dhabadeh, Kamalpura","24.7142001","76.002201"
"ChIJwaA6EgBrZTkRGRw7E346Qv8","Ramganj Kota","P273+P3, Hirya Kheri","24.71437199999999","76.00273299999999"
"ChIJiWolVEJvZTkR2N8FhUzkLU4","Hindustan Petroleum Corporation Limited","Ground Floor, Ramganj Mandi, SH 9A, Modak","24.736739","75.943653"
"ChIJ78VveCMNZTkRdcaYEEQKKKc","Hindustan Petroleum Corporation Limited","Ground Floor, Ramganj Mandi, SH 9A, Road, Undwa","24.5964906","75.8929686"
"ChIJE7YCETUNZTkRTbs9Wh1zRfQ","Bharat Petroleum Petrol Pump , SHREE RAM FILLING STATION","VILLAGE UNDWARAMGANJ MANDI- BHANPURA ROAD, Kota","24.5959569","75.8930609"
"ChIJ66Wxj20LZTkRNJnG4ldK26g","Arihant Petroleum BPCL Petrol Pump","Madhya Pradesh State Highway 31A, Ratanpura","24.5200642","75.8071033"
"ChIJAfTEb14LZDkRVBfK6iEEMsY","IndianOil","Satna, Ground Floor, Bhanpura Road Mandsaur, Bhartiyakhedi, Kharemseda","24.513434","75.7691727"
"ChIJSWSpMAqpZTkRYcliYbKvfX8","IndianOil","Ground Floor, Bhanpura Road, Bardiya Amra","24.3366171","75.6579964"
"ChIJLTnjBgCpZTkRG3-9dSTcEUI","Fuel station","8MWH+FQQ, Garot","24.34620349999999","75.6794725"
"ChIJxYHJLACpZTkRZmTflgIaRQI","NAYRA PETROL PUMP ⛽","8MXH+2M3, Garoth","24.3476575","75.6800968"
"ChIJCc3EawCpZTkR7CPg2hPB-L0","Ankur choudhary","9M9H+2Q, Jodma","24.3675036","75.67949229999999"
"ChIJw_1nTX2rZTkRlBII4NzW2qI","Vijay Shree Petroleum - BPCL","Boliya Road, Garoth","24.3110067","75.66167879999999"
"ChIJb7P3CiepZTkRIWgoiTRrKHs","NAYARA / ESSAR Abhinav Petroleum","8MC2+HJH, Shamgarh Road, Garoth","24.3178979","75.64742679999999"
"ChIJRxkPLQBVZDkRvXeR4OiYdJM","Entry point ( पेट्रोल पंप गुरुकृपा )","DHABLA GURJAR, gurukripa filling essar pump, Dhablagujar Ujjain-garoth rd to shamgarh road Entry point, to, RAILWAY UNDER BRIDGET, Chandkhedi","24.2151519","75.6551226"
"ChIJH8isCsxUZDkRxi3Ghwrzs1w","गुरुकृपा पेट्रोल पंप","Chandkhedi","24.2133063","75.649931"
"ChIJlyoSxLpUZDkR1I-hojRipBM","NAYARA","India","24.2025848","75.6334815"
"ChIJkcjuBltVZDkRmUQsNngYnlY","IndianOil","Ground Floor Garoth, Shamgarh Road, Aankali, Deewan","24.1938","75.6307034"
"ChIJh__r0pVUZDkROQ1d1LRoXjw","Hindustan Petroleum Corporation Limited","Ground Floor, Shamgarh Road, Mandsaur","24.1905701","75.6388801"
"ChIJ70CbmqhXZDkRXmnQlm2fsS4","Pratap Filling Station","3M9C+PC5, Tonkda","24.0692521","75.6711235"
"ChIJs2Xt1I33ZDkRXFwltWojLUg","KAVITA FILLING STATION","DAG TO CHOUMHLA, ROAD, Jamuniya","23.9510311","75.7397273"
"ChIJ7WZMDjSLZDkR2E_zCuGPH78","IndianOil","Ground Floor, Dudhalia, Chaumella, Dag","23.853001","75.778701"
"ChIJ36TtnX6JZDkR43_c2Aa3qHk","IndianOil","Ground Floor Indokh, Mahidpur","23.7190753","75.74743389999999"
"ChIJKTY73DCJZDkRpi5LMSwATj0","336874 NAKODA KISAN SEWA KENDRA INDOKH","Indian oil petrol pump, Indokh","23.7073304","75.7574989"
"ChIJY5NQJLxwYzkRfZoh3lyb6lk","Bharat Petroleum, CNG Petrol Pump -Jay Nakoda Petroleum","JAITHALTECH ,UJJAIN KOTA R, Ujjain","23.28639","75.8261407"
"ChIJEy3_ss55YzkRKn7Gh1Vy7KM","IndianOil","Ph No 14, Survey No, 2986/5, Dhabla Hardu, Ghatia, Panbihar","23.314103","75.785507"
"ChIJUYzofgBxYzkRAV03_GpeO9w","Hotel Nandi Resort","7RPG+94J, Ujjain - Agar Road, Jaithal","23.2859692","75.82527809999999"
"ChIJg9FXqYRxYzkRRSBQfr9Gkwk","Bharat Pump","1 Gram Jethal Tek","23.2824257","75.8214371"
"ChIJg-QXlr5wYzkRDF07nhImdUU","IndianOil","Ph No 42, Survey No 296, 4 300, Dhabla Hardu, Jaithal","23.2848874","75.8259964"
"ChIJ5SaOk2R7YzkREKt1-jQSi_o","IndianOil","Ground Floor, Agar Ujjain Rd Najarpurteh Ghatiya, Dhablahardu","23.33401","75.84431289999999"
"ChIJdQsI1gN0YzkR2Ms8Ep1HvZk","Hindustan Petroleum Corporation Limited","Ground Floor, Kanipura Road, Ujjain","23.2045794","75.8011155"
"ChIJQZH5R2l0YzkRwvsvleSKOYE","Hindustan Petroleum Corporation Limited","Ground Floor, Ujjain Dewas Road, Ujjain","23.176051","75.788791"
"ChIJNbqEkXt0YzkRXqzcD4X3cQo","Hindustan Petroleum Corporation Limited","No B, 5, Dewas Road, Rishi Nagar, Ujjain","23.1677962","75.7993236"
"ChIJI-YgJrB2YzkR51RoxJed95A","IndianOil","Lock 13015 Agar Road, Khilchipur, Desai Nagar, Ujjain","23.219341","75.797445"
"ChIJkZd8O6d2YzkRVxWnyNud4yc","IndianOil","Survey No 90/2/1, near Ujjain Factory, Plot 61/1, Ashok Mandi Chouraha, Khilachipur, Ujjain","23.2089167","75.7904643"
"ChIJzUwO4x10YzkRsjttTX6r30A","Hindustan Petroleum Corporation Limited","Ground Floor, Ashok Mandi Marg, Agar Road, Ujjain","23.205808","75.789672"
"ChIJ_3_22C11YzkRtWF1czHnohU","Bharat Petroleum, Petrol Pump -Subham Petroleum","FREEGANJ,NEAR RAILWAY BRID, Ujjain","23.2051297","75.78928069999999"
"ChIJjVj2AE51YzkR3qxDDHgsEzY","Gurunanak Fuels","near nageshwar dham, Gurunanak Fuels, near nageshwar dham, Kanipura Road, Ujjain","23.1993679","75.7933204"
"ChIJicyAQ8l1YzkRT6cg3F4WUSo","Patrol pamp","5QXV+Q62, Rajendra Nagar, Ujjain","23.1993787","75.7930047"
"ChIJJeiGmyJ1YzkRTOqtCCohU7M","Rukmani Filling Station Bharat Petrol ONLINE CNG Pump","Ujjain Ring Road, Dhancha Bhavan Colony, Bapna Park Colony, Ujjain","23.1974983","75.79458989999999"
"ChIJvc90J7B1YzkRRYYY7E0KtuA","IndianOil","Ground Floor, Inner Ring Road Badnagar Kasba, Nagar, Maksi Road, Amodiya","23.1949697","75.8009795"
"ChIJ69TxpVN3YzkRatdtCnXe9x8","Bharat Petroleum, Petrol Pump -Itc Chopal , Ujjain","KAMED,SH 27,UJJAIN, Ujjain","23.2254285","75.8015392"
"ChIJL8GNrIR1YzkRdvIcmUA0VVQ","Krishna Fuels","MR- 5 Inner Ring Road , Agar Maksi Bypass, Ujjain","23.1943079","75.8016884"
"ChIJXSKj0Bl0YzkRiSAaeztyXgE","FUEL CENTER BPCL PETROL PUMP","Ujjain - Agar Road, Ujjain","23.1955259","75.7875105"
"ChIJDcbhskJ3YzkRbRZrpg-RnUc","Shri Awantika Jalpaan Grah","Force Shorum Ke Samne, Medical College, Ujjain - Agar Road, Ujjain","23.2304622","75.8036809"
"ChIJTUa56W53YzkRnTQhMrFzgCE","Bharat Petroleum, Petrol Pump -Khushi Fuel Station","Surasa","23.2315495","75.8038485"
"ChIJWSz-ju3BZjkRYh9MoqiXUzk","IndianOil","Ground Floor, Ujjain - Agar Road, Ujjain","23.191841","75.7855438"
"ChIJaVDJZwB1YzkRB1zQjaVQS64","UMC","5QRP+83W, Koyal Phatak Chauraha, Arihant Parisar, Sirsagar, Ujjain","23.1908683","75.7851917"
"ChIJZZ2GkZdzYzkRLXC61HyC2j8","Bharat Petroleum Petrol Pump , MAHAKAL FILLING STATION","PAWASAPANWASA, Ujjain - Maksi Road, Ujjain","23.1898354","75.8206194"
"ChIJ3f5590F0YzkRJuSQbIkZtP0","IndianOil","Ground Floor, Agar Road, Koyla Phatak, Desai Nagar, Ujjain","23.1889871","75.7843997"
"ChIJAalGM2hzYzkRBQ2ccZv5xhE","IndianOil","Lock No 13008, Dewas Road, Lalpur, Desai Nagar, Ujjain","23.1404912","75.82180269999999"
"ChIJy0k4ytFzYzkR_cynOdEiI3Q","Indian Oil, Umiya Petroleum","near Kia Showroom, opp. Patel Garden, Ujjain Dewas Road, Abhilasha Colony, Ujjain","23.1293353","75.8322865"
"ChIJ82O3MSgNYzkRvINhvF6YFXc","Indian Oil - Monarch Oil","Ujjain Dewas Road, Chandesara","23.1162367","75.8514149"
"ChIJVwXjddUMYzkRBuikERxh-qQ","Mangalnath Fuels nayara pump","4V82+JW3, Ujjain Dewas Road, Chandesari","23.116506","75.8523115"
"ChIJC0b22koNYzkRJf5weGbdTLo","Balaji fuel station","4V74+FC4, Ujjain Dewas Road, Chandesari","23.11363620000001","75.856073"
"ChIJ51nJnO5zYzkRAA4UZbhZZ3U","Bharat Petroleum, Petrol Pump -Saify Auto Service","DEWAS RD, LALPUR, Ujjain","23.1425156","75.8201389"
"ChIJ5_ZR96MMYzkR7H069tvir_k","Bharat Petroleum, Petrol Pump -Nahar Petroleum","Karadiya, Indore Rd, Ujjain","23.0978669","75.813453"
"ChIJJ2tWq4sNYzkRGp4p3RZk8fQ","Sachin Fules & Petrol Pump","near nahar petrol pump, 1, Sanwer Road, Pawapuri Colony, Ujjain","23.10443459999999","75.80752679999999"
"ChIJZ-ulLFYLYzkRYggUieyfWR0","IndianOil","Ground Floor, near tapobhumi Jain mandir, Sanwer Road, Nava kheda, Karadiya","23.105851","75.80633399999999"
"ChIJW5TA5loNYzkRkeD2Wk3Waf0","Hindustan Petroleum Corporation Limited","Ground Floor, SH 27, Ujjain - Indore Road, Ninora","23.093531","75.816126"
"ChIJa51iZQBzYzkRCugAiWFzWzQ","CNG pump Avantika gas limited","Ujjain","23.1470759","75.8164338"
"ChIJS_q-jk0NYzkRBr54HHDU2bw","Hindustan Petroleum Corporation Limited","Ground Floor, Datana","23.100294","75.872091"
"ChIJny7GbdB1YzkRItvCyUzi0eE","Hindustan Petroleum Corporation Limited","Ground Floor, opposite Meghdoot Resort, SH 27, Ujjain - Indore Road, Ujjain","23.119036","75.799072"
"ChIJ36abOax0YzkRFyAIZrpejQY","Hindustan Petroleum Corporation Limited","Ground Floor, opposite Meghdoot Resort, SH 27, Ujjain - Indore Road, Ujjain","23.119036","75.799072"
"ChIJlQnk63xzYzkRKBB0Tat5FS8","IndianOil","Lock No 1709, 32, Dewas Road, Desai Nagar, Ujjain","23.1522011","75.8108749"
"ChIJRc-BDQANYzkRjRD6pMkZC6w","Jio BP Petrol Pump","Datana","23.0968448","75.8785762"
"ChIJp7tggwATYzkR_Vxdt-6F9M8","Shree Sai Petrol Pump Narwar","3W87+4VM, Ujjain Dewas Road, Narwar","23.0653417","75.9146583"
"ChIJuXPglEASYzkRVMJx0e6vhcY","IndianOil","Lock No Ig 1697 Narwar, Ujjain Dewas Road, Bolasa","23.0576224","75.9273887"
"ChIJCeo2GLgTYzkRRzNwZsl1Xro","Hindustan Petroleum Corporation Limited","Ground Floor, Ujjain Dewas Road, Narwar","23.075172","75.904484"
"ChIJc5SF5CwSYzkR6n1HeaNecwA","I.P.Fuel Station ESSAR Dealer","2WVR+WP4, Palkhanda","23.0447525","75.9418311"
"ChIJ5aQfUQANYzkRANFZJFMaa8Q","Nayara petrol pump","3VRM+V9, Datana","23.092163","75.883426"
"ChIJvUpYTYwZYzkReYX70VXlCt8","Hindustan Petroleum Corporation Limited","Ground Floor, Agra - Mumbai Highway, Lohar Pipalya","22.9192201","76.00142009999999"
"ChIJCwHdTikaYzkRsdyw6ILku5g","Hindustan Petroleum Corporation Limited","Ground Floor, Agra - Mumbai Highway, Kshipra","22.905151","75.987471"
"ChIJiZgN83YRYzkRZsdxLrXDlg4","IndianOil","Survey No 65, Chandana","22.9619962","75.9915963"
"ChIJMxQ_4ocZYzkRu4umzbjL-oI","IndianOil","Ground Floor, Agra - Mumbai Highway, Kshipra","22.9105201","75.9938301"
"ChIJx6KLhY0ZYzkRL4wDjUSZxxQ","Jio-bp","Ground Floor, opposite Gulmohar Dhaba, Nh 3, AB Road, Lohar Pipalya","22.9194689","76.00378359999999"
"ChIJH6dZh9xpYjkRv18eSveaN70","SHREE DUTT FUELS CNG PUMP","A.B. Road, National Highway 3, Bhodal","22.9005937","75.97570689999999"
"ChIJjbIxEgAbYzkRNPJnFknHOfg","Sipara Indore road","VXXM+P2Q, Kshipra","22.8993299","75.9826075"
"ChIJfWkFkukdYzkReR4C8B_zU_A","Jio-bp","opposite Hpc Bottling Plant, Ground Floor Nh 3, Ab Road, Sanwer, Lasudia Parmar, opposite Hpc Bottling Plant, Indore","22.8417857","75.9435397"
"ChIJXXcb5JIcYzkRozT7-a07cnM","IndianOil","Lock No 29/2, Agra - Mumbai Highway, Manglaya Sadak, Ratlam","22.8252836","75.93208709999999"
"ChIJwYuiA4YcYzkRu5qaBkqs8Wg","IndianOil","KM Stone, Ground Floor NH 3, Raukhedi,Badayala Mata, near No 591/2, Ratlam","22.836144","75.940902"
"ChIJK6iqwjEdYzkRh4nu_0qJtSI","Aavantika Gas Limited CNG Station","India","22.8420203","75.9437829"
"ChIJl7C0O3YbYzkRvZ3dUDUXvaQ","SUNIL SERVICE STATION DIESEL PUMP","N H 3, National Highway 3, Lasudiya Parmar","22.8505969","75.94952529999999"
"ChIJawDm1wUdYzkRa4l8-ma5pQ8","Sharanya Mobilities","282/4, Indore","22.8200172","75.9383757"
"ChIJl9e3qUkdYzkRqlZmX6hJPBw","IndianOil","Survey No 12/3, Ph, No 60, Sanwer, Sullakhedi, Barlai Jagir","22.8185001","75.94380009999999"
"ChIJSW52Wk0dYzkRqa27yDYb9Po","Reva Kishan sewa kendra","Sula Khedi Road, Manglaya Sadak, Indore","22.8182455","75.9437674"
"ChIJ30cIbM8DYzkRQsnn0dJV1HQ","IndianOil","Ground Floor, near Regenta Hotel, NH 3, Manglaya Sadak, sanwer","22.8129164","75.93711739999999"
"ChIJP_ykAvsdYzkRELCO0GgG8Ac","IndianOil","Ground Floor Sanwer, Gari Pipliya, Barlai Jagir","22.8270845","75.9164632"
"ChIJq8RhMgAdYzkRvnyrFavxKcE","HP petrol and CNG pump","RWJ7+6QC, Gari Pipalya","22.8305516","75.9143867"
"ChIJHYgGSwAdYzkRgTNBd-8UDr0","HPCL T.T driver room","RW9C+FVX, Manglaya Sadak, Indore","22.8187495","75.92223419999999"
"ChIJbc1_ecIcYzkRIMk0sBX7vCs","BPCL Manglia Depot","Manglaya Sadak, Indore","22.8143491","75.9227378"
"ChIJu_F2H1cbYzkRCK19wJhxrfw","Hindustan Petroleum Corporation Limited","Ground Floor, Sanwer Road, Mangliya, Rampipalya","22.8487856","75.9087771"
"ChIJdc6h2_gbYzkR7joLH9hWX74","IndianOil","Ground Floor, A B Road Dakachaya, NH 3, Barlai Jagir","22.868214","75.961978"
"ChIJW9qGKvYbYzkRJj7KeOuzBgA","Arjun Baroda OSTS","Arjun Baroda","22.8720513","75.9645827"
"ChIJd59f7pUbYzkRpeTWEM3yj2U","BPCL COCO OUTLET PUMP ARJUN BARODA","National Highway 3, Baroda Arjun","22.8721125","75.9646192"
"ChIJISxrKgAdYzkRi9dEBU0sYIU","Office DLS INFRAMAKER","Singapore British Park, near Dewas Naka, 157-B, Indore","22.813066","75.906305"
"ChIJqYvy6-YdYzkRG7DjoLXDcw8","IndianOil","11 AB Road, Talawali Chanda Lane, Manglaya Sadak, Indore","22.8017902","75.91411880000001"
"ChIJV8XmgsXiYjkRPSRg7Z5BWvw","The Tasty Treat","Prem Bandhan Chopati, near Petrol Pump, Indore","22.7199068","75.9122379"
"ChIJX6NupTjjYjkRLiuI6mYbrW0","IndianOil","HSD Site No 376, Nemawar Road, Musakhedi, Datoda","22.6838604","75.9144657"
"ChIJ7TINFjfjYjkRmZufJdC8-Xs","Bharat Petroleum - Kumudini Enterprises","MWP5+8P4, Nemawar Road, Udhyog Nagar, Palda, Indore","22.6857564","75.90933729999999"
"ChIJvbmMLy3jYjkRFBVH4oAY1aE","IndianOil","CGO Complex, 37, Nemawar Road, Udhyog Nagar, Musakhedi, Indore","22.6872796","75.9014641"
"ChIJ34zFynHjYjkRUp04ie3yyvQ","Bharat Petroleum","Near Punjab Dhaba, Crescent Road,AB Road, Dudhia, Indore","22.675118","75.93607209999999"
"ChIJj3PK7bTiYjkRSplFneFeKQY","PALIWAL FUELS CLUB HPCL STAR","865/2, Khajrana,Ring Road Circle, Khajrana Road, Indore","22.731396","75.9014541"
"ChIJu21bis_8YjkRy0yVv3APKqg","Maharaja Agrasen Petroleum","Babulal Nagar, Dev Nagar, 180, Eastern Ring Road, Babulal Nagar, Khati Mohalla, Musakhedi, Indore","22.6895623","75.888369"
"ChIJrTHVYMX8YjkRIRP75vY7UwQ","Hindustan Petroleum Corporation Limited","Scheme No 94H, No 22A & 23B, Ring Road, Vijay Udyog Nagar, Udhyog Nagar, Indore","22.6896485","75.8879963"
"ChIJX5CPtEz9YjkR6xjBgP_AP98","IndianOil","LIG Link Road, Ring Road, LIG Square, Indore","22.7341181","75.8996882"
"ChIJzeEsmjf9YjkRgTalXWfX7-4","IndianOil","New no 14/1, near Palasia, No 1/1, Old Palasia Road, Chauraha, Indore","22.7238933","75.88930669999999"
"ChIJ0zolujv9YjkRor3mE9go4Vg","Hindustan Petroleum Corporation Limited","Ground Floor, Mumbai Agra Road, Indore","22.7170701","75.8842901"
"ChIJb9z7CTv9YjkRcJG7_i4hMLE","Noshirwan Petrol Pump","2, Agra Bombay Road, Geeta Bhawan Square, Indore","22.717021","75.88429099999999"
"ChIJU9eNNTj9YjkRhswOslPAd8c","Sunil Service Station, Bharat Petroleum Petrol Pump","AB Road, Indore","22.7234256","75.88688069999999"
"ChIJoz1cryP9YjkRLKXM78hsEIs","IndianOil","CGO Complex, opposite Nehru Stadium, AB Road, Ushaganj, Indore","22.7104989","75.8803089"
"ChIJu0lHiLHjYjkRfrbW1eOTl20","Binjaliya Fuel Pump","Ground Floor, near Snow City, NH 52, AB Road, Bicholi Mardana, Indore","22.6983837","75.92536270000001"
"ChIJ1zmSIwDjYjkRiVM0Do4r_Tw","Binjaliya","PW5F+754, Bicholi Mardana, Indore","22.7081414","75.9229596"
"ChIJKe9PLhjjYjkRo1eDdh0SORI","Sampat Fuels","Sampat Hills, Bicholi Mardana, Indore","22.6952393","75.92554919999999"
"ChIJ1dX8b8LjYjkRjdb59qZJr1M","Hindustan Petroleum Corporation Limited","Gut No 148/2/3, NH 52, AB Road, Bicholi Mardana, Indore","22.6940005","75.9250425"
"ChIJmfgcMQDjYjkRRv0-yYeBSjc","Bhura","PW98+63Q, Shiv Shakti Nagar Road, Sarv Suvidha Nagar, Indore","22.7180843","75.9152201"
"ChIJ5yoIcdHiYjkRYQlhZbA1l48","Indian Biodiesel","near Radha Rameshwar Building, 206, Mahadev Totla Nagar Road, Mahadev Totla Nagar, Indore","22.7127296","75.90663909999999"
"ChIJjdornF_5YjkRz1sFuwQA6tw","IndianOil","CGO Complex, Rau Square, AB Road, Indore","22.628418","75.80560299999999"
"ChIJQcqI1vf7YjkRV4igN8Q_5bQ","IndianOil","Emerald school, Ground Floor Ab Road, Rau, Pigdamber Infront of, Indore","22.6500876","75.8209072"
"ChIJZzedYV_5YjkRj2Bi1HRky8Y","HP Petrol Pump","Mega City Circle, Rau, Indore","22.6296914","75.80673329999999"
"ChIJbZ7ibWT5YjkRMW8BpE6W-FM","Bharat Petroleum - Granth Petro/CNG Filling Station","Pigdambar","22.6155355","75.7990192"
"ChIJvYG-WPf7YjkRvVrjtptkKyo","Bharat Petroleum","Shramik Colony, Rau, Raumhow, Rdindor, NH-3, Agra Bombay Road, Ab Road, Indore","22.6452","75.8186"
"ChIJ8TzRaJP7YjkRAbIwR6c5NOo","IndianOil","Ground Floor, Indore Bypass Road, Pigdamber, Indore","22.6346429","75.8318331"
"ChIJ18PaGgn8YjkR6mXkgUJlWhc","Bharat Petroleum, Petrol Pump -Nimar Auto Centre","HUKUMAKHEDI,RAJENDRA NGR P, Indore","22.6541723","75.821929"
"ChIJ9XrC7p75YjkRscQpDjpjNJo","IndianOil","Ground Floor Umaria, Mhow,Pigdamber, Indore","22.5966889","75.78744089999999"
"ChIJW9N9HAz5YjkRhwAB0BYKatI","Hindustan Petroleum Corporation Limited","Ground Floor, AB Road, Rau, Indore","22.6303307","75.80697599999999"
"ChIJFabWfcH7YjkRIugtCGA64Ro","TRIVENDRA KA GHAR","JRM6+55V, Rau, Indore","22.6329859","75.8104335"
"ChIJ95GC8lf5YjkRZCcg1J9W7PA","Nayara petrol pump","JRQ4+67V, CAT Road, Rau, Indore","22.6381193","75.8056845"
"ChIJuxdHLwD7YjkRN3qvF1s1PXQ","A one petroleum","Ashok Vatika, 553/2/1, Rau, Indore","22.630871","75.8181464"
"ChIJ-d0UaQD7YjkR5PDeKh2odko","Hindustan Petroleum Corporation Limited","1244/2, 1244/1/2, Survey No 950/2, AB Road, Rau, Indore","22.630991","75.818147"
"ChIJa345NPf7YjkRCYhLv2HCtOQ","IndianOil","Ground Floor, AB Road, Rau, Indore","22.6381003","75.813851"
"ChIJu6YVyIv5YjkRYqXwKvFRiWQ","IndianOil","Ground Floor Pigdamber, near Iim Indore Gate, to, Cat Sq Road, Indore","22.6322139","75.7939359"
"ChIJOX5oOwD5YjkR_5R_AQL7h0I","Jirati Fuel Station","JQ8X+GCP, Pigdambar, Indore","22.616329","75.7985807"
"ChIJFxn3BlL5YjkRY6ifu5orS90","IndianOil","Survey No. 640/2 Village Rangwasa, Rangwasa Road, Rau, Indore","22.6426406","75.7954977"
"ChIJg5idOOL7YjkRA7SwNwLstaY","Shell Printpack Pvt Ltd","No 475, AB Road, Rajendra Nagar, Indore","22.653026","75.8211002"
"ChIJIUEYlw35YjkRuljj9c5k0dg","Hindustan Petroleum Corporation Limited","S No 3151/15/6/1/315/6/2, Rau - Pithampur Road, Pithampur, Indore","22.6237584","75.77317"
"ChIJq6uwHsP5YjkRsO5Nt2OZ69o","Mehtab fuels","315/1, Rau, Sonway","22.6234691","75.7731661"
"ChIJP1IBzsxXYjkRJpr_PwrcZ6M","Bharat Petroleum Petrol Pump","HMRX+WHW, Indrapuri Colony Main Rd, Pithampur Industrial Area, Indore","22.5923731","75.6989435"
"ChIJhzpx0xZXYjkRsUyvnVWvwzA","Bharat Petroleum Petrol pump United Highways BPCL","Tehsil : Mhow, near Sunrise Town, NH-52, Agra - Mumbai Highway, Banjari","22.5917851","75.6869935"
"ChIJj5SNJwBXYjkRscIOB1axR7g","Booster CNG","HMRQ+8Q6, Pithampur Industrial Area, Banjari","22.5902991","75.6896206"
"ChIJYeKfXShXYjkRdElVRHJ9vlE","Hindustan Petroleum Corporation Limited","Ground Floor, NH 3, Agra - Mumbai Highway, Banjari","22.590318","75.690038"
"ChIJecTJKixXYjkRLsq4ZMh7V8c","Jio-bp pulse","No 37/1, Viswas Nagar, Banjari","22.5900418","75.6921888"
"ChIJtefVAB5XYjkR3E2i08cHu70","Bharat Petroleum, Petrol Pump -Jeerapur Golden Transport Co.","BHATKHEDI,MHOW NEEMUCH RD,, Indore","22.5943572","75.695805"
"ChIJw3wUnTZWYjkRChvAM2j-1_c","Bharat Petroleum, Petrol Pump -Tamim Filling Station","PITHAMPUR, DHAR","22.5981699","75.69420269999999"
"ChIJcRcbEgRXYjkRzJiZc0jDXqU","MEHMOOD SETH","HMWW+5HM, Pithampur Chopati, Pithampur Industrial Area, Bhatkhedi","22.5954555","75.6964227"
"ChIJbZe7imBXYjkRmjgqA9Le6eQ","DURGA FUELING STATION","1-c, Sagour Kuti, Pithampur","22.6059742","75.6866132"
"ChIJ90uCmFlXYjkR_XrfIccobUs","MM FILLING STATION PERTOL PUMP","Mhow - Neemuch Road, Pithampur Industrial Area, Bhatkhedi","22.5891942","75.70295349999999"
"ChIJcXxWTAv9YjkRUz2_iGhtT9U","IndianOil","Survey No 68, Ph No 37, Sagour Kuti, Kalibillod","22.6113442","75.6815986"
"ChIJk8SMIABXYjkRXcdvWwBZUsA","Shri Krishna transport and treding campani","JM6G+CWR, Pithampur","22.611121","75.6772689"
"ChIJ9WblCl9WYjkRXxdLZHYfBq8","Hindustan Petroleum Corporation Limited","Ground Floor, near Dak, Pithampur","22.610151","75.66894099999999"
"ChIJu3GqqJhXYjkROmzcJIXwJp0","Hindustan Petroleum Corporation Limited","Ground Floor Mhow, Pithampur Road, Bhatkhedi","22.5847709","75.7097702"
"ChIJKZJUHihXYjkRbD3Db6Jxq54","Krishna Filling Station Petrol Pump","krishna filling petrol pump, near chinar park Mhow pithampur, road, Mhow Gaon","22.5843699","75.70999789999999"
"ChIJ8bQlDYRXYjkRs7TG0h-ZFCE","Pithampur Energy Station - BPCL Petrol Pump","Sector 1, Pithampur, Near Kapila Chouraha, near Patel Motors, 252, Pithampur Industrial Area, Pithampur","22.6172401","75.6861579"
"ChIJyVFYflRXYjkRvK5xx-190es","IndianOil","Survey No 471, 1/1/2 & 471/2/2, Karam, Khandwa","22.5884779","75.6587998"
"ChIJf-TmGgBXYjkR9T5uPHNc_eY","DEF यूरिया फिलिंग स्टेशन","JP26+8F, Bhatkhedi","22.6007975","75.711204"
"ChIJz_18nexXYjkRWlROg1cMFHo","Řãvî Jãrmâñ","JM8V+R5R, Rau - Pithampur Road, Pithampur Industrial Area, Pithampur","22.6171127","75.6928755"
"ChIJBwlMDgD5YjkR7E5c-8G03KE","Durga fueling station","1-c, Industrial Area, Sagour Kuti, Pithampur","22.5929079","75.7153598"
"ChIJGyrYlRxZYjkRIbHze_9WXVY","IndianOil","Ph No 8, Sur No 78, 3, Mhow, Kuwali","22.4825506","75.6629979"
"ChIJ6at3TQBZYjkRxi5QvvK7Fzw","Jio Petrol Pump","FMJ6+JV, Kuwali","22.4816037","75.6622447"
"ChIJpSwgFQBZYjkR9Ffyn_H1xCM","JIO PUMP MANPUR JANAPAV","FMP8+39W, Kuwali","22.4852466","75.66595880000001"
"ChIJq8r_hOJZYjkRx1rIwKoGWfk","Bharat Petroleum, Petrol Pump -Shivram Auto Service","MANPUR,NH3,INDORE, INDORE","22.4681064","75.6531019"
"ChIJWRxmuTpZYjkR1lZHx5lMjBI","IndianOil","Ph No 16, Sur No 30/2/2, Yashwantnagar","22.4662629","75.65092260000002"
"ChIJu4yAyOhZYjkRo-t54LcFjrA","Hindustan Petroleum Corporation Limited","Ground Floor, NH 3, Mhow, Yashwantnagar","22.4613059","75.6490021"
"ChIJI9CpMXZZYjkRPQOibVb5LJI","Essar petrol pump","FJ6X+9C4, Agra - Mumbai Highway","22.4608908","75.6485738"
"ChIJf3gjXJxZYjkRG8Ou1VYhWvk","Hindustan Petroleum Corporation Limited","Ground Floor, Hasalpur, Dr. Ambedkar Nagar","22.498055","75.6356632"
"ChIJlyXDe5tZYjkRdnIqThmwy30","IndianOil","Khudalpura","22.5000042","75.634754"
"ChIJHxl9GgBZYjkRP5qPTkga-7E","Shree mithiya balaji Krashi Seva Kendra","GJ2M+2W2, Khudalpura","22.5000121","75.6347607"
"ChIJv6LueQBfYjkRsbg_rnzueuI","जितेंद्र सिंह निनामा","CMV6+XV, Kankriya","22.4449027","75.66224679999999"
"ChIJZ1v9ggBfYjkRs2V2uLwZC8w","Hindustan Petroleum Corporation Limited","Ground Floor, NH 3, Kankriya","22.4466683","75.6347601"
"ChIJ8d1FMIxfYjkRHSfnGfpjgSE","Bharat Petroleum Shrinath Petroleum","161/2/1, Agra - Mumbai Highway, Vill, Kankriya","22.4465583","75.63331509999999"
"ChIJ27DIPPdoYjkRvTAuBMkYG3o","Reliance Petrol Pump Dhamnod","7FQV+XW9, Sirsodiya","22.28992329999999","75.49487049999999"
"ChIJJ9QSvxBpYjkRvkXXJiVTlRQ","IndianOil","Ground Floor Sirsodiya, Dharmapuri, Balwari","22.3124252","75.4956995"
"ChIJJbzCciJpYjkRojS5uqzd2as","Reliance Petroleum","NH-3, VILL - CHIKTIYABAD, A.B. ROAD, THESIL -DHARAMPURI , DIST - DHAR Dhani","22.2859696","75.48881659999999"
"ChIJnVk403hpYjkRBgIM3feozIo","IndianOil","Ground Floor NH 3, Chiktiyabad, Dhamnod, Balwari","22.281522","75.49310009999999"
"ChIJk80YkOVoYjkRWgOubLocACU","Hindustan Petroleum Corporation Limited","Ground Floor, Agra - Mumbai Highway, Chikatyawad, Dhar","22.281101","75.492631"
"ChIJkQxgh-9oYjkRSMvsFcph4Pc","BP DHAMNOD, BPCL COMPANY OUTLET PUMP","Madhya Pradesh State Highway 31, Sirsodiya","22.2803388","75.49228750000002"
"ChIJn-ybsmRbDjkRheNhkvXv1KY","IndianOil","Ground Floor Bhodal, NH 3, Ahu","22.27388879999999","75.4897843"
"ChIJv7QhvaRpYjkR-6_tJAc2wHI","Hindustan Petroleum Corporation Limited","Ground Floor, near Cube Stop, NH 52, Agra - Mumbai Highway, Bhodal","22.272908","75.48914599999999"
"ChIJVZrDFiNoYjkR4MMoD24V7Ow","Hindustan Petroleum Corporation Limited","Ground Floor, NH 3, Agra - Mumbai Highway, Maheshwar, Kakadda","22.331096","75.500898"
"ChIJQ-HghIVpYjkRyAleKdWjsF4","Jio-bp pulse","Ground Floor Bypass Lodhipura, Dudhi","22.262466","75.4851309"
"ChIJAdH-NgBvYjkRDmxukR_-lMU","DEF, यूरिया फिलिंग स्टेशन","in front of Ratan Mahal Restaurant, 16, Old AB Road, Dhamnod","22.1940115","75.463785"
"ChIJ60bBoFxuYjkRwRLKQEWqxpc","Jio-bp","Survey No 60, Nh 3, Agra - Mumbai Highway, Khal Buzurg","22.1875882","75.4640199"
"ChIJmyqyjnpvYjkRDybfYcej6cY","Maa Bhagwati Sales bio diesel","Bikhroan, old, NH3, Bikhroan","22.1992571","75.46194349999999"
"ChIJi60nBENuYjkR_u_aRM6wo80","IndianOil","near Dhamnod, Survey No 31/2/2 & 34/2 NH 3, Balwari, Khalbhujurg, near Dhamnod, Dharampuri","22.1841194","75.46101139999999"
"ChIJ_WZA3fluYjkRP5tJA0gvdFk","Hindustan Petroleum Corporation Limited","Ground Floor, Dhamnod","22.20340749999999","75.4700751"
"ChIJNbqnoh1vYjkR54102yLMmp0","Bharat Petrol Pump","6F8F+578, Unnamed Road, Dhamnod","22.2154216","75.4731922"
"ChIJa-h9G-ZuYjkRRPJuTSFc7HI","IndianOil","Survey No 15/2 Dhamnod, Dhrampuri, Balwari","22.2174743","75.4697304"
"ChIJxXFJBEdvYjkRpE2Dgi2TSck","Mandi Rod Dhamnod","6F9C+3PF, Kali Babdi Road, Dhamnod","22.2176911","75.4717867"
"ChIJ2eClLgBvYjkRXpuP7-Po0M8","Denmark Fuel Station","near Dhamnod, 153, Dharampuri Road, Patlawad","22.2055313","75.4400558"
"ChIJS7x-6mVvYjkRjQprWzvSI04","BPCL Petrol Pump - Anand Fuel Centre","6F8R+C85, Dhamnod","22.21601649999999","75.49086249999999"
"ChIJM1BulBpuYjkR7hDXSRN_qPw","Hindustan Petroleum Corporation Limited","Ground Floor, Agra - Mumbai Highway, Khalghat","22.1620601","75.449201"
"ChIJK9bX7rtvYjkRs1t_7923I4k","Aashirwad Fuels","near Ram Mandir, near Sameti, Old Road, Khalghat","22.1577659","75.4539088"
"ChIJC0igbptzYjkRtKOtEIs1sw0","IndianOil","Survey No 12/1, Lendipura, Kasrawad, Amlatha, Lendipura","22.0875874","75.4191953"
"ChIJqVRB5v1zYjkRDsOSads4Rlw","Bharat Petroleum, Petrol Pump -Pancheshwar Petrol Pump","GRAM MUKUNDPURA,NH-3KHARGO, KHARGONE","22.087492","75.41759259999999"
"ChIJMaR1NQBzYjkRdYyjuT42uAU","Adani CNG pump","3CQ8+3W, Makundpura","22.0877258","75.4172688"
"ChIJzfvGtipyYjkRGkWP0Ghwqmk","Hindustan Petroleum Corporation Limited","Ground Floor, Satrati","22.1033339","75.4331049"
"ChIJ57dUnSxxYjkRuPs9R6xmVbw","petrol pump","4C4P+7M, Aurangapura","22.105718","75.43665949999999"
"ChIJQ_FtZrdxYjkRwW87YB-AJpo","IndianOil","Ground Floor, NH 3, AB Road, Satrati","22.105466","75.437251"
"ChIJoZvj8nVxYjkRJpJY6LqHvYE","Yamuna Filling Station Petrol Pump","4C5J+R2X, Nimrani","22.10962040000001","75.43010269999999"
"ChIJydNYNf9zYjkRVOeOGlb5xpU","HP AUTO CENTER.","Hp Auto Center, Satrati","22.10912459999999","75.4333158"
"ChIJ0U4t0xNxYjkRBA9cIX9Gf00","Ashutosh enterprise bio disel pump","4C5Q+PJ5, AB Road, Nimrani","22.109253","75.4391184"
"ChIJ7QAJ079zYjkR2zrmEFvm5r8","Bharat Petroleum, Petrol Pump -Bhaskar Fuel","NH-3, KHA, LENDIPURA VILLAGE","22.0774886","75.40868809999999"
"ChIJe_tlyilxYjkRzEoi3cchr6s","NAYARA ENERGY NARMADA AUTO ENERGY","4CCX+X96, Asian Highway 47, Nimrani","22.1224162","75.4483867"
"ChIJIww9NBxzYjkRA6SwsoYZBLg","Bharat Petroleum, Petrol Pump -Golden Fuels","TIKHRI BARWANI ROAD, BARWANI","22.070583","75.3940957"
"ChIJa08_ydxxYjkR_FgJPQa3InM","Jiya fillings station","Nimrani","22.12749579999999","75.4483506"
"ChIJl-O6_x5zYjkRltMvu8TrG_I","IndianOil","No 21, Patwari H, Survey No 27/3, Near Thikri Police Thana, Brahmangaon","22.0653666","75.3937364"
"ChIJgUsZ7m5zYjkR-C85M8j9k6M","IndianOil","Survey No 61, 1 & 6/3, Brahmangaon","22.0717805","75.3833581"
"ChIJtw3-yed1YjkRLhl1P57YtiM","IndianOil","Survey No 54/2, Phase, No 27, Thikri, Khurampura","22.0248057","75.3488063"
"ChIJWwO_g4Wn2DsRSxT9QSeY4wE","IndianOil","near Bus Stand, Survey No 161/1Kh Rajpur, Julwania near, near Bus Stand, Barwani","21.8697737","75.2142106"
"ChIJzcHTuben2DsRXLVB4CIZ9H8","SiyaRam DEF/Adblue Pump","New Ab Road,By pass, Julwania","21.8722678","75.2159978"
"ChIJa9_DpX-n2DsR0mPlSyz0jQA","Bharat Petroleum, Petrol Pump -Talib Hussain & Sons","JULWANIA,MUMBAI-AGRA RD,BA, BARWANI","21.8634525","75.2089946"
"ChIJ1_NtMYmm2DsRzWWoLjXmtcs","IndianOil","Ground Floor, NH 3, Julwania","21.859135","75.207481"
"ChIJ_czSDjyn2DsRFJDHnSEarBE","Nihali Cng pump","V6MH+G5G, Nihali","21.8842081","75.22847879999999"
"ChIJhRrDF8Om2DsR9QD7gBynVsk","Bharat Petroleum, Petrol Pump -Danish Fuels","NIHALI,NH3,BARWANI, BARWANI","21.88439099999999","75.2283617"
"ChIJ-fiFiIam2DsRXhPMhopSeow","Hindustan Petroleum Corporation Limited","Ground Floor, NH 3, Agra - Mumbai Highway, Julwania","21.8491533","75.19974549999999"
"ChIJVXKRCQCl2DsRluPUIzDRWxw","Reliance jio bp petrol pump","Salikalan","21.778975","75.1679139"
"ChIJN4gdKACl2DsR2ioJobnx3Uk","Sendwa cng","Q5J6+C52, Salikalan","21.7810026","75.16037519999999"
"ChIJ-Y7JcACl2DsRBIvSUZGD3xA","Jio bp petrol pump salikala","Q5J6+P47, Salikalan","21.7817883","75.1603008"
"ChIJHVYJF0-l2DsRZqOpiAvw9vM","Hindustan Petroleum Corporation Limited","Ground Floor, NH 3, Agra - Mumbai Highway, Rajpur, Salikalan","21.784945","75.16977399999999"
"ChIJne4gFHCx2DsRWv0lRnhR4cs","IndianOil","Ground Floor, Agra Mumbai Road NH 52, Goi, Kalalda","21.7342741","75.130205"
"ChIJL1ySJwCx2DsRXwBi3c9dxKw","Ashok Leyland ad blue pump","P4JG+JM3, Agra - Mumbai Highway, Kalalda","21.73152169999999","75.1266655"
"ChIJAWD3aASx2DsRjhOlWAjfVWc","Hindustan Petroleum Corporation Limited","Ground Floor, Agra - Mumbai Highway, Sendhwa","21.6920701","75.1006701"
"ChIJFR_YKL2x2DsR-tUMNZrYbo4","Jio-bp","opposite Maa Choti Bijasani Mandir, Old A, B. Road, Sendhwa","21.6657096","75.0811987"
"ChIJC09xLQ2x2DsRAn_rAk_XLAk","JAISWAL PETROLEUM","Reliance Pump, Mechanic Nagar, Sendhwa","21.66567","75.0817063"
"ChIJbZY8HLG22DsRuKUuhjgqdOw","Bharat Petroleum","J3VG+4P2, Gawadi","21.6427532","75.076759"
"ChIJ5eise3G32DsRvSnN33-smI0","IndianOil","Indian oil NH 3, Khadkiya Sendhwa Near, Khadkiya","21.641278","75.0768394"
"ChIJhzXgK0ex2DsRdAw5vrydiWI","Bharat Petroleum, Petrol Pump -Jaydeep Cargo Movers","KHADKIYA (SENDHWA),NH3,BAR, BARWANI","21.6681145","75.0828101"
"ChIJ0fq1Cge32DsRptMeMvab2JA","IndianOil","Ground Floor, near Sendhwa, Goi, Gawadi","21.630551","75.076089"
"ChIJ8ztPkL222DsRNFrHCmvhajg","Hindustan Petroleum Corporation Limited","Ground Floor, Agra - Mumbai Highway, Newali, Gawadi","21.6287901","75.07659009999999"
"ChIJ4043x3Gx2DsRSVjmIrRoHs4","IndianOil","Ground Floor, Palsud, Sendhwa","21.6817395","75.0941792"
"ChIJO0wGwM2x2DsRHyBVB9Kk88w","IndianOil","Ground Floor, Wml, Sendhwa","21.684242","75.087397"
"ChIJo7_VbQCx2DsR8CR4dLew2L4","TATA DEF","M3JV+QP2, Sendhwa","21.6818986","75.0942651"
"ChIJdampG2ax2DsRyKnyCMWlaZY","Rudraksha Hindustan Biodiesel Sendhwa Location","M4H4+2C6, Julwaniya","21.6775255","75.10601489999999"
"ChIJv9viVTmx2DsRL0qb_DMyXWg","Rudraksh Fuel Nayara Energy Limited","M4H5+Q6V, Balwadi - Sendhwa Road, Julwaniya","21.67917809999999","75.1077524"
"ChIJUdPecwCx2DsR-emMTL_PDY4","Hindustan Petroleum Corporation Limited","Ground Floor, Balwadi - Sendhwa Road, Barwani","21.68368899999999","75.104987"
"ChIJO4ApxGOx2DsRj1EgZRMpE50","Bharat Petroleum, Petrol Pump -V.M. Modi & Sons, Sendhwa","SENDHWA, Mumbai - Agra National Highway, BAR","21.6916876","75.1012677"
"ChIJD3h6Qsmx2DsR6DpFh-snq7k","SHREE BALAJI FUEL STATION, NAYARA ENERGY","M3WQ+J6, Sendhwa","21.6976534","75.08840719999999"
"ChIJhYyt6RfK2DsRDW8yUiQLD-Y","Indian Oil Petrol Pump","Palasner, Dhule, NH-3, Mumbai Agra Road, Dhule, Dhule","21.533231","75.04811099999999"
"ChIJS3x7_vTL2DsRbA0EJYZZ_S0","Hindustan Petroleum Corporation Limited","Gat No 50/1, B/P, NH 52, Agra - Mumbai Highway, Palasner","21.5248486","75.0432871"
"ChIJQSlNIZbL2DsRysyC0v19cjA","Trambakraj Petroleum","G24C+FGJ, Panakhed","21.5062162","75.0212517"
"ChIJtQtLZw3L2DsRg_gcJc9Gq8E","Namoshri Petroleum sangavi","NH3, Agra - Mumbai Highway, Sangvi","21.4752725","74.99761939999999"
"ChIJGef2TKrL2DsRD-DWhq9gDTg","Hindustan Petroleum Corporation Limited","Survey No 18/2B, NH 3, Agra - Mumbai Highway, Hadakhed","21.47179329999999","74.9973235"
"ChIJ6-H7VWDL2DsRKKVGAsIMpdo","Shriniwasa petroleum","Nh3, tal, Sangvi","21.4722416","74.9966566"
"ChIJce9OmBLL2DsRskkAen2XqA8","Hindustan Petroleum Corporation Limited","Survey No 3/2/1, NH 3, Agra - Mumbai Highway, Shirpur","21.4832652","75.0021733"
"ChIJgwE7PdrL2DsR_I9pzKG8Tw8","Bharat Petroleum Petrol Pump , NAMOSHRI PETROLEUM","Sangvi","21.4835278","75.0029618"
"ChIJd875W_M13zsRRbYY5vDnygA","ArunaAai petrol pump","MH SH 1, Maharashtra State Highway 1","21.4859711","74.95527899999999"
"ChIJ03hOer8t3zsRbus_U6ItFac","Hindustan Petroleum Corporation Limited","Survey No 86B, NhH 3, Agra - Mumbai Highway, Shirpur","21.3295023","74.8981671"
"ChIJN5ZIh78t3zsRDp6n69VF50o","Bharat Petroleum","Amode, Dhule, NH-3, Agra Mumbai Road, Dhule, Dhule","21.330043","74.897567"
"ChIJ_YnlmR0t3zsR4Hnotp8_RyE","Hindustan Petroleum Corporation Limited","Gat No 637, 1/A & 637/2/A, Shirpur - Chopda Highway, Dahivad","21.3480093","74.9456253"
"ChIJvaL4XjAt3zsRMAt5myKLOCE","JAIOM Fuels","Bypass, Dahivad","21.348315","74.9459935"
"ChIJO5_GZ88t3zsRJuyoP9V_co0","Sadashiv petroleum","9W3X+8W9, Dahivad","21.353159","74.9496143"
"ChIJHQIBHMot3zsR23UVBUsFtlQ","IndianOil","Ground Floor Shirpur, Ambe, Dahivad","21.336686","74.926704"
"ChIJ4YhIyOkt3zsRNwHOHypvPek","Bhagirathi Petroleum","8WGW+WQX, Maharashtra State Highway 4, Tande","21.3273501","74.9469954"
"ChIJcz4S5Jst3zsRS_BV1j3FLqg","TIRANGA CORPORATION - Managed by Ex-Army Soldier","Village Kalamsare, Shirpur","21.34601809999999","74.9148183"
"ChIJKZ7BxmUy3zsRxEweAYFNq1U","Bharat Petroleum","India","21.3732627","74.9110922"
"ChIJ4wFYzAwz3zsR9zBPv4j-Rt0","IndianOil","Gut No 64, 1A Ambe, Karwand","21.3663185","74.9040267"
"ChIJ2dYJZOvT2DsRXl5IiRK75ss","Hindustan Petroleum Corporation Limited","Gat No 34, 1/1A, Ankleshwar - Burhanpur Highway, Tande","21.3115301","74.9701972"
"ChIJxR1IH9wz3zsRll9lD68XVLc","Bharat Petroleum, Petrol Pump -Vaibhav Petroleum","Natwade","21.3839111","74.9580934"
"ChIJ6-nbnMAt3zsRYkJIUMQuPRI","HP PETROL PUMP - PATEL BROTHERS","Patel Brothers HPC Dealer Mumbai -agra Road Shirpur, Aurangabad","21.328823","74.897283"
"ChIJC0b5WAAz3zsR1DOUQ9UiVq8","TATA MOTORS AUTHORISED DEF POINT","9XM5+X53, Natwade","21.3848966","74.9579177"
"ChIJhaqk88At3zsRHOsrV0oitpU","IndianOil","Ground Floor, Shirpur","21.3289793","74.89580350000001"
"ChIJj0maZXMu3zsRwnpjqQ9vfTc","IndianOil","Gut No 125, 2/1B, Kharde, Shirpur","21.3278724","74.8675307"
"ChIJjeF-ULIv3zsRSl4xGgdZI0U","Hp petrol cng pump Waheguru Petroleum","NH-3 A.B.Road Savalde Shirpur, Savlde, Kurkhali","21.2942091","74.86398129999999"
"ChIJ78G2bzwv3zsRmWIUNq2C7yU","Hindustan Petroleum Corporation Limited","Gat No 108, NH 3, Agra - Mumbai Highway, Shirpur, Savalade","21.2946204","74.86466659999999"
"ChIJO8mnU-kv3zsRCDvbfdSRMTs","Bharat Petroleum P.J Petroleum","near kurkhali, Mumbai Agra Highway, near kurkhali, fata, Shirpur","21.2981259","74.8689203"
"ChIJqyigiIMu3zsRBL-5ZR_62a4","Hindustan Petroleum Corporation Limited","Gut No 65/2, NH 3, Agra - Mumbai Highway, Shirpur, Kurkhali","21.298713","74.8685146"
"ChIJwY6SWAAp3zsR4Y_Pmwp2JHo","Tathyasaheb Petroleum (Nayara Energy)","7R4V+WPJ, Dabhashi","21.2573446","74.8442799"
"ChIJPU6Uvawp3zsRx8vE9FRD1h8","IndianOil","Ground Floor NH 3, Pimprad, Ajande Khurd","21.2032864","74.82860730000002"
"ChIJ28GvkpPP3jsRaEuEjLfuWf4","IndianOil - SWAGAT","Gut No 295, 2 & 290/1, Shindkheda Road, Varshi, Ajande Khurd","21.198296","74.8241761"
"ChIJWxfUfQAp3zsRq7p1HPkqZfc","Bharat petroleum ,(BPCL), Shiv petroleum","near MD college, Betavad road, Nardana","21.1946244","74.8367597"
"ChIJ-2KCTQDX3jsRm-Lj8XRQ1iU","J D Petroleum (Nayara Energy)","5R47+M3R, Fata, Gorane","21.1567433","74.81264589999999"
"ChIJN-BW4SbX3jsR6hTvJWpzi44","Hindustan Petroleum Corporation Limited","Gat No 266, 1 Sindhkheda, Gorane","21.1494475","74.80827"
"ChIJ79lyVkLX3jsRT1-J6zx3KYs","IOCL proposed RO","NH-52, Pimparkheda","21.1418364","74.8031812"
"ChIJl0Oyd1TX3jsRAF5Euorje4s","AHMY SONGIR Bharat Petroleum Corporation","Songir","21.0703161","74.7862131"
"ChIJc4052MHZ3jsRqObC5-rAv-E","IndianOil","Gut No 53/2, Gorane","21.087713","74.76097899999999"
"ChIJQWu_yUTR3jsRwnrf8puHTng","Bharat Petroleum, Petrol Pump -R.R.Petroleum","Sarwad","21.036068","74.785223"
"ChIJJfymRXTQ3jsRGdmmc06A7mM","Hindustan Petroleum Corporation Limited","Gat No 302, 1 & 2, Agra - Mumbai Highway, Deobhane","21.0006926","74.7840776"
"ChIJS0gfjgbQ3jsRS9eiU6joqLo","Hindustan Petroleum Corporation Limited","Gat No 8, 1/2 Old NH 3, Agra - Mumbai Highway, Nagaon","20.9815389","74.7853294"
"ChIJD__36wbQ3jsRWtXZUt25NRU","Bharat Petroleum & Rohit Automobile and CNG Pump","420/1A, NH3, Mumbai agra national highway,, Nagaon, Dhule","20.9812048","74.78441939999999"
"ChIJN8UNiP7P3jsRePD_8GYj2NE","HP Petrol Pump","Nagaon Hpcl Outlet NH-3, Aurangabad","20.9683894","74.7848374"
"ChIJx5iLo1nR3jsRRIgVGESWuIs","Hindustan Petroleum Corporation Limited","Gat No 191/1/A, NH 3, Agra - Mumbai Highway, Deobhane","21.0129819","74.7840025"
"ChIJsSzcsVjF3jsRYDJ5WJVVNdQ","IndianOil","Gut No 312/B Dhule, Chaini Road, Nagaon","20.956352","74.779736"
"ChIJVQb7ZY7F3jsR6YdooR61euk","Ashish Petroleum","NH 03, Nagaon","20.9561183","74.779918"
"ChIJ8dbNznfR3jsRg37R6JGOz0E","Shree Shyam Petroleum (Nayara Energy)","Road, Deobhane","21.0276308","74.7927636"
"ChIJfW2UMvHF3jsRzTzix0tL-qA","Hindustan Petroleum Corporation Limited","Survey No 3288/A, Sabir Nagar, near Shivaji Statue, 635, 1st Lane, Dhule","20.8951305","74.7745322"
"ChIJB_ew5TrP3jsRUNhKOhWsamY","Bharat Petroleum","BALAPUR, 3KM FROM NH3 ON, Dhule","20.897453","74.8140209"
"ChIJveVKS4nF3jsRkNUPHHUuDSM","IndianOil","Ground Floor, Deopur, Dhule","20.910058","74.7746576"
"ChIJJYhhVmbXwjsR1sLCfJQwHzk","IndianOil","Survey No 37, Plot No 6, Road, Kshire Colony, Bhokar","20.9180666","74.76836829999999"
"ChIJN5nColLP3jsRjn6YLI_zTwE","IndianOil","Ground Floor, NH no, 3, Vadjai Rd Crossing, Parola Road, Dhule","20.8826912","74.7914472"
"ChIJB9DwNWrP3jsR_6ezkyRecDw","CBS Energy","VQQW+953, opp of DDRC Hotel, National Highway-3, Dhule","20.8883924","74.7954348"
"ChIJU1G0V5TJ3jsR6WjUj2qLk7U","IndianOil","Gut No 35, Plot No, 13 & 14, Mohadi Road, Arvi","20.876893","74.782394"
"ChIJ12EEC_jP3jsRrf96D4J-bOQ","BALAJI LPG Auto Gas (AEGIS)","Agra - Mumbai Highway, Dhule","20.8961529","74.7985502"
"ChIJwRVENirJ3jsRXDGDgsw0s7I","Hindustan Petroleum Corporation Limited","Plot No 21 & 22, No 24/1, 26 to 28 & 39, NH 52, Agra - Mumbai Highway, Mohadi Upnagar, Dhule","20.8754524","74.78173749999999"
"ChIJE5UKaf3F3jsRYkx8Q3aQ7ig","Hindustan Petroleum Corporation Limited","Ground Floor, Chalisgaon Road, Dhule","20.8891301","74.77833199999999"
"ChIJCWhdH0vP3jsR42jwfExjwzo","B P petrol pump","VQXP+JCQ, Pawan Nagar, Dhule","20.8990927","74.78611579999999"
"ChIJ2bCFiPXF3jsRP1mhBBhZN2E","Hindustan Petroleum Corporation Limited","Survey No 371, Plot No 82/1 & 2, 80 Feet Road, Ansar Nagar, Dhule","20.8921247","74.7772471"
"ChIJAbx6WNjP3jsRbxLt_M59O5A","Badgujar Petroleum HP","opposite Datta Factory, Plot no. 18/3 1 & 2, opposite Datta Factory, near cotton market, Parola Road, Dhule","20.9016373","74.7922092"
"ChIJMaaZh17P3jsRhT4iuptdaQI","Zyada Gas Auto LPG Pump","Dongre Maharaj Nagar, Parola Road, Dhule","20.9024498","74.7883317"
"ChIJm7lkYq3H3jsRmyTWNwlDaZU","Deepaarti, Bharat Petroleum","Mohadi Road, Agrawal Nagar, Dhule","20.87723189999999","74.7735953"
"ChIJ4V_p9vrP3jsR8nPKEPLYohM","IndianOil","Survey No 4665, Plot No 2/3, Chaini Road, Dhule","20.902745","74.78392199999999"
"ChIJe7KEB1vF3jsRvTyOVhGiNdw","Bharat Petroleum","SHIVTIRTH, NR SHIVAJI CHO, Dhule","20.8966527","74.7744161"
"ChIJbX04bSrJ3jsRRzr75Y5hyHs","Bharat Petroleum","29/2/2, Dhule - Chalisgaon Road, Highway, Pimpri","20.8596852","74.78751"
"ChIJccYhmu3F3jsR8oZn3d7xrzI","Bharat Petroleum","VQX9+G49, Navnath Nager, Dhule","20.8987935","74.7678526"
"ChIJQ9aJPvfF3jsRJ1MwBJ4W3a8","IndianOil","santoshimata chauk, Near Gulmohor government rest House, Dhule","20.900405","74.7686626"
"ChIJd3ucrfm53jsRMm_D-OgEpSU","Suyash Petroleum, Arvi","QP4C+477, Dhule","20.7552925","74.720681"
"ChIJ0WYSme243jsRQr-H0-j4wuU","Hindustan Petroleum Corporation Limited","Ground Floor, Old NH 3, NH 60, Agra - Mumbai Highway, Arvi","20.7546178","74.720685"
"ChIJld_TrbHH3jsR20ODAPDE1qI","Bharat Petroleum","Dhule - Malegaon Road, Dhule","20.8226207","74.7479219"
"ChIJR_x24DLH3jsRSDoQyWYFmT8","IndianOil","Laling","20.8227394","74.7487075"
"ChIJN9ZQOp3H3jsRqAZIQpaCUVs","IndianOil","Gut No 131/1 NH 3, Dhule Chaini, Road, Laling","20.8226801","74.749276"
"ChIJeVwTCwDH3jsR4FIr0BUKoiA","petrol pump hp","RQG2+98P, Dhule","20.8259588","74.75083409999999"
"ChIJF4v2Vw683jsR1SI8FYuh9xE","Hindustan Petroleum Corporation Limited","Ground Floor, NH 3, Zodge","20.66999019999999","74.6779348"
"ChIJiyOUXV683jsRmg7dquxmMJU","Hindustan Petroleum Corporation Limited","GAT No 560/2 NH 3, Mumbai Agra Highway, Dhule - Malegaon Road, Zodge","20.6417201","74.658744"
"ChIJN5Gvu1i83jsRNjFLvtQ2Rds","BP - ZODGE","BP ZODGE, NASIK","20.638447","74.6564851"
"ChIJVz1OBXS93jsRLLmZFTA7OVU","Jammu punjab himachal dhaba","Devarpada, Near, NH3 Road, Malegaon","20.6324623","74.6481711"
"ChIJsR6VxzW93jsRLGRz2bpErKg","Bhalerao & Sons Petroleum","Malegaon Dhule road Malegaon, Devarpada","20.6262073","74.6408412"
"ChIJ_xkmely93jsR47c_DY1MQqU","Hindustan Petroleum Corporation Limited","Ground Floor, near Saikar Dhaba, NH 3, Dhule - Malegaon Road, Deverpada, Malegaon","20.623288","74.638165"
"ChIJ5V6LkcK93jsR5t3mssJgbKg","Vinayak & om sai petroleum dewarpada Malegaon","Devarpada","20.6230765","74.6379754"
"ChIJ3_LNPw683jsRrq1jSnAsXK4","BP Petrol Pump - Krishna Auto, Zodge","LHS NH3, to, Agra - Mumbai Highway, Mumbai","20.6694891","74.6765382"
"ChIJgzJe9IW93jsRk9ztf6JMCos","Bharat Petroleum Petrol Pump , GILL PETROLEUM","Chikhalhol","20.6178245","74.6298748"
"ChIJn_PG5FC93jsRaRGWwqH3yrg","IndianOil Petrol Pump (Sayane)","Gat No 103/2 Malegaon, Kausar, Sayane Bk","20.594688","74.6008464"
"ChIJOzVO0nuZ3jsR9UpotlswwkQ","IndianOil Petrol Pump (Sayane Budrak)","Gut No 7/2, Chinchgavan Chalisgaon Patha Road, Budrak, Sayane Bk","20.5784956","74.5727445"
"ChIJ4Qb1WRyY3jsRqXcFDvhMpK4","LPG Auto Gas","HHHH+V7W, Nashik","20.5797264","74.578192"
"ChIJi5q5uCiZ3jsR8Bxc4dx8_BE","RAGHAV PETROLEUM","Chalisgaon Fata, malega, Sayane Bk","20.579393","74.5803152"
"ChIJZeu87xyY3jsRhwQgBkyQ628","Hindustan Petroleum Corporation Limited","Gut No, 438/2, Sayane Bk","20.579437","74.580409"
"ChIJ6S_qQQCZ3jsRmhECe6Naklk","My Eco Energy Indizel Pump","HP Pump, near Malegaon - Chalisagaon Road, Sayane Bk","20.5773597","74.58081349999999"
"ChIJiZdOPACZ3jsRZRAs9D0iYTc","Malegaon By Pass","HHF7+7CX, Agra - Mumbai Highway, Daregaon","20.5732447","74.5636071"
"ChIJw1HWiiSY3jsR7tp4rlfCzzY","Bharat Petroleum","DAREGAON, TAL: MALEGAON, NASIK","20.5731521","74.5625233"
"ChIJgRIwsWqZ3jsR6izxedK5F2k","Nayara - A R Petroleum","Gut No 248 , Daregaon National Highway No 03 Near Star Hotel, Malegaon","20.5674353","74.56313109999999"
"ChIJrdEBSHCZ3jsRol99DdTEsKU","IndianOil","Ground Floor, Mumbai Agra Hwy Sayne, Malegaon, NH 3, Chinchagavhan","20.5834669","74.58800540000001"
"ChIJGU-YiEeZ3jsRW5vzdMWYrwU","Coco Malegaon Adhoc Shrivandan Service Station","Shop No 01 Malegaon Dhule Highway Near Hotel Sadapurna Sayne, Malegaon","20.5839917","74.5879425"
"ChIJT3bSbP-X3jsR-Oaq3VMZfbQ","Hindustan Petroleum Corporation Limited","Gut No 82/2/1A/1 Mumbai Agra Road, NH 3, Lonwade Road, Malegaon","20.5858769","74.58930389999999"
"ChIJuXMmWQCZ3jsRULhY9I-sGPo","Hindustan Petroleum Corporation Limited","Ground Floor, Daregaon","20.562267","74.564139"
"ChIJY797BduZ3jsR_UNOm243tB8","Nayara - Quraish Petroleum","Gut No 159/1,2, opp. Zariwala Fuel Station, NH03, Shahi Golden Hotel Road, Daregaon","20.561924","74.5647582"
"ChIJa2e8EgeY3jsRZYRgwR2EnLs","Indian Oil Petrol Pump","HHGR+JMV, Sayane Bk","20.5766227","74.5916684"
"ChIJV4bV5TOY3jsRcGayQ9Aqg08","Hindustan Petroleum Corporation Limited","S No 188/2/2 Malegaon Dhulia Road, Old Agra Road, Malegaon","20.566119","74.553328"
"ChIJifYz-JiZ3jsRqMPAISgd3ks","Bharat Petroleum, Petrol Pump -Malegaon Police","TAL:, Malegaon","20.5717175","74.547737"
"ChIJGXW3kwyZ3jsRGp2tauM17oc","Hindustan Petroleum Corporation Limited","Ground Floor, NH 3, Daregaon","20.552181","74.566102"
"ChIJY7NVHK6Z3jsRAiNiaNJjQIo","NAYARA - M.G PETROLEUM","S. No. 71, Plot No. 82 & 83 Jafar Nagar, Old Agra Road, Malegaon","20.5590522","74.5454432"
"ChIJO1Mt53uZ3jsRVV4kwYvhirQ","PETROL PUMP","GHW4+V73, Malegaon","20.546686","74.5552199"
"ChIJ03GhECGa3jsRE_duh1Vc0Hk","Hindustan Petroleum Corporation Limited","Survey No 91, 4A, Malegaon - Satana Road, Square, Soygaon, Malegaon","20.548862","74.495731"
"ChIJu1vq_Pyb3jsRKCfVxkkiVXI","Gajanan Bharat Petroleum (BPCL)","PATNE","20.5218639","74.4831528"
"ChIJZZfEdj6b3jsRBVqwJUgRDQU","Nayara Sai Prem Petroleum","GFHR+447, tehere, Malegaon","20.5277924","74.490295"
"ChIJi-jgzXGb3jsRnPXP-b3x1Rk","Nayara - Suryawanshi Petroleum","Gut No-244/2, Mungase, Malegaon","20.5104469","74.4713787"
"ChIJhYzdSWKb3jsRyKHXZ2mS_oQ","IndianOil Petrol Pump (Aghar Bk)","Ground Floor, Malegaon, Patane","20.520215","74.463759"
"ChIJa7V9pyqa3jsRvYFUJr1fjDc","BPCL RENUKA PETROLEUM","NH 3 Tehre, Malegaon","20.531232","74.4990909"
"ChIJQ3feMnKZ3jsRkhUOM28JZH8","Hindustan Petroleum Corporation Limited","No 620/2, NH 3, Shiwar, Chandanpuri","20.5324068","74.50959019999999"
"ChIJvdof64KZ3jsR8EFMl1Kda78","M/S Dwarkadas V Shah Petrol Pump","Chandanpuri National Highway No. 3, NH3, Malegaon","20.5326272","74.5095467"
"ChIJ_TL854mZ3jsR1cbKZvufXw8","Shri Balaji Petroleum","Maharashtra State Highway 33, Malegaon","20.5459205","74.499732"
"ChIJZYmwZUaZ3jsROYrEXZmmxbE","Shijak Petroleum","GGC8+RW7","20.5220256","74.5172864"
"ChIJsSQguW2b3jsRoHGZp7wbB2w","Hindustan Petroleum Corporation Limited","Ground Floor, SH 19, Malegaon - Satana Road, Dabhadi","20.551089","74.46795800000001"
"ChIJNwdXFreZ3jsRXpJuAD_CxzY","Hindustan Petroleum Corporation Limited","Ground Floor, near Manmad Chaufuli, Agra - Mumbai Highway, Shiwar, Chandanpuri","20.530663","74.51641699999999"
"ChIJxx5Zzp-b3jsRq90Yan2Ghpw","Hindustan Petroleum Corporation Limited","Gut No 101/1A/1, near Onian Market, NH 3, Agra - Mumbai Highway, Mungase","20.499671","74.450422"
"ChIJj59oWBSZ3jsRgWjSpmE5Rko","Hindustan Petroleum Corporation Limited","Gat No 30/6, SH 19, Malegaon - Satana Road, Choufully, Soygaon, Malegaon","20.546277","74.50600399999999"
"ChIJ63ET31OZ3jsR9b5EdJ1JrvI","IndianOil Petrol Pump (Chandanpuri)","Ground Floor, near Jeevan Hospital, SH 10, Shivar, Malegaon","20.5268456","74.51872879999999"
"ChIJX6XgcWia3jsRcMdQLLgSiKA","IOCL Petrol Pump","HF27+PXH","20.551823","74.4649988"
"ChIJjS1QplqZ3jsR6tZTxZmtVmI","Hindustan Petroleum Corporation Limited","GUT No 273/2, SH10, Malegaon - Manmad Road, Nimbait, Kaulane N","20.495976","74.51104699999999"
"ChIJd_uyeQCb3jsRwn3rzNu8r6Q","Sai Suman Petroleum","FCWW+WRR, Malegaon","20.49735069999999","74.4470012"
"ChIJGceX6Y6Z3jsRlW5eDfrQBng","Bharat Petrolium Shyamji Petrol Pump","GGX6+G8X, Soyagaon - Tehare Road, Valmik Nagar, Shahunagar, Malegaon","20.5488607","74.51114989999999"
"ChIJR0uKOa2e3jsROfWbEkdmCHA","Hindustan Petroleum Corporation Limited","Gut No 205, 1 SH 10, Malegaon - Manmad Road, Nagaon, Malegaon","20.483547","74.5093526"
"ChIJp4Uc-kuD3jsRwj6cJdG7KjA","Hindustan Petroleum Corporation Limited","Ground Floor, Manmad - Deola Road, Umarane","20.403561","74.34073099999999"
"ChIJ06OhBaB93jsR3Io2MRebaI4","IndianOil Petrol Pump (Bhaur)","Gat No 56/5/1, P Chinchve, Agra - Mumbai Highway, Deola","20.3921681","74.3309434"
"ChIJR_KfSwCD3jsRDyxpJ_oQ4oE","Sundar Petrol pump (Apna Petrol... ⛽","98HC+MWJ, Chinchave","20.3794547","74.3221937"
"ChIJOVY11aCD3jsRjT9YaVEnWto","Bharat Petroleum Petrol Pump , SHREE RAMESHWAR PETROLEUM","GUT NO.192,UMRAINE, Tisgaon Road, DE","20.422346","74.356793"
"ChIJya9cC-aD3jsR7cqkkjskYcU","IndianOil Petrol Pump (Chinchave)","Gut No 1661/P, Devla, Umarane","20.422879","74.3577072"
"ChIJ22VQ31OC3jsRBSd1o4V-mw8","Hindustan Petroleum Corporation Limited","Gut No 1701/1, near Onion Market, NH 3, Umarane","20.425282","74.3571401"
"ChIJ76WsIwCD3jsROBrB_1V2nrU","Hp petrolium","C8QJ+63C, Deola, Nashik","20.4380563","74.33014100000001"
"ChIJHye-jTGD3jsRh9KEcTRN7ZQ","Swarajya Petroleum","Devala - Malegaon Road, Mahatma Fule Nagar","20.4400708","74.32213589999999"
"ChIJOwm7Ttsq3DsR6WJLQW4fvaM","Hindustan Petroleum Corporation Limited","Ground Floor, Agra - Mumbai Highway, Chandwad","20.331501","74.23480099999999"
"ChIJX2yOXQor3DsR32a9CPoMVW4","Bharat Petroleum, Petrol Pump -S.K.Palod","Chandwad","20.33132479999999","74.23451349999999"
"ChIJRXVJ2UMr3DsReJCeEkWWc4M","Anurag Fuel Plaza","Shop No 1, Main Road, Dhavkar Nagar, At, Chandwad","20.3286523","74.23715659999999"
"ChIJ3YGXJNwr3DsR79OXywtasSQ","Hindustan Petroleum Corporation Limited","Ground Floor, Kasliwal House, Nashik","20.328693","74.23510999999999"
"ChIJEd2MRQAr3DsRj4XhKcqguAo","Rajendra deore","86FQ+VFF, Dawkhar Nagar","20.3246951","74.23867179999999"
"ChIJ8_sOPwAr3DsRvqxlWXxCrJI","Anurag fuel plaza ⛽️","86CR+H5W, Manmad - Deola Road, Chandwad","20.3219324","74.2400443"
"ChIJiaza7t8q3DsReULgjpe9AYk","Hindustan Petroleum Corporation Limited","Gut No 363/1, Manmad - Chandwad Road, Chandwad","20.321789","74.240202"
"ChIJ4dITVgYr3DsR3UNkBGQlOus","IndianOil Petrol Pump (Chandwad)","Survey No 20, Adgaon","20.3138987","74.261555"
"ChIJqXijwU3U3TsR-aEwDALtlTI","Hindustan Petroleum Corporation Limited","Survey No 113/P/A NH 3, Mumbai Agra Hwy, Chandwad, Shirsane","20.3086689","74.1576393"
"ChIJswEWki_U3TsRKE6O4TO9yGY","Bharat Petroleum, Petrol Pump -Samruddha Tara Petroleum","Malsane","20.2998713","74.1337913"
"ChIJh4j0Zy_U3TsRVDDHW7ycM-Q","IndianOil Petrol Pump (Adgaon)","Chandwad, Ground Floor Malsane, Agra - Mumbai Highway, Adgaon","20.300048","74.131399"
"ChIJzYZXVojV3TsRVC7H9s62558","Bharat Petroleum, Petrol Pump -Mharana Petroleum","Nashik Road, Vadalibhoi","20.3116902","74.1648144"
"ChIJgYFSQJrV3TsRmoGt7HjWTh4","Hindustan Petroleum Corporation Limited","Ground Floor Chandwad, Sogras Phata, Shelu","20.3322937","74.14232009999999"
"ChIJk1BXvCTV3TsRcIv52ryVhB8","Hindustan Petroleum Corporation Limited","Ground Floor, Chandwad, Adgaon","20.314395","74.1748401"
"ChIJCYX7FP7U3TsRgqK16uQYrkY","IndianOil Petrol Pump (Chandwa)","Gat No 328, 2, NH 3, Adgaon","20.3135504","74.1755757"
"ChIJpVfSR4_Q3TsRlgzGAtKKB2I","Hindustan Petroleum Corporation Limited","Gut No 718, opposite TATA Work Shop, NH 3, Agra - Mumbai Highway, Shirwade Wani","20.216401","74.043061"
"ChIJLVeYoIDQ3TsR-CvEQ_UE5LA","Bharat Petroleum, Petrol Pump -Jangam Transport","PACHORE VANI","20.209241","74.03426739999999"
"ChIJU-YskufQ3TsRv00xzAg1-eE","Petrol Pump","360, National Highway, Nashik","20.2343299","74.0670652"
"ChIJG80ACyLR3TsRUB-MPc4u6GQ","Hindustan Petroleum Corporation Limited","Gut No 543/2, Chandwad, Khadakjamb","20.2340128","74.06647679999999"
"ChIJ3UjeMKbQ3TsRot7PJiZVsUg","IndianOil Petrol Pump (Chandwad)","Ground Floor, Chandwad, Vadner Bhairao","20.242751","74.033461"
"ChIJAVykAtbE3TsRtJot6ayY7RQ","Deshmane Petroleum now CNG PUMP 24 hours available AND PETROL DIESEL","OPP OLD MARKET YARD, NH3, Agra - Mumbai Highway, Pimpalgaon Baswant","20.1516618","73.9829656"
"ChIJ7xUyZSrF3TsRi45Zijmi4wY","Bharat Petroleum, Petrol Pump And CNG -Maharashtra Petroleum & cng pump","Agra - Mumbai Highway, Pimpalgaon Baswant","20.1545736","73.9836864"
"ChIJUReKjtTa3TsRO3Alu18bazc","Bharat Petroleum","5X6Q+849, Pimpalgaon Baswant, MUMBAI-AGRARD","20.1607956","73.9878497"
"ChIJ6QweUwDF3TsRISmn41E4oMA","NASIK KE AAGE CNG PUMP","5X2M+H4Q, Nasik","20.1514588","73.9828556"
"ChIJh-6GQNjF3TsRTGllfDvsi3A","Hindustan Petroleum Corporation Limited","S No 449/6, opposite Market Yard, NH 3, Agra - Mumbai Highway, Niphad, Pimpalgaon Baswant","20.1515401","73.9829701"
"ChIJpQyx_CrF3TsRPS16iL_H2L4","Thakker Reliance Petroleum","Nashik, NH-3, Mumbai Agra Highway, Nashik, Nashik","20.15607379999999","73.9856449"
"ChIJTRauCcLE3TsRIwmwFqBtd2I","IndianOil Petrol Pump (Ojhar)","Gut No 552P Niphad, Kokangaon","20.1334214","73.9664106"
"ChIJjYqLHwDb3TsRgS4zltYUrWw","Gaikhe Brothers","5X6Q+849, MUMBAI-AGRARD, Pimpalgaon Baswant","20.1608287","73.9877671"
"ChIJZaSWtXzb3TsRUnwxZSbShDU","IndianOil Petrol Pump (Baswant)","Ground Floor, Pimpalgaon Baswant","20.1630068","73.98742539999999"
"ChIJRyBu9ZbF3TsRm0geLHQdhn8","BPCL - Tanishq Petroleum","431, At village, Agra - Mumbai Highway, Kokangaon","20.1264837","73.96261129999999"
"ChIJ0TgX29na3TsRUAXjewloWHE","Shivkrupa Petrol Pump","5XCP+6P2, National Highway 3, Pimpalgaon Baswant","20.170509","73.9867579"
"ChIJQenLu9ja3TsRYqKYOT1_ZI0","Hindustan Petroleum Corporation Limited","Ground Floor, near New APMC Road, Pimpalgaon Road, Jopul, Niphad, Pimpalgaon Baswant","20.174451","73.98384399999999"
"ChIJWTKuYMna3TsR6U8_0zjTTK4","IndianOil Petrol Pump (Jopul)","Ground Floor, Niphad, Pimpalgaon Baswant","20.1658768","74.002206"
"ChIJPbTnJwDb3TsRHtOCF2TzBXA","Shree Datt Petrolium","5XMW+625, NH360, Pimpalgaon Baswant","20.1830733","73.994255"
"ChIJd1KAIL3b3TsREmMqkzTxB6M","Sangram petroleum","Niphad, Pimpalgaon Road, Pimpalgaon Baswant","20.1655999","74.0187741"
"ChIJ13xtGADb3TsRyyn_QLhAw64","Hindustan Petroleum Corporation Limited","Ground Floor, Niphad Road, Ahergaon","20.16524979999999","74.0207116"
"ChIJd3yy0GPb3TsR5a6QK5c4POo","Vitthalpant Petroleum","Gut no.672 (P Wani Road, Pimpalgaon Baswant","20.1893782","73.98386649999999"
"ChIJe4mZiMPD3TsRi6ic11IBRMM","Bharat Petroleum","National Highway 3, Vijay Nagar","20.073587","73.9068418"
"ChIJZY1lJcLD3TsRyuEBuZrzA3I","Hindustan Petroleum Corporation Limited","Gat No 23/2/1 NH 3, Niphad, Agra - Mumbai Highway, Ojhar","20.0754367","73.9103063"
"ChIJz2nJLuvD3TsRHuTYCUNIGzk","Jio-bp","opposite Panchwad Nagar, Gat No 2436/2 Mumbai Agra Road, NH 3, Ozhar, opposite Panchwad Nagar, Mig, Nashik","20.0822805","73.9155952"
"ChIJ26RjjdTD3TsRwd5SQVCsT1k","Hindustan Petroleum Corporation Limited","Survey No 150, NH 13, Agra - Mumbai Highway, Jaulakedindori","20.061371","73.891171"
"ChIJkWW8qMfD3TsRn6hkrK8qWg4","BPCL - Adgaon ( Smartfleet -OTP - Petrol - Diesel - EV Charging)","Survey No.1866, near Garware Point, Agra - Mumbai Highway, NH3, Adgaon, Nashik","20.0586716","73.8881899"
"ChIJlfPCotPD3TsRKj5hcp1m2-w","IndianOil Petrol Pump (Dindori)","Survey No 172, Hissa No 172, Agra - Mumbai Highway, Jaulke","20.0645022","73.8927313"
"ChIJ5VtO7NjB3TsRuBxWKDcUOD4","Shell","opp. Truck Terminal, Nashik Road, नाशिक","20.045426","73.874382"
"ChIJ0QjW1Y_B3TsR_istk5UR5Fg","IndianOil Petrol Pump (Jadhav Mala)","Truck Terminal, Agra - Mumbai Highway, Adgaon, Nashik","20.0439088","73.8746901"
"ChIJSx5sGADB3TsRuISB2hrft-M","Near jatra hotel cng","2VVF+HRF, Nashik","20.0439415","73.8745591"
"ChIJF-40ZP_D3TsRpFOhMVRUw2w","Hindustan Petroleum Corporation Limited","near Nashik International Airport, Gat No 577 Airport Road, Dindori, near Nashik International Airport, Janori","20.091108","73.893492"
"ChIJTb79zjnB3TsRTDiRNMO0axE","IndianOil","No 2, Gut No 1470, Adgaon, Nashik","20.0375169","73.86574329999999"
"ChIJ0bGmMQDB3TsRQ2yllLS5UjU","Bharat Petroleum - BP Adgaon","2VP7+PQH, Vasantdadanagar, Adgaon, Nashik","20.036609","73.863848"
"ChIJy08_mTPB3TsR15KaL51sqSY","Hindustan Petroleum Corporation Limited","Gut No 1507, near Old Jakat Naka, NH 3, Agra - Mumbai Highway, Adgaon, Nashik","20.0356817","73.8638151"
"ChIJB7fpeZPD3TsRI_O99kfOiyI","IndianOil Petrol Pump (Shivaji Nagar)","Ground Floor, Agra - Mumbai Highway, Korapgaon, Ojhar","20.085268","73.918961"
"ChIJaR7iLq_D3TsRUvYY4-KOfUY","Bharat Petroleum, Petrol Pump -R.B.Gaikhe & Sons Nh3","OZAR ( NH3 ), Nashik","20.088017","73.9223885"
"ChIJ8Tn_GF7q3TsRiQmqOIsr1Q4","Essar pragati Petrol Pump","2R58+CX2, Aurangabad Road, Swaminarayan nagar, Nashik","20.0085165","73.8173864"
"ChIJZ-T5_Kzr3TsR6WCnbyRgeR0","Palija HP Petrol Pump","Malegaon Motor Stand, Panchavati, Nashik","20.0098801","73.792481"
"ChIJt-Hf3QLr3TsRlZtJGlPBpGE","Hindustan Petroleum Corporation Limited","Ground Floor, near Holy Cross Chapel, Old, Agra - Mumbai Highway, Trimbak Naka, Nashik","19.996577","73.78192489999999"
"ChIJIwUZWAjr3TsRq01UkbTkYVU","Hindustan Petroleum Corporation Limited","Ground Floor, Trambakeshwar Road, Trimbak Naka, Police Staff Colony, Nashik","19.9975467","73.7809146"
"ChIJa3Ip9MLq3TsRxCNU5olqpQs","Bharat Petroleum Customer Relation Centre","XRH5+6PX, Samta Nagar, Nashik","19.9781233","73.8093458"
"ChIJeW2aTi_q3TsRCkOn45lbhRc","Nayara Petrol Pump","Maharashtra State Highway 17, Vaiduwadi, Mhasrul Gaon, Manora","20.0427484","73.8056347"
"ChIJlRt6WB7r3TsRfyJBS-mFG00","KALIKA PETROLEUM SERVICES BPCL","Wadala, Pathardi Road, Vinay Nagar, Indira Nagar, Nashik","19.9820488","73.79194919999999"
"ChIJkTcwWKzr3TsRYraVe40DuR0","Shweta HP gas Agency","Peth Phata, Opp. State Bank, Panchavati, Nashik","20.01307989999999","73.79191019999999"
"ChIJhQY7PWzr3TsRm0_iKLcXR-U","IndianOil Petrol Pump (Om Nagar)","Lock No 11019, Agra - Mumbai Highway, Adgaon Naka, Panchavati, Nashik","20.01028999999999","73.807671"
"ChIJ07D_TVrq3TsRjF6hnXu2MPk","IndianOil Petrol Pump (Om Nagar)","near Haldi Lonws, Adgaon Naka, Om Nagar, Nashik","20.0109019","73.8057523"
"ChIJu8t_LADr3TsRwDix73C7vWk","Nyra Petrol Pump Aurangabad Road","2R58+GX3, Aurangabad Road, Madsangavi, Nashik","20.0087726","73.81740789999999"
"ChIJCQzAJRXr3TsRaC79KHBrh7U","Shell","Aurangabad - Nashik Highway, Nashik","20.005965","73.823725"
"ChIJ2xfV_5rr3TsRAG8pXw252Hk","MNGL CNG PUMP next to KK Wagh College","2R8F+6PX, Service Road, Pachwati, Sri Ram Nagar, Konark Nagar, Nashik","20.0156132","73.8243518"
"ChIJe8G9g3rr3TsRi9gGrZl_lcU","Bharat Petroleum, Petrol Pump -Khalsa Automobiles","PANCHAWATI NASIK, Ahilyabai Holkar Bridge, Panchavati, Nashik","20.010037","73.79271469999999"
"ChIJJYhjBwjr3TsR2SH6_thZcFk","IndianOil Petrol Pump (Panchavati)","Lock No 12030, Motor Stand, Panchavati, Nashik","20.009705","73.792046"
"ChIJUwoYUKzr3TsRwZ-oPc6mDF4","Hindustan Petroleum Corporation Limited","Ground Floor, near Malegaon Stand, Panchavati, Nashik","20.0094488","73.7912466"
"ChIJk9Mrw2fr3TsR8ypEXvaOoVs","BPCL kimaya Petroleum","Aurangabad Road, Kailash Nagar, Nashik","20.0049272","73.8265831"
"ChIJ6Wr5Sznr3TsRxBte2-2T0MA","Sahadev Petroleum","Tapovan Road, Nashik","19.9927848","73.80942"
"ChIJbVBZ853r3TsR1laxKLBAwt4","Nayara Suvarna Krishna Petroleum","2R9G+5WH, Audumbar Nagar, Near Bali Mandir, Munbai, Agra - Mumbai Highway, Nashik","20.0179255","73.8273557"
"ChIJGcMXGADr3TsRgyG7jFOfjIw","Satpur","XQXR+P2C, Nashik","19.9993217","73.79001880000001"
"ChIJU2D_vBCT3TsR6WpXo_MXuJw","HP Petrol Pump","S NO, 89/1, Agra - Mumbai Highway, MIDC Ambad, Vilholi","19.9178277","73.7132522"
"ChIJWY3owlyT3TsRVn540DT1Kcw","Hindustan Petroleum Corporation Limited","Gut No 42, NH 3, Agra - Mumbai Highway, Rajur Bahula","19.9099045","73.7046369"
"ChIJz46YbjyT3TsRc8HOAPtjQkg","Bharat Petroleum, Petrol Pump -N.L.Gandhi & Co.","RAJUR ( NH3 ), Nashik","19.9061572","73.7008602"
"ChIJW6IqlwKT3TsRjab5LDUJELE","IndianOil Petrol Pump (Akrale)","Gut, No 64/1/ P, Akrale, Rajur Bahula","19.9029937","73.70032479999999"
"ChIJN97QJJWT3TsRI47h_wWvOak","Hindustan Petroleum Corporation Limited","No 17/2, opposite Sanjivani Resort, NH 3, Agra - Mumbai Highway, Vilholi","19.9338981","73.7285469"
"ChIJrbhqEw6T3TsRrOiHTULEVUM","Shivneri Petroleum Services BPCL","SURVEY NO. 19/2A National Highway NH3 MUMBAI - AGRA VILHOLI, SHIVAR, Nashik","19.934059","73.73097729999999"
"ChIJ5eY_5iuT3TsRH2AN2yhskVc","Nashik CNG opp D mart","WPPJ+7V7, Mumbai - Nashik Expressway","19.9356683","73.7321783"
"ChIJf7noXRKT3TsRJk-tbsa8E3s","MNGL CNG Station","Mumbai - Nashik Expressway, Nashik","19.9357034","73.7322428"
"ChIJ2Sn-mDST3TsR6qwYLg8XYXU","Prathamesh Petroleum Authorised HPCL Dealership","opp. Eaton Ltd, MIDC Ambad, Nashik","19.9464855","73.7409603"
"ChIJjXN6_KaT3TsRkXyv3zsgkks","Hindustan Petroleum Corporation Limited","opposite Blue Cross Ltd, Plot No P/33, Ambad Satpur Link Road, MIDC Ambad, Nashik","19.946821","73.740944"
"ChIJ0xJXAIjt3TsRhcd34xEwYd4","IndianOil","Plot No X1, MIDC Ambad, Nashik","19.9502578","73.7378502"
"ChIJE5K5BmXt3TsRC_EtpDCX3Fw","IndianOil Petrol Pump (MIDC Ambad)","Plot No 10/1, MIDC Ambad, Nashik","19.9502601","73.7378501"
"ChIJDQFJKwDt3TsRepXbBi9im7Y","Shivshakti engineering","XP2P+MFV, MIDC Ambad, Nashik","19.9517471","73.7361734"
"ChIJ11VJIcCR3TsRFBbokO3JF6M","Hindustan Petroleum Corporation Limited","Ground Floor, NH 3, Igatpuri, Gondedumala","19.8285839","73.6752661"
"ChIJfyMu8OqR3TsRnGcW89B9JbI","IndianOil Petrol Pump (Igatpuri)","Gat No 553, Gondedumala","19.8306817","73.6749799"
"ChIJH6Ps4bCR3TsRk5RU8igIvN8","IndianOil Petrol Pump (Padaali Deshmukh)","Gat No 366, Padli Deshmukh","19.8041354","73.67155439999999"
"ChIJf6xXLZOR3TsRVkqYjLMyU1k","Bharat Petroleum Petrol Pump , VIRAJ PETROLEUM","GAT NO - 164, GONDE DUMALANH, 3, Mumbai - Nashik Expressway","19.8368938","73.6772422"
"ChIJm8wPkh6F3TsRieG-0gvqgeQ","Vicky Parmar","Shop No 1 Near Ghoti Tole Plaza Mumbai, Highway, Kasara","19.7083282","73.6145548"
"ChIJy7JMjVaE3TsRulDQFFb_pbc","M R Rathi & Co. BPCL, CNG Station","Take-Ghoti NH -3 , Mumbai Nashik Highway, Dist, Igatpuri","19.6993474","73.6028386"
"ChIJ0W5tYGuF3TsRHIAvU_4iXMg","Shahane Petroleum","near NH03, NH03 Highway near Ghoti goan, near NH03, Mumbai - Nashik Expressway, Nashik","19.7228433","73.6283328"
"ChIJNVrrcj6F3TsRZSBvKkBlkYE","Hindustan Petroleum Corporation Limited","Ground Floor, Ghoti - Sinnar Road, Khambale","19.7271246","73.6316587"
"ChIJd2jvMdqF3TsR3VYfJ0hojwg","IndianOil Petrol Pump (Bortembhe)","Lock No 12019, NH 3, Agra - Mumbai Highway, Igatpuri","19.6956413","73.5955293"
"ChIJUyQh1S-b3TsRo6lpuxHW9fE","IndianOil Petrol Pump (Fata)","Lock No 12020 Khambale, Ghoti, Igatpuri","19.7290957","73.6325462"
"ChIJOWQIEjuR3TsR0Cme_P97txw","IndianOil Petrol Pump (Aswali RS)","Gut No 621, Khambale, Igatpuri, Aswali RS, Khambale","19.7446828","73.6408866"
"ChIJ992_uEWF3TsRsucODYihoXY","Shree Hari Petroleum","gat no 621, NH3, Khambale","19.74503199999999","73.6408273"
"ChIJ1ekaslqb3TsRjyuuYAY3liw","IndianOil Petrol Pump (Korapgaon)","Gut No 240, No 2, Ghoti - Sinnar Road, Ubhade","19.725706","73.659238"
"ChIJBZ2pJxd-5zsRTv-3_yzB6do","IndianOil Petrol Pump (Mokhawane)","Survey No 170/2, Shahapur, Mokhawane, Shirol","19.6277524","73.4505551"
"ChIJn5IUFK145zsR_VmDp_PBzQk","Hindustan Petroleum Corporation Limited","Ground Floor, Mumbai - Nashik Expressway, Lahe","19.5527699","73.3688138"
"ChIJWW2kF8B55zsRwyCMkR_8Rrs","Kartik autocare","H939+59, Lahe","19.5526901","73.3685282"
"ChIJY5tFenx55zsRkWEnl9mXNjs","Hindustan Petroleum Corporation Limited","Ground Floor, Mumbai - Nashik Expressway, Lahe","19.5546483","73.3694616"
"ChIJZUXJwtmD5zsROS7oF_9Ebug","IndianOil Petrol Pump (Kasara)","Kalamgaon, Shahpur, NH 3, Mumbai - Nashik Expressway, कसारा","19.538722","73.346898"
"ChIJbeXWCAyE5zsRi6hyOrk65tQ","HP PETROL PUMP - SHIVRATAN FILLING STATION","Sapgaon Taluka Shahapur, Vashi","19.44630099999999","73.3523738"
"ChIJgZBHqiyF5zsRjww8qLc1twc","Hindustan Petroleum Corporation Limited","Gut No 531/3, near Visva Hotel, Shahpur, Dolkhamb Road, Shapgaon, Thane","19.446192","73.3523147"
"ChIJSdvOPACD5zsRYYy7lLN8jMA","NK Petrol pump","F82V+RH5, Shahapur","19.4520239","73.3439799"
"ChIJl1UKIgCF5zsRmfPyrmF_-Bo","Ekdant petroleum shahapur","F82V+CGR, Maharashtra State Highway 79, Bamane","19.4512583","73.3437983"
"ChIJu6yGSQCR5zsRTmf13hndaTU","Shree Swami samartha gas agency","Gurawali Pada","19.3098802","73.21846590000001"
"ChIJq2APvQWX5zsR2b2qC6bkGMg","Tci Company","Bashir - 7038678800, *Adress* - TCI company behind stelar company, near antariksh office, opp. HP petrol pump, vashere. Kalyan, Padgha","19.3334997","73.1615127"
"ChIJnzy4UV2X5zsRS-YYQ86Q5PE","Hindustan Petroleum Corporation Limited","S No 58/16, Road Sape Padgha Road, Padgha","19.3308659","73.15917689999999"
"ChIJvV3vPQCX5zsReGS157Pxjuc","IndianOil Petrol Pump (Aamane)","Ground Floor SH 46, Bhiwandi, Kalyan-Sape Road, Aamane, Padgha","19.3194645","73.15969679999999"
"ChIJjZUmWwCZ5zsRCQjaAHm8eQs","Bharat Petroleum","2/13/A, Taloli - Padgha Road, Borivali Tarf Rahur","19.3484249","73.15888199999999"
"ChIJxSVH9gGb5zsRVtNsDtXbZ4A","Bharat Petroleum, Petrol Pump -BP-Padga","N H 3 PADGAH, THANA","19.3690133","73.184463"
"ChIJV7y2W-mZ5zsRlsSgo_yTda0","Maruti Automobiles Indian Oil Petrol Pump","Arjunali","19.3590632","73.16355089999999"
"ChIJGx56miGa5zsR-28uETcK8dg","Hindustan Petroleum Corporation Limited","S No 53, near MSEB Power House, NH 3, Mumbai - Nashik Expressway, Padgha","19.3698402","73.1873039"
"ChIJtRH6UyKa5zsRldXBeKXnHa8","Shell","95CR+56X, Agra - Mumbai Highway, Vahuli","19.37048459999999","73.1906161"
"ChIJxd2UqsaZ5zsRlRXccHEcuQs","Varshman Auto Service","Arjunali","19.3628125","73.1670625"
"ChIJCbRVG3uZ5zsR-vikaINC2mE","Hindustan Petroleum Corporation Limited","Ground Floor, NH 3, Bhiwandi, Padgha","19.362833","73.16703199999999"
"ChIJbQnxOzSW5zsREH9hxno2N0s","Hindustan Petroleum Corporation Limited","9 & 10, S No 7, H No 2, 3, 5 to 7, Bhiwandi Bypass Rd, Sonale, Bhiwandi","19.2853676","73.10761900000001"
"ChIJicgnMx6W5zsR9KVRoVUTkVo","Hindustan Petroleum Corporation Limited","Ground Floor, NH 22, near Nisharg Hotel, Ranjnoli","19.2632786","73.0886803"
"ChIJVbY4Zmu95zsRC31e4l4y9ZI","IndianOil Petrol Pump (Babu Ganj Groups)","St Depot, near Bhiwandi, Old, Agra Road, Nizampur, Thane","19.3047011","73.06580749999999"
"ChIJPz_PO2u95zsRruihQGFNXpw","Hindustan Petroleum Corporation Limited","opposite Bhiwandi Scan Centre, S No 66 & 82/P, Old Mumbai-Agra Road, Nizampur, Thane","19.305351","73.065191"
"ChIJg4BICEO95zsRe1wl6RYqfTI","Mahanagar Gas CNG Station","658, Nashik Road, Millat Nagar, Avachit Pada, Bhiwandi","19.3144741","73.0730938"
"ChIJj6ZZXyWW5zsR74DmB_ry0rM","Reliance Petroleum","Survey No 79, 86/171 Bypass, NH 3, Sonale, Bhiwandi","19.2783569","73.0981372"
"ChIJg1KNCgCX5zsRR-YdTilZzMc","CNG JIO PUMP","79, Saravali, Bhiwandi","19.2781613","73.0983372"
"ChIJrfokkCyW5zsRBOWyTdBta0M","Sai Krupa Mini Bharat Gas Services","Shop No 1, Silent Complex Lonavale, Bhadwad Gaon, Mumbai","19.28761579999999","73.0945127"
"ChIJyUsoBou95zsRLRdYcXuQHao","IndianOil Petrol Pump (Saravali)","Ranjnoli Kalyan Road, Dandekarwadi, Bhiwandi","19.268331","73.083985"
"ChIJX4rlUoC95zsRcAbOFqYIh9c","Mahanagar Gas CNG Station","CNG pump, Mumbai - Nashik Expressway","19.2682593","73.0838302"
"ChIJSTgEhh6W5zsRJrJdE-JQ3Ak","MNGL CNG Pump","736R+GCF, Sapna Industrial Estate, Saravali, Gove","19.2613195","73.0910406"
"ChIJr_nAdhyW5zsRBSo0mpnhIdg","Bharat Petroleum","India","19.2588479","73.0933975"
"ChIJgcFf1wSW5zsRulvoXV5mjV8","Mahanagar Gas CNG Station Kanhaiya","124/4, NEAR RITU HYUNDAI,GOVE, VILLAGE, Bhiwandi","19.2546685","73.09634299999999"
"ChIJGyjmrFOX5zsRWy5l0Jx-dts","Jayshree Enterprise","7442+3W8, Thane","19.2551699","73.10233579999999"
"ChIJafLjtXCX5zsR_PzBuIG2VeY","IndianOil Petrol Pump (Sonale Village)","Lock No 21011, Mumbai Nashik Highway NH 3, Dandekarwadi, Valshind","19.2974241","73.1097496"
"ChIJK3bf8jCX5zsRChJ8fgHhVR8","IndianOil Petrol Pump (Saravali)","Lock 11031, Kalyan - Bhiwandi Road, Saravali, Kalyan","19.253204","73.098078"
"ChIJRzhy1QiW5zsRfCm1hCVlcCw","Reliance Petrol Pump","7422+2XX, NH 222, Kongaon","19.25","73.102475"
"ChIJ17FhB0y95zsRJZRAsaFmRtg","Zishan Enterprises","Ground Floor, Ahbab Hotel, HN.1777, Bhiwandi","19.2923683","73.07086869999999"
"ChIJzWR_ohaX5zsRnRL2zQvRGi8","Valshind NTI","Taluka, भिवंडी","19.303777","73.109079"
"ChIJk9yjmGO95zsRPj_lgMPTn9Y","Satyam Automobiles","Shop No.14, Gaibi Nagar Bhiwandi, Bhiwandi","19.2925078","73.0705921"
"ChIJsTFZ1lW45zsRnzzwSiy6-e4","Chheda Service Station BPCL Petrol Pump","near Johnson Garden, Lal Bahadur Shastri Marg, Sambhaji Nagar, Mulund West, Mumbai","19.17778","72.943679"
"ChIJt-dPxwW55zsR3OYlDioCwZY","AIKI AUTO Cng Pump","B-27, SG Barve Road, Neheru Nagar, Wagle Industrial Estate, Thane West, Thane","19.1939447","72.95338989999999"
"ChIJS7IssB255zsR5nNKyNTtl74","Bharat Petroleum","Nandanvan Industrial Estate, D/11, Lal Bahadur Shastri Marg, Louis Wadi, Thane West, Thane","19.1875579","72.9616995"
"ChIJt8asOiu_5zsRQzJ4FHt1nIQ","Hindustan Petroleum Corporation Limited","opposite Green Word, Plot No 130, Digha Naka, TTC MIDC, Vitawa, Navi Mumbai","19.184651","72.99402100000002"
"ChIJC2yhzD255zsRM3py_dGmMQI","Mahanagar Gas CNG Station","Khopat Road, Khopat, Thane West, Thane","19.2023766","72.9726207"
"ChIJYwHKntq95zsRG2DAFBmGJAM","Anjur Service Centre","3, Agra - Mumbai Highway, Thane West, Bhiwandi","19.1957353","72.96187189999999"
"ChIJbTiVQce55zsRcEqLQfSEEYk","Shell","Service Road, Thane","19.195491","72.963081"
"ChIJmd2nHQC55zsRYtniEjcyCgM","KOWTHALAM ADONI ROAD","5XW4+WJV, Ambica Nagar, Wagle Industrial Estate, Estat, Thane","19.1973555","72.95653779999999"
"ChIJw4f4oOa55zsR3UzvHIHqX3s","Namdev Nipurt","Shop 04, Teen Perto Pump 26, Thane","19.1939618","72.9704826"
"ChIJed5KkCG55zsRMaLYhxviwLw","BEST TYRE SERVICE","oppojit teen petrol pump, Tulasi Chambers, B/H, Lal Bahadur Shastri Marg, Thane West, Thane","19.1933681","72.97023229999999"
"ChIJxQKJciK55zsRLcN42xzBjn8","Hindustan Petroleum Corporation Limited","No 356, Agra - Mumbai Highway, Naupada, Thane","19.193261","72.970421"
"ChIJs8AfzuS55zsRcLZmOG8L_PA","IndianOil Petrol Pump (Thane West)","Lock No 22005, Plot No 122a, Lal Bahadur Shastri Marg, Naupada, Thane","19.1895","72.96530000000001"
"ChIJEV-YDiK55zsRrZZDlaq7G18","Radhakishan Lalchand HP Petrol Pump","Teen Petrol Pump, Naupada, Thane","19.1928872","72.9702849"
"ChIJe8zbEPS_5zsRJ-GeCjcRcZE","IndianOil Petrol Pump (Thane West)","No A/93, COCO MIDC, Road Number 16, Wagle Industrial Estate, Thane","19.1939396","72.9535659"
"ChIJcZBDGwC55zsRVTHMi2Y-m28","Mahanagar Gas CNG","near Sanjay Gandhi Market, No 33 Ambewadi, near Sanjay Gandhi Market, Road Number 33, Indira Nagar, Wagle Industrial Estate, Thane West, Thane","19.204586","72.95193309999999"
"ChIJ9eOLbfG55zsRDyhkcytnD28","Sandeep Gavelkar Pump","02 22, Shop 02, Kisan Nagar Road, Thane","19.1938754","72.9503014"
"ChIJcRWbUAC55zsRRy551Z2JKz4","MGL Wagle Estate , Modern","6X32+VMC, Road Number 33, Karvalo Nagar, Thane West, Thane","19.2046996","72.9516515"
"ChIJy3mDw7655zsRe12JnUVl62E","MAHANAGAR CNG WAGLE ESTATE","Road Number 22, Neheru Nagar, Shree Nagar, Thane West, Thane","19.19348","72.94956239999999"
"ChIJo8EogAG55zsRRKe8Zziupxs","Bharat Petroleum Corporation ltd","Bpcl PETROL pump, opposite manorpada, Lal Bahadur Shastri Marg, Uthalsar, Thane West, Thane","19.2028694","72.97594099999999"
"ChIJ-a4M1P-45zsR34ODJmECqn0","Hindustan Petroleum Corporation Limited","Ground Floor, BR Road Junction, near Santoshi Mata Mandir, Lal Bahadur Shastri Marg, Mulund West, Mumbai","19.183467","72.94873299999999"
"ChIJI1CjtMfH5zsReHZV7RXOn_E","IndianOil Petrol Pump (Vikhroli West)","opposite Godrej & Company, LBS Marg, opposite Godrej & Company, Agra - Mumbai Highway, Vikhroli West, Mumbai","19.1023956","72.9195445"
"ChIJ2yfwv87H5zsRYwyBVuoXL6I","Bharat Petroleum Corporation ltd","Lal Bahadur Shastri Marg, Ghatkopar East, Mumbai","19.09568","72.9151"
"ChIJ87tx1M3H5zsR875hVRXztSU","Hindustan Petroleum Corporation Limited","No B, 6, Lal Bahadur Shastri Marg, Ghatkopar West, Mumbai","19.0939579","72.9132956"
"ChIJq8zX9na45zsRPhC_KuR23dA","Hindustan Petroleum Corporation Limited","Ground Floor, opposite Jai Hind Oil Mills, Lal Bahadur Shastri Marg, Bhandup West, Mumbai","19.1396151","72.9309356"
"ChIJM1oruHC45zsRMsciKVEaCxk","Bharat Petroleum Corporation ltd","Janta Market, near Neptune Magnet Mall, Agra Road, Bhandup West, Mumbai","19.1429679","72.9330401"
"ChIJBdfkmoDI5zsRs3ygbA7QgMs","Hindustan Petroleum Corporation Limited","Ground Floor, Kerawala Estate Agra Road, Lal Bahadur Shastri Marg, Ghatkopar West, Mumbai","19.0860454","72.8950107"
"ChIJU1WHpaTH5zsRUfSbNhmq7A4","Hindustan Petroleum Corporation Limited","near Railway Station, Ground Floor LBS Marg, near Railway Station, Agra - Mumbai Highway, Vikhroli East, Mumbai","19.1104477","72.925591"
"ChIJ3SA6scfH5zsRE5P7q8XE7sA","IndianOil","TALUKA-KURLA, Vikhroli West, Mumbai","19.1024466","72.9199649"
"ChIJ6bi_f1XH5zsRlB7EA-aGfds","Alfa Oil","Shop No.3, Vikhroli Park Site, Anangarh, Mumbai","19.1071313","72.9143796"
"ChIJg0FTz2rH5zsRAj3F9PZ9KdU","Bharat Petroleum Corporation ltd","Telephone Exchange, Ground Floor Powai Rd Junction, Agra Road, near Powai, Lal Bahadur Shastri Marg, Mumbai","19.124919","72.92495389999999"
"ChIJ1TySWQDH5zsR2RGE8lBi4GU","Shell","4WGC+JFF, Jogeshwari - Vikhroli Link Road, IIT Area, Powai, Mumbai","19.1265645","72.921168"
"ChIJA88jDHLH5zsR_IQ_N1AUE0s","Shell Petrol Pump","2, Jogeshwari - Vikhroli Link Road, Vikhroli East, Mumbai","19.126639","72.92121999999999"
"ChIJSRyOwfHH5zsRqIOXK2JtEXw","IndianOil Petrol Pump (Powai)","Dixant Bhavan, opposite IIT, Adi Shankaracharya Marg, Powai, Mumbai","19.1239521","72.915139"
"ChIJ-72I8vHH5zsRCrXKGSzVNQU","Bhawani Petrol Pump","IIT Main Gate Skywalk, Jogeshwari - Vikhroli Link Road, Tirandaz, Powai, Mumbai","19.1243196","72.914974"
"ChIJhfTfXRnH5zsRSkujU9Ys1GA","Police Fuel Station Bharat Petroleum","opposite Ramabai Nagar, Eastern Express Highway, Pant Nagar, Railway Police Colony, Ghatkopar East, Mumbai","19.0795448","72.9164627"
"ChIJlftsR4TH5zsRamLYnHk8LDE","Samyak Hp Gas Services","Shop no 1, Vasant Rao Naik Road, Ghatkopar, Ramabai Ambedkar Nagar, Mumbai","19.0783926","72.9164375"
"ChIJDydlgdXH5zsRxVpIdqbA3qE","Sagar Oil Center","3VRX+3MJ, Chirag Nagar, Ghatkopar West, Mumbai","19.090224","72.89914100000001"
"ChIJZToCfpbH5zsRVhgCTaRu15g","Bharat gas","3WH6+C3J, Ghatkopar East, Mumbai","19.0785988","72.91014559999999"
"ChIJ7RXZNQvH5zsRcFdW38KNnZg","IndianOil","AB Road, Ghatkopar, Chirag Nagar, Ghatkopar West, Mumbai","19.0871001","72.89971109999999"
"ChIJFd73jy3J5zsRc3pLeICxbHQ","Sai General Store","Shop no.13, Pipe Line Road, Saki Naka, Mumbai","19.1028968","72.8922312"
"ChIJAZkSV2fO5zsRWAx-0exCgZ8","IndianOil Petrol Pump (Jacob Circle)","next to Kasturba Hospital, Sane Guruji Marg, next to Kasturba Hospital, Arthur Road, Agripada, Mumbai","18.98524129999999","72.8308533"
"ChIJw6XdfF_O5zsRP1An_zs3U-I","Hindustan Petroleum Corporation Limited","next to Creative Industrial Estate, Ground Floor, Sitaram Mill Compound NM Joshi Marg, next to Creative Industrial Estate, Delisle Road, Mumbai","18.988625","72.831255"
"ChIJ4Uj281bO5zsR29Sa8BdvCPk","Bharat Petroleum Corporation ltd","near Fire Brigade, 1st Avenue Boundary Rd, near Fire Brigade, West, Cotton Green East, Sewri, Mumbai","18.9867526","72.8438681"
"ChIJx6Jbt1LO5zsR12uQb4lkikM","LAXMI ENTERPRISES (BPCL)","XVJ2+5C8, Signal Hill Avenue, Brick Bunder Tank Road, Reay Road, Mumbai","18.980417","72.8510861"
"ChIJDz9Q6RvP5zsRYjNBBo2VpMo","Petrol Pump","Eastern Freeway, Pratiksha Nagar, BPCL Terminal, Wadala, Mumbai","19.00739279999999","72.85866539999999"
"ChIJOQAP7-XO5zsR6hWMTMXOY0U","Hindustan Petroleum Corporation Limited","Ground Floor, Saint Xavier Street, Parel, Mumbai","19.006042","72.8406546"
"ChIJjT9vlkjO5zsRhqp8NbYABng","Universal Motors Bharat Petroleum Pump","Jindal Mansion, Rambhau Bhogle Marg, Thakkar Estate, Byculla, Mumbai","18.9708189","72.8407756"
"ChIJYRp_u2HO5zsR-SIPi-PtDbU","Hindustan Petroleum Corporation Limited","Ground Floor, near Kishav Ravkhadhi Road, Doctor Elijah Moses Road, Mahalakshmi, Mumbai","18.9878659","72.82337369999999"
"ChIJ1wXm72zO5zsRi2yflxtatfY","Bharat Petroleum Corporation ltd","Police Station, near Agripada, 14A, Doctor Anandrao Nair Marg, Mumbai","18.9751859","72.8234232"
"ChIJl62lu0HO5zsRBZkWg4PM7Wc","Hindustan Petroleum Corporation Limited","next to Piccadilly Flats, Ground Floor Clare Road, next to Piccadilly Flats, Chamber Lane, Byculla, Mumbai","18.9692758","72.8298389"
"ChIJ57IDKsfO5zsRPdpbgIaRzPs","Hindustan Petroleum Corporation Limited","opposite Shree Siddhivinayak Temple, 386, Swatantryaveer Savarkar Road, Prabhadevi, Mumbai","19.0175931","72.83055399999999"
"ChIJ0S0PTdjO5zsRb0oc78ZfJS4","IndianOil Petrol Pump (Dadar)","Hindu Colony, L N Road, near Ruia College, Dadar East, Mumbai","19.0227588","72.848716"
"ChIJif4T6Y_O5zsRlE88gIFJPlg","Bharat Petroleum Corporation ltd","near Acharya Atre Chowk, Plot No 87, Doctor Annie Besant Road, Worli Naka, Mumbai","18.9979375","72.8173077"
"ChIJWcTgKO2p5zsRVgOt7HXq1fg","IndianOil Petrol Pump (Prabhadevi)","17 Veer Savarkar Marg, Old Cadel Road, Mumbai","19.0190297","72.83117469999999"
"ChIJfy7u4IXO5zsR6KxCw34IhL4","IndianOil Petrol Pump (Worli)","Ground Floor, Worli Naka, Mumbai","18.9922645","72.81442630000001"
"ChIJM-9VkIfO5zsRWyaKiabUzic","IndianOil Petrol Pump (Worli)","Doctor Annie Besant Road, Worli, Mumbai","18.9879776","72.8140617"
"ChIJwS8hgC7P5zsRDSGKp2jWt18","Bharat Petroleum Corporation ltd","opposite Kings Circle, Plot No 362, Matunga East, Mumbai","19.0262752","72.85447440000002"
"ChIJM6y9k73P5zsRDbNuSGTbYYU","Bharat Petroleum Corporation ltd","Ground Floor, near Shiv Sena Bhavan, Ash Lane, Dadar, Mumbai","19.0252863","72.8403988"
"ChIJYbVzG8_O5zsROs0OKLehEh4","Hindustan Petroleum Corporation Limited","opposite Axis Bank, Ground Floor, Shivaji Park Veer Savarkar Marg, opposite Axis Bank, Old Cadel Road, Mumbai","19.026271","72.836011"
"ChIJw6YqpC_O5zsRmEksGEY2_5Q","BPCL Petrol Pump - Varma Automobiles","85, P D'Mello Road, East, Masjid Bandar, Mumbai","18.9529047","72.8417857"