place_id,name,address,latitude,longitude
"ChIJWcpYm-U0VjkReyTrEPsAuic","IndianOil","Ground Floor, Grain Market, Dharampur","21.644994","69.636713"
"ChIJR33p6vU0VjkR-4iyje63tX0","Shree Parshva Petroleum","Rajiv Gandhi Road, Khijadi Plot, Panch Hatdi, Porbandar","21.6354195","69.622829"
"ChIJCYPYX-M0VjkRz9Ubqu_I0fE","MAHAVIR OIL AGENCY","India","21.6497703","69.6348606"
"ChIJ2XVOiP40VjkRwgEWpv5QMFg","Shyam Petroleum-Dealer Bharat Petroleum.","near Siddhi Restaurant & Rokadiya Hanuman Mandir, Porbandar-Dwarka Bypass Highway, near Siddhi Restaurant & Rokadiya Hanuman Mandir, New Porbandar, Porbandar","21.6517493","69.6263561"
"ChIJr2PAgVk0VjkRB8oES3HayYA","IndianOil","Ground Floor, MG Road, Porbandar","21.638702","69.615785"
"ChIJhQlQMVo0VjkRY-5J8ir_kQQ","Hindustan Petroleum Corporation Limited","Ground Floor, Mahatma Gandhi Road, Porbandar","21.6389072","69.6143756"
"ChIJ61yzNcM0VjkRqsGmzoDMYrc","IndianOil","Ground Floor, NH 8B, near Polytechnic College, Chhaya, Porbandar","21.6455012","69.64949399999999"
"ChIJtZckGds1VjkR35Ik1JzJgZk","Indian oil Indane gas","JJHW+88R, Unnamed Road, Siddheshwar Park, Chhaya, Porbandar","21.6283741","69.6457719"
"ChIJA3AtD080VjkR0XQMC21NOrc","National Petroleum","JJR4+WFC, near Sudama Temple, PORBANDAR, Sudama Puri, Bhatia Bazar Old, Porbandar","21.6423031","69.6061422"
"ChIJW2ADOdo1VjkRLISYbk4jXOw","Nayara Petrol Pump","MJ69+889, Khapat, New Porbandar, Porbandar","21.6607867","69.6183564"
"ChIJP7IpEU80VjkR4Ca_KxhLFU0","Deep Petroleum. (Ioc-Dealer )","near Sudama Temple, Sudama Puri, Bhatia Bazar Old, Porbandar","21.6421357","69.60557399999999"
"ChIJ7xDAwPQ1VjkRKFcqOdcL2E0","IndianOil","Ground Floor, near Sudama Temple, Sudama Puri, Porbandar","21.64219","69.605397"
"ChIJ6TId7kU0VjkRD1P8YG-I-VY","Reliance Gas","India","21.6393942","69.6046523"
"ChIJa09Grl81VjkRE-6XhHuz56w","PORBANDAR MOTOR TRANSPORT","Shitla Chock, Sardar Vallabh Patel Road, Porbandar","21.6435193","69.6045498"
"ChIJzZJL-ZBFVjkRyRC-2nyLWAg","IndianOil","Ward No 5, Jamnagar, Gadu, 8/163, Jamnagar","21.6472065","69.6036065"
"ChIJnVPq0ho1VjkRKmuhsSaCwKY","SHREE AAVAL PETROLEUM(B.P.C.L)","MJ8G+WJ6, Porbandar - Adityana Road, Pandavadar","21.6679587","69.6259204"
"ChIJiT2880o0VjkRICHMQEZD8Z4","GFCCA DIESEL PUMP","Lakdi Bandar, PGVCL Udhyog Nagar, New Kumbharwada, Bhatia Bazar Old, Porbandar","21.6484337","69.59936569999999"
"ChIJ7-87s9A1VjkRUtf-glrlG9g","Hindustan Petroleum Corporation Limited","Ground Floor, Bus Stand, near Bokhira, Oum Nagar, Porbandar","21.6615264","69.6065946"
"ChIJKbL9SAA1VjkRj_6LG3Ux18w","Jiobp Porbandar","MJ64+JF2, Bokhira, Porbandar","21.6615211","69.6061519"
"ChIJ18wzjbA1VjkRVURPKMMecEw","Reliance","India","21.6616306","69.6059442"
"ChIJRT-JG-HIVzkR_nMdn82eWZQ","Jio-bp","NH 8B, Rajkot Highway, Vadala, Porbandar","21.6587102","69.81603059999999"
"ChIJbZ-yN0rJVzkRrIdXi7gUuqc","IndianOil","Ground Floor, NH 8B, Ranavav","21.6596838","69.81020889999999"
"ChIJ0YC-chDJVzkRN8V28sqfaoE","Bharat Petroleum Petrol Pump","MQ7X+8RJ, Bhod","21.6633279","69.79950269999999"
"ChIJUcqAFh7JVzkRqhdXRkCaGv8","Hindustan Petroleum Corporation Limited","Survey No 347/P3 NH 27, Rajkot Porbandar Hwy, Ranavav, Bhod","21.6669656","69.7923285"
"ChIJiYYpZ53JVzkRpC_w-5aDeE0","Hindustan Petroleum Corporation Limited","Survey No 180 P2, NH 27, Porbandar Rajkot Hwy, Ranavav","21.673691","69.77787099999999"
"ChIJNQ1Ob0vCVzkRh-fvoyhJurg","Petrol Pump","J2H3+FR7, Porbandar","21.6286518","70.0045623"
"ChIJOYeb9rPDVzkR2t4HwJmcTtQ","Bharat Petroleum Corporation Limited Matruashish PETROLEUM","Kutiyana","21.6266034","69.9963946"
"ChIJczDWOgDDVzkRnX5jcavWHEM","Shiv petroleum HP","Krishna bulding matiruls, near Chauta, Chauta","21.6320193","70.02983309999999"
"ChIJNZdnIQDDVzkR87rqoGeV0Is","Shiv Petroleum","J2PQ+JXC, Chauta","21.63656559999999","70.0398934"
"ChIJyWC9ppLDVzkRE_Mvdp1neMU","Shree Ram Petrolium Adani Gas CNG Station","J2J9+62G, Thepada","21.631345","70.01709579999999"
"ChIJ0UyWW0bCVzkRGM2kE7E2Ao4","IndianOil","Plot No 98 Part Porbandar Rajkot Highway,Chikhlodra, Kutiyana","21.63124999999999","70.017074"
"ChIJWdQzmb_DVzkR8-sE9cAgceM","Hindustan Petroleum Corporation Limited","Ground Floor, NH 27, Teri, Kutiyana","21.629774","70.01253849999999"
"ChIJT53S0HTCVzkRQ09239cx1Fw","Maa Mogal Krupa Petroleum NAYARA Oil&gas","J2QW+8Q8, Kutiyana","21.638291","70.046956"
"ChIJo7iUElDpVzkRBtvrdjO3ZJk","Friendship Petroleum","J3W8+RP4, National Highway 27, Roghada","21.64702","70.06683749999999"
"ChIJOQFB9LnDVzkRZPaCIYoFTw4","Hindustan Petroleum Corporation Limited","Survey No 1, Paiki 1, Khageshri Road, Kutiyana","21.6262524","69.9895007"
"ChIJI2dCBgDDVzkRCp9QesV5R3A","Shiv petroleum HP","JXFM+G8G, Kutiyana","21.6238149","69.9833215"
"ChIJH5d9bADzVzkRttp1GOJhDf4","Nayara Energy Manmit Petroleum","P6HX+WR4, Upleta","21.7298006","70.2489608"
"ChIJ05MChGHyVzkR-E9hAKSaOOs","Balaji Petroleums","P7J8+XGJ, Porbandar Road, Upleta","21.7324728","70.2662513"
"ChIJ_00wkwD1VzkR3qJk-Fb0-qA","IndianOil","Ground Floor, Superdi, Dhoraji,Kharachiya, Supedi","21.760077","70.379239"
"ChIJv5K7Bb0ZWDkRPBsdVwa-Sdg","Hindustan Petroleum Corporation Limited","Ground Floor, NH 27, near Rajkot Porbandar Highway, Dasi Jivan Para, Jetpur","21.753519","70.5884138"
"ChIJBY4_L8cZWDkRb5trgzLEf8I","Gujrat gas","India","21.75921229999999","70.6004205"
"ChIJJxjVRQAZWDkRlANbtvzABrQ","Kantiben vikani","QJ44+CRM, Patel Nagar, Jetpur","21.7560961","70.6070439"
"ChIJzcuxeiQaWDkRXbGwsYFANMc","Maruti Petroleum - Bharat Petroleum (Petrol, Diesel & CNG & EV)","246/2, NH8D, Near Jetpur Bypass, Jetalsar Road, Jetpur","21.7193585","70.590519"
"ChIJDcspszoaWDkRnIFO4O8nCKA","IndianOil","Rajkot, Survey No 304 Jetalsar, Ambardi,Jetpur","21.7158358","70.585256"
"ChIJF1goIAAZWDkRfB3n27XGqVk","Reliance Petroleum","opposite Collage, Jetpur Junagadh State Highway Junaghadh Road, opposite Collage, Jetpur - Junagadh Highway, Jetpur","21.749074","70.6157253"
"ChIJUSDpUuEZWDkRfI6or2s7yjw","Nayara Petrol Pump - Parv Petroleum","opp. bosmia college, Junagadh Road, Junagadh, Jetpur","21.7493665","70.6157935"
"ChIJ9Z6PdNQ9WDkRU3E2pliq5mc","Hindustan Petroleum Corporation Limited","Ground Floor, NH 27, Rajkot Porbandar Road, Gomta","21.87612","70.71122"
"ChIJ6dQA_y4WWDkRhJUR3N-s--8","Bharat Petroleum (BPCL) - Swapna Petroleum","NH-27 Near kagwad Patiya Jetpur Road, Kagvad Road, Virpur","21.8219121","70.6779818"
"ChIJS4iMNS4WWDkRv5xde-fH3qk","IndianOil","Ground Floor, NH 8B, Kagvad","21.8204586","70.67787919999999"
"ChIJixUD2C09WDkRkd0yQ9x6u7s","Jay Parshuram Enterprise","RMMQ+J3J, Virpur","21.8340768","70.6876475"
"ChIJgX5vVxY9WDkRwcdBuke8_J8","Gujarat Gas CNG","VP84+6R, Virpur","21.8655641","70.707062"
"ChIJRREnD3kXWDkRYDYLP0pv41k","SHREE DWARKESH PETROLEUM BPCL","opp. KING WATER PARK, NH-27, JETPUR, opp. KING WATER PARK, opp. HOTEL AMARDEEP, HIGHWAY, Virpur","21.8305939","70.6848097"
"ChIJ3zdyvZA9WDkRKnlcgEenMek","Hindustan Petroleum Corporation Limited","Ground Floor, National Highway 27, Gomta, Rajkot","21.871073","70.708317"
"ChIJp48S-mkXWDkRswKlWM7uCXQ","Gujarat Gas CNG Station - Kishan Trade Co.","Porbandar - Veraval Highway, Kagvad","21.8172563","70.6734331"
"ChIJSW8iApU4WDkRb9ThK8BuyA0","HP PETROL PUMP - SHRI KHODIYAR PETROLEUM","Survey NO. 476/2 Paiki Plot NO. 11 ON Road, Gondal, Gundala Road, Gundala, Rajkot","21.9609423","70.79078919999999"
"ChIJE6ALfok4WDkRgQ08-UDBFOo","IndianOil","Ground Floor, NH 8B, Ambardi, Gondal","21.994843","70.796719"
"ChIJaU13zqY4WDkRf8qYciUgD8k","Hindustan Petroleum Corporation Limited","Plot No 1 & 2, Moviya Road, Gondal","21.954473","70.8083051"
"ChIJ82xBGIBHWDkRLdYzaGpiecQ","SHREE PETROLEUM","Gondal Atkot State Haiway Ghoghavadar, Road, Gondal","21.9587567","70.8192407"
"ChIJcaZMYXk5WDkR-eJcRTs6e20","Jio-bp","Prakash Bhavan, Palace Road, Gondal","21.9538685","70.801671"
"ChIJz8QhmFxHWDkR24YY63jpovg","Hindustan Petroleum Corporation Limited","Ground Floor, SH 1, Gondal-Atkot Highway, Ghoghavadar","21.95718399999999","70.823088"
"ChIJxRPNw-A5WDkRdzi1Zk93cZ0","V. H. Kanji Petrol Pump , BPCL","XQ6X+RF5, Mahadev Bari, Gondal","21.9620157","70.7987315"
"ChIJv3xrCpA4WDkR8UbKxxiXKwA","Hindustan Petroleum Corporation Limited","Ground Floor, College Chowk, opposite Garasia School, Gondal","21.9683631","70.8011016"
"ChIJEzXQsi05WDkRY5p_03Oz-HA","Bharat Petroleum Corp. Ltd. Depot","XR22+28M, Dariyapir Street, Bhojrajpara, Gondal","21.95009139999999","70.8007901"
"ChIJLYSuMrxHWDkR_uNMSBccem4","IndianOil","Ground Floor, Ambardi, Gondal","21.95748","70.8265047"
"ChIJGfydeQA5WDkR9crLqVoLePg","Bharat Petroleum - College Chowk","XR92+V2M, Yogi Nagar, Gondal","21.9697125","70.8000469"
"ChIJOy9gHkhHWDkRn6Yk8wS1TOI","Shree Ram Agro Fuels","Dhareshwar, road, Chokdi, Ghoghvadar","21.957469","70.8265071"
"ChIJsdBrzF85WDkRZ9IPlvSlm9c","Adhiya & Sons","College Chowk, Yogi Nagar, Gondal","21.9700254","70.7996859"
"ChIJYVCIAZU4WDkRxTkEoKqaxqQ","Hindustan Petroleum Corporation Limited","Plot No 11, Gundala Road, Gondal","21.9612801","70.79078009999999"
"ChIJL0WPxb84WDkRcWlCbq5WPOU","માટેલ કેરી ફાર્મ","India","21.9575278","70.7904132"
"ChIJ4c60GwA5WDkRspSq4oCA2YQ","NIJANAND PETROLIUME ( NAYRA ENERGY )","XQ3Q+HXM, Jetpur Road, Shankar Wadi, Gita Nagar, Gondal","21.9539514","70.7899185"
"ChIJj_LWTnE5WDkRDdw10PqPyOY","IndianOil","near Shree Ram Bunglow, Ground Floor Gondal, Ambardi, near Shree Ram Bunglow, Gondal","21.960905","70.785849"
"ChIJP2BHfIk4WDkRG5yJ_sVFqIw","IndianOil","Ground Floor, NH 27, Ambardi, Gondal","21.9786","70.79429999999999"
"ChIJvWncu-04WDkR5hunklSr3cQ","Reliance Petroleum","Survey No 485/2, P NH 8B, near Marketing Yard, Gondal - Jamkandorana Road, Gondal","21.9672128","70.7835848"
"ChIJAYePp7NHWDkRii2mal7f27o","Hindustan Petroleum Corporation Limited","No 20/2/2, Kotda Sangani Road, Gondal","21.9866775","70.8133543"
"ChIJwZ1ldgBFWDkRX4e9o0sCWvo","Rameswar petroliyam","XW8H+H5F, Ramod","21.96644179999999","70.9279301"
"ChIJg7RiMI5FWDkRnNr4_c3OySA","Bharat Petroleum, Petrol Pump -Rathod Petroleum","Ramod Road","21.9681973","70.926018"
"ChIJQTU5C6VFWDkRo3-va49g3v0","VARNI PETROLEUM","near Ramod, Gondal-Atkot Highway, Ramod","21.9683153","70.9194595"
"ChIJxXze0qBGWDkRm8qBAHnNATI","Anil Filling Station Indian Oil Petrol Pump","Ghoghavadar, Rajkot, SH-1, Gondal Atkot Highway, Bhavnagar, Bhavnagar","21.966598","70.904729"
"ChIJeXEXshxZWDkR9hdhb5aCcrI","Bharat Petroleum Petrol Pump and CNG SATYASAI PETROLEUM","South Atkot, Near, Gondal Road, Gondal Cross roads, Jasdan","22.0235024","71.1251968"
"ChIJPSAeDgBZWDkRezR-g8gUMqU","NAYARA(RADADIYA PETROLEUM)","24FG+J4F, Virnagar","22.024062","71.1252925"
"ChIJMYdttOJYWDkROSJ-WjYXSYA","IndianOil","Ground Floor, opposite Police Station, SH 25, Bhavnagar - Rajkot Road, Rajkot","22.0122504","71.1459946"
"ChIJ2TAdJuNYWDkRK5n9D1XcZc0","Hindustan Petroleum Corporation Limited","Ground Floor, Atkot","22.011901","71.14840099999999"
"ChIJVypBX-NYWDkRY9sac8bOnjA","Patel Trector Garage","2562+Q7G, Near Atkot Circle, R.B. Highway, Atkot City, Jasdan","22.0119274","71.15071209999999"
"ChIJ406MH-VYWDkRdfB4_-RhNiM","Hindustan Petroleum Corporation Limited","Ground Floor SH 1, Jasdan Road, Atkot","22.0118577","71.1539066"
"ChIJh0-kJeNYWDkRposehLDyx8Q","HP PETROL PUMP GURUKRUPA PETROLEUM","S/No. 360 Paiki 2, Vill. Atkot, Taluk Jasdan, Shop No.1, Rajkot","22.0362415","71.1136436"
"ChIJW29SOd1YWDkRPAoCsCQxMAw","Vanaz LPG Pump","2524+57C, Atkot","22.0004341","71.155635"
"ChIJ-9WPqJZZWDkRKneCLXfCKx0","IndianOil","Survey No 239, Paiki 1 Jasdan, Atkot, Dabholi, Surat","22.000446","71.155711"
"ChIJjbCbxltZWDkRBSQzkBfU0Og","BHARAT PETROLEUM","Bhavnagar - Rajkot Road, Atkot","21.9985042","71.1584803"
"ChIJeb4U4L73WDkR1OmjxrjsvuI","Gujarat Gas CNG Station","Jasdan","22.051314","71.2190315"
"ChIJfSsE43D3WDkRrbjXhpRqKdA","BHAVANI PETROLEUM (KHANDA) HADMATIYA","Gujarat State Highway 1, Hadmatiya khanda","22.0783537","71.2536394"
"ChIJp25NNs73WDkR2uyphJ6zit4","GANGESHWAR PETROLEUM","Gangeshwar petroleum, gelasomnath road, AT:Shivrajpur TA:Jasdan, Jasdan","22.0444438","71.24614919999999"
"ChIJddvlHr_3WDkRlLu7S20ucnM","Hindustan Petroleum Corporation Limited","SH 1, Ground Floor, Jasdan - Vinchhiya Road, Jasdan","22.051431","71.218861"
"ChIJRVA5I7_3WDkRjTL4XBwgIlM","IndianOil","No 755/P1, S, Jasdan","22.0508558","71.2184791"
"ChIJI5Wlxar3WDkRUHkC4ayMaHI","IndianOil","Ground Floor, Bakhalvad","22.0535493","71.2149408"
"ChIJb7Dcx1j3WDkRH3-kA3L1L0A","IndianOil","Survey No 860/1 P3, Bakhalvad","22.041207","71.2218541"
"ChIJ152zWr_3WDkRTOn660Dfwis","SOMNATH PETROLEUM","Jasdan Bypass Road, Chowkdi, Ghela Somnath","22.0407033","71.2212423"
"ChIJwYPLKwD3WDkRaTEpIqVOTC4","Gas Godown","In Press Ground, Lati Plot, Jasdan","22.0381283","71.2146558"
"ChIJQ9qV-bP8WDkRrnzha28CjKc","IndianOil","Ground Floor, Jasdan, SH 17, Rd, Vinchhiya","22.205747","71.377268"
"ChIJVX5gnLX8WDkRjF0KnCMsKOk","ગુજરાત પેટ્રોલિયમ","India","22.2111264","71.3791894"
"ChIJv7jNU0vjWDkR-L2rrKhS2uw","Shree Suryanarayan Petrolium","State highway 119, Jasdan - Vinchhiya Road, Vinchhiya","22.20724","71.38275449999999"
"ChIJm2SnbgDjWDkRBKZxDBtAv7U","Hindustan Petroleum Corporation Limited","SH 1, Ground Floor, Jasdan - Vinchhiya Road, Vinchhiya","22.210237","71.390514"
"ChIJNTE84_jjWDkRzVET6UJ7Fxo","Bharat Petroleum Petrol Pump , SURYADEEP PETROLEUM and CNG Pump","VINCHHIYA TOWN, 1, Vinchhiya","22.2099898","71.391772"
"ChIJGYQya2TjWDkRvTm0fqimyvo","પાન સેન્ટર","India","22.1990084","71.4150583"
"ChIJQ1n_biHjWDkRr-OymTtDC3Y","Indian Oil Petrol Pump","6C79+47X, Thoriyali Bus Stop, thoriyali,jasdan, Gujarat State Highway 1, gujarat, Thoriyali","22.2128748","71.4182273"
"ChIJT0f9iZX7WDkRLVNGDN6w0LM","Hindustan Petroleum Corporation Limited","SH 1, Ground Floor, Jasdan - Vinchhiya Road, Amrapur","22.173387","71.353303"
"ChIJQUdfQofgWDkRJ3UL_-CVfto","Bharat Petroleum","7H48+924","22.2558993","71.56508889999999"
"ChIJxRa8hfPgWDkR2uDlcrEEPvA","IndianOil","Ground Floor Vinchiya Paliyad, Highway, Bhadla Nana","22.248366","71.54498099999999"
"ChIJETiIZFPhWDkRKALHE9tkNsc","OM SHREE PETROLIUM","Om shree petroleum, opp. Chamunda enterprises, Vinchhiya Road, Paliyad","22.2305509","71.4846726"
"ChIJedTXtn_gWDkRHAd_n98kHTI","HP PETROL PUMP - SATYAVIJAY AUTO SERVICE","HP Petrol Pump Babarkot Paliyad, Ahmedabad","22.2585074","71.56875990000002"
"ChIJ0_4-PT8nWTkRU3iExdsDFaM","VISAT CNG Station (ADANI GAS)","8PJ3+HW, Alampur","22.3314673","71.7048387"
"ChIJUeaphX8nWTkRRpuAUtOh8FE","Shiv Shakti Petroleum-RAJPURA","Survey no 151 paiky 1, Paliyad Road, Rajapara, Ranpur","22.3317113","71.70500779999999"
"ChIJp-R7A4QnWTkRL_ao2M1AQMY","Hindustan Petroleum Corporation Limited","Survey No 624/1, Khata No 289, Paiki 2 Ranpur Paliyad Road, SH 1, Dhandhuka - Ranpur Road, Ahmedabad","22.346171","71.723801"
"ChIJZ9o669MrWTkRhOqv1hVLPqg","Hindustan Petroleum Corporation Limited","Survey No 172, P SH 1, Dhandhuka - Ranpur Road, Kotada","22.370134","71.931918"
"ChIJNUhakWwrWTkRpuOI9YP5mRE","Bharat Petroleum Petrol Pump , VISHVAS PETROLEUM","Paliyad Road, Botad","22.373407","71.94350399999999"
"ChIJxZRKHokrWTkR1Cd7rUO6mLY","Bharat Petroleum Petrol Pump , OM PETROLEUM","VILLAGE- VAGADDHANDHUKA, HIGHWAY, Raipur, Ahmedabad","22.36013","71.87339399999999"
"ChIJc27EKLPXXjkRyk10Ja3ux60","IndianOil","Survey No 35 Khadol, Adval","22.421333","72.057656"
"ChIJgUevCl3aXjkRd-7jVZsfjsA","Hindustan Petroleum Corporation Limited","Survey No 246, SH 01, Ahmedabad Dhanduka, Loliya","22.50076499999999","72.166977"
"ChIJQ48d_j3aXjkRzjpd2agSJks","Gujarat Gas CNG","F5J8+F69, Dhandhuka","22.4811536","72.1656168"
"ChIJ7wzC2R3aXjkRzvAqtDgrts4","Indian Oil","India","22.465253","72.1591085"
"ChIJhcVwRVbEXjkR0hJHM40AZO4","Hindustan Petroleum Corporation Limited","Survey No 17, SH 1, Gundanapara, Bamsara","22.6076353","72.1972803"
"ChIJmx71WuTEXjkRZN2dbYhrkmE","DEEPKAR PETROLEUM","Gujarat State Highway 8, Bagodara","22.5903898","72.1972806"
"ChIJrVSIEcfFXjkREajZq2i_K68","Reliance Petroleum","Survey No 638 Bagodara, Near Toll Naka, NH 8A, Bavla","22.6280879","72.1735236"
"ChIJ3wLiyC_EXjkREiUfUnqeYvc","Hamara Hindustan Petroleum","Bagodara, NH-8A, Ahmedabad Road,, Ahmedabad","22.641407","72.198442"
"ChIJH1p5XiTEXjkReCR3OJBpiEM","HP Petrol Pump","J6V4+M3C, Bagodara","22.644193","72.2051287"
"ChIJuahs_iPEXjkRWWFcrtTE8wU","Hindustan Petroleum Corporation Limited","Survey No 257/2P, near Nutan Hotel, NH No 8A, Bagodara - Vataman Road, Ahmedabad","22.6468601","72.2070701"
"ChIJWzJEcgbFXjkR18SkfO_Iiq4","Atul Petrroleum","Survey No. 391, Bagodara, Fedra Road, Dhingda","22.5903946","72.1973448"
"ChIJ5U80_g_FXjkRbDawnqUd0kM","Universal Petroleum","J5GC+283, Rajkot - Ahmedabad Highway, Bagodara","22.6250153","72.17079249999999"
"ChIJy5HKWL_FXjkRsuE_Bd1VqEo","IndianOil","Survey No 669, near Toll Tex, NH 8, Bavla, Bagodara","22.625028","72.1707938"
"ChIJc4wFGgDFXjkRJGRfR7nU9Ps","Diesel Pump ⛽","Rajkot - Ahmedabad Highway, Bagodara","22.6262171","72.1713164"
"ChIJgeC-3y_EXjkRpkIVth0rmIQ","SOMNATH PETROLEUM","J5RX+5P6, Bagodara","22.6404154","72.19926"
"ChIJOfUIUWnFXjkRtHxecH6BZDo","Hindustan Petroleum Corporation Limited","SR No 197/A2, NH 47, Jasdan - Ahmedabad Highway, Bagodara","22.6409964","72.1998062"
"ChIJpUF47xvFXjkR0kYX07JGs7w","AARYA PETROLEUM","SH NO.1 BHAVNAGAR AMRELI ROAD AT, Dhingda","22.5865901","72.19810509999999"
"ChIJdcGyGQDFXjkRYhjJjtESBLo","Bagodara vataman road","CNG Fuel Station, Bagodara","22.6424187","72.2092831"
"ChIJGz6sVQDFXjkRgw4U56dw_Uc","Keval petroleum Indian oil","J6V5+5C4, Bagodara","22.6428934","72.20857769999999"
"ChIJuU3RjZbFXjkRzl38scv3cv4","Anthem Gas Station","At, Bagodara Road, Tarapur, Bagodara","22.6430444","72.2084704"
"ChIJEbYbKHjEXjkRcAZ2O6-Eqhk","Indian Oil- Divyesh Petroleum","Divyesh petroleum Bagodara tarapur highway, Memar","22.6212319","72.2340949"
"ChIJl_B7P2KVXjkRXxtSXxMycA0","IndianOil","Survey No 3, Part No 5, Bavla, NH 8A, GIDC, Kerala","22.789604","72.3328015"
"ChIJ1TaTdJmVXjkRUi0nA4jUn8k","Hindustan Petroleum Corporation Limited","Survey No 3941, NH 8A, Bavla","22.815327","72.3503454"
"ChIJuUauFnqVXjkRxiVTLHkParo","Hindustan Petroleum Corporation Limited","Survey No 515, NH 8A, Bavla","22.7992501","72.3414801"
"ChIJZbbPfwCVXjkRPAACp-Q00OY","Jitu Raj","Q8FM+CJW, Kerala","22.7736196","72.334073"
"ChIJNc0uRwCVXjkRIUSytVHa27A","NA PARTY","R85W+6XR, Bavla","22.8081041","72.34739979999999"
"ChIJS0GUJ3GVXjkRfH8PjJeH4_o","Shell Petrol Pump","near Bavla, opp. Honest, Rajkot - Ahmedabad Highway, Bavla","22.8162708","72.34980949999999"
"ChIJUzIhqlGVXjkRHT58Qv3Mc5o","RADHE PETROLEUM","opp. Ramdev Namkin, Chiyada","22.7666236","72.35514690000001"
"ChIJg8-T1Lq_XjkRLTbkzrVJjF8","Hindustan Petroleum Corporation Limited","Survey No 226, Bavla Nalsarovar Road, Amipura","22.7871199","72.29105849999999"
"ChIJcc2he26VXjkRv8tjozZ6eFo","Shree shivalaya beej bhandar","Opp old, Dev Arcade, D 3, APMC Market, Bavla","22.8284076","72.359348"
"ChIJE19wBpGaXjkR-4Onz8UrN9g","Bharat Petroleum Petrol Pump And Online CNG Pump","Sarkhej-Bavla Road, Sarkhej, Ahmedabad","22.9759905","72.4882324"
"ChIJVVWV8DuaXjkR2wIrxezH58o","BPCL Petrol Pump","XCPV+4CQ, near bacha motors, sarkhej, Sarkhej - Sanand Road, Telav","22.9853346","72.4436046"
"ChIJgxF9u8eaXjkR9i_O5jKLU4M","Hindustan Petroleum Corporation Limited","Ground Floor, National Highway 8A, Sarkhej, Ahmedabad","22.9875701","72.5065801"
"ChIJeXQRnxKbXjkRuRoXRbEMNwc","Shell","Taluka Dascroi, Ambli Road, Ahmedabad","23.028103","72.48526"
"ChIJQYw2yoaQXjkRSCPlcFRewpc","Bharat Petrol Pump Navkar","XF39+5FC, S.G.Highway,, Ellisbridge, Ahmedabad","22.9529495","72.468633"
"ChIJa1lhZXWbXjkRdDQp4f9Cs7g","Hindustan Petroleum Corporation Limited","Survey No 61, near Sardar Patel Ring Road, 67/60, Bopal, Ahmedabad","23.0304051","72.4738759"
"ChIJOeDdzsuaXjkRH7s-zRAEfOU","NAYARA Petrol Pump","near Makarba Road, 4 rasta, Sarkhej Road, Quresh Nagar Society, Juhapura, Ahmedabad","22.99042709999999","72.5156236"
"ChIJO9K2u8uaXjkRt1JomxQDda0","Hindustan Petroleum Corporation Limited","Survey No, 103/P & 221/P, Sarkhej Vasna Road, Juhapura, Gyaspur, Ahmedabad","22.9909901","72.5165301"
"ChIJq6qqeiOaXjkRCzTHyrdTJZo","Hindustan Petroleum Corporation Limited","Survey No 148, SH 17, Ahmedabad Viramgam Hwy, Telav","22.9847811","72.4260353"
"ChIJ2yuupSmbXjkRUoXfjVibbVs","Shell","100, 100 Feet Anand Nagar Road, Prahlad Nagar, Ahmedabad","23.01214","72.5125"
"ChIJ-SQGSC-DXjkRUm7z3nm7lzQ","Adani Gas CNG Station","XFVX+J2R, Sarkhej, nr. Divya Bhasker, SG Highway Service Road, Makarba, Ahmedabad","22.9941239","72.4975079"
"ChIJM_NNXgCbXjkRUB4xh2Si5XY","ROYAL PETROLEUM NAYARA","1, Shantipura Circle, Sardar Patel Ring Road, Ahmedabad","22.9861387","72.4717339"
"ChIJ--2XiOCbXjkRBT6s_7ANkYI","IndianOil","Survey No 262, Sarkhej - Sanand Road, Ahmedabad","22.9869837","72.4816959"
"ChIJB6W-QC6bXjkRQHR3RP91P-s","TA Gas Technology Co.authorised CNG Kit Technical Centre of India","opp. Mamta Complex, F-5 Shanti Complex ,besides Jigar Motors, opp. Mamta Complex, Sarkhej - Sanand Road, Sarkhej-Okaf","22.98687379999999","72.4868068"
"ChIJrzsjcMabXjkRqGYWh_B9APo","IndianOil","Ground Floor, near Bhavani Tractors, NH 8A, Road, Sarkhej, Bavla","22.9862817","72.4876274"
"ChIJuwfnWQCbXjkRRQw842LRs4k","M&H Energy Stop","XFGC+4P, Ahmedabad","22.9752619","72.4718251"
"ChIJYyXMiJCbXjkRECjQwhJ_7UY","Hindustan Petroleum Corporation Limited","TPS No 204, FP No 308/2, VIP Road, Makarba, Ahmedabad","23.0101481","72.4750713"
"ChIJVygvNQCbXjkRZTGGAvIz6M4","Nayara Pump","Block-2, Aakash Tower, SAMATVA BUNGALOWS, Gaam, Block-2, SAMATVA BUNGALOWS Shop No - 05, Sola, Khadiya, Shela","23.007828","72.4586635"
"ChIJUZkNcOabXjkRkvUh8ui6UK4","N J PETROLEUM","opp. SAMATVA BUNGALOWS, PLOT NUMBER 320/A/2/3 FP NO 52/1, Club O7 Road, Shela","23.0078706","72.4584603"
"ChIJMbmLDwCbXjkR_4-fkwDlRik","Bopal Petroleum - Nayara Pump","2F68+G47, VIP Road, Ahmedabad","23.0112951","72.46530729999999"
"ChIJwelBibOCXjkRN6X6pPvIiig","Hindustan Petroleum Corporation Limited","Survey No 185, opposite green wood, 2/200, Sardar Patel Ring Road, Ahmedabad","23.1323101","72.524475"
"ChIJ5-8eHsopXDkROfKyr1UFbgE","IndianOil","block no 409, behind Trimandir Road, Ahmedabad - Patan Highway Road, Ahmedabad","23.176801","72.573801"
"ChIJjVqITACDXjkRsEQ-aCGeEu4","Indian Oil Petrol pump","Before Vaishnodevi Circle Flyover, Sarkhej - Gandhinagar Highway, Ahmedabad","23.141362","72.54498099999999"
"ChIJMyhtSwCDXjkRA_sKbrSMrIU","Petrol pump","4GRV+3XP, Vaishnodevi Mandir Road, Ahmedabad","23.1402151","72.54493839999999"
"ChIJwQ4Ktw8pXDkRUR4Zyd0VdL0","Bharat Petroleum, CNG & Petrol Pump - Jay Khodiyar Petroleum Service","KHORAJ, NH8C, GANDHINAGAR, Gandhinagar","23.1564956","72.55351449999999"
"ChIJC2rcBAApXDkRx7raa9AvmbY","Sabarmati CNG","5H43+M78, Gandhinagar","23.1566651","72.5531936"
"ChIJaWZVJQCDXjkRVy8jg3Yiobk","Nayara petrol pump","4HJ2+PR9, Ahmedabad","23.1317982","72.5521237"
"ChIJn3ubfACDXjkRF7k4TGfX-VQ","SHREE HARGOVIND PETROLEUM","Ahmedabad","23.1316971","72.5521184"
"ChIJzULXPiUoXDkRUFFRhQQVXW0","IndianOil","near Khodiya Station, Plot & Survey No 104/8, Amja, Khoraj","23.1633965","72.5542901"
"ChIJARXQruWDXjkRQAUneMNT63g","Nayra petrol pump ( Mahakali Petroleum)","opp. Hillock hotel, Tragad, opp. Hillock hotel, ring road, Ahmedabad","23.1330179","72.5634865"
"ChIJLRTo68CDXjkRNAfNMpkLMVQ","Hindustan Petroleum Corporation Limited","Survey No 433/2/2, FP97, TP 72 Gandhinagar, 200 Ft Sq Ring Rd, Ring Road, Ahmedabad","23.1333401","72.56856599999999"
"ChIJPWS4jIiDXjkR6W65lZfZz7o","Hindustan Petroleum Corporation Limited","Survey No 248/3, FP No 49, TPS 72, Zundal - Tragad Road, Tragad","23.127278","72.5676372"
"ChIJS3fGQ6mdXjkRqovxlZhkUFw","Hindustan Petroleum Corporation Limited","Survey No 70, 18, FP No 57, TPS No 236, Metre Road, Ahmedabad","23.140923","72.5164726"
"ChIJURD_oX6DXjkR6ajw4Gb9sEk","Shell","Jagatpur Road, Jagatpur Village, Gota, Ahmedabad","23.114502","72.537683"
"ChIJ_34aS9qCXjkR-bXHyLcs1rQ","Shell Petrol Pump","Jagatpur Road, Ahmedabad","23.111855","72.53522"
"ChIJQyUGLicpXDkRMt1wu-d6e24","Sabarmati Gas CNG Station","11/A, Adalaj Road, Adalaj","23.170496","72.576894"
"ChIJU1H90huDXjkRq4FLUOy8Q8E","Shell Petrol Pump","Ahmedabad - Patan Highway Rd Moje: Chandkheda, Ta:, Sabarmati, Ahmedabad","23.12549599999999","72.582982"
"ChIJWerL5yuDXjkRqLN-0HLCOAw","IndianOil","Shop No 41, Survey No 202, 1 & 23, Chandkheda, Ahmedabad","23.1251","72.58279999999999"
"ChIJ3VOUdACDXjkRLnvy-x1NCJs","HP PETROL PUMP","opposite Shell Petrol Pump, SHIVALAYA 24, BRTS Road, opposite Shell Petrol Pump, Chandkheda - Zundal Road, Chandkheda, Ahmedabad","23.1261816","72.5840614"
"ChIJq7IJ2nmDXjkR4HNBrnWeirI","R G ENERGY POINT","BRTS Road, Circle, near Zundal, Chankheda-Zundal, Ahmedabad","23.12589","72.58393"
"ChIJr2IPkQwrXDkRU7B2HpOgpVU","IndianOil","Ground Floor, Near GSCS, Sector 21 Road, Sector 19, Gandhinagar","23.2330851","72.6693667"
"ChIJH7-gUY4sXDkRineYYbjBdq8","Bharat Petroleum, Petrol Pump","PETHAPUR, MAHUDI HW, GANDH, Gandhinagar","23.2731206","72.671899"
"ChIJD7rSPpgrXDkRMfkPr7bx6m8","IndianOil","Ground Floor, GH 5, Sector 23, Gandhinagar","23.233588","72.65137399999999"
"ChIJu0MqUr0rXDkRTJ27KJPpWJs","IndianOil","Plot No 449, Sector 16, Gandhinagar","23.2321015","72.65009859999999"
"ChIJo9UhsN0qXDkR2Wr0M1WjWBM","Shree Siddheshwari Petroleum (BPCL)","opp. IIT On, 968/1/A 968/2/A, road, Gandhinagar","23.2061027","72.68840829999999"
"ChIJ81CaPrYrXDkR7F_ETrxYDcA","HP Petrol Pump","Near City Bus Stand, GH 3 Circle, Sector 6, Gandhinagar","23.2159511","72.6398672"
"ChIJlxONDiMtXDkRvk8HdVoAB3I","IndianOil","Ground Floor, G Nagar Road, Pethapur, Mansa","23.2656598","72.6667679"
"ChIJt9JWpsrUXTkRPjlV_UrrvDo","Nayara Petrol Pump - Bhola Petroleum -","Gandhinagar-Chiloda road Near APMC market, Alampur, patiya, Gandhinagar","23.2392606","72.71057170000002"
"ChIJJ-e6AFnVXTkRWKJVRDfwtIs","SHELL PETROL STATION","NH-147 Taluka & Dist, Gandhinagar","23.237028","72.713917"
"ChIJr85wbpIsXDkRjJulL5OhY_I","Hindustan Petroleum Corporation Limited","Survey No 1971 Paiki, Gandhinagar - Vijapur Road, Pethapur, Gandhinagar","23.2775901","72.675001"
"ChIJ1V0Oo34tXDkR_w5QM0tqqs0","BHARAT PETROLEUM","01, Gandhinagar","23.2612064","72.6419593"
"ChIJ9RE0sN0qXDkR0YymDIcBbR0","भारत पेट्रोलियम","6M4Q+C9W, Diversion Road","23.206122","72.6884525"
"ChIJ--0Ql3QsXDkRlcQDUwb6Unc","LPG Gas Filling","7J5R+V59, K Road, Sector 26, Gandhinagar","23.2596603","72.64048989999999"
"ChIJ1bguOeMrXDkRYTHV1xperxI","Gujarat Gas CNG Station","1, CH Road, Sector 11, Gandhinagar","23.2152742","72.6484945"
"ChIJQ-shJ7IrXDkRI2ECQ5aJcio","Hindustan Petroleum Corporation Limited","Ground Floor, 1, CH Road, Sector 11, Gandhinagar","23.2152301","72.6484701"
"ChIJqRO_-3IsXDkRg59eikP7UuE","Hindustan Petroleum Corporation Limited","Survey No 1028, near GSPL, Mansa - Gandhinagar Highway, Pethapur, Gandhinagar","23.263673","72.641831"
"ChIJY-gzLsXUXTkRR74gSRQma2I","Sabarmati Gas CNG Station","National Highway 147, Chiloda","23.2299768","72.7238624"
"ChIJZ7bYKgDTXTkRl0Y--2x4Ot8","Nayara Petrol Pump (Arbuda Petroleum)","8Q29+4J6, Chhala","23.3003217","72.7694315"
"ChIJKe42qU7TXTkRSDTloX1tzrs","Bharat Petroleum Petrol Pump , AMBICA PETROLEUM","VILLAGE CHHALATEHSIL, Gandhinagar","23.290542","72.76334299999999"
"ChIJdXG1WL3TXTkRdwuIeuwR0eU","IndianOil","Ground Floor, Chhala","23.318977","72.778358"
"ChIJd9Ae6R7TXTkRlxEsn11SRVw","Jio-bp","Survey No 968 Chiloda Himmatnagar Road, National Highway 48, Chhala","23.322088","72.7783298"
"ChIJr8u6tMPTXTkRY4z-HqDUyGs","Jio-bp pulse","Ground Floor, Mataji Temple, Survey No, opposite Giyod, 159/A, Dhanap","23.283821","72.761544"
"ChIJZeMh4JzTXTkRD-7UOEVTC1Y","Hindustan Petroleum Corporation Limited","Survey No 143, near Pandav Farm, Dhanap","23.281392","72.758271"
"ChIJWVlXvEfSXTkRGPh9CdYvCGM","Nayara Petrol Pump Shree Vijay Petrolium","Survey No 443 Paiki, N H 8, Chandrala","23.3298302","72.77861399999999"
"ChIJhdKZ_z_SXTkRvo2bzigFXFI","IndianOil","Ground Floor NH 48, Chandrala","23.3394087","72.78069409999999"
"ChIJl9ib0t7TXTkREHjKS9Kibgs","KARTAVYA PETROLEUM","survey no 250, Dhanap","23.2691787","72.7555599"
"ChIJX-551gbTXTkRYPhOE-7rlrk","Hindustan Petroleum Corporation Limited","Survey No 196, Dhanap","23.269308","72.75514299999999"
"ChIJw8AkLwDVXTkRB3KQwsT5DYY","DEF AdBLue","7Q82+QQH, Himatnagar","23.2669377","72.7519879"
"ChIJOzgINFDTXTkRXq08_AQJ1js","Hindustan Petroleum Corporation Limited","Survey No 404, Chandrala","23.344854","72.78451799999999"
"ChIJLc6pnSDPXTkRRF8St4aliTQ","Subodh Petroleum Hindustan Petroleum","Sabarkantha, NH-8, Sabarkath Road, Himatnagar, Himatnagar","23.4436","72.8517"
"ChIJD_yxE2_OXTkRolcw5gCvDmw","Hindustan Petroleum Corporation Limited","B No, 276, NH 8, Prantij, Oran","23.396125","72.819671"
"ChIJlbUlSADPXTkREUpCJBIDuZA","Jiobp Petroleum, Prantij","CRCP+9J3, Prantij","23.4206778","72.83756389999999"
"ChIJ98qlCADPXTkRNjNqFQU1h3Q","Shah Petroleum, Jio-BP Katpur, Prantij","Survey No.-318, near Kathpur Toll Plaza, National Highway 48, Katpur","23.4206059","72.8373095"
"ChIJyeoW0_bOXTkRGyUnhCv6Za8","Raj Petroleum","CRCP+8FG, Katpur","23.4208226","72.8361955"
"ChIJyV1sygDPXTkRuq6ciqZ4P-M","AIM Petroleum","National Highway 48, Katpur","23.4171011","72.834525"
"ChIJ98sSHQDPXTkRWhaNn2bQfM8","Nayara Petrol Pump","CVP3+M4V, National Highway 8, Tajpur","23.4367496","72.8528118"
"ChIJidcS9xrPXTkR7j0gsNVXasI","IndianOil","Ground Floor, Station Road, Balisana","23.431997","72.86126039999999"
"ChIJ-_FT4lLPXTkR4KZzfKOylK8","Hindustan Petroleum Corporation Limited","Ground Floor, NH 8, Prantij","23.443591","72.851731"
"ChIJddzxJCHPXTkROqdkmudnQLw","IndianOil","Ground Floor, NH 8, Balisana","23.4449117","72.855034"
"ChIJ830l0YHPXTkRxshoXWRs4dU","Keshav Energy","opp. IDBI BANK, Approach Road, Prantij","23.4427933","72.8583795"
"ChIJFRRMZqrPXTkRjOb-giJV5CE","Happy Shop HP Service Center Oran","Block 276, NH 8, Oran, Prantij","23.3957525","72.8198293"
"ChIJuzTbKnTPXTkRAAAAcNnzJQU","BPCL PRUTHVI PETROLEUM","CVFJ+88G, near GEB, HARSHOL ROAD, NAVA, Bakarpur","23.42330609999999","72.8808395"
"ChIJwzF6jum4XTkR98VsgIjLXBw","IndianOil","Ground Floor, Agiol, Mahavirnagar, Himatnagar","23.597608","72.967924"
"ChIJRa5TFT25XTkROgRvABjBt6s","Om Shree Mahakali Petroleum","cross road, Opp. Swaminarayan Temple, Towards Kankrol to Sahkari Jin, National Highway-8, Kanknol, Himatnagar","23.5807781","72.989133"
"ChIJXz09TP65XTkRPxjmzNW87eM","Dharti Fuel Center Hindustan Petroleum","At: JAWANGADH, HIMATNAGAR-SHAMLAJI N.H.NO.8, TA:HIMATNAGAR, DIST:S.K 383276, GUJ HN 8, Raigadh","23.5800523","72.9757886"
"ChIJ_4fyv7y4XTkRG6JbYoCwYkE","Hindustan Petroleum Corporation Limited","near Sahakari Jin, Survey No 870/1/Paiky, NH 8 Himmatnagar Shamlaji Hwy, Sahakari Jin Rd, near Sahakari Jin, Char Rasta, Himatnagar","23.581751","72.97415099999999"
"ChIJC5emy9yxXTkR_mRvAcVwapg","URJA PETROLEUM","nr. Naira Petrol Pump, Ilol Main Bazar, nr. Naira Petrol Pump, Davad Road, Himatnagar","23.5943366","72.97859729999999"
"ChIJ1c9UD__HXTkRYhY4iyI5Dbo","Aradhy Petroleum Nayra Petrol Pump","HX7P+FQ3, Piplikampa","23.563642","72.98692319999999"
"ChIJY4EK3JC4XTkR44JTiJdXZ6o","AMAZONE","India","23.5815395","72.96266469999999"
"ChIJX6NBSPW5XTkR1Rtau-AYUlo","IndianOil","Ground Floor Agiol, near Railway Crossing, Ambawadi, Mahavirnagar, Himatnagar","23.5984","72.96809999999999"
"ChIJM-3xxfC5XTkRc_QT1kCVhz4","Bharat Petroleum - Bhagwati Petroleum","THASIA ROAD, HIMMATNA, KHED","23.5885111","72.96123709999999"
"ChIJxRuyCri5XTkRZ9zc2Exm7Uw","Bharat Petroleum, Petrol and CNG pump-Jamalbhai U. Kadiwala","HIMMATNAGAR, NH8, SABARKAN","23.5788565","72.95834119999999"
"ChIJw-5SwpO_XTkR10kyZsP4kG4","Laxmi Petroleum","Plot No. 777/3, NH-48, Kankrol, Himatnagar","23.5828522","73.014663"
"ChIJeeYvOu64XTkRlbNFs7itP8Y","HP PETROL PUMP - PRATAPGARH MOTOR COMPANY","HP Petrol Dealer Himatnagar S.K., Palace Road, Gokulnagar, Ahmedabad","23.597993","72.95893099999999"
"ChIJhURh07W5XTkRp6QXBfCxOxI","ADHOC S D PETROLEUM & 1","Post Office Pratap Petrol Pump, Gandhi Road, Himatnagar","23.598108","72.95900449999999"
"ChIJtUdBBaC5XTkRvboU9b6ZtZk","Hindustan Petroleum Corporation Limited","Survey No, 2378 & 2379, Idar Road, Himatnagar","23.598124","72.958978"
"ChIJkVWlKqS5XTkRN_pGOAzlaBQ","PUJABEN PATNI","Post Office Ni Same, nr. Gandhi Road, Himatnagar","23.5982368","72.9590058"
"ChIJ694gr9i5XTkRb7jK54rm-ks","Mehta Automobiles","Mehta Automobiles, Autho.Dealer Indian Oil Corporation Ltd, N.H.8, Ahmedabad Highway, At, Piplodi","23.5701908","72.9543964"
"ChIJ_wGTCmvHXTkRwgpTEFysQFM","IndianOil","Ground Floor, Piplodi NH 48, Ahmedabad Himatnagar Hwy, Hajipur","23.5642137","72.9542744"
"ChIJey5xUQDHXTkRcRXMpr1bPpM","Jio BP","HX53+R7W, Himatnagar","23.5596114","72.9531914"
"ChIJ4a2uIc25XTkRRuTbvBZop6o","KUMAR PETROLEUM","Khed tasia road Besides prabhuta party plot, nava, Himatnagar","23.6190946","72.9829823"
"ChIJ_6_vqv65XTkRinyraEwtYoA","SARTHAK PETROLEUM","SARTHAK PETROLEUM Building, No303/3, Idar Road, N/H, Virpur","23.61491819999999","72.9642241"
"ChIJ8ytNWpmTXTkR1Z4GiIMhKgM","Hindustan Petroleum Corporation Limited","Survey No 309, Modasa, Gadhada Kampa","23.602684","73.217461"
"ChIJt8W2JTSTXTkRpbsZUzvgnlU","IndianOil","Ground Floor, Gadhada, Modasa Himatnagar, Shamlaji Road, Rajendranagar","23.600402","73.209628"
"ChIJuwkiUcSTXTkRoeMQS66cO3Y","Nayara Petrol pump - Jay somnath petroleum","Nh 48 Road, Sunokh","23.6184229","73.2758443"
"ChIJdWRya1-JXTkRYspCLn6jwm0","IndianOil","Ground Floor, Samalaji","23.7083","73.3903"
"ChIJh_CZewCJXTkR9kFiZA3s4lA","Gujarat Last Petrol Pump","PCH3+78J, Karchha","23.727975","73.403453"
"ChIJOcdSs22JXTkRSRJ50OdS_18","Reliance","India","23.7279452","73.4032914"
"ChIJLdmEVACJXTkRr2hoYzKkNcQ","Jio Oil Pump","48, Golden Quadrilateral","23.7278491","73.40303639999999"
"ChIJ5ay1PgCJXTkRO2O92yalMvw","Bharat petroleum Coco","PCJ4+4R5, Karchha","23.7302735","73.4070993"
"ChIJD5jZ5m6JXTkR8ihDtuQUjWc","IndianOil","Sabarkantha, Ground Floor NH 8, Shamlaji, Udaipur Ahmedabad Rd, Nava Manipur","23.7240082","73.4011154"
"ChIJ4_5LE2SJXTkRyXJ_eXYBPfw","Vaikunth Petroleum","NHAI 8, po, At, Rangpur","23.7311901","73.4124224"
"ChIJ78rERgCJXTkRfnBaRv_otcc","Shree shyam DEF uriya pump","P9GW+M9V, Nava Venpur","23.7267359","73.3959201"
"ChIJc70BRgCJXTkRE7usA0AaCWs","Shree shyam filing station","N H no 8, At navavenpur, Samalaji","23.7157053","73.39326989999999"
"ChIJzf1PGQCJXTkR1npclIukDME","Shree shyam DEF uriya pump","P98V+52C, National Highway 48, Venpur","23.715429","73.39250609999999"
"ChIJkak-pV2LXTkRxfGKrirsbfA","Hindustan Petroleum Corporation Limited","Sy No 11, Paiki 1, Ahmedabad Udaipur Hwy NH 48, Venpur, Bhiloda","23.7050701","73.391632"
"ChIJg0TwewCLXTkRQFBSglaBC3k","Shree shyam DEF uriya pump","M9QP+2G7, Nava Venpur","23.6875458","73.386304"
"ChIJ_yZ-hBxjZzkRm6RamFjHjsw","Shri Ashapura Delaer-Hindustan Petroleum","QGJ9+H43, NH-8, Bicchiwada, Dungarpur","23.7814","73.5178"
"ChIJw-5aYgFjZzkRDTFhbcR1QR4","IndianOil","Ground Floor, NH 8, Lehna, Bichhiwara","23.764013","73.483257"
"ChIJv9W6RvxiZzkRLYGmJU95zro","Hindustan Petroleum Corporation Limited","Ground Floor, NH 8, Dhamod","23.774001","73.508301"
"ChIJLY0mEP1iZzkRjPn6hayVpQE","Hindustan Petroleum Corporation Limited","Ground Floor, NH 8, Dhamod","23.77607639999999","73.5102086"
"ChIJgesJehJjZzkRZtrmRXipPk4","Bharat Petroleum, Petrol Pump -BP-Bichhiwara- Ii","BICHIWARA, AHMEDABAD UDAIPU, DUNGARPUR","23.7874245","73.4889863"
"ChIJ4x9X4pZjZzkR3fIqg9ICIE4","Essar Oil","QF6J+534, Lehana","23.76038429999999","73.4802076"
"ChIJrVgiv41jZzkRgXVTE4hlovI","Hindustan Petroleum Corporation Limited","Ground Floor, NH 8, Udaipur Ahmedabad Road, Bichhiwara","23.79023200000001","73.521682"
"ChIJycGWstKJXTkRbA48cxQQrvY","IndianOil - SWAGAT","NH 8 Ratanpur, Border, Khajoori","23.7530912","73.46599379999999"
"ChIJfXecPGyJXTkRa21xNpe3vnY","IndianOil","NH 8, Ratanpur Border, Khajoori","23.7525352","73.46498070000001"
"ChIJlWaZ78CJXTkR3GX88dp70QY","IndianOil","Ground Floor NH 8, Border, Khajoori","23.760597","73.453985"
"ChIJxcPoRCVjZzkRMRRbXAvQSvA","IndianOil","Ground Floor NH 48, Amjhara","23.8019572","73.5230648"
"ChIJb9T_5DKIXTkRHR68LHZVIJk","Bharat Petroleum, Petrol Pump -Omshree Filling Station","Ratanpur","23.7619748","73.4508462"
"ChIJh2aa6S9jZzkR_B0t-Ia6LhQ","BPCL Petrol Pump - BP Bichiwara","NH-8, Udaipur Ahmedabad Highway Near Neelgiri Hotel, Distt Dungarpur, Village, Bichhiwara","23.804026","73.523029"
"ChIJs3O8yVt8ZzkRq-A3dmkitCo","Hindustan Petroleum Corporation Limited","Ground Floor NH 8, Amjhara","23.86805009999999","73.527501"
"ChIJcasWN_d8ZzkRkEythWJEmHQ","IndianOil","near Bhairavji Mandir, Udaipur Ahmedabad Road, Amjhara","23.8556","73.52579999999999"
"ChIJTwq0HfF8ZzkRgP2tqTPbRSs","IndianOil","Ground Floor NH 8, Bichhiwara, Amzara, near Km Stone, 368 to 69, Dungarpur","23.85330099999999","73.5270101"
"ChIJG908axNjZzkRdyRTY9m4qyk","Hindustan Petroleum Corporation Limited","Khasra No, 693 & 694, NH 8, Baroti With Chak","23.838556","73.522926"
"ChIJl2rFvnCbZzkRk2h1NyVDi1o","Bharat Petroleum Pump","Peepli B","24.1227568","73.694273"
"ChIJI1mx9uWcZzkRE5nrYXzU80U","L AND R HP Petrol pump","3MFM+444, choraha, Rishabhdev","24.0727667","73.68283280000001"
"ChIJF9-HBzqbZzkRmvx3xy-5k8M","Hindustan Petroleum Corporation Limited","Ground Floor, NH 8, Kalawat","24.115551","73.697182"
"ChIJ81AJsJGcZzkRyR0qUUkpLDc","Reliance Petroleum","KHASRA NO. - 230, 231 , LHS TOWARDS :- UDAIPUR , NH - 8 , VILLAGE :- THANA TEHSIL :- RISHABDEO , DISTRICT:, Udaipur","24.0947448","73.6872704"
"ChIJkUYlI0qdZzkR5vlU5fRa9ck","Jio-bp","Khasra No, 230 & 231, Nh 8, Thana","24.0947778","73.6872222"
"ChIJq_KUfpGcZzkRQT43kkC4EsM","IndianOil","Ground Floor NH 8, Rishabdev, Balua, Kherwara Chhaoni","24.0921001","73.68560099999999"
"ChIJXWAwYlSbZzkRu7sLUq2KfVU","SHREE NEELKANTH FUELS","village- kalaliyakad Rishabdev udaipur rajasthan 313802 Rishabdev","24.1232324","73.6923523"
"ChIJtefVfEOdZzkRzyoEB70BZX8","Hindustan Petroleum Corporation Limited","Ground Floor, NH 8, Rishabhdev","24.082024","73.68588299999999"
"ChIJeRqGgO6cZzkRom3enw6PaQs","Bharat Petroleum, Petrol Pump -Deepak Filling Station","RIKABDEV, UDAIPUR","24.0801505","73.6860117"
"ChIJWficOUGdZzkRmzWeFpaaPqk","Bharat Petroleum, Petrol Pump -Rishabhdev Filling Station","PIPLIYA, RISHABDEO, UDAIPUR","24.0756019","73.6856701"
"ChIJTS-z67udZzkRovUu9rh_QIM","Bharat Petroleum, Petrol Pump -Kesariyaji Filling Station","KESHARIYAJI,UDAIPUR AHMEDA, UDAIPUR","24.071544","73.6828031"
"ChIJE2L2eQCdZzkRMaPjF97chW4","Assam Oil","3M9J+HG, Rayana","24.0689375","73.68131249999999"
"ChIJQdbqwkidZzkRCSc7HJbvrYY","IndianOil","337/1, Km Stone, Ground Floor NH 8, Near, Balua, Rishabhdev","24.0685502","73.68130099999999"
"ChIJZbl3FQadZzkRUr6E8c0Ep0s","Vartika HP Filling Station","Rajasthan State Highway 53, Rishabhdev","24.0618446","73.7004398"
"ChIJ189dFQCRZzkRiE0N1kp6XEs","BALAJI ADANI CNG PUMP","6M8W+XG3, Baroti","24.216694","73.696274"
"ChIJ5fi165GRZzkRTkMO25yxmuk","Petrol Pump","6M5X+2M9, Baroti","24.2075336","73.69924449999999"
"ChIJ3zGhNn6QZzkRj89zcQYhYxI","Bharat Petroleum, Petrol Pump, Cng Gas -Sugam Filling Station","PRASAD, UDAIPUR AHMEDABAD, UDAIPUR","24.2064334","73.69971190000001"
"ChIJw6iDj2ONZzkRQaBW6N8_0k8","IndianOil","Ground Floor, Bori Kuan, NH 8, Girwa, Tidi, Barapal","24.351171","73.64814009999999"
"ChIJ1X39Q7HyZzkRk9ZQ4wo2pYk","Kisan Seva Centre","9JQP+4R9, Bhinder - Udaipur Rd, Udaipur","24.3878","73.63709999999999"
"ChIJK4O7kpbzZzkRi44W6Ffepbc","IndianOil","NH 8, Udaipur - Ahmedabad Highway, Barapal","24.3972379","73.63465819999999"
"ChIJMebZd3PzZzkRmC0yCwy0ucc","IndianOil","Ground Floor, NH 8, Barapal, Udaipur","24.3996128","73.6327912"
"ChIJt5LdJ7LzZzkRBhN7PooWRL4","GATEWAY FUELS","NH, vill, Barapal","24.4014394","73.6321542"
"ChIJa-4D5oaSZzkRv36QSdzQWuA","Hindustan Petroleum Corporation Limited","Ground Floor, NH 8, Tidi Dam Road, Udaipur","24.341201","73.66160099999999"
"ChIJk_9nqIrtZzkRSu9wvFt9cUs","IndianOil","Ground Floor Kaya, Road, Dhundi, Ahmedabad","24.4516001","73.6537001"
"ChIJD7o-YADxZzkRPEDXaZe52zI","V max petroleum","FMV3+C8W, Lai","24.4936053","73.6533194"
"ChIJ6-ey5eHxZzkRWFdNVhamUoU","Dalal Fueling Station","FMV3+C8V, Lai","24.4936221","73.6533058"
"ChIJRceCMSHuZzkRI4sd0mh2pto","HP PETROL PUMP - CHOUDHARY PETROLEUM HOUSE","Ahemdabad Road, Udaipur","24.496775","73.6551574"
"ChIJJZR2ghHvZzkR_ON04NCUUUw","IndianOil","Gokul Village Road, Sector 9, Udaipur","24.5448526","73.7153842"
"ChIJQVWJ527vZzkR-JRTIpfF-ZQ","Hindustan Petroleum Corporation Limited","Ground Floor, Sector 6, Hiran Magri, Udaipur","24.559361","73.716871"
"ChIJYw4tP5foZzkRoT7DwSTHtok","IndianOil","Ground Floor, H Magri, Girwa, Udaipur","24.5674699","73.7761189"
"ChIJ11T2KNroZzkRHtZ1WZ18hls","IndianOil","Ground Floor Kaladwas, Girwa, Udaipur","24.5391","73.7620001"
"ChIJWZEmCavpZzkRKfVvH1WTcas","Nayara Petrol Pump - Shrinath Filling Station","Umarda road, Udaipur","24.5356389","73.7670387"
"ChIJMagXdMzoZzkRE9V3AxSjqbY","Hindustan Petroleum Corporation Limited","Ground Floor Kaladwas, Road, Eklingpura","24.549411","73.75195099999999"
"ChIJewCFak_vZzkR_rQE8e2iJZk","IndianOil","Ground Floor, Jaisamand Road, Dakan Kotra","24.5057911","73.737126"
"ChIJ46xLrxbvZzkR2NZJNK3WZ_4","Bharat Petroleum Petrol Pump , SHREE KISHAN FILLING STATION","Main Jhamarkotra Road, Udaipur","24.555521","73.73792999999999"
"ChIJ9Q4G2_XvZzkRQXzFs2dq5S8","BPCL Radhe Krishna Filling Station","Manwa khera, Pratapnagar, Eklingpura","24.5630044","73.740073"
"ChIJ2W30PwDvZzkRgBKXRQ-ltMk","Girja Vyas Petrol Pump - RK Puram,Udaipur","GPV8+X47, Gokul Village Road, Gokul Village, Sector 9, Udaipur","24.5449036","73.7153039"
"ChIJN5QQPELvZzkREp9XtX8oqlo","IndianOil","Ground Floor Jhamarkotra Road, Hiran Magri Main Road, Manva Kheda, Udaipur","24.5594001","73.726101"
"ChIJDyvUjGnvZzkRVmbWPh25nTg","Essar Fuel Station","Sector 6, Udaipur","24.5582622","73.7227554"
"ChIJCS0Lw-fpZzkRWELBqgW4WYM","Hindustan Petroleum Corporation Limited","Ground Floor, opposite Reliance Chemotex, Transport Nagar, Udaipur","24.567438","73.761777"
"ChIJz_BTdZDpZzkRTaxVSr0iq44","IndianOil","Ground Floor Bhoiyon Ki Pancholi, Kanpur","24.5671483","73.7645291"
"ChIJ18nVVA7vZzkRrHIy8vLFu_E","Hindustan Petroleum Corporation Limited","Ground Floor, Jaisamand Road, Savina, Udaipur","24.5419101","73.7095701"
"ChIJVx6sclTvZzkRGfJJH1HLhRw","Shree Ramkripa Filling Station","HPCV+V9R, Road Number 1, NH-8, Square Near FCI Office, Madri Industrial Area, Transport Nagar, Udaipur","24.5722437","73.74339499999999"
"ChIJF-kv0G3kZzkRp83Y3AZlQCc","Hindustan Petroleum Corporation Limited","Ground Floor, opposite Zohra Marble, Amberi","24.6533746","73.7191259"
"ChIJW4CtR9zlZzkRoed-bZ7qmWU","DEBARI GATE FILLING STATION 2","MP3J+7XX, Dheekli Road, Udaipur","24.6532303","73.7324759"
"ChIJQcsQfpvlZzkRpNW9cfrrAOI","Diamond Motors BPCL Petrol Pump","Sukher Road, Sukher","24.6469671","73.71839659999999"
"ChIJp6S1UBDlZzkR_Hj4caMnVNc","Eklingji Service center","NH 8, Sukher, Udaipur","24.6389352","73.7154031"
"ChIJs6vOCDrlZzkRi-WAsUdMKTo","R.K. Fuels","near bank of baroda, Sukher Road, Udaipur","24.6379514","73.7158884"
"ChIJt8N6S9rlZzkRdSKYudxhQ2E","Fuel Marchant","Lakhawali Road, Bedla, Udaipur","24.6467816","73.6905902"
"ChIJsZavcQDlZzkROzMhT_VTiUY","IndianOil","Ground Floor, NH 8, Bhuwana, Udaipur","24.629311","73.711775"
"ChIJMeo2cgDlZzkR3ey06x82xNA","Cng pump","Indian Oil Corporation, Ashok Chowk, Adarsh Nagar, Jaipur","24.6292438","73.7117659"
"ChIJQ-ESO07kZzkRAkKeZzMzSSM","Amritdhara Submersible Pumps","JPH7+48G, Sulabh Shochalaya Road, Sukher","24.6278219","73.7133422"
"ChIJ-wBsDMjnZzkR1FcZlr2bS3M","DEBARI GATE FILLING STATION","JQM3+2XW, VILLLEGE VADA, DHINKLI","24.6326046","73.7549628"
"ChIJmTmrDQnlZzkRWVD1w_tEnVo","New BPCL petrol pump Meera Nagar Bhuwana","JP97+7F9, Bhuwana, Udaipur","24.6181543","73.7137398"
"ChIJZ3Mp6wvhZzkRH95HptI_3cM","Bharat Petroleum petrol pump, City Connect Fuels","opposite vaishno devi temple, Nh58, opposite vaishno devi temple, Rajsamand","24.7497121","73.7563399"
"ChIJ3T5jpKnhZzkRZpVH0zLCPQo","IndianOil","Ground Floor, Ilera","24.7521599","73.759214"
"ChIJdYld21bjZzkRigUAFYy3gXw","Royal Biodiesel Feeling Station","Opp. Prem Sagar Dhaba, NH-8 Eklingji Bypass,Nathdwara, Road, Udaipur","24.7238518","73.73163810000001"
"ChIJqXJiWAALaDkR44cFNQg6gRc","AVVNL RSEB office","QQJ2+H28, Majera","24.7814116","73.7500761"
"ChIJxScY3vQLaDkRMroPHHch68I","Shree Mohan Filling Station","Bijli Vibhag Office, Old N. H. -8, near Police Station, near State Electricity Office, near Panchayat Samiti Office, Road, Delwara","24.7820414","73.7487278"
"ChIJs7PKIgDjZzkR0dTdTrkyO3k","SHREEJlCNG","NH 8, NATHDWARA ROAD, Mohanpura","24.710505","73.73172269999999"
"ChIJqwGNZaTjZzkR0bYUIL_iBJ4","IndianOil","Ground Floor, Mohanpura","24.71049290000001","73.7314253"
"ChIJqQHdy14LaDkRc92sSyhkvlg","IndianOil","Ground Floor, Nathdwara, Delwara","24.78776199999999","73.75253"
"ChIJF6-s0TwKaDkRAAAAsNq1lwU","Smart Fuel India","Shop 1, Udaipur","24.79028319999999","73.7601024"
"ChIJ615p6jgNaDkRy7qLHhBgPYE","Bharat Petroleum","bus stand, near Axis Bank, Nathdwara","24.9305653","73.8257592"
"ChIJB8no3EYNaDkRSWNsYFmDsRc","Prabhu Lallohar","WRPG+95X, Rajsamand - Ajmer Road, Shiv Nagar, Nathdwara","24.9359805","73.8254963"
"ChIJPTPQx8gNaDkRMQPLjkLGEck","IndianOil","Ground Floor, NH 8, Nathdwara","24.931401","73.826601"
"ChIJ6Rwz1y8TaDkRAq7ZqJxK1kc","Kohinoor Petroleum , Essar petrol pump","Kohinoor Petroleum, N.H. 8 , gunjol, Nathdwara","24.9631065","73.82986439999999"
"ChIJ-egs4QINaDkRuNcz1wxTfCs","IndianOil","upli oden, Nathdwara","24.9096703","73.8049309"
"ChIJ28ch1cBsaDkRITxOnQrbWg0","IndianOil","Ground Floor, Piparda","25.025801","73.85940099999999"
"ChIJXfyQNyptaDkRpkAzU2xwfBI","Bharat Petroleum & CNG, Tejpuriya","","25.0017928","73.8463104"
"ChIJUQLXBABtaDkR8cBvA1yL-CA","KANHAIYA FILLING STATION","opp. B.P. Petrol Pump, N.H. 8, Piparda","25.0211338","73.8569986"
"ChIJKUXENcRsaDkRuwNO1zQvV9I","Sbn electric works","opp. Kanhaiya bharat petrol pump, Piparda","25.0207498","73.8563745"
"ChIJhUHaSwBtaDkReiPpcLfhujU","(INDIAN OIL) MURLIDHAR FILLING STATION","NH 58, Rajsamand","25.0208535","73.8557376"
"ChIJD3YrK8dsaDkRtv066yqlUVw","Shiv Shambhu Filling Station","Piparda","25.01661379999999","73.85249259999999"
"ChIJXcEkWgBtaDkRhrMYyLO_gFw","Shri Shivanshika Filling Station - Indian Oil","229/30, NH 758","25.0263112","73.87638670000001"
"ChIJ-9HsWadsaDkR4hs71kZ7DCc","Jio-bp","KHASRA NO 1289, NH8, MILE STONE 207, VILLAGE RAJNAGAR, (LHS AJMER TO UDAIPUR TEHSIL &, Rajnagar","25.0512641","73.8586905"
"ChIJB5tABNhtaDkRTuovcC25ZRE","Hindustan Petroleum Corporation Limited","near Bus Stand, Ground Floor Nathdwara, near Bus Stand, Road, Kankroli, Dhoinda","25.045179","73.877451"
"ChIJQw6CgYFsaDkRUiwtOoYNf7E","Bharat Petroleum, Petrol and CNG Pump -Shrinath Filling Station","DHOINDA KANKRAULI, RAJ, RAJ SAMAND","25.0515454","73.88342"
"ChIJqwyO6HxraDkRpV5ne1AeNJI","Nayara Petrol Pump","Rajsamand, Mahaveer Nagar, kishor Nagar, Rajsamand","25.0573943","73.8788841"
"ChIJC0aM8HZraDkRRv_ESFjkysk","Bharat Petroleum Girdhar Petroleum","Shop No 2, near 100 Feet Tiraha, 100 Feet Road, Kankroli, Rajsamand","25.0557609","73.8840675"
"ChIJqyjBNfVraDkR7qu-gaTx7r8","IndianOil","Ground Floor, Jal Chakki, Kankroli, Rajsamand","25.0585686","73.88572789999999"
"ChIJm_pkZQBraDkREsUQi-5IIEQ","राजा राजसिंह चौराहा","SH 12, Mahadev Colony, Koyad, Rajsamand","25.0584452","73.8860282"
"ChIJAdIjD39raDkRfONWYdGvnNo","IndianOil","Ground Floor, Dealerjal Chakki, Kankroli, Sakroda","25.0579001","73.887101"
"ChIJLUhSUwBraDkRQmBwsl05ry0","Kelwada","3V8G+G7Q, Kelwara, Rajsamand","25.0663459","73.87572"
"ChIJs_zss9JnaDkRpe1vkV_xu9g","IndianOil","NHAI 758, Kunwariya","25.1177784","74.0406366"
"ChIJE9YeuJ5naDkRgLgmQMEeoKc","Essar Petrol Pump","4397+CJG, Phiyabari","25.118552","74.0640871"
"ChIJ2VhhG3BhaDkRGLnCDNvKKZ4","ANMOL PETROLEUM","NH-758 SANGAS, TEHSIL, Sahara","25.1282413","74.1738069"
"ChIJxczazXphaDkRayFa0tLEw_U","Sanwaliya Filling Station Essar Pump","45HF+G54, Udaipur Road, Potlan","25.1287672","74.17293769999999"
"ChIJvdLf-K2LaDkRxIzQPkhaLkE","रामदेव जी मंदिर। रामदेव नीवास","565G+V3M, Potlan","25.1597079","74.2251607"
"ChIJeeuTMAiLaDkRNf7pf0wDYMQ","Dilkhush Filling Station","568J+RPR, Gurha Khera","25.167103","74.2317542"
"ChIJ9ykIQF3taDkRxWeSapzCo00","IndianOil","Ground Floor, Gangapur Road, Karoi","25.2263848","74.4159366"
"ChIJ26Ob7c7taDkR8c63Kb4JO-E","Jai sanwariya petroleum","Parvatipura - Sangwa Road, Karoi Kalan","25.2519545","74.4264551"
"ChIJb3Sw6gnzaDkR9LGa_Ai6zTg","Hindustan Petroleum Corporation Limited","Ground Floor, NH 758, Karoi","25.223101","74.40430099999999"
"ChIJsUqHuPrpaDkRipoHluAOOrs","IndianOil","Ground Floor, G 19, Pur Road, Azad Nagar, Bhilwara","25.3257232","74.58289959999999"
"ChIJLVpJCwnCaDkRpZrDlSKmagc","BPCL Petrol Pump","Sector A, Bapu Nagar, Bhilwara","25.3322866","74.5965487"
"ChIJ6fyH-YvpaDkRVqfepz7cJRE","IndianOil","India","25.3182845","74.5646015"
"ChIJo4lhZZTpaDkRrJ6T_IRUCrQ","Bharat Petroleum, Petrol Pump -Navkar Filling Station","NH-76, VILL PUR, BHILWARA, Bhilwara","25.3312752","74.566124"
"ChIJ18s6I-7paDkR9pt6ztEHU3Y","IndianOil","Ground Floor, Samori","25.337215","74.55369340000001"
"ChIJw8eDUaLpaDkRTMmlQ7IIrT8","Hindustan Petroleum Corporation Limited","Ground Floor Sambodhi, near Ratnakar Steel Plant, Jindal Road, Bhilwara","25.3369027","74.55313819999999"
"ChIJueC-cobpaDkRm8xunY9PZC8","IndianOil","Ground Floor, NH 79, Bhilwara Road, Pur","25.3213769","74.586953"
"ChIJF434cxrqaDkRhF9D8xpQmsg","IndianOil","Ground Floor, Bhadokhara Attoon, Pur","25.3032369","74.5777327"
"ChIJ-63SaGvpaDkRP3_q9kD08_Q","DEVILAL","8HJR+5HP, Sector 4, Patel Nagar, Bhilwara","25.3304669","74.59145389999999"
"ChIJE_2EG9rpaDkRTA_EHHwrxbQ","IndianOil","near Kalaji Palace, Ground Floor Pansal, near Kalaji Palace, Gaon Road, Azad Nagar","25.34930009999999","74.587001"
"ChIJP1_v87HpaDkRNetpGUfVWHE","HP PETROL PUMP - NAHAR FILLING STATION","Hpcl Petrol Pump Vill Sambodhi Near Meja DAM, Udaipur","25.3585783","74.54593779999999"
"ChIJBQLBygPpaDkR0f30I54wGyc","Hindustan Petroleum Corporation Limited","Ground Floor, near Meja Dam, Samori","25.358592","74.545928"
"ChIJ240y4mzCaDkRCbAc8Sf37gg","Hindustan Petroleum Corp. Ltd.","8JV5+26C, Pansal, opp. Bhopal Mining Works, Road, Bhilwara","25.3425627","74.6080084"
"ChIJidbSbgDDaDkRmuyXmjiIM6g","My Eco Energy Indizel","CH3W+73F, Jeepiya","25.4031981","74.5951705"
"ChIJExhYj0vdaDkRIe9kAkdLGZk","Petrol Pump Essar","Jeepiya","25.4139933","74.6112562"
"ChIJvYRTdk7daDkRw1QRy-tMc3k","Hindustan Petroleum Corporation Limited","Ground Floor, Bhadali Khera","25.414957","74.610901"
"ChIJaZ46YmTDaDkRy6afKahUoRw","Bharat Petroleum Petrol Pump , SHYAMAL ENTERPRISES","E25 & E26 MADHAVNAGARAMER ROAD","25.403471","74.61424099999999"
"ChIJ03b3bUXdaDkRkqDRyuqs42Y","IndianOil","Ground Floor, NH 79, Badali Khera, Azad Nagar","25.42252329999999","74.6071089"
"ChIJqYIMS2bdaDkR1_0P01rt06U","IndianOil","NH 79 National Highway, Chouraha, Mandal","25.4356124","74.6030674"
"ChIJa3LwzXnpaDkR4zbbkf17_Zw","IndianOil","Ground Floor, Azad Nagar, Malola","25.3847731","74.5821823"
"ChIJ8YYwtyvpaDkR3TlYPjLXvCE","IndianOil","Ground Floor, Azad Nagar, Malola","25.3847731","74.5821823"
"ChIJO6NadonpaDkR5WDa5AFFVes","Nayara Petrol Pump - Seth Filling Station","Village After Jindal mines, On NH79 Bhilwara BY Pass Near by Dhulkheda, Bhilwara","25.3832079","74.5801327"
"ChIJ_-h-IADpaDkRmwesxosWO-M","SETH FS","9HMJ+63V, Dhool Khera","25.3831178","74.5801826"
"ChIJG32kUADDaDkRL012t11vePU","Shankar petrolium indian oil","near kankeriya bavji, 200ft, road, Bhilwara","25.3747713","74.61059809999999"
"ChIJW9hWaA3DaDkR6otQ1uQff2Q","IndianOil","Ajmer Road, Bhilwara","25.3777054","74.6224381"
"ChIJLcv13_DpaDkRgG7pM7ZC9yQ","Hindustan Petroleum Corporation Limited","Ground Floor, NH 79, Narayanpura, Bhilwara","25.379701","74.578001"
"ChIJ_xus6wznaDkRUSx4KBtlCGs","Shree Bala ji Auto","Shree Bala Ji Furniture, Road, Bagor","25.4226402","74.56365540000002"
"ChIJx1G7XZDnaDkRDJCScFe7i4s","Hindustan Petroleum Corporation Limited","Ground Floor, Mandal","25.4399901","74.5790501"
"ChIJ14NbZazCaDkR-G8BKGz0M-M","Monit Fuel Station","near D.n. TaTa motors, National Highway 48, Bhilwara","25.3762808","74.5788732"
"ChIJixytbC5JbzkRzvQqgUuZIiE","IndianOil","Ground Floor, Bairan, Banera, Babrana","25.5343199","74.5886963"
"ChIJK1TZBnbgaDkRnKnbeAvAweQ","IndianOil","Jaswantpura","25.564022","74.5927588"
"ChIJOWWs30ThaDkRmfwODoezlS8","CNG & EV Petrol Pump, Bharat Petroleum, Satya Sai Filling Station","near NEW BHILWARA MIDWAY, NH-48, near NEW BHILWARA MIDWAY, Nanakpura","25.5193586","74.592016"
"ChIJqYSZfJ_gaDkRV6bmCNLOqGo","Jio bp","India","25.5238178","74.589643"
"ChIJNbCmRQDhaDkRAKohxN6JPoQ","C- 5 UMESH","GH9M+4VJ, kanchan marg, D - Block, Vaishali Nagar, Jaipur","25.5178414","74.5846551"
"ChIJgwxrqgThaDkROq2Eh_ZZewU","Reliance Petroleum","Khasra No 616, 753/424, Nanakpura","25.5241108","74.5808188"
"ChIJKbZ_iALeaDkROrYX4AT43lo","IndianOil","Ground Floor, Bhand Ki Bawdi, Mandal, Azad Nagar, Bhilwara","25.5098368","74.5935308"
"ChIJMfmnYgDfaDkR0EuLy6bZCdk","Monika Sharma","GHJX+4J3, Balesariya","25.5302717","74.5990492"
"ChIJId5O7vfdaDkR2M-queB6rRE","ESSAR Pump- Dalmia's petrol pump","National Highway 48, Ramsinghpura","25.4961421","74.5997814"
"ChIJx6MNTVzdaDkRHTsVT-irpwM","INDIAN OIL","NH 48, Bhilwara","25.4929818","74.602409"
"ChIJEWDrfhzdaDkRuue4abHSnr4","M/S KHURD MATAJI ENTERPRISES","National Highway 48, Danta Nilawari","25.4898385","74.6033336"
"ChIJL4o-K_DdaDkRTgq34X2ypEI","HP PETROL PUMP - DAKSH PETROLEUM","Ground Floor, NH 79, Ramsinghpura","25.487661","74.604651"
"ChIJt4da7y3naDkRPGgoxvPrLAM","Sukhwal Petroleum","Mali Khera","25.4916348","74.5565539"
"ChIJZ-QAhjDnaDkRxkQQl_q7NPA","IndianOil","Ground Floor, Mandal, Beawar, Azad Nagar, Dhunwala","25.4863534","74.5611358"
"ChIJF6gM_mzhaDkRjNhh3Y5j9lU","Shri hari petroleum","NH 158, Dhunwala","25.5088654","74.5425779"
"ChIJm30IcQDhaDkRS7fnrzCvGEk","Gurjar filling station","NH 158, Dhunwala","25.5087769","74.542535"
"ChIJUeNux2o9aTkRgKYzWGhUDwE","Hindustan Petroleum Corporation Limited","Ground Floor, Roopaheli","25.8045601","74.6158201"
"ChIJt5Iy-349aTkRiUQat1I-kHQ","Guru Panna Filling Center","Ajmer, On NH-79 Rupaheli Chouraha","25.824977","74.615471"
"ChIJg_sbW409aTkRVsfltp9nHTs","IndianOil","Ground Floor, Badla, Rupaheli, Hurda, Roopaheli","25.825077","74.615143"
"ChIJbzUcE_NDaTkRTJcEXTHoFFE","CNG PUMP BPCL MAHAKALIKA FILLING STATION","Kheri","26.0847376","74.6795195"
"ChIJZzD0PABDaTkRmTiThmRZb4I","Jai Jwala filing station","3MJH+V2C, Bandanwara","26.0821904","74.6775122"
"ChIJaac8pl5FaTkRUGDYV2QIdyY","Hindustan Petroleum Corporation Limited","Plot No 2717, Ajmer Bhilwara Road, Bhinay, Bandanwara","26.117863","74.69377899999999"
"ChIJW0LEQI5FaTkRdg2_PgZxo5Q","HPCL - Kishanram Mohanlal","bhilwara road, Bandanwara","26.117896","74.6938522"
"ChIJA1pVVHtDaTkRgdjpgDiiLLU","IndianOil","Ajmer, Ground Floor Chhachhundra, Bandanwara, Bhinai","26.1213603","74.6810424"
"ChIJ5bZYKWNFaTkRdhzDriaELaM","IndianOil","Ground Floor Chhachhundra, Bandanwara","26.101686","74.716157"
"ChIJuzzPzmpBaTkRmaZF4e2fOg8","IndianOil","National Highway 48, Gowaliya","26.0579063","74.6699027"
"ChIJp3b5splEaTkRsoCYzJLcT3A","IndianOil","Ground Floor, NH 79, Bandanwara","26.1317165","74.6965422"
"ChIJkVSdpbP7azkRqKyw3TsDlCA","IndianOil","Ajmer, Kh 732/201 975/200 981/211 Kishangarh, Udaipu","26.4897007","74.8267047"
"ChIJEV2ZcCb7azkRFLQ71dxv4ak","Hindustan Petroleum Corporation Limited","Plot No 2/598, Kishangarh Nasirabad Road, Udaipur Kalan","26.481852","74.822182"
"ChIJ68dJmI77azkRzLWiL1tj1nk","Hindustan Petroleum Corporation Limited","Plot No 2123 & 2124, Kishangarh, Tikawara","26.466579","74.83800099999999"
"ChIJ9WwXEkL7azkRvV5Rk9uZedg","Bharat Petroleum","India","26.4618385","74.80311309999999"
"ChIJN9fd_Rz7azkRjOs6IqtcVcQ","CNG Station Arihant Shree Nagar Ajmer","National Highway 48","26.4618159","74.80306569999999"
"ChIJWevUxBH6azkRF6bNhmVB20c","IndianOil","Ground Floor, NH 79, Dhan Mandi, Kishangarh","26.5316052","74.8585107"
"ChIJoZ06uBz3azkRBtJ-M7HYr9U","Hindustan Petroleum Corporation Limited","Plot No 248, Jaipur to Udaipur Road, Kishangarh","26.5908585","74.9084926"
"ChIJOX1lUcoJbDkR9LIqXYjNrzs","IndianOil","Ajmer, NH-8, Ajmer Road, Kishangarh","26.6072","74.9885"
"ChIJ0QOHL-D3azkRx3Khbbw4Dyg","Petrol Disal","NH 48, Nh8, Choondari","26.6002546","74.9601486"
"ChIJnYl8fAX3azkR4nOMkft2mWg","IndianOil","Khasra No 348/1 Patan, Kishangarh, Tiloniya","26.599916","74.963697"
"ChIJpTp7Rq0JbDkR4mEB21y_lHE","IndianOil","357/595, Km Stone, Ground Floor, NH 8, Patan, Khandach","26.6029001","74.968901"
"ChIJ_3iT0kj3azkRkSrzvhZ2v3Q","IndianOil","Khasra No 486/309 Tolamal, Kishangarh, Khandach","26.590768","74.918233"
"ChIJ4QLCXQD3azkRdeCufu_3jH8","IndianOil","Dhan Mandi, Khasra No 246/2 NH 8, Tolamal","26.59145640000001","74.91412489999999"
"ChIJs28GegD3azkRWK3fkFlsDfQ","Lpg pump ⛽","HWQ3+FF9, Naya Gaon","26.5887862","74.90371429999999"
"ChIJedisAAD3azkRu0sFG2Oefr4","S S. BALURAM CNG PUMP NH 8","HWQ2+G92, Kishangarh","26.5887803","74.9008298"
"ChIJU10fHgD3azkRhzC3-fapwR4","ONLINE CNG 24 hours","HWQ2+H44, Kishangarh","26.5888997","74.90032099999999"
"ChIJd9ueLB_3azkR58wd953MNjk","IndianOil","Ground Floor, NH 8, Dhan Mandi, Naya Gaon","26.5885653","74.900312"
"ChIJjzy0YgAJbDkRC1lSosNe478","VRL pump kishangarh rajasthan","JX6P+G5, Patan","26.6113125","74.9854375"
"ChIJP7H-l3gRbDkRC0RX83hoDjk","IndianOil","Ground Floor NH 8, Ajmer Road, Dudu, Dantri","26.66577699999999","75.201988"
"ChIJWdU688a1bTkR38Lhc5GLB5A","IndianOil","Ground Floor, Jaipur to Ajmer Road, Dudu","26.6639712","75.200344"
"ChIJ67m_Fu8RbDkR_sY3T3LJQJI","Bharat Petroleum, Petrol Pump -Kargil Shaheed Sumer Singh Fill Stn","Ajmer-Jaipur Expressway, ROAD, Patan","26.6628282","75.1948713"
"ChIJjdlJXP0TbDkRWlQqtB-19c0","Reliance Petroleum","KHASRA NO. - 752, 753, 754, 755, 756, 757, 758, 759, 760 & 913 , LHS TOWARDS : AJMER-JAIPUR , NH -8, VILLAGE :- DUDU , TEHSIL :- DUDU, DISTRICT:- JAIPUR PIN_C, Mahela","26.679117","75.23313"
"ChIJazoO6jcTbDkRBZd-SXO2UAI","Bharat Petrol Pump - DKMC","Bharat Petrol Pump, DKMC, Dudu","26.6792526","75.233092"
"ChIJlXK2FOMTbDkRi9qEV47YpKk","IndianOil","Ground Floor NH 8, Ajmer Road, Dudu, Dantri, Jaipur","26.680497","75.234382"
"ChIJ23Mldf4TbDkR67U3raUdSEU","Hindustan Petroleum Corporation Limited","Khasra No 7361, 7240, Mojamabad Road, Mojamabad, Dudu","26.678836","75.24211919999999"
"ChIJGcxAnDYRbDkR7rAZIAtRwgw","Hindustan Petroleum Corporation Limited","Ground Floor, SH 37A, Malpura Road, Dudu","26.6624513","75.2475855"
"ChIJXX84r4oRbDkRTzGMo38uZ9I","Nayara L R Filling Station","Khasra No. 752, 753, Padasoli, Tehsil. Dudu, Jaipur Jaipur, 754 & 1689, Village, Geji","26.6580205","75.1719646"
"ChIJOY5kbQATbDkR7BgyMQjm080","Nayara Fuel Station","M6QW+WX8, National Highway 48, Dudu","26.6897979","75.2474431"
"ChIJJ_nwN1s_bDkRRM0HLnIStdI","Bharat Petroleum, Petrol Pump -BP- Gadota 2 COCO","GADOTA OSTS, JAIPUR","26.7818946","75.3968955"
"ChIJrbp6EoQ_bDkRCgZwRf5IdIg","IndianOil","Ground Floor, NH 8, Delhi - Ajmer Expressway, Khandel, Mokhampura","26.776682","75.381333"
"ChIJN6mmBQA_bDkRXT2_GfJR6KU","जैन बल्क करियर पंप","Q9GH+2F9, Mokhampura","26.7750478","75.37872879999999"
"ChIJ_Y6DQ98_bDkReaVlwSw_Bps","Bharat Petroleum COCO Pump","Jaipur","26.785269","75.40973199999999"
"ChIJqQQLkI0_bDkRWccV6A7Wg-8","कुमावत स्टोन सप्लायर्स","Q9C9+J7W, Jaipur - Kishangarh Expressway, Mokhampura","26.7716147","75.3681931"
"ChIJZzzIjaBAbDkRW9ZJXrYYNSM","IndianOil","NH 8, Ajmer Road, Gadota","26.788403","75.41463100000001"
"ChIJ2THSbiE_bDkRqH4kxQaSKE4","IndianOil","Ground Floor NH 8, Ajmer Road,Khandel, Mokhampura","26.769527","75.366264"
"ChIJKc7M2lNBbDkRa6VXh2Eoams","Reliance Petroleum","Ratan, Khasra No 1109 & 1110 Mokhampura, Bichoon, Mozamabad","26.789929","75.35897899999999"
"ChIJ_TM4QqhAbDkRxV00sytidPo","H P","India","26.7901028","75.4244083"
"ChIJa-NcQqhAbDkRGVt9VSbdqrk","Hindustan Petroleum","India","26.7902827","75.4246771"
"ChIJmzJEUQBBbDkRFYRJy8NHeQk","Gadota Jaipur road","NH 48, Gadota","26.7909994","75.4248356"
"ChIJc0g6VIpBbDkR9PpVBUtrefM","Hindustan Petroleum Corporation Limited","Khasra No 1585, 1098 SH 57, Mokhampura - Phulera Road, Bichoon","26.792283","75.356346"
"ChIJHWgdtbNBbDkRW-RZ32bf-ok","Hindustan Petroleum Corporation Limited","Ground Floor Jaipur Ajmer Rd, Mozamabad, NH 48, Gadota","26.7907108","75.4257761"
"ChIJF6z52IY_bDkRuFPjqiFwOU0","Bharat petroleum","Q962+R9R, National Highway 48","26.7621115","75.35088309999999"
"ChIJGzTAbABHbDkRr6_o9_Pejt4","IndianOil","QCWP+544, Nasnoda","26.7951977","75.4350508"
"ChIJX7DhLxVIbDkRfpRSUOHsaPY","Gehlot filling station","National Highway 11C, Bagru","26.823577","75.54876900000001"
"ChIJOYfXJyVIbDkRv_tC2igSz2g","IndianOil","Ground Floor, Garhranoli Bhandarej Road, Ajairajpura","26.8132054","75.5598457"
"ChIJzSsjaw1IbDkRvjCkVn6Yp5w","Bharat Petroleum Pump, Bagru Khangarot Brothers","Bagru","26.8215473","75.5378588"
"ChIJ8XGFub1JbDkRxsumew6PRz4","Bharat Petroleum","B-98, National Highway 48, Harchandpura at Deoliya","26.8365865","75.59548749999999"
"ChIJoTQ61B5JbDkR8c1Zvvq0htY","Jaipur Golden Bagru","RHG6+22Q, Unnamed Road, Dahmi Kalan","26.8250864","75.560099"
"ChIJB-4YMBVIbDkRo5es1IUtY-o","Bharat Petroleum","India","26.8235876","75.548808"
"ChIJ_2fabgBJbDkRphlW9ngeIms","Texaco","RGFW+7P5, Ajmer-Jaipur Expressway, Bagru","26.8231121","75.5465804"
"ChIJt7kKWFQRbDkRMi3to0QMiTA","IndianOil","Ground Floor, Ajmer Road, Rampura","26.8333016","75.58096809999999"
"ChIJg0h5UC1JbDkRhcjTIGH5myk","Solanki Bharat Petroleum","Bagru","26.8096521","75.5627639"
"ChIJM6OiRBNIbDkRmwm7F_VpACQ","IndianOil","NH 8, Ajmer Road, Kalan, Bagru","26.8227996","75.5443945"
"ChIJEyfP2x5JbDkRU9HwscYbgAg","Bharat Petroleum, Petrol Pump -Gehlot Filling Station","NH8 DHAMIKLA BAGRU JPR, JAIPUR","26.822214","75.5420027"
"ChIJcXQ8q7BJbDkRijsSjbeU_oM","Hindustan Petroleum Corporation Limited","Ground Floor, NH 48, Jaipur Ajmer Road, Bagru","26.833861","75.585601"
"ChIJtcEtbXJJbDkRig3Pl-f08nc","IndianOil","Ground Floor Begus, Ajairajpura","26.860239","75.54938899999999"
"ChIJ98Dn2xhJbDkR4oSDzYJTJmk","Jio-bp","next to Varun Beverages Factory, No 451/279, 453/279 Urf Nada, next to Varun Beverages Factory, Sanganer, Bagru","26.838741","75.602441"
"ChIJmxK0QRs3bDkRw24R08LNZI0","Hindustan Petroleum Corporation Limited","Ground Floor, Sanganer, Palri Parsa","26.8023381","75.5984531"
"ChIJQaE79wA3bDkRhl_fszAFfZA","IndianOil","Ground Floor, Paldi, Bhamod","26.79860799999999","75.597415"
"ChIJ2R_l6HRJbDkRIgTFmPpe1Gk","IndianOil","Ground Floor, Road, yam Nagar, Sanjharia, Theekariya","26.8561527","75.5992679"
"ChIJO0DNWQBJbDkRLlU86FDzenA","Bharat petrolium pump","VJ32+VQR, Sanjharia","26.8547436","75.6018998"
"ChIJ8-xBPwBJbDkRydM1X98-fAM","Chhitar mal kalyan shay and sons","VJ32+VR, Harchandpura at Deoliya","26.8547238","75.60211690000001"
"ChIJTTNpUJVIbDkRzQvIVoFDtts","Hindustan Petroleum Corporation Limited","Ground Floor, Road, Bindayaka, Bagru","26.8698901","75.5503401"
"ChIJzwWih0lKbDkRLJKs1Kek-bM","Hindustan Petroleum Corporation Limited","Ground Floor, Jaipur Ajmer Road NH 48, Bagru, Ramchandpura","26.8523868","75.6461622"
"ChIJdWouoiNLbDkR7UNW6X8zsjQ","Hindustan Petroleum Corporation Limited","Ground Floor, NH 48, Bagru, Jaipur - Jodhpur National Highway, Bhakrota, Jaipur","26.8726606","75.7016634"
"ChIJzyeymCpLbDkRDcIZYW0FgE4","Krishna Indian oil petrol pump","Village-Mahapura, On, Jaipur Ring Road, Jaipur","26.8478753","75.67763819999999"
"ChIJNc61iSFLbDkRYr0KgHV50cM","IndianOil","Ground Floor, Ring Rd, Bhambhoria, Mahapura","26.8479371","75.6773384"
"ChIJ4UlL_Sg2bDkRzojx55umeRw","IndianOil","Ground Floor, Mahapura Road, Chirota, Kalwara, Bhamod","26.84564009999999","75.6678137"
"ChIJWQp71z5LbDkRadn0E3E0PrA","Bharat Petroleum","VM5H+R35, Unnamed Road","26.859506","75.67774419999999"
"ChIJ9_eQy6pLbDkR1j48_S2vLu0","Hindustan Petroleum Corporation Limited","Ground Floor, NH 48, near Pink Pearl Water Park, Bagru, Jaipur - Kishangarh Expressway, Narsinghpura, Jaipur","26.85971229999999","75.6662351"
"ChIJOZbOcgBLbDkRmj1EkHPb1_8","Bharat Petroleum भारत पेट्रोलियम","VM6F+F44, Kalwar Rd, Gopal Pura Mode, Jaipur","26.8610546","75.6679636"
"ChIJ2yAyUHBLbDkR5Rqf01bI9Bw","IndianOil","Pintu filling center, near bhankrota, NH-48, Ajmer Road, choraha","26.8646568","75.6811594"
"ChIJpwKTYABLbDkRsx9zDEwBr7o","Rupbas","VM7M+VR7, Bhakrota, Jaipur","26.8646639","75.6845355"
"ChIJ0f_cH-lLbDkRIWtCQYmZ0xQ","Nayara Petrol Pump","VM8J+8RG, National Highway 48, Bhakrota, Jaipur","26.8655208","75.681863"
"ChIJvXDhHxxLbDkRLFw_Uog4ROQ","IndianOil","Ground Floor, near Powere Grid, NH 8, Ajmer Road, Bhakrota, Jaipur","26.8657558","75.684753"
"ChIJ90zw_2RLbDkRnGJbq6OOff8","Shree Raghunath CNG filling station","Ajmer Road ,Bhankrota , Jaipur Ajmer, highway, Jaipur","26.8671255","75.6856644"
"ChIJ4QDI5F5LbDkRIX2vLbd4aGw","IndianOil","Sanganer, Peepla Bharatsingh","26.8271874","75.6978015"
"ChIJi0x6MqFLbDkR45f4lm9Lc2g","Hindustan Petroleum Corporation Limited","Ground Floor, NH 48, Bhakrota, Jaipur","26.868644","75.691024"
"ChIJkWzyS0xKbDkRwSgYPlW_8ss","IndianOil","Ground Floor, Road, Narsinghpura, Ajmer","26.854001","75.652401"
"ChIJL-7hrhpLbDkRsDznUF0_VUE","Bharat Petroleum, Petrol Pump -Kissan Filling Stn.","RAMPURABAS DEOWALIA, Jaipur","26.853709","75.6491973"
"ChIJwzOOcABLbDkR3QgoT-VlUJE","Torrent PNG Gas Store Plant","Outside, Ashiana umang, Vertical Spine Road, Jhai","26.8246152","75.6554113"
"ChIJX8Rh9j6xbTkR4dPbsNWSde0","kailash chand & co","kailash chand & co. bad ke balaji stand thikariya ajmer road, Jaipur","26.849732","75.638213"
"ChIJ-a7yVgC1bTkRc0zCD78AZ-I","Banskhuwa filling station (Indian Oil Petroleum)","VP5G+339, Narayan Vihar, Jaipur","26.8570165","75.7254422"
"ChIJp169KHTJbTkRYK6IONpAXXs","IndianOil","Ground Floor, Lakhna Road, Sanganer, Jaipur","26.7431361","75.754048"
"ChIJVVPtJALLbTkRkYVsZUePOqs","Hindustan Petroleum Corporation Limited","Ground Floor, SH 12, Diggi Malpura Road, Sanganer, Jaipur","26.774201","75.754012"
"ChIJg0Cjs6HLbTkR_usAtaEZwfY","adhoc shree manphool f/s","near toll plaza, Ring road, Ratalya","26.7523868","75.7599591"
"ChIJcVyF7Z7LbTkRXEI1NErV1L4","Atul singhal","near TOLL PLAZA TEHSIL, SANGANER, Ratalya","26.7524287","75.75992889999999"
"ChIJ0YeImBnLbTkRkO0HIIr1FbM","Hindustan Petroleum Corporation Limited","No CH31, Plus 500, NH 148C, Jaipur Ring Road, Jaipur","26.752739","75.759801"
"ChIJ8efAQr_LbTkRqr-w0JBRb3c","VEERAJ OIL MILL","India","26.7604944","75.7828584"
"ChIJVS5k8rvLbTkRRaVvnBTp2Cg","Bajrag vihar","3rd, शिकारपुरा मार्ग, 67, Saipura Road, Vinayak Vihar, Sanganer, Jaipur","26.76848","75.7722675"
"ChIJ5-cVhu7LbTkRqA6bA9EPhuU","Hindustan Petroleum Corporation Limited","Khasra No 956, 90, Diggi Malpura Road, Sangane, Raghunathpura, Jaipur","26.76481330000001","75.7487883"
"ChIJweZ2FgTLbTkR0GMCCOkaM1g","Bharat Petroleum Filling Station","QP4V+J2R, Diggi Rd, Sanganer, Jaipur","26.7574752","75.7423046"
"ChIJiaaZOavLbTkRh0aXnsOcdf0","Bharat Petroleum","QQG7+FFH, Saipura Road, Saipura, Sanganer, Jaipur","26.7763956","75.76447859999999"
"ChIJMQuI0gjLbTkRq54rD36_pcI","Bharat Petroleum, Petrol Pump -Kailash Chand & Co","AJMER RD LHS JAIPUR, Jaipur","26.746607","75.7299127"
"ChIJszQ2D1bKbTkRciellpMfFA0","BHAGOTI FILLING STATION","35, Diggi Malpura Rd, Vinayak Vihar, Diggi Malpura Road, Vinayak Vihar, Jaranwala, Jaipur","26.7830894","75.7612279"
"ChIJfy9sXADLbTkR6fvG8YuOMRY","श्रीनाथ कॉलोनी","PPQC+6VW, Hargun Ki Nangal at Charanwala","26.7381154","75.7222175"
"ChIJm0R0HQDLbTkR1L5BfLdC32U","UNNATII Apurava ENCLAVE","QRG4+7M3, Govind Pura, Bambala, Jaipur","26.775108","75.806705"
"ChIJmcPAC1nKbTkROUkWZVNuW58","IndianOil","near Muhana, Ground Floor Kalwara, Sanganer, near Muhana, Mod, Jaipur","26.791907","75.764523"
"ChIJj3FQEwDLbTkR31rtx-q4RuA","NC SARAN FILLING STATION","PPQ9+6MM, Dabla Khurd","26.7380923","75.7191581"
"ChIJrU7kQTfPbTkRwZ9u2JwrvG4","Hindustan Petroleum Corporation Limited","Khasra No 307 NH 12, Sanganer, Shivdaspura, Ajairajpura","26.7317315","75.87224830000001"
"ChIJ6QSvj2XPbTkR6YNw845N3r0","Bharat Petroleum","Belwa Kalan, NH-12, Tonk Road, Jaipur","26.712885","75.88882699999999"
"ChIJab3QmMPIbTkRCb8PY3l74Lc","IndianOil","200 Feet, Mahal Road, Rampura","26.7602439","75.8683253"
"ChIJo984b5zPbTkR-eVbA-jgm4Y","IndianOil","Jaipur","26.6924097","75.8845187"
"ChIJlb0Z9grJbTkRr1zccKJkvwU","FAUJI BHAI BPCL PUMP","Saraswati Vihar, Sitapura, Jaipur","26.7557443","75.8486135"
"ChIJYWVmdkDPbTkR7yFCNCjoX8o","HP PETROL PUMP - HP CENTRE JAIRAJPURA","Khasra NO.307 Village - Jairajpura (NH-12) Tehsil Sanganer, Jaipur, Jaipur","26.7317503","75.8722232"
"ChIJKZmQJQDJbTkR8xHEVqVFzKo","Advait petrochem LLP","PVXC+6M5, Mathurawala","26.7480107","75.8717456"
"ChIJ9fyKMC3PbTkRj9SNyzvK5f0","IndianOil","Ground Floor Manpur Nagalya, Sanganer, Beelwa, Sitapura, Jaipur","26.739756","75.863224"
"ChIJ5SQpMIDJbTkRFSKmpz3kTZQ","S R Filling Station, BPCL","Ramchandra Pura Mod, Gaon, Mahal Road, Jagatpura, Mathurawala","26.7526875","75.8696875"
"ChIJwSh0W8_IbTkRGaGv7aZa4NE","Bharat Petroleum","India","26.7528083","75.8698042"
"ChIJD29hWdPJbTkRX6P4B2cYUIk","Vikas dhanka","QV67+64P, Rampura","26.7605885","75.8628363"
"ChIJ0TvpKsfJbTkReizMO9CGH1k","IndianOil","Ground Floor, Bilwa, Tonk Road, Industrial Area, Sitapura, Jaipur","26.753889","75.85067339999999"
"ChIJuVMwo5HPbTkRILg1zcdeeYE","Ram bhakt petrol pump BPCL","PRHQ+RJ3, Beelwa, Sukhdeopura Nohara, Bari Ka Bas","26.729236","75.839314"
"ChIJDVdwh5q3bTkRP4wFpxNHXBM","Shree Balaji Indian Oil Petrol Pump","VX89+VRV, Jaipur","26.8672497","75.96954649999999"
"ChIJIT9aZVq_bTkRX7BMU0ovxC0","IndianOil","Meena, Ground Floor Agra Road, National Highway 11, Boorthal, Jaipur","26.881732","75.908801"
"ChIJ6UoOOxu5bTkRr8A-UIwscbQ","Hindustan Petroleum Corporation Limited","Ground Floor, Kanota - Nayla Road, Heerawala, Jaipur","26.8970301","75.958901"
"ChIJh_GfnxC5bTkRPLR5pC4aYIY","Bharat Petroleum","WX26+GV8, Kanota - Nayla Road, Vijai Mukundpura at Hirawala","26.901284","75.9622014"
"ChIJCcp9bQC5bTkRoUVzblMVOzY","Shree Laxmi filing station","Vijai Mukundpura at Hirawala","26.9011479","75.9622839"
"ChIJrSmD6CqLbjkRbwUfEbxJW2M","IndianOil","Ground Floor, near state bank, Nayla","26.9195005","75.97130109999999"
"ChIJ6_e53G65bTkRI33UoKxMeyc","Balaji Gas Chula Service","Vijaypura Road, Purani Chungi, Jamdoli, Jaipur","26.8910031","75.9174719"
"ChIJb_GCRuu4bTkRZ-xXxJ3oMFc","IndianOil","Ground Floor NH 11, Kanota, Jaipur","26.867784","75.96489600000001"
"ChIJ0fmQknKVbTkR7Bx2wldxx3I","Hindustan Petroleum Corporation Limited","Khasra No 1574, 1196, Jamwaramgarh, Booj","26.9292413","76.09339480000001"
"ChIJ-4Y-VQCVbTkRxPYmsCLEU5E","KK & DK MODE ROAD","W4J3+23W, Booj - Chawandiya - Dhoodhli Road, Shyampura","26.9301072","76.1026926"
"ChIJ32quaSSObTkRseem1USf0Uc","IndianOil","Sudarshanpura","26.9974586","76.2788389"
"ChIJdejTR_yNbTkR9edkPRFphPM","Ms Lakshmi Petroleum CNG Pump","below Delhi Bombay Express Way, Sainthal Road, Just, Bapi","26.9720581","76.284956"
"ChIJ35aFGwCPbTkRdp1wX1P8zak","Hindustan Petroleum Corporation Limited","Khasra No 2243/2229, NH 148, Manoharpur - Dausa Highway, Dausa","26.97308","76.28426999999999"
"ChIJBUtCeACNbTkRLgORX2M11Oo","Bharat Petroleum","near Dausa, 122, near Dausa, Khuri Khurd","26.9506683","76.297264"
"ChIJj7ozCgCPbTkR8UBWLPk-cPk","Laxmi Petroleum","X7MM+F24, National Highway 148, Bapi","26.9836291","76.2825755"
"ChIJo1FFagCNbTkRH6mCT5f98Ug","Indian Oil Petrol Pump","W8W2+9JJ, Malagwas","26.9459655","76.3015187"
"ChIJERqrKreNbTkR5353GT4pLjg","Ramswaroop Seth filling station","Kasra no 1676, 1670, Sainthal road, Khuri Khurd","26.945657","76.30124359999999"
"ChIJK8aiKeR0cjkRYxZfecP4aFE","Hindustan Petroleum Corporation Limited","Ground Floor, NH 11, Sikrai, Reta","26.92689499999999","76.510434"
"ChIJPa7mAhN1cjkR7rg45HjccC8","IndianOil","Ground Floor, NH 11, Sikrai, Reta","26.921551","76.493616"
"ChIJ42EOgBF1cjkRUFmRuAPsytM","Bharat Petroleum, Petrol Pump -Arihant Petroleum (Nrl)","KALAKHO DAUSA, Dausa","26.9190384","76.4755546"
"ChIJgyzTEV51cjkR-wIXIRYgrAo","Bharat Petroleum","India","26.9150186","76.4613373"
"ChIJ1VfpGwB1cjkRUe2ZkiTEVlA","Kandoli kalalakhoh","WF75+2M9, Kalakho","26.91253720000001","76.4592275"
"ChIJ0Tf5de91cjkRIW0AjZENEwA","Essar petrol pump","WGMH+RVH, National Highway 21, Dolika Bas","26.9345607","76.52974379999999"
"ChIJX4fAMAB1cjkRlfMiZjJfyJ0","Petrol and CNG pump","XF6W+HQ3, Delhi - Mumbai Expressway, Dhigariya Tappa Koleshwar","26.9613941","76.496933"
"ChIJ95qdawB1cjkR8GVme2TfUzc","HP CNG Pump","XF6W+HQ3, Delhi - Mumbai Expressway, Dhigariya Tappa Koleshwar","26.9615232","76.4978258"
"ChIJwUaVBFp1cjkRs9Z3YkW7yew","IndianOil","Ground Floor, Delhi - Mumbai Expressway, Km 172, Dhanawar","26.9611925","76.5002019"
"ChIJkVN54BJ1cjkRAfnKILK8Iv8","India Oil Petrol Pump","XF7W+6QQ, Unnamed Road, Dhigariya Tappa Koleshwar","26.9630947","76.4969991"
"ChIJtcnHXst1cjkR-15U40Ly1Y0","IndianOil","Delhi - Mumbai Expressway, Km 172, Dhanawar","26.9634398","76.49941869999999"
"ChIJg_k0UqVrcjkRmMWswkGDJlY","IndianOil","Ground Floor, NH 11, Khera Paharpur","26.966731","76.7513702"
"ChIJJxvhWQBrcjkRdIugzH7fA7o","Hindustan Petroleum Corporation Limited","Ground Floor, Sikrai - Lotwara, Khera Paharpur","26.965411","76.741047"
"ChIJBQrwFeRtcjkRHxvmSodMr-g","बद्री सैनी पिक्चर वाला माली की होटल","XP7C+33F, National Highway 21, Jopara","26.9626954","76.7201585"
"ChIJ-9EeaXprcjkRPyM92FvQ5AQ","Minesh Filling Station","BALAJIMOD, DAUSA","26.9698095","76.78061919999999"
"ChIJJ5TTTflqcjkRSQ_G_5xFu5A","Hindustan Petroleum Corporation Limited","Ground Floor, Mehendipur Balaji Temple Road, Sikrai, Mehandipur","26.9638462","76.7863752"
"ChIJFbOVlidrcjkRnut6dK1ELrs","IndianOil","Ground Floor Poondarpada Road, Baswa, Lotwara","27.004371","76.74494899999999"
"ChIJ0bkav2FrcjkRgBUxwwb7fGE","IndianOil","Parli","26.9701564","76.7914459"
"ChIJDTOBeQCvczkR-xF3uyk0aAc","Hindustan Petroleum","5854+V9X, Nadbai","27.1597335","77.3059724"
"ChIJhVHiEACvczkR7BW304U2dTM","Shree Brijraj BPCL Filling station,lulhara","5866+Q57, Nadbai","27.1619004","77.31043389999999"
"ChIJo8auGCizczkRHiYF41mzxOY","Hindustan Petroleum Corporation Limited","2750/1146, P No 2748/1145, NH 11, Nadbai, Paharsar","27.1542672","77.2853825"
"ChIJKxzQFgCyczkR92gNEX5R8MQ","HP Petrol Pump - CountryRoad Filling Station","Village Paharsar Jaipur-bharatpur Road, NH-11 TEH Nadbai, Kota","27.1544786","77.2851551"
"ChIJz947MpuvczkR5dd44N9nDxA","Hindustan Petroleum Corporation Limited","Plot No 617 & 619/1186 NH 11, Bansi Khurd","27.1668863","77.33863219999999"
"ChIJ1dhiTACvczkR3sKTMdKHdhw","CNG &PETEOL PUMP HPCL","588Q+MMV, Bikaner - Agra Road, Bansi Khurd","27.1671364","77.3386139"
"ChIJtbLWnq2vczkRs3Jd0pQlGtg","Jio-bp","Nh 11 Jaipur, Highway, Agra","27.16629279999999","77.3424891"
"ChIJxcer3xGzczkRW3lXbNBWh3o","Bharat Petroleum","47XC+J33, National Highway 21, Nadbai","27.1487714","77.26986219999999"
"ChIJQ_76AhOjczkRA_CpI_GedBc","Hindustan Petroleum Corporation Limited","Ground Floor, Swarnjayanti Yojna, near Kali Ki Bagichi, Agra Road, Bharatpur","27.2063724","77.4954822"
"ChIJZXfS7uOXczkR7GtMYr_DOlI","Indian Oil Petrol Pump","Nh 11, Agra Road, Uncha Nagla, Bharatpur","27.1650288","77.5670319"
"ChIJC9m9G5SjczkRSeFzA8nkftc","Bansal Service Station (Petrol/Cng/Diesel)","Saras Chauraha, Nh-21, Agra Road, Jatoli Ghana","27.1965409","77.5240357"
"ChIJG4rYbUCjczkRKoOhRASq_oY","IndianOil","Ground Floor, Jatoli Ghana","27.1962612","77.5234397"
"ChIJzaOWsROjczkRmdpwc4LIRX8","IndianOil","Ground Floor Bharatpur Achnera Rd, Nauh, Bharatpur","27.20712","77.5385001"
"ChIJH6jIvZm9czkRQmX6tEm-PBo","Saheed Kumar Singh Veer Chakra Filling Station - CNG, Petrol, Diesel, EV Charging","5HF3+R5X National Highway, 21, Ghasaula","27.1746224","77.5529957"
"ChIJ89UwFV-jczkRd4nNGhP_CUg","IndianOil","48 & 49, Ground Floor, near Mile Stone, NH 11, Agra Road, Bharatpur","27.1747665","77.5532794"
"ChIJK-9ynDyjczkRCVQjDwKfW5U","Bharat Petroleum Petrol Pump , B K PETRONET","KH.NO.964/3714 & 967,VILL, ROAD, Bachhamdi Noh, Bharatpur","27.20604","77.552358"
"ChIJE4cuzJiiczkRQSW55_XTlW0","Solanki Filling Station","Khasra NO.1089/1,1089/2 Village Bachamadi Bharatpur, Achnera Road, Kota","27.2051798","77.5549173"
"ChIJ7yQPjCOXczkRiRFEOuBxz8Y","Alora petroleum filling station","5H87+QJ, Sunari","27.1669781","77.5641718"
"ChIJ8UqXO0KjczkREaxKeuoApfc","Hindustan Petroleum Corporation Limited","near Banke Bihari Ki Bagichi, Plot No 6574, Swarn Jayanti Nagar, Bharatpur","27.205651","77.495936"
"ChIJ-_QUkxKjczkRj7NoM3LtBgo","Alora Filling Station-Bharat Petroleum","11, Agra Road, Jawahar Nagar, Bharatpur","27.2079134","77.4950325"
"ChIJQVzgtGOjczkR1bSunA2Sx7U","IndianOil","Nh 11, Agra Road, Uncha Ka Nagla, Bahnera","27.1609042","77.5701476"
"ChIJxetFJ7aWczkRRAUocm82Wqw","Hindustan Petroleum Corporation Limited","Ground Floor, Kiraoli, Bharatpur Road, Fatehpur Sikri","27.1185713","77.6460468"
"ChIJ5S5-aMaRczkRmb04jLi7_d0","Nikhil Petro station and services","NH-21, Rasool Pur","27.104735","77.67621319999999"
"ChIJb64JXBqRczkRuziHFTXrJV8","Slipper Shop","Agra Gate Ke pass, Fatehpur Sikri","27.1021614","77.67622759999999"
"ChIJnxtW7hKQczkRjI1OLK3iNj4","IndianOil","Ground Floor, NH 11, Agra Bharatpur Rd, Fatehpur Sikri","27.1031584","77.6803953"
"ChIJe9SRysKTczkR2Gu54eniAMg","प्रिंस फिलिंग स्टेशन","3MV9+R57, Fatehpur Sikri","27.0945291","77.6679292"
"ChIJAc7h0SOXczkRIxJBZS-Xbqc","IndianOil","Ground Floor, Agra Jaipur Road NH 11, Gujar, Rasulpur, Barauli","27.117537","77.646782"
"ChIJ60xaPWCRczkRkLdRBaw5K_w","IndianOil","Gata No 345, MI NH 11, near KM Stone, 31 to 35, Agra-Jaipur Road, Bhadkol, Arhera","27.1110214","77.7025689"
"ChIJsSh6eVmOczkRalIq7GXC2pk","IndianOil","Ground Floor, NH 11, Agra-Jaipur Road, Kiraoli","27.1393661","77.797635"
"ChIJS7_7Bm-PczkR5n7Xkwn0nZI","capital filling station","Galla Mandi, NH-11, Agra-Jaipur Road, Purani Galla Mandi, Agra","27.1344572","77.7767135"
"ChIJQwQUKc-JczkRYyxaN6OvBxI","CAPITAL FILLING STATION","Galla Mandi, NH-11, Agra-Jaipur Road, Agra","27.134439","77.7767132"
"ChIJ-RXGr8yPczkRdffAPpEv9Pg","IndianOil","Ground Floor, Agra Jaipur Road Kirauli, Deoretha, Abhaudopura","27.133832","77.775103"
"ChIJKXPgHzOPczkRP9ihPqfE-f0","Jitendra Singh","Fatehpur Sikri Road, Purani Galla Mandi, Agra","27.1338284","77.77456490000002"
"ChIJW08vmYmOczkRTBRDF7nekew","Essar Petrol Pump, Shri Balvir Singh Pradhanacharya Filling Station","4QGV+682, Kiraoli - Akola Road, Mori","27.125525","77.79327049999999"
"ChIJm5Nl8NOPczkRvdDurha9-fs","IndianOil","Khasra No 1171, Km On, A 17 To 21, Agra-Jaipur Road, Gopau","27.13988629999999","77.8059123"
"ChIJmdhIYo6PczkRVlhgYgWwefg","JKSR FILLING STATION","4RR4+54H, Fatehpur Sikri Road, Kiraoli","27.140082","77.806179"
"ChIJlZ8i87WPczkRZhHvtSzDHr4","Achhnera road Kiraoli","5Q2F+78, Puramana","27.150638","77.773313"
"ChIJmU3dtLWPczkRc18bGlP3YSo","Pankaj filling station ( BPCL )","near chahar cold storage, Nh 21, Agra-Jaipur Road, Kiraoli","27.1412704","77.80915"
"ChIJmZ3UiGqPczkRG1B4xy26z4M","IndianOil","Ground Floor Achnera Kirawali Road, Arhera, Kiraoli","27.151482","77.773404"
"ChIJJzA2tTSPczkRABQb0io-njA","Hindustan Petroleum Corporation Limited","Khasra No 1139, MI NH 21, Agra-Jaipur Road, Kiraoli, Gopau","27.141653","77.816822"
"ChIJoZucImyPczkRvOHS8Y-QWoo","Ananta Petroleum","149, Agra-Jaipur Road, Vidyapur, Agra","27.1289571","77.7597965"
"ChIJQYlpLciPczkRYYz38JUmBf0","Hindustan Petroleum Corporation Limited","Ground Floor, Achnera Road, Kiraoli","27.1627285","77.76702999999999"
"ChIJuc3NfwCPczkR4F8_-eDucKM","Nro Raibha","5R39+VF, Mahuar","27.154711","77.818703"
"ChIJUdD4lDOPczkR0-FPHU6llCg","Hindustan Petroleum Corporation Limited","Ground Floor, Akola","27.113776","77.81173299999999"
"ChIJqR7RHhKPczkR0cWg92Nm80c","Parashar Filling Station","5RF3+9F6, Raibha","27.1734029","77.8036389"
"ChIJFSmBPPyPczkRdZBhojQcaVk","IndianOil","Ground Floor, Achnera - Janutha Road, Kiraoli","27.1690555","77.7650152"
"ChIJE-CmNACPczkRnUvPq0C-Gsw","Indian oil pump","4RPH+9Q, Davli","27.135966","77.82946179999999"
"ChIJb1kYyKGPczkR-MchPlwI0jg","Essar","5QGP+CX9, Agra - Bharatpur Road","27.1760307","77.7874844"
"ChIJv_ax4uR2dDkR0NxOQ4fheJI","Modern Service Station","5X7P+6XQ, Saraikhwaja, Arjun Nagar, Agra","27.1630784","77.987471"
"ChIJq9NwfdB2dDkRebD8KcNEjS0","IndianOil","Mahatma Gandhi Road, Awantibai Crossing, Agra","27.1647817","78.0088576"
"ChIJiRO3k9d2dDkR6RZA5DG1xeQ","Bharat Petroleum","46, Mahatma Gandhi Road, Pratap Pura, Rakabganj, Agra","27.17179639999999","78.0092232"
"ChIJQYtortB2dDkRMFJ7M85NgL4","Hindustan Petroleum Corporation Limited","Ground Floor, opposite Lauries Hotel, Mahatma Gandhi Road, Pratap Pura, Agra","27.168364","78.00919200000001"
"ChIJgawtiEB3dDkRICJ0AnwqjTA","Bharat Petrol Pump","Delhi Gate, Professors Colony, Civil Lines, Agra","27.1968255","77.99959299999999"
"ChIJN3hpNaZ3dDkRng88__lYGN4","Nayara Oil Shri Bankey Bihari Filling Station","5XMC+7C6, Maruti Estate Road, Manas Nagar, Badla Ki Sarai, Shahganj, Agra","27.1831602","77.9710243"
"ChIJS8Wr_6B3dDkRhTDSMxavN24","IndianOil","Bodla Road, Sulahkul Nagar, Lohamandi, Agra","27.1904183","77.97117399999999"
"ChIJeUS8xnl3dDkRj8bOeNJLptk","CNG Filling Station","6X4H+H4W, Transport Colony, Agra","27.2064772","77.97782149999999"
"ChIJE5EWDL13dDkR7uSu3ETN3hs","Bharat Petroleum","5XR6+727, Sikandra-Bodla Road, Sector 1, Bodla, Lohamandi, Agra","27.1906539","77.9600432"
"ChIJ2eqnj3hxdDkRGx0Jhia_vLc","Bharat Petroleum, Petrol Pump -Jainab Filling Station","Jeoni Mandi Post Office Street, Civil Lines, Agra","27.1983262","78.0255213"
"ChIJ5WBQDjOEczkRGCCJtiTIGGU","Pratap Filling Station Bharat Petroleum","Keetham, Agra, NH-19, Delhi, Road, Kitham","27.2098228","77.980892"
"ChIJjxxZKYJ3dDkRgnlFXquLpcc","CAPT SUNIL FILLING STATION","Plot No. T2, T3, T4, Opp Amar Ujala Press, National Highway 2, Transport Nagar, Agra","27.210562","77.971379"
"ChIJa9zcqz1xdDkRP9EPXLU5OI4","IndianOil","Ground Floor, beside Taj View Hotel, Fatehabad Road, Agra","27.161686","78.039811"
"ChIJBQRtQod3dDkRbIYBGX2UJL0","Nayara Petrol Pump","5XJW+7C9, Ashok Nagar, Shahganj, Agra","27.1806562","77.9960997"
"ChIJk_uURo13dDkR43gaeuzLhl0","IndianOil","Amba Prasad Road, Gajanan Nagar, Shahganj, Agra","27.183496","77.988945"
"ChIJR4zAHd13dDkRSQF0HCh5ZSM","Vinod Filling Station","52F4+7RF, Agra","27.17318969999999","78.0070321"
"ChIJ83o_EgB3dDkRu1hX3Klb5aE","Mahalxmi petrol pump","52G5+M68, Bikaner - Agra Road, dayarampura","27.1766701","78.00807449999999"
"ChIJQ406agB3dDkRjbEcY0n6YhU","BPCL- GAYATRI FILLING STATION","NH 19, agra delhi road, ajijpur kosikalan, mathura","27.1766701","78.00807449999999"
"ChIJvdrL0SR3dDkR347tOgTMrug","Farid General Store","Nai ki Mandi, Mantola, Agra","27.1842631","78.0046292"
"ChIJGwI2PAR3dDkRZYzGEjKxT6c","Hindustan Petroleum Corporation Limited","Plot No 6/155, Bodla Road, Prakash Nagar, Shahganj, Agra","27.1781817","77.980694"
"ChIJe7pT6I1xdDkR6IeRnCAbqZk","Hindustan Petroleum Corporation Limited","Ground Floor, Fatehabad Road, Agra","27.1437777","78.0831844"
"ChIJSe_c5wtxdDkR10umtX798wM","Petrol Pump","5356+X8V, Taj East Gate Road, Basai Khurd, Tajganj, Agra","27.15997699999999","78.0608104"
"ChIJTTWS7QZydDkRIqkhi3lSaT8","G K Filling Station","Fatehabad Road, Bamrauli Katara","27.1277602","78.1068178"
"ChIJh4LQNItxdDkRrujIf_HglRQ","IndianOil","near D Marques Marriage Hall, Khasra 31MI 32MI, near D Marques Marriage Hall, Kalal Kheria, Fatehabad","27.1484438","78.0773152"
"ChIJIXelidpxdDkRES2UW4rRXv4","Bharat Petroleum, Petrol Pump -Touraids (I) Travel Service","BASAI,VIP ROAD, Agra","27.1500398","78.0738437"
"ChIJ9QmDSZlxdDkRAd2aZ_H2V98","Madhu Highways Petrol Pump","147, Fatehabad Road, Tora","27.1512589","78.07128879999999"
"ChIJ7R74AgBxdDkRKhQ69P8H7fU","MADHU HIGHWAYS","147, Tora","27.1539204","78.0666195"
"ChIJ9fP5euxtdDkRlGUujXcQZmo","Metro Filling Station(CNG,Petrol Pump)","Fatehabad Road, Navameal, Nagla Garey, State Highway 62, Agra","27.1176219","78.1273594"
"ChIJQ3HAcxALwTsR33xhMJUzv8I","IndianOil","Ground Floor, SH 62, Fatehabad Road, Nagla Garhu, Agra","27.1175612","78.12734669999999"
"ChIJARv1OjVydDkR3UctXkwkwvs","Hindustan Petroleum Corporation Limited","Ground Floor, MDR 113W, Gutila","27.1108437","78.0661224"
"ChIJsS_yit1zdDkRvW8GEEnbAlY","Ramnager Petrol Pump","4368+C86, Ram Nagar","27.1110499","78.06577349999999"
"ChIJCbPm_KNxdDkRySeeA-YY01Q","IndianOil","near TDI Mall, Fatehabad Road, Basai","27.1583435","78.0562167"
"ChIJOdbnztxxdDkRzZxAUWZbiwk","Jai shree raam","Parsvnath Panchvati, Kaveri Vihar Phase II, Tajganj, Basai","27.1479533","78.0510572"
"ChIJDVQRTG1xdDkRWKNzlWZ7w-A","Agra Cng","5333+M6H, Unnamed Road, Tajganj, Basai","27.15418249999999","78.0531071"
"ChIJH3UblG9udDkRAZzPHvYtZYU","ESSAR","India","27.15217549999999","78.14391719999999"
"ChIJ3SEw559sdDkR7QUWtAHN-_0","Essar","36G2+5MJ, Mewali Kalan","27.075468","78.2016438"
"ChIJaSh-CgBrdDkRn9UiD5fowrg","Kanauj","36H9+85, Mewali Khurd","27.078059","78.21916999999999"
"ChIJOwAAmTdrdDkR9V1gFoEpp3o","IndianOil","Ground Floor, Fatehabad Road, Wazidpur","27.0616005","78.2274853"
"ChIJEbIXiS4VdDkR7R0YmWkMZPc","IndianOil","Ground Floor, Fatehabad Road, Wazidpur","27.0616005","78.2274853"
"ChIJC849qcBrdDkR0swodASoVnA","Ashok Yelar","Na Tanki Nagar","27.0735512","78.210123"
"ChIJw-JMTgBrdDkRC1mLfJjR4c0","Bittu","369V+JWR, Sikrara","27.0691002","78.24476670000001"
"ChIJHzXGJgBtdDkRkFh1Vk9Jtz4","Durga kanta filling station","35HM+CX8, Dauki","27.0785358","78.1849427"
"ChIJAR9KW2FtdDkRf3liM9dHOD8","Hindustan Petroleum Corporation Limited","Gata No 370, Fatehabad Road, Dauki","27.086515","78.18432399999999"
"ChIJ42m26Is1dDkR_rkonOlpHvU","Hindustan Petroleum Corporation Limited","Khasra No 0035 Shikohabad, Atapur Marg, Madanpur","27.007916","78.6348199"
"ChIJ__hnbgA1dDkRynWLejQ2Eis","hari yogi filling station","2J88+WWV, Sherpur Kutubpur","27.0173625","78.6172969"
"ChIJES1ljRE0dDkR0XuBE9uXS0o","Hindustan Petroleum Corporation Limited","Ground Floor, Shikohabad, Bateshwar Rd, Nasirpur","27.002992","78.5824442"
"ChIJdyzBQBE0dDkRCGAfa0VqOlQ","Triyambkeshwar Kisan Indian Oil Petrol Pump","Nagla Rama, Firozabad MDR-77W, Shikohabad, Road, Firozabad","27.006","78.5818"
"ChIJA8dUaKw1dDkRdKGDzfrxX-c","Jaishreebalajeefillingstation kutubpur","2JGM+VMV, Khatua Mai Village Road, Kutubpur Sherpur","27.0272378","78.63415979999999"
"ChIJOTVrP1czdDkRq9pWO9XrPFA","Ms Shiv Filling Station Indian oil Petrol pump","XH6Q+FF, Garhi","26.9611947","78.5886685"
"ChIJudTXihrPdTkRjAID1uB9X0Y","Hindustan Petroleum Corporation Limited","Firozabad, Ground Floor Agra Kanpur Road, Kathaphori, Shikohabad","26.975696","78.80303599999999"
"ChIJ3V2rrPLPdTkRQhwicvoftPM","Bharat Petroleum petroland cng pump","XR5F+P9G, Kumheri","26.9593246","78.82346749999999"
"ChIJ02RVbfPPdTkRKHf-B9OWcHo","Hindustan Petroleum Corporation Limited","Khasra No 13 & 15, NH 19, Agra Kanpur Road, Kumheri","26.957801","78.824901"
"ChIJc1RucwDPdTkRZ8i-YeTSWZU","Ms/Hsd Panchsheel HP CNG Station","Normai","26.9644839","78.8164745"
"ChIJuc74jQbPdTkR3rNmndOo9mI","Green Express Way","XR96+JGQ, National Highway 19, Gotpur","26.9690963","78.8113632"
"ChIJt0nxTbjPdTkRKImLrMTWguM","TORRENT CNG PUMP","WRWP+FXP, Jonai","26.9462054","78.8374645"
"ChIJXdVXPhDPdTkRjZFNU9tvOsA","Jio-bp","Ground Floor, Bachela Bacheli Nh 2, Agra Kanpur, Near Milestone 287, Rd, Kathpori","26.9749345","78.8052225"
"ChIJyQczkf3FdTkRrNhCSpwGc_k","IndianOil","Khasra No 158 Dhaulpur, Km St, 295/465, Nh19, Jaswantnagar","26.932986","78.85291749999999"
"ChIJgXmsWALGdTkRutdKpnqSwC8","IndianOil","Ground Floor, Karhal Road, Atirajpur, Dhobai,Dihuli","27.019334","78.840051"
"ChIJB3Gr4YPFdTkRvl_rUz2vxjU","Hindustan Petroleum Corporation Limited","No 111, 1MI Jaswantnagar, Phulrai","26.931883","78.855231"
"ChIJt1h1n1_BdTkRZg_jkSTpkmQ","Hindustan Petroleum Corporation Limited","Ground Floor, Karhal Mainpuri Road, Kutukpur Buzurg","27.0206124","78.94873989999999"
"ChIJ27RnquXDdTkRfShGctbIpTU","IndianOil","Ground Floor, Kishni Road, Atirajpur","27.0061886","78.972949"
"ChIJCdP8P6TDdTkREkio5bax_-0","Petrol pump Karhal","2X4C+7XF, Manpur - Sauj Road, Kirthua","27.0059924","78.9727169"
"ChIJveIxTHPDdTkRvavGQEUHizE","Raavan Filling Station","New Bypass Road, Karhal","27.0190456","78.961906"
"ChIJI5TAvMPDdTkRQFR0ByNV0jw","Bharat Petroleum","India","27.0044329","78.9554321"
"ChIJ05vNJOrDdTkRVFt20_6zlVg","Bharat Petroleum, Petrol Pump -Mahendra & Company","KARHAL, MAINPURI","27.0028983","78.94227339999999"
"ChIJN7fa2wHBdTkR7n3Gy5iSLnk","CHHABILE FILLING STATION","Kurawali - Mainpuri - Etawah Road, Andani","27.0294491","78.9521802"
"ChIJt9eGye_DdTkR5ATBFR9hD44","IndianOil","Ground Floor, Atirajpur,Karhal, Rajpur","27.004561","78.941116"
"ChIJ7aCEaEfBdTkRrVRqNPkga6o","IndianOil","Ground Floor, SH 83, Etawah, Road, Kutubpur Buzurg, Karhal","27.0298161","78.95210809999999"
"ChIJfaYwHZrDdTkRqf8KjzgS4VQ","IndianOil","Ground Floor, SH 83, Karahal Dehat, Karhal Bypass Road, Etawah","26.9875402","78.94452679999999"
"ChIJA5P6wZDDdTkRxNw2RccBaGk","Nayara Petrol Pump-Shubh FC","XWPV+9V4, Karhal","26.98589309999999","78.9447101"
"ChIJqXaXnvfDdTkRccLP2B14xjE","Hindustan Petroleum Corporation Limited","Ground Floor, Sirsaganj Road, Karhal","27.0052169","78.9313456"
"ChIJl-bCGwDpdTkR_pK1C3Yo06M","BPCL Petrol Pump","Etawah, Beena Road Parasna Saifai","26.9584829","79.09097430000001"
"ChIJ0YAVBdTpdTkRxJtiDwEl7V4","Hindustan Petroleum Corporation Limited","Gata No 1668, KHA Saifai, Shivpuri Timaruwa","26.9560415","79.08775159999999"
"ChIJ1wusu-b5dTkRH3qWa_Jtgj8","Hindustan Petroleum Corporation Limited","Ground Floor, Bhartana, Usrahar","26.9474339","79.3078501"
"ChIJc5j0LRD7dTkRmW4TSoWLjp4","Shivratan filling station","W76Q+W3, Rudrapur Itauhar","26.9122722","79.2876557"
"ChIJOeLqHRL5dTkRTBHAM027Hpg","IndianOil","Ground Floor Takha, Ushrar, Airwa Katra","26.884185","79.32188599999999"
"ChIJId8R-035dTkR5UM8XZjezkE","Mathura singh filling station","V8GC+332, Sutyani Marg, Umrain","26.8751449","79.3201486"
"ChIJSSJXYfT5dTkR-d_nGg1Qsl8","Gupta Kisan Sewa Kendra","Shop No 01, near Indian Oil Petrol Pump, Bidhuna Road, Umrain","26.87423379999999","79.3277974"
"ChIJCWwntSAdnjkRO7bVfa_Ahzk","IndianOil","Ground Floor Sakraba, Chibramau, Birpur","26.9879669","79.42124749999999"
"ChIJg7H0iMMdnjkRouya5MTlXJk","Hindustan Petroleum Corporation Limited","Khata No 154, Khasra No 351, Palahar","27.002231","79.413071"
"ChIJ6djuh3kdnjkRgzSJTbPEM3s","Bharat Petroleum","XCX6+R8, Ghuspura","26.9995662","79.41075049999999"
"ChIJc0IsAgARnjkRKgLsUHz7wms","Maa Vaishno Petrol Pump ⛽","3J7J+XV, Atrauli","27.0652969","79.63064229999999"
"ChIJG6XWbYcRnjkRndoOv2zZ50k","IndianOil","Ground Floor Amolar, Jai Nagar, Talgram","27.062201","79.64830099999999"
"ChIJj-4qCHYRnjkRGZllbVRGKQM","Hindustan Petroleum Corporation Limited","Gata No, 1709 Chhibramau, Talgram","27.0414006","79.6464043"
"ChIJPeFpmooRnjkRPw58mSF4OlY","Mohit Shopkeeper","1, Chhochata Road, Talgram","27.03614679999999","79.6423156"
"ChIJofDqlsRsnjkREIW3Js8Z0Aw","IndianOil","Ground Floor Nadesia, Jalalabad, Anaugi","27.047701","79.75580099999999"
"ChIJx3STAgATnjkRSKuUCI5qhNA","Hindustan Petroleum Corporation Limited","Gata No 29, Sujan Sarai","27.006062","79.733829"
"ChIJA2AEZOVtnjkRjzNdW4HtBOs","IndianOil","Ground Floor Raipuvi, Gagemau","27.014629","79.785974"
"ChIJGYiXFRJynjkRk68452M2bx4","Hindustan Petroleum Corporation Limited","Ground Floor, Kannauj Tirwa Road, Tirwaganj","26.9786259","79.8116838"
"ChIJzWsjcyJunjkRrMWHI0Nf_Cw","NAYARA Petrol Pump / Kumud Motors","India","27.0019574","79.85256930000001"
"ChIJO-soBQBvnjkR2hZgDeUEWAo","Sumandeep filling station","2V34+6JX, Tirhiapur","27.0031052","79.8566141"
"ChIJ9feXgvRznjkR2ps0NK29nnc","HAMARA PUMP TIRWA HP","PARGANA & TEHSIL, GATA NO. - 456 VILLAGE - KINAURA, Tirwaganj","26.9594296","79.7890462"
"ChIJKbFtFnJ5njkRGQYrReD0g1E","IndianOil","Ground Floor, Aakeen, Makanpur","26.8917091","79.973914"
"ChIJF5K105t5njkRmjEcEP1YHSE","PRATYANKAR FILLING STATION","VXJ8+R86, Bilhaur Makanpur Bishdhan Rasulabad Marg, Raugaon","26.8820263","79.9657749"
"ChIJgRVvCoV5njkRAHZWwPysPlA","Hindustan Petroleum Corporation Limited","Gata No 863, Vishdhan Road, Bilhaur, Makanpur","26.8812076","79.96455979999999"
"ChIJdVxyGwB5njkRX2VBH430ZxE","Virmo","WX2H+QF2, Makanpur","26.9018779","79.97863269999999"
"ChIJ-djnXQB5njkRaCAR_ngXH5s","Babloo yadav house","WX2H+QF2, Makanpur","26.9018779","79.97863269999999"
"ChIJUe8yAo55njkR8Mn0vhUR1i8","Anandeshwar petrol pump","VXVQ+M6V, Makanpur","26.89424","79.98805999999999"
"ChIJQ58ItR16njkRpAbSCRVBH8Y","IndianOil","Ground Floor, Tirwa, Bhadausi, Block Umardha,Bhadausi, Khama","26.909934","79.934439"
"ChIJ1ZzP0_17njkRVsfwH0Qw3c8","Hindustan Petroleum Corporation Limited","Ground Floor, Makanpur Road, Shekhupur, Bilhaur","26.91480099999999","80.002701"
"ChIJ5WhtUTV9njkRKsBwMiin58s","Jio-bp","Chainage 227, No 100, Chainage 227, No 100, Agra - Lucknow Expressway, Sirdharpur Gair Ahatmal","26.9364944","80.0893234"
"ChIJl_eGBAB9njkRnWWDQtbaPRE","Jio-bp","Chainage 227, No 100, Chainage 227, No 100, Agra - Lucknow Expressway, Sirdharpur, Unnao","26.936917","80.08947090000001"
"ChIJ2xup7wWEnjkRW-IN8seW_g0","IndianOil","Lock No 21035, near Lucknow, 21041, Sitapur - Kanpur Road, Bangarmau","26.932606","80.1978776"
"ChIJlUA5tJSDnjkRUMz3d7OgRDo","IndianOil","Lock No 21010, 22001, Unnao - Hardoi Road, Babna","26.9080084","80.2099669"
"ChIJIx_ZssqFnjkRYdm-TJbUbNg","IndianOil","Khasra No, 641 & 642, Ganj Muradabad","26.9474005","80.1903964"
"ChIJMVhmormDnjkRzLdvNC_miRo","माँ पैथोलॉजी एण्ड एक्सरे","India","26.8944938","80.213932"
"ChIJs-bVmbmDnjkRKSWFChr1oW0","IndianOil","Lock No 13005, Bangarmau","26.8942839","80.2141989"
"ChIJh_enaXKDnjkRx_M6Lk1rMOs","S Dayal Filling Station","Sandila Road, Palia","26.9096275","80.2418469"
"ChIJ9RCPVgCFnjkRs-DlqRPV7Us","Petrol pump","Ganj Jalalabad Road, Ganj Muradabad","26.9596944","80.1887033"
"ChIJMTXoBACFnjkReaAuDb4khOs","Katiyar Petrol pump","X57V+WWC, Atwara Chak Kola","26.963909","80.1953419"
"ChIJUyte2hGFnjkRA6wP2Qn4lV8","Hindustan Petroleum Corporation Limited","Gata No 588, Road, Sarai Sultan","26.963947","80.195149"
"ChIJg2M26WWHnjkRzd428en-v3w","Bharat Petroleum Petrol Pump , MASTER RAM RATAN FILLING CENTER","ATWARA, CHAKOLA","26.963307","80.184161"
"ChIJfXjzebSDnjkR2stFBrwcwpw","HP PETROL PUMP - KIRAN PETROLEUM POINT","Plot 254, SH 38 Village MAU Bangermau, Kanpur","26.884075","80.215075"
"ChIJ_-B1RQCfnjkRJT2HQZDsIz4","Pancher shop","WC32+F7, Kursath Rural","26.90364599999999","80.400673"
"ChIJVb0Yq3WfnjkRgZtq3Fz1Pmk","IndianOil","Ground Floor, Madar, Sandila,Behandar, Madar","26.931891","80.421071"
"ChIJdX_uLQADnDkRXY-_GB2bkvU","Ravindra Filling Station","VM4F+J3F, Matriya","26.8565517","80.672685"
"ChIJwd08sAgDnDkRjm5Q9aIp4_g","Ram Gopal Rajpoot filling station","near Rajpoot Fitness Jim, Mohan - Malihabad Road, Gopal nagar, Dhaura","26.8360294","80.66828029999999"
"ChIJ7WJ5oKoDnDkRgXTpVhIakZk","Hindustan Petroleum Corporation Limited","Gata No 78, Hasanganj, Mohan","26.829226","80.639077"
"ChIJi7kGhg2pnjkRogI3gq0BaLM","IndianOil","Dheremau","26.8777637","80.6813001"
"ChIJhdc_Uj8DnDkRD2yVYZxV4a0","Hindustan Petroleum Corporation Limited","Gata No 3176, Hasanganj, Mohan","26.812177","80.664056"
"ChIJo2ODbQD_mzkRCZVZWGC9mLU","Miranpur Katra","RRH6+GH9, Fatehganj","26.8287924","80.8114792"
"ChIJv3ImVjP_mzkR2m7AT8gJRfI","HP Petrol Pump : RPR Filling Station","SB & KN/686, near Najma Enclave, Plot No 599, Mohan Road, Sarosa Bharosa","26.833419","80.821595"
"ChIJAyuW3SX_mzkR4Xy_aewpx-s","BALAJI FUELS","Mod, near Agra - Lucknow Expressway, Mohan Road, Sarosa Bharosa","26.8330418","80.8223557"
"ChIJqbUJMPX_mzkR2jeVMvV6F14","Amausi Gas Service","Reviera Greens Road, Narona","26.8453532","80.8227122"
"ChIJ-XKwFgD_mzkRV0OaJlcLo7E","B K FILLING STATION","RR58+G72, Maunda","26.8087663","80.8156466"
"ChIJIxbpDbf_mzkRAIObYx_lP8w","IndianOil","Ground Floor, Mohan Bypss Road, Amausi, Maunda","26.806353","80.823531"
"ChIJLx2Pcq__mzkRCpq1rS6dL7w","IndianOil","Ground Floor, near Ring Crossing, SH 40, Mohan Road, Lucknow","26.8375083","80.844396"
"ChIJO4_tJ13_mzkRHCr32frya6M","Budheshwar filling station","NH40, Mohan Road, Pink City, Lucknow","26.8359639","80.84474929999999"
"ChIJZ8dGOEMBnDkRP8iKDMrOyTk","IndianOil","Ground Floor, Sakra, DM Road, Kakori","26.8230101","80.762501"
"ChIJBUO23Jf_mzkRxe1Y-twRM_8","IndianOil","No 701 Kanpur, Hardoi Bypass Road, Rajajipuram, Lucknow","26.8390857","80.8535217"
"ChIJC521lQb_mzkRl6J-YogoLXs","Gulmohar Petrol Pump","RVR3+F98, Alamnagar, Rajajipuram, Lucknow","26.8411705","80.8534634"
"ChIJB_0sOQb9mzkRF_gVfZ8VE8M","HINDUSTAN PETROLIUM GAS AGENCY","NH25 Near Awadh Timber House Gouri Bazar Sarojini Nagar, Lucknow","26.7459746","80.86274039999999"
"ChIJLxmciRb5mzkRM8kUBGpGqss","IndianOil","Kanpur Road Amausi, Sarojini Nagar, Lucknow","26.757874","80.870155"
"ChIJS-Rn1lT4mzkR44lE8Xepvcc","Hp Petrol Pump - Scooters India Ltd.","Scooters India LTD Sarojininagar Lucknow UP, Lucknow","26.7337018","80.85375239999999"
"ChIJJUsZzKX5mzkRMmbXduqUyTQ","Hindustan Petroleum Corporation Limited","Ground Floor, near Scooter India Limited, Kanpur - Lucknow Road, Sarojini Nagar, Lucknow","26.733914","80.85378299999999"
"ChIJx9TUpz74mzkRxK9CdMn_HPA","IndianOil","Ground Floor, Amausi Road, NH 25, Kanpur - Lucknow Road, Banthra, Sikanderpur, Lucknow","26.706533","80.837448"
"ChIJwTiJy5_5mzkRYt9iXlT681c","SHREE VISHNU FILLING STATION","PVPH+VJ7, Major District Road 91C, Natkur","26.7371638","80.8790551"
"ChIJgVbVtp35mzkRBjic61QJ9yU","IndianOil","Ground Floor Bijnore, Pipersand Road, Natkur","26.7360992","80.88359849999999"
"ChIJMa_2dxj4mzkRbSbGWo_NG3M","Hp First","India","26.6980283","80.8321794"
"ChIJa640VhH5mzkRM0ihtwuHI_s","Karan Gas Service","Sumit Hardware, Sarojini Nagar, Lucknow","26.75473","80.87092"
"ChIJH_ECAP75mzkR4BBmK7Nnu3A","Green Gas Limited CNG Station","Charnamrat Bhavan, Bus Stop, Banthra Sikander Pur","26.6939562","80.8293463"
"ChIJXZPmKR_4mzkRWvH6gPqM7tI","IndianOil","Ground Floor Lucknow Kanpur Rd, Aurawan, Banthra, Lucknow","26.694015","80.829195"
"ChIJT5bMecf5mzkRudB-hRU8hT8","Faijan Sarvice Centre","01Hardoi Road, Rahimabad","26.749473","80.8827451"
"ChIJFZYpA4X5mzkRkelgqScc5c8","Amar Jeet","001, Sadruna","26.7618149","80.8637524"
"ChIJy1QE-B74mzkRfC3uD5l8aeA","Hindustan Petroleum Corporation Limited","Ground Floor, NH 25, Kanpur - Lucknow Road, Bijnor, Banthra Sikander Pur","26.6912512","80.82881549999999"
"ChIJ56Y2Dz_5mzkROHBQQ7N-tAQ","City Gate Station","QV7F+VR7, Kanpur Road, Kanpur Road, Nadar Gunj Tempo Stand, Nadarganj, Lucknow","26.76466","80.87455"
"ChIJs0vkGj_5mzkRnUlZCOOm_Xc","Green Gas Limited CNG Station","QV8F+2Q6, Amausi, NH 25, Alambagh, Lucknow","26.7650435","80.8744044"
"ChIJqYh6dD_5mzkRGOT83Ch-DHU","Reliance Aviation Fuelling Station","QV7G+V49, Badali Kheda, Sector-13 Vikas Nagar, Amausi, Lucknow","26.7646525","80.87535059999999"
"ChIJFXFobCT5mzkRXku3obQF3s4","LUCKNOW TERMINAL GAIL INDIA LTD","QV98+7P8, Nadarganj, Amausi, Lucknow","26.7681532","80.8668369"
"ChIJXWsnX27kmzkR7ZDdKHuwPo0","Hindustan Petroleum Corporation Limited","Ground Floor, Sultanpur Road, Madhurmau Khurd, Lucknow","26.7812727","81.04619749999999"
"ChIJf4lxMQDlmzkRsAauf1YEwJQ","Rahi tent house dharma kataa bilding material and transport all India service.","Q2FW+R9X, Lucknow - Sultanpur Road, Pahar Nagar Tekareya","26.7742483","81.04540829999999"
"ChIJM2ZYg5LjmzkRE7cwS1dUEAM","IndianOil","Ground Floor, Lucknow - Sultanpur Road, Ahmamau","26.7989681","81.0089799"
"ChIJI9n8RwDDmzkR2Pc6l0eZpj0","Hindustan Petroleum Corporation Limited","Ground Floor, Mohanlalganj, Naubasta, Adampur","26.70347","81.180711"
"ChIJD-D6NwDDmzkRuj_fKSOn4lI","Jaid Qureshi","M5RM+VWR, Bahrauli","26.6922464","81.18475339999999"
"ChIJJRPsdQDDmzkRuuQxYhlsTWM","Airtel company tower","M5RP+59F, Bahrauli","26.6904375","81.1859219"
"ChIJP6ZdYfDdmzkRhWDQS5ttSWc","Bharat petroleum, Darshan energy station","P692+VJQ, Gangaganj airtel, Gangaganj","26.7190246","81.2024505"
"ChIJJ8ehQQDdmzkRXn2CmFAYyqE","DARSHAN ENERGY STATION","P5JQ+2J6, National Highway 731, Salempur","26.7300278","81.18900579999999"
"ChIJYYId_D7dmzkRa0F3sJzju40","IndianOil","AP Sabha, Ground Floor Lucknow Sultanpur Rd, Gangaganj, Lucknow","26.731358","81.188737"
"ChIJQzXqVFLDmzkRZiEiRSz_u_s","Hindustan Petroleum Corporation Limited","Ground Floor, Nagram Road, Khawas Khera","26.684775","81.172525"
"ChIJsZaPdGrdmzkRkxfQ47NhLIQ","Hindustan Petroleum Corporation Limited","Ground Floor, NH 56, Sultanpur Road, Mohanlalganj, Rahmatnagar","26.7344767","81.1810623"
"ChIJOxukYFfDmzkR2HDYXHla4EU","IndianOil","Purvanvhal Haidargarah, Expressway, Km 19, Kabool Pur","26.686035","81.21674399999999"
"ChIJ0c4Cm7_dmzkR3eyYrxdkS-8","IndianOil","Ground Floor Lucknow Sultanpur Rd, Rehmatnagar, Sultanpur","26.739152","81.169766"
"ChIJE67f3G7DmzkR7jGnuCDg7Vo","IndianOil","Ground Floor, Purvanchal Expressway, Kabool Pur","26.685799","81.21719970000001"
"ChIJfTGoAUnDmzkRBHhMdtTcfv4","Bharat Petroleum, Petrol Pump -Radhey Filling Centre","MAKANPUR ,DIST-BARABANKI BARA","26.705236","81.2328151"
"ChIJD05VSnVLmjkR6fFC6D90-TA","Pure Ram Sahay","GHWR+6M2, Mahauna Paschim","26.545515","81.591641"
"ChIJORtwams1mjkRAPFer3eVLcY","Bharat Petroleum cng COCO Pump - BP Purvanchal","Village Saraiya Peerzada","26.5496419","81.5952374"
"ChIJBUnbWiZLmjkRGX4OfEcvKYk","Mohd siraj filing station","GHRP+GCM, Mahauna Paschim","26.54132629999999","81.5860417"
"ChIJ7eC1wvxLmjkRwcif7ZAQ6Wk","Hindustan Petroleum Corporation Limited","Gata No 2783, Shukl Bazar Marg, Mahauna Paschim","26.5410416","81.5862633"
"ChIJk0zjwsA1mjkRdhoTrSbwQ54","Bpcl Petrol Pump","sidhauli shukul bazar jagdishpur road amethi","26.5763696","81.5834369"
"ChIJozUsPBc1mjkRnNbhWh51wSk","Rajpoot Kisan Sewa Kendra","Shukul Bazar Road, Sidhauli","26.5808816","81.5826694"
"ChIJzYT3FDA3mjkRQ4E2PGCxbzY","Hindustan Petroleum Corporation Limited","near Warisganj Subeha Marg, Gata No 1029 Mardanpur, near Warisganj Subeha Marg, Jagdishpur, Kaji Pur","26.5594452","81.6211491"
"ChIJibZAmBk2mjkREVw9w6P-AfA","Petrol Pump Zainabganj G","HJ5C+RFG, Sujanpur","26.5595698","81.6212129"
"ChIJv4f_d-01mjkRsPhlwa6mLUs","Jr kisan seva kendra unchgaon shukul bazar amethi","State Highway 31, Newaj Bhadar Garh","26.5688248","81.5574494"
"ChIJU5sDWpQ1mjkRtS7B_5DaapI","IndianOil","Ground Floor, Musafirkhana, Unch Gaon","26.56877699999999","81.5567983"
"ChIJN2YLTZI1mjkRc2PD7BlHUIs","SPSD FILLING STATION","Pure Ajitan, Unchgavon, Sujanpur","26.5614473","81.55259629999999"
"ChIJjQ4YJQA1mjkRXgK8DsOaGIs","Indian oil petrol pump","HHPV+W6M, Raniganj Shukul Bazar Road, thakur ganj, Indriya","26.5873399","81.5930491"
"ChIJfTS5vS5KmjkR5RdPuA51-ag","Sindurw","GH5W+FPJ, Sauna","26.50872","81.596762"
"ChIJ282skqqDkDkRbIlcdcmbLwA","IndianOil","Ground Floor, Katka Akbarpur Road Pidi, Bazaar, Bhadaiya","26.350426","82.260565"
"ChIJw4zkA_t5mjkRuxHdS_vfQKI","Hindustan Petroleum Corporation Limited","Sultanpur, Ground Floor Kudhebhar Pidhi Road, Jaisinghpur, Baroula","26.389181","82.185221"
"ChIJS-IXfh1ZkDkRp7u20jD1KzI","IndianOil","Ground Floor, Near Kalan Chauraha, Pratappur, Akhand Nagar, Mirpur","26.18591899999999","82.67836299999999"
"ChIJmTbmeU1ZkDkRFg9PXaLLU9A","SIDDHARTH FILLING STATION","Bhelara123, Bhelara","26.2286549","82.6687412"
"ChIJSUh_OgBZkDkRkPWXWtnvZ9M","Bharat petroleum","6MH9+CG3, Bhelara","26.228509","82.6688053"
"ChIJA3bsYABfkDkR6GB9OYTFLk4","Purvanchal expy uttar pradesh india","6JGP+89H, Purvanchal Expressway","26.2258194","82.63598499999999"
"ChIJ3zFQHwD5kDkRUqAwvQCjodQ","DAN BAHADUR FILLING STATION","7Q48+H7H, VILLAGE NIZAMPUR POST NATHUPUR LODHNA TASIL JALALPUR","26.2564476","82.7657265"
"ChIJMUzthKRXkDkRSowMICsMUw0","IndianOil","Ground Floor, Newada, Jaitpur","26.2225543","82.80144829999999"
"ChIJDwXG2nUBkTkRb3sXo7YP4jk","Petrol Pump","8XC2+WR8, Bhorajpur Khurd","26.3222913","82.95206929999999"
"ChIJ_UXt80YAkTkRy-yVgB4iNrk","IndianOil","Ground Floor, Madiapar","26.277623","82.932352"
"ChIJHwqP81kBkTkRoejQ0Haqgfk","BABA MOTER TRANING SCHOOL","Madiyapar modh, Atraulia","26.3219941","82.9514229"
"ChIJZaZsEQABkTkRguYU1U5GNiY","Bharat petroleum bhagawanpur (NATIONAL RAK FUEL STATION)","7WRM+MF5, Atraulia - Ahiraula Road, Madiapar","26.291649","82.93373"
"ChIJs5TNBIUBkTkR_QRHB64XIIc","IndianOil","Ground Floor, Araji Amani, Khanpur","26.330501","82.94160099999999"
"ChIJR2BBNgwBkTkRmKl8BOC9dzQ","Bharat Petroleum, Petrol Pump -K.T.Filling Station","Atraulia - Mahrajganj Road, AZAMGARH","26.3328916","82.9495027"
"ChIJz00TswcDkTkRCEKktubDs6g","Shiv kripa kisan seva kendra Petrol pump","Atraulia - Mahrajganj Road, Chitauni, Chiuni","26.3403093","82.9315932"
"ChIJLTZz8Z0DkTkRuo0TDF1zWAE","IndianOil","Ground Floor, Gajendra Patti Bhidaura Atraulia, Chitauni, Budhanpur","26.340421","82.93130099999999"
"ChIJZSkZAGoQkTkRnrER18dJm-g","IndianOil","Belghat, Kuri Bazaar","26.471208","83.100503"
"ChIJQWcB9HoPkTkRY4EG29t2EKk","IndianOil","Ground Floor, Ekauna Buzurg, Khajni, Gagaha","26.432935","83.106235"
"ChIJ5_7pWQAPkTkRZcswTyn6ZGg","Sarita Filling station","on sikariganj, Belghat Road, Nakauri","26.4253019","83.1475194"
"ChIJg4VRcwAVkTkR035XtulLf-g","Maa Laxmi fuel centre - Reliance jio -Bp","H6XP+Q92","26.59879299999999","83.23519399999999"
"ChIJs2bXtTgVkTkRd-hbaWIvwyE","IndianOil","Ground Floor Mahuraon, Harnahi, Amtaura","26.615421","83.240228"
"ChIJ6zfsegAVkTkRIHIMdIY_pRE","Harish Chandra Filling Station ⛽ Indian oil petrol pump location Rakauli to Dughra Margh khajni Gorakhpur","J6C2+X4, Rankolee","26.622461","83.20035399999999"
"ChIJe2X5aPQVkTkRLQGYSrtWUMo","Hindustan Petroleum Corporation Limited","Ground Floor, Khajni, Jhuria, Gorakhpur","26.628744","83.217682"
"ChIJQ66hxiIVkTkRpaxaVL04TJ4","Aadhish HP petrol pump","Nahar Road, Urua","26.6289838","83.2178649"
"ChIJCYqrNE0VkTkRyvaEFeqgG2Y","Hindustan Petroleum Corporation Limited","Ground Floor, Bankata Road, Khajni, Rakauli","26.585701","83.175251"
"ChIJZx9-7GcVkTkRnREpW-lTgN4","Dheeraj CSC Center","J5FF P54, Chautarwa","26.6111567","83.1714482"
"ChIJHfl_5qNrkTkR_YAKh5fgcgY","IndianOil","Ground Floor, Khajni, Amtaura, Sarbasi","26.6078832","83.2686149"
"ChIJM27UCC9BkTkRYcNvgqMwnBo","IndianOil","Ground Floor, Block No C Piprauli, Sahjanwa, Jarlahi, Bhiti Belipar","26.6837129","83.3188685"
"ChIJYywNhJpAkTkRaGoWOr02Utk","Hindustan Petroleum Corporation Limited","Ground Floor,Nausad Khajni Road Jaitpur, Sahjanwa, Nandapar","26.7010215","83.2623188"
"ChIJ32QBdzI_kTkRJv3Mj2PDYLQ","Bharat Petroleum, Petrol Pump -Shivam Filling Station","KATGHAR, KHAJANI, GORAKHPU, Gorakhpur","26.6738414","83.2491163"
"ChIJPd9t439BkTkRedMsm6gVIK4","Hindustan Petroleum Corporation Limited","Ground Floor, Gorakhpur Bypass, Ekala","26.706415","83.321651"
"ChIJfVOe1dZAkTkRbWUzXIwQy8g","IndianOil","Ground Floor Khazni, Gorakhpur Road, Piprauli Khurd","26.723415","83.28810899999999"
"ChIJaQYiFgA_kTkRdFRtGzo0MVU","HP PETROL PUMP","Satuahhar chauraha, Khajani","26.6580455","83.24842780000002"
"ChIJW_P9c9FBkTkRyYiPc8BWKiM","Kanha fruit company chapiya gorkhpur","P7GW+Q9J, Khajani - Gorakhpur Road, Chhapiya","26.7269577","83.295895"
"ChIJQzWkfMNckTkR4FXpJt6E8qw","IndianOil","Deoria Bypass Road, Divya Nagar, Khorabar, Gorakhpur","26.70638499999999","83.438081"
"ChIJ7YKR2VdckTkReYsSsBco_4w","IndianOil","PF37+9W6, Deoria Road, Jangal Sikri, State Highway 1, Gorakhpur","26.7033192","83.4646191"
"ChIJ_-tWMQBdkTkRzvBMxVtkLZg","Bharat petrol pump","MCXW+JGM, Tal Kandala","26.6990875","83.44631129999999"
"ChIJOZki93ZdkTkRdAe6ZDxBdwc","Hindustan Petroleum Corporation Limited","Ground Floor, near Deoria Bypass Road, Urf, Khorabar, Jangalsikari Urf Khoraba","26.7094604","83.4418719"
"ChIJjeIEYwBdkTkRKT3kUH_02jE","ARS Petrol Pump","PC5V+R32, Gorakhpur - Deoria Highway, Divya Nagar, Awas Vikas Colony, Kunraghat, Gorakhpur","26.7095014","83.4426259"
"ChIJZdmmSQBdkTkRWgI2oJhpbTM","ARS पेट्रोल पंप","Bypass road, NH 28 Terminal, Divya Nagar Vistar, Khorabar, Khorabar Urf Soobabazar","26.7094924","83.4427315"
"ChIJOZM9nOtckTkRfjI_NBZ78Qs","Nayara Petrol Pump","Jungal Sikari, Khorabar, Gorakhpur","26.7131802","83.4474"
"ChIJP8a12SlDkTkRqh7M5M6iBgQ","Online cng station /Gorakhpur bypass","KMS 270 Gorakhpur Byepass, National Highway 27, Gorakhpur","26.70193089999999","83.4104582"
"ChIJ6ZISXwBDkTkR2Rb9t4V9a6A","Torrent cng filling pump","PC26+J38, Gaighat Buzurg","26.7015389","83.41021549999999"
"ChIJm25OtmlDkTkRrc-Dvywg9JI","Hindustan Petroleum Corporation Limited","PC26+P3Q National Highway, 27, Gorakhpur","26.7018125","83.41018749999999"
"ChIJCch9NgldkTkRoy1FS0G2Gls","Bharat Petroleum, Petrol Pump -Kesharwani Travels","JUNGLE SIKARI, KHORABAR,GO, Gorakhpur","26.7080388","83.4562998"
"ChIJxx3pXX9DkTkR2I7PAJrE2hA","Hindustan Petroleum Corporation Limited","Ground Floor, Kusumhi Bazar, Mednipur, Gaighat Buzurg","26.702161","83.410111"
"ChIJN6wS8zZDkTkROOgIs_79LdA","Hindustan Petroleum Corporation Limited","Gata No 1419/1, Siktaur","26.701271","83.409151"
"ChIJV1ZlxbtckTkRDD8bVmPMlIQ","Hindustan Petroleum Corporation Limited","Ground Floor, Gorakhpur - Deoria Highway, Raneedeeh","26.72252409999999","83.435756"
"ChIJ248_CbRdkTkRxuBVpwKQBPk","Gurudev fuels Mobile dispanser","MFV9+Q8C, indian oil pump madapar fourlane baipass, National Highway 28, Gorakhpur","26.6944372","83.4682579"
"ChIJ23IBG8BDkTkR2p1nIMdFf7U","Hindustan Petroleum Corporation Limited","Ground Floor Lahsari, Mirzapur Road, Sadar, Dangipar","26.689401","83.395431"
"ChIJHdGfZU9DkTkRNp2lCF0MIJk","AARAV YADAV","786, Taramandal, Gorakhpur","26.7177664","83.3941286"
"ChIJfwFlmSRbkTkRMP2JkFChKmw","IndianOil","Deoria Road, Mahdeva","26.740313","83.423523"
"ChIJpV_KFlVbkTkR3DOgdYLHx0Y","New Ashoka Filling Station","PCRF+678, Awas Vikas Colony, Rapti Nagar Phase-4, Gorakhpur","26.7405353","83.4232023"
"ChIJaYcwjEpZkTkRn82FPxEx4EQ","IndianOil","Lock, Near Marapar, 13003, National Highway 28, Kusumi Bazar, Gorakhpur","26.746021","83.527298"
"ChIJm9DghVVZkTkR9K58j-Ya4ik","Hindustan Petroleum","PGW4+FWH, Khararaiech Khurd","26.7461909","83.5073718"
"ChIJAf0i7ORbkTkRk7G9D1fmTQU","Hindustan Petroleum Corporation Limited","Ground Floor Kushmi Bazar, Khadraich","26.755888","83.50012699999999"
"ChIJW3YnxItfkTkRzgImlbZfHYA","bharat petroleum petrol pump","PGHC+M63, Araji Mataoni","26.7296195","83.5208559"
"ChIJXcF0OUpfkTkRCBfo5sQNpdo","Hindustan Petroleum Corporation Limited","Ground Floor, Sisawa Urf, Chauri Chaura, Sisawa Urph Chankapur","26.742721","83.556851"
"ChIJM1nz8B9ckTkREWDNb3SO2-k","IndianOil","Ground Floor NH 28, Tamkuhi Rd, Bhaisaha, Near Madapar Km St No 282, Sardarnagar","26.719641","83.506373"
"ChIJyXhc9x9ckTkRekwuztiBLTk","Gurudev Fuels Plaza","N.H.27, Gorakhpur Bypass, Bhaisaha","26.7193872","83.50632399999999"
"ChIJPRMoawBdkTkRD2zQ1zFa-5o","Bharat petrol pump ⛽","PF9X+4J6, Vahrampur","26.7172896","83.49912359999999"
"ChIJX3AJtj9bkTkRINqtIXmY4TI","IndianOil","Jungle Ramgarh Urf Sarka","26.7463499","83.4875885"
"ChIJQQbkHD1fkTkRL-aFhUc-VJI","IndianOil - SWAGAT","Ground Floor, AP Station, NH 27, Sonbarsa Bazar, Kaithawalia","26.740978","83.568936"
"ChIJY1Jm-AJfkTkRoNuu2h6ApTw","SWAGAT Sonbarsa Automobiles","NH-27, Sonbarsa Bazaar, Belwa Khurd","26.7397003","83.5692097"
"ChIJQeccmoJfkTkRBbZ7-vDD8Tg","IndianOil","Ground Floor, NH 27, Chauri Chaura - Sonbarsa Road, Belwa Khurd","26.74140599999999","83.5699068"
"ChIJcb1nuyLpkzkRY3YW68mhjEU","Nayara Petrol Pump KK son’s","PRM7+PFC, Bhujauli","26.7336748","83.8145186"
"ChIJ0xN6JBvmkzkR96ZfIDsyBFA","Hindustan Petroleum Corporation Limited","Ground Floor, NH 28, Gorakhpur Tamkuhi Road, Hata","26.7407859","83.75495339999999"
"ChIJ93q7EY_pkzkROL7FeLRGa_o","Bharat Petroleum Petrol Pump , SHIVA FUEL CENTRE","","26.7367457","83.7862858"
"ChIJ4SV4eQDpkzkRJko0QKkDVlI","Bharat petroleum petrol pump , Shubh ashirwad fuels","NH 27, chaknarayan, Hata","26.7361664","83.78565359999999"
"ChIJieSVL93pkzkR1Te94drs7ak","Sharna Mobile Shop","1, Piprahi Bharkulwa","26.7342327","83.7946085"
"ChIJk59wIQDpkzkRvhjoI9eBX0c","Kamla singh filling station","PQQG+5VG, Chhapra Bhagat","26.7379435","83.77721"
"ChIJGzDTrKXokzkRv7FmtORjFww","IndianOil","Ground Floor, National Highway 28, Pagara","26.7397008","83.7699057"
"ChIJEcABJv_pkzkRdvZsnh047Sc","JMV Transport Bhujauli Hetimpur","PRM6+H75, Bhujauli","26.7338871","83.810743"
"ChIJ07NMHYzpkzkRSboiZKtLdOM","IndianOil","Ground Floor Deoria, Bhatni Buzurg","26.72954799999999","83.823189"
"ChIJN9IASgDnkzkRJHG-OJUDAG8","Vi sim","PPQV+CGG, Pipraich Rd, Hata","26.7385509","83.7438188"
"ChIJaTgARADnkzkRj9WZ9gxc_pI","भारत पेट्रोलियम पेट्रोल पम्प, शुभ आशीर्वाद फ्यूल्स","NH 27, Chaknarayanpur","26.7453458","83.744349"
"ChIJaS-3OD_mkzkRUrKlt07KzUg","Lalji Lal Kisan Seva Kendra","PPFV+X23, Gauri Bazar - Hata Road, Bikram Bhisunpur, Baghnath","26.7248869","83.7425556"
"ChIJddWKgRKWkzkR03ygEpWt0wo","Nayara filling Station","Dhunwalia, Kushinagar, NH-28, Basti Kushi Nagar Road, Kushi Nagar, Kushinagar","26.6924","84.0274"
"ChIJa4IYnMCVkzkRH3-FKSTw2t8","Om Jagdamba Filling Station","Jokawa, Jokawa, National Highway 28, Madhuria","26.6976558","83.9958362"
"ChIJly-qnsCVkzkRhzy7-vHia1A","IndianOil","Ground Floor Banbira, Fazilnagar","26.697984","83.996083"
"ChIJXcCUzdWVkzkRtdCZkqQOfvI","Reliance perto pump jio bp","near by Kasia, Dhanha Road, urfe, Dhanha Urf Maludih","26.7028633","83.98431579999999"
"ChIJNwTObQOVkzkRL8wCZ2k4vhc","Gyanvi Chandra Petroleum HP Petrol Pump Malludih","Ground Floor, Karmaini Kasya, Dhanha Urf, Dhanha Urf Maludih","26.703171","83.98212099999999"
"ChIJobt2U6yVkzkRxZkWSPxPiRU","Hindustan Petroleum Corporation Limited","Kushinagar, Ground Floor Prem Wallia, Kasya","26.7108342","83.9726072"
"ChIJ-TM0lAiVkzkRtpY8ojPVKV0","Tegra Fuel station","ward no 2, Premwalia, tukeshwari nagar, kaya","26.7135836","83.9747529"
"ChIJ84zRTwCVkzkRunkxNFPClJY","Tegra ho fuel station","PX79+98F, Kushinagar","26.7134437","83.9683046"
"ChIJQxOQfACVkzkRYqN15gzcL04","HP Tegra Fuel Station","PX69+RCC, Kundwa Urf Dilipnagar","26.713196","83.96801599999999"
"ChIJkQNIE_aVkzkRs5iSkom5xuk","Hindustan Petroleum Corporation Limited","Ground Floor, Barwa Jungel, Dilip Nagar, Kushinagar","26.7176783","83.9592978"
"ChIJ-fUXEYCXkzkR3HS8gds3mFc","IndianOil","Lock No, 22001, National Highway 28, Banbeera","26.691178","84.031843"
"ChIJu8li8xOWkzkRDMIXE6n2utw","Abhideep Auto Oils Pawanagar","M2RJ+7W2, Amawa","26.6906447","84.0322673"
"ChIJTZlcKWKZkzkRRCKjBLDKbzM","Suvidha Energy Centre","NH 27, Old NH 28, Tamakuhi Raj","26.6882175","84.180534"
"ChIJ-4rxEQCZkzkRuQyT5cq1oFE","Tamkuhiraj","M5RJ+QVW, Tamakuhi Raj","26.6919796","84.18220149999999"
"ChIJXzD2cLGYkzkRWsynw4xJmyM","Hindustan Petroleum Corporation Limited","Ground Floor, NH 28, Tamakuhi Raj","26.689001","84.176401"
"ChIJeSd6GQCfkzkRy3IVw4eruQQ","Jai maa shanti filling station ⛽ Bharat petroleum","Raj, NH 27 M5MQ+749, Hariharpur,tamkuhi","26.6832162","84.18876350000001"
"ChIJf3OYVzSfkzkRbMfwC7bbAZY","IndianOil","Ground Floor, Tamkuhi Raj,Pipraghat, Tamkuhi Padrauna Road","26.705275","84.18867499999999"
"ChIJr5j1FQCZkzkRvU-WQoVXjj0","H P Hindustan Petroleum Pump","M5R6+GRC, near Tata Hotel, National Highway 27, Tamakuhi Raj","26.69190670000001","84.16235309999999"
"ChIJWb9XOgCZkzkRCs50ZP7Eh4w","Pallavi Filling Station","M5R6+WV2, Bhatawalia","26.6922695","84.16214020000001"
"ChIJ-0D6R0uhkzkRVTyg9CQE5WU","Guddu Arya","Ghazipur","26.6712606","84.1858761"
"ChIJEaFAQwChkzkR2MgdQblYPIo","National Fuel Centre","Tamkuhi Raj","26.6716972","84.1909592"
"ChIJS8rDkRKjkzkRJVtLX7jKffQ","Mukesh Kumar","Kushinagar, Gajipur Tamkuhiraj","26.6684515","84.1831059"
"ChIJM80aAUSfkzkR_nm8k3UqV2Y","Narayan Fuel Point: Bharat Petroleum Petrol Pump","Unnamed Road, Chakhani Khas","26.6901406","84.2152867"
"ChIJL9M14c-fkzkRxoSsugNo-lE","Exifuel Petrol Pump","P59W+3M4, National Highway 730, Ahirauli Hanuman Singh","26.7174395","84.1964164"
"ChIJrSjs8rqhkzkR7F5EsuvRt8c","Hindustan Petroleum Corporation Limited","Ground Floor, NH 28, Tamkuhiraj, Madhopur Buzurg","26.660961","84.199851"
"ChIJh-f24duhkzkRQKGAhXLN_Jg","SUMANT KUMAR SAURABH","Highway Police Chauki, Salemgarh Purani Bajar Nh 28, Kushinagar","26.6599804","84.2008086"
"ChIJDctICOuhkzkRJey0stV_GNk","IOC PETROL PUMP : RAJ HIGHWAY SERVICES","National Highway 28, Madhopur Buzurg","26.6580924","84.2033752"
"ChIJLd-xx-ChkzkRG9mSImANarc","Bhavya filling station BPCL","Madhopur Buzurg","26.6550825","84.2043001"
"ChIJtbfaybIakzkRWFYCjEIDgZs","IndianOil","Ground Floor, Bhitbherwa, Amwa nakchhed","26.488724","84.437608"
"ChIJBSn7zDQFkzkRqKPqXARIBew","IndianOil","Ground Floor Sareya, Amwa nakchhed","26.4728","84.4383"
"ChIJuRFJ7WMPkzkRYmF70r-dr7A","IndianOil","Ground Floor, NH 28, Konwamore, Khajuria, Gopalganj","26.5027","84.3817"
"ChIJH-Jm4SwFkzkRh74dEiryNYM","Bharat Petroleum","FC6P+HMR, Barharia - Gopalganj Road, Jangalia Muhalla, Gopalganj","26.4614887","84.43662570000001"
"ChIJM4nA6tIakzkRdKVGalFga-0","IndianOil","Ground Floor, Amwa nakchhed","26.4633094","84.4396467"
"ChIJdwSObDQFkzkRr_ruoir73AU","Reliance Petroleum","Land Plot No 997, Khata No 48, Thana No 53, Nh 28, Konhwa","26.4881559","84.4000793"
"ChIJAX_LufMFkzkRdEzukVjf4-I","Yadav Uriya Pump","NH 28, Konhwa","26.4981243","84.3862043"
"ChIJ1fZKpzYFkzkRsSVc30Ijf2Q","IndianOil","Ground Floor, Banjaree, NH 28, More, Amwa nakchhed","26.471561","84.43307399999999"
"ChIJPxnzhzQFkzkR4IVhX6TWvFk","Hindustan Petroleum Corporation Limited","Ground Floor, near Banjari, Chowk Road, Chowk, Banjari","26.4711205","84.4357735"
"ChIJXwtqFMAbkzkRNUSibYWNYjk","Basdila","FCGR+2RV, Ward 7, Gopalganj","26.4751148","84.4420557"
"ChIJjWRp4icbkzkREuVzHrcVzoE","ARYA PETROLEUM (BHARAT PETROLEUM CORPORATION LIMITED)","FCGV+C52, Yadavpur Road, Ward 7, Gopalganj","26.4760148","84.4428944"
"ChIJl4j-3-sFkzkRf2pdeQBkiLM","IndianOil","Ground Floor Dahibhatta Bazar, Uchkagaon, Amwa nakchhed","26.47682","84.374178"
"ChIJUwdEXQAbkzkR1DGoStWWPp4","CNG","FC6R+63Q, Ward No. 15, Gopalganj","26.4605776","84.44024619999999"
"ChIJPZckX5APkzkRLP8YuBBLtzg","IndianOil","Ground Floor Jadopur, Amwa nakchhed","26.52172999999999","84.428207"
"ChIJnZ_vhSkFkzkRi8fCSMpM_KI","Mini Petroleum","Thawe","26.4451288","84.3986219"
"ChIJvbQ4tTEbkzkRp5LhxSSzEEk","Bharat Petroleum, Petrol Pump -Jagdamba Fuels","Banakata, Gopalganj","26.4585175","84.4453376"
"ChIJcx9B4GQPkzkREoCsvhiqU_g","Vishwakarma steel fabrication","Mathia Panre","26.5144321","84.3734064"
"ChIJzZ4lC4QhkzkRQrLTzGI4yFc","NAYARA ENERGY PETROLIUM","National Highway 27, Sadawa","26.40641919999999","84.642483"
"ChIJ4YDKt8oYkzkR2_WXY1JBwtc","IndianOil","Ground Floor Mirzapur, Gopalganj,Bardahiya","26.41215829999999","84.5838014"
"ChIJD3u3RoIhkzkRpz-pTvyBY0k","IndianOil","Ground Floor, Sidhwalia Sadauan, Barauli, NH 28, Achhaibar","26.40567","84.648017"
"ChIJsfJ2vj8fkzkRRAQGy67dNcQ","IndianOil","Barauli","26.3896995","84.58373160000001"
"ChIJ6co8a9khkzkRHojlPLkTZJQ","Hindustan Petroleum Corporation Limited","Ground Floor, NH 27, Rampur","26.4069076","84.6298863"
"ChIJ_ddSscUZkzkRegQf7vQ0TbI","Swagatam Bharat Petroleum BP Petrol Pump","CH6V+XG2, National Highway 27, Barauli","26.41239789999999","84.593766"
"ChIJ12k7gtAfkzkRCIVsLIFu9gE","Bharat Petroleum, Petrol Pump -Swagatam","NH 28, Sonbarsa","26.4146096","84.58771829999999"
"ChIJl_xQrtAhkzkRvmWuuZA0EiU","Futaniganj petrol pump","CM34+PGX, National Highway 27, Kalyanpur Madhubani","26.4043583","84.6563572"
"ChIJX8-hVhQfkzkROdghU8o7zRU","IndianOil","Ground Floor Barauli, Achhaibar, Pipra","26.384617","84.582336"
"ChIJh4J2Mz4nkzkRVjCNwCoXMig","IndianOil","Ground Floor NH 28, Shio, Tekniwas, Mohammadpur","26.3488783","84.7097861"
"ChIJ0yypw8onkzkRMI2tYH6HTU0","BHARAT PETROLEUM DIESEL PETROL CNG EV","National Highway 28, 27, Mohammadpur","26.3541754","84.7028174"
"ChIJxRw-QiEmkzkRCxnKQg6hz9A","Hindustan Petroleum Corporation Limited","Ground Floor, SH 74, Rampur Khajuria","26.3902752","84.7690777"
"ChIJ6y2PELonkzkRwXCCfV_fHpM","IndianOil","Ground Floor, NH 28, Amarpur, Mohammadpur","26.3513514","84.70211359999999"
"ChIJ_yYopfAnkzkRlIPvrJMrgXg","Bharat Petroleum, Petrol Pump -Satyam Service Station","Mohammadpur","26.3528808","84.69832699999999"
"ChIJRxOFOwAvkzkRim3bKUHJSPc","D.E.F Adbule Urea Pump ⛽","CQXM+P5R, Sarotar East","26.4494543","84.78298199999999"
"ChIJ_WzvYQ0vkzkRPoTriawv0OY","SAHEED KD Service","National Highway 27, Dhangaraha","26.4403976","84.7753787"
"ChIJr_nl70cvkzkRZhZplQMJ-DQ","Indane - Nikumbh Gramin Vitrak","Ground Floor, near Dj Raj Petrol Pump, Gopi Chapara","26.4551734","84.78844269999999"
"ChIJjwkmoXMvkzkROh-GuZvXObM","Indian Oil","India","26.4586116","84.7914169"
"ChIJea-NCnMvkzkRQJ8-uxU5lSI","DG RAJ HIGHWAY SERVICE LFRO","NH 28, Belwa Madho","26.4587918","84.79166939999999"
"ChIJjROjgiMvkzkRI9GTMGf9i18","Bharat Petroleum, Petrol Pump -Sagar Filling Station","BANGRA,NH28,EAST CHAMPARAN, CHAMPARAN EAST","26.4609296","84.7921683"
"ChIJKXr30v8lkzkR4hWfeL_dJq4","IndianOil","Ground Floor, NH 28, Shambhuapur, Ghat, Dumaria","26.4198709","84.77124669999999"
"ChIJt8MtBTQnkzkRP9zXkLVHH1E","Mr Roshan Kumar","S/o, Rajnath Yadav Semuapur Masjid, Po, Semuapur, Dumaria","26.4047688","84.7714819"
"ChIJx5jOxLEvkzkRPwPP5zQG0lg","IndianOil","Bangra, Ground Floor NH 28, Jasauli, Belwa, Belwa Madho","26.47930999999999","84.808313"
"ChIJ0TvAdQAvkzkRRkzWnQeLnZ0","Maa highway CNG and petroleum भारत पेट्रोलियम कारगिल पम्प","CQQG+J5V, Kesariya","26.4391112","84.77541959999999"
"ChIJmVDvS8kykzkRtZDt-w2n5_w","IndianOil","Piprakothi","26.5475565","84.9338916"
"ChIJ-UAxGGczkzkRMECwzo4ggpw","MEHILAL PETROLEUM","National Highway 27, Ratanpur","26.53413579999999","84.9039993"
"ChIJrwRqTQ8ykzkRhE-Jsax_BWk","IndianOil","Ground Floor, Thana No 21, Kotwa, Baharupia","26.5220649","84.8679028"
"ChIJsejCTAMzkzkRIl3VZ_31tes","IndianOil","Ground Floor, Motihari Bypass, Piprakothi","26.5694612","84.9090162"
"ChIJ8wjfu7ctkzkR3lY56TUW-1E","IndianOil","Ground Floor, Madhuban Vediban","26.499685","84.92976399999999"
"ChIJqU7XscIxkzkRHtPj2ugQQLA","Ramchandra & Sons Hp Gas Gramin Vitrak","Kotwa Bazaar","26.5166486","84.8529515"
"ChIJhWUZmvgn7TkRzJ9YOEUv9Ek","IndianOil","Ground Floor, Balo Chak, Chak Bara","26.40517","85.063248"
"ChIJn_As5zfX7DkR2-R84XG3zVw","TARIQUE FOOD","48, IMADPATTI","26.401864","85.06539389999999"
"ChIJZaE0-hfX7DkRL7p3xUiX6l8","IndianOil","Ground Floor, Chakia","26.41507399999999","85.0622005"
"ChIJx06L89nW7DkRqiQ8bcRgpfw","HP PETROL PUMP - CHAKIA HIGHWAY SERVICE CENTER","HP Petrol Pump PO Barachakia, Chakia","26.415748","85.06005499999999"
"ChIJB22_8ebX7DkR2fcIMt0hFaA","Hindustan Petroleum Corporation Limited","Ground Floor, NH 28, Chakia","26.4157905","85.06003899999999"
"ChIJt6pJxTTb7DkRRb3kV5DV9LI","Bharat Petroleum, Petrol Pump -Jai Matadi Oil Centre","Madhuban Road, Mehsi","26.4180851","85.0564854"
"ChIJAxtbQdvW7DkRu8TjAMLWA_o","IndianOil","Ground Floor, Balo Chak, Chakia","26.4145575","85.050175"
"ChIJQQRAKUXX7DkRqxc-Vjk3pTU","Jio-bp","PS & POST OFFICE, NH-28, VILLAGE HARPURNAG, THANA NO 110, TALUKA, Mehsi","26.3850347","85.0795798"
"ChIJxzPwZgDX7DkRbaWywhhBYmY","Bharat petroleum","C2GM+8G7, Brindhavan","26.4259844","85.0341649"
"ChIJteC35lLX7DkRg9lnKFMk5rQ","Pandey And Sons Petrolium","National Highway 27, Harpur Nag","26.3809323","85.08410359999999"
"ChIJ19fstUbX7DkREgnvpYIrs9U","Hindustan Petroleum Corporation Limited","Ground Floor, NH 28, Motipur Road, Chakia","26.3810958","85.08460529999999"
"ChIJI399S5rX7DkRc6WgrMuECN4","Indian Petrol Pump","C2GM+CG5, shri ram Chowk, Chakia","26.4260088","85.03385209999999"
"ChIJxbYATaDX7DkRpzAw8gAxF8s","IndianOil","Ground Floor, Manichapra,Balo Chak, Manichapra","26.3795658","85.08390159999999"
"ChIJ1RgQ5UvR7DkRT213PnWaHOY","IndianOil","Ground Floor, Chakia","26.433241","85.039806"
"ChIJc9dngGbW7DkRPLTXFf_72dE","Samridhi Petro","92CQ+VJ7, Bakhri","26.372153","85.03905759999999"
"ChIJcRbJdmbW7DkRMGLjYuYpbvo","Raghaw Harishankar Petroleum","92CQ+CMQ, Bakhri","26.3710809","85.039233"
"ChIJCzv5D63R7DkRsi_oSNCfjfs","IndianOil","No 17, Bazitpur, Madhuban Thana, Ground Floor, Near Jogauliya Thana, Chakia - Madhuban - Sheohar Road, Chakiyan","26.4395258","85.0897674"
"ChIJ5T3C00LX7DkRmEIJOoYEMCk","IndianOil","Ground Floor, Thana No, 142, Bansghat, Chakia, Ajgarhimath, Motihari","26.3701977","85.0389199"
"ChIJ74Oa4obR7DkRtyLcIEuEIi0","Hindustan Petroleum Corporation Limited","Ground Floor, Chakia","26.44052599999999","85.0327729"
"ChIJld9p0YzR7DkRwTewQZ6CmAE","Chandan HP Fuels Mart","C2RM+F24, NH-28 semra, NH-28, semra, Chakia","26.4407313","85.03289070000001"
"ChIJJ1IGVikn7TkRGI3BBSe_CPI","यूरिया पंप urea pump","Bakhri Nazir, chakia, Mehsi","26.3282272","85.1217561"
"ChIJ1XNym_gn7TkRn1x02nk1knQ","Maa Bindwasni Petrol Pump","Maa Bindwasni Ptrol Pump, Mehsi","26.3360242","85.113326"
"ChIJQ_1SUETZ7DkRiytFrv-_vzA","Kamakhya Shah & Sons BPCL Petrol Pump","NH 28, Bathna, Parsauni Dewajit","26.3363241","85.1109232"
"ChIJHUQLhUbX7DkR0OaqQwkn1Y0","IndianOil","Ground Floor, Ahiyapur, Chak Laloo","26.3576589","85.1042777"
"ChIJse0eUpTX7DkRNHYlI7BJk-g","Deepak Shop","934X 583, Chak Laloo","26.3549151","85.09890109999999"
"ChIJ24-68a4Q7TkRHPm4eBRwWwE","Hindustan Petroleum Corporation Limited","near Bus Stand, Ground Floor NH 28, kolhua, Paigambarpur, near Bus Stand, Bairia","26.147823","85.361862"
"ChIJz4bHSZsQ7TkRPgwerpMStX4","IndianOil","Ground Floor, Akharaghat Zeromile, Ahiyapur, Purushottampur","26.149477","85.385616"
"ChIJf52OeOkZ7TkRroqHDdA5Chk","IndianOil","National Highway 28, Chhapra Dharampur Jadu","26.1723745","85.3382292"
"ChIJ_Sd-eBAZ7TkRHWR-XAyBovE","Hindustan Petroleum Corporation Limited","Ground Floor, NH 27, Kalwari, Kanti","26.173533","85.338144"
"ChIJqQEg2fwZ7TkRmHVTQGz13bo","Bharat Petroleum","India","26.1586322","85.34552070000001"
"ChIJe8B1SDcb7TkRbCMYlpRRxHo","IndianOil","Ground Floor, Paigambarpur Kolhua Ahiyapur, Kanti, Chhapra Dharampur Jadu","26.168915","85.36009399999999"
"ChIJTbLFXxsa7TkRSXPAX8U4O_U","Induno","India","26.1691745","85.3602425"
"ChIJITBJGVkX7TkRm9Q0XIXOeRo","Bharat Petroleum, Petrol Pump -Narayani Fuels","NH-28, Kolva Pagambarpurmu, Muzaffarpur","26.1517569","85.3412163"
"ChIJFYCiKjkR7TkREJtw44rij5A","Mahavir Auto Service","Zeromile Chowk, Bairiya Road, Muzaffarpur","26.152568","85.35203059999999"
"ChIJH8XhQ2MX7TkRN4MMRpOLrtc","Baba Fuel Point","582F+6CQ, Unnamed Road, Chiknauta urf Harpur Lahauri","26.1505897","85.3235988"
"ChIJzQLqc64Q7TkRdy3AJkgF_TI","Bharat Petroleum, Petrol Pump -R.C Filling Station","BAIRIA GOLAMBAR, Kolhua Paighambarpur, Railway station road, ward-1, Muzaffarpur","26.1458337","85.36057989999999"
"ChIJsapgTYsX7TkR_C2LfyhAeas","IndianOil","Ground Floor Kanti, Bishanpur, Damodarpur, Muzaffarpur","26.139595","85.349605"
"ChIJmVm-Hd8Z7TkRnkybW3m8vbU","IndianOil","Ground Floor, Kanti","26.1940256","85.3165798"
"ChIJhSH247MQ7TkRY5kTOge5UVM","IndianOil","Ground Floor, Chandani Chowk, Muzaffarpur","26.13951459999999","85.3597158"
"ChIJm1MCMTUX7TkRDcXQMIp6K1w","Shanti Petrol Pump","Oom Nagar, opposite swayamvar vivah bhawan, After, Railway Crossing, Navijaan Colony, Damodarpur, Jaiprakash Nagar, Muzaffarpur","26.1361227","85.3542983"
"ChIJw7tP-bkQ7TkRZ_De_taVIfE","IndianOil","Ground Floor, Laxmi Chowk, Collectorate, near Muz, Muzaffarpur","26.138188","85.365636"
"ChIJpxpsdDIR7TkRyJZVzLpXaZE","BABA BAIDHNATH FUEL CENTRE","Rajepur Maduaha, Tetariya, Road","26.1354584","85.3622338"
"ChIJ76uUGJkQ7TkRJZy_q7HccoE","IndianOil","Ground Floor Chakgazi, A, Purushottampur","26.14892","85.378822"
"ChIJb7Yh9f8R7TkRVgdNwtN1d6A","IndianOil","Ground Floor, Near Muz Collectorate, Brahmapura, Muzaffarpur","26.13003","85.35853999999999"
"ChIJpWQ_DscQ7TkROuG_y261moY","Bharat Petroleum, Petrol Pump -Zenith Fuels","49Q8+82J, Brahampura Main Road, Daudpur Kothi, Muzaffarpur","26.131987","85.3662557"
"ChIJue1x86sa7TkRZcK2FCDNjAE","IndianOil","Ground Floor Patiasa, NH 57, Amma","26.163838","85.43357800000001"
"ChIJ8UY-1HEb7TkRH6f1SilBB5E","Hindustan Petroleum Corporation Limited","Ground Floor, Ghirni Pokharrd, Muzaffarpur","26.163251","85.431821"
"ChIJWykPNqYa7TkRYKLuQkwmNf4","IndianOil","Ground Floor, Near Muz Collectorate, Bakhri Crossing, Musahri, Muzaffarpur","26.161016","85.4256142"
"ChIJ1z-KDmIP7TkRBX_4IcxBvgs","IndianOil","Ground Floor NH 57, Bazidpur Majhauli, MIT, Muzaffarpur","26.160401","85.492902"
"ChIJHwCEkawF7TkR93SNRTL3Sfk","IndianOil","Ground Floor Barhatta, Harbalam, Amma","26.2050262","85.4849831"
"ChIJd5rJjqwJ7TkR8_-9RiiehYg","IndianOil","Ground Floor Maithi, NH 57, Adi Gopalpur","26.11267","85.56725899999999"
"ChIJCzOm2tAJ7TkRiDnMa6A5XzE","RADHA FUEL STATION","MUZAFFARPUR, NH 27,BERUA,GAIGHAT","26.1206684","85.5964583"
"ChIJ9wL4ewCn7TkRORjX5qSU2dw","IndianOil","Ground Floor, NH 57, Darbhanga Road, Bochahan, Muzaffarpur","26.125266","85.614755"
"ChIJo86nSwAJ7TkRJkgobnvZqbg","Ranjit patel","4H99+8HF, Maithi","26.1183037","85.5689288"
"ChIJKRRI74oJ7TkRStJaO2ceVmw","Kanha Sutha Milk Parlar","Maithi Toll Plaza, Darbhanga Road, Muzaffarpur","26.1127422","85.5648283"
"ChIJu7OPFAAJ7TkRLkoAPqmeqSo","BALA JI PETROLIUM SERVICE","Maithi Toll Plaza, East-West Expressway, Maithi","26.1127422","85.5648283"
"ChIJJ0a3HwAJ7TkRXR5s237obnA","NKS and VKS PETROLEUM","4H57+5C, Maithi","26.1079613","85.5635458"
"ChIJjemepaUJ7TkRsagU7i8fADg","IndianOil - SWAGAT","Ground Floor, Vasantpur Majethi, B Basudeo","26.1152648","85.5517064"
"ChIJQbUAM5-w7TkRNfbQDn3NkK0","Indian Oil Petrol Pump","5RGG+9H6, Manihas Kansi","26.1759082","85.82640529999999"
"ChIJjW1ym12x7TkR-izcLT_pK1Q","Reliance Petroleum","Plot No 232, Khata No 82 Mabbi Belauna, Nh 57, Chakka","26.1821354","85.8366719"
"ChIJre4FUKWw7TkRKAvHsg4r4Xs","M/S Gauri Petroleum","Basudeopur, Darbhanga, NH-57, Darbhanga","26.1815642","85.83781570000001"
"ChIJrUERY1G37TkRIbAYsW0_xhs","Hira Petroleum","NH57, East-West Expressway, Bastauli","26.1790002","85.85398169999999"
"ChIJX5hCj1637TkREUO1qQ5rG1I","IndianOil","Ground Floor, Mabbi Belauna","26.1785671","85.8604065"
"ChIJhysPxyC67TkR0yDcLQdlPS8","Bharat Petroleum","India","26.1421901","85.84693589999999"
"ChIJ2RW_bzHO7TkRn8yS-jUGnrU","Hindustan Petroleum Corporation Limited","Ground Floor, Madhubani - Sakri Highway, Sakri East","26.2312401","86.08013009999999"
"ChIJK0hBIDHO7TkR-hz2ANcWZpI","Petrol Pump","Madhubani - Pandaul - Sakri Road, Sagarpur","26.2331928","86.07962529999999"
"ChIJjZc8Nq_P7TkRfb2fEtNI0eo","Sahib Petroleum Station","6375+75Q, kanakpur","26.2132236","86.0579973"
"ChIJl0jFtajP7TkRxhzFOL48cIA","IndianOil","Ground Floor, Nimrauli, Madhubani, Mohan Badhiyam","26.21347759999999","86.05853719999999"
"ChIJ4QYbC5LP7TkRdHGq6FS6CRo","IndianOil","Ground Floor Manigachhi, Narotimpur","26.202066","86.069064"
"ChIJg513ebrP7TkRCoa4ZGovmVY","Bharat Petroleum, Petrol Pump -A.A Petroleum","SAKRI CHOWK, MADHUBANI, Madhubani","26.2171298","86.07969070000001"
"ChIJw0a4NADP7TkRbXKyjk_FQVU","Shyeem gas agency Mohammad pur","62PW+PJP, Mohammadpur, purnea","26.2368265","86.046587"
"ChIJr-e1aLHP7TkRBJHdj_S6RS8","VAIDEHI PETROLEUM","Mohanbariam","26.2251246","86.08070149999999"
"ChIJsRIj88zI7TkR_-sPXYq1-UE","IndianOil","Ground Floor, Muria","26.20586279999999","86.00949709999999"
"ChIJE4hM29N47jkR97nSVpN5t_w","Hindustan Petroleum Corporation Limited","Ground Floor, NH 57, Kanhauli, Jhanjharpur","26.2741962","86.2864498"
"ChIJgVpB4s547jkRBnxUfibcplk","IndianOil","Ground Floor, Simrah","26.271122","86.288429"
"ChIJs-IdSWvW7TkRVlRuPl7xcks","Hindustan Petroleum Corporation Limited","Ground Floor, National Highway 27, Jhanjharpur, Kothiya","26.257071","86.235833"
"ChIJV4J5jFjX7TkRPssPgcLsV1M","S RAJ SERVICE STATION","NH-27, BALNI MEHATH, Jhanjharpur","26.2750041","86.2528796"
"ChIJfdYgJwDX7TkR6mt2OHZEniU","CNG pump","77G3+44J, Balni Mehat","26.2753554","86.2530621"
"ChIJ5ZO4akF57jkRWUFDIRqbdfA","Kanhaya gas","773G+4F9, Jhanjharpur","26.2527621","86.2761819"
"ChIJyTCT8vV57jkRPzuxwqJeKV0","IndianOil","Ground Floor, Goth, Jhanjharpur","26.247529","86.27543150000001"
"ChIJZ3zJ-rx57jkRKI67V6gbHok","Bhavya bharat gas agency","National Highway 527A, Jhanjharpur","26.24901659999999","86.2765856"
"ChIJM4d1wk6hkTkRVXFsG3tBKz4","IndianOil","Ground Floor Lohnap, Bhairavasthan, Madhubani, Kaithwar","26.2333027","86.22035149999999"
"ChIJnfKE-_Z57jkRai86ifq31hE","DEEPAK GAS STORE","NIRMALI","26.2307845","86.2662926"
"ChIJXZVjjuhi7jkRNt_bH1i_cPc","Bharat Petroleum, Petrol Pump -Ishani Filling","SIJOLIA, NH-57, MADHUBANI, MADHUBANI","26.340957","86.4418288"
"ChIJzdRF0M1j7jkRKOKba320LE4","Vechile pollution testing centre","Khutauna-Phulparad Road Siswa barhi, Phulparas","26.36335619999999","86.4921332"
"ChIJz_Vhp0Fg7jkRiylS6UuRYkA","Jio","India","26.3508185","86.55799689999999"
"ChIJ8wzET5Rh7jkR2ql3f5xr3Wk","Jio BP Petrol Pump M/s B2 Fuels","near Madhuvan Line Hotel, BHF-140, National Highway 27, Navtoli, Phulparas","26.3506414","86.5577727"
"ChIJ6eQSVh1h7jkRSjHqeDLT6oQ","Pawan petro Services","Navtoli, Narhiya South","26.3526875","86.5475625"
"ChIJn3sDRRVh7jkRm--Ahw6F8_U","Hindustan Petroleum Corporation Limited","Ground Floor NH 27, Phulparas, Laukahi, Navtoli, Auraha","26.3535309","86.5470224"
"ChIJHb5Q2Ulg7jkRj0P0vUNdaNo","IndianOil","Ground Floor, Narhaiya,Dhanauja","26.353909","86.546785"
"ChIJ7QpABwBh7jkRfnpM721Kb1E","IndianOil","Ground Floor, Navtoli, Laukhi,Dhanauja, Madhubani","26.3539642","86.5467728"
"ChIJo_eZeqJh7jkRse9Y7KjPWEY","PHOOL DEVI","Faitki, Kutti","26.3195286","86.5703556"
"ChIJF0loEbJf7jkRiJzextU_Apk","Hindustan Petroleum Corporation Limited","Madhubani, Ground Floor Nirmali, Hariyahi","26.336902","86.609775"
"ChIJoyHwuZRf7jkR6usDUYI6LPQ","Bharat Petroleum, Petrol Pump -Pansary Brothers","NIRMALI, SUPAUL","26.3083562","86.56708630000001"
"ChIJ14it5Ihb7jkRzD-muitS3jg","IndianOil","Ground Floor, Sariagarh","26.2747991","86.6909834"
"ChIJfV56t2xU7jkR5wtLXJtwJmU","Hindustan Petroleum Corporation Limited","Birpur - Madhepura - Bihpur Road, Simrahi Bazar","26.3067333","86.8426485"
"ChIJVeTqIgZU7jkRk-duoCK01Oc","Petrol Pump","National Highway 106, Sait","26.2945876","86.83140770000001"
"ChIJnwODF_pV7jkR0gCtpIz4nww","TPD FUEL CENTER , NH 27, Rambishanpur Raghopur Supaul","NH57, Ram Bishanpur","26.3111853","86.8708384"
"ChIJbch0UFJV7jkRYt8oLqSbf4k","Amit Kumar","Simarahi","26.31204480000001","86.8464132"
"ChIJI5sESrlV7jkRPPpsjVKg8M0","Suraj Pan Palace","Simarahi","26.3098422","86.8435724"
"ChIJBTVzQcZV7jkRSwaZGVflv0E","Maya Drugs Store","Maya Drugs Store, Simarahi","26.3121257","86.8278265"
"ChIJk4_vyJZT7jkR8WVD2PwXois","Vibha Fuel Center","7RCX+WC8, Pratapganj Road, Gaddi","26.2722815","86.8485881"
"ChIJa0Y0EJlX7jkRDf7RrSAcLGA","Hindustan Petroleum Corporation Limited","Ground Floor, NH 57, Raghopur","26.312585","86.81863799999999"
"ChIJkRDTYoGn7zkRgIdmA4Y7hts","IndianOil","Ground Floor, NH 57, Nathpur","26.3334431","87.0768762"
"ChIJzdncvH6n7zkRP8c8hnIomKs","IndianOil","Ground Floor NH 57, Rajganj, Narpatganj Road, Badahara","26.336141","87.07970999999999"
"ChIJ67eJVjqp7zkREzUMIiPIVag","Krishna Petrol Pump","Pratapganj","26.3309679","87.044782"
"ChIJsVWRK0un7zkRcU7KCS1jER0","SHIVA DIGITAL KENDRA","84M3+MWQ, PHARHI, WARD-07, Narpatganj","26.3342129","87.1048702"
"ChIJQytQXgmp7zkRzXIbWD9ey6Q","IndianOil","Ground Floor, Balua Bazar, Chatapur","26.3617","87.039108"
"ChIJrVpWyl6p7zkR5lyS_GnnSBE","Mehar Fuel Mart","Ward No 05, To, Balua Bazar Road, Bhimpur","26.3619119","87.0389951"
"ChIJjd87oLyh7zkRiDYPqqbhzwE","IndianOil","Ground Floor Badhepara, Narpatganj, Amhara, Forbesganj","26.3270254","87.1933111"
"ChIJd5sJKdyh7zkRHNKSvSQUG5I","Hindustan Petroleum Corporation Limited","Ground Floor, East - West Corridor, Badhepara","26.325151","87.2166816"
"ChIJ76I2ryef7zkR0fUK-3P8vfc","Ragho Lal Hp","Hp Petrol Pump Nh-57 Ps - Narpatganj P O - Palasi Chakardaha Forbesganj, Palasi","26.3251984","87.2168701"
"ChIJRyg1DgCh7zkRthIWR7B7JSs","राजस्थानी होटल भीलवाड़ा ब्यावर अजमेर टोंक दौसा जयपुर","86FC+PCV, Badhepara","26.3243639","87.22104639999999"
"ChIJnV8QZbCn7zkR_ssy2iITAVI","IndianOil","Ground Floor Khaira, NH 57, Narpatganj","26.3306029","87.1518202"
"ChIJgXJ2VgCf7zkRqR5bUAhHqNk","A B S FUEL CENTRE","86MJ+GQ5, Bathnaha","26.3337629","87.2319753"
"ChIJAxE5GBOf7zkRw87qti3cvMM","IndianOil","Ground Floor, Forbe, Bhatiyahi, Bathnaha","26.3572857","87.21961309999999"
"ChIJl1KJceuf7zkRHko-2gFPsGQ","Bharat Petroleum, Petrol Pump -Lakshmi Service Station","Bathnaha","26.3427733","87.23711"
"ChIJhQaMWQSZ7zkRGZ5zSeQQ3OQ","IndianOil","Ground Floor, Dhol Baja Amhara, Forbesganj","26.2603911","87.2684463"
"ChIJ_-wxqCaZ7zkRbtUyo6A32_0","Hindustan Petroleum Corporation Limited","Ground Floor, Dhol Baja","26.2458466","87.27759329999999"
"ChIJgcf_ZM2Y7zkRnanVS4ZKsOg","HINDUSTAN SERVICE CENTRE","National Highway 27, Forbesganj","26.2908931","87.26237809999999"
"ChIJm5sYBQWZ7zkRyQXmajTT3jg","D S Highway Service, CNG STATION","Purnea - Araria - Forbesganj Road, Bishunpur","26.2616602","87.2692722"
"ChIJEe6p5G6Z7zkR5z_jHCnHFns","IndianOil","Ground Floor Forbesganj, Dholbajja,Amhara, Forbesganj","26.26192499999999","87.26949"
"ChIJM91BDSaZ7zkRcjxWWLiJL9Q","Hindustan Petroleum Corporation Limited","Ward No 6, NH 57, Professor Colony, Forbesganj","26.2858351","87.2662497"
"ChIJTTU_OTSZ7zkRUfi3jARXDGs","HP Petrol Pump","76FR+XQM, Milki More,Simaraha to gidavash and ranganj road","26.274957","87.2419299"
"ChIJd5H7IiuZ7zkRT-1D6tqLMG0","M/S PETROLEUM","GANDHI FIELD, Forbesganj Rd, Araria","26.29076229999999","87.2670598"
"ChIJPfOXKgCZ7zkRkT0m4fQ4rNQ","Amanullah Petrolium","76QW+935, South, Rampur North","26.2883945","87.2452301"
"ChIJe4LE-kmZ7zkRjPgZ51iDTU0","umar farooq petrol pump rampur","76JP+68W, Kursela - Forbesganj Road, Rampur North","26.2806045","87.23583409999999"
"ChIJe6LkcgCZ7zkRDFhFVgIL9Sc","Pump","77X9+CCX, Forbesganj","26.29860489999999","87.268613"
"ChIJDaaukzSf7zkRor74kRaufYc","H P Petrol Pump","Purnea - Araria - Forbesganj Road, Forbesganj","26.2966877","87.2513841"
"ChIJqz_G5hyZ7zkRjWrQ8Qn6wSk","IndianOil","Ground Floor, near Panna Paper Mill, NH 57, Amhara, Forbesganj","26.2966904","87.2513834"
"ChIJS8yZ77WO7zkR37oOGAVpIrY","IndianOil","PHED Colony, Araria","26.1363484","87.4561293"
"ChIJB5KLXTSJ7zkRKzKrRKo96HA","HP PETROL PUMP - KGN FUEL CENTRE","HP Petrol Pump Yashin Marg A D B Chowk","26.141762","87.463274"
"ChIJKSwadKWP7zkR0vm2yY4AAa0","SDM FUEL CENTER","Shop No, 1 Building, Bus Stand, near Vandana Restaurant, Forbisgunj Road, Araria","26.1364851","87.455973"
"ChIJQ5ARonOJ7zkRJEvTopkJKgg","OM SAI FUEL CENTRE","Om Sai Fuel Center, Khawaspur, Araria","26.1372387","87.46142859999999"
"ChIJ49dRl0uJ7zkRhODpm-Hq8do","Hindustan Petroleum Corporation Limited","Ground Floor, Adb Chowk, Yashin Marg, Araria","26.1326233","87.4634816"
"ChIJzf29zIKP7zkRvwdNhzobOmA","माँ कौशल्या टेडस्","4FR4+66R, महादेव चौक, Araria","26.1406202","87.4555196"
"ChIJBysA2U-J7zkRZLAXwvAwMVU","IndianOil","Ground Floor, Kakorwa, Bairgachhi","26.125841","87.468554"
"ChIJt7C_dsGP7zkRknMKcrn68UM","IndianOil","Ground Floor, Araria","26.14932900000001","87.451324"
"ChIJW9nVB_WJ7zkRzs6-2aO55Nw","Hindustan Petroleum Corporation Limited","Ground Floor, NH 57, Sisauna","26.117204","87.464073"
"ChIJNdONoE6P7zkRxnR8CMQgxB0","ESSAR Petrol Pump","SH76, Araria Mahalla, Araria","26.130704","87.434315"
"ChIJF79_tIuJ7zkRBX-9ixPBg1U","HPCL petrol pump","Unnamed Road, Basantpur","26.1491493","87.4747301"
"ChIJLUMrawCJ7zkRvTDGsO8rNmg","Jokihat Sisouna mango bagicha","4F8F+Q8V, Araria - Jokihat Road, Sisauna","26.116992","87.4733086"
"ChIJE9nnraaP7zkRNk5hgW19gx0","Fuel Center","Ward No 06 Bejnathpur, Bharat Petrol Pump, Araria","26.1310529","87.4316068"
"ChIJh3zSAACP7zkRyru9DVg59QQ","RANJEET YADAV (Ranjeet Traders)","NH327, Bhagmohabbat","26.1311474","87.43132419999999"
"ChIJm30yAI6O7zkRsRTla7biQgA","Indian Petrol Pump","4CJJ+77J, Araria Raniganj Road, Gidarya, Basti","26.130701","87.4306258"
"ChIJr0WKiViJ7zkRItNH3oPaCe8","IndianOil","Ground Floor, Zero Mile, Bairgachhi","26.1149495","87.47309399999999"
"ChIJb-7DguP57zkR24pKCLbyxWs","Anisun petroleum","Shop No 01 Ward No 02, Zero Mill, near AZMATPUR, Araria","26.1374778","87.4948076"
"ChIJ4URPa2KO7zkR7v8xoRaUF4I","IndianOil","Ground Floor, SH 76, Bhag Mohabbat, Raniganj, Bairgachhi","26.12929999999999","87.4196"
"ChIJm_tkNR-L7zkR2dM_f1xRUYo","National Service Centre","Zero Mile, Gaiyari","26.1057797","87.4779632"
"ChIJcdz6MgCP7zkR556BKhQoi2I","Abid Fuel Centre","4CC9+P86, Bhagmohabbat","26.12179719999999","87.4182728"
"ChIJfTcGSwNl5TkR9Ao8QLsGQAo","SH63.Jokihat Bihar","4JRF+G86, State Highway 63, Dhanpura","26.1412888","87.6232567"
"ChIJ7zw4tINl5TkRZLdrHGfhB1o","IndianOil","Ground Floor Jahanpur, Jokihat","26.158588","87.644155"
"ChIJyWProTdl5TkRFhZdvk81lCQ","IndianOil","Ground Floor Jokihat, Bairgachhi","26.140937","87.620447"
"ChIJI4ROSj5j5TkRs69b6dyXQRs","Hindustan Petroleum Corporation Limited","Ground Floor, SH 63, Jokihat","26.1420101","87.6089801"
"ChIJ_8V4XQBj5TkRkRH4zCwJ4cQ","D.S FUEL CENTRE","5JC6+VMJ, Araria - Jokihat - Palasi Road, Kumhiya, Ramnagar","26.1716383","87.611335"
"ChIJ9WxUhQdu5TkRu_YZFxISd-s","IndianOil","Ground Floor, Kochadhaman, Sontha","26.20364399999999","87.77557399999999"
"ChIJu-qhUVgX5TkRRnAgmhOOVgI","IndianOil","Ground Floor, Bishanpur, Kochadhaman, Kishanganj","26.2071161","87.75793999999999"
"ChIJ2StLyUJx5TkRBRIZgW_tfQ8","Petrol pump","6Q8F+65W, CHOWK, Mahadeo Dighi","26.2156002","87.7729411"
"ChIJL2MbxApx5TkR53MHbmab1hY","Bharat Petroleum Petrol Pump , MAA MANASA FUEL CENTRE","near MIDDLE SCHOOLPOST. BISHANPUR, KISHANGANJ","26.218781","87.75832299999999"
"ChIJTwo0kgpz5TkRYYd8QtIldLQ","Asama Charity","Nasimganj Bhaurdah, NATIONAL HIGHWAY, Bahadurganj","26.2901824","87.8470306"
"ChIJy4WjcYoL5TkR9i-AN-2yufg","Twinkle Fuel Centre","Khaikhat Chowk, Kumhiya, Lohagarha, Bahadurganj","26.3197491","87.9101733"
"ChIJX7HWFJIL5TkR7yaPDoDqHUw","Bharat Petroleum","8WC6+35V, State Highway 63, Tara Bari Padampur","26.3202422","87.9104225"
"ChIJ815uPgAH5TkRjmGI8IHIulY","Petrol pump","922C+6M, Tatpaua","26.3498747","88.02124320000001"
"ChIJjWQBuuQH5TkRDzCrRvPeAsk","Hindustan Petroleum Corporation Limited","Ground Floor, NH 327E, Tatpaua","26.3544071","88.0209167"
"ChIJvQGEQPsH5TkRyqKvHdoEiXs","NATIONAL FUEL CENTRE (INDIAN OIL)","National Highway 327, Amaljhari, Thakurganj","26.3521268","88.0594619"
"ChIJbzMvkZKs5TkRz7oFWhKDCgE","Petrol Pump","Bhajanpur","26.5236828","88.1398596"
"ChIJKTTp7Uur5TkR2K3P-UeUIF0","RAJU arts","Piprithan, Nazagachh","26.4824545","88.12533599999999"
"ChIJJaQrMDGt5TkRGafVPsHM6uM","DAS SHOE STORE","Singiya, Galgalia","26.5244977","88.1221865"
"ChIJTa4-yLit5TkRQmjPgZYc3BU","IndianOil","Ground Floor, opposite Chandanwadi Tea Factory, National Highway 327, E, Chakramari, Khoribari","26.5283938","88.145203"
"ChIJ00Rd99BR5DkRtspJJfq8a6c","Indian Oil Petrol Pump","Molani","26.5892281","88.2771035"
"ChIJZ8zcXU5T5DkR2magnRm3uEQ","Sunil Saraswati automobiles","Rishi Road, Bagulahagi","26.5656346","88.22300829999999"
"ChIJ8dXwwIBR5DkRQ3qtyVaLBQs","IndianOil","Ground Floor, Bijlimoni, Siliguri","26.559981","88.26315559999999"
"ChIJ6SZlijdR5DkRG3QoK4yZJko","Bidhan S Bharat Petroleum","G7V3+G27, near Madati School, Dangapara, Purbba Madati","26.54303","88.25248239999999"
"ChIJOwNJUrZR5DkRb0cjQWL2ixw","IndianOil","Ground Floor Ghoshpukur, Ambari Border, Bagan, Kamala","26.5721001","88.27800099999999"
"ChIJoQ3z5GFT5DkRWWP_WJw23vA","IndianOil","Ground Floor, Dhupibhita","26.5606278","88.2012281"
"ChIJj42YP9NR5DkR_2JlBPUj4bw","DEF FILLING STATION","BORDER, Kamala Bagan, Ambari","26.5755218","88.2800663"
"ChIJHeR6I8pR5DkRpJwRVMKQDUI","Maa Parwati Fuels","NH31, Ghoshpukur","26.5759856","88.28114740000001"
"ChIJYwLm2Z9R5DkREiSt9p46m3E","Bharat Petroleum Petrol Pump , BABA LOKNATH SERVICE STATION","PO KAMALA BAGAN","26.578511","88.281166"
"ChIJKbYi9sxR5DkREI8u9w3fvo0","IndianOil","Ground Floor, NH 31, Jote, Kamalabagan, Molani","26.58220009999999","88.2828001"
"ChIJfwhWtOhN5DkR_OxrNe3S2CQ","Chowrangi More Petrol Pump","J68P+348, Buraganja","26.6151548","88.2353365"
"ChIJYX24prVN5DkRpav3Z5O5h20","IndianOil","Ground Floor, Goalpokhar, Kaluajote Kamala, Naxalbari,Badrajote, Kamala","26.61605","88.23542599999999"
"ChIJV4W4yvdE5DkRyCH0XQpK_8o","Hindustan Petroleum Corporation Limited","Darjeeling, Ground Floor Lichupokhri, Phansidewa","26.644743","88.374811"
"ChIJxfkmNjNb5DkRo06bC33K1cQ","Essar Petrol Diesel Pump","H9XG+9CQ, Guabari","26.5984558","88.3761213"
"ChIJVe7PWSBb5DkRjlJltpek8LY","Dukan India (Mamtaj)","H9WF+FVX, Guabari","26.5969626","88.375556"
"ChIJOYbHWjFE5DkRnhFLohlUQm0","IndianOil","Ground Floor Gosaipur, Rangapani, Ranidanga","26.6763153","88.36814269999999"
"ChIJnd3UC2Fb5DkR89x5eVbJyqc","KSHIROD Filling Station","Fulbari Ghoshpukur Bypass Road, Dhamnagachh","26.59605159999999","88.3526014"
"ChIJy92ReBxF5DkR5B2HoNI5VT8","IndianOil","Ground Floor Dhamnagach, Nh 31d, Bandar Gachh","26.5954068","88.35229269999999"
"ChIJ_wQW_wJo5DkRAoXUQEG9kUU","Hindustan Petroleum Corporation Limited","Ground Floor, Bhutkir Hat, Bhaktinagar, Rajganj","26.6059008","88.4850026"
"ChIJpz5NGUlo5DkRZf85d3Tl0pg","IndianOil","Jalpaiguri, Ground Floor, Ambari Falakata Bhaktinagar, Kamarvita, Bhutkidangapara","26.63899430000001","88.5009864"
"ChIJyaDSegBn5DkRFsddoE9bV9Y","NIRANJAN LAL SERVICE STATION","HFXV+MM4, Ambari Falakata","26.599141","88.4942049"
"ChIJAaZp-gJo5DkRKmLH4fa-ZJk","IndianOil","Ground Floor, Sitaguri, Njp, Mohan Vita, Bhutkidangapara","26.6088362","88.482096"
"ChIJJ1dR1B5p5DkRtww8VixV7L8","Niranjan lal service station","opposite annapurna dhaba, N.H 27, sitaguri, Siliguri","26.60852539999999","88.4814823"
"ChIJJeaUUdtn5DkRg0NVTyPYOxk","Assam Oil","HGQ3+W94, Balai Gachh","26.5897537","88.5034538"
"ChIJM4-o0CNn5DkRjyDhMh4AN0I","IndianOil","Ground Floor, Mohanvita, Kartowa, Rajganj, Bhutkidangapara","26.5890427","88.50376229999999"
"ChIJ80VwLA5D5DkRSWKq7wCmtcs","Hindustan Petroleum Corporation Limited","Ground Floor, Jugibhita, National Highway 27, Gandermore, Rajganj, Bhutkir Hat, Jalpaiguri","26.62222599999999","88.46655009999999"
"ChIJX4T5QUlp5DkRx2qIgxW67ik","IndianOil","Jalpaiguri, Ground Floor, Ambari Falakata Bhaktinagar, Kamarvita, Bhutkidangapara","26.63899430000001","88.5009864"
"ChIJy5jBXORn5DkRsumnhI5stAw","Petrol pump","Gadra to fatapukur road, Jalpaiguri","26.557008","88.4916676"
"ChIJJ5LtgEZm5DkR8UpPyQ_r_0o","Siliguri Point","HGCJ+G2V, Kismat Sukani","26.5713675","88.5300314"
"ChIJ5b3cUSV75DkRcPyxASjujJI","IndianOil","Ground Floor, Patkata, Raninagar, Jalpaiguri","26.536181","88.64813099999999"
"ChIJC-bDsb575DkRJPmtn2bIoDM","Shivaco Associates LPG Bottling Plant","GJQX+CX2, Raninagar, Jalpaiguri","26.5385117","88.64988579999999"
"ChIJq_Cw7TB75DkRZHBE0va5FAM","IndianOil - SWAGAT","Industrial Growth Centre, beside Raninagar CocaCola Factory, Raninagar, Belacoba","26.5389743","88.641806"
"ChIJ8QkUzGx75DkRTbusk1kptrs","Nandy Automobiles","Haldibari More, Jalpaiguri","26.5346422","88.6623975"
"ChIJzTZwzZd75DkRTGCkctAEzU0","Reliance Petroleum","Ground Floor, Pangabattala, Karjeepara, Kotwali, Raningr, NH, 31D, Jalpaiguri","26.5409177","88.63103180000002"
"ChIJmcX688F95DkRuSzvmM5CaLg","IndianOil","Ground Floor Charakdangi, Bahadur","26.494001","88.64590009999999"
"ChIJDyjd1nVl5DkR3kMzrd5AAeg","Bharat Petroleum, Mohuya Service Station","National Highway 27, Doshdorga","26.5476298","88.60643549999999"
"ChIJn0FxPwqH4zkRlP60b3aPP88","Bharat Petroleum Sainath Fuel Station","HR36+P7X, Uttar Madhabdanga","26.5543625","88.8107441"
"ChIJl9w00q2H4zkRNlqZP9Iflbc","IndianOil","Ground Floor, Maynaguri","26.5630035","88.81919429999999"
"ChIJ8xBL0q2H4zkRjW8BvsE1Raw","Bharat Petroleum","HR8C+3QW, Puraton Bazar, Maynaguri","26.5652493","88.821955"
"ChIJWYqp03OH4zkR4PGJGep4JIo","Bharat Petroleum","GRW3+X46, State Highway 12A, Madhabdanga","26.5474048","88.8027762"
"ChIJ-UPrJwCH4zkRRZUzrbsNgbQ","MAYNAMATA FUEL STATION HP PUMP","Uttar Madhabdanga","26.5497537","88.8206257"
"ChIJg1yGe9mH4zkR8WygiJvPzQE","IndianOil","Ground Floor, Madhabdanga- Mainaguri Road, Maynaguri","26.548087","88.820004"
"ChIJfVCHbCOH4zkRB5N3NiFM-GM","Bharat Petroleum, Petrol Pump -Mousumi Serivce Station","MATHABHANGA, COOCHBEHAR","26.548607","88.805968"
"ChIJiV58kF2G4zkRX2M9v6B7LTc","IndianOil","Ground Floor, Near BD Office, NH-31, Maynaguri","26.564366","88.84482009999999"
"ChIJ-5tHq3Na2jsRYc5yf8I83Wg","Indian Oil","Ground Floor, Badaitari, Barnish, Maynaguri","26.5415515","88.7921956"
"ChIJVxXvWHmG4zkRbPSIxgPBuAI","Hindustan Petroleum Corporation Limited","Ground Floor, Jhajhangi, Tekatully, Maynaguri","26.562595","88.855436"
"ChIJuR7hZgCH4zkRdBT9a26jECw","CNG PUMP","HV73+3XW, Tekatali","26.5628519","88.8555427"
"ChIJ8xlFLgCH4zkRBOn3GfFXpzM","Jio-bp Mobility Station (Jio Petrol Pump)","GRCR+Q8W, Uttar Bhuskadanga","26.521442","88.8415811"
"ChIJQ6x0Kr-H4zkR8iy3zTCcjyU","Bharat Petroleum","GR7V+32G, Dakshin Bhuskadanga","26.5122021","88.8425551"
"ChIJwf0r9kKa4zkRiuSAHrTAaE0","IndianOil","East Altagram Dhupguri, Gauhati","26.5792879","88.9908993"
"ChIJ-SwzrmKR4zkRQ0Nr_g6E3FI","BPCL Petrol Pump","517, National Highway, Purba Magurmari","26.6116939","89.0082341"
"ChIJqSUO0-GR4zkRS1RlhfQzMfo","IndianOil","Ground Floor, Dhupguri Nathua Road, Altagram, Paschim Magurmari","26.6134694","88.9868718"
"ChIJjaVvLBSa4zkRK1SRzM9TCcU","IndianOil","Ground Floor, Dhupguri","26.584216","89.003168"
"ChIJu2M-1OqR4zkRH9lZWWpW0JE","Jaanu","Kalirhat Kalirhat, Jhar Magurmari","26.633495","88.98192"
"ChIJH9OF69qb4zkRXFI14E-m0QM","Tata Motors Authorised UREA PUMP","HXGP+V9M, Bhemtia","26.5774911","88.9873353"
"ChIJBWeUo1Sb4zkRBVJ4VByG_jE","Hindustan Petroleum Corporation Limited","Ground Floor, Madhya Boragari Vidyashram, College Road, Dhupguri","26.5656647","89.0085964"
"ChIJG19UcymZ4zkRtXNkkzWwkxU","Ananda","Ananda, College Para, Dhupguri","26.5714386","89.0348178"
"ChIJ36VUwfOa4zkRvZ_Vc2MhmeM","Hindustan Petroleum Corporation Limited","Ground Floor, East Altagram, Dhupguri","26.576239","88.973417"
"ChIJsVb0PTOU4zkRBOmX7d8hxAU","Bharat Petroleum Gas Station","SH 6","26.7151264","89.05497009999999"
"ChIJz8VY-yuU4zkRbwX4SBnxhQ8","Dooars Fuel Station","Telipara, Sakojhora D","26.7045673","89.0516822"
"ChIJf0tDXeSV4zkRv8vWMUnAxBg","Hindustan Petroleum Corporation Limited","Ground Floor, Ethelbari Crossing, Birpara","26.707021","89.08186599999999"
"ChIJyZMOsyGV4zkRXxRCQNNgKhE","Star Fuel Station. By Indian Oil","P34R+CGV Jagijhora Barabak, West Bengal Ethelbari","26.7060625","89.0913125"
"ChIJb4uZPnOV4zkRSrC_yLErNhc","IndianOil","Ground Floor, Ethelbari, Birpara","26.704568","89.093921"
"ChIJ1c0pDgC_4zkRx09QLqPJLBE","Petrol Pump Under construction","P33W+PMV, Rishi Road, Dimdima","26.704366","89.0966783"
"ChIJDfoNqGaV4zkRf5puE0dzcK8","Hindustan Petroleum Corporation Limited","Jalpaiguri, No AH/48 NH 517, Telipara Near Telipara More","26.704438","89.055849"
"ChIJodO6XwC94zkRDMuQmCPq7ZI","Khwaja Garib Nawaj Energy Station Petrol pump","Patrol pamp+GR4, Chengmaritari","26.7042466","89.0518891"
"ChIJdSaYij264zkRBFwQOvRF1Mk","Hindustan Petroleum Corporation Limited","Ground Floor, Pashchim Khayerbari","26.6841608","89.2276244"
"ChIJs0wAZQC74zkRKUF9thS7xqk","M/S CHANDA FUEL SERVICE STATION(Largest Petrol Pump in North Bengal))","CHANDA FUEL SERVICE STATION, 09, Jalpaiguri","26.6892785","89.1826105"
"ChIJF-WUc1W74zkRKOeJkiTMyDg","IndianOil","Ground Floor Uttar Sishubari, Madarihat, Gopal Bagan, Jalpaiguri","26.692801","89.1756901"
"ChIJQwmuPZq_4zkR-cZ9zWNYhy0","Vaishnavi Service Station","NH31A, Bhagatpara, Uttar Shishubari, beside Gopalbagan, Birpara","26.6940123","89.17411919999999"
"ChIJc1zMfwC74zkRHTEwM__lyK8","Bharat petroleum Isha Filling Station","J6R2+F59, Falakata","26.6411567","89.20049499999999"
"ChIJJ0esr2y34zkRbv0FZ9PNEk0","INDIAN OIL CORPORATION LIMITED","GSPL PIPE LINE. P.O, DIST, PNI, Madhya Madarihat","26.7306553","89.26526779999999"
"ChIJzf6cJtm24zkRmpAJU81goIg","IndianOil","National Highway 317, Purba Khairbari","26.7174874","89.2872079"
"ChIJNTVfKfK34zkRE4HPmx6uoSM","Reliance Petroleum","Plot No 1105, North, Madhya Madarihat","26.7035998","89.28412569999999"
"ChIJJ8SyIj2x4zkRX-Kg3ul7jKQ","IndianOil","Ground Floor, Madarihat","26.690118","89.277565"
"ChIJHZhkAnxS4jkRh6zd3WbvRt4","IndianOil","Ground Floor, Nimti Domohani, Jalpaiguri, Rtkm 44 Kms,Gopaldashat, Kalchini","26.601056","89.440793"
"ChIJ7Tm-8w1Z4jkRiWPtyypRGXo","IndianOil","Ground Floor, Samuktala Road, Tatpara","26.4873781","89.61419459999999"
"ChIJt_FW2BBZ4jkRsKLzZYqTvnA","IndianOil","Samuktala Road, Tatpara","26.5022858","89.6218897"
"ChIJhcdqFgJf4jkR2rJwToMXO-k","IndianOil","Ground Floor, Samuktala Road, Bhelukdabri","26.486898","89.634697"
"ChIJS-RZK8Ze4jkRaOL1qzTTcO4","Assam Oil Petrol Pump","FJPM+JWF, Uttar Majid Khana","26.4865549","89.6347941"
"ChIJPyvl6E5Z4jkR5tx8RFDFmQg","Bharat Petrol Pump - N.N ROY SERVICE STATION","Chandijhar","26.4671476","89.57747499999999"
"ChIJjUfUy9Rb4jkRZjufpfKglD8","IndianOil","Ground Floor, Garam Basti, Putimari","26.5166774","89.58814029999999"
"ChIJuXdutlFZ4jkR4P7XOFRSWaA","Bhatibari Bharat Petroleum","FJ27+6XF, Saudpara","26.4505512","89.6149202"
"ChIJU8CvY9BZ4jkRqmwTdpr_L2o","Dooars Filling Station","near Bhatibari, Karjjipara","26.4503435","89.61464130000002"
"ChIJO6QMM5Nb4jkRgoJHUgj5LLo","Ajay Barman","Ajay Barman, Putimari","26.5286701","89.5867554"
"ChIJQZcscgBj4jkRvfGhSCodlAU","CNG PUMP (BPCL)","FRC9+4VX, Baidyabati, Barobisha","26.4704131","89.81973909999999"
"ChIJ1-P3pQNj4jkRW10FPUJuDoI","Petrol Pump- Bharat petroleum","NH-31C, Barobisha, Barabisa","26.47047329999999","89.81956699999999"
"ChIJNzGV9qRj4jkRLJPYIhLSQqU","IndianOil","Ground Floor, Nh 27, Naziran Deuti Khata Road, Bakshirhat","26.46793499999999","89.83788"
"ChIJ54etr7Zj4jkR03GYXG4j5eY","IndianOil","Ground Floor, Lake Town Road, Barobisha","26.47289","89.79839799999999"
"ChIJB26Qud1j4jkRbcpgejy5DUU","Hindustan Petroleum Corporation Limited","1498 & 1500, Plot No 1467, National Highway 27, Baxirhat, Baruipara","26.4632538","89.8467814"
"ChIJ0WQHbdRi4jkRU5LzhwOA7VE","HP PETROL PUMP - KAMALA FILLING STATION","Simultapu Srirampur NH31C, Gauhati","26.461506","89.847135"
"ChIJJXELfAB94jkRZj4K4JrL7hM","TATA D.E.F Nijam Refiling Centre","FV48+8J9, Pakriguri","26.4557851","89.86661579999999"
"ChIJ75ZqjZV_4jkRIWNggkkv0Xc","IndianOil","Ground Floor NH 31C, Anthaibari, Gossaigaon","26.447345","89.981922"
"ChIJizV_HrWBWDcRHGICc5cNaX0","Bharat Petrol Pump, ভাৰত পেট্ৰল পাম্প","F222+62W, Blockkuti","26.4506011","90.0000848"
"ChIJ7Z3wO5l_4jkRpKuJEQJPcQo","BRAHMA ENTERPRISE","Kamarpara","26.4329568","89.9737224"
"ChIJe9PQLzl_4jkRQl9DE3c4UhQ","Barek Store","23, Korimbaza","26.4582993","89.9683677"
"ChIJf1hTCdB_4jkRx7fM9Ad5_BY","IndianOil","Ground Floor, Gossaigaon","26.4317381","89.9747898"
"ChIJUX2SPEp-4jkR9oDAnFWBeeo","IndianOil","Ground Floor, NH 31, Anthaibari","26.4446976","89.959111"
"ChIJ5wVXmYOBWDcRZLzScCaOef0","Sunjourang Petroleum","near Joyma, Joyma Road, near Joyma, Market, Joyma-I","26.4669144","90.0038443"
"ChIJQxhneMWBWDcR5dKmzCxzuAA","Brahma Filling Station Bharat Petroleum","F2H6+GQ6, NH-31C, Gossaigaon","26.4787977","90.0118902"
"ChIJQ2l4tH-FWDcRVKCJpAOchIM","IndianOil","Ground Floor, Bairali, Kachugaon F.V.","26.562695","90.07651969999999"
"ChIJk3UBeQ-M4jkRNW8GFs3wfIU","Reliance Petroleum","Dag No138, Patta No 4, Gossaigaon, Guma, Tamarhat, Chotoguma, Gossaigaon","26.5779618","90.04915439999999"
"ChIJt9NYs3jzWDcRcpkNj41ftoQ","Star line station","H84R+F78, Karigaon","26.556157","90.3407167"
"ChIJQ9ijruDzWDcRcMaFGS2m_Ro","IndianOil","Ground Floor, Karigaon","26.5459728","90.35481829999999"
"ChIJDVTR8sjzWDcRLf-YmpBdUXA","Star line station","Karigaon","26.5450625","90.35531250000001"
"ChIJD7M23NEGWTcRJTL0Oqx2lYw","Hindustan Petroleum Corporation Limited","Ground Floor, NH 31, Goraimari, Bongaigaon","26.4763614","90.6834151"
"ChIJ68nNEOoGWTcRhUv01A0N8Cs","IndianOil","Ground Floor Bijni, Ananda Bazar, Moutara","26.483497","90.69711699999999"
"ChIJaz4xlNIGWTcRx_VDUQqFG1o","IndianOil","Ground Floor, Nachanguri Rakhaldubi, Goraimari, Ananda Bazar, Bongaigaon","26.475776","90.67917"
"ChIJ-QPJuq6XVzcRFUBzBMTOf_M","IndianOil","Ground Floor, Bolchugre, Near Chokpot Police","26.476322","90.67594539999999"
"ChIJ93aglb1SWDcR4ysro7rD9ig","IndianOil","Ground Floor, Near Bajali College, NH 31, Goraimari, Bijni","26.4801033","90.6703637"
"ChIJQQTBtNwGWTcRLpwdIbN1WTo","IndianOil","Ground Floor Gerukabari, Bijni, Ananda Bazar, Bongaigaon","26.476806","90.692689"
"ChIJETIC2KcHWTcRRAfFBq5cSpY","TATA UREA PUMP","FMGV+V8M, State Highway 2, Monakocha","26.477214","90.6933105"
"ChIJmb65unMBWTcRWjEwNV0s0d4","IndianOil","Ground Floor, Goraimari","26.48531059999999","90.66701809999999"
"ChIJPx8BH-wHWTcR6VChfZ1Ht3g","Petrol Pump","GM3X+F37, Gerukabari-Bijni-Amteka Road, Doturi","26.5036687","90.6976691"
"ChIJP9PEtMgBWTcR1FfS1r4vpg8","M/S.HP LOTUS Petrol pump,Hapachara","Ground Floor, Bijni","26.4783448","90.6380985"
"ChIJgx6a0fkGWTcRh1wjLjPWYYQ","Hindustan Petroleum Corporation Limited","Ground Floor, NH 31, Bijni","26.471954","90.72581199999999"
"ChIJS5Qo8AYJWTcRLb0K9EQ-qWY","IndianOil","FR73+J5F, Ground Floor Adlaguri, Borbilla, Manikpur","26.468282","90.797882"
"ChIJl8d-UaULWTcRoR0jFEA4CpU","IndianOil","Ground Floor, Sorbhog","26.4765011","90.8582996"
"ChIJ3Vp18FwLWTcRkraVb0l7w2A","Hindustan Petroleum Corporation Limited","Ground Floor, Howly","26.4763733","90.8583266"
"ChIJu3jTj7cLWTcR93J4_Vrr-vE","M/S Dipali Gas Agency Godown, Sorbhog","State Highway 2, Nil Chaka Bausi","26.4730896","90.87028289999999"
"ChIJ-a8dEnQJWTcRyjb0ju6MPpg","Jio petrol pump, manikpur","FRQ7+4HH, Garoleti","26.4878171","90.81399789999999"
"ChIJ0T9TTJELWTcRhCjxFEQ-jWo","Hindustan Petroleum Corporation Limited","Ground Floor, Dakshin Ganakgari, Sorbhog","26.4766667","90.88138889999999"
"ChIJJZ2yCgAJWTcRM9XbnEmvDeQ","IndianOil","Ground Floor, Dwarika, Kismat","26.48961479999999","90.8067873"
"ChIJ6To4UnQJWTcR0gIZyJl6NF4","PATILADAHA ANANTA KSK","Patiladaha","26.49274429999999","90.80101619999999"
"ChIJ8adLtzwJWTcR1p_dbW8Tyqw","IndianOil","Ground Floor, Patiladoha Bijni, Manikpur,Alukhunda, Bazar","26.4928559","90.80064139999999"
"ChIJS4NMlA0LWTcRwNVwq5V065A","Hindustan Petroleum Corporation Limited","Ward No 1, Sorbhog","26.4997733","90.89056509999999"
"ChIJl7Ru7st1WTcRK285mWMCcN0","Club HP","FX58+9RV, Hala Pakuri","26.4584791","90.9670359"
"ChIJRYu2qgOeWTcRcijZC0Yqrnk","Manisankar's M/S HP Petrol Pump - Howly","Amtal, Howly","26.4132064","90.9748199"
"ChIJM9PnyjB0WTcRHUCAFO3162c","IndianOil","Ground Floor Simlaguri, Gobindapur, Baksa, Howly","26.473783","90.968102"
"ChIJSTPjzD10WTcRxUIgH4UGngQ","Hindustan Petroleum Corporation Ltd,Barpeta road","FXM9+J9X NH-31, Milan Nagar, Bala Bhitha","26.4844434","90.9683876"
"ChIJyyY-ywZ1WTcRsiiAhAUflOo","IndianOil","Ground Floor, Howly","26.43340419999999","90.9691258"
"ChIJIcL3aPB1WTcRHK-wOUbF3Bc","IndianOil","Ground Floor, Howly","26.425769","90.971453"
"ChIJh260sod3WTcRGfwZIyEtdSU","HP CNG PETROL PUMP H DAS And SONS","Village Moutupuri, PO Howly, National Highway 31, Guwahati","26.4583455","90.9673249"
"ChIJzZk02_51WTcR0jg8jZVdEao","Esser Petrol pump,howly","CXCH+27H, Ambari","26.4200611","90.97824779999999"
"ChIJWeZaUAB1WTcRfd4EDP7HdlE","Ifuel Petrol pump","Barpeta Road, Howly","26.4478625","90.9397656"
"ChIJnyhftKR1WTcRe4ilSzwfHMs","Jskir","CWWQ+J5M, Gilajari Road, Kurobaha","26.4465862","90.93792959999999"
"ChIJmcJTDwB1WTcRP6-V9BsShIQ","TATA D E F CENTRE UREA","FX99+V4, Raypur","26.4697798","90.9672961"
"ChIJk_HGA291WTcRCWp1U9deQ3g","Bharat Petroleum, Petrol Pump -(Bpcl) Nes Simlaguri","SIMALAGURI, BASKA","26.4709997","90.9671917"
"ChIJ58eKcMt1WTcRNVKb_4-NiWs","Tota Mini Petrol Pump","Shop 1, Bhaluki","26.4666362","90.94220140000002"
"ChIJHdIvX4d3WTcRUu-InrlPa2M","JIO BP FUEL STATION HOWLY (SR FILLING STATION)","Helonarpam, Itervita, Howly","26.4159977","90.9957761"
"ChIJX_t6LQCdWTcRvd41mXd-vkA","Richikes Oil","CX8W+78V, Howly","26.41581479999999","90.99580759999999"
"ChIJGxb9bAB3WTcRpq85BFKgU_o","She'll Oil","Itarbhata Road, Revenue Circle, Barnagar","26.416067","90.99800499999999"
"ChIJa2PryTl1WTcRpacsOogV0Wo","Shell AK DAS & SON'S","Howly","26.4158439","90.99788769999999"
"ChIJFc0SKD-dWTcRQZocO260udA","Shell AK DAS & SONS","Howly","26.4156826","90.99775199999999"
"ChIJ22mdHgB1WTcR-vUrigNXjX8","IndianOil","Ground Floor, NH 31, Simla Guri","26.4816104","90.9681853"
"ChIJPTwUH1t1WTcRW1QhwyShDOw","Hindustan Petroleum Corporation Limited","Ground Floor, NH-31, near BH College, Howly, Moutupuri","26.4839541","90.96768759999999"
"ChIJIabMN615WTcRmgbBctiV91A","NAYARA Petrol Pump - Sai Service Station,dhumarkur","F4M9+8C, Katola Pathar","26.4826348","91.1186736"
"ChIJ6yswDhl5WTcRSTi8G4cZGzU","Mainul Food Corner","NH 31, Kahara Chok","26.4740628","91.091698"
"ChIJn7SKKgB5WTcRT6CqpxnCU1w","Bharat Petroleum","To, Pathsala Rd, Banglipara, Bhawanipur","26.47123359999999","91.0856503"
"ChIJiSBTl7Z5WTcRaZcXxgTspwg","Banglipara Service Station","To, Pathsala Rd, Banglipara","26.47111409999999","91.0855557"
"ChIJCygec5x-WTcRwyVefTW2RRU","IndianOil","Ground Floor, near Bajali College, Pathsala","26.5041333","91.1605239"
"ChIJYSMnGQB5WTcRUV51pSIcjGw","MANAS SERVO STATION (Indian Oil)","opposite Sai Baba Mandir, Bhawanipur","26.4675443","91.0747949"
"ChIJZUIgI6PRWzcRC7jz-YjhG0E","M S BARAMA FILLING STATION","House Bo 01, Barama-Pakhamara Road, Nalbari","26.5333882","91.3543569"
"ChIJfaayoAbRWzcRKMsP1AgpE34","Ranjana Kisan Seva Kendra","Petrol Pump, Barama To Kaljar Road, near Barama, 781346, Nalbari - Barama Road, Barama","26.5333502","91.3544079"
"ChIJ69i48MLRWzcRtOiUE7DgVmU","IndianOil","Ground Floor, Kaljhar, Barama","26.533217","91.354761"
"ChIJqy4ePwLTWzcRbmZoLHeJv9k","IndianOil","Dag No 648, Patta No 65 Dahkaunia, Barama","26.4852738","91.3455814"
"ChIJkxkBCADRWzcR5QowdwfGrHo","Gopi","H86G+PQP, Bhalukdonga","26.5610133","91.32683999999999"
"ChIJ540WMp7NWzcRjYWWcp_TLlI","IndianOil","Suradi, Ground Floor NH 31, Barama","26.495922","91.368451"
"ChIJQZQVg3zLWzcRM82HYdxtlno","IndianOil","Ground Floor, Bidyapur, Bidyapur, Nalbari, Nalbari","26.449871","91.44813599999999"
"ChIJl7XcDnXLWzcRgTUTH9JYi1U","IndianOil","Ground Floor, Bidyapur, Nalbari","26.45718399999999","91.460743"
"ChIJT21jZnTLWzcRQ-Q2Ts8P4K8","Balaji Service Station BPCL","FF56+699, Nalbari","26.4580285","91.4609819"
"ChIJDz_Oed_LWzcRbOc6ahP0Vso","IndianOil","Ground Floor, Mairadanga, Chengnoi","26.4617225","91.45085019999999"
"ChIJkyt_pS3LWzcRMPZNM0JcEiU","Hindustan Petroleum Corporation Limited","Ground Floor, opposite Bhartia Cinema Hall, Nalbari Main Road, Nalbari","26.4503925","91.4469002"
"ChIJqeCY8XzLWzcRNQVxaeFmwXM","Bhartia Petrol Pump","Nalbari Main Road, Nalbari","26.4499181","91.44684180000002"
"ChIJo1i3jg7LWzcRWGajOxZyWhs","Moiradanga petrol pump INDIAN OIL","FFH5+7Q, Katla Barkuchi","26.478217","91.4594724"
"ChIJb5LlWwLNWzcRlWZqylwJa1E","Hazarika Hindustan Oil","near Petrol Pump, Palla Road, Nalbari","26.4436122","91.4366719"
"ChIJfe0zwe_NWzcRZRGrNfjRM3E","IndianOil","Ground Floor, Palla Road, Bidyapur, Nalbari","26.443539","91.436656"
"ChIJl-75_6LMWzcRDmRt2DGBo_8","Bharat Petroleum, Petrol Pump -Deka Service Station","CHOWK BAZAR,NALBARI TOWN,, Nalbari","26.433375","91.4362194"
"ChIJrf_i1jXNWzcRoakGRFA27eo","Hindustan Petroleum Corporation Limited","Ground Floor, Batahgila, Balikaria","26.4483333","91.4230556"
"ChIJfSx8mvHMWzcRprcXL85Njrg","Pramila Fuel Station, Bharat Petroleum","Nalbari - Barama Road, Barkura","26.4500293","91.4185476"
"ChIJx-2WvP7MWzcRQuC6ESYiGnE","Bharat Petroleum, Petrol Pump -Anowara Filling Station","BARKURA,HARIPUR NH31, Nalbari","26.4544665","91.40852629999999"
"ChIJdcKXiNRMWjcRucgefvJ4Bgg","IndianOil","Ground Floor, College, Rangia","26.407488","91.63311399999999"
"ChIJZamVzJKzWzcRePg1p-EybqI","Pollution testing centre","NH 27 Rangia, Murara","26.4317988","91.62367359999999"
"ChIJAZcCYPyzWzcRsjwYSi_gXdM","IndianOil","Ground Floor Murara, Rangia, Bangaon","26.431336","91.62431"
"ChIJaYsKy96zWzcRDUOm20QJdIw","IndianOil","Ground Floor Rangiya, Murara, Bangaon","26.436364","91.62649859999999"
"ChIJRSzagpWzWzcR9ogNM39eVJU","G K K FUEL PUMP - BHARAT PETROLEUM","CJQ7+JGM, Pitambar Hat Bajali","26.4390932","91.6137989"
"ChIJJzKIhi-zWzcRT6te99qdLDA","IndianOil","Ground Floor, Rangia","26.421586","91.62990099999999"
"ChIJgSD5Xr6zWzcRLE5h34DP-yA","Hindustan Petroleum Corporation Limited","Ground Floor, Rangia - Goreswar Road, Chapania","26.4420312","91.6362611"
"ChIJi6Z-dmazWzcR3A0wMahBrFk","IndianOil","Ground Floor R, G Baruah Road, Bangaon","26.439714","91.60655009999999"
"ChIJObTTJwC1WzcR9_d8As3N-dU","Urea Pump","NH 27, Rangia","26.4402478","91.5888162"
"ChIJSbj_mlyzWzcRj0PddjY1lzg","Bharat petroleum Rishab Petroleum","FJ76+HPG, Udiana","26.4639364","91.6118345"
"ChIJw8F6IwBNWjcRZAVa3vJXYQw","Bangalikuchi","CJ2Q+FVC, Kanikuchi","26.40119","91.6396424"
"ChIJ6zMx-o-zWzcR5iQqzuEftmM","Reliance Petroleum","Patta No 24/185, Dag No 681/682, Panduri, Karara Garbhitar, Rangia, Dole Gaon, Karara","26.4699562","91.60757009999999"
"ChIJ_wzmJQC1WzcRn539lW3KxlY","IndianOil","Ground Floor, Rangia Revenue Circle, Panduri, Barkukuria","26.4411043","91.57589399999999"
"ChIJWx-rlgW1WzcR53AKJQNp0g8","NCD FILLING STATION RANGIA","Bhatkuchi","26.440878","91.575836"
"ChIJLwPsJ7pTWjcR-Ip-t02KyHE","IndianOil","Ground Floor, Baihata Chariali","26.3442134","91.726394"
"ChIJT0PEjrNTWjcRkg32MhkkWi0","IndianOil","Ground Floor, Kamalpur","26.344537","91.71828939999999"
"ChIJg1pN9UxSWjcRJphIIZvqRog","IndianOil","Ground Floor, Nathkuchi, Saytex, Tihu, Nalbari","26.3455678","91.7125863"
"ChIJGbUxBbtTWjcRgkpbMwdAaYA","Jaya Aditya filling station - nayara","near Pub-kamrup college, Baihata Chariali","26.35431389999999","91.7301694"
"ChIJ6S773_tTWjcR7CKAMTrq29c","Hindustan Petroleum Corporation Limited","Ground Floor, near Madanpur Toll Gate, NH 27, Deudar Nan, Madanpur","26.3204511","91.71571780000001"
"ChIJ9WJB4HVTWjcRRD0CJ5g9ZQs","Bharat Petroleum, Petrol Pump -Nes Baihata Chariali","BAIHATA CHARIALI, KAMRUP","26.3185928","91.714986"
"ChIJs8rmhBVTWjcRIYCvy_cEIuI","IndianOil","Ground Floor Kshudrapalaha, Baihata Chariali","26.346853","91.74658199999999"
"ChIJMbcDu0FTWjcRa1YNW7mXuXM","Hindustan Petroleum Corporation Limited","Ground Floor, Madartola NH 31, Kamalpur - Dimu Road, Baihata Chariali","26.345391","91.69535100000002"
"ChIJeeG1YqpTWjcRp8oofJ5Kfrc","Radhakuchi petrol pump,Shell India","Baihata-Goreswar Road, Baihata Chariali","26.363219","91.7323141"
"ChIJjVNGxGlSWjcR3Y8l6blbvhs","IndianOil","Ground Floor Kamalpur, NH 31, Puthimari","26.346465","91.694582"
"ChIJ25i1bQBTWjcRoZVJa7clZPE","Nh 27alta,assam","NH 27, Alta","26.3470457","91.68901989999999"
"ChIJJ8E3BndUWjcROJw3tLQTRyc","Hindustan Petroleum Corporation Limited","Ground Floor, Baihata Chariali","26.3470995","91.7555948"
"ChIJm35bZjhTWjcRCtvoDvrEJ4E","IndianOil","Ground Floor, Kamalpur, Baihata Chariali","26.3458037","91.6862203"
"ChIJ13iuKm5SWjcREl8sxp_zoKw","IndianOil","Ground Floor, Baihatagaon Puthimari, Kamalpur, Niz-Madartola","26.347343","91.686055"
"ChIJnQxcYaJTWjcRH0r_1PzCpI0","SARMA PETROL PUMP","To, Goreswar Road, Baregaon","26.3825638","91.7346516"
"ChIJ33SYDLJaWjcRJURDvJKBkqY","Hindustan Petroleum Corporation Limited","Ground Floor, Amingaon, Guwahati","26.2083669","91.6797203"
"ChIJ1SjSdp9aWjcRwG3UPmvIh3I","IndianOil","Ground Floor, NH-31, College Nagar, Amingaon, Kali Pahar","26.217357","91.696229"
"ChIJNTgM75JaWjcR9r8KymG9SRg","IndianOil","Ground Floor Abhoypur, College Nagar, Gauripur","26.198787","91.70356699999999"
"ChIJn_JXMmBaWjcR86mbRXqk63Q","IndianOil","Ground Floor Abhaypur, College Nagar, Changsari","26.1992351","91.7156136"
"ChIJp9xDPgxbWjcRG6Oviks4U3A","IndianOil","Ground Floor, Amingaon, Guwahati","26.208809","91.685138"
"ChIJ2Z0iMgBFWjcRQjzu2FqGdz4","Sikha service station","6M4F+7X4, Mahekhaiti, Amingaon, Guwahati","26.2054643","91.67479850000001"
"ChIJ2TEhc0tFWjcR8sEt_OUyQNI","IndianOil","Ground Floor, Opposite Assam Ispat, College Nagar, Amingaon, Guwahati","26.2016518","91.6739637"
"ChIJddtsQXNQWjcRKnR3IHR65JA","IndianOil","Ground Floor, Baralabari, Changsari","26.227644","91.69646"
"ChIJwXdbVj1FWjcRXoiLmisH_ts","भारत पेट्रोलियम","India","26.1860212","91.65676069999999"
"ChIJEbM2Vj1FWjcRW_pBwja4ZJs","Siddhivinayak service station (Retail outlet of BPCL)","Guwahati-Hajo Rd, Agyathuri, Amingaon, Guwahati","26.1859718","91.6567261"
"ChIJbVzaCBFFWjcRiMqRk53jMdE","Bharat Petroleum, Petrol Pump -Dulo Service Station","AMINGAON,AMINGAON-HAJO ROA, KAMRUP","26.1894642","91.64964259999999"
"ChIJZS6L8SlFWjcRqAUVG7m2CSU","Hindustan Petroleum Corporation Limited","Ground Floor, Agyathuri","26.190881","91.647798"
"ChIJa8ck515aWjcRFDEMv71bEB0","Bharat Petroleum, Petrol Pump -Dol Gobinda Filling Station","North Guwahati, Guwahati","26.192359","91.7174201"
"ChIJExp-dm1bWjcRXlwLvsS07NU","NRL","5M9H+C5C, Adabari, Guwahati","26.1685615","91.6778868"
"ChIJNY4yOK1bWjcRVnHLdjpGhOY","BHARAT GAs","Assam Trunk Road, Maligaon, Guwahati","26.2142442","91.6368586"
"ChIJPXAi87lScYcR4X7aq24VAAw","A2Z Enterprise","Rly qno 126B, BBC Colony, Pandu, Guwahati","26.1644378","91.6822825"
"ChIJEdl5awBFWjcRxYr_TDQPd0c","Dadara service station","6J9M+FRH, Dadara, No.2 Dalibari","26.2186787","91.63460889999999"
"ChIJvapX3hpcWjcRySZ9ExbflPk","Bharat Petroleum filling station","Lokhra, Guwahati-bypass, NH 37, Kamrup","26.1121707","91.74627930000001"
"ChIJAS3KZjBfWjcRaA-UkDlzdwA","IndianOil","Ground Floor, NH 37, Beltola, Beharbari","26.1113315","91.7508903"
"ChIJrRaS-hxcWjcR_BOcxwg62BE","IndianOil","Kamrup, Fancy Bazar, Bypass Road, Guwahati","26.111324","91.750911"
"ChIJIf046HxcWjcRCfCuJ2bZavY","Hindustan Petroleum Corporation Limited","Ground Floor, near Balaji Temple, NH 37, Bypass, Katabari, Guwahati","26.115411","91.718491"
"ChIJySf3ycVeWjcRht8wK-x802Q","Bharat Petroleum HKS SERVICE STATION","4Q6H+8RJ, NH-37, Nalapara, Lalmati, omlogistic","26.1108376","91.7795196"
"ChIJvRfopURZWjcRU1cXnRNB3M8","Bharat Petroleum","NARAKASUR, Bongshar, Gopinath Nagar, Jonaknagar, Kahilipara, Guwahati","26.1425069","91.7644972"
"ChIJW9ecEMRbWjcRGYeKJtJK3mw","IndianOil","Lokhra Road, Pahartoli, Guwahati","26.156192","91.739629"
"ChIJKeHpam1cWjcROPjyGEHDsz8","Hindustan Petroleum Corporation Limited","Ground Floor, Sawkuchi, Betkuchi, Guwahati","26.1124191","91.73320319999999"
"ChIJCdZ-vSFdWjcRbLrFr20AAHs","CRI PUMPS PVT LTD GUWAHATI BRANCH","near Binod Nissan show room, Betkuchi, Guwahati","26.1124708","91.7326068"
"ChIJQ7JPdIFdWjcRj73WSXEshos","Amit motor","4P7J+CXW, Betkuchi, Betkuchi, Lokhra, Guwahati","26.1136149","91.7324388"
"ChIJaTX2rRJcWjcRCYoTqRUBSp4","IndianOil","Kamrup, No 37 Lakhra Chariali, Saokuchi","26.1120777","91.7486923"
"ChIJOQ_Vf1ZdWjcRxLB1ZfjHWYI","Hindustan Petroleum Corporation","AHOM GAON, Guwahati","26.1140625","91.72931249999999"
"ChIJJUA5rEldWjcRT0nJkafF1r8","MUNNA Shaw Ayush Auto Mobile Lokhra GUAWAHTI","AYUSH AUTO MOBILE, Lokhra Road, Padit Hotal, Guwahati","26.1117875","91.75168939999999"
"ChIJcYxecQBdWjcRFRzL9Bz2tQw","ASTC Swagat RO (অসম ৰাজ্যিক পৰিবহণ নিগমৰ ইন্ধন বিক্ৰেতা))","Isbt, Main, ISBT Flyover, Guwahati","26.1153387","91.7239788"
"ChIJqSqu6NBdWjcRvdUQYpMoAYo","IndianOil","Ground Floor, near Isbt Complex, Betkuchi, GARCHUK, Guwahati","26.115382","91.72377999999999"
"ChIJdQCCMjJbWjcRyPedcmXZR2Y","Bharat Petroleum, Petrol Pump -Nes Lokhra Road","4PGW+C94, Lokhra Road, Sawkuchi, Guwahati","26.1265062","91.74467489999999"
"ChIJg6Uq3xpbWjcRz_Mb5ZkQsUw","Hindustan Petroleum Corporation Limited","Ground Floor, Lokra Lal Ganesh Rd, Sawkuchi, Jyotikuchi, Kamrup","26.126521","91.744911"
"ChIJxaepSgtcWjcRPOXJVJcqrFc","Raj Energy Station,Jyotikuchi","Jyotikuchi, Guwahati","26.130292","91.73706659999999"
"ChIJpeJ_YfRbWjcReYcJIeHlTgY","Jyotikhuchi Petrol Pump","Sonaighuli, Guwahati","26.1303296","91.7370029"
"ChIJ1V0C8hBfWjcRgwNun9RKRwE","Fuel Service Station","House No-19, Link Road DakhinGaon-Sawkuchi Road, Sawkuchi, Lokhra, Guwahati","26.12211839999999","91.7610684"
"ChIJq10oven1WjcRtqtUuCR2uHw","IndianOil","Jorabat","26.1080688","91.84954640000001"
"ChIJfWQtZsj1WjcRj0KMtFF84gI","Hindustan Petroleum Corporation Limited","Ground Floor NH 37, 10th Mile, Khanapara","26.10237009999999","91.8621409"
"ChIJo9_QZ_D1WjcRjkySBywx54o","IndianOil","Ground Floor, 9th Mile, Byrki, Jorabat","26.11115","91.83984459999999"
"ChIJBcSADEr0WjcRczq6rP7lYrc","IndianOil","Ground Floor, Jorabat, Byrnihat","26.100047","91.8747001"
"ChIJ7-iq90n0WjcRVS3QMjjcns4","Hindustan Petroleum Corporation Limited","Ground Floor, NH 40, 12th Umpher, Byrnihat","26.0885455","91.8767627"
"ChIJ8xY6aFH0WjcRwjZt4jvckm8","IndianOil","Ground Floor NH 40, Byrnihat","26.084177","91.876863"
"ChIJIQnuZMH1WjcRW3yjw_u0igE","Ri Bhoi Gas Station","Jorabat","26.1059375","91.8548125"
"ChIJ6bsdVhT1WjcRK_j7CrZQeZ4","IndianOil","Ground Floor, 9th Mile, Jorabat, Byrnihat","26.105764","91.85445399999999"
"ChIJDz0I5cb1WjcRPRax3Ix1ENY","IndianOil","Ground Floor, Khanapara","26.104353","91.85800599999999"
"ChIJDz0I5cb1WjcR90HbwM_0rME","Jorabat Refilling Centre","4V35+H5J, National Highway 37, Jorabat","26.1039627","91.8579018"
"ChIJKwTWqfX1WjcR1ddUbzl9sgE","Bharat Petroleum Petrol Pump","4R2X+67W, Killing Road, Jorabat","26.1006225","91.84819619999999"
"ChIJw7HYtsn1WjcRHmUV0k_jmY8","Bharat Petroleum, Petrol Pump -NES Jorabat","JORABAT, RI BHOI","26.1016329","91.8637337"
"ChIJeSJiwu71WjcRgSN9RR6CcIk","IndianOil","Ground Floor, 9th Mile Baridua Roid Marwet, Khanapara, Byrnihat","26.108828","91.845218"
"ChIJNQyaaD31WjcR6s_lbibgkp4","Marwet oil services pvt ltd","Baridua 9th Mile","26.109082","91.845095"
"ChIJiafe2Xz1WjcR5QbV7iEwKPk","IndianOil","Khana, Ground Floor Mawsmai, 11th Mile, Byrnihat","26.101025","91.86703"
"ChIJB1932O_1WjcRifbMVOEMsmk","IndianOil","37, National Highway, Bojora N.C.","26.110122","91.8416814"
"ChIJ98v74M71WjcRJcktH4owb5s","IndianOil","Gate No 2, Ground Floor 9 Smile, opposite CRP Camp, East Khasi Hills, National Highway 27, Baridua","26.1033977","91.8391401"
"ChIJR-RHFQD1WjcRdzTtCgoaVoo","Black diamond refill center","4R6Q+FW7, 8th mile","26.1111564","91.83979719999999"
"ChIJl62xjAT1WjcR5Q5DcZ68pO8","IndianOil","Ground Floor, 9th Mile, Baridua Roid Marwet, Khanapara, Byrnihat","26.1039428","91.83871979999999"
"ChIJnbBYn831WjcRIjVtM-abaSg","Premier Mega Hub (India’s Largest Fuel Outlet)","Jorabat NH 27, Mawsmai","26.0996865","91.8697335"
"ChIJvSDtF9eKWjcRAK0X4ZLm1WM","IndianOil","Ground Floor 17th Mile, Byrnihat","26.019701","91.867617"
"ChIJzXseUeWKWjcRRNokP5EuUa8","Hindustan Petroleum Corporation Limited","Ground Floor, GS Road, 20th Mile","25.994551","91.86150099999999"
"ChIJe87s5Sb1WjcR8HOfdv8jklg","IndianOil","Ground Floor, Byrnihat","26.045069","91.868116"
"ChIJq5qBlyD1WjcRYIoV83J9H1w","Ribhoi Filling Station - Bharat petroleum","National Highway 40, Byrnihat","26.0486426","91.8703275"
"ChIJ-cEz_duKWjcROb4rfB8Zg3A","Bharat Petroleum, Petrol Pump -Star Energy Service","BYRNIHAT ON NH-40, RI BHOI","26.0126207","91.8658033"
"ChIJcYsEbdeKWjcR9cF1uSADxLA","BYRNIHAT ENERGY POINT ,BPCL","17th Mile","26.0189375","91.8676875"
"ChIJm29ec5CLWjcRxekVKF3pM6w","Highland Service Station","2V98+VRF, GS Road","26.0196757","91.8670582"
"ChIJbaqiAQmLWjcRN-vdSavzyeI","Shell pump","GS Road","26.027586","91.86850799999999"
"ChIJxdWCPQD1WjcRI1SoxCOsS2s","Hindustan Petroleum Corporation Limited","Ground Floor, Pahamlang, 17th Mile","26.029687","91.86921600000001"
"ChIJlWx8fpD1WjcRn3VCMg3HM8A","Bharat Petroleum, Petrol Pump, Pahamlang Fuel Hub","17th mile, Pahamlang, NH 40, Byrnihat","26.0304504","91.86927039999999"
"ChIJm4UPkwD1WjcRO5boBcIiojA","IndianOil","Ground Floor, Lum Nongrim, Byrnihat","26.0358204","91.8686165"
"ChIJaeBryzb1WjcRPSH59OF-ZQ8","Hindustan Petroleum Corporation Limited","Ground Floor Amjok, Umtru Dam Road, Byrnihat","26.0375528","91.8563676"
"ChIJs9ILe1eLWjcRXJ4qQvx8oyQ","IndianOil - SWAGAT","Ground Floor, 22nd Mile, Narang,Hatumling, Umling","25.9826621","91.8604915"
"ChIJ1aP18leKWjcRzlQ_yKS3O7E","Hindustan Petroleum Corporation Limited","Ground Floor, Nongpoh, Umling","25.980659","91.861724"
"ChIJUbE3ewD1WjcR92yTD61eMHA","Merrily Service Station","17 Mile, Pahamlang, Byrnihat","26.0515133","91.8696411"
"ChIJhc4MLgD1WjcRwJxxwWQ55r8","BURNIHAT","3V29+JV2, Byrnihat","26.0515133","91.8696411"
"ChIJR1AXGwSLWjcR2P0Mt32bXb0","IndianOil","Ground Floor, Umling","25.973829","91.85941"
"ChIJoy4RReOGWjcRKG1WgAIhL5c","IndianOil","Ground Floor, Nayabunglow, Kyrdem Kulai","25.7802001","91.875"
"ChIJcWUnpeOGWjcRyTyhGjQb_rI","Bharat Petroleum Energy Station","QVGF+XJQ, Umran","25.7774524","91.87412379999999"
"ChIJrSAU4u2HWjcRioOLTm_3Idg","IndianOil","Ground Floor, Mawthoh Umran Niangbyrnai, Raid, Kyrdem Kulai","25.775322","91.87504899999999"
"ChIJN-WY_5eHWjcRv-UH8cJzerY","Bharat Petroleum filling station","RVQG+W53, Umdihar","25.8397739","91.8754155"
"ChIJBbrWtDWBWjcRavfNhOMaNFM","IndianOil","Ground Floor Nayabunglow, Umsning","25.741114","91.887986"
"ChIJMUT0dzWCWjcRhDKnaE_Eb7M","ByePass Filling Station BHARAT Petrol Pump","MWWH+2Q2","25.6950013","91.9294055"
"ChIJiZYGFmaBWjcRXdYV3NVFYxY","Hindustan Petroleum Corporation Limited","Ground Floor, Bypass, Umsning","25.7155737","91.88870969999999"
"ChIJGy1TeKuBWjcRqZLmaTYOrVM","M/S IAINEH SERVICE STATION- BPCL PETROL PUMP","NH40, Umtrew","25.7262281","91.8884041"
"ChIJ47R_weKDWjcRNBaGB0iPmAY","IndianOil","Ground Floor Barapani, Umbang, Shillong","25.6846341","91.9013165"
"ChIJMeIBSz2DWjcRXE9dU_bq2Ao","Hindustan Petroleum Corporation Limited","Ground Floor, Umiam","25.6853895","91.9160508"
"ChIJP7nfHTSCWjcRhhKKvpOIOZE","HP","India","25.6917155","91.9254912"
"ChIJEawXbKqdWjcRfysaEsqkhlg","IndianOil","Bhoirymbong","25.7020108","92.0123103"
"ChIJ9cOAXA6dWjcRxuZHy98_RWc","BHOIRYMBONG HP REFILLING CENTRE","P256+3R7, Bhoirymbong","25.7076875","92.0120625"
"ChIJ_w1bw_NzUDcRs3kDBMOPVtc","Bharat Petroleum filling station","G3WJ+7Q6","25.5456519","92.08189340000001"
"ChIJ3Tx6OVd3UDcRgjhbVLPxCQ4","IndianOil","Ground Floor Dewsaw, Mawryngkneng, Kynton-U-Mon","25.56805","92.060634"
"ChIJifnbY6RzUDcRLQAsTJsciqo","Hindustan Petroleum Corporation Limited","Ground Floor, Khyrim, Mawryngkneng","25.551371","92.068501"
"ChIJgQZ5HOJ3UDcRFQdxnizHLU4","IndianOil","Ground Floor, Mawpdang, Mawkhanu,Neigrihms, Mawpdang","25.616976","92.04954"
"ChIJdWK0TagPUDcRFDaoxaiF-xs","Hindustan Petroleum Corporation Limited","Ground Floor, NH 44, Jowai","25.468915","92.2757879"
"ChIJ5TgKqpIPUDcRTZti7Jtxh9M","Reliance Petrol Pump","F79J+JMH, National Highway 6, HynñiewMer","25.4690614","92.28174779999999"
"ChIJG1MMDwAPUDcRAYt0HMeyfPA","7th mile Green hill service station","Bareh, MISN Comp, Yalang, Jowai","25.4677011","92.28659189999999"
"ChIJS9VlBYwPUDcRIz2jyu8mBZ0","IndianOil","Bareh, MISN Comp, Jowai,Yalang, Jowai","25.467609","92.286602"
"ChIJlcjmnzEPUDcRAoOB9FFApMM","Hindustan Petroleum Corporation Limited","Ground Floor, Sohshrieh","25.4556441","92.29083179999999"
"ChIJb1lia3YPUDcR3hf3PBJWjDg","Bharat Petroleum , Tuber Shohshrieh","F74V+JPP, PhraMer","25.456584","92.29433279999999"
"ChIJIWZR3MQPUDcRihBStLLPgGI","HP PETROL PUMP - HATSINGMARI SERVICE STATION","Ladsliya, Ïalong","25.4606116","92.2519623"
"ChIJR2DhG1oFUDcR2cAxVVmbD8s","IndianOil","Ground Floor, Shangpung, Thawai, Langbiang, Yalang","25.4681931","92.3077386"
"ChIJ2QpP7hoOUDcRxLDH6b86RZY","IndianOil","Ground Floor NH 44, Jowai","25.46634999999999","92.23523499999999"
"ChIJVVNK-SEPUDcRrtqcpvqRUSQ","IndianOil","Ground Floor, Jowai,Yalang, Jowai","25.466054","92.231668"
"ChIJwZNc-j4aUDcRjhA2FERB8pg","IndianOil","Ground Floor, Lad Rymbai","25.380229","92.325301"
"ChIJ6UtgerobUDcRKM4HPuiin0A","IndianOil","Ground Floor, Rymbai Road, Tuber, Kmaishnong","25.367084","92.321514"
"ChIJC1r2dXYbUDcReB8Tl4f55lc","NRL Petrol pump","989P+JQ9, National Highway 6, Lad Rymbai","25.3690336","92.3369812"
"ChIJmRkhXL8bUDcR67-fdveyXWg","IndianOil","Ground Floor Mookhep, Tuberkmaishnong, Lad Rymbai","25.386091","92.325394"
"ChIJSU9DJj0bUDcRwLoCYHQPESc","BPCL MOOKHEP","98R9+MVH, Lad Rymbai","25.391689","92.3197306"
"ChIJ507eOVMbUDcRrnVCcPgfD0E","IndianOil","Ground Floor, Rimaji Lad, Sutnga, Khatum, Sutnga","25.3677246","92.3532242"
"ChIJH67xi6YbUDcR_RALds08JX8","IndianOil","Ground Floor, Sutgnamosainlong,Khatum, Myndihati","25.3680963","92.36500219999999"
"ChIJZdQtfz0bUDcRNLq-32haHOs","Swerservicestation","Swerservicestation, Sutnga Road, Dkhiah East","25.3683726","92.3661764"
"ChIJDVtnmVsZUDcRoibHwcLrkdw","IndianOil","National Highway 44, Khliehriāt","25.3512128","92.36750270000002"
"ChIJse0pcuIbUDcRMPaDKBFWzt0","IndianOil","Ground Floor, Wapung,Tuber Kmaishnong, Wapung Skur","25.4118001","92.305201"
"ChIJ_6mNDHojUDcRaEZkcmPHh4k","IndianOil","Ground Floor, Nongsning","25.2520284","92.3793693"
"ChIJxSS1st0jUDcR5mBTNHG7OJE","Raza tyre","Md Bismil Raza, Lumshnong","25.24696699999999","92.3767084"
"ChIJi6P-MB8iUDcRJKqku9SjfPA","IOC Pump - Bharat petroleum","69VG+6Q6, Shiehruphi","25.2430383","92.3769042"
"ChIJj20EVAAjUDcRe289G9hJgUo","Anil meghalaya","69VG+3F8, Nongsning","25.2426048","92.3761098"
"ChIJtbwYp5oZUDcROuSHWwz_61I","Bharat Petroleum, Petrol Pump - NES Byndihati","BYNDIHATI, WEST JAINTIA HILLS","25.30436899999999","92.3799293"
"ChIJB8LFPasmUDcRRi3eEIFHw-8","Petrol Pump","599M+9VP","25.1684546","92.3847017"
"ChIJC5T6DQAkUDcRwM7NcKtESQA","IndianOil","Ground Floor, Umsahi Elaka, Nongpluh, Lumshnong","25.169374","92.38048599999999"
"ChIJo83Iw3MlUDcR_JGIW5ftH2w","Hindustan Petroleum Corporation Limited","Ground Floor, National Highway 6, Umkiang, Tongseng","25.14115199999999","92.379016"
"ChIJywYYUnYjUDcROmYo8BOYdAg","IndianOil - SWAGAT","Ground Floor, Lumshnong","25.1693469","92.3900511"
"ChIJ_7IT6v4jUDcRRx9K_XnRe6E","Hindustan Petroleum Corporation Limited","Ground Floor Laskein, Elaka Narpuh, Lumshnong","25.174141","92.377471"
"ChIJDSajJCooUDcRDx1YA_LlUKE","IndianOil","Ground Floor, Elaka, Ratacherra, Malidor","25.031693","92.458676"
"ChIJTU5iZSkoUDcR3_nqVNvDfzs","NRL filling station","National Highway 6, Lakhicherra Khasia Punjee","25.0330487","92.4572206"
"ChIJGY435Xg1TjcRedP2a9cHA7I","IndianOil","Ground Floor Ramnagar, Chirukandi, Silchar","24.83347999999999","92.771309"
"ChIJ1SNpBXRKTjcRTFuOpnPUS5o","IndianOil","Ground Floor Cachar, CR Avenue, Silchar","24.8124448","92.78240459999999"
"ChIJF2RAfvhKTjcRC_a778-KEOM","IndianOil","Ground Floor, Arkatipur, Rongpur, Silchar","24.830727","92.81023599999999"
"ChIJofQU33g1TjcRQNbKjSyPg7s","IndianOil","Ground Floor Tarapur, PT 7, Ramnagar, Silchar","24.834167","92.772089"
"ChIJn7NnPn1KTjcRpAIz-k1TNlM","IndianOil","Ground Floor, Tarapur, Chirukandi, near Railway Station, Silchar","24.8292516","92.7868111"
"ChIJH4OmSgBLTjcRLEXR1Fu3tnk","Petrol pump","RQQQ+VJX, Dudhpatil Pt V","24.839727","92.789096"
"ChIJd5254olKTjcRHryFhyWvusM","IndianOil","Ground Floor Chirukandi, Sadarghat, Tarapur, Silchar","24.830931","92.792171"
"ChIJJ3OSDQBLTjcRVn65boEW-tE","Indian oil","RQWP+J7C, Ramnagar, Silchar","24.84656720000001","92.7856491"
"ChIJMTYQsF9KTjcRVbgLXXXPSMo","IndianOil","Ground Floor, near Debdoot Cinema Hall, Central Road, Dewanji Bazar, Silchar","24.828324","92.79964400000001"
"ChIJPW7QKQBLTjcR_cxxPgGt6aw","GEEPEE INDANE NEW UPDATED","RQ6H+VXV, Radha Madhab Path, Tarapur, Ambicapur Pt VIII","24.812248","92.77990690000001"
"ChIJ01LVmWNLTjcRefec0LAgdDE","IndianOil","Ground Floor Premtola, Dewanji Bazar, Silchar","24.821698","92.79895200000001"
"ChIJPbi3MkVLTjcR0UH86JMPfzc","B SANGCHEMA FILLING STATION","22, Itkhola, Bazar, Silchar","24.8364759","92.8028487"
"ChIJ36vepmJLTjcRGwxbAUxwAKM","DHALESWARI FILLING STATION","HAILAKANDI","24.80871920000001","92.79125049999999"
"ChIJKZWqWWpKTjcRzHEjwtqcjuQ","Silchar Automobiles (INDIAN OIL PETROL PUMP)","RQ6W+6JR, NS Avenue, Rangirkhari, Silchar","24.81060849999999","92.7965104"
"ChIJsW4x8kJKTjcR1gaMl2yex9Q","IndianOil","Ground Floor, N S Avenue, CR Avenue, Silchar","24.8101319","92.79613049999999"
"ChIJ8RN3ZOU1TjcRkE2hrfF0jC4","IndianOil","Ground Floor, Topkhana, Silchar,Arunachal, Nischintapur","24.855585","92.761318"
"ChIJozI2sqk1TjcRVR-IK6Y8caY","Reliance Petroleum","Dag No109, Patta No33, Potarapurkhelma, Ramnagar, Silchar","24.829573","92.74522600000002"
"ChIJb6Sf6RRKTjcRbDReLajZ18A","M/s A.S.T.C. Silchar Energy Station","RQ4W+42W, Meherpur Road, Birbal Bazar, Silchar","24.8053535","92.79507770000001"
"ChIJF2RAfvhKTjcRAtRdUoqJ-ow","IndianOil","Ground Floor, Rongpur, Arkatipur","24.832268","92.814864"
"ChIJrXMb72pLTjcRcfqPykevA8k","J RAMA FILLING STATION","J Rama Filling Station College Veng, 12, Silchar","24.8054424","92.8006272"